<?xml version="1.0" encoding="UTF-8"?>
<gpx version="1.1" creator="kr-100-mountains route-harvester"
     xmlns="http://www.topografix.com/GPX/1/1"
     xmlns:k100="https://github.com/jay-jang/kr-100-mountains/ns/1"
     xmlns:xsi="http://www.w3.org/2001/XMLSchema-instance"
     xsi:schemaLocation="http://www.topografix.com/GPX/1/1 http://www.topografix.com/GPX/1/1/gpx.xsd">
  <metadata>
    <name>수리산 · 수암봉 코스 (대안 2) (OSM 계산 경로)</name>
    <desc>실제 GPS 기록이 아닙니다. OpenStreetMap에 등록된 등산로 선형 위에서 계산한 경로이며, 현장 통제·훼손·출입 제한·계절 통제를 반영하지 않을 수 있습니다. 산행 전 공식 안내를 확인하세요.</desc>
    <time>2026-08-04T05:18:43.721Z</time>
    <link href="https://www.openstreetmap.org/copyright"><text>© OpenStreetMap contributors (ODbL 1.0)</text></link>
    <link href="https://registry.opendata.aws/terrain-tiles/"><text>Elevation: SRTM 1 arc-second (NASA/USGS) via AWS Terrain Tiles</text></link>
    <extensions>
      <k100:provenance>osm-routed</k100:provenance>
      <k100:not_a_recorded_track>true</k100:not_a_recorded_track>
      <k100:mountain_id>surisan</k100:mountain_id>
      <k100:mountain_name>수리산</k100:mountain_name>
      <k100:route_id>surisan-cacbbae7</k100:route_id>
      <k100:route_index>3</k100:route_index>
      <k100:route_name>수암봉 코스</k100:route_name>
      <k100:variant>2</k100:variant>
      <k100:source>OpenStreetMap via Overpass API</k100:source>
      <k100:license>ODbL-1.0</k100:license>
      <k100:attribution>© OpenStreetMap contributors</k100:attribution>
      <k100:elevation_source>SRTM 1 arc-second (NASA/USGS) — AWS Terrain Tiles 배포본. 지형 DEM 추정 고도이며 실측 아님</k100:elevation_source>
      <k100:algorithm>dijkstra-grid-v1</k100:algorithm>
      <k100:osm_snapshot>2026-08-04</k100:osm_snapshot>
      <k100:snap_trailhead_m>3</k100:snap_trailhead_m>
      <k100:snap_summit_m>31</k100:snap_summit_m>
      <k100:validation_score>84</k100:validation_score>
      <k100:validation_status>accepted</k100:validation_status>
    </extensions>
  </metadata>
  <trk>
    <name>수리산 · 수암봉 코스 (대안 2) (OSM 계산 경로)</name>
    <desc>실제 GPS 기록이 아닙니다. OpenStreetMap에 등록된 등산로 선형 위에서 계산한 경로이며, 현장 통제·훼손·출입 제한·계절 통제를 반영하지 않을 수 있습니다. 산행 전 공식 안내를 확인하세요.</desc>
    <trkseg>
      <trkpt lat="37.354016" lon="126.896778"><ele>231.8</ele></trkpt>
      <trkpt lat="37.353873" lon="126.896541"><ele>233.8</ele></trkpt>
      <trkpt lat="37.353972" lon="126.896422"><ele>238.4</ele></trkpt>
      <trkpt lat="37.353484" lon="126.895697"><ele>266.3</ele></trkpt>
      <trkpt lat="37.353443" lon="126.895132"><ele>288.7</ele></trkpt>
      <trkpt lat="37.353128" lon="126.894490"><ele>310.1</ele></trkpt>
      <trkpt lat="37.353145" lon="126.894246"><ele>310.4</ele></trkpt>
      <trkpt lat="37.353185" lon="126.894198"><ele>311.7</ele></trkpt>
      <trkpt lat="37.353763" lon="126.894075"><ele>326.7</ele></trkpt>
      <trkpt lat="37.353844" lon="126.894150"><ele>329.0</ele></trkpt>
      <trkpt lat="37.354080" lon="126.894203"><ele>330.6</ele></trkpt>
      <trkpt lat="37.354533" lon="126.894206"><ele>336.4</ele></trkpt>
      <trkpt lat="37.354981" lon="126.894017"><ele>349.8</ele></trkpt>
      <trkpt lat="37.355363" lon="126.893991"><ele>359.4</ele></trkpt>
      <trkpt lat="37.355799" lon="126.894218"><ele>369.3</ele></trkpt>
      <trkpt lat="37.356257" lon="126.894927"><ele>383.0</ele></trkpt>
      <trkpt lat="37.356296" lon="126.895187"><ele>388.3</ele></trkpt>
      <trkpt lat="37.356777" lon="126.896180"><ele>394.3</ele></trkpt>
      <trkpt lat="37.357540" lon="126.896790"><ele>395.4</ele></trkpt>
      <trkpt lat="37.358120" lon="126.896993"><ele>412.3</ele></trkpt>
      <trkpt lat="37.358308" lon="126.896969"><ele>411.1</ele></trkpt>
      <trkpt lat="37.358313" lon="126.896903"><ele>408.3</ele></trkpt>
      <trkpt lat="37.358415" lon="126.896843"><ele>403.4</ele></trkpt>
      <trkpt lat="37.358581" lon="126.896856"><ele>399.3</ele></trkpt>
      <trkpt lat="37.358628" lon="126.896717"><ele>392.4</ele></trkpt>
      <trkpt lat="37.358871" lon="126.896725"><ele>385.0</ele></trkpt>
      <trkpt lat="37.358905" lon="126.896556"><ele>378.4</ele></trkpt>
      <trkpt lat="37.359025" lon="126.896498"><ele>371.9</ele></trkpt>
      <trkpt lat="37.359223" lon="126.896169"><ele>354.5</ele></trkpt>
      <trkpt lat="37.359434" lon="126.895960"><ele>347.2</ele></trkpt>
      <trkpt lat="37.359809" lon="126.895918"><ele>349.3</ele></trkpt>
      <trkpt lat="37.359937" lon="126.895824"><ele>350.9</ele></trkpt>
      <trkpt lat="37.360064" lon="126.895827"><ele>351.2</ele></trkpt>
      <trkpt lat="37.360711" lon="126.895590"><ele>343.6</ele></trkpt>
      <trkpt lat="37.361223" lon="126.895503"><ele>333.9</ele></trkpt>
      <trkpt lat="37.361697" lon="126.895591"><ele>338.5</ele></trkpt>
      <trkpt lat="37.361897" lon="126.895511"><ele>341.6</ele></trkpt>
      <trkpt lat="37.362022" lon="126.895391"><ele>342.5</ele></trkpt>
      <trkpt lat="37.362172" lon="126.895357"><ele>344.7</ele></trkpt>
      <trkpt lat="37.362334" lon="126.895428"><ele>346.5</ele></trkpt>
      <trkpt lat="37.362468" lon="126.895402"><ele>346.8</ele></trkpt>
      <trkpt lat="37.362613" lon="126.895532"><ele>349.0</ele></trkpt>
      <trkpt lat="37.362938" lon="126.895518"><ele>351.0</ele></trkpt>
      <trkpt lat="37.363217" lon="126.895295"><ele>349.8</ele></trkpt>
      <trkpt lat="37.363327" lon="126.895327"><ele>350.6</ele></trkpt>
      <trkpt lat="37.363741" lon="126.895164"><ele>343.1</ele></trkpt>
      <trkpt lat="37.364054" lon="126.894871"><ele>334.3</ele></trkpt>
      <trkpt lat="37.364320" lon="126.895005"><ele>332.4</ele></trkpt>
      <trkpt lat="37.364453" lon="126.894954"><ele>327.2</ele></trkpt>
      <trkpt lat="37.364580" lon="126.895013"><ele>323.5</ele></trkpt>
      <trkpt lat="37.365238" lon="126.894967"><ele>311.9</ele></trkpt>
      <trkpt lat="37.365444" lon="126.895123"><ele>308.7</ele></trkpt>
      <trkpt lat="37.366020" lon="126.895279"><ele>305.0</ele></trkpt>
      <trkpt lat="37.366207" lon="126.895496"><ele>300.2</ele></trkpt>
      <trkpt lat="37.366320" lon="126.895888"><ele>296.3</ele></trkpt>
      <trkpt lat="37.366363" lon="126.896408"><ele>295.5</ele></trkpt>
      <trkpt lat="37.366465" lon="126.896912"><ele>296.2</ele></trkpt>
      <trkpt lat="37.366606" lon="126.897181"><ele>296.0</ele></trkpt>
      <trkpt lat="37.366985" lon="126.897551"><ele>296.9</ele></trkpt>
      <trkpt lat="37.367045" lon="126.897942"><ele>294.7</ele></trkpt>
      <trkpt lat="37.367369" lon="126.898484"><ele>305.5</ele></trkpt>
      <trkpt lat="37.367309" lon="126.899294"><ele>317.7</ele></trkpt>
      <trkpt lat="37.367352" lon="126.899616"><ele>317.8</ele></trkpt>
      <trkpt lat="37.367646" lon="126.900013"><ele>315.8</ele></trkpt>
      <trkpt lat="37.367910" lon="126.900925"><ele>296.2</ele></trkpt>
      <trkpt lat="37.368298" lon="126.901386"><ele>292.1</ele></trkpt>
      <trkpt lat="37.368780" lon="126.901714"><ele>269.7</ele></trkpt>
      <trkpt lat="37.368998" lon="126.902529"><ele>242.5</ele></trkpt>
      <trkpt lat="37.369232" lon="126.902980"><ele>226.6</ele></trkpt>
      <trkpt lat="37.369411" lon="126.903146"><ele>216.1</ele></trkpt>
      <trkpt lat="37.369889" lon="126.903216"><ele>194.2</ele></trkpt>
      <trkpt lat="37.370528" lon="126.903505"><ele>160.7</ele></trkpt>
      <trkpt lat="37.370784" lon="126.904015"><ele>143.4</ele></trkpt>
      <trkpt lat="37.370899" lon="126.904466"><ele>132.8</ele></trkpt>
      <trkpt lat="37.371018" lon="126.904621"><ele>124.4</ele></trkpt>
      <trkpt lat="37.371140" lon="126.905078"><ele>117.9</ele></trkpt>
      <trkpt lat="37.370603" lon="126.905516"><ele>127.6</ele></trkpt>
      <trkpt lat="37.370803" lon="126.905713"><ele>124.3</ele></trkpt>
      <trkpt lat="37.371067" lon="126.905785"><ele>128.3</ele></trkpt>
      <trkpt lat="37.371257" lon="126.906091"><ele>140.1</ele></trkpt>
      <trkpt lat="37.371517" lon="126.906343"><ele>148.2</ele></trkpt>
      <trkpt lat="37.371703" lon="126.906657"><ele>158.8</ele></trkpt>
      <trkpt lat="37.371752" lon="126.906802"><ele>163.4</ele></trkpt>
      <trkpt lat="37.371726" lon="126.907121"><ele>170.0</ele></trkpt>
      <trkpt lat="37.371852" lon="126.907314"><ele>175.3</ele></trkpt>
      <trkpt lat="37.371871" lon="126.907467"><ele>179.8</ele></trkpt>
      <trkpt lat="37.372044" lon="126.907674"><ele>188.7</ele></trkpt>
      <trkpt lat="37.372302" lon="126.908451"><ele>211.6</ele></trkpt>
      <trkpt lat="37.372293" lon="126.908773"><ele>226.1</ele></trkpt>
      <trkpt lat="37.372378" lon="126.909310"><ele>247.4</ele></trkpt>
      <trkpt lat="37.372481" lon="126.909556"><ele>254.7</ele></trkpt>
      <trkpt lat="37.372404" lon="126.909892"><ele>270.1</ele></trkpt>
      <trkpt lat="37.372117" lon="126.910618"><ele>297.6</ele></trkpt>
      <trkpt lat="37.372148" lon="126.910860"><ele>306.1</ele></trkpt>
      <trkpt lat="37.371990" lon="126.911919"><ele>376.0</ele></trkpt>
      <trkpt lat="37.372033" lon="126.912523"><ele>406.3</ele></trkpt>
      <trkpt lat="37.372157" lon="126.912646"><ele>412.3</ele></trkpt>
      <trkpt lat="37.372203" lon="126.912866"><ele>423.0</ele></trkpt>
      <trkpt lat="37.372134" lon="126.913100"><ele>434.9</ele></trkpt>
      <trkpt lat="37.372359" lon="126.913423"><ele>449.5</ele></trkpt>
      <trkpt lat="37.372459" lon="126.913432"><ele>451.5</ele></trkpt>
      <trkpt lat="37.372667" lon="126.913764"><ele>466.1</ele></trkpt>
      <trkpt lat="37.372938" lon="126.913946"><ele>474.6</ele></trkpt>
      <trkpt lat="37.372765" lon="126.914248"><ele>477.9</ele></trkpt>
      <trkpt lat="37.372545" lon="126.914918"><ele>461.1</ele></trkpt>
      <trkpt lat="37.372473" lon="126.914946"><ele>458.9</ele></trkpt>
      <trkpt lat="37.372380" lon="126.915338"><ele>444.0</ele></trkpt>
      <trkpt lat="37.372363" lon="126.915646"><ele>424.8</ele></trkpt>
      <trkpt lat="37.372253" lon="126.915811"><ele>414.6</ele></trkpt>
      <trkpt lat="37.372276" lon="126.916318"><ele>403.3</ele></trkpt>
      <trkpt lat="37.372225" lon="126.916369"><ele>402.2</ele></trkpt>
      <trkpt lat="37.372167" lon="126.916624"><ele>387.5</ele></trkpt>
      <trkpt lat="37.372272" lon="126.916957"><ele>372.2</ele></trkpt>
      <trkpt lat="37.372144" lon="126.917844"><ele>345.9</ele></trkpt>
      <trkpt lat="37.372257" lon="126.918389"><ele>316.2</ele></trkpt>
      <trkpt lat="37.372044" lon="126.920181"><ele>256.7</ele></trkpt>
      <trkpt lat="37.372112" lon="126.921152"><ele>219.1</ele></trkpt>
      <trkpt lat="37.371831" lon="126.922552"><ele>184.1</ele></trkpt>
      <trkpt lat="37.371843" lon="126.922970"><ele>170.0</ele></trkpt>
      <trkpt lat="37.371903" lon="126.923069"><ele>166.7</ele></trkpt>
      <trkpt lat="37.371752" lon="126.923769"><ele>146.7</ele></trkpt>
      <trkpt lat="37.371786" lon="126.923885"><ele>142.8</ele></trkpt>
      <trkpt lat="37.372054" lon="126.924217"><ele>135.3</ele></trkpt>
      <trkpt lat="37.372052" lon="126.924966"><ele>122.4</ele></trkpt>
      <trkpt lat="37.372265" lon="126.925154"><ele>123.0</ele></trkpt>
      <trkpt lat="37.372228" lon="126.925435"><ele>118.7</ele></trkpt>
      <trkpt lat="37.372120" lon="126.925627"><ele>111.2</ele></trkpt>
      <trkpt lat="37.372321" lon="126.925839"><ele>110.4</ele></trkpt>
      <trkpt lat="37.372097" lon="126.926875"><ele>96.6</ele></trkpt>
      <trkpt lat="37.372199" lon="126.927088"><ele>93.8</ele></trkpt>
      <trkpt lat="37.372172" lon="126.927245"><ele>91.5</ele></trkpt>
      <trkpt lat="37.372071" lon="126.927442"><ele>89.1</ele></trkpt>
      <trkpt lat="37.372099" lon="126.927606"><ele>88.1</ele></trkpt>
      <trkpt lat="37.372002" lon="126.927918"><ele>87.0</ele></trkpt>
      <trkpt lat="37.371731" lon="126.928272"><ele>90.5</ele></trkpt>
      <trkpt lat="37.371820" lon="126.928370"><ele>86.8</ele></trkpt>
      <trkpt lat="37.372335" lon="126.928665"><ele>81.2</ele></trkpt>
      <trkpt lat="37.371940" lon="126.929819"><ele>76.3</ele></trkpt>
    </trkseg>
  </trk>
</gpx>
