<?xml version="1.0" encoding="UTF-8"?>
<gpx version="1.1" creator="kr-100-mountains route-harvester"
     xmlns="http://www.topografix.com/GPX/1/1"
     xmlns:k100="https://github.com/jay-jang/kr-100-mountains/ns/1"
     xmlns:xsi="http://www.w3.org/2001/XMLSchema-instance"
     xsi:schemaLocation="http://www.topografix.com/GPX/1/1 http://www.topografix.com/GPX/1/1/gpx.xsd">
  <metadata>
    <name>수리산 · 수암봉 코스 (대안 1) (OSM 계산 경로)</name>
    <desc>실제 GPS 기록이 아닙니다. OpenStreetMap에 등록된 등산로 선형 위에서 계산한 경로이며, 현장 통제·훼손·출입 제한·계절 통제를 반영하지 않을 수 있습니다. 산행 전 공식 안내를 확인하세요.</desc>
    <time>2026-08-04T05:18:43.720Z</time>
    <link href="https://www.openstreetmap.org/copyright"><text>© OpenStreetMap contributors (ODbL 1.0)</text></link>
    <link href="https://registry.opendata.aws/terrain-tiles/"><text>Elevation: SRTM 1 arc-second (NASA/USGS) via AWS Terrain Tiles</text></link>
    <extensions>
      <k100:provenance>osm-routed</k100:provenance>
      <k100:not_a_recorded_track>true</k100:not_a_recorded_track>
      <k100:mountain_id>surisan</k100:mountain_id>
      <k100:mountain_name>수리산</k100:mountain_name>
      <k100:route_id>surisan-cacbbae7</k100:route_id>
      <k100:route_index>3</k100:route_index>
      <k100:route_name>수암봉 코스</k100:route_name>
      <k100:variant>1</k100:variant>
      <k100:source>OpenStreetMap via Overpass API</k100:source>
      <k100:license>ODbL-1.0</k100:license>
      <k100:attribution>© OpenStreetMap contributors</k100:attribution>
      <k100:elevation_source>SRTM 1 arc-second (NASA/USGS) — AWS Terrain Tiles 배포본. 지형 DEM 추정 고도이며 실측 아님</k100:elevation_source>
      <k100:algorithm>dijkstra-grid-v1</k100:algorithm>
      <k100:osm_snapshot>2026-08-04</k100:osm_snapshot>
      <k100:snap_trailhead_m>3</k100:snap_trailhead_m>
      <k100:snap_summit_m>31</k100:snap_summit_m>
      <k100:validation_score>75</k100:validation_score>
      <k100:validation_status>review</k100:validation_status>
    </extensions>
  </metadata>
  <trk>
    <name>수리산 · 수암봉 코스 (대안 1) (OSM 계산 경로)</name>
    <desc>실제 GPS 기록이 아닙니다. OpenStreetMap에 등록된 등산로 선형 위에서 계산한 경로이며, 현장 통제·훼손·출입 제한·계절 통제를 반영하지 않을 수 있습니다. 산행 전 공식 안내를 확인하세요.</desc>
    <trkseg>
      <trkpt lat="37.354016" lon="126.896778"><ele>231.8</ele></trkpt>
      <trkpt lat="37.354047" lon="126.896955"><ele>228.7</ele></trkpt>
      <trkpt lat="37.353810" lon="126.896875"><ele>226.4</ele></trkpt>
      <trkpt lat="37.353580" lon="126.897065"><ele>221.8</ele></trkpt>
      <trkpt lat="37.353556" lon="126.897120"><ele>221.0</ele></trkpt>
      <trkpt lat="37.353608" lon="126.897462"><ele>212.7</ele></trkpt>
      <trkpt lat="37.353375" lon="126.897707"><ele>214.0</ele></trkpt>
      <trkpt lat="37.353162" lon="126.897749"><ele>210.8</ele></trkpt>
      <trkpt lat="37.352912" lon="126.897982"><ele>202.5</ele></trkpt>
      <trkpt lat="37.352384" lon="126.898860"><ele>181.4</ele></trkpt>
      <trkpt lat="37.351999" lon="126.899209"><ele>169.2</ele></trkpt>
      <trkpt lat="37.351887" lon="126.899587"><ele>172.5</ele></trkpt>
      <trkpt lat="37.351741" lon="126.899645"><ele>167.1</ele></trkpt>
      <trkpt lat="37.351537" lon="126.899607"><ele>161.8</ele></trkpt>
      <trkpt lat="37.351290" lon="126.899362"><ele>157.0</ele></trkpt>
      <trkpt lat="37.351184" lon="126.899338"><ele>157.1</ele></trkpt>
      <trkpt lat="37.350891" lon="126.899419"><ele>155.1</ele></trkpt>
      <trkpt lat="37.350530" lon="126.899620"><ele>145.3</ele></trkpt>
      <trkpt lat="37.350415" lon="126.899742"><ele>140.7</ele></trkpt>
      <trkpt lat="37.350222" lon="126.900135"><ele>141.6</ele></trkpt>
      <trkpt lat="37.350112" lon="126.900267"><ele>139.6</ele></trkpt>
      <trkpt lat="37.349952" lon="126.900337"><ele>135.6</ele></trkpt>
      <trkpt lat="37.349464" lon="126.901163"><ele>130.1</ele></trkpt>
      <trkpt lat="37.349681" lon="126.901944"><ele>139.4</ele></trkpt>
      <trkpt lat="37.349598" lon="126.902233"><ele>137.3</ele></trkpt>
      <trkpt lat="37.349613" lon="126.902555"><ele>140.0</ele></trkpt>
      <trkpt lat="37.349799" lon="126.902936"><ele>149.6</ele></trkpt>
      <trkpt lat="37.349936" lon="126.903616"><ele>153.3</ele></trkpt>
      <trkpt lat="37.349935" lon="126.903895"><ele>152.9</ele></trkpt>
      <trkpt lat="37.350043" lon="126.904159"><ele>155.6</ele></trkpt>
      <trkpt lat="37.350215" lon="126.904309"><ele>160.6</ele></trkpt>
      <trkpt lat="37.350471" lon="126.904429"><ele>165.8</ele></trkpt>
      <trkpt lat="37.350744" lon="126.904377"><ele>176.1</ele></trkpt>
      <trkpt lat="37.350840" lon="126.904408"><ele>177.7</ele></trkpt>
      <trkpt lat="37.351081" lon="126.904885"><ele>171.3</ele></trkpt>
      <trkpt lat="37.351185" lon="126.904994"><ele>170.0</ele></trkpt>
      <trkpt lat="37.351458" lon="126.905129"><ele>168.5</ele></trkpt>
      <trkpt lat="37.351886" lon="126.905092"><ele>175.5</ele></trkpt>
      <trkpt lat="37.352066" lon="126.904952"><ele>181.8</ele></trkpt>
      <trkpt lat="37.352313" lon="126.904646"><ele>189.8</ele></trkpt>
      <trkpt lat="37.352850" lon="126.904448"><ele>190.0</ele></trkpt>
      <trkpt lat="37.352909" lon="126.904487"><ele>190.9</ele></trkpt>
      <trkpt lat="37.352938" lon="126.904564"><ele>191.4</ele></trkpt>
      <trkpt lat="37.352870" lon="126.905423"><ele>190.7</ele></trkpt>
      <trkpt lat="37.352746" lon="126.905983"><ele>185.4</ele></trkpt>
      <trkpt lat="37.352779" lon="126.906112"><ele>187.0</ele></trkpt>
      <trkpt lat="37.352860" lon="126.906215"><ele>187.2</ele></trkpt>
      <trkpt lat="37.353434" lon="126.906281"><ele>201.8</ele></trkpt>
      <trkpt lat="37.353551" lon="126.906445"><ele>204.0</ele></trkpt>
      <trkpt lat="37.353589" lon="126.906948"><ele>201.1</ele></trkpt>
      <trkpt lat="37.354001" lon="126.907214"><ele>211.9</ele></trkpt>
      <trkpt lat="37.354334" lon="126.907540"><ele>217.1</ele></trkpt>
      <trkpt lat="37.354358" lon="126.907635"><ele>217.7</ele></trkpt>
      <trkpt lat="37.354293" lon="126.907873"><ele>217.0</ele></trkpt>
      <trkpt lat="37.354101" lon="126.908181"><ele>216.1</ele></trkpt>
      <trkpt lat="37.353180" lon="126.908691"><ele>219.3</ele></trkpt>
      <trkpt lat="37.352859" lon="126.908725"><ele>214.9</ele></trkpt>
      <trkpt lat="37.352466" lon="126.909547"><ele>212.4</ele></trkpt>
      <trkpt lat="37.352362" lon="126.909665"><ele>211.5</ele></trkpt>
      <trkpt lat="37.352249" lon="126.909706"><ele>211.0</ele></trkpt>
      <trkpt lat="37.352405" lon="126.909921"><ele>209.0</ele></trkpt>
      <trkpt lat="37.352765" lon="126.910103"><ele>204.1</ele></trkpt>
      <trkpt lat="37.352868" lon="126.910288"><ele>198.4</ele></trkpt>
      <trkpt lat="37.353037" lon="126.910374"><ele>195.3</ele></trkpt>
      <trkpt lat="37.353176" lon="126.910526"><ele>190.4</ele></trkpt>
      <trkpt lat="37.353269" lon="126.910485"><ele>191.1</ele></trkpt>
      <trkpt lat="37.353359" lon="126.910234"><ele>196.8</ele></trkpt>
      <trkpt lat="37.353441" lon="126.910130"><ele>198.9</ele></trkpt>
      <trkpt lat="37.353942" lon="126.910149"><ele>189.7</ele></trkpt>
      <trkpt lat="37.354204" lon="126.909990"><ele>194.3</ele></trkpt>
      <trkpt lat="37.354360" lon="126.910045"><ele>192.9</ele></trkpt>
      <trkpt lat="37.354562" lon="126.910216"><ele>188.9</ele></trkpt>
      <trkpt lat="37.354882" lon="126.910872"><ele>175.9</ele></trkpt>
      <trkpt lat="37.355715" lon="126.913034"><ele>143.6</ele></trkpt>
      <trkpt lat="37.356518" lon="126.916295"><ele>107.4</ele></trkpt>
      <trkpt lat="37.356712" lon="126.916379"><ele>108.4</ele></trkpt>
      <trkpt lat="37.356304" lon="126.916899"><ele>106.9</ele></trkpt>
      <trkpt lat="37.356306" lon="126.917319"><ele>105.1</ele></trkpt>
      <trkpt lat="37.356462" lon="126.917543"><ele>104.3</ele></trkpt>
      <trkpt lat="37.356459" lon="126.918170"><ele>102.7</ele></trkpt>
      <trkpt lat="37.356558" lon="126.918244"><ele>103.3</ele></trkpt>
      <trkpt lat="37.356542" lon="126.919305"><ele>102.7</ele></trkpt>
      <trkpt lat="37.356627" lon="126.919551"><ele>100.5</ele></trkpt>
      <trkpt lat="37.356825" lon="126.919746"><ele>99.8</ele></trkpt>
      <trkpt lat="37.356829" lon="126.920539"><ele>107.3</ele></trkpt>
      <trkpt lat="37.356898" lon="126.920721"><ele>110.0</ele></trkpt>
      <trkpt lat="37.357075" lon="126.921029"><ele>113.1</ele></trkpt>
      <trkpt lat="37.357270" lon="126.921041"><ele>112.9</ele></trkpt>
      <trkpt lat="37.357391" lon="126.920951"><ele>108.1</ele></trkpt>
      <trkpt lat="37.357506" lon="126.921029"><ele>106.8</ele></trkpt>
      <trkpt lat="37.357512" lon="126.921244"><ele>109.1</ele></trkpt>
      <trkpt lat="37.357655" lon="126.921533"><ele>105.9</ele></trkpt>
      <trkpt lat="37.357960" lon="126.921845"><ele>98.2</ele></trkpt>
      <trkpt lat="37.358064" lon="126.921848"><ele>94.5</ele></trkpt>
      <trkpt lat="37.358091" lon="126.921736"><ele>96.1</ele></trkpt>
      <trkpt lat="37.358275" lon="126.921607"><ele>95.7</ele></trkpt>
      <trkpt lat="37.358737" lon="126.921641"><ele>83.0</ele></trkpt>
      <trkpt lat="37.358807" lon="126.921820"><ele>76.0</ele></trkpt>
      <trkpt lat="37.358946" lon="126.921846"><ele>74.1</ele></trkpt>
      <trkpt lat="37.358997" lon="126.921963"><ele>72.8</ele></trkpt>
      <trkpt lat="37.359434" lon="126.921790"><ele>81.3</ele></trkpt>
      <trkpt lat="37.359529" lon="126.922144"><ele>83.5</ele></trkpt>
      <trkpt lat="37.360281" lon="126.922044"><ele>85.0</ele></trkpt>
      <trkpt lat="37.360915" lon="126.922121"><ele>83.3</ele></trkpt>
      <trkpt lat="37.360712" lon="126.923202"><ele>77.2</ele></trkpt>
      <trkpt lat="37.360761" lon="126.923434"><ele>75.3</ele></trkpt>
      <trkpt lat="37.360532" lon="126.925315"><ele>70.1</ele></trkpt>
      <trkpt lat="37.360762" lon="126.925289"><ele>73.1</ele></trkpt>
      <trkpt lat="37.360822" lon="126.924842"><ele>74.0</ele></trkpt>
      <trkpt lat="37.361142" lon="126.924914"><ele>76.2</ele></trkpt>
      <trkpt lat="37.361499" lon="126.925437"><ele>77.5</ele></trkpt>
      <trkpt lat="37.361607" lon="126.925722"><ele>76.5</ele></trkpt>
      <trkpt lat="37.361853" lon="126.925517"><ele>79.7</ele></trkpt>
      <trkpt lat="37.362069" lon="126.925461"><ele>80.0</ele></trkpt>
      <trkpt lat="37.362538" lon="126.925826"><ele>81.9</ele></trkpt>
      <trkpt lat="37.363025" lon="126.926745"><ele>68.7</ele></trkpt>
      <trkpt lat="37.363096" lon="126.926687"><ele>68.8</ele></trkpt>
      <trkpt lat="37.363743" lon="126.927872"><ele>67.5</ele></trkpt>
      <trkpt lat="37.363912" lon="126.927983"><ele>66.5</ele></trkpt>
      <trkpt lat="37.363939" lon="126.928486"><ele>60.6</ele></trkpt>
      <trkpt lat="37.364016" lon="126.928701"><ele>59.0</ele></trkpt>
      <trkpt lat="37.363846" lon="126.928843"><ele>58.8</ele></trkpt>
      <trkpt lat="37.363682" lon="126.929087"><ele>58.5</ele></trkpt>
      <trkpt lat="37.363803" lon="126.929326"><ele>57.0</ele></trkpt>
      <trkpt lat="37.364051" lon="126.929256"><ele>57.6</ele></trkpt>
      <trkpt lat="37.364250" lon="126.929094"><ele>57.6</ele></trkpt>
      <trkpt lat="37.364491" lon="126.929537"><ele>59.1</ele></trkpt>
      <trkpt lat="37.365486" lon="126.928692"><ele>65.3</ele></trkpt>
      <trkpt lat="37.365506" lon="126.928520"><ele>64.7</ele></trkpt>
      <trkpt lat="37.365569" lon="126.928440"><ele>64.3</ele></trkpt>
      <trkpt lat="37.365965" lon="126.928559"><ele>64.8</ele></trkpt>
      <trkpt lat="37.366286" lon="126.928209"><ele>66.3</ele></trkpt>
      <trkpt lat="37.366544" lon="126.928147"><ele>68.9</ele></trkpt>
      <trkpt lat="37.366655" lon="126.928309"><ele>70.8</ele></trkpt>
      <trkpt lat="37.366863" lon="126.928138"><ele>73.6</ele></trkpt>
      <trkpt lat="37.367141" lon="126.928407"><ele>77.9</ele></trkpt>
      <trkpt lat="37.367275" lon="126.928685"><ele>80.6</ele></trkpt>
      <trkpt lat="37.367509" lon="126.928948"><ele>87.0</ele></trkpt>
      <trkpt lat="37.367637" lon="126.928850"><ele>88.0</ele></trkpt>
      <trkpt lat="37.369076" lon="126.930550"><ele>73.6</ele></trkpt>
      <trkpt lat="37.369414" lon="126.930727"><ele>74.5</ele></trkpt>
      <trkpt lat="37.369807" lon="126.931169"><ele>76.1</ele></trkpt>
      <trkpt lat="37.369600" lon="126.931466"><ele>74.7</ele></trkpt>
      <trkpt lat="37.369610" lon="126.931524"><ele>74.8</ele></trkpt>
      <trkpt lat="37.369971" lon="126.931946"><ele>72.3</ele></trkpt>
      <trkpt lat="37.370101" lon="126.931963"><ele>70.4</ele></trkpt>
      <trkpt lat="37.370337" lon="126.932113"><ele>65.8</ele></trkpt>
      <trkpt lat="37.370515" lon="126.932088"><ele>65.2</ele></trkpt>
      <trkpt lat="37.370745" lon="126.932205"><ele>66.6</ele></trkpt>
      <trkpt lat="37.370897" lon="126.932212"><ele>68.8</ele></trkpt>
      <trkpt lat="37.371131" lon="126.932105"><ele>71.9</ele></trkpt>
      <trkpt lat="37.371327" lon="126.931946"><ele>74.5</ele></trkpt>
      <trkpt lat="37.371595" lon="126.931986"><ele>73.9</ele></trkpt>
      <trkpt lat="37.371674" lon="126.931077"><ele>85.9</ele></trkpt>
      <trkpt lat="37.371636" lon="126.930952"><ele>86.0</ele></trkpt>
      <trkpt lat="37.371874" lon="126.931030"><ele>84.1</ele></trkpt>
      <trkpt lat="37.371836" lon="126.930837"><ele>83.6</ele></trkpt>
      <trkpt lat="37.371597" lon="126.930600"><ele>83.1</ele></trkpt>
      <trkpt lat="37.371612" lon="126.930270"><ele>77.6</ele></trkpt>
      <trkpt lat="37.371493" lon="126.930112"><ele>77.9</ele></trkpt>
      <trkpt lat="37.371584" lon="126.929930"><ele>76.6</ele></trkpt>
      <trkpt lat="37.371847" lon="126.930090"><ele>76.1</ele></trkpt>
      <trkpt lat="37.371940" lon="126.929819"><ele>76.3</ele></trkpt>
    </trkseg>
  </trk>
</gpx>
