<?xml version="1.0" encoding="UTF-8"?>
<gpx version="1.1" creator="kr-100-mountains route-harvester"
     xmlns="http://www.topografix.com/GPX/1/1"
     xmlns:k100="https://github.com/jay-jang/kr-100-mountains/ns/1"
     xmlns:xsi="http://www.w3.org/2001/XMLSchema-instance"
     xsi:schemaLocation="http://www.topografix.com/GPX/1/1 http://www.topografix.com/GPX/1/1/gpx.xsd">
  <metadata>
    <name>미륵산 · 케이블카 상부역사-미륵산 정상 (대안 2) (OSM 계산 경로)</name>
    <desc>실제 GPS 기록이 아닙니다. OpenStreetMap에 등록된 등산로 선형 위에서 계산한 경로이며, 현장 통제·훼손·출입 제한·계절 통제를 반영하지 않을 수 있습니다. 산행 전 공식 안내를 확인하세요.</desc>
    <time>2026-08-04T05:47:58.066Z</time>
    <link href="https://www.openstreetmap.org/copyright"><text>© OpenStreetMap contributors (ODbL 1.0)</text></link>
    <link href="https://registry.opendata.aws/terrain-tiles/"><text>Elevation: SRTM 1 arc-second (NASA/USGS) via AWS Terrain Tiles</text></link>
    <extensions>
      <k100:provenance>osm-routed</k100:provenance>
      <k100:not_a_recorded_track>true</k100:not_a_recorded_track>
      <k100:mountain_id>mireuksan</k100:mountain_id>
      <k100:mountain_name>미륵산</k100:mountain_name>
      <k100:route_id>mireuksan-2483b934</k100:route_id>
      <k100:route_index>3</k100:route_index>
      <k100:route_name>케이블카 상부역사-미륵산 정상</k100:route_name>
      <k100:variant>2</k100:variant>
      <k100:source>OpenStreetMap via Overpass API</k100:source>
      <k100:license>ODbL-1.0</k100:license>
      <k100:attribution>© OpenStreetMap contributors</k100:attribution>
      <k100:elevation_source>SRTM 1 arc-second (NASA/USGS) — AWS Terrain Tiles 배포본. 지형 DEM 추정 고도이며 실측 아님</k100:elevation_source>
      <k100:algorithm>dijkstra-grid-v1</k100:algorithm>
      <k100:osm_snapshot>2026-08-04</k100:osm_snapshot>
      <k100:snap_trailhead_m>47</k100:snap_trailhead_m>
      <k100:snap_summit_m>212</k100:snap_summit_m>
      <k100:validation_score>89</k100:validation_score>
      <k100:validation_status>accepted</k100:validation_status>
    </extensions>
  </metadata>
  <trk>
    <name>미륵산 · 케이블카 상부역사-미륵산 정상 (대안 2) (OSM 계산 경로)</name>
    <desc>실제 GPS 기록이 아닙니다. OpenStreetMap에 등록된 등산로 선형 위에서 계산한 경로이며, 현장 통제·훼손·출입 제한·계절 통제를 반영하지 않을 수 있습니다. 산행 전 공식 안내를 확인하세요.</desc>
    <trkseg>
      <trkpt lat="34.825253" lon="128.422116"><ele>21.7</ele></trkpt>
      <trkpt lat="34.825535" lon="128.422175"><ele>19.8</ele></trkpt>
      <trkpt lat="34.825508" lon="128.422511"><ele>14.3</ele></trkpt>
      <trkpt lat="34.825650" lon="128.422545"><ele>13.9</ele></trkpt>
      <trkpt lat="34.825767" lon="128.422780"><ele>11.2</ele></trkpt>
      <trkpt lat="34.825989" lon="128.422829"><ele>11.4</ele></trkpt>
      <trkpt lat="34.825837" lon="128.423724"><ele>11.4</ele></trkpt>
      <trkpt lat="34.825645" lon="128.423651"><ele>14.3</ele></trkpt>
      <trkpt lat="34.825552" lon="128.423896"><ele>15.0</ele></trkpt>
      <trkpt lat="34.825122" lon="128.424070"><ele>17.1</ele></trkpt>
      <trkpt lat="34.825169" lon="128.424375"><ele>13.6</ele></trkpt>
      <trkpt lat="34.824750" lon="128.424321"><ele>16.6</ele></trkpt>
      <trkpt lat="34.824749" lon="128.424626"><ele>15.2</ele></trkpt>
    </trkseg>
  </trk>
</gpx>
