<?xml version="1.0" encoding="UTF-8"?>
<gpx version="1.1" creator="kr-100-mountains route-harvester"
     xmlns="http://www.topografix.com/GPX/1/1"
     xmlns:k100="https://github.com/jay-jang/kr-100-mountains/ns/1"
     xmlns:xsi="http://www.w3.org/2001/XMLSchema-instance"
     xsi:schemaLocation="http://www.topografix.com/GPX/1/1 http://www.topografix.com/GPX/1/1/gpx.xsd">
  <metadata>
    <name>운장산 · 내처사동 코스 (OSM 계산 경로)</name>
    <desc>실제 GPS 기록이 아닙니다. OpenStreetMap에 등록된 등산로 선형 위에서 계산한 경로이며, 현장 통제·훼손·출입 제한·계절 통제를 반영하지 않을 수 있습니다. 산행 전 공식 안내를 확인하세요.</desc>
    <time>2026-08-04T05:30:57.600Z</time>
    <link href="https://www.openstreetmap.org/copyright"><text>© OpenStreetMap contributors (ODbL 1.0)</text></link>
    <link href="https://registry.opendata.aws/terrain-tiles/"><text>Elevation: SRTM 1 arc-second (NASA/USGS) via AWS Terrain Tiles</text></link>
    <extensions>
      <k100:provenance>osm-routed</k100:provenance>
      <k100:not_a_recorded_track>true</k100:not_a_recorded_track>
      <k100:mountain_id>unjangsan</k100:mountain_id>
      <k100:mountain_name>운장산</k100:mountain_name>
      <k100:route_id>unjangsan-09465d75</k100:route_id>
      <k100:route_index>2</k100:route_index>
      <k100:route_name>내처사동 코스</k100:route_name>
      <k100:variant>0</k100:variant>
      <k100:source>OpenStreetMap via Overpass API</k100:source>
      <k100:license>ODbL-1.0</k100:license>
      <k100:attribution>© OpenStreetMap contributors</k100:attribution>
      <k100:elevation_source>SRTM 1 arc-second (NASA/USGS) — AWS Terrain Tiles 배포본. 지형 DEM 추정 고도이며 실측 아님</k100:elevation_source>
      <k100:algorithm>dijkstra-grid-v1</k100:algorithm>
      <k100:osm_snapshot>2026-08-04</k100:osm_snapshot>
      <k100:snap_trailhead_m>32</k100:snap_trailhead_m>
      <k100:snap_summit_m>24</k100:snap_summit_m>
      <k100:validation_score>84</k100:validation_score>
      <k100:validation_status>accepted</k100:validation_status>
    </extensions>
  </metadata>
  <trk>
    <name>운장산 · 내처사동 코스 (OSM 계산 경로)</name>
    <desc>실제 GPS 기록이 아닙니다. OpenStreetMap에 등록된 등산로 선형 위에서 계산한 경로이며, 현장 통제·훼손·출입 제한·계절 통제를 반영하지 않을 수 있습니다. 산행 전 공식 안내를 확인하세요.</desc>
    <trkseg>
      <trkpt lat="35.918319" lon="127.377883"><ele>932.5</ele></trkpt>
      <trkpt lat="35.918171" lon="127.377726"><ele>918.7</ele></trkpt>
      <trkpt lat="35.918212" lon="127.377277"><ele>905.2</ele></trkpt>
      <trkpt lat="35.918140" lon="127.377004"><ele>896.8</ele></trkpt>
      <trkpt lat="35.918377" lon="127.375971"><ele>881.3</ele></trkpt>
      <trkpt lat="35.918665" lon="127.375758"><ele>880.2</ele></trkpt>
      <trkpt lat="35.919158" lon="127.375132"><ele>870.7</ele></trkpt>
      <trkpt lat="35.919482" lon="127.374544"><ele>862.7</ele></trkpt>
      <trkpt lat="35.919737" lon="127.374405"><ele>861.1</ele></trkpt>
      <trkpt lat="35.919814" lon="127.374220"><ele>854.3</ele></trkpt>
      <trkpt lat="35.919811" lon="127.374102"><ele>850.5</ele></trkpt>
      <trkpt lat="35.920041" lon="127.373654"><ele>840.7</ele></trkpt>
      <trkpt lat="35.920104" lon="127.373430"><ele>834.6</ele></trkpt>
      <trkpt lat="35.920044" lon="127.373367"><ele>833.0</ele></trkpt>
      <trkpt lat="35.920241" lon="127.373118"><ele>827.3</ele></trkpt>
      <trkpt lat="35.920252" lon="127.373044"><ele>826.3</ele></trkpt>
      <trkpt lat="35.920183" lon="127.372923"><ele>825.6</ele></trkpt>
      <trkpt lat="35.920273" lon="127.372818"><ele>827.0</ele></trkpt>
      <trkpt lat="35.920048" lon="127.372707"><ele>829.5</ele></trkpt>
      <trkpt lat="35.919990" lon="127.372524"><ele>835.6</ele></trkpt>
      <trkpt lat="35.920090" lon="127.372261"><ele>845.0</ele></trkpt>
      <trkpt lat="35.920083" lon="127.372136"><ele>849.6</ele></trkpt>
      <trkpt lat="35.919949" lon="127.371890"><ele>858.6</ele></trkpt>
      <trkpt lat="35.920103" lon="127.371808"><ele>863.8</ele></trkpt>
      <trkpt lat="35.920173" lon="127.371689"><ele>869.1</ele></trkpt>
      <trkpt lat="35.920153" lon="127.371568"><ele>876.0</ele></trkpt>
      <trkpt lat="35.920194" lon="127.371320"><ele>889.2</ele></trkpt>
      <trkpt lat="35.920246" lon="127.371237"><ele>892.9</ele></trkpt>
      <trkpt lat="35.920166" lon="127.370967"><ele>903.9</ele></trkpt>
      <trkpt lat="35.920021" lon="127.370729"><ele>908.2</ele></trkpt>
      <trkpt lat="35.919628" lon="127.370398"><ele>903.1</ele></trkpt>
      <trkpt lat="35.919474" lon="127.370081"><ele>903.5</ele></trkpt>
      <trkpt lat="35.919188" lon="127.369754"><ele>902.3</ele></trkpt>
      <trkpt lat="35.918927" lon="127.369566"><ele>901.6</ele></trkpt>
      <trkpt lat="35.918823" lon="127.369306"><ele>900.5</ele></trkpt>
      <trkpt lat="35.918808" lon="127.369054"><ele>900.2</ele></trkpt>
      <trkpt lat="35.918412" lon="127.368334"><ele>916.8</ele></trkpt>
      <trkpt lat="35.918265" lon="127.367805"><ele>932.4</ele></trkpt>
      <trkpt lat="35.918086" lon="127.367555"><ele>936.8</ele></trkpt>
      <trkpt lat="35.918004" lon="127.367533"><ele>937.0</ele></trkpt>
      <trkpt lat="35.917935" lon="127.367294"><ele>938.1</ele></trkpt>
      <trkpt lat="35.917790" lon="127.367175"><ele>941.9</ele></trkpt>
      <trkpt lat="35.917694" lon="127.367229"><ele>941.8</ele></trkpt>
      <trkpt lat="35.917271" lon="127.366751"><ele>958.5</ele></trkpt>
      <trkpt lat="35.916791" lon="127.366351"><ele>980.2</ele></trkpt>
      <trkpt lat="35.916547" lon="127.366085"><ele>992.6</ele></trkpt>
      <trkpt lat="35.916337" lon="127.365731"><ele>1006.5</ele></trkpt>
      <trkpt lat="35.916243" lon="127.365473"><ele>1016.7</ele></trkpt>
      <trkpt lat="35.916221" lon="127.365229"><ele>1024.5</ele></trkpt>
      <trkpt lat="35.916269" lon="127.365015"><ele>1030.2</ele></trkpt>
      <trkpt lat="35.916198" lon="127.364864"><ele>1032.5</ele></trkpt>
      <trkpt lat="35.916169" lon="127.364586"><ele>1040.1</ele></trkpt>
      <trkpt lat="35.915876" lon="127.364178"><ele>1056.1</ele></trkpt>
      <trkpt lat="35.915846" lon="127.364065"><ele>1061.2</ele></trkpt>
      <trkpt lat="35.915805" lon="127.363327"><ele>1082.5</ele></trkpt>
      <trkpt lat="35.915414" lon="127.362866"><ele>1102.6</ele></trkpt>
      <trkpt lat="35.915177" lon="127.362772"><ele>1113.6</ele></trkpt>
      <trkpt lat="35.914906" lon="127.362533"><ele>1118.9</ele></trkpt>
      <trkpt lat="35.914619" lon="127.362392"><ele>1115.8</ele></trkpt>
      <trkpt lat="35.914415" lon="127.362102"><ele>1112.8</ele></trkpt>
      <trkpt lat="35.914345" lon="127.362081"><ele>1112.1</ele></trkpt>
      <trkpt lat="35.914192" lon="127.362159"><ele>1112.0</ele></trkpt>
      <trkpt lat="35.914204" lon="127.362084"><ele>1111.6</ele></trkpt>
      <trkpt lat="35.914043" lon="127.361983"><ele>1109.0</ele></trkpt>
      <trkpt lat="35.913863" lon="127.362012"><ele>1105.0</ele></trkpt>
      <trkpt lat="35.913650" lon="127.361809"><ele>1093.2</ele></trkpt>
      <trkpt lat="35.913627" lon="127.361698"><ele>1089.4</ele></trkpt>
      <trkpt lat="35.913554" lon="127.361627"><ele>1086.4</ele></trkpt>
      <trkpt lat="35.912484" lon="127.360889"><ele>1068.0</ele></trkpt>
      <trkpt lat="35.912220" lon="127.360425"><ele>1062.6</ele></trkpt>
      <trkpt lat="35.912107" lon="127.360090"><ele>1058.8</ele></trkpt>
      <trkpt lat="35.911962" lon="127.359930"><ele>1058.3</ele></trkpt>
      <trkpt lat="35.911924" lon="127.359577"><ele>1058.8</ele></trkpt>
      <trkpt lat="35.911757" lon="127.358869"><ele>1064.3</ele></trkpt>
      <trkpt lat="35.911647" lon="127.358540"><ele>1077.0</ele></trkpt>
      <trkpt lat="35.911600" lon="127.358546"><ele>1076.2</ele></trkpt>
      <trkpt lat="35.911590" lon="127.358336"><ele>1084.7</ele></trkpt>
      <trkpt lat="35.911391" lon="127.357982"><ele>1100.1</ele></trkpt>
      <trkpt lat="35.911402" lon="127.357870"><ele>1103.0</ele></trkpt>
      <trkpt lat="35.911288" lon="127.357682"><ele>1106.7</ele></trkpt>
      <trkpt lat="35.910972" lon="127.357594"><ele>1102.3</ele></trkpt>
      <trkpt lat="35.910806" lon="127.357476"><ele>1098.5</ele></trkpt>
    </trkseg>
  </trk>
</gpx>
