<?xml version="1.0" encoding="UTF-8"?>
<gpx version="1.1" creator="kr-100-mountains route-harvester"
     xmlns="http://www.topografix.com/GPX/1/1"
     xmlns:k100="https://github.com/jay-jang/kr-100-mountains/ns/1"
     xmlns:xsi="http://www.w3.org/2001/XMLSchema-instance"
     xsi:schemaLocation="http://www.topografix.com/GPX/1/1 http://www.topografix.com/GPX/1/1/gpx.xsd">
  <metadata>
    <name>운장산 · 피암목재-서봉-운장대 코스 (OSM 계산 경로)</name>
    <desc>실제 GPS 기록이 아닙니다. OpenStreetMap에 등록된 등산로 선형 위에서 계산한 경로이며, 현장 통제·훼손·출입 제한·계절 통제를 반영하지 않을 수 있습니다. 산행 전 공식 안내를 확인하세요.</desc>
    <time>2026-08-04T05:30:57.595Z</time>
    <link href="https://www.openstreetmap.org/copyright"><text>© OpenStreetMap contributors (ODbL 1.0)</text></link>
    <link href="https://registry.opendata.aws/terrain-tiles/"><text>Elevation: SRTM 1 arc-second (NASA/USGS) via AWS Terrain Tiles</text></link>
    <extensions>
      <k100:provenance>osm-routed</k100:provenance>
      <k100:not_a_recorded_track>true</k100:not_a_recorded_track>
      <k100:mountain_id>unjangsan</k100:mountain_id>
      <k100:mountain_name>운장산</k100:mountain_name>
      <k100:route_id>unjangsan-eae283f2</k100:route_id>
      <k100:route_index>1</k100:route_index>
      <k100:route_name>피암목재-서봉-운장대 코스</k100:route_name>
      <k100:variant>0</k100:variant>
      <k100:source>OpenStreetMap via Overpass API</k100:source>
      <k100:license>ODbL-1.0</k100:license>
      <k100:attribution>© OpenStreetMap contributors</k100:attribution>
      <k100:elevation_source>SRTM 1 arc-second (NASA/USGS) — AWS Terrain Tiles 배포본. 지형 DEM 추정 고도이며 실측 아님</k100:elevation_source>
      <k100:algorithm>dijkstra-grid-v1</k100:algorithm>
      <k100:osm_snapshot>2026-08-04</k100:osm_snapshot>
      <k100:snap_trailhead_m>331</k100:snap_trailhead_m>
      <k100:snap_summit_m>24</k100:snap_summit_m>
      <k100:validation_score>69</k100:validation_score>
      <k100:validation_status>review</k100:validation_status>
    </extensions>
  </metadata>
  <trk>
    <name>운장산 · 피암목재-서봉-운장대 코스 (OSM 계산 경로)</name>
    <desc>실제 GPS 기록이 아닙니다. OpenStreetMap에 등록된 등산로 선형 위에서 계산한 경로이며, 현장 통제·훼손·출입 제한·계절 통제를 반영하지 않을 수 있습니다. 산행 전 공식 안내를 확인하세요.</desc>
    <trkseg>
      <trkpt lat="35.917982" lon="127.349598"><ele>872.4</ele></trkpt>
      <trkpt lat="35.917902" lon="127.349651"><ele>872.1</ele></trkpt>
      <trkpt lat="35.917732" lon="127.350051"><ele>874.4</ele></trkpt>
      <trkpt lat="35.917651" lon="127.350479"><ele>884.4</ele></trkpt>
      <trkpt lat="35.917529" lon="127.350643"><ele>896.4</ele></trkpt>
      <trkpt lat="35.917440" lon="127.350658"><ele>900.3</ele></trkpt>
      <trkpt lat="35.917301" lon="127.350807"><ele>911.1</ele></trkpt>
      <trkpt lat="35.917043" lon="127.350909"><ele>917.9</ele></trkpt>
      <trkpt lat="35.916905" lon="127.351055"><ele>924.3</ele></trkpt>
      <trkpt lat="35.916492" lon="127.351299"><ele>943.3</ele></trkpt>
      <trkpt lat="35.916354" lon="127.351454"><ele>955.7</ele></trkpt>
      <trkpt lat="35.916004" lon="127.351592"><ele>979.9</ele></trkpt>
      <trkpt lat="35.915973" lon="127.351826"><ele>987.7</ele></trkpt>
      <trkpt lat="35.915643" lon="127.352035"><ele>1004.2</ele></trkpt>
      <trkpt lat="35.915178" lon="127.352121"><ele>1015.8</ele></trkpt>
      <trkpt lat="35.915100" lon="127.352186"><ele>1018.0</ele></trkpt>
      <trkpt lat="35.914811" lon="127.352166"><ele>1026.4</ele></trkpt>
      <trkpt lat="35.914350" lon="127.352284"><ele>1051.5</ele></trkpt>
      <trkpt lat="35.914170" lon="127.352250"><ele>1063.9</ele></trkpt>
      <trkpt lat="35.913767" lon="127.352689"><ele>1083.9</ele></trkpt>
      <trkpt lat="35.913538" lon="127.352854"><ele>1090.7</ele></trkpt>
      <trkpt lat="35.913441" lon="127.353155"><ele>1087.6</ele></trkpt>
      <trkpt lat="35.913414" lon="127.353122"><ele>1089.2</ele></trkpt>
      <trkpt lat="35.913365" lon="127.353204"><ele>1088.4</ele></trkpt>
      <trkpt lat="35.913293" lon="127.353146"><ele>1089.6</ele></trkpt>
      <trkpt lat="35.913217" lon="127.353571"><ele>1075.6</ele></trkpt>
      <trkpt lat="35.913090" lon="127.353754"><ele>1069.9</ele></trkpt>
      <trkpt lat="35.912913" lon="127.354174"><ele>1067.1</ele></trkpt>
      <trkpt lat="35.912837" lon="127.354508"><ele>1073.1</ele></trkpt>
      <trkpt lat="35.912877" lon="127.354824"><ele>1075.0</ele></trkpt>
      <trkpt lat="35.912788" lon="127.355144"><ele>1075.8</ele></trkpt>
      <trkpt lat="35.912857" lon="127.355347"><ele>1073.8</ele></trkpt>
      <trkpt lat="35.912728" lon="127.355523"><ele>1075.3</ele></trkpt>
      <trkpt lat="35.912551" lon="127.356142"><ele>1082.3</ele></trkpt>
      <trkpt lat="35.912135" lon="127.356614"><ele>1089.6</ele></trkpt>
      <trkpt lat="35.912097" lon="127.356780"><ele>1091.5</ele></trkpt>
      <trkpt lat="35.912044" lon="127.356821"><ele>1092.9</ele></trkpt>
      <trkpt lat="35.912063" lon="127.357002"><ele>1093.6</ele></trkpt>
      <trkpt lat="35.911845" lon="127.357077"><ele>1098.2</ele></trkpt>
      <trkpt lat="35.911464" lon="127.357414"><ele>1105.3</ele></trkpt>
      <trkpt lat="35.911353" lon="127.357651"><ele>1107.2</ele></trkpt>
      <trkpt lat="35.911288" lon="127.357682"><ele>1106.7</ele></trkpt>
      <trkpt lat="35.910972" lon="127.357594"><ele>1102.3</ele></trkpt>
      <trkpt lat="35.910806" lon="127.357476"><ele>1098.5</ele></trkpt>
    </trkseg>
  </trk>
</gpx>
