<?xml version="1.0" encoding="UTF-8"?>
<gpx version="1.1" creator="kr-100-mountains route-harvester"
     xmlns="http://www.topografix.com/GPX/1/1"
     xmlns:k100="https://github.com/jay-jang/kr-100-mountains/ns/1"
     xmlns:xsi="http://www.w3.org/2001/XMLSchema-instance"
     xsi:schemaLocation="http://www.topografix.com/GPX/1/1 http://www.topografix.com/GPX/1/1/gpx.xsd">
  <metadata>
    <name>백운산 · 문희마을 원점회귀 코스 (OSM 계산 경로)</name>
    <desc>실제 GPS 기록이 아닙니다. OpenStreetMap에 등록된 등산로 선형 위에서 계산한 경로이며, 현장 통제·훼손·출입 제한·계절 통제를 반영하지 않을 수 있습니다. 산행 전 공식 안내를 확인하세요.</desc>
    <time>2026-08-04T05:26:22.305Z</time>
    <link href="https://www.openstreetmap.org/copyright"><text>© OpenStreetMap contributors (ODbL 1.0)</text></link>
    <link href="https://registry.opendata.aws/terrain-tiles/"><text>Elevation: SRTM 1 arc-second (NASA/USGS) via AWS Terrain Tiles</text></link>
    <extensions>
      <k100:provenance>osm-routed</k100:provenance>
      <k100:not_a_recorded_track>true</k100:not_a_recorded_track>
      <k100:mountain_id>baekunsan-jeongseon</k100:mountain_id>
      <k100:mountain_name>백운산(정선)</k100:mountain_name>
      <k100:route_id>baekunsan-jeongseon-7c7aae6f</k100:route_id>
      <k100:route_index>2</k100:route_index>
      <k100:route_name>문희마을 원점회귀 코스</k100:route_name>
      <k100:variant>0</k100:variant>
      <k100:source>OpenStreetMap via Overpass API</k100:source>
      <k100:license>ODbL-1.0</k100:license>
      <k100:attribution>© OpenStreetMap contributors</k100:attribution>
      <k100:elevation_source>SRTM 1 arc-second (NASA/USGS) — AWS Terrain Tiles 배포본. 지형 DEM 추정 고도이며 실측 아님</k100:elevation_source>
      <k100:algorithm>dijkstra-grid-v1</k100:algorithm>
      <k100:osm_snapshot>2026-08-04</k100:osm_snapshot>
      <k100:snap_trailhead_m>23</k100:snap_trailhead_m>
      <k100:snap_summit_m>643</k100:snap_summit_m>
      <k100:validation_score>72</k100:validation_score>
      <k100:validation_status>review</k100:validation_status>
    </extensions>
  </metadata>
  <trk>
    <name>백운산 · 문희마을 원점회귀 코스 (OSM 계산 경로)</name>
    <desc>실제 GPS 기록이 아닙니다. OpenStreetMap에 등록된 등산로 선형 위에서 계산한 경로이며, 현장 통제·훼손·출입 제한·계절 통제를 반영하지 않을 수 있습니다. 산행 전 공식 안내를 확인하세요.</desc>
    <trkseg>
      <trkpt lat="37.276968" lon="128.576968"><ele>241.9</ele></trkpt>
      <trkpt lat="37.277120" lon="128.576839"><ele>240.0</ele></trkpt>
      <trkpt lat="37.277461" lon="128.576729"><ele>241.9</ele></trkpt>
      <trkpt lat="37.277649" lon="128.576726"><ele>244.0</ele></trkpt>
      <trkpt lat="37.277931" lon="128.576587"><ele>242.6</ele></trkpt>
      <trkpt lat="37.278048" lon="128.576582"><ele>242.5</ele></trkpt>
      <trkpt lat="37.278108" lon="128.576716"><ele>245.0</ele></trkpt>
      <trkpt lat="37.278725" lon="128.576461"><ele>241.0</ele></trkpt>
      <trkpt lat="37.278908" lon="128.576496"><ele>241.5</ele></trkpt>
      <trkpt lat="37.278940" lon="128.576386"><ele>239.7</ele></trkpt>
      <trkpt lat="37.279113" lon="128.576885"><ele>250.2</ele></trkpt>
      <trkpt lat="37.279065" lon="128.577016"><ele>251.7</ele></trkpt>
      <trkpt lat="37.279083" lon="128.577264"><ele>255.9</ele></trkpt>
      <trkpt lat="37.279192" lon="128.577613"><ele>263.0</ele></trkpt>
      <trkpt lat="37.279254" lon="128.577740"><ele>265.4</ele></trkpt>
      <trkpt lat="37.279843" lon="128.578376"><ele>279.0</ele></trkpt>
      <trkpt lat="37.279901" lon="128.578534"><ele>282.8</ele></trkpt>
      <trkpt lat="37.279995" lon="128.579559"><ele>300.8</ele></trkpt>
      <trkpt lat="37.280097" lon="128.579765"><ele>305.3</ele></trkpt>
      <trkpt lat="37.280131" lon="128.580122"><ele>308.8</ele></trkpt>
      <trkpt lat="37.280148" lon="128.580385"><ele>312.5</ele></trkpt>
      <trkpt lat="37.280071" lon="128.580755"><ele>316.5</ele></trkpt>
      <trkpt lat="37.280240" lon="128.580964"><ele>319.3</ele></trkpt>
      <trkpt lat="37.280236" lon="128.581152"><ele>320.4</ele></trkpt>
      <trkpt lat="37.280409" lon="128.581857"><ele>341.0</ele></trkpt>
      <trkpt lat="37.280404" lon="128.582115"><ele>344.8</ele></trkpt>
      <trkpt lat="37.280475" lon="128.582380"><ele>347.8</ele></trkpt>
      <trkpt lat="37.280577" lon="128.582477"><ele>349.0</ele></trkpt>
      <trkpt lat="37.280731" lon="128.582761"><ele>352.3</ele></trkpt>
      <trkpt lat="37.280987" lon="128.582853"><ele>358.4</ele></trkpt>
      <trkpt lat="37.281305" lon="128.582807"><ele>366.1</ele></trkpt>
      <trkpt lat="37.281395" lon="128.583190"><ele>369.0</ele></trkpt>
      <trkpt lat="37.281570" lon="128.583190"><ele>371.6</ele></trkpt>
      <trkpt lat="37.281617" lon="128.583255"><ele>372.8</ele></trkpt>
      <trkpt lat="37.281563" lon="128.583502"><ele>380.2</ele></trkpt>
      <trkpt lat="37.281644" lon="128.583544"><ele>384.1</ele></trkpt>
      <trkpt lat="37.281623" lon="128.583713"><ele>391.2</ele></trkpt>
      <trkpt lat="37.281755" lon="128.583628"><ele>389.7</ele></trkpt>
      <trkpt lat="37.281849" lon="128.583979"><ele>406.5</ele></trkpt>
      <trkpt lat="37.281941" lon="128.584062"><ele>412.3</ele></trkpt>
      <trkpt lat="37.281881" lon="128.584226"><ele>419.6</ele></trkpt>
      <trkpt lat="37.282018" lon="128.584564"><ele>438.7</ele></trkpt>
      <trkpt lat="37.281984" lon="128.584784"><ele>449.0</ele></trkpt>
      <trkpt lat="37.282171" lon="128.585164"><ele>463.7</ele></trkpt>
      <trkpt lat="37.282240" lon="128.585744"><ele>484.6</ele></trkpt>
      <trkpt lat="37.282163" lon="128.586168"><ele>501.7</ele></trkpt>
      <trkpt lat="37.282206" lon="128.586388"><ele>509.5</ele></trkpt>
      <trkpt lat="37.282133" lon="128.586785"><ele>522.3</ele></trkpt>
      <trkpt lat="37.282206" lon="128.586940"><ele>532.0</ele></trkpt>
      <trkpt lat="37.282223" lon="128.587192"><ele>549.1</ele></trkpt>
      <trkpt lat="37.282283" lon="128.587326"><ele>557.6</ele></trkpt>
      <trkpt lat="37.282511" lon="128.587415"><ele>564.1</ele></trkpt>
      <trkpt lat="37.282410" lon="128.587637"><ele>571.1</ele></trkpt>
      <trkpt lat="37.282231" lon="128.587809"><ele>576.4</ele></trkpt>
      <trkpt lat="37.282262" lon="128.587891"><ele>579.8</ele></trkpt>
      <trkpt lat="37.282362" lon="128.587882"><ele>579.1</ele></trkpt>
      <trkpt lat="37.282402" lon="128.587943"><ele>581.4</ele></trkpt>
      <trkpt lat="37.282210" lon="128.588566"><ele>612.4</ele></trkpt>
      <trkpt lat="37.281962" lon="128.588887"><ele>635.7</ele></trkpt>
      <trkpt lat="37.281999" lon="128.588981"><ele>641.9</ele></trkpt>
      <trkpt lat="37.281967" lon="128.589102"><ele>650.9</ele></trkpt>
      <trkpt lat="37.281866" lon="128.589185"><ele>654.8</ele></trkpt>
      <trkpt lat="37.281718" lon="128.589602"><ele>677.0</ele></trkpt>
      <trkpt lat="37.281890" lon="128.589810"><ele>685.3</ele></trkpt>
      <trkpt lat="37.281799" lon="128.590117"><ele>700.8</ele></trkpt>
      <trkpt lat="37.281825" lon="128.590363"><ele>711.7</ele></trkpt>
      <trkpt lat="37.281667" lon="128.590287"><ele>711.4</ele></trkpt>
      <trkpt lat="37.281540" lon="128.590411"><ele>720.6</ele></trkpt>
      <trkpt lat="37.281288" lon="128.590808"><ele>743.4</ele></trkpt>
      <trkpt lat="37.281045" lon="128.591006"><ele>756.3</ele></trkpt>
      <trkpt lat="37.280789" lon="128.591366"><ele>765.4</ele></trkpt>
      <trkpt lat="37.280763" lon="128.591484"><ele>767.5</ele></trkpt>
      <trkpt lat="37.280848" lon="128.591731"><ele>772.7</ele></trkpt>
      <trkpt lat="37.280876" lon="128.592154"><ele>791.1</ele></trkpt>
      <trkpt lat="37.280767" lon="128.592507"><ele>807.5</ele></trkpt>
      <trkpt lat="37.280590" lon="128.592626"><ele>816.1</ele></trkpt>
      <trkpt lat="37.280618" lon="128.592693"><ele>818.5</ele></trkpt>
      <trkpt lat="37.280861" lon="128.592767"><ele>814.9</ele></trkpt>
      <trkpt lat="37.280805" lon="128.593025"><ele>820.5</ele></trkpt>
      <trkpt lat="37.280609" lon="128.593136"><ele>827.3</ele></trkpt>
      <trkpt lat="37.280302" lon="128.593152"><ele>828.7</ele></trkpt>
      <trkpt lat="37.280191" lon="128.593243"><ele>829.6</ele></trkpt>
      <trkpt lat="37.280037" lon="128.593643"><ele>835.2</ele></trkpt>
      <trkpt lat="37.279899" lon="128.593809"><ele>833.6</ele></trkpt>
      <trkpt lat="37.279713" lon="128.594206"><ele>831.1</ele></trkpt>
      <trkpt lat="37.279798" lon="128.595115"><ele>840.6</ele></trkpt>
      <trkpt lat="37.279957" lon="128.595502"><ele>852.7</ele></trkpt>
      <trkpt lat="37.280014" lon="128.596094"><ele>864.8</ele></trkpt>
      <trkpt lat="37.280567" lon="128.596119"><ele>857.6</ele></trkpt>
      <trkpt lat="37.280919" lon="128.596239"><ele>846.6</ele></trkpt>
      <trkpt lat="37.281486" lon="128.596140"><ele>835.6</ele></trkpt>
      <trkpt lat="37.281766" lon="128.596162"><ele>829.3</ele></trkpt>
      <trkpt lat="37.282204" lon="128.596323"><ele>829.2</ele></trkpt>
      <trkpt lat="37.282451" lon="128.596355"><ele>829.3</ele></trkpt>
    </trkseg>
  </trk>
</gpx>
