<?xml version="1.0" encoding="UTF-8"?>
<gpx version="1.1" creator="kr-100-mountains route-harvester"
     xmlns="http://www.topografix.com/GPX/1/1"
     xmlns:k100="https://github.com/jay-jang/kr-100-mountains/ns/1"
     xmlns:xsi="http://www.w3.org/2001/XMLSchema-instance"
     xsi:schemaLocation="http://www.topografix.com/GPX/1/1 http://www.topografix.com/GPX/1/1/gpx.xsd">
  <metadata>
    <name>가야산 · 백운동(용기골)-상왕봉 코스 (OSM 계산 경로)</name>
    <desc>실제 GPS 기록이 아닙니다. OpenStreetMap에 등록된 등산로 선형 위에서 계산한 경로이며, 현장 통제·훼손·출입 제한·계절 통제를 반영하지 않을 수 있습니다. 산행 전 공식 안내를 확인하세요.</desc>
    <time>2026-08-04T05:38:54.004Z</time>
    <link href="https://www.openstreetmap.org/copyright"><text>© OpenStreetMap contributors (ODbL 1.0)</text></link>
    <link href="https://registry.opendata.aws/terrain-tiles/"><text>Elevation: SRTM 1 arc-second (NASA/USGS) via AWS Terrain Tiles</text></link>
    <extensions>
      <k100:provenance>osm-routed</k100:provenance>
      <k100:not_a_recorded_track>true</k100:not_a_recorded_track>
      <k100:mountain_id>gayasan-hapcheon</k100:mountain_id>
      <k100:mountain_name>가야산(합천)</k100:mountain_name>
      <k100:route_id>gayasan-hapcheon-0f041cb1</k100:route_id>
      <k100:route_index>1</k100:route_index>
      <k100:route_name>백운동(용기골)-상왕봉 코스</k100:route_name>
      <k100:variant>0</k100:variant>
      <k100:source>OpenStreetMap via Overpass API</k100:source>
      <k100:license>ODbL-1.0</k100:license>
      <k100:attribution>© OpenStreetMap contributors</k100:attribution>
      <k100:elevation_source>SRTM 1 arc-second (NASA/USGS) — AWS Terrain Tiles 배포본. 지형 DEM 추정 고도이며 실측 아님</k100:elevation_source>
      <k100:algorithm>dijkstra-grid-v1</k100:algorithm>
      <k100:osm_snapshot>2026-08-04</k100:osm_snapshot>
      <k100:snap_trailhead_m>41</k100:snap_trailhead_m>
      <k100:snap_summit_m>53</k100:snap_summit_m>
      <k100:validation_score>84</k100:validation_score>
      <k100:validation_status>accepted</k100:validation_status>
    </extensions>
  </metadata>
  <trk>
    <name>가야산 · 백운동(용기골)-상왕봉 코스 (OSM 계산 경로)</name>
    <desc>실제 GPS 기록이 아닙니다. OpenStreetMap에 등록된 등산로 선형 위에서 계산한 경로이며, 현장 통제·훼손·출입 제한·계절 통제를 반영하지 않을 수 있습니다. 산행 전 공식 안내를 확인하세요.</desc>
    <trkseg>
      <trkpt lat="35.815599" lon="128.134277"><ele>826.0</ele></trkpt>
      <trkpt lat="35.815581" lon="128.134143"><ele>828.5</ele></trkpt>
      <trkpt lat="35.815471" lon="128.134158"><ele>826.4</ele></trkpt>
      <trkpt lat="35.815424" lon="128.134087"><ele>828.3</ele></trkpt>
      <trkpt lat="35.815355" lon="128.133761"><ele>839.3</ele></trkpt>
      <trkpt lat="35.815388" lon="128.133523"><ele>847.8</ele></trkpt>
      <trkpt lat="35.815303" lon="128.133408"><ele>851.5</ele></trkpt>
      <trkpt lat="35.815106" lon="128.132630"><ele>873.5</ele></trkpt>
      <trkpt lat="35.815104" lon="128.132444"><ele>878.8</ele></trkpt>
      <trkpt lat="35.814978" lon="128.132382"><ele>878.7</ele></trkpt>
      <trkpt lat="35.814889" lon="128.132261"><ele>881.0</ele></trkpt>
      <trkpt lat="35.814903" lon="128.132050"><ele>886.6</ele></trkpt>
      <trkpt lat="35.814852" lon="128.131992"><ele>887.6</ele></trkpt>
      <trkpt lat="35.814822" lon="128.131807"><ele>893.1</ele></trkpt>
      <trkpt lat="35.814583" lon="128.131532"><ele>902.8</ele></trkpt>
      <trkpt lat="35.814520" lon="128.131394"><ele>908.9</ele></trkpt>
      <trkpt lat="35.814602" lon="128.131341"><ele>912.2</ele></trkpt>
      <trkpt lat="35.814547" lon="128.131229"><ele>915.5</ele></trkpt>
      <trkpt lat="35.814600" lon="128.130908"><ele>927.0</ele></trkpt>
      <trkpt lat="35.814483" lon="128.130646"><ele>928.1</ele></trkpt>
      <trkpt lat="35.814429" lon="128.130210"><ele>934.6</ele></trkpt>
      <trkpt lat="35.814501" lon="128.129962"><ele>942.1</ele></trkpt>
      <trkpt lat="35.814633" lon="128.129780"><ele>948.7</ele></trkpt>
      <trkpt lat="35.814638" lon="128.129507"><ele>951.4</ele></trkpt>
      <trkpt lat="35.814875" lon="128.129199"><ele>962.2</ele></trkpt>
      <trkpt lat="35.814851" lon="128.129017"><ele>965.1</ele></trkpt>
      <trkpt lat="35.814926" lon="128.128742"><ele>970.1</ele></trkpt>
      <trkpt lat="35.815050" lon="128.128682"><ele>970.7</ele></trkpt>
      <trkpt lat="35.815090" lon="128.128484"><ele>975.2</ele></trkpt>
      <trkpt lat="35.815179" lon="128.128433"><ele>978.8</ele></trkpt>
      <trkpt lat="35.815189" lon="128.128356"><ele>980.9</ele></trkpt>
      <trkpt lat="35.815104" lon="128.128127"><ele>985.1</ele></trkpt>
      <trkpt lat="35.815188" lon="128.127965"><ele>990.9</ele></trkpt>
      <trkpt lat="35.815180" lon="128.127858"><ele>992.9</ele></trkpt>
      <trkpt lat="35.815117" lon="128.127659"><ele>995.8</ele></trkpt>
      <trkpt lat="35.815036" lon="128.127598"><ele>995.8</ele></trkpt>
      <trkpt lat="35.815013" lon="128.127475"><ele>998.7</ele></trkpt>
      <trkpt lat="35.815044" lon="128.127401"><ele>1001.1</ele></trkpt>
      <trkpt lat="35.814948" lon="128.127167"><ele>1006.9</ele></trkpt>
      <trkpt lat="35.814993" lon="128.127073"><ele>1010.5</ele></trkpt>
      <trkpt lat="35.815004" lon="128.126858"><ele>1018.6</ele></trkpt>
      <trkpt lat="35.814953" lon="128.126731"><ele>1022.3</ele></trkpt>
      <trkpt lat="35.814973" lon="128.126629"><ele>1025.2</ele></trkpt>
      <trkpt lat="35.814895" lon="128.126169"><ele>1038.8</ele></trkpt>
      <trkpt lat="35.814968" lon="128.126162"><ele>1038.7</ele></trkpt>
      <trkpt lat="35.815040" lon="128.126047"><ele>1042.1</ele></trkpt>
      <trkpt lat="35.814891" lon="128.125651"><ele>1046.8</ele></trkpt>
      <trkpt lat="35.814872" lon="128.124722"><ele>1067.6</ele></trkpt>
      <trkpt lat="35.814779" lon="128.124299"><ele>1074.1</ele></trkpt>
      <trkpt lat="35.814929" lon="128.124000"><ele>1081.2</ele></trkpt>
      <trkpt lat="35.814972" lon="128.123421"><ele>1100.3</ele></trkpt>
      <trkpt lat="35.815020" lon="128.123361"><ele>1102.6</ele></trkpt>
      <trkpt lat="35.815063" lon="128.123015"><ele>1109.0</ele></trkpt>
      <trkpt lat="35.815044" lon="128.122810"><ele>1111.7</ele></trkpt>
      <trkpt lat="35.815995" lon="128.123152"><ele>1128.5</ele></trkpt>
      <trkpt lat="35.816442" lon="128.123250"><ele>1134.9</ele></trkpt>
      <trkpt lat="35.816554" lon="128.123218"><ele>1135.6</ele></trkpt>
      <trkpt lat="35.817028" lon="128.123411"><ele>1141.5</ele></trkpt>
      <trkpt lat="35.817194" lon="128.123527"><ele>1144.5</ele></trkpt>
      <trkpt lat="35.817307" lon="128.123480"><ele>1146.3</ele></trkpt>
      <trkpt lat="35.818072" lon="128.123536"><ele>1174.0</ele></trkpt>
      <trkpt lat="35.818312" lon="128.123625"><ele>1180.7</ele></trkpt>
      <trkpt lat="35.818987" lon="128.124121"><ele>1213.0</ele></trkpt>
      <trkpt lat="35.819233" lon="128.124234"><ele>1224.7</ele></trkpt>
      <trkpt lat="35.819345" lon="128.124204"><ele>1228.9</ele></trkpt>
      <trkpt lat="35.819457" lon="128.124046"><ele>1229.6</ele></trkpt>
      <trkpt lat="35.819612" lon="128.124012"><ele>1236.2</ele></trkpt>
      <trkpt lat="35.819728" lon="128.123824"><ele>1236.9</ele></trkpt>
      <trkpt lat="35.819838" lon="128.123743"><ele>1241.9</ele></trkpt>
      <trkpt lat="35.819887" lon="128.123775"><ele>1245.6</ele></trkpt>
      <trkpt lat="35.819890" lon="128.124021"><ele>1250.9</ele></trkpt>
      <trkpt lat="35.820016" lon="128.124212"><ele>1260.3</ele></trkpt>
      <trkpt lat="35.819989" lon="128.124352"><ele>1260.4</ele></trkpt>
      <trkpt lat="35.820090" lon="128.124496"><ele>1266.1</ele></trkpt>
      <trkpt lat="35.820446" lon="128.124484"><ele>1278.4</ele></trkpt>
      <trkpt lat="35.820592" lon="128.124290"><ele>1287.6</ele></trkpt>
      <trkpt lat="35.820740" lon="128.124381"><ele>1292.7</ele></trkpt>
      <trkpt lat="35.820757" lon="128.124316"><ele>1295.1</ele></trkpt>
      <trkpt lat="35.820832" lon="128.124309"><ele>1298.9</ele></trkpt>
      <trkpt lat="35.820886" lon="128.124238"><ele>1303.8</ele></trkpt>
      <trkpt lat="35.820917" lon="128.124069"><ele>1306.2</ele></trkpt>
      <trkpt lat="35.820989" lon="128.124027"><ele>1310.3</ele></trkpt>
      <trkpt lat="35.820982" lon="128.123806"><ele>1308.7</ele></trkpt>
      <trkpt lat="35.821209" lon="128.123731"><ele>1325.1</ele></trkpt>
      <trkpt lat="35.821382" lon="128.123501"><ele>1337.3</ele></trkpt>
      <trkpt lat="35.821686" lon="128.123298"><ele>1353.8</ele></trkpt>
      <trkpt lat="35.822077" lon="128.123259"><ele>1377.2</ele></trkpt>
      <trkpt lat="35.822150" lon="128.123032"><ele>1381.2</ele></trkpt>
      <trkpt lat="35.822264" lon="128.122872"><ele>1389.6</ele></trkpt>
      <trkpt lat="35.822612" lon="128.122571"><ele>1403.5</ele></trkpt>
      <trkpt lat="35.822564" lon="128.122421"><ele>1405.2</ele></trkpt>
      <trkpt lat="35.822771" lon="128.122220"><ele>1407.9</ele></trkpt>
      <trkpt lat="35.822884" lon="128.121647"><ele>1404.6</ele></trkpt>
      <trkpt lat="35.823068" lon="128.121298"><ele>1397.4</ele></trkpt>
      <trkpt lat="35.823082" lon="128.121135"><ele>1394.8</ele></trkpt>
      <trkpt lat="35.823207" lon="128.121059"><ele>1396.3</ele></trkpt>
      <trkpt lat="35.823173" lon="128.120532"><ele>1392.3</ele></trkpt>
      <trkpt lat="35.823281" lon="128.120449"><ele>1394.8</ele></trkpt>
      <trkpt lat="35.823199" lon="128.120359"><ele>1392.0</ele></trkpt>
      <trkpt lat="35.823494" lon="128.119973"><ele>1391.0</ele></trkpt>
      <trkpt lat="35.823681" lon="128.119630"><ele>1380.6</ele></trkpt>
      <trkpt lat="35.824255" lon="128.119678"><ele>1373.3</ele></trkpt>
      <trkpt lat="35.824538" lon="128.119426"><ele>1360.7</ele></trkpt>
      <trkpt lat="35.825099" lon="128.119163"><ele>1351.3</ele></trkpt>
    </trkseg>
  </trk>
</gpx>
