<?xml version="1.0" encoding="UTF-8"?>
<gpx version="1.1" creator="kr-100-mountains route-harvester"
     xmlns="http://www.topografix.com/GPX/1/1"
     xmlns:k100="https://github.com/jay-jang/kr-100-mountains/ns/1"
     xmlns:xsi="http://www.w3.org/2001/XMLSchema-instance"
     xsi:schemaLocation="http://www.topografix.com/GPX/1/1 http://www.topografix.com/GPX/1/1/gpx.xsd">
  <metadata>
    <name>가야산 · 해인사-상왕봉 코스 (OSM 계산 경로)</name>
    <desc>실제 GPS 기록이 아닙니다. OpenStreetMap에 등록된 등산로 선형 위에서 계산한 경로이며, 현장 통제·훼손·출입 제한·계절 통제를 반영하지 않을 수 있습니다. 산행 전 공식 안내를 확인하세요.</desc>
    <time>2026-08-04T05:38:54.042Z</time>
    <link href="https://www.openstreetmap.org/copyright"><text>© OpenStreetMap contributors (ODbL 1.0)</text></link>
    <link href="https://registry.opendata.aws/terrain-tiles/"><text>Elevation: SRTM 1 arc-second (NASA/USGS) via AWS Terrain Tiles</text></link>
    <extensions>
      <k100:provenance>osm-routed</k100:provenance>
      <k100:not_a_recorded_track>true</k100:not_a_recorded_track>
      <k100:mountain_id>gayasan-hapcheon</k100:mountain_id>
      <k100:mountain_name>가야산(합천)</k100:mountain_name>
      <k100:route_id>gayasan-hapcheon-1d968c59</k100:route_id>
      <k100:route_index>3</k100:route_index>
      <k100:route_name>해인사-상왕봉 코스</k100:route_name>
      <k100:variant>0</k100:variant>
      <k100:source>OpenStreetMap via Overpass API</k100:source>
      <k100:license>ODbL-1.0</k100:license>
      <k100:attribution>© OpenStreetMap contributors</k100:attribution>
      <k100:elevation_source>SRTM 1 arc-second (NASA/USGS) — AWS Terrain Tiles 배포본. 지형 DEM 추정 고도이며 실측 아님</k100:elevation_source>
      <k100:algorithm>dijkstra-grid-v1</k100:algorithm>
      <k100:osm_snapshot>2026-08-04</k100:osm_snapshot>
      <k100:snap_trailhead_m>4</k100:snap_trailhead_m>
      <k100:snap_summit_m>53</k100:snap_summit_m>
      <k100:validation_score>93</k100:validation_score>
      <k100:validation_status>accepted</k100:validation_status>
    </extensions>
  </metadata>
  <trk>
    <name>가야산 · 해인사-상왕봉 코스 (OSM 계산 경로)</name>
    <desc>실제 GPS 기록이 아닙니다. OpenStreetMap에 등록된 등산로 선형 위에서 계산한 경로이며, 현장 통제·훼손·출입 제한·계절 통제를 반영하지 않을 수 있습니다. 산행 전 공식 안내를 확인하세요.</desc>
    <trkseg>
      <trkpt lat="35.795670" lon="128.098097"><ele>598.3</ele></trkpt>
      <trkpt lat="35.795555" lon="128.097944"><ele>596.0</ele></trkpt>
      <trkpt lat="35.795403" lon="128.097323"><ele>592.1</ele></trkpt>
      <trkpt lat="35.795377" lon="128.097023"><ele>590.3</ele></trkpt>
      <trkpt lat="35.795438" lon="128.096748"><ele>589.9</ele></trkpt>
      <trkpt lat="35.795595" lon="128.096461"><ele>591.6</ele></trkpt>
      <trkpt lat="35.795895" lon="128.096184"><ele>590.4</ele></trkpt>
      <trkpt lat="35.796117" lon="128.096158"><ele>588.6</ele></trkpt>
      <trkpt lat="35.796396" lon="128.096209"><ele>588.4</ele></trkpt>
      <trkpt lat="35.796583" lon="128.096112"><ele>586.0</ele></trkpt>
      <trkpt lat="35.796613" lon="128.095994"><ele>583.6</ele></trkpt>
      <trkpt lat="35.797069" lon="128.096328"><ele>586.9</ele></trkpt>
      <trkpt lat="35.797341" lon="128.096326"><ele>588.8</ele></trkpt>
      <trkpt lat="35.797467" lon="128.096272"><ele>590.3</ele></trkpt>
      <trkpt lat="35.798041" lon="128.096586"><ele>603.1</ele></trkpt>
      <trkpt lat="35.798313" lon="128.096613"><ele>602.8</ele></trkpt>
      <trkpt lat="35.799342" lon="128.096430"><ele>610.5</ele></trkpt>
      <trkpt lat="35.799520" lon="128.096372"><ele>612.1</ele></trkpt>
      <trkpt lat="35.799923" lon="128.096084"><ele>618.9</ele></trkpt>
      <trkpt lat="35.799976" lon="128.096235"><ele>622.3</ele></trkpt>
      <trkpt lat="35.800834" lon="128.096734"><ele>632.5</ele></trkpt>
      <trkpt lat="35.801626" lon="128.096909"><ele>633.5</ele></trkpt>
      <trkpt lat="35.801677" lon="128.096974"><ele>634.7</ele></trkpt>
      <trkpt lat="35.801999" lon="128.096964"><ele>631.2</ele></trkpt>
      <trkpt lat="35.802815" lon="128.097237"><ele>637.7</ele></trkpt>
      <trkpt lat="35.802992" lon="128.097458"><ele>638.4</ele></trkpt>
      <trkpt lat="35.803381" lon="128.097730"><ele>641.8</ele></trkpt>
      <trkpt lat="35.803594" lon="128.097786"><ele>643.8</ele></trkpt>
      <trkpt lat="35.803835" lon="128.098025"><ele>649.2</ele></trkpt>
      <trkpt lat="35.804255" lon="128.098125"><ele>659.5</ele></trkpt>
      <trkpt lat="35.804365" lon="128.098364"><ele>659.6</ele></trkpt>
      <trkpt lat="35.804906" lon="128.098604"><ele>676.3</ele></trkpt>
      <trkpt lat="35.804997" lon="128.098772"><ele>675.7</ele></trkpt>
      <trkpt lat="35.805030" lon="128.099249"><ele>670.1</ele></trkpt>
      <trkpt lat="35.805260" lon="128.099788"><ele>674.9</ele></trkpt>
      <trkpt lat="35.805979" lon="128.100868"><ele>689.3</ele></trkpt>
      <trkpt lat="35.806446" lon="128.101307"><ele>700.1</ele></trkpt>
      <trkpt lat="35.807569" lon="128.102093"><ele>730.0</ele></trkpt>
      <trkpt lat="35.808210" lon="128.102682"><ele>735.9</ele></trkpt>
      <trkpt lat="35.808383" lon="128.102658"><ele>738.9</ele></trkpt>
      <trkpt lat="35.808577" lon="128.102715"><ele>742.4</ele></trkpt>
      <trkpt lat="35.809122" lon="128.103026"><ele>749.2</ele></trkpt>
      <trkpt lat="35.809452" lon="128.103101"><ele>756.1</ele></trkpt>
      <trkpt lat="35.809790" lon="128.103264"><ele>764.9</ele></trkpt>
      <trkpt lat="35.809926" lon="128.103397"><ele>766.1</ele></trkpt>
      <trkpt lat="35.809960" lon="128.103535"><ele>764.6</ele></trkpt>
      <trkpt lat="35.810486" lon="128.103663"><ele>776.1</ele></trkpt>
      <trkpt lat="35.810916" lon="128.103847"><ele>780.9</ele></trkpt>
      <trkpt lat="35.811428" lon="128.104133"><ele>788.7</ele></trkpt>
      <trkpt lat="35.811540" lon="128.104360"><ele>789.3</ele></trkpt>
      <trkpt lat="35.811872" lon="128.104446"><ele>796.2</ele></trkpt>
      <trkpt lat="35.811932" lon="128.104592"><ele>796.7</ele></trkpt>
      <trkpt lat="35.811918" lon="128.104865"><ele>797.9</ele></trkpt>
      <trkpt lat="35.811826" lon="128.105332"><ele>806.1</ele></trkpt>
      <trkpt lat="35.811893" lon="128.105821"><ele>814.0</ele></trkpt>
      <trkpt lat="35.812063" lon="128.106431"><ele>825.1</ele></trkpt>
      <trkpt lat="35.812408" lon="128.107290"><ele>843.5</ele></trkpt>
      <trkpt lat="35.812637" lon="128.107644"><ele>849.8</ele></trkpt>
      <trkpt lat="35.813175" lon="128.108110"><ele>863.2</ele></trkpt>
      <trkpt lat="35.813294" lon="128.108317"><ele>869.0</ele></trkpt>
      <trkpt lat="35.813502" lon="128.108427"><ele>875.9</ele></trkpt>
      <trkpt lat="35.813599" lon="128.108575"><ele>881.0</ele></trkpt>
      <trkpt lat="35.813805" lon="128.108696"><ele>888.2</ele></trkpt>
      <trkpt lat="35.813902" lon="128.109010"><ele>895.0</ele></trkpt>
      <trkpt lat="35.814156" lon="128.109092"><ele>900.0</ele></trkpt>
      <trkpt lat="35.814425" lon="128.109430"><ele>911.2</ele></trkpt>
      <trkpt lat="35.814538" lon="128.109667"><ele>918.9</ele></trkpt>
      <trkpt lat="35.814634" lon="128.110029"><ele>928.6</ele></trkpt>
      <trkpt lat="35.814775" lon="128.110231"><ele>936.4</ele></trkpt>
      <trkpt lat="35.814840" lon="128.110677"><ele>942.9</ele></trkpt>
      <trkpt lat="35.814835" lon="128.111008"><ele>947.5</ele></trkpt>
      <trkpt lat="35.814963" lon="128.111022"><ele>950.8</ele></trkpt>
      <trkpt lat="35.815101" lon="128.111455"><ele>964.8</ele></trkpt>
      <trkpt lat="35.815131" lon="128.111756"><ele>973.7</ele></trkpt>
      <trkpt lat="35.815048" lon="128.111911"><ele>974.6</ele></trkpt>
      <trkpt lat="35.815071" lon="128.112076"><ele>980.1</ele></trkpt>
      <trkpt lat="35.815000" lon="128.112512"><ele>991.2</ele></trkpt>
      <trkpt lat="35.815005" lon="128.112695"><ele>993.9</ele></trkpt>
      <trkpt lat="35.815065" lon="128.112811"><ele>995.9</ele></trkpt>
      <trkpt lat="35.815274" lon="128.112959"><ele>998.0</ele></trkpt>
      <trkpt lat="35.815523" lon="128.113032"><ele>1003.4</ele></trkpt>
      <trkpt lat="35.816317" lon="128.112921"><ele>1030.3</ele></trkpt>
      <trkpt lat="35.816459" lon="128.112977"><ele>1033.9</ele></trkpt>
      <trkpt lat="35.816572" lon="128.113148"><ele>1036.5</ele></trkpt>
      <trkpt lat="35.816715" lon="128.113208"><ele>1039.2</ele></trkpt>
      <trkpt lat="35.817319" lon="128.113196"><ele>1054.0</ele></trkpt>
      <trkpt lat="35.817386" lon="128.113118"><ele>1056.7</ele></trkpt>
      <trkpt lat="35.817617" lon="128.113077"><ele>1066.8</ele></trkpt>
      <trkpt lat="35.817737" lon="128.113117"><ele>1072.3</ele></trkpt>
      <trkpt lat="35.817847" lon="128.113242"><ele>1076.9</ele></trkpt>
      <trkpt lat="35.818007" lon="128.113132"><ele>1087.7</ele></trkpt>
      <trkpt lat="35.818210" lon="128.113147"><ele>1094.2</ele></trkpt>
      <trkpt lat="35.818561" lon="128.113424"><ele>1098.0</ele></trkpt>
      <trkpt lat="35.818953" lon="128.113909"><ele>1106.4</ele></trkpt>
      <trkpt lat="35.819182" lon="128.114383"><ele>1113.5</ele></trkpt>
      <trkpt lat="35.819377" lon="128.115200"><ele>1131.2</ele></trkpt>
      <trkpt lat="35.819560" lon="128.115358"><ele>1140.5</ele></trkpt>
      <trkpt lat="35.819595" lon="128.115484"><ele>1143.5</ele></trkpt>
      <trkpt lat="35.819740" lon="128.115622"><ele>1149.6</ele></trkpt>
      <trkpt lat="35.819842" lon="128.115945"><ele>1152.5</ele></trkpt>
      <trkpt lat="35.820126" lon="128.116029"><ele>1163.3</ele></trkpt>
      <trkpt lat="35.820339" lon="128.116243"><ele>1177.7</ele></trkpt>
      <trkpt lat="35.820341" lon="128.116399"><ele>1181.2</ele></trkpt>
      <trkpt lat="35.820471" lon="128.116475"><ele>1189.2</ele></trkpt>
      <trkpt lat="35.820493" lon="128.116587"><ele>1193.0</ele></trkpt>
      <trkpt lat="35.820789" lon="128.116647"><ele>1210.9</ele></trkpt>
      <trkpt lat="35.820873" lon="128.116760"><ele>1218.2</ele></trkpt>
      <trkpt lat="35.821095" lon="128.116873"><ele>1232.8</ele></trkpt>
      <trkpt lat="35.821296" lon="128.116856"><ele>1242.2</ele></trkpt>
      <trkpt lat="35.821681" lon="128.117155"><ele>1260.5</ele></trkpt>
      <trkpt lat="35.821919" lon="128.117174"><ele>1264.7</ele></trkpt>
      <trkpt lat="35.822094" lon="128.117369"><ele>1274.3</ele></trkpt>
      <trkpt lat="35.822352" lon="128.117386"><ele>1281.0</ele></trkpt>
      <trkpt lat="35.822432" lon="128.117452"><ele>1284.9</ele></trkpt>
      <trkpt lat="35.822460" lon="128.117583"><ele>1291.3</ele></trkpt>
      <trkpt lat="35.822542" lon="128.117697"><ele>1298.1</ele></trkpt>
      <trkpt lat="35.822644" lon="128.117741"><ele>1302.3</ele></trkpt>
      <trkpt lat="35.822854" lon="128.117627"><ele>1298.4</ele></trkpt>
      <trkpt lat="35.823117" lon="128.117642"><ele>1296.4</ele></trkpt>
      <trkpt lat="35.823150" lon="128.117758"><ele>1302.0</ele></trkpt>
      <trkpt lat="35.823124" lon="128.117848"><ele>1306.7</ele></trkpt>
      <trkpt lat="35.822951" lon="128.118046"><ele>1319.0</ele></trkpt>
      <trkpt lat="35.822622" lon="128.118125"><ele>1321.1</ele></trkpt>
      <trkpt lat="35.822615" lon="128.119098"><ele>1358.0</ele></trkpt>
      <trkpt lat="35.822689" lon="128.119478"><ele>1366.4</ele></trkpt>
      <trkpt lat="35.822808" lon="128.119708"><ele>1375.2</ele></trkpt>
      <trkpt lat="35.822859" lon="128.120029"><ele>1381.1</ele></trkpt>
      <trkpt lat="35.823199" lon="128.120359"><ele>1392.0</ele></trkpt>
      <trkpt lat="35.823494" lon="128.119973"><ele>1391.0</ele></trkpt>
      <trkpt lat="35.823681" lon="128.119630"><ele>1380.6</ele></trkpt>
      <trkpt lat="35.824255" lon="128.119678"><ele>1373.3</ele></trkpt>
      <trkpt lat="35.824538" lon="128.119426"><ele>1360.7</ele></trkpt>
      <trkpt lat="35.825099" lon="128.119163"><ele>1351.3</ele></trkpt>
    </trkseg>
  </trk>
</gpx>
