<?xml version="1.0" encoding="UTF-8"?>
<gpx version="1.1" creator="kr-100-mountains route-harvester"
     xmlns="http://www.topografix.com/GPX/1/1"
     xmlns:k100="https://github.com/jay-jang/kr-100-mountains/ns/1"
     xmlns:xsi="http://www.w3.org/2001/XMLSchema-instance"
     xsi:schemaLocation="http://www.topografix.com/GPX/1/1 http://www.topografix.com/GPX/1/1/gpx.xsd">
  <metadata>
    <name>가야산 · 해인사-상왕봉 코스 (대안 1) (OSM 계산 경로)</name>
    <desc>실제 GPS 기록이 아닙니다. OpenStreetMap에 등록된 등산로 선형 위에서 계산한 경로이며, 현장 통제·훼손·출입 제한·계절 통제를 반영하지 않을 수 있습니다. 산행 전 공식 안내를 확인하세요.</desc>
    <time>2026-08-04T05:38:54.044Z</time>
    <link href="https://www.openstreetmap.org/copyright"><text>© OpenStreetMap contributors (ODbL 1.0)</text></link>
    <link href="https://registry.opendata.aws/terrain-tiles/"><text>Elevation: SRTM 1 arc-second (NASA/USGS) via AWS Terrain Tiles</text></link>
    <extensions>
      <k100:provenance>osm-routed</k100:provenance>
      <k100:not_a_recorded_track>true</k100:not_a_recorded_track>
      <k100:mountain_id>gayasan-hapcheon</k100:mountain_id>
      <k100:mountain_name>가야산(합천)</k100:mountain_name>
      <k100:route_id>gayasan-hapcheon-1d968c59</k100:route_id>
      <k100:route_index>3</k100:route_index>
      <k100:route_name>해인사-상왕봉 코스</k100:route_name>
      <k100:variant>1</k100:variant>
      <k100:source>OpenStreetMap via Overpass API</k100:source>
      <k100:license>ODbL-1.0</k100:license>
      <k100:attribution>© OpenStreetMap contributors</k100:attribution>
      <k100:elevation_source>SRTM 1 arc-second (NASA/USGS) — AWS Terrain Tiles 배포본. 지형 DEM 추정 고도이며 실측 아님</k100:elevation_source>
      <k100:algorithm>dijkstra-grid-v1</k100:algorithm>
      <k100:osm_snapshot>2026-08-04</k100:osm_snapshot>
      <k100:snap_trailhead_m>4</k100:snap_trailhead_m>
      <k100:snap_summit_m>53</k100:snap_summit_m>
      <k100:validation_score>84</k100:validation_score>
      <k100:validation_status>accepted</k100:validation_status>
    </extensions>
  </metadata>
  <trk>
    <name>가야산 · 해인사-상왕봉 코스 (대안 1) (OSM 계산 경로)</name>
    <desc>실제 GPS 기록이 아닙니다. OpenStreetMap에 등록된 등산로 선형 위에서 계산한 경로이며, 현장 통제·훼손·출입 제한·계절 통제를 반영하지 않을 수 있습니다. 산행 전 공식 안내를 확인하세요.</desc>
    <trkseg>
      <trkpt lat="35.795670" lon="128.098097"><ele>598.3</ele></trkpt>
      <trkpt lat="35.795555" lon="128.097944"><ele>596.0</ele></trkpt>
      <trkpt lat="35.795403" lon="128.097323"><ele>592.1</ele></trkpt>
      <trkpt lat="35.795377" lon="128.097023"><ele>590.3</ele></trkpt>
      <trkpt lat="35.795438" lon="128.096748"><ele>589.9</ele></trkpt>
      <trkpt lat="35.795595" lon="128.096461"><ele>591.6</ele></trkpt>
      <trkpt lat="35.795895" lon="128.096184"><ele>590.4</ele></trkpt>
      <trkpt lat="35.796117" lon="128.096158"><ele>588.6</ele></trkpt>
      <trkpt lat="35.796396" lon="128.096209"><ele>588.4</ele></trkpt>
      <trkpt lat="35.796583" lon="128.096112"><ele>586.0</ele></trkpt>
      <trkpt lat="35.796751" lon="128.095765"><ele>579.7</ele></trkpt>
      <trkpt lat="35.796979" lon="128.095538"><ele>576.9</ele></trkpt>
      <trkpt lat="35.797328" lon="128.095736"><ele>581.7</ele></trkpt>
      <trkpt lat="35.797806" lon="128.096106"><ele>597.3</ele></trkpt>
      <trkpt lat="35.797864" lon="128.096219"><ele>598.8</ele></trkpt>
      <trkpt lat="35.798157" lon="128.096464"><ele>602.0</ele></trkpt>
      <trkpt lat="35.798234" lon="128.096485"><ele>602.2</ele></trkpt>
      <trkpt lat="35.799089" lon="128.096377"><ele>608.3</ele></trkpt>
      <trkpt lat="35.799313" lon="128.096249"><ele>608.8</ele></trkpt>
      <trkpt lat="35.799708" lon="128.096192"><ele>614.9</ele></trkpt>
      <trkpt lat="35.799632" lon="128.096281"><ele>614.2</ele></trkpt>
      <trkpt lat="35.799863" lon="128.096493"><ele>621.0</ele></trkpt>
      <trkpt lat="35.800254" lon="128.097020"><ele>627.6</ele></trkpt>
      <trkpt lat="35.800313" lon="128.097339"><ele>628.7</ele></trkpt>
      <trkpt lat="35.800244" lon="128.098156"><ele>637.5</ele></trkpt>
      <trkpt lat="35.800285" lon="128.098586"><ele>645.6</ele></trkpt>
      <trkpt lat="35.800247" lon="128.098644"><ele>646.4</ele></trkpt>
      <trkpt lat="35.800345" lon="128.098806"><ele>649.3</ele></trkpt>
      <trkpt lat="35.800483" lon="128.099290"><ele>656.4</ele></trkpt>
      <trkpt lat="35.800508" lon="128.099573"><ele>660.1</ele></trkpt>
      <trkpt lat="35.800673" lon="128.100109"><ele>673.9</ele></trkpt>
      <trkpt lat="35.800912" lon="128.100076"><ele>676.2</ele></trkpt>
      <trkpt lat="35.801438" lon="128.100125"><ele>681.4</ele></trkpt>
      <trkpt lat="35.801660" lon="128.100044"><ele>676.6</ele></trkpt>
      <trkpt lat="35.801800" lon="128.099905"><ele>674.2</ele></trkpt>
      <trkpt lat="35.802039" lon="128.099931"><ele>677.9</ele></trkpt>
      <trkpt lat="35.802517" lon="128.100382"><ele>687.8</ele></trkpt>
      <trkpt lat="35.802831" lon="128.100489"><ele>695.0</ele></trkpt>
      <trkpt lat="35.802996" lon="128.100618"><ele>699.0</ele></trkpt>
      <trkpt lat="35.803440" lon="128.101198"><ele>706.1</ele></trkpt>
      <trkpt lat="35.804058" lon="128.101584"><ele>708.6</ele></trkpt>
      <trkpt lat="35.804358" lon="128.101970"><ele>713.9</ele></trkpt>
      <trkpt lat="35.804640" lon="128.102431"><ele>722.9</ele></trkpt>
      <trkpt lat="35.804719" lon="128.102796"><ele>728.4</ele></trkpt>
      <trkpt lat="35.804832" lon="128.103054"><ele>730.6</ele></trkpt>
      <trkpt lat="35.805080" lon="128.103402"><ele>732.9</ele></trkpt>
      <trkpt lat="35.805894" lon="128.104223"><ele>728.6</ele></trkpt>
      <trkpt lat="35.806146" lon="128.104658"><ele>729.8</ele></trkpt>
      <trkpt lat="35.806629" lon="128.105285"><ele>730.3</ele></trkpt>
      <trkpt lat="35.806894" lon="128.106390"><ele>749.9</ele></trkpt>
      <trkpt lat="35.807355" lon="128.107206"><ele>757.2</ele></trkpt>
      <trkpt lat="35.807464" lon="128.107635"><ele>764.9</ele></trkpt>
      <trkpt lat="35.807773" lon="128.108262"><ele>771.8</ele></trkpt>
      <trkpt lat="35.807877" lon="128.108611"><ele>777.9</ele></trkpt>
      <trkpt lat="35.808012" lon="128.109432"><ele>789.9</ele></trkpt>
      <trkpt lat="35.807999" lon="128.109824"><ele>794.7</ele></trkpt>
      <trkpt lat="35.807912" lon="128.110188"><ele>798.1</ele></trkpt>
      <trkpt lat="35.807921" lon="128.110912"><ele>810.4</ele></trkpt>
      <trkpt lat="35.808038" lon="128.111583"><ele>819.8</ele></trkpt>
      <trkpt lat="35.808056" lon="128.112066"><ele>825.9</ele></trkpt>
      <trkpt lat="35.808134" lon="128.112339"><ele>830.7</ele></trkpt>
      <trkpt lat="35.808560" lon="128.113106"><ele>843.9</ele></trkpt>
      <trkpt lat="35.808843" lon="128.113471"><ele>852.1</ele></trkpt>
      <trkpt lat="35.809178" lon="128.113766"><ele>860.2</ele></trkpt>
      <trkpt lat="35.809444" lon="128.113970"><ele>863.9</ele></trkpt>
      <trkpt lat="35.810270" lon="128.114373"><ele>884.3</ele></trkpt>
      <trkpt lat="35.810667" lon="128.114247"><ele>889.9</ele></trkpt>
      <trkpt lat="35.810779" lon="128.114587"><ele>896.1</ele></trkpt>
      <trkpt lat="35.810914" lon="128.114630"><ele>902.6</ele></trkpt>
      <trkpt lat="35.811114" lon="128.114582"><ele>911.0</ele></trkpt>
      <trkpt lat="35.811384" lon="128.114823"><ele>924.7</ele></trkpt>
      <trkpt lat="35.811993" lon="128.115172"><ele>938.0</ele></trkpt>
      <trkpt lat="35.812271" lon="128.115467"><ele>952.4</ele></trkpt>
      <trkpt lat="35.812493" lon="128.115805"><ele>968.8</ele></trkpt>
      <trkpt lat="35.812493" lon="128.116078"><ele>973.2</ele></trkpt>
      <trkpt lat="35.813063" lon="128.117264"><ele>1020.3</ele></trkpt>
      <trkpt lat="35.813037" lon="128.117897"><ele>1036.2</ele></trkpt>
      <trkpt lat="35.813154" lon="128.118154"><ele>1038.2</ele></trkpt>
      <trkpt lat="35.813246" lon="128.118653"><ele>1050.8</ele></trkpt>
      <trkpt lat="35.813672" lon="128.119201"><ele>1073.6</ele></trkpt>
      <trkpt lat="35.813607" lon="128.119876"><ele>1090.0</ele></trkpt>
      <trkpt lat="35.813772" lon="128.120488"><ele>1096.1</ele></trkpt>
      <trkpt lat="35.814090" lon="128.121078"><ele>1098.3</ele></trkpt>
      <trkpt lat="35.814546" lon="128.121695"><ele>1116.2</ele></trkpt>
      <trkpt lat="35.814477" lon="128.122559"><ele>1120.0</ele></trkpt>
      <trkpt lat="35.814520" lon="128.122757"><ele>1119.7</ele></trkpt>
      <trkpt lat="35.814658" lon="128.122882"><ele>1117.8</ele></trkpt>
      <trkpt lat="35.814868" lon="128.122678"><ele>1115.6</ele></trkpt>
      <trkpt lat="35.814921" lon="128.122687"><ele>1114.3</ele></trkpt>
      <trkpt lat="35.815125" lon="128.122851"><ele>1110.3</ele></trkpt>
      <trkpt lat="35.815995" lon="128.123152"><ele>1128.5</ele></trkpt>
      <trkpt lat="35.816442" lon="128.123250"><ele>1134.9</ele></trkpt>
      <trkpt lat="35.816554" lon="128.123218"><ele>1135.6</ele></trkpt>
      <trkpt lat="35.817028" lon="128.123411"><ele>1141.5</ele></trkpt>
      <trkpt lat="35.817194" lon="128.123527"><ele>1144.5</ele></trkpt>
      <trkpt lat="35.817307" lon="128.123480"><ele>1146.3</ele></trkpt>
      <trkpt lat="35.818072" lon="128.123536"><ele>1174.0</ele></trkpt>
      <trkpt lat="35.818312" lon="128.123625"><ele>1180.7</ele></trkpt>
      <trkpt lat="35.818987" lon="128.124121"><ele>1213.0</ele></trkpt>
      <trkpt lat="35.819233" lon="128.124234"><ele>1224.7</ele></trkpt>
      <trkpt lat="35.819345" lon="128.124204"><ele>1228.9</ele></trkpt>
      <trkpt lat="35.819457" lon="128.124046"><ele>1229.6</ele></trkpt>
      <trkpt lat="35.819612" lon="128.124012"><ele>1236.2</ele></trkpt>
      <trkpt lat="35.819728" lon="128.123824"><ele>1236.9</ele></trkpt>
      <trkpt lat="35.819838" lon="128.123743"><ele>1241.9</ele></trkpt>
      <trkpt lat="35.819887" lon="128.123775"><ele>1245.6</ele></trkpt>
      <trkpt lat="35.819890" lon="128.124021"><ele>1250.9</ele></trkpt>
      <trkpt lat="35.820016" lon="128.124212"><ele>1260.3</ele></trkpt>
      <trkpt lat="35.819989" lon="128.124352"><ele>1260.4</ele></trkpt>
      <trkpt lat="35.820090" lon="128.124496"><ele>1266.1</ele></trkpt>
      <trkpt lat="35.820446" lon="128.124484"><ele>1278.4</ele></trkpt>
      <trkpt lat="35.820592" lon="128.124290"><ele>1287.6</ele></trkpt>
      <trkpt lat="35.820740" lon="128.124381"><ele>1292.7</ele></trkpt>
      <trkpt lat="35.820757" lon="128.124316"><ele>1295.1</ele></trkpt>
      <trkpt lat="35.820832" lon="128.124309"><ele>1298.9</ele></trkpt>
      <trkpt lat="35.820886" lon="128.124238"><ele>1303.8</ele></trkpt>
      <trkpt lat="35.820917" lon="128.124069"><ele>1306.2</ele></trkpt>
      <trkpt lat="35.820989" lon="128.124027"><ele>1310.3</ele></trkpt>
      <trkpt lat="35.820982" lon="128.123806"><ele>1308.7</ele></trkpt>
      <trkpt lat="35.821209" lon="128.123731"><ele>1325.1</ele></trkpt>
      <trkpt lat="35.821382" lon="128.123501"><ele>1337.3</ele></trkpt>
      <trkpt lat="35.821686" lon="128.123298"><ele>1353.8</ele></trkpt>
      <trkpt lat="35.822077" lon="128.123259"><ele>1377.2</ele></trkpt>
      <trkpt lat="35.822150" lon="128.123032"><ele>1381.2</ele></trkpt>
      <trkpt lat="35.822264" lon="128.122872"><ele>1389.6</ele></trkpt>
      <trkpt lat="35.822612" lon="128.122571"><ele>1403.5</ele></trkpt>
      <trkpt lat="35.822564" lon="128.122421"><ele>1405.2</ele></trkpt>
      <trkpt lat="35.822771" lon="128.122220"><ele>1407.9</ele></trkpt>
      <trkpt lat="35.822884" lon="128.121647"><ele>1404.6</ele></trkpt>
      <trkpt lat="35.823068" lon="128.121298"><ele>1397.4</ele></trkpt>
      <trkpt lat="35.823082" lon="128.121135"><ele>1394.8</ele></trkpt>
      <trkpt lat="35.823207" lon="128.121059"><ele>1396.3</ele></trkpt>
      <trkpt lat="35.823173" lon="128.120532"><ele>1392.3</ele></trkpt>
      <trkpt lat="35.823281" lon="128.120449"><ele>1394.8</ele></trkpt>
      <trkpt lat="35.823199" lon="128.120359"><ele>1392.0</ele></trkpt>
      <trkpt lat="35.823494" lon="128.119973"><ele>1391.0</ele></trkpt>
      <trkpt lat="35.823681" lon="128.119630"><ele>1380.6</ele></trkpt>
      <trkpt lat="35.824255" lon="128.119678"><ele>1373.3</ele></trkpt>
      <trkpt lat="35.824538" lon="128.119426"><ele>1360.7</ele></trkpt>
      <trkpt lat="35.825099" lon="128.119163"><ele>1351.3</ele></trkpt>
    </trkseg>
  </trk>
</gpx>
