<?xml version="1.0" encoding="UTF-8"?>
<gpx version="1.1" creator="kr-100-mountains route-harvester"
     xmlns="http://www.topografix.com/GPX/1/1"
     xmlns:k100="https://github.com/jay-jang/kr-100-mountains/ns/1"
     xmlns:xsi="http://www.w3.org/2001/XMLSchema-instance"
     xsi:schemaLocation="http://www.topografix.com/GPX/1/1 http://www.topografix.com/GPX/1/1/gpx.xsd">
  <metadata>
    <name>가야산 · 백운동(용기골)-상왕봉 코스 (대안 2) (OSM 계산 경로)</name>
    <desc>실제 GPS 기록이 아닙니다. OpenStreetMap에 등록된 등산로 선형 위에서 계산한 경로이며, 현장 통제·훼손·출입 제한·계절 통제를 반영하지 않을 수 있습니다. 산행 전 공식 안내를 확인하세요.</desc>
    <time>2026-08-04T05:38:54.006Z</time>
    <link href="https://www.openstreetmap.org/copyright"><text>© OpenStreetMap contributors (ODbL 1.0)</text></link>
    <link href="https://registry.opendata.aws/terrain-tiles/"><text>Elevation: SRTM 1 arc-second (NASA/USGS) via AWS Terrain Tiles</text></link>
    <extensions>
      <k100:provenance>osm-routed</k100:provenance>
      <k100:not_a_recorded_track>true</k100:not_a_recorded_track>
      <k100:mountain_id>gayasan-hapcheon</k100:mountain_id>
      <k100:mountain_name>가야산(합천)</k100:mountain_name>
      <k100:route_id>gayasan-hapcheon-0f041cb1</k100:route_id>
      <k100:route_index>1</k100:route_index>
      <k100:route_name>백운동(용기골)-상왕봉 코스</k100:route_name>
      <k100:variant>2</k100:variant>
      <k100:source>OpenStreetMap via Overpass API</k100:source>
      <k100:license>ODbL-1.0</k100:license>
      <k100:attribution>© OpenStreetMap contributors</k100:attribution>
      <k100:elevation_source>SRTM 1 arc-second (NASA/USGS) — AWS Terrain Tiles 배포본. 지형 DEM 추정 고도이며 실측 아님</k100:elevation_source>
      <k100:algorithm>dijkstra-grid-v1</k100:algorithm>
      <k100:osm_snapshot>2026-08-04</k100:osm_snapshot>
      <k100:snap_trailhead_m>41</k100:snap_trailhead_m>
      <k100:snap_summit_m>53</k100:snap_summit_m>
      <k100:validation_score>100</k100:validation_score>
      <k100:validation_status>accepted</k100:validation_status>
    </extensions>
  </metadata>
  <trk>
    <name>가야산 · 백운동(용기골)-상왕봉 코스 (대안 2) (OSM 계산 경로)</name>
    <desc>실제 GPS 기록이 아닙니다. OpenStreetMap에 등록된 등산로 선형 위에서 계산한 경로이며, 현장 통제·훼손·출입 제한·계절 통제를 반영하지 않을 수 있습니다. 산행 전 공식 안내를 확인하세요.</desc>
    <trkseg>
      <trkpt lat="35.815599" lon="128.134277"><ele>826.0</ele></trkpt>
      <trkpt lat="35.815581" lon="128.134143"><ele>828.5</ele></trkpt>
      <trkpt lat="35.815471" lon="128.134158"><ele>826.4</ele></trkpt>
      <trkpt lat="35.815424" lon="128.134087"><ele>828.3</ele></trkpt>
      <trkpt lat="35.815355" lon="128.133761"><ele>839.3</ele></trkpt>
      <trkpt lat="35.815388" lon="128.133523"><ele>847.8</ele></trkpt>
      <trkpt lat="35.815303" lon="128.133408"><ele>851.5</ele></trkpt>
      <trkpt lat="35.815106" lon="128.132630"><ele>873.5</ele></trkpt>
      <trkpt lat="35.815104" lon="128.132444"><ele>878.8</ele></trkpt>
      <trkpt lat="35.814978" lon="128.132382"><ele>878.7</ele></trkpt>
      <trkpt lat="35.814889" lon="128.132261"><ele>881.0</ele></trkpt>
      <trkpt lat="35.814903" lon="128.132050"><ele>886.6</ele></trkpt>
      <trkpt lat="35.814852" lon="128.131992"><ele>887.6</ele></trkpt>
      <trkpt lat="35.814822" lon="128.131807"><ele>893.1</ele></trkpt>
      <trkpt lat="35.814583" lon="128.131532"><ele>902.8</ele></trkpt>
      <trkpt lat="35.814520" lon="128.131394"><ele>908.9</ele></trkpt>
      <trkpt lat="35.814602" lon="128.131341"><ele>912.2</ele></trkpt>
      <trkpt lat="35.814547" lon="128.131229"><ele>915.5</ele></trkpt>
      <trkpt lat="35.814600" lon="128.130908"><ele>927.0</ele></trkpt>
      <trkpt lat="35.814483" lon="128.130646"><ele>928.1</ele></trkpt>
      <trkpt lat="35.814429" lon="128.130210"><ele>934.6</ele></trkpt>
      <trkpt lat="35.814501" lon="128.129962"><ele>942.1</ele></trkpt>
      <trkpt lat="35.814633" lon="128.129780"><ele>948.7</ele></trkpt>
      <trkpt lat="35.814638" lon="128.129507"><ele>951.4</ele></trkpt>
      <trkpt lat="35.814875" lon="128.129199"><ele>962.2</ele></trkpt>
      <trkpt lat="35.814851" lon="128.129017"><ele>965.1</ele></trkpt>
      <trkpt lat="35.814926" lon="128.128742"><ele>970.1</ele></trkpt>
      <trkpt lat="35.815050" lon="128.128682"><ele>970.7</ele></trkpt>
      <trkpt lat="35.815090" lon="128.128484"><ele>975.2</ele></trkpt>
      <trkpt lat="35.815179" lon="128.128433"><ele>978.8</ele></trkpt>
      <trkpt lat="35.815160" lon="128.128217"><ele>983.9</ele></trkpt>
      <trkpt lat="35.815104" lon="128.128127"><ele>985.1</ele></trkpt>
      <trkpt lat="35.815188" lon="128.127965"><ele>990.9</ele></trkpt>
      <trkpt lat="35.815180" lon="128.127858"><ele>992.9</ele></trkpt>
      <trkpt lat="35.815117" lon="128.127659"><ele>995.8</ele></trkpt>
      <trkpt lat="35.815036" lon="128.127598"><ele>995.8</ele></trkpt>
      <trkpt lat="35.815013" lon="128.127475"><ele>998.7</ele></trkpt>
      <trkpt lat="35.815044" lon="128.127401"><ele>1001.1</ele></trkpt>
      <trkpt lat="35.814948" lon="128.127167"><ele>1006.9</ele></trkpt>
      <trkpt lat="35.814993" lon="128.127073"><ele>1010.5</ele></trkpt>
      <trkpt lat="35.815004" lon="128.126858"><ele>1018.6</ele></trkpt>
      <trkpt lat="35.814953" lon="128.126731"><ele>1022.3</ele></trkpt>
      <trkpt lat="35.814973" lon="128.126629"><ele>1025.2</ele></trkpt>
      <trkpt lat="35.814895" lon="128.126169"><ele>1038.8</ele></trkpt>
      <trkpt lat="35.814968" lon="128.126162"><ele>1038.7</ele></trkpt>
      <trkpt lat="35.815040" lon="128.126047"><ele>1042.1</ele></trkpt>
      <trkpt lat="35.814891" lon="128.125651"><ele>1046.8</ele></trkpt>
      <trkpt lat="35.814872" lon="128.124722"><ele>1067.6</ele></trkpt>
      <trkpt lat="35.814779" lon="128.124299"><ele>1074.1</ele></trkpt>
      <trkpt lat="35.814929" lon="128.124000"><ele>1081.2</ele></trkpt>
      <trkpt lat="35.814972" lon="128.123421"><ele>1100.3</ele></trkpt>
      <trkpt lat="35.815020" lon="128.123361"><ele>1102.6</ele></trkpt>
      <trkpt lat="35.815063" lon="128.123015"><ele>1109.0</ele></trkpt>
      <trkpt lat="35.815044" lon="128.122810"><ele>1111.7</ele></trkpt>
      <trkpt lat="35.815364" lon="128.121834"><ele>1088.6</ele></trkpt>
      <trkpt lat="35.815355" lon="128.121105"><ele>1072.5</ele></trkpt>
      <trkpt lat="35.815582" lon="128.120676"><ele>1062.7</ele></trkpt>
      <trkpt lat="35.815703" lon="128.120327"><ele>1060.7</ele></trkpt>
      <trkpt lat="35.815703" lon="128.120182"><ele>1058.2</ele></trkpt>
      <trkpt lat="35.815608" lon="128.119828"><ele>1049.3</ele></trkpt>
      <trkpt lat="35.815647" lon="128.119420"><ele>1042.4</ele></trkpt>
      <trkpt lat="35.815595" lon="128.118380"><ele>1026.8</ele></trkpt>
      <trkpt lat="35.815238" lon="128.117221"><ele>1017.6</ele></trkpt>
      <trkpt lat="35.815242" lon="128.117028"><ele>1017.7</ele></trkpt>
      <trkpt lat="35.815373" lon="128.116518"><ele>1015.6</ele></trkpt>
      <trkpt lat="35.815303" lon="128.116277"><ele>1009.5</ele></trkpt>
      <trkpt lat="35.815295" lon="128.115343"><ele>994.1</ele></trkpt>
      <trkpt lat="35.815216" lon="128.115204"><ele>989.1</ele></trkpt>
      <trkpt lat="35.815460" lon="128.114904"><ele>993.2</ele></trkpt>
      <trkpt lat="35.815547" lon="128.114737"><ele>994.0</ele></trkpt>
      <trkpt lat="35.815573" lon="128.114560"><ele>994.4</ele></trkpt>
      <trkpt lat="35.815523" lon="128.113032"><ele>1003.4</ele></trkpt>
      <trkpt lat="35.816317" lon="128.112921"><ele>1030.3</ele></trkpt>
      <trkpt lat="35.816459" lon="128.112977"><ele>1033.9</ele></trkpt>
      <trkpt lat="35.816572" lon="128.113148"><ele>1036.5</ele></trkpt>
      <trkpt lat="35.816715" lon="128.113208"><ele>1039.2</ele></trkpt>
      <trkpt lat="35.817319" lon="128.113196"><ele>1054.0</ele></trkpt>
      <trkpt lat="35.817386" lon="128.113118"><ele>1056.7</ele></trkpt>
      <trkpt lat="35.817617" lon="128.113077"><ele>1066.8</ele></trkpt>
      <trkpt lat="35.817737" lon="128.113117"><ele>1072.3</ele></trkpt>
      <trkpt lat="35.817847" lon="128.113242"><ele>1076.9</ele></trkpt>
      <trkpt lat="35.818007" lon="128.113132"><ele>1087.7</ele></trkpt>
      <trkpt lat="35.818210" lon="128.113147"><ele>1094.2</ele></trkpt>
      <trkpt lat="35.818371" lon="128.113244"><ele>1096.8</ele></trkpt>
      <trkpt lat="35.818953" lon="128.113909"><ele>1106.4</ele></trkpt>
      <trkpt lat="35.819052" lon="128.114090"><ele>1109.7</ele></trkpt>
      <trkpt lat="35.819217" lon="128.114494"><ele>1115.2</ele></trkpt>
      <trkpt lat="35.819377" lon="128.115200"><ele>1131.2</ele></trkpt>
      <trkpt lat="35.819560" lon="128.115358"><ele>1140.5</ele></trkpt>
      <trkpt lat="35.819595" lon="128.115484"><ele>1143.5</ele></trkpt>
      <trkpt lat="35.819740" lon="128.115622"><ele>1149.6</ele></trkpt>
      <trkpt lat="35.819842" lon="128.115945"><ele>1152.5</ele></trkpt>
      <trkpt lat="35.820126" lon="128.116029"><ele>1163.3</ele></trkpt>
      <trkpt lat="35.820339" lon="128.116243"><ele>1177.7</ele></trkpt>
      <trkpt lat="35.820341" lon="128.116399"><ele>1181.2</ele></trkpt>
      <trkpt lat="35.820471" lon="128.116475"><ele>1189.2</ele></trkpt>
      <trkpt lat="35.820493" lon="128.116587"><ele>1193.0</ele></trkpt>
      <trkpt lat="35.820789" lon="128.116647"><ele>1210.9</ele></trkpt>
      <trkpt lat="35.820873" lon="128.116760"><ele>1218.2</ele></trkpt>
      <trkpt lat="35.821095" lon="128.116873"><ele>1232.8</ele></trkpt>
      <trkpt lat="35.821296" lon="128.116856"><ele>1242.2</ele></trkpt>
      <trkpt lat="35.821681" lon="128.117155"><ele>1260.5</ele></trkpt>
      <trkpt lat="35.821919" lon="128.117174"><ele>1264.7</ele></trkpt>
      <trkpt lat="35.822094" lon="128.117369"><ele>1274.3</ele></trkpt>
      <trkpt lat="35.822352" lon="128.117386"><ele>1281.0</ele></trkpt>
      <trkpt lat="35.822432" lon="128.117452"><ele>1284.9</ele></trkpt>
      <trkpt lat="35.822460" lon="128.117583"><ele>1291.3</ele></trkpt>
      <trkpt lat="35.822542" lon="128.117697"><ele>1298.1</ele></trkpt>
      <trkpt lat="35.822644" lon="128.117741"><ele>1302.3</ele></trkpt>
      <trkpt lat="35.822854" lon="128.117627"><ele>1298.4</ele></trkpt>
      <trkpt lat="35.823117" lon="128.117642"><ele>1296.4</ele></trkpt>
      <trkpt lat="35.823150" lon="128.117758"><ele>1302.0</ele></trkpt>
      <trkpt lat="35.823124" lon="128.117848"><ele>1306.7</ele></trkpt>
      <trkpt lat="35.822951" lon="128.118046"><ele>1319.0</ele></trkpt>
      <trkpt lat="35.822622" lon="128.118125"><ele>1321.1</ele></trkpt>
      <trkpt lat="35.822615" lon="128.119098"><ele>1358.0</ele></trkpt>
      <trkpt lat="35.822689" lon="128.119478"><ele>1366.4</ele></trkpt>
      <trkpt lat="35.822808" lon="128.119708"><ele>1375.2</ele></trkpt>
      <trkpt lat="35.822859" lon="128.120029"><ele>1381.1</ele></trkpt>
      <trkpt lat="35.823199" lon="128.120359"><ele>1392.0</ele></trkpt>
      <trkpt lat="35.823494" lon="128.119973"><ele>1391.0</ele></trkpt>
      <trkpt lat="35.823681" lon="128.119630"><ele>1380.6</ele></trkpt>
      <trkpt lat="35.824255" lon="128.119678"><ele>1373.3</ele></trkpt>
      <trkpt lat="35.824538" lon="128.119426"><ele>1360.7</ele></trkpt>
      <trkpt lat="35.825099" lon="128.119163"><ele>1351.3</ele></trkpt>
    </trkseg>
  </trk>
</gpx>
