<?xml version="1.0" encoding="UTF-8"?>
<gpx version="1.1" creator="kr-100-mountains route-harvester"
     xmlns="http://www.topografix.com/GPX/1/1"
     xmlns:k100="https://github.com/jay-jang/kr-100-mountains/ns/1"
     xmlns:xsi="http://www.w3.org/2001/XMLSchema-instance"
     xsi:schemaLocation="http://www.topografix.com/GPX/1/1 http://www.topografix.com/GPX/1/1/gpx.xsd">
  <metadata>
    <name>고려산 · 백련사 코스 (OSM 계산 경로)</name>
    <desc>실제 GPS 기록이 아닙니다. OpenStreetMap에 등록된 등산로 선형 위에서 계산한 경로이며, 현장 통제·훼손·출입 제한·계절 통제를 반영하지 않을 수 있습니다. 산행 전 공식 안내를 확인하세요.</desc>
    <time>2026-08-04T05:19:31.227Z</time>
    <link href="https://www.openstreetmap.org/copyright"><text>© OpenStreetMap contributors (ODbL 1.0)</text></link>
    <link href="https://registry.opendata.aws/terrain-tiles/"><text>Elevation: SRTM 1 arc-second (NASA/USGS) via AWS Terrain Tiles</text></link>
    <extensions>
      <k100:provenance>osm-routed</k100:provenance>
      <k100:not_a_recorded_track>true</k100:not_a_recorded_track>
      <k100:mountain_id>goryeosan</k100:mountain_id>
      <k100:mountain_name>고려산</k100:mountain_name>
      <k100:route_id>goryeosan-3f129661</k100:route_id>
      <k100:route_index>1</k100:route_index>
      <k100:route_name>백련사 코스</k100:route_name>
      <k100:variant>0</k100:variant>
      <k100:source>OpenStreetMap via Overpass API</k100:source>
      <k100:license>ODbL-1.0</k100:license>
      <k100:attribution>© OpenStreetMap contributors</k100:attribution>
      <k100:elevation_source>SRTM 1 arc-second (NASA/USGS) — AWS Terrain Tiles 배포본. 지형 DEM 추정 고도이며 실측 아님</k100:elevation_source>
      <k100:algorithm>dijkstra-grid-v1</k100:algorithm>
      <k100:osm_snapshot>2026-08-04</k100:osm_snapshot>
      <k100:snap_trailhead_m>26</k100:snap_trailhead_m>
      <k100:snap_summit_m>70</k100:snap_summit_m>
      <k100:validation_score>75</k100:validation_score>
      <k100:validation_status>review</k100:validation_status>
    </extensions>
  </metadata>
  <trk>
    <name>고려산 · 백련사 코스 (OSM 계산 경로)</name>
    <desc>실제 GPS 기록이 아닙니다. OpenStreetMap에 등록된 등산로 선형 위에서 계산한 경로이며, 현장 통제·훼손·출입 제한·계절 통제를 반영하지 않을 수 있습니다. 산행 전 공식 안내를 확인하세요.</desc>
    <trkseg>
      <trkpt lat="37.750761" lon="126.438160"><ele>245.0</ele></trkpt>
      <trkpt lat="37.750314" lon="126.438408"><ele>237.7</ele></trkpt>
      <trkpt lat="37.750239" lon="126.438555"><ele>238.6</ele></trkpt>
      <trkpt lat="37.750088" lon="126.438443"><ele>244.0</ele></trkpt>
      <trkpt lat="37.749802" lon="126.438049"><ele>254.5</ele></trkpt>
      <trkpt lat="37.749535" lon="126.437968"><ele>264.6</ele></trkpt>
      <trkpt lat="37.749327" lon="126.437837"><ele>272.8</ele></trkpt>
      <trkpt lat="37.749025" lon="126.437825"><ele>281.1</ele></trkpt>
      <trkpt lat="37.748860" lon="126.437751"><ele>285.8</ele></trkpt>
      <trkpt lat="37.748256" lon="126.437201"><ele>308.7</ele></trkpt>
      <trkpt lat="37.747859" lon="126.436925"><ele>318.9</ele></trkpt>
      <trkpt lat="37.747512" lon="126.436555"><ele>323.4</ele></trkpt>
      <trkpt lat="37.748109" lon="126.436361"><ele>314.5</ele></trkpt>
      <trkpt lat="37.749121" lon="126.435667"><ele>290.9</ele></trkpt>
      <trkpt lat="37.749239" lon="126.435690"><ele>290.5</ele></trkpt>
      <trkpt lat="37.749737" lon="126.435983"><ele>289.9</ele></trkpt>
      <trkpt lat="37.750033" lon="126.435956"><ele>284.7</ele></trkpt>
      <trkpt lat="37.750437" lon="126.435837"><ele>282.6</ele></trkpt>
      <trkpt lat="37.750599" lon="126.435718"><ele>281.9</ele></trkpt>
      <trkpt lat="37.751139" lon="126.434946"><ele>272.6</ele></trkpt>
      <trkpt lat="37.752128" lon="126.434517"><ele>262.8</ele></trkpt>
      <trkpt lat="37.753200" lon="126.434517"><ele>245.8</ele></trkpt>
      <trkpt lat="37.753498" lon="126.434685"><ele>241.8</ele></trkpt>
      <trkpt lat="37.753769" lon="126.434962"><ele>237.6</ele></trkpt>
      <trkpt lat="37.753913" lon="126.434948"><ele>236.0</ele></trkpt>
      <trkpt lat="37.754317" lon="126.435216"><ele>233.2</ele></trkpt>
      <trkpt lat="37.754680" lon="126.435375"><ele>232.5</ele></trkpt>
      <trkpt lat="37.755279" lon="126.435519"><ele>237.5</ele></trkpt>
      <trkpt lat="37.755535" lon="126.435677"><ele>240.2</ele></trkpt>
      <trkpt lat="37.756002" lon="126.435742"><ele>240.1</ele></trkpt>
      <trkpt lat="37.756672" lon="126.435614"><ele>226.5</ele></trkpt>
      <trkpt lat="37.756713" lon="126.435461"><ele>225.9</ele></trkpt>
      <trkpt lat="37.757052" lon="126.434899"><ele>218.7</ele></trkpt>
      <trkpt lat="37.757344" lon="126.433703"><ele>216.9</ele></trkpt>
      <trkpt lat="37.757529" lon="126.433247"><ele>207.7</ele></trkpt>
      <trkpt lat="37.757961" lon="126.433001"><ele>198.4</ele></trkpt>
      <trkpt lat="37.758072" lon="126.432548"><ele>190.5</ele></trkpt>
      <trkpt lat="37.758324" lon="126.432143"><ele>174.7</ele></trkpt>
      <trkpt lat="37.758100" lon="126.431345"><ele>160.2</ele></trkpt>
      <trkpt lat="37.758055" lon="126.430992"><ele>148.7</ele></trkpt>
      <trkpt lat="37.758242" lon="126.430541"><ele>139.4</ele></trkpt>
      <trkpt lat="37.758247" lon="126.430294"><ele>134.7</ele></trkpt>
      <trkpt lat="37.758299" lon="126.430216"><ele>133.0</ele></trkpt>
      <trkpt lat="37.758389" lon="126.430232"><ele>133.3</ele></trkpt>
      <trkpt lat="37.758491" lon="126.430369"><ele>136.4</ele></trkpt>
      <trkpt lat="37.759117" lon="126.430450"><ele>126.2</ele></trkpt>
      <trkpt lat="37.759184" lon="126.430310"><ele>123.1</ele></trkpt>
      <trkpt lat="37.759320" lon="126.430222"><ele>119.6</ele></trkpt>
      <trkpt lat="37.759627" lon="126.429874"><ele>107.8</ele></trkpt>
      <trkpt lat="37.759775" lon="126.429588"><ele>99.6</ele></trkpt>
      <trkpt lat="37.759991" lon="126.428971"><ele>86.8</ele></trkpt>
      <trkpt lat="37.759979" lon="126.428740"><ele>82.8</ele></trkpt>
      <trkpt lat="37.760024" lon="126.428490"><ele>80.0</ele></trkpt>
      <trkpt lat="37.759929" lon="126.428200"><ele>76.4</ele></trkpt>
      <trkpt lat="37.760138" lon="126.427011"><ele>66.2</ele></trkpt>
      <trkpt lat="37.761637" lon="126.425944"><ele>60.2</ele></trkpt>
      <trkpt lat="37.761840" lon="126.425946"><ele>61.7</ele></trkpt>
      <trkpt lat="37.761998" lon="126.425436"><ele>51.4</ele></trkpt>
      <trkpt lat="37.762199" lon="126.425161"><ele>50.6</ele></trkpt>
      <trkpt lat="37.762343" lon="126.424697"><ele>45.4</ele></trkpt>
      <trkpt lat="37.762505" lon="126.424430"><ele>42.9</ele></trkpt>
      <trkpt lat="37.762884" lon="126.423533"><ele>39.8</ele></trkpt>
      <trkpt lat="37.762996" lon="126.423483"><ele>38.6</ele></trkpt>
      <trkpt lat="37.763210" lon="126.423564"><ele>37.9</ele></trkpt>
      <trkpt lat="37.763488" lon="126.423169"><ele>37.6</ele></trkpt>
      <trkpt lat="37.763733" lon="126.423044"><ele>38.4</ele></trkpt>
      <trkpt lat="37.764207" lon="126.422672"><ele>35.1</ele></trkpt>
      <trkpt lat="37.764547" lon="126.422501"><ele>34.0</ele></trkpt>
      <trkpt lat="37.765242" lon="126.421840"><ele>28.0</ele></trkpt>
      <trkpt lat="37.765208" lon="126.421754"><ele>27.9</ele></trkpt>
      <trkpt lat="37.765575" lon="126.421410"><ele>26.0</ele></trkpt>
      <trkpt lat="37.769063" lon="126.420364"><ele>15.5</ele></trkpt>
      <trkpt lat="37.768648" lon="126.417998"><ele>11.0</ele></trkpt>
    </trkseg>
  </trk>
</gpx>
