<?xml version="1.0" encoding="UTF-8"?>
<gpx version="1.1" creator="kr-100-mountains route-harvester"
     xmlns="http://www.topografix.com/GPX/1/1"
     xmlns:k100="https://github.com/jay-jang/kr-100-mountains/ns/1"
     xmlns:xsi="http://www.w3.org/2001/XMLSchema-instance"
     xsi:schemaLocation="http://www.topografix.com/GPX/1/1 http://www.topografix.com/GPX/1/1/gpx.xsd">
  <metadata>
    <name>공작산 · 공작현 왕복 최단코스 (대안 1) (OSM 계산 경로)</name>
    <desc>실제 GPS 기록이 아닙니다. OpenStreetMap에 등록된 등산로 선형 위에서 계산한 경로이며, 현장 통제·훼손·출입 제한·계절 통제를 반영하지 않을 수 있습니다. 산행 전 공식 안내를 확인하세요.</desc>
    <time>2026-08-04T05:26:18.538Z</time>
    <link href="https://www.openstreetmap.org/copyright"><text>© OpenStreetMap contributors (ODbL 1.0)</text></link>
    <link href="https://registry.opendata.aws/terrain-tiles/"><text>Elevation: SRTM 1 arc-second (NASA/USGS) via AWS Terrain Tiles</text></link>
    <extensions>
      <k100:provenance>osm-routed</k100:provenance>
      <k100:not_a_recorded_track>true</k100:not_a_recorded_track>
      <k100:mountain_id>gongjaksan</k100:mountain_id>
      <k100:mountain_name>공작산</k100:mountain_name>
      <k100:route_id>gongjaksan-b6aea309</k100:route_id>
      <k100:route_index>1</k100:route_index>
      <k100:route_name>공작현 왕복 최단코스</k100:route_name>
      <k100:variant>1</k100:variant>
      <k100:source>OpenStreetMap via Overpass API</k100:source>
      <k100:license>ODbL-1.0</k100:license>
      <k100:attribution>© OpenStreetMap contributors</k100:attribution>
      <k100:elevation_source>SRTM 1 arc-second (NASA/USGS) — AWS Terrain Tiles 배포본. 지형 DEM 추정 고도이며 실측 아님</k100:elevation_source>
      <k100:algorithm>dijkstra-grid-v1</k100:algorithm>
      <k100:osm_snapshot>2026-08-04</k100:osm_snapshot>
      <k100:snap_trailhead_m>11</k100:snap_trailhead_m>
      <k100:snap_summit_m>28</k100:snap_summit_m>
      <k100:validation_score>75</k100:validation_score>
      <k100:validation_status>review</k100:validation_status>
    </extensions>
  </metadata>
  <trk>
    <name>공작산 · 공작현 왕복 최단코스 (대안 1) (OSM 계산 경로)</name>
    <desc>실제 GPS 기록이 아닙니다. OpenStreetMap에 등록된 등산로 선형 위에서 계산한 경로이며, 현장 통제·훼손·출입 제한·계절 통제를 반영하지 않을 수 있습니다. 산행 전 공식 안내를 확인하세요.</desc>
    <trkseg>
      <trkpt lat="37.703827" lon="128.028364"><ele>489.7</ele></trkpt>
      <trkpt lat="37.703835" lon="128.028276"><ele>489.3</ele></trkpt>
      <trkpt lat="37.704086" lon="128.028292"><ele>496.5</ele></trkpt>
      <trkpt lat="37.704074" lon="128.028138"><ele>494.6</ele></trkpt>
      <trkpt lat="37.703996" lon="128.028003"><ele>491.2</ele></trkpt>
      <trkpt lat="37.704089" lon="128.028040"><ele>493.9</ele></trkpt>
      <trkpt lat="37.704170" lon="128.027906"><ele>494.5</ele></trkpt>
      <trkpt lat="37.704582" lon="128.027670"><ele>503.2</ele></trkpt>
      <trkpt lat="37.704605" lon="128.027442"><ele>500.0</ele></trkpt>
      <trkpt lat="37.704465" lon="128.026965"><ele>495.7</ele></trkpt>
      <trkpt lat="37.703852" lon="128.026369"><ele>498.9</ele></trkpt>
      <trkpt lat="37.703637" lon="128.026230"><ele>501.2</ele></trkpt>
      <trkpt lat="37.703361" lon="128.025693"><ele>512.7</ele></trkpt>
      <trkpt lat="37.703334" lon="128.025463"><ele>509.6</ele></trkpt>
      <trkpt lat="37.703279" lon="128.025401"><ele>506.2</ele></trkpt>
      <trkpt lat="37.703173" lon="128.025417"><ele>505.5</ele></trkpt>
      <trkpt lat="37.702935" lon="128.025637"><ele>503.2</ele></trkpt>
      <trkpt lat="37.702324" lon="128.025776"><ele>492.6</ele></trkpt>
      <trkpt lat="37.702067" lon="128.025771"><ele>489.2</ele></trkpt>
      <trkpt lat="37.701882" lon="128.025905"><ele>489.4</ele></trkpt>
      <trkpt lat="37.701426" lon="128.025959"><ele>490.9</ele></trkpt>
      <trkpt lat="37.701192" lon="128.025841"><ele>484.2</ele></trkpt>
      <trkpt lat="37.701008" lon="128.025851"><ele>478.2</ele></trkpt>
      <trkpt lat="37.700874" lon="128.025739"><ele>470.8</ele></trkpt>
      <trkpt lat="37.700702" lon="128.025723"><ele>464.6</ele></trkpt>
      <trkpt lat="37.700613" lon="128.025452"><ele>456.2</ele></trkpt>
      <trkpt lat="37.700452" lon="128.025337"><ele>446.5</ele></trkpt>
      <trkpt lat="37.700210" lon="128.024813"><ele>419.4</ele></trkpt>
      <trkpt lat="37.700063" lon="128.024669"><ele>411.9</ele></trkpt>
      <trkpt lat="37.699573" lon="128.024465"><ele>402.4</ele></trkpt>
      <trkpt lat="37.699249" lon="128.024132"><ele>396.5</ele></trkpt>
      <trkpt lat="37.698896" lon="128.024105"><ele>382.5</ele></trkpt>
      <trkpt lat="37.698625" lon="128.023912"><ele>368.6</ele></trkpt>
      <trkpt lat="37.698406" lon="128.023539"><ele>359.2</ele></trkpt>
      <trkpt lat="37.698247" lon="128.023427"><ele>353.4</ele></trkpt>
      <trkpt lat="37.698158" lon="128.023271"><ele>349.5</ele></trkpt>
      <trkpt lat="37.697723" lon="128.023226"><ele>338.1</ele></trkpt>
      <trkpt lat="37.697602" lon="128.023143"><ele>334.4</ele></trkpt>
      <trkpt lat="37.697564" lon="128.023057"><ele>332.8</ele></trkpt>
      <trkpt lat="37.697727" lon="128.022855"><ele>334.2</ele></trkpt>
      <trkpt lat="37.697721" lon="128.022611"><ele>329.7</ele></trkpt>
      <trkpt lat="37.697640" lon="128.022271"><ele>326.6</ele></trkpt>
      <trkpt lat="37.697674" lon="128.022155"><ele>326.9</ele></trkpt>
      <trkpt lat="37.697975" lon="128.021874"><ele>331.5</ele></trkpt>
      <trkpt lat="37.698349" lon="128.021729"><ele>334.1</ele></trkpt>
      <trkpt lat="37.698323" lon="128.021598"><ele>335.8</ele></trkpt>
      <trkpt lat="37.698915" lon="128.021437"><ele>335.2</ele></trkpt>
      <trkpt lat="37.699469" lon="128.020930"><ele>340.2</ele></trkpt>
      <trkpt lat="37.699673" lon="128.020251"><ele>342.7</ele></trkpt>
      <trkpt lat="37.699682" lon="128.019865"><ele>346.0</ele></trkpt>
      <trkpt lat="37.699745" lon="128.019664"><ele>346.8</ele></trkpt>
      <trkpt lat="37.700038" lon="128.019605"><ele>342.7</ele></trkpt>
      <trkpt lat="37.700187" lon="128.019519"><ele>343.9</ele></trkpt>
      <trkpt lat="37.700513" lon="128.019149"><ele>350.1</ele></trkpt>
      <trkpt lat="37.700722" lon="128.018779"><ele>355.5</ele></trkpt>
      <trkpt lat="37.700997" lon="128.017861"><ele>362.3</ele></trkpt>
      <trkpt lat="37.701282" lon="128.017405"><ele>366.7</ele></trkpt>
      <trkpt lat="37.701364" lon="128.017145"><ele>366.3</ele></trkpt>
      <trkpt lat="37.701451" lon="128.016300"><ele>370.9</ele></trkpt>
      <trkpt lat="37.701655" lon="128.015774"><ele>374.1</ele></trkpt>
      <trkpt lat="37.701969" lon="128.015289"><ele>372.5</ele></trkpt>
      <trkpt lat="37.702345" lon="128.015139"><ele>380.6</ele></trkpt>
      <trkpt lat="37.702822" lon="128.014533"><ele>382.2</ele></trkpt>
      <trkpt lat="37.703090" lon="128.014318"><ele>382.5</ele></trkpt>
      <trkpt lat="37.703724" lon="128.014045"><ele>393.9</ele></trkpt>
      <trkpt lat="37.703892" lon="128.013827"><ele>391.7</ele></trkpt>
      <trkpt lat="37.704321" lon="128.012792"><ele>400.2</ele></trkpt>
      <trkpt lat="37.704766" lon="128.012176"><ele>407.6</ele></trkpt>
      <trkpt lat="37.705485" lon="128.010672"><ele>427.3</ele></trkpt>
      <trkpt lat="37.706100" lon="128.010629"><ele>431.8</ele></trkpt>
      <trkpt lat="37.706303" lon="128.010335"><ele>433.8</ele></trkpt>
      <trkpt lat="37.706816" lon="128.010067"><ele>444.4</ele></trkpt>
      <trkpt lat="37.706903" lon="128.010096"><ele>447.6</ele></trkpt>
      <trkpt lat="37.707024" lon="128.009933"><ele>447.4</ele></trkpt>
      <trkpt lat="37.707236" lon="128.009791"><ele>450.4</ele></trkpt>
      <trkpt lat="37.707529" lon="128.009364"><ele>459.2</ele></trkpt>
      <trkpt lat="37.707818" lon="128.009249"><ele>468.3</ele></trkpt>
      <trkpt lat="37.708382" lon="128.008594"><ele>483.5</ele></trkpt>
      <trkpt lat="37.708586" lon="128.008522"><ele>489.3</ele></trkpt>
      <trkpt lat="37.709152" lon="128.008476"><ele>509.1</ele></trkpt>
      <trkpt lat="37.709861" lon="128.008055"><ele>525.5</ele></trkpt>
      <trkpt lat="37.710118" lon="128.007744"><ele>533.2</ele></trkpt>
      <trkpt lat="37.710428" lon="128.007696"><ele>542.9</ele></trkpt>
      <trkpt lat="37.710682" lon="128.007556"><ele>551.5</ele></trkpt>
      <trkpt lat="37.710805" lon="128.007556"><ele>556.5</ele></trkpt>
      <trkpt lat="37.711192" lon="128.007173"><ele>570.1</ele></trkpt>
      <trkpt lat="37.711724" lon="128.006840"><ele>592.5</ele></trkpt>
      <trkpt lat="37.712089" lon="128.006368"><ele>612.3</ele></trkpt>
      <trkpt lat="37.712588" lon="128.005915"><ele>655.7</ele></trkpt>
      <trkpt lat="37.712724" lon="128.005858"><ele>662.5</ele></trkpt>
      <trkpt lat="37.712993" lon="128.005992"><ele>669.9</ele></trkpt>
      <trkpt lat="37.713165" lon="128.005845"><ele>672.3</ele></trkpt>
      <trkpt lat="37.713292" lon="128.005995"><ele>676.2</ele></trkpt>
      <trkpt lat="37.713349" lon="128.006258"><ele>682.6</ele></trkpt>
      <trkpt lat="37.713634" lon="128.006224"><ele>678.5</ele></trkpt>
      <trkpt lat="37.713787" lon="128.006435"><ele>678.4</ele></trkpt>
      <trkpt lat="37.713935" lon="128.006328"><ele>669.3</ele></trkpt>
      <trkpt lat="37.714062" lon="128.006371"><ele>672.2</ele></trkpt>
      <trkpt lat="37.714207" lon="128.006285"><ele>670.4</ele></trkpt>
      <trkpt lat="37.714364" lon="128.006430"><ele>679.8</ele></trkpt>
      <trkpt lat="37.714669" lon="128.006499"><ele>681.6</ele></trkpt>
      <trkpt lat="37.714932" lon="128.006350"><ele>677.2</ele></trkpt>
      <trkpt lat="37.714954" lon="128.005990"><ele>668.7</ele></trkpt>
      <trkpt lat="37.714848" lon="128.005883"><ele>663.3</ele></trkpt>
      <trkpt lat="37.714784" lon="128.005711"><ele>657.1</ele></trkpt>
      <trkpt lat="37.714609" lon="128.005530"><ele>647.3</ele></trkpt>
      <trkpt lat="37.714566" lon="128.005330"><ele>639.2</ele></trkpt>
      <trkpt lat="37.714594" lon="128.005124"><ele>633.2</ele></trkpt>
      <trkpt lat="37.714259" lon="128.004765"><ele>608.8</ele></trkpt>
      <trkpt lat="37.714250" lon="128.004417"><ele>595.5</ele></trkpt>
      <trkpt lat="37.714258" lon="128.004096"><ele>587.2</ele></trkpt>
      <trkpt lat="37.714389" lon="128.003479"><ele>580.9</ele></trkpt>
      <trkpt lat="37.714615" lon="128.002912"><ele>560.0</ele></trkpt>
      <trkpt lat="37.714845" lon="128.001896"><ele>546.2</ele></trkpt>
      <trkpt lat="37.714986" lon="128.001690"><ele>539.9</ele></trkpt>
      <trkpt lat="37.715184" lon="128.001722"><ele>535.0</ele></trkpt>
      <trkpt lat="37.715549" lon="128.001926"><ele>525.1</ele></trkpt>
      <trkpt lat="37.715929" lon="128.001615"><ele>511.8</ele></trkpt>
      <trkpt lat="37.716341" lon="128.001742"><ele>503.1</ele></trkpt>
      <trkpt lat="37.716530" lon="128.001688"><ele>498.6</ele></trkpt>
      <trkpt lat="37.716951" lon="128.001347"><ele>490.3</ele></trkpt>
      <trkpt lat="37.717092" lon="128.000976"><ele>475.6</ele></trkpt>
      <trkpt lat="37.717258" lon="128.000759"><ele>466.2</ele></trkpt>
      <trkpt lat="37.717387" lon="128.000478"><ele>462.1</ele></trkpt>
      <trkpt lat="37.717430" lon="128.000245"><ele>460.4</ele></trkpt>
      <trkpt lat="37.717573" lon="127.999989"><ele>452.9</ele></trkpt>
      <trkpt lat="37.717582" lon="127.999781"><ele>452.3</ele></trkpt>
      <trkpt lat="37.717795" lon="127.999396"><ele>440.9</ele></trkpt>
      <trkpt lat="37.717865" lon="127.999165"><ele>438.4</ele></trkpt>
      <trkpt lat="37.718021" lon="127.998946"><ele>435.9</ele></trkpt>
      <trkpt lat="37.718048" lon="127.998654"><ele>435.3</ele></trkpt>
      <trkpt lat="37.718244" lon="127.998152"><ele>429.8</ele></trkpt>
      <trkpt lat="37.718420" lon="127.997938"><ele>420.4</ele></trkpt>
      <trkpt lat="37.718474" lon="127.997670"><ele>413.8</ele></trkpt>
      <trkpt lat="37.718462" lon="127.997155"><ele>407.9</ele></trkpt>
      <trkpt lat="37.718804" lon="127.996090"><ele>381.6</ele></trkpt>
      <trkpt lat="37.718818" lon="127.995582"><ele>369.7</ele></trkpt>
      <trkpt lat="37.719081" lon="127.995474"><ele>365.6</ele></trkpt>
      <trkpt lat="37.719143" lon="127.995168"><ele>363.2</ele></trkpt>
      <trkpt lat="37.719083" lon="127.993743"><ele>350.7</ele></trkpt>
      <trkpt lat="37.718997" lon="127.993372"><ele>345.9</ele></trkpt>
      <trkpt lat="37.719051" lon="127.992843"><ele>339.3</ele></trkpt>
      <trkpt lat="37.719354" lon="127.992144"><ele>326.0</ele></trkpt>
      <trkpt lat="37.719320" lon="127.991753"><ele>322.5</ele></trkpt>
      <trkpt lat="37.719344" lon="127.991497"><ele>320.6</ele></trkpt>
      <trkpt lat="37.719732" lon="127.990137"><ele>306.1</ele></trkpt>
      <trkpt lat="37.720549" lon="127.989535"><ele>304.0</ele></trkpt>
      <trkpt lat="37.721192" lon="127.988695"><ele>290.4</ele></trkpt>
      <trkpt lat="37.721338" lon="127.988329"><ele>287.4</ele></trkpt>
      <trkpt lat="37.721505" lon="127.988100"><ele>285.4</ele></trkpt>
      <trkpt lat="37.721857" lon="127.987427"><ele>267.9</ele></trkpt>
      <trkpt lat="37.722108" lon="127.986701"><ele>263.3</ele></trkpt>
      <trkpt lat="37.722412" lon="127.986041"><ele>261.2</ele></trkpt>
      <trkpt lat="37.722346" lon="127.984827"><ele>250.7</ele></trkpt>
      <trkpt lat="37.722861" lon="127.983687"><ele>250.1</ele></trkpt>
      <trkpt lat="37.722898" lon="127.983127"><ele>251.9</ele></trkpt>
      <trkpt lat="37.722978" lon="127.982759"><ele>253.1</ele></trkpt>
      <trkpt lat="37.722868" lon="127.981579"><ele>239.6</ele></trkpt>
      <trkpt lat="37.722969" lon="127.981030"><ele>235.7</ele></trkpt>
      <trkpt lat="37.723099" lon="127.980623"><ele>234.0</ele></trkpt>
      <trkpt lat="37.723400" lon="127.980155"><ele>234.8</ele></trkpt>
      <trkpt lat="37.723691" lon="127.979811"><ele>234.5</ele></trkpt>
      <trkpt lat="37.723886" lon="127.979185"><ele>226.3</ele></trkpt>
      <trkpt lat="37.724088" lon="127.978729"><ele>226.4</ele></trkpt>
      <trkpt lat="37.724333" lon="127.978334"><ele>227.6</ele></trkpt>
      <trkpt lat="37.724476" lon="127.977974"><ele>225.8</ele></trkpt>
      <trkpt lat="37.724683" lon="127.977676"><ele>225.5</ele></trkpt>
      <trkpt lat="37.725305" lon="127.977371"><ele>229.0</ele></trkpt>
      <trkpt lat="37.725392" lon="127.977139"><ele>225.9</ele></trkpt>
      <trkpt lat="37.725433" lon="127.976608"><ele>216.5</ele></trkpt>
      <trkpt lat="37.725912" lon="127.976013"><ele>218.5</ele></trkpt>
      <trkpt lat="37.726147" lon="127.975512"><ele>218.2</ele></trkpt>
      <trkpt lat="37.726425" lon="127.975364"><ele>218.4</ele></trkpt>
      <trkpt lat="37.726492" lon="127.975261"><ele>218.9</ele></trkpt>
      <trkpt lat="37.726542" lon="127.975107"><ele>221.2</ele></trkpt>
      <trkpt lat="37.726506" lon="127.974887"><ele>220.7</ele></trkpt>
      <trkpt lat="37.726348" lon="127.974392"><ele>211.4</ele></trkpt>
      <trkpt lat="37.726391" lon="127.974186"><ele>210.3</ele></trkpt>
      <trkpt lat="37.726595" lon="127.973798"><ele>211.4</ele></trkpt>
      <trkpt lat="37.726631" lon="127.973613"><ele>210.5</ele></trkpt>
      <trkpt lat="37.726475" lon="127.973303"><ele>201.3</ele></trkpt>
      <trkpt lat="37.726515" lon="127.972975"><ele>200.2</ele></trkpt>
      <trkpt lat="37.726862" lon="127.972299"><ele>198.5</ele></trkpt>
      <trkpt lat="37.727558" lon="127.971357"><ele>204.2</ele></trkpt>
      <trkpt lat="37.727936" lon="127.970736"><ele>199.8</ele></trkpt>
      <trkpt lat="37.728012" lon="127.970398"><ele>198.9</ele></trkpt>
      <trkpt lat="37.727931" lon="127.970129"><ele>196.1</ele></trkpt>
      <trkpt lat="37.727765" lon="127.969842"><ele>194.0</ele></trkpt>
      <trkpt lat="37.727759" lon="127.969550"><ele>194.1</ele></trkpt>
      <trkpt lat="37.727997" lon="127.968702"><ele>193.3</ele></trkpt>
      <trkpt lat="37.728360" lon="127.967788"><ele>188.8</ele></trkpt>
      <trkpt lat="37.728620" lon="127.967307"><ele>187.3</ele></trkpt>
      <trkpt lat="37.728619" lon="127.966998"><ele>187.7</ele></trkpt>
      <trkpt lat="37.728820" lon="127.966421"><ele>188.2</ele></trkpt>
      <trkpt lat="37.728932" lon="127.965804"><ele>192.8</ele></trkpt>
      <trkpt lat="37.729156" lon="127.965443"><ele>190.4</ele></trkpt>
      <trkpt lat="37.729504" lon="127.965043"><ele>188.1</ele></trkpt>
      <trkpt lat="37.729664" lon="127.964682"><ele>191.7</ele></trkpt>
      <trkpt lat="37.729859" lon="127.963490"><ele>193.3</ele></trkpt>
      <trkpt lat="37.729776" lon="127.963400"><ele>193.1</ele></trkpt>
      <trkpt lat="37.729169" lon="127.963695"><ele>189.8</ele></trkpt>
      <trkpt lat="37.728939" lon="127.963984"><ele>190.9</ele></trkpt>
      <trkpt lat="37.728857" lon="127.964518"><ele>200.9</ele></trkpt>
      <trkpt lat="37.728702" lon="127.964808"><ele>200.3</ele></trkpt>
      <trkpt lat="37.727651" lon="127.965406"><ele>190.6</ele></trkpt>
      <trkpt lat="37.727245" lon="127.965715"><ele>193.4</ele></trkpt>
      <trkpt lat="37.727090" lon="127.965895"><ele>194.4</ele></trkpt>
      <trkpt lat="37.726824" lon="127.966005"><ele>191.9</ele></trkpt>
      <trkpt lat="37.725938" lon="127.965901"><ele>185.9</ele></trkpt>
      <trkpt lat="37.725815" lon="127.965829"><ele>186.1</ele></trkpt>
      <trkpt lat="37.725627" lon="127.965389"><ele>196.9</ele></trkpt>
      <trkpt lat="37.725242" lon="127.965848"><ele>191.8</ele></trkpt>
      <trkpt lat="37.724656" lon="127.966733"><ele>194.5</ele></trkpt>
      <trkpt lat="37.724408" lon="127.966917"><ele>195.7</ele></trkpt>
      <trkpt lat="37.721944" lon="127.967445"><ele>201.8</ele></trkpt>
      <trkpt lat="37.721350" lon="127.967401"><ele>200.0</ele></trkpt>
      <trkpt lat="37.721111" lon="127.967436"><ele>196.8</ele></trkpt>
      <trkpt lat="37.720034" lon="127.967776"><ele>203.4</ele></trkpt>
      <trkpt lat="37.719325" lon="127.967925"><ele>210.9</ele></trkpt>
      <trkpt lat="37.719089" lon="127.968072"><ele>210.3</ele></trkpt>
      <trkpt lat="37.718702" lon="127.968503"><ele>212.1</ele></trkpt>
      <trkpt lat="37.718478" lon="127.968645"><ele>211.6</ele></trkpt>
      <trkpt lat="37.718168" lon="127.968751"><ele>211.0</ele></trkpt>
      <trkpt lat="37.717088" lon="127.969560"><ele>222.8</ele></trkpt>
      <trkpt lat="37.716799" lon="127.969665"><ele>220.8</ele></trkpt>
      <trkpt lat="37.716464" lon="127.969597"><ele>223.5</ele></trkpt>
      <trkpt lat="37.716317" lon="127.969625"><ele>224.2</ele></trkpt>
      <trkpt lat="37.714194" lon="127.970687"><ele>234.6</ele></trkpt>
      <trkpt lat="37.713985" lon="127.970834"><ele>233.7</ele></trkpt>
      <trkpt lat="37.713480" lon="127.971384"><ele>233.9</ele></trkpt>
      <trkpt lat="37.713291" lon="127.971422"><ele>236.3</ele></trkpt>
      <trkpt lat="37.712416" lon="127.971398"><ele>237.9</ele></trkpt>
      <trkpt lat="37.712145" lon="127.971191"><ele>245.2</ele></trkpt>
      <trkpt lat="37.711705" lon="127.971263"><ele>254.6</ele></trkpt>
      <trkpt lat="37.711232" lon="127.971236"><ele>265.9</ele></trkpt>
      <trkpt lat="37.710956" lon="127.971386"><ele>264.8</ele></trkpt>
      <trkpt lat="37.710604" lon="127.971438"><ele>269.7</ele></trkpt>
      <trkpt lat="37.710319" lon="127.971588"><ele>271.7</ele></trkpt>
      <trkpt lat="37.709879" lon="127.971580"><ele>279.9</ele></trkpt>
      <trkpt lat="37.709161" lon="127.971792"><ele>287.7</ele></trkpt>
      <trkpt lat="37.709012" lon="127.971786"><ele>287.7</ele></trkpt>
      <trkpt lat="37.708724" lon="127.971587"><ele>293.4</ele></trkpt>
      <trkpt lat="37.708673" lon="127.971368"><ele>303.1</ele></trkpt>
      <trkpt lat="37.708516" lon="127.971116"><ele>311.4</ele></trkpt>
      <trkpt lat="37.708414" lon="127.971080"><ele>310.1</ele></trkpt>
      <trkpt lat="37.707948" lon="127.971208"><ele>304.9</ele></trkpt>
      <trkpt lat="37.707625" lon="127.971199"><ele>306.7</ele></trkpt>
      <trkpt lat="37.706730" lon="127.970975"><ele>326.7</ele></trkpt>
      <trkpt lat="37.706661" lon="127.971065"><ele>325.4</ele></trkpt>
      <trkpt lat="37.706817" lon="127.971340"><ele>317.0</ele></trkpt>
      <trkpt lat="37.706822" lon="127.971440"><ele>315.8</ele></trkpt>
      <trkpt lat="37.706570" lon="127.971803"><ele>318.8</ele></trkpt>
      <trkpt lat="37.705943" lon="127.971910"><ele>337.0</ele></trkpt>
      <trkpt lat="37.705451" lon="127.972467"><ele>348.7</ele></trkpt>
      <trkpt lat="37.705365" lon="127.972631"><ele>351.9</ele></trkpt>
      <trkpt lat="37.705569" lon="127.973021"><ele>343.5</ele></trkpt>
      <trkpt lat="37.705412" lon="127.973113"><ele>349.8</ele></trkpt>
      <trkpt lat="37.705280" lon="127.973323"><ele>354.0</ele></trkpt>
      <trkpt lat="37.704778" lon="127.973546"><ele>370.2</ele></trkpt>
      <trkpt lat="37.704539" lon="127.973748"><ele>377.4</ele></trkpt>
      <trkpt lat="37.704408" lon="127.973876"><ele>382.1</ele></trkpt>
      <trkpt lat="37.704193" lon="127.974238"><ele>389.0</ele></trkpt>
      <trkpt lat="37.704150" lon="127.974433"><ele>391.6</ele></trkpt>
      <trkpt lat="37.704184" lon="127.974638"><ele>393.2</ele></trkpt>
      <trkpt lat="37.704340" lon="127.974890"><ele>393.1</ele></trkpt>
      <trkpt lat="37.704420" lon="127.975206"><ele>399.4</ele></trkpt>
      <trkpt lat="37.704491" lon="127.975307"><ele>399.4</ele></trkpt>
      <trkpt lat="37.704669" lon="127.975324"><ele>390.5</ele></trkpt>
      <trkpt lat="37.704741" lon="127.975434"><ele>390.8</ele></trkpt>
      <trkpt lat="37.704713" lon="127.975962"><ele>404.5</ele></trkpt>
      <trkpt lat="37.704608" lon="127.976153"><ele>407.5</ele></trkpt>
      <trkpt lat="37.704262" lon="127.976408"><ele>411.2</ele></trkpt>
      <trkpt lat="37.704517" lon="127.975979"><ele>407.8</ele></trkpt>
      <trkpt lat="37.704450" lon="127.975831"><ele>409.9</ele></trkpt>
      <trkpt lat="37.704109" lon="127.975604"><ele>415.3</ele></trkpt>
      <trkpt lat="37.703982" lon="127.975416"><ele>413.8</ele></trkpt>
      <trkpt lat="37.703947" lon="127.975134"><ele>408.5</ele></trkpt>
      <trkpt lat="37.703802" lon="127.974982"><ele>403.7</ele></trkpt>
      <trkpt lat="37.703822" lon="127.974892"><ele>403.3</ele></trkpt>
      <trkpt lat="37.703739" lon="127.974691"><ele>402.9</ele></trkpt>
    </trkseg>
  </trk>
</gpx>
