<?xml version="1.0" encoding="UTF-8"?>
<gpx version="1.1" creator="kr-100-mountains route-harvester"
     xmlns="http://www.topografix.com/GPX/1/1"
     xmlns:k100="https://github.com/jay-jang/kr-100-mountains/ns/1"
     xmlns:xsi="http://www.w3.org/2001/XMLSchema-instance"
     xsi:schemaLocation="http://www.topografix.com/GPX/1/1 http://www.topografix.com/GPX/1/1/gpx.xsd">
  <metadata>
    <name>공작산 · 공작현 왕복 최단코스 (대안 2) (OSM 계산 경로)</name>
    <desc>실제 GPS 기록이 아닙니다. OpenStreetMap에 등록된 등산로 선형 위에서 계산한 경로이며, 현장 통제·훼손·출입 제한·계절 통제를 반영하지 않을 수 있습니다. 산행 전 공식 안내를 확인하세요.</desc>
    <time>2026-08-04T05:26:18.539Z</time>
    <link href="https://www.openstreetmap.org/copyright"><text>© OpenStreetMap contributors (ODbL 1.0)</text></link>
    <link href="https://registry.opendata.aws/terrain-tiles/"><text>Elevation: SRTM 1 arc-second (NASA/USGS) via AWS Terrain Tiles</text></link>
    <extensions>
      <k100:provenance>osm-routed</k100:provenance>
      <k100:not_a_recorded_track>true</k100:not_a_recorded_track>
      <k100:mountain_id>gongjaksan</k100:mountain_id>
      <k100:mountain_name>공작산</k100:mountain_name>
      <k100:route_id>gongjaksan-b6aea309</k100:route_id>
      <k100:route_index>1</k100:route_index>
      <k100:route_name>공작현 왕복 최단코스</k100:route_name>
      <k100:variant>2</k100:variant>
      <k100:source>OpenStreetMap via Overpass API</k100:source>
      <k100:license>ODbL-1.0</k100:license>
      <k100:attribution>© OpenStreetMap contributors</k100:attribution>
      <k100:elevation_source>SRTM 1 arc-second (NASA/USGS) — AWS Terrain Tiles 배포본. 지형 DEM 추정 고도이며 실측 아님</k100:elevation_source>
      <k100:algorithm>dijkstra-grid-v1</k100:algorithm>
      <k100:osm_snapshot>2026-08-04</k100:osm_snapshot>
      <k100:snap_trailhead_m>11</k100:snap_trailhead_m>
      <k100:snap_summit_m>28</k100:snap_summit_m>
      <k100:validation_score>75</k100:validation_score>
      <k100:validation_status>review</k100:validation_status>
    </extensions>
  </metadata>
  <trk>
    <name>공작산 · 공작현 왕복 최단코스 (대안 2) (OSM 계산 경로)</name>
    <desc>실제 GPS 기록이 아닙니다. OpenStreetMap에 등록된 등산로 선형 위에서 계산한 경로이며, 현장 통제·훼손·출입 제한·계절 통제를 반영하지 않을 수 있습니다. 산행 전 공식 안내를 확인하세요.</desc>
    <trkseg>
      <trkpt lat="37.703827" lon="128.028364"><ele>489.7</ele></trkpt>
      <trkpt lat="37.703673" lon="128.028503"><ele>485.8</ele></trkpt>
      <trkpt lat="37.703403" lon="128.028274"><ele>472.4</ele></trkpt>
      <trkpt lat="37.703345" lon="128.028067"><ele>468.6</ele></trkpt>
      <trkpt lat="37.703650" lon="128.027440"><ele>472.4</ele></trkpt>
      <trkpt lat="37.703669" lon="128.027260"><ele>472.6</ele></trkpt>
      <trkpt lat="37.703518" lon="128.027067"><ele>470.7</ele></trkpt>
      <trkpt lat="37.703346" lon="128.027061"><ele>465.9</ele></trkpt>
      <trkpt lat="37.703010" lon="128.027200"><ele>459.1</ele></trkpt>
      <trkpt lat="37.702820" lon="128.027400"><ele>453.9</ele></trkpt>
      <trkpt lat="37.702670" lon="128.027660"><ele>447.2</ele></trkpt>
      <trkpt lat="37.702646" lon="128.028172"><ele>445.4</ele></trkpt>
      <trkpt lat="37.702550" lon="128.028420"><ele>445.5</ele></trkpt>
      <trkpt lat="37.702284" lon="128.028495"><ele>442.6</ele></trkpt>
      <trkpt lat="37.701950" lon="128.028320"><ele>430.9</ele></trkpt>
      <trkpt lat="37.700878" lon="128.028266"><ele>408.5</ele></trkpt>
      <trkpt lat="37.700690" lon="128.028330"><ele>405.8</ele></trkpt>
      <trkpt lat="37.700365" lon="128.028715"><ele>412.2</ele></trkpt>
      <trkpt lat="37.700257" lon="128.028778"><ele>412.8</ele></trkpt>
      <trkpt lat="37.700053" lon="128.028714"><ele>413.6</ele></trkpt>
      <trkpt lat="37.699963" lon="128.028604"><ele>414.0</ele></trkpt>
      <trkpt lat="37.699980" lon="128.028300"><ele>405.8</ele></trkpt>
      <trkpt lat="37.700397" lon="128.027721"><ele>390.6</ele></trkpt>
      <trkpt lat="37.700406" lon="128.027572"><ele>392.4</ele></trkpt>
      <trkpt lat="37.700350" lon="128.027430"><ele>392.8</ele></trkpt>
      <trkpt lat="37.699667" lon="128.026951"><ele>376.7</ele></trkpt>
      <trkpt lat="37.699311" lon="128.026615"><ele>375.7</ele></trkpt>
      <trkpt lat="37.698768" lon="128.025633"><ele>364.1</ele></trkpt>
      <trkpt lat="37.697560" lon="128.023890"><ele>342.2</ele></trkpt>
      <trkpt lat="37.698054" lon="128.023971"><ele>348.3</ele></trkpt>
      <trkpt lat="37.698215" lon="128.023601"><ele>353.5</ele></trkpt>
      <trkpt lat="37.698360" lon="128.023507"><ele>357.2</ele></trkpt>
      <trkpt lat="37.698737" lon="128.023505"><ele>369.4</ele></trkpt>
      <trkpt lat="37.698996" lon="128.023097"><ele>363.3</ele></trkpt>
      <trkpt lat="37.699323" lon="128.022904"><ele>358.3</ele></trkpt>
      <trkpt lat="37.699548" lon="128.022957"><ele>357.2</ele></trkpt>
      <trkpt lat="37.699718" lon="128.023113"><ele>358.7</ele></trkpt>
      <trkpt lat="37.700006" lon="128.023129"><ele>355.1</ele></trkpt>
      <trkpt lat="37.700186" lon="128.022868"><ele>350.7</ele></trkpt>
      <trkpt lat="37.700621" lon="128.022948"><ele>355.5</ele></trkpt>
      <trkpt lat="37.700647" lon="128.022747"><ele>354.3</ele></trkpt>
      <trkpt lat="37.700741" lon="128.022622"><ele>357.7</ele></trkpt>
      <trkpt lat="37.700838" lon="128.022626"><ele>359.7</ele></trkpt>
      <trkpt lat="37.701019" lon="128.022516"><ele>365.4</ele></trkpt>
      <trkpt lat="37.701073" lon="128.022618"><ele>365.0</ele></trkpt>
      <trkpt lat="37.701205" lon="128.022443"><ele>371.7</ele></trkpt>
      <trkpt lat="37.701265" lon="128.022493"><ele>372.0</ele></trkpt>
      <trkpt lat="37.701417" lon="128.022153"><ele>383.1</ele></trkpt>
      <trkpt lat="37.701632" lon="128.021970"><ele>389.7</ele></trkpt>
      <trkpt lat="37.701829" lon="128.021624"><ele>391.0</ele></trkpt>
      <trkpt lat="37.701861" lon="128.021364"><ele>390.7</ele></trkpt>
      <trkpt lat="37.701993" lon="128.021109"><ele>392.7</ele></trkpt>
      <trkpt lat="37.702158" lon="128.020975"><ele>395.6</ele></trkpt>
      <trkpt lat="37.702969" lon="128.020702"><ele>409.0</ele></trkpt>
      <trkpt lat="37.703122" lon="128.020463"><ele>415.5</ele></trkpt>
      <trkpt lat="37.703378" lon="128.020383"><ele>420.9</ele></trkpt>
      <trkpt lat="37.704153" lon="128.019449"><ele>446.6</ele></trkpt>
      <trkpt lat="37.704212" lon="128.019245"><ele>452.6</ele></trkpt>
      <trkpt lat="37.704200" lon="128.019084"><ele>457.6</ele></trkpt>
      <trkpt lat="37.704420" lon="128.018408"><ele>479.6</ele></trkpt>
      <trkpt lat="37.704357" lon="128.018344"><ele>480.8</ele></trkpt>
      <trkpt lat="37.704248" lon="128.017848"><ele>494.0</ele></trkpt>
      <trkpt lat="37.704316" lon="128.017655"><ele>497.6</ele></trkpt>
      <trkpt lat="37.704488" lon="128.017502"><ele>498.7</ele></trkpt>
      <trkpt lat="37.705063" lon="128.017193"><ele>495.7</ele></trkpt>
      <trkpt lat="37.705367" lon="128.016829"><ele>496.7</ele></trkpt>
      <trkpt lat="37.705564" lon="128.016681"><ele>499.7</ele></trkpt>
      <trkpt lat="37.705660" lon="128.016472"><ele>503.8</ele></trkpt>
      <trkpt lat="37.705844" lon="128.016305"><ele>508.8</ele></trkpt>
      <trkpt lat="37.705823" lon="128.016247"><ele>510.4</ele></trkpt>
      <trkpt lat="37.705952" lon="128.015662"><ele>514.7</ele></trkpt>
      <trkpt lat="37.706050" lon="128.015592"><ele>516.5</ele></trkpt>
      <trkpt lat="37.706118" lon="128.015442"><ele>516.4</ele></trkpt>
      <trkpt lat="37.706572" lon="128.015254"><ele>522.1</ele></trkpt>
      <trkpt lat="37.706784" lon="128.015074"><ele>524.6</ele></trkpt>
      <trkpt lat="37.706863" lon="128.014919"><ele>524.8</ele></trkpt>
      <trkpt lat="37.707090" lon="128.014702"><ele>528.5</ele></trkpt>
      <trkpt lat="37.707158" lon="128.014573"><ele>529.9</ele></trkpt>
      <trkpt lat="37.707731" lon="128.014246"><ele>550.1</ele></trkpt>
      <trkpt lat="37.707746" lon="128.014165"><ele>551.7</ele></trkpt>
      <trkpt lat="37.707855" lon="128.014106"><ele>555.7</ele></trkpt>
      <trkpt lat="37.708130" lon="128.013666"><ele>566.3</ele></trkpt>
      <trkpt lat="37.708923" lon="128.013688"><ele>585.9</ele></trkpt>
      <trkpt lat="37.709212" lon="128.013484"><ele>593.5</ele></trkpt>
      <trkpt lat="37.709602" lon="128.013398"><ele>597.7</ele></trkpt>
      <trkpt lat="37.709764" lon="128.013269"><ele>598.4</ele></trkpt>
      <trkpt lat="37.709959" lon="128.013006"><ele>598.5</ele></trkpt>
      <trkpt lat="37.710167" lon="128.012862"><ele>601.9</ele></trkpt>
      <trkpt lat="37.710307" lon="128.012872"><ele>605.7</ele></trkpt>
      <trkpt lat="37.710423" lon="128.012800"><ele>610.2</ele></trkpt>
      <trkpt lat="37.710865" lon="128.012438"><ele>627.5</ele></trkpt>
      <trkpt lat="37.711122" lon="128.012368"><ele>637.7</ele></trkpt>
      <trkpt lat="37.711283" lon="128.012255"><ele>646.3</ele></trkpt>
      <trkpt lat="37.711376" lon="128.012325"><ele>652.2</ele></trkpt>
      <trkpt lat="37.711546" lon="128.012298"><ele>662.2</ele></trkpt>
      <trkpt lat="37.712112" lon="128.011804"><ele>705.6</ele></trkpt>
      <trkpt lat="37.712074" lon="128.011759"><ele>705.1</ele></trkpt>
      <trkpt lat="37.712134" lon="128.011736"><ele>709.5</ele></trkpt>
      <trkpt lat="37.712041" lon="128.011656"><ele>706.4</ele></trkpt>
      <trkpt lat="37.712110" lon="128.011388"><ele>713.6</ele></trkpt>
      <trkpt lat="37.712204" lon="128.011467"><ele>718.3</ele></trkpt>
      <trkpt lat="37.712622" lon="128.011353"><ele>736.4</ele></trkpt>
      <trkpt lat="37.712751" lon="128.011406"><ele>740.2</ele></trkpt>
      <trkpt lat="37.712983" lon="128.011351"><ele>749.8</ele></trkpt>
      <trkpt lat="37.713194" lon="128.011403"><ele>764.5</ele></trkpt>
      <trkpt lat="37.713212" lon="128.011484"><ele>763.5</ele></trkpt>
      <trkpt lat="37.713526" lon="128.011492"><ele>785.3</ele></trkpt>
      <trkpt lat="37.713967" lon="128.011191"><ele>818.5</ele></trkpt>
      <trkpt lat="37.713972" lon="128.011082"><ele>820.5</ele></trkpt>
      <trkpt lat="37.714141" lon="128.011045"><ele>827.2</ele></trkpt>
      <trkpt lat="37.714283" lon="128.010778"><ele>832.3</ele></trkpt>
      <trkpt lat="37.714672" lon="128.010461"><ele>831.2</ele></trkpt>
      <trkpt lat="37.715462" lon="128.010256"><ele>850.6</ele></trkpt>
      <trkpt lat="37.715412" lon="128.010198"><ele>850.4</ele></trkpt>
      <trkpt lat="37.715392" lon="128.009817"><ele>850.7</ele></trkpt>
      <trkpt lat="37.715257" lon="128.009715"><ele>848.8</ele></trkpt>
      <trkpt lat="37.715226" lon="128.009491"><ele>840.4</ele></trkpt>
      <trkpt lat="37.715255" lon="128.009465"><ele>841.3</ele></trkpt>
      <trkpt lat="37.715152" lon="128.009224"><ele>825.6</ele></trkpt>
      <trkpt lat="37.715119" lon="128.008999"><ele>815.9</ele></trkpt>
      <trkpt lat="37.714890" lon="128.008812"><ele>802.9</ele></trkpt>
      <trkpt lat="37.714514" lon="128.008822"><ele>791.9</ele></trkpt>
      <trkpt lat="37.714329" lon="128.008629"><ele>785.5</ele></trkpt>
      <trkpt lat="37.714253" lon="128.008432"><ele>777.6</ele></trkpt>
      <trkpt lat="37.714134" lon="128.008364"><ele>774.3</ele></trkpt>
      <trkpt lat="37.713937" lon="128.008007"><ele>749.9</ele></trkpt>
      <trkpt lat="37.713594" lon="128.007264"><ele>706.5</ele></trkpt>
      <trkpt lat="37.713349" lon="128.006996"><ele>682.1</ele></trkpt>
      <trkpt lat="37.713356" lon="128.006776"><ele>684.6</ele></trkpt>
      <trkpt lat="37.713405" lon="128.006654"><ele>687.5</ele></trkpt>
      <trkpt lat="37.713292" lon="128.005995"><ele>676.2</ele></trkpt>
      <trkpt lat="37.712806" lon="128.005405"><ele>668.0</ele></trkpt>
      <trkpt lat="37.712618" lon="128.005047"><ele>667.3</ele></trkpt>
      <trkpt lat="37.712067" lon="128.004690"><ele>675.3</ele></trkpt>
      <trkpt lat="37.712032" lon="128.004579"><ele>676.7</ele></trkpt>
      <trkpt lat="37.712055" lon="128.004203"><ele>677.5</ele></trkpt>
      <trkpt lat="37.712018" lon="128.003604"><ele>683.0</ele></trkpt>
      <trkpt lat="37.712081" lon="128.003332"><ele>689.0</ele></trkpt>
      <trkpt lat="37.712076" lon="128.003077"><ele>695.5</ele></trkpt>
      <trkpt lat="37.711989" lon="128.002481"><ele>704.3</ele></trkpt>
      <trkpt lat="37.712038" lon="128.002091"><ele>711.9</ele></trkpt>
      <trkpt lat="37.711906" lon="128.001762"><ele>709.7</ele></trkpt>
      <trkpt lat="37.711561" lon="128.001655"><ele>703.2</ele></trkpt>
      <trkpt lat="37.711474" lon="128.001673"><ele>704.0</ele></trkpt>
      <trkpt lat="37.711062" lon="128.001395"><ele>712.2</ele></trkpt>
      <trkpt lat="37.710923" lon="128.001444"><ele>714.7</ele></trkpt>
      <trkpt lat="37.710546" lon="128.001258"><ele>736.0</ele></trkpt>
      <trkpt lat="37.710472" lon="128.001290"><ele>737.3</ele></trkpt>
      <trkpt lat="37.709888" lon="128.000722"><ele>761.0</ele></trkpt>
      <trkpt lat="37.709043" lon="128.000711"><ele>766.5</ele></trkpt>
      <trkpt lat="37.708251" lon="128.000865"><ele>767.5</ele></trkpt>
      <trkpt lat="37.708147" lon="128.000714"><ele>765.4</ele></trkpt>
      <trkpt lat="37.707922" lon="128.000584"><ele>763.5</ele></trkpt>
      <trkpt lat="37.707786" lon="128.000271"><ele>761.8</ele></trkpt>
      <trkpt lat="37.707507" lon="127.999817"><ele>756.0</ele></trkpt>
      <trkpt lat="37.707249" lon="127.999603"><ele>754.9</ele></trkpt>
      <trkpt lat="37.707052" lon="127.999523"><ele>753.6</ele></trkpt>
      <trkpt lat="37.706806" lon="127.999193"><ele>752.4</ele></trkpt>
      <trkpt lat="37.706373" lon="127.998820"><ele>753.8</ele></trkpt>
      <trkpt lat="37.706241" lon="127.998506"><ele>757.9</ele></trkpt>
      <trkpt lat="37.706034" lon="127.998284"><ele>767.8</ele></trkpt>
      <trkpt lat="37.705842" lon="127.998186"><ele>775.0</ele></trkpt>
      <trkpt lat="37.705759" lon="127.997991"><ele>779.3</ele></trkpt>
      <trkpt lat="37.705745" lon="127.997785"><ele>783.8</ele></trkpt>
      <trkpt lat="37.705426" lon="127.997293"><ele>786.5</ele></trkpt>
      <trkpt lat="37.705456" lon="127.996607"><ele>779.4</ele></trkpt>
      <trkpt lat="37.705425" lon="127.996385"><ele>774.9</ele></trkpt>
      <trkpt lat="37.705095" lon="127.995911"><ele>761.1</ele></trkpt>
      <trkpt lat="37.705110" lon="127.995835"><ele>759.2</ele></trkpt>
      <trkpt lat="37.705223" lon="127.995565"><ele>755.0</ele></trkpt>
      <trkpt lat="37.705702" lon="127.995057"><ele>756.3</ele></trkpt>
      <trkpt lat="37.705965" lon="127.994826"><ele>752.2</ele></trkpt>
      <trkpt lat="37.706407" lon="127.994600"><ele>749.5</ele></trkpt>
      <trkpt lat="37.706626" lon="127.994308"><ele>750.1</ele></trkpt>
      <trkpt lat="37.706470" lon="127.993174"><ele>735.3</ele></trkpt>
      <trkpt lat="37.706184" lon="127.992219"><ele>736.7</ele></trkpt>
      <trkpt lat="37.706230" lon="127.991801"><ele>744.3</ele></trkpt>
      <trkpt lat="37.705859" lon="127.991181"><ele>739.0</ele></trkpt>
      <trkpt lat="37.705689" lon="127.991058"><ele>736.3</ele></trkpt>
      <trkpt lat="37.705579" lon="127.990902"><ele>736.7</ele></trkpt>
      <trkpt lat="37.705399" lon="127.990554"><ele>727.7</ele></trkpt>
      <trkpt lat="37.705424" lon="127.990358"><ele>725.9</ele></trkpt>
      <trkpt lat="37.705545" lon="127.990116"><ele>726.3</ele></trkpt>
      <trkpt lat="37.705609" lon="127.989867"><ele>718.9</ele></trkpt>
      <trkpt lat="37.705595" lon="127.989602"><ele>708.7</ele></trkpt>
      <trkpt lat="37.705681" lon="127.989612"><ele>710.2</ele></trkpt>
      <trkpt lat="37.705740" lon="127.989521"><ele>706.4</ele></trkpt>
      <trkpt lat="37.705722" lon="127.989379"><ele>699.3</ele></trkpt>
      <trkpt lat="37.705820" lon="127.988879"><ele>680.4</ele></trkpt>
      <trkpt lat="37.705897" lon="127.988814"><ele>679.4</ele></trkpt>
      <trkpt lat="37.705948" lon="127.988636"><ele>676.5</ele></trkpt>
      <trkpt lat="37.706148" lon="127.988470"><ele>671.4</ele></trkpt>
      <trkpt lat="37.706188" lon="127.988049"><ele>659.5</ele></trkpt>
      <trkpt lat="37.706137" lon="127.987775"><ele>654.5</ele></trkpt>
      <trkpt lat="37.706334" lon="127.987681"><ele>649.3</ele></trkpt>
      <trkpt lat="37.706430" lon="127.987509"><ele>641.1</ele></trkpt>
      <trkpt lat="37.706411" lon="127.987437"><ele>639.3</ele></trkpt>
      <trkpt lat="37.706593" lon="127.986834"><ele>602.8</ele></trkpt>
      <trkpt lat="37.706542" lon="127.986388"><ele>583.9</ele></trkpt>
      <trkpt lat="37.706572" lon="127.986322"><ele>579.5</ele></trkpt>
      <trkpt lat="37.706534" lon="127.986260"><ele>575.8</ele></trkpt>
      <trkpt lat="37.706636" lon="127.986203"><ele>571.8</ele></trkpt>
      <trkpt lat="37.706606" lon="127.986018"><ele>561.2</ele></trkpt>
      <trkpt lat="37.706678" lon="127.985887"><ele>553.8</ele></trkpt>
      <trkpt lat="37.706653" lon="127.985830"><ele>550.9</ele></trkpt>
      <trkpt lat="37.706888" lon="127.985192"><ele>533.4</ele></trkpt>
      <trkpt lat="37.707005" lon="127.985039"><ele>534.3</ele></trkpt>
      <trkpt lat="37.707020" lon="127.984349"><ele>536.3</ele></trkpt>
      <trkpt lat="37.706538" lon="127.984135"><ele>524.5</ele></trkpt>
      <trkpt lat="37.706199" lon="127.983620"><ele>506.4</ele></trkpt>
      <trkpt lat="37.705791" lon="127.983502"><ele>495.6</ele></trkpt>
      <trkpt lat="37.705392" lon="127.983277"><ele>481.4</ele></trkpt>
      <trkpt lat="37.704798" lon="127.982547"><ele>469.9</ele></trkpt>
      <trkpt lat="37.704560" lon="127.982097"><ele>461.0</ele></trkpt>
      <trkpt lat="37.704297" lon="127.981807"><ele>452.6</ele></trkpt>
      <trkpt lat="37.704026" lon="127.981689"><ele>445.7</ele></trkpt>
      <trkpt lat="37.703907" lon="127.981528"><ele>440.6</ele></trkpt>
      <trkpt lat="37.703885" lon="127.981418"><ele>439.1</ele></trkpt>
      <trkpt lat="37.703953" lon="127.981225"><ele>435.3</ele></trkpt>
      <trkpt lat="37.704534" lon="127.981230"><ele>436.9</ele></trkpt>
      <trkpt lat="37.704651" lon="127.981206"><ele>435.2</ele></trkpt>
      <trkpt lat="37.704748" lon="127.981081"><ele>433.7</ele></trkpt>
      <trkpt lat="37.704669" lon="127.980744"><ele>434.5</ele></trkpt>
      <trkpt lat="37.704510" lon="127.980409"><ele>433.4</ele></trkpt>
      <trkpt lat="37.704505" lon="127.980189"><ele>436.4</ele></trkpt>
      <trkpt lat="37.704278" lon="127.979935"><ele>429.2</ele></trkpt>
      <trkpt lat="37.704100" lon="127.979199"><ele>421.1</ele></trkpt>
      <trkpt lat="37.703856" lon="127.978772"><ele>410.4</ele></trkpt>
      <trkpt lat="37.703860" lon="127.978621"><ele>408.3</ele></trkpt>
      <trkpt lat="37.704141" lon="127.978396"><ele>412.9</ele></trkpt>
      <trkpt lat="37.704246" lon="127.978234"><ele>412.2</ele></trkpt>
      <trkpt lat="37.704259" lon="127.977553"><ele>412.5</ele></trkpt>
      <trkpt lat="37.704197" lon="127.977401"><ele>414.1</ele></trkpt>
      <trkpt lat="37.704051" lon="127.977308"><ele>412.7</ele></trkpt>
      <trkpt lat="37.703526" lon="127.977565"><ele>393.4</ele></trkpt>
      <trkpt lat="37.703449" lon="127.977565"><ele>390.7</ele></trkpt>
      <trkpt lat="37.703427" lon="127.977478"><ele>390.5</ele></trkpt>
      <trkpt lat="37.703470" lon="127.977309"><ele>393.3</ele></trkpt>
      <trkpt lat="37.703629" lon="127.977034"><ele>399.1</ele></trkpt>
      <trkpt lat="37.703582" lon="127.976743"><ele>396.9</ele></trkpt>
      <trkpt lat="37.703895" lon="127.976646"><ele>409.0</ele></trkpt>
      <trkpt lat="37.704262" lon="127.976408"><ele>411.2</ele></trkpt>
      <trkpt lat="37.704517" lon="127.975979"><ele>407.8</ele></trkpt>
      <trkpt lat="37.704450" lon="127.975831"><ele>409.9</ele></trkpt>
      <trkpt lat="37.704109" lon="127.975604"><ele>415.3</ele></trkpt>
      <trkpt lat="37.703982" lon="127.975416"><ele>413.8</ele></trkpt>
      <trkpt lat="37.703947" lon="127.975134"><ele>408.5</ele></trkpt>
      <trkpt lat="37.703802" lon="127.974982"><ele>403.7</ele></trkpt>
      <trkpt lat="37.703822" lon="127.974892"><ele>403.3</ele></trkpt>
      <trkpt lat="37.703739" lon="127.974691"><ele>402.9</ele></trkpt>
    </trkseg>
  </trk>
</gpx>
