<?xml version="1.0" encoding="UTF-8"?>
<gpx version="1.1" creator="kr-100-mountains route-harvester"
     xmlns="http://www.topografix.com/GPX/1/1"
     xmlns:k100="https://github.com/jay-jang/kr-100-mountains/ns/1"
     xmlns:xsi="http://www.w3.org/2001/XMLSchema-instance"
     xsi:schemaLocation="http://www.topografix.com/GPX/1/1 http://www.topografix.com/GPX/1/1/gpx.xsd">
  <metadata>
    <name>공작산 · 공작현 왕복 최단코스 (OSM 계산 경로)</name>
    <desc>실제 GPS 기록이 아닙니다. OpenStreetMap에 등록된 등산로 선형 위에서 계산한 경로이며, 현장 통제·훼손·출입 제한·계절 통제를 반영하지 않을 수 있습니다. 산행 전 공식 안내를 확인하세요.</desc>
    <time>2026-08-04T05:26:18.536Z</time>
    <link href="https://www.openstreetmap.org/copyright"><text>© OpenStreetMap contributors (ODbL 1.0)</text></link>
    <link href="https://registry.opendata.aws/terrain-tiles/"><text>Elevation: SRTM 1 arc-second (NASA/USGS) via AWS Terrain Tiles</text></link>
    <extensions>
      <k100:provenance>osm-routed</k100:provenance>
      <k100:not_a_recorded_track>true</k100:not_a_recorded_track>
      <k100:mountain_id>gongjaksan</k100:mountain_id>
      <k100:mountain_name>공작산</k100:mountain_name>
      <k100:route_id>gongjaksan-b6aea309</k100:route_id>
      <k100:route_index>1</k100:route_index>
      <k100:route_name>공작현 왕복 최단코스</k100:route_name>
      <k100:variant>0</k100:variant>
      <k100:source>OpenStreetMap via Overpass API</k100:source>
      <k100:license>ODbL-1.0</k100:license>
      <k100:attribution>© OpenStreetMap contributors</k100:attribution>
      <k100:elevation_source>SRTM 1 arc-second (NASA/USGS) — AWS Terrain Tiles 배포본. 지형 DEM 추정 고도이며 실측 아님</k100:elevation_source>
      <k100:algorithm>dijkstra-grid-v1</k100:algorithm>
      <k100:osm_snapshot>2026-08-04</k100:osm_snapshot>
      <k100:snap_trailhead_m>11</k100:snap_trailhead_m>
      <k100:snap_summit_m>28</k100:snap_summit_m>
      <k100:validation_score>93</k100:validation_score>
      <k100:validation_status>accepted</k100:validation_status>
    </extensions>
  </metadata>
  <trk>
    <name>공작산 · 공작현 왕복 최단코스 (OSM 계산 경로)</name>
    <desc>실제 GPS 기록이 아닙니다. OpenStreetMap에 등록된 등산로 선형 위에서 계산한 경로이며, 현장 통제·훼손·출입 제한·계절 통제를 반영하지 않을 수 있습니다. 산행 전 공식 안내를 확인하세요.</desc>
    <trkseg>
      <trkpt lat="37.703827" lon="128.028364"><ele>489.7</ele></trkpt>
      <trkpt lat="37.703835" lon="128.028276"><ele>489.3</ele></trkpt>
      <trkpt lat="37.704086" lon="128.028292"><ele>496.5</ele></trkpt>
      <trkpt lat="37.704074" lon="128.028138"><ele>494.6</ele></trkpt>
      <trkpt lat="37.703996" lon="128.028003"><ele>491.2</ele></trkpt>
      <trkpt lat="37.704089" lon="128.028040"><ele>493.9</ele></trkpt>
      <trkpt lat="37.704170" lon="128.027906"><ele>494.5</ele></trkpt>
      <trkpt lat="37.704582" lon="128.027670"><ele>503.2</ele></trkpt>
      <trkpt lat="37.705193" lon="128.028107"><ele>507.8</ele></trkpt>
      <trkpt lat="37.705426" lon="128.028174"><ele>502.2</ele></trkpt>
      <trkpt lat="37.706020" lon="128.028123"><ele>509.1</ele></trkpt>
      <trkpt lat="37.706305" lon="128.028308"><ele>518.1</ele></trkpt>
      <trkpt lat="37.706547" lon="128.028257"><ele>524.8</ele></trkpt>
      <trkpt lat="37.706680" lon="128.028140"><ele>527.8</ele></trkpt>
      <trkpt lat="37.707090" lon="128.027933"><ele>531.0</ele></trkpt>
      <trkpt lat="37.707508" lon="128.027852"><ele>536.4</ele></trkpt>
      <trkpt lat="37.707584" lon="128.027909"><ele>537.7</ele></trkpt>
      <trkpt lat="37.708015" lon="128.027772"><ele>544.9</ele></trkpt>
      <trkpt lat="37.708236" lon="128.027413"><ele>545.9</ele></trkpt>
      <trkpt lat="37.708666" lon="128.027289"><ele>547.6</ele></trkpt>
      <trkpt lat="37.708998" lon="128.027042"><ele>542.8</ele></trkpt>
      <trkpt lat="37.709318" lon="128.026946"><ele>546.7</ele></trkpt>
      <trkpt lat="37.709424" lon="128.026863"><ele>548.3</ele></trkpt>
      <trkpt lat="37.709513" lon="128.026761"><ele>549.2</ele></trkpt>
      <trkpt lat="37.709551" lon="128.026577"><ele>549.1</ele></trkpt>
      <trkpt lat="37.709836" lon="128.026187"><ele>552.9</ele></trkpt>
      <trkpt lat="37.709920" lon="128.025947"><ele>556.5</ele></trkpt>
      <trkpt lat="37.710155" lon="128.025696"><ele>562.7</ele></trkpt>
      <trkpt lat="37.710242" lon="128.025522"><ele>566.5</ele></trkpt>
      <trkpt lat="37.710291" lon="128.025375"><ele>572.6</ele></trkpt>
      <trkpt lat="37.710293" lon="128.025166"><ele>579.4</ele></trkpt>
      <trkpt lat="37.710618" lon="128.024725"><ele>605.1</ele></trkpt>
      <trkpt lat="37.710664" lon="128.024599"><ele>609.7</ele></trkpt>
      <trkpt lat="37.710638" lon="128.024536"><ele>611.7</ele></trkpt>
      <trkpt lat="37.710707" lon="128.024486"><ele>614.1</ele></trkpt>
      <trkpt lat="37.710796" lon="128.024113"><ele>620.1</ele></trkpt>
      <trkpt lat="37.711245" lon="128.023690"><ele>624.6</ele></trkpt>
      <trkpt lat="37.711440" lon="128.023617"><ele>630.2</ele></trkpt>
      <trkpt lat="37.711584" lon="128.023489"><ele>631.3</ele></trkpt>
      <trkpt lat="37.711705" lon="128.023494"><ele>633.9</ele></trkpt>
      <trkpt lat="37.712134" lon="128.023271"><ele>654.3</ele></trkpt>
      <trkpt lat="37.712331" lon="128.023051"><ele>660.2</ele></trkpt>
      <trkpt lat="37.712373" lon="128.022829"><ele>660.9</ele></trkpt>
      <trkpt lat="37.712473" lon="128.022641"><ele>661.9</ele></trkpt>
      <trkpt lat="37.712917" lon="128.021989"><ele>678.5</ele></trkpt>
      <trkpt lat="37.712906" lon="128.021693"><ele>689.7</ele></trkpt>
      <trkpt lat="37.713114" lon="128.020731"><ele>722.9</ele></trkpt>
      <trkpt lat="37.713135" lon="128.020412"><ele>727.6</ele></trkpt>
      <trkpt lat="37.713010" lon="128.020208"><ele>724.7</ele></trkpt>
      <trkpt lat="37.712970" lon="128.019980"><ele>719.7</ele></trkpt>
      <trkpt lat="37.712999" lon="128.019806"><ele>718.9</ele></trkpt>
      <trkpt lat="37.712834" lon="128.018500"><ele>719.7</ele></trkpt>
      <trkpt lat="37.712881" lon="128.018336"><ele>722.3</ele></trkpt>
      <trkpt lat="37.713057" lon="128.018027"><ele>723.3</ele></trkpt>
      <trkpt lat="37.713451" lon="128.017828"><ele>728.9</ele></trkpt>
      <trkpt lat="37.713635" lon="128.017560"><ele>729.0</ele></trkpt>
      <trkpt lat="37.713662" lon="128.017272"><ele>722.5</ele></trkpt>
      <trkpt lat="37.713738" lon="128.017121"><ele>717.0</ele></trkpt>
      <trkpt lat="37.713920" lon="128.016881"><ele>709.1</ele></trkpt>
      <trkpt lat="37.713999" lon="128.016861"><ele>707.4</ele></trkpt>
      <trkpt lat="37.714111" lon="128.016670"><ele>701.9</ele></trkpt>
      <trkpt lat="37.714214" lon="128.016619"><ele>700.2</ele></trkpt>
      <trkpt lat="37.714262" lon="128.016503"><ele>696.9</ele></trkpt>
      <trkpt lat="37.714219" lon="128.016375"><ele>694.4</ele></trkpt>
      <trkpt lat="37.714221" lon="128.016153"><ele>691.4</ele></trkpt>
      <trkpt lat="37.714130" lon="128.015984"><ele>691.4</ele></trkpt>
      <trkpt lat="37.714118" lon="128.015367"><ele>707.0</ele></trkpt>
      <trkpt lat="37.713978" lon="128.015026"><ele>714.8</ele></trkpt>
      <trkpt lat="37.714044" lon="128.014861"><ele>717.1</ele></trkpt>
      <trkpt lat="37.714024" lon="128.014647"><ele>718.3</ele></trkpt>
      <trkpt lat="37.714233" lon="128.014188"><ele>729.5</ele></trkpt>
      <trkpt lat="37.714239" lon="128.013910"><ele>743.3</ele></trkpt>
      <trkpt lat="37.713950" lon="128.012274"><ele>804.9</ele></trkpt>
      <trkpt lat="37.713995" lon="128.012116"><ele>808.4</ele></trkpt>
      <trkpt lat="37.714132" lon="128.011950"><ele>816.5</ele></trkpt>
      <trkpt lat="37.714183" lon="128.011759"><ele>818.6</ele></trkpt>
      <trkpt lat="37.714124" lon="128.011609"><ele>818.3</ele></trkpt>
      <trkpt lat="37.714264" lon="128.011260"><ele>821.5</ele></trkpt>
      <trkpt lat="37.714141" lon="128.011045"><ele>827.2</ele></trkpt>
      <trkpt lat="37.714283" lon="128.010778"><ele>832.3</ele></trkpt>
      <trkpt lat="37.714672" lon="128.010461"><ele>831.2</ele></trkpt>
      <trkpt lat="37.715462" lon="128.010256"><ele>850.6</ele></trkpt>
      <trkpt lat="37.715412" lon="128.010198"><ele>850.4</ele></trkpt>
      <trkpt lat="37.715392" lon="128.009817"><ele>850.7</ele></trkpt>
      <trkpt lat="37.715257" lon="128.009715"><ele>848.8</ele></trkpt>
      <trkpt lat="37.715226" lon="128.009491"><ele>840.4</ele></trkpt>
      <trkpt lat="37.715255" lon="128.009465"><ele>841.3</ele></trkpt>
      <trkpt lat="37.715152" lon="128.009224"><ele>825.6</ele></trkpt>
      <trkpt lat="37.715119" lon="128.008999"><ele>815.9</ele></trkpt>
      <trkpt lat="37.714890" lon="128.008812"><ele>802.9</ele></trkpt>
      <trkpt lat="37.714514" lon="128.008822"><ele>791.9</ele></trkpt>
      <trkpt lat="37.714329" lon="128.008629"><ele>785.5</ele></trkpt>
      <trkpt lat="37.714253" lon="128.008432"><ele>777.6</ele></trkpt>
      <trkpt lat="37.714134" lon="128.008364"><ele>774.3</ele></trkpt>
      <trkpt lat="37.713937" lon="128.008007"><ele>749.9</ele></trkpt>
      <trkpt lat="37.713594" lon="128.007264"><ele>706.5</ele></trkpt>
      <trkpt lat="37.713349" lon="128.006996"><ele>682.1</ele></trkpt>
      <trkpt lat="37.713356" lon="128.006776"><ele>684.6</ele></trkpt>
      <trkpt lat="37.713405" lon="128.006654"><ele>687.5</ele></trkpt>
      <trkpt lat="37.713292" lon="128.005995"><ele>676.2</ele></trkpt>
      <trkpt lat="37.712806" lon="128.005405"><ele>668.0</ele></trkpt>
      <trkpt lat="37.712618" lon="128.005047"><ele>667.3</ele></trkpt>
      <trkpt lat="37.712067" lon="128.004690"><ele>675.3</ele></trkpt>
      <trkpt lat="37.712032" lon="128.004579"><ele>676.7</ele></trkpt>
      <trkpt lat="37.712055" lon="128.004203"><ele>677.5</ele></trkpt>
      <trkpt lat="37.712018" lon="128.003604"><ele>683.0</ele></trkpt>
      <trkpt lat="37.712081" lon="128.003332"><ele>689.0</ele></trkpt>
      <trkpt lat="37.712076" lon="128.003077"><ele>695.5</ele></trkpt>
      <trkpt lat="37.711989" lon="128.002481"><ele>704.3</ele></trkpt>
      <trkpt lat="37.712038" lon="128.002091"><ele>711.9</ele></trkpt>
      <trkpt lat="37.711906" lon="128.001762"><ele>709.7</ele></trkpt>
      <trkpt lat="37.711561" lon="128.001655"><ele>703.2</ele></trkpt>
      <trkpt lat="37.711474" lon="128.001673"><ele>704.0</ele></trkpt>
      <trkpt lat="37.711062" lon="128.001395"><ele>712.2</ele></trkpt>
      <trkpt lat="37.710923" lon="128.001444"><ele>714.7</ele></trkpt>
      <trkpt lat="37.710546" lon="128.001258"><ele>736.0</ele></trkpt>
      <trkpt lat="37.710472" lon="128.001290"><ele>737.3</ele></trkpt>
      <trkpt lat="37.709888" lon="128.000722"><ele>761.0</ele></trkpt>
      <trkpt lat="37.709043" lon="128.000711"><ele>766.5</ele></trkpt>
      <trkpt lat="37.708251" lon="128.000865"><ele>767.5</ele></trkpt>
      <trkpt lat="37.708147" lon="128.000714"><ele>765.4</ele></trkpt>
      <trkpt lat="37.707922" lon="128.000584"><ele>763.5</ele></trkpt>
      <trkpt lat="37.707786" lon="128.000271"><ele>761.8</ele></trkpt>
      <trkpt lat="37.707507" lon="127.999817"><ele>756.0</ele></trkpt>
      <trkpt lat="37.707249" lon="127.999603"><ele>754.9</ele></trkpt>
      <trkpt lat="37.707052" lon="127.999523"><ele>753.6</ele></trkpt>
      <trkpt lat="37.706806" lon="127.999193"><ele>752.4</ele></trkpt>
      <trkpt lat="37.706373" lon="127.998820"><ele>753.8</ele></trkpt>
      <trkpt lat="37.706241" lon="127.998506"><ele>757.9</ele></trkpt>
      <trkpt lat="37.706034" lon="127.998284"><ele>767.8</ele></trkpt>
      <trkpt lat="37.705842" lon="127.998186"><ele>775.0</ele></trkpt>
      <trkpt lat="37.705759" lon="127.997991"><ele>779.3</ele></trkpt>
      <trkpt lat="37.705745" lon="127.997785"><ele>783.8</ele></trkpt>
      <trkpt lat="37.705426" lon="127.997293"><ele>786.5</ele></trkpt>
      <trkpt lat="37.705456" lon="127.996607"><ele>779.4</ele></trkpt>
      <trkpt lat="37.705425" lon="127.996385"><ele>774.9</ele></trkpt>
      <trkpt lat="37.705095" lon="127.995911"><ele>761.1</ele></trkpt>
      <trkpt lat="37.705110" lon="127.995835"><ele>759.2</ele></trkpt>
      <trkpt lat="37.705223" lon="127.995565"><ele>755.0</ele></trkpt>
      <trkpt lat="37.705702" lon="127.995057"><ele>756.3</ele></trkpt>
      <trkpt lat="37.705965" lon="127.994826"><ele>752.2</ele></trkpt>
      <trkpt lat="37.706407" lon="127.994600"><ele>749.5</ele></trkpt>
      <trkpt lat="37.706626" lon="127.994308"><ele>750.1</ele></trkpt>
      <trkpt lat="37.706470" lon="127.993174"><ele>735.3</ele></trkpt>
      <trkpt lat="37.706184" lon="127.992219"><ele>736.7</ele></trkpt>
      <trkpt lat="37.706230" lon="127.991801"><ele>744.3</ele></trkpt>
      <trkpt lat="37.705859" lon="127.991181"><ele>739.0</ele></trkpt>
      <trkpt lat="37.705689" lon="127.991058"><ele>736.3</ele></trkpt>
      <trkpt lat="37.705473" lon="127.990733"><ele>731.8</ele></trkpt>
      <trkpt lat="37.705399" lon="127.990554"><ele>727.7</ele></trkpt>
      <trkpt lat="37.705424" lon="127.990358"><ele>725.9</ele></trkpt>
      <trkpt lat="37.705545" lon="127.990116"><ele>726.3</ele></trkpt>
      <trkpt lat="37.705609" lon="127.989867"><ele>718.9</ele></trkpt>
      <trkpt lat="37.705595" lon="127.989602"><ele>708.7</ele></trkpt>
      <trkpt lat="37.705681" lon="127.989612"><ele>710.2</ele></trkpt>
      <trkpt lat="37.705740" lon="127.989521"><ele>706.4</ele></trkpt>
      <trkpt lat="37.705722" lon="127.989379"><ele>699.3</ele></trkpt>
      <trkpt lat="37.705820" lon="127.988879"><ele>680.4</ele></trkpt>
      <trkpt lat="37.705897" lon="127.988814"><ele>679.4</ele></trkpt>
      <trkpt lat="37.705948" lon="127.988636"><ele>676.5</ele></trkpt>
      <trkpt lat="37.706148" lon="127.988470"><ele>671.4</ele></trkpt>
      <trkpt lat="37.706188" lon="127.988049"><ele>659.5</ele></trkpt>
      <trkpt lat="37.706137" lon="127.987775"><ele>654.5</ele></trkpt>
      <trkpt lat="37.706334" lon="127.987681"><ele>649.3</ele></trkpt>
      <trkpt lat="37.706430" lon="127.987509"><ele>641.1</ele></trkpt>
      <trkpt lat="37.706411" lon="127.987437"><ele>639.3</ele></trkpt>
      <trkpt lat="37.706593" lon="127.986834"><ele>602.8</ele></trkpt>
      <trkpt lat="37.706542" lon="127.986388"><ele>583.9</ele></trkpt>
      <trkpt lat="37.706572" lon="127.986322"><ele>579.5</ele></trkpt>
      <trkpt lat="37.706534" lon="127.986260"><ele>575.8</ele></trkpt>
      <trkpt lat="37.706636" lon="127.986203"><ele>571.8</ele></trkpt>
      <trkpt lat="37.706606" lon="127.986018"><ele>561.2</ele></trkpt>
      <trkpt lat="37.706678" lon="127.985887"><ele>553.8</ele></trkpt>
      <trkpt lat="37.706653" lon="127.985830"><ele>550.9</ele></trkpt>
      <trkpt lat="37.706888" lon="127.985192"><ele>533.4</ele></trkpt>
      <trkpt lat="37.707005" lon="127.985039"><ele>534.3</ele></trkpt>
      <trkpt lat="37.707035" lon="127.984854"><ele>535.7</ele></trkpt>
      <trkpt lat="37.706997" lon="127.984409"><ele>536.7</ele></trkpt>
      <trkpt lat="37.707039" lon="127.984232"><ele>535.5</ele></trkpt>
      <trkpt lat="37.707370" lon="127.983829"><ele>524.8</ele></trkpt>
      <trkpt lat="37.707733" lon="127.983070"><ele>516.6</ele></trkpt>
      <trkpt lat="37.707737" lon="127.982813"><ele>518.1</ele></trkpt>
      <trkpt lat="37.707635" lon="127.982735"><ele>516.0</ele></trkpt>
      <trkpt lat="37.707616" lon="127.982638"><ele>514.6</ele></trkpt>
      <trkpt lat="37.707733" lon="127.982115"><ele>514.3</ele></trkpt>
      <trkpt lat="37.707642" lon="127.981619"><ele>522.2</ele></trkpt>
      <trkpt lat="37.707676" lon="127.981448"><ele>526.2</ele></trkpt>
      <trkpt lat="37.707645" lon="127.981270"><ele>527.6</ele></trkpt>
      <trkpt lat="37.706958" lon="127.980267"><ele>543.7</ele></trkpt>
      <trkpt lat="37.706878" lon="127.979989"><ele>543.5</ele></trkpt>
      <trkpt lat="37.706820" lon="127.979394"><ele>535.5</ele></trkpt>
      <trkpt lat="37.706712" lon="127.979138"><ele>529.9</ele></trkpt>
      <trkpt lat="37.706762" lon="127.978824"><ele>519.8</ele></trkpt>
      <trkpt lat="37.706565" lon="127.978549"><ele>508.4</ele></trkpt>
      <trkpt lat="37.706360" lon="127.977980"><ele>492.0</ele></trkpt>
      <trkpt lat="37.706353" lon="127.977586"><ele>478.6</ele></trkpt>
      <trkpt lat="37.706262" lon="127.977502"><ele>472.4</ele></trkpt>
      <trkpt lat="37.706254" lon="127.977389"><ele>467.1</ele></trkpt>
      <trkpt lat="37.706190" lon="127.977373"><ele>465.1</ele></trkpt>
      <trkpt lat="37.706145" lon="127.977250"><ele>459.4</ele></trkpt>
      <trkpt lat="37.706054" lon="127.977226"><ele>456.7</ele></trkpt>
      <trkpt lat="37.705998" lon="127.977088"><ele>450.7</ele></trkpt>
      <trkpt lat="37.705858" lon="127.977067"><ele>447.1</ele></trkpt>
      <trkpt lat="37.705621" lon="127.977212"><ele>443.1</ele></trkpt>
      <trkpt lat="37.705493" lon="127.977009"><ele>434.3</ele></trkpt>
      <trkpt lat="37.704944" lon="127.977021"><ele>425.8</ele></trkpt>
      <trkpt lat="37.704694" lon="127.976703"><ele>417.2</ele></trkpt>
      <trkpt lat="37.704448" lon="127.976665"><ele>414.0</ele></trkpt>
      <trkpt lat="37.704450" lon="127.976411"><ele>411.3</ele></trkpt>
      <trkpt lat="37.704347" lon="127.976398"><ele>411.1</ele></trkpt>
      <trkpt lat="37.704294" lon="127.976334"><ele>410.7</ele></trkpt>
      <trkpt lat="37.704517" lon="127.975979"><ele>407.8</ele></trkpt>
      <trkpt lat="37.704450" lon="127.975831"><ele>409.9</ele></trkpt>
      <trkpt lat="37.704109" lon="127.975604"><ele>415.3</ele></trkpt>
      <trkpt lat="37.703982" lon="127.975416"><ele>413.8</ele></trkpt>
      <trkpt lat="37.703947" lon="127.975134"><ele>408.5</ele></trkpt>
      <trkpt lat="37.703802" lon="127.974982"><ele>403.7</ele></trkpt>
      <trkpt lat="37.703822" lon="127.974892"><ele>403.3</ele></trkpt>
      <trkpt lat="37.703739" lon="127.974691"><ele>402.9</ele></trkpt>
    </trkseg>
  </trk>
</gpx>
