<?xml version="1.0" encoding="UTF-8"?>
<gpx version="1.1" creator="kr-100-mountains route-harvester"
     xmlns="http://www.topografix.com/GPX/1/1"
     xmlns:k100="https://github.com/jay-jang/kr-100-mountains/ns/1"
     xmlns:xsi="http://www.w3.org/2001/XMLSchema-instance"
     xsi:schemaLocation="http://www.topografix.com/GPX/1/1 http://www.topografix.com/GPX/1/1/gpx.xsd">
  <metadata>
    <name>청계산 · 옛골-이수봉-망경대 코스 (OSM 계산 경로)</name>
    <desc>실제 GPS 기록이 아닙니다. OpenStreetMap에 등록된 등산로 선형 위에서 계산한 경로이며, 현장 통제·훼손·출입 제한·계절 통제를 반영하지 않을 수 있습니다. 산행 전 공식 안내를 확인하세요.</desc>
    <time>2026-08-04T05:55:14.151Z</time>
    <link href="https://www.openstreetmap.org/copyright"><text>© OpenStreetMap contributors (ODbL 1.0)</text></link>
    <link href="https://registry.opendata.aws/terrain-tiles/"><text>Elevation: SRTM 1 arc-second (NASA/USGS) via AWS Terrain Tiles</text></link>
    <extensions>
      <k100:provenance>osm-routed</k100:provenance>
      <k100:not_a_recorded_track>true</k100:not_a_recorded_track>
      <k100:mountain_id>cheonggyesan-seoul</k100:mountain_id>
      <k100:mountain_name>청계산(서울)</k100:mountain_name>
      <k100:route_id>cheonggyesan-seoul-ad1a7af8</k100:route_id>
      <k100:route_index>2</k100:route_index>
      <k100:route_name>옛골-이수봉-망경대 코스</k100:route_name>
      <k100:variant>0</k100:variant>
      <k100:source>OpenStreetMap via Overpass API</k100:source>
      <k100:license>ODbL-1.0</k100:license>
      <k100:attribution>© OpenStreetMap contributors</k100:attribution>
      <k100:elevation_source>SRTM 1 arc-second (NASA/USGS) — AWS Terrain Tiles 배포본. 지형 DEM 추정 고도이며 실측 아님</k100:elevation_source>
      <k100:algorithm>dijkstra-grid-v1</k100:algorithm>
      <k100:osm_snapshot>2026-08-04</k100:osm_snapshot>
      <k100:snap_trailhead_m>17</k100:snap_trailhead_m>
      <k100:snap_summit_m>87</k100:snap_summit_m>
      <k100:validation_score>93</k100:validation_score>
      <k100:validation_status>accepted</k100:validation_status>
    </extensions>
  </metadata>
  <trk>
    <name>청계산 · 옛골-이수봉-망경대 코스 (OSM 계산 경로)</name>
    <desc>실제 GPS 기록이 아닙니다. OpenStreetMap에 등록된 등산로 선형 위에서 계산한 경로이며, 현장 통제·훼손·출입 제한·계절 통제를 반영하지 않을 수 있습니다. 산행 전 공식 안내를 확인하세요.</desc>
    <trkseg>
      <trkpt lat="37.430176" lon="127.070904"><ele>105.0</ele></trkpt>
      <trkpt lat="37.430514" lon="127.071251"><ele>105.0</ele></trkpt>
      <trkpt lat="37.430537" lon="127.071720"><ele>102.9</ele></trkpt>
      <trkpt lat="37.430164" lon="127.071899"><ele>101.9</ele></trkpt>
      <trkpt lat="37.429877" lon="127.071942"><ele>99.7</ele></trkpt>
      <trkpt lat="37.429057" lon="127.071612"><ele>103.4</ele></trkpt>
      <trkpt lat="37.428793" lon="127.071858"><ele>102.0</ele></trkpt>
      <trkpt lat="37.428478" lon="127.071427"><ele>103.1</ele></trkpt>
      <trkpt lat="37.428605" lon="127.071196"><ele>103.0</ele></trkpt>
      <trkpt lat="37.428198" lon="127.070456"><ele>105.0</ele></trkpt>
      <trkpt lat="37.427185" lon="127.069475"><ele>107.9</ele></trkpt>
      <trkpt lat="37.426949" lon="127.069181"><ele>111.8</ele></trkpt>
      <trkpt lat="37.426188" lon="127.068766"><ele>114.7</ele></trkpt>
      <trkpt lat="37.425720" lon="127.068196"><ele>116.3</ele></trkpt>
      <trkpt lat="37.425333" lon="127.068034"><ele>117.9</ele></trkpt>
      <trkpt lat="37.425371" lon="127.067439"><ele>119.2</ele></trkpt>
      <trkpt lat="37.425189" lon="127.066948"><ele>120.0</ele></trkpt>
      <trkpt lat="37.424684" lon="127.066481"><ele>126.3</ele></trkpt>
      <trkpt lat="37.424437" lon="127.066084"><ele>129.2</ele></trkpt>
      <trkpt lat="37.424379" lon="127.065910"><ele>129.9</ele></trkpt>
      <trkpt lat="37.423229" lon="127.064787"><ele>142.6</ele></trkpt>
      <trkpt lat="37.422338" lon="127.063648"><ele>151.1</ele></trkpt>
      <trkpt lat="37.422281" lon="127.063542"><ele>151.1</ele></trkpt>
      <trkpt lat="37.422274" lon="127.063105"><ele>150.1</ele></trkpt>
      <trkpt lat="37.422194" lon="127.062912"><ele>152.4</ele></trkpt>
      <trkpt lat="37.421868" lon="127.062753"><ele>156.6</ele></trkpt>
      <trkpt lat="37.421355" lon="127.062067"><ele>167.5</ele></trkpt>
      <trkpt lat="37.421291" lon="127.061754"><ele>169.9</ele></trkpt>
      <trkpt lat="37.421019" lon="127.061151"><ele>176.1</ele></trkpt>
      <trkpt lat="37.420949" lon="127.060838"><ele>178.7</ele></trkpt>
      <trkpt lat="37.420645" lon="127.060736"><ele>186.6</ele></trkpt>
      <trkpt lat="37.420507" lon="127.060346"><ele>188.5</ele></trkpt>
      <trkpt lat="37.420243" lon="127.059832"><ele>194.7</ele></trkpt>
      <trkpt lat="37.419466" lon="127.058964"><ele>216.1</ele></trkpt>
      <trkpt lat="37.419456" lon="127.058655"><ele>221.3</ele></trkpt>
      <trkpt lat="37.419343" lon="127.058542"><ele>225.1</ele></trkpt>
      <trkpt lat="37.419200" lon="127.058261"><ele>231.8</ele></trkpt>
      <trkpt lat="37.419071" lon="127.057818"><ele>239.6</ele></trkpt>
      <trkpt lat="37.418449" lon="127.056681"><ele>262.7</ele></trkpt>
      <trkpt lat="37.418356" lon="127.056429"><ele>267.6</ele></trkpt>
      <trkpt lat="37.418594" lon="127.055876"><ele>292.1</ele></trkpt>
      <trkpt lat="37.419013" lon="127.055522"><ele>313.1</ele></trkpt>
      <trkpt lat="37.419213" lon="127.054710"><ele>350.6</ele></trkpt>
      <trkpt lat="37.419391" lon="127.054351"><ele>367.0</ele></trkpt>
      <trkpt lat="37.419525" lon="127.054211"><ele>370.7</ele></trkpt>
      <trkpt lat="37.419709" lon="127.054318"><ele>369.7</ele></trkpt>
      <trkpt lat="37.419667" lon="127.054015"><ele>373.4</ele></trkpt>
      <trkpt lat="37.419546" lon="127.053777"><ele>373.3</ele></trkpt>
      <trkpt lat="37.419257" lon="127.053564"><ele>373.2</ele></trkpt>
      <trkpt lat="37.418560" lon="127.053273"><ele>388.1</ele></trkpt>
      <trkpt lat="37.418455" lon="127.053047"><ele>391.8</ele></trkpt>
    </trkseg>
  </trk>
</gpx>
