<?xml version="1.0" encoding="UTF-8"?>
<gpx version="1.1" creator="kr-100-mountains route-harvester"
     xmlns="http://www.topografix.com/GPX/1/1"
     xmlns:k100="https://github.com/jay-jang/kr-100-mountains/ns/1"
     xmlns:xsi="http://www.w3.org/2001/XMLSchema-instance"
     xsi:schemaLocation="http://www.topografix.com/GPX/1/1 http://www.topografix.com/GPX/1/1/gpx.xsd">
  <metadata>
    <name>청계산 · 원터골입구-매봉-망경대 우회로-이수봉-옛골 (대안 1) (OSM 계산 경로)</name>
    <desc>실제 GPS 기록이 아닙니다. OpenStreetMap에 등록된 등산로 선형 위에서 계산한 경로이며, 현장 통제·훼손·출입 제한·계절 통제를 반영하지 않을 수 있습니다. 산행 전 공식 안내를 확인하세요.</desc>
    <time>2026-08-04T05:55:14.242Z</time>
    <link href="https://www.openstreetmap.org/copyright"><text>© OpenStreetMap contributors (ODbL 1.0)</text></link>
    <link href="https://registry.opendata.aws/terrain-tiles/"><text>Elevation: SRTM 1 arc-second (NASA/USGS) via AWS Terrain Tiles</text></link>
    <extensions>
      <k100:provenance>osm-routed</k100:provenance>
      <k100:not_a_recorded_track>true</k100:not_a_recorded_track>
      <k100:mountain_id>cheonggyesan-seoul</k100:mountain_id>
      <k100:mountain_name>청계산(서울)</k100:mountain_name>
      <k100:route_id>cheonggyesan-seoul-aa8f71cb</k100:route_id>
      <k100:route_index>3</k100:route_index>
      <k100:route_name>원터골입구-매봉-망경대 우회로-이수봉-옛골</k100:route_name>
      <k100:variant>1</k100:variant>
      <k100:source>OpenStreetMap via Overpass API</k100:source>
      <k100:license>ODbL-1.0</k100:license>
      <k100:attribution>© OpenStreetMap contributors</k100:attribution>
      <k100:elevation_source>SRTM 1 arc-second (NASA/USGS) — AWS Terrain Tiles 배포본. 지형 DEM 추정 고도이며 실측 아님</k100:elevation_source>
      <k100:algorithm>dijkstra-grid-v1</k100:algorithm>
      <k100:osm_snapshot>2026-08-04</k100:osm_snapshot>
      <k100:snap_trailhead_m>1</k100:snap_trailhead_m>
      <k100:snap_summit_m>87</k100:snap_summit_m>
      <k100:validation_score>100</k100:validation_score>
      <k100:validation_status>accepted</k100:validation_status>
    </extensions>
  </metadata>
  <trk>
    <name>청계산 · 원터골입구-매봉-망경대 우회로-이수봉-옛골 (대안 1) (OSM 계산 경로)</name>
    <desc>실제 GPS 기록이 아닙니다. OpenStreetMap에 등록된 등산로 선형 위에서 계산한 경로이며, 현장 통제·훼손·출입 제한·계절 통제를 반영하지 않을 수 있습니다. 산행 전 공식 안내를 확인하세요.</desc>
    <trkseg>
      <trkpt lat="37.445039" lon="127.057404"><ele>61.5</ele></trkpt>
      <trkpt lat="37.444114" lon="127.056755"><ele>69.4</ele></trkpt>
      <trkpt lat="37.444129" lon="127.056300"><ele>70.9</ele></trkpt>
      <trkpt lat="37.444033" lon="127.055826"><ele>75.0</ele></trkpt>
      <trkpt lat="37.443633" lon="127.055055"><ele>86.3</ele></trkpt>
      <trkpt lat="37.443459" lon="127.054618"><ele>89.3</ele></trkpt>
      <trkpt lat="37.443185" lon="127.054186"><ele>92.7</ele></trkpt>
      <trkpt lat="37.443137" lon="127.053952"><ele>94.2</ele></trkpt>
      <trkpt lat="37.442906" lon="127.053626"><ele>98.8</ele></trkpt>
      <trkpt lat="37.442516" lon="127.053236"><ele>105.6</ele></trkpt>
      <trkpt lat="37.442346" lon="127.052593"><ele>110.9</ele></trkpt>
      <trkpt lat="37.442221" lon="127.052403"><ele>112.4</ele></trkpt>
      <trkpt lat="37.441939" lon="127.052160"><ele>115.4</ele></trkpt>
      <trkpt lat="37.441718" lon="127.051832"><ele>124.3</ele></trkpt>
      <trkpt lat="37.441187" lon="127.051336"><ele>134.4</ele></trkpt>
      <trkpt lat="37.440951" lon="127.050995"><ele>141.1</ele></trkpt>
      <trkpt lat="37.440822" lon="127.050481"><ele>150.1</ele></trkpt>
      <trkpt lat="37.440664" lon="127.050163"><ele>156.8</ele></trkpt>
      <trkpt lat="37.440490" lon="127.049936"><ele>161.0</ele></trkpt>
      <trkpt lat="37.440202" lon="127.050026"><ele>163.7</ele></trkpt>
      <trkpt lat="37.439733" lon="127.049754"><ele>179.4</ele></trkpt>
      <trkpt lat="37.439413" lon="127.049184"><ele>189.8</ele></trkpt>
      <trkpt lat="37.438833" lon="127.048761"><ele>205.4</ele></trkpt>
      <trkpt lat="37.438683" lon="127.048787"><ele>211.7</ele></trkpt>
      <trkpt lat="37.437965" lon="127.048707"><ele>234.3</ele></trkpt>
      <trkpt lat="37.437711" lon="127.048829"><ele>239.5</ele></trkpt>
      <trkpt lat="37.437484" lon="127.048809"><ele>245.8</ele></trkpt>
      <trkpt lat="37.436859" lon="127.048229"><ele>260.2</ele></trkpt>
      <trkpt lat="37.436376" lon="127.048031"><ele>273.5</ele></trkpt>
      <trkpt lat="37.436097" lon="127.047756"><ele>282.6</ele></trkpt>
      <trkpt lat="37.435824" lon="127.047759"><ele>293.3</ele></trkpt>
      <trkpt lat="37.435668" lon="127.047823"><ele>299.4</ele></trkpt>
      <trkpt lat="37.435431" lon="127.047622"><ele>305.6</ele></trkpt>
      <trkpt lat="37.434847" lon="127.048146"><ele>338.9</ele></trkpt>
      <trkpt lat="37.434353" lon="127.048319"><ele>359.9</ele></trkpt>
      <trkpt lat="37.433991" lon="127.048544"><ele>374.7</ele></trkpt>
      <trkpt lat="37.433872" lon="127.048527"><ele>379.5</ele></trkpt>
      <trkpt lat="37.433632" lon="127.048817"><ele>382.1</ele></trkpt>
      <trkpt lat="37.433558" lon="127.048680"><ele>386.6</ele></trkpt>
      <trkpt lat="37.433342" lon="127.048485"><ele>395.0</ele></trkpt>
      <trkpt lat="37.433346" lon="127.048390"><ele>396.6</ele></trkpt>
      <trkpt lat="37.433217" lon="127.048095"><ele>405.3</ele></trkpt>
      <trkpt lat="37.433062" lon="127.047997"><ele>414.0</ele></trkpt>
      <trkpt lat="37.432956" lon="127.047682"><ele>423.4</ele></trkpt>
      <trkpt lat="37.432471" lon="127.047454"><ele>444.4</ele></trkpt>
      <trkpt lat="37.432408" lon="127.047358"><ele>447.5</ele></trkpt>
      <trkpt lat="37.432326" lon="127.047356"><ele>450.6</ele></trkpt>
      <trkpt lat="37.432229" lon="127.047253"><ele>455.4</ele></trkpt>
      <trkpt lat="37.431868" lon="127.047261"><ele>465.3</ele></trkpt>
      <trkpt lat="37.431523" lon="127.047364"><ele>475.2</ele></trkpt>
      <trkpt lat="37.431089" lon="127.047400"><ele>489.8</ele></trkpt>
      <trkpt lat="37.430797" lon="127.047357"><ele>492.6</ele></trkpt>
      <trkpt lat="37.430688" lon="127.047218"><ele>494.5</ele></trkpt>
      <trkpt lat="37.430192" lon="127.046919"><ele>497.7</ele></trkpt>
      <trkpt lat="37.430019" lon="127.046682"><ele>502.4</ele></trkpt>
      <trkpt lat="37.429467" lon="127.046134"><ele>523.9</ele></trkpt>
      <trkpt lat="37.429184" lon="127.045979"><ele>534.0</ele></trkpt>
      <trkpt lat="37.429072" lon="127.045823"><ele>536.5</ele></trkpt>
      <trkpt lat="37.428995" lon="127.044945"><ele>554.5</ele></trkpt>
      <trkpt lat="37.429029" lon="127.044793"><ele>555.0</ele></trkpt>
      <trkpt lat="37.428968" lon="127.044657"><ele>556.6</ele></trkpt>
      <trkpt lat="37.428676" lon="127.044628"><ele>561.5</ele></trkpt>
      <trkpt lat="37.428629" lon="127.044525"><ele>563.5</ele></trkpt>
      <trkpt lat="37.428454" lon="127.044383"><ele>564.4</ele></trkpt>
      <trkpt lat="37.428304" lon="127.043981"><ele>564.3</ele></trkpt>
      <trkpt lat="37.428130" lon="127.043817"><ele>565.6</ele></trkpt>
      <trkpt lat="37.428077" lon="127.043675"><ele>566.4</ele></trkpt>
      <trkpt lat="37.427764" lon="127.043420"><ele>563.8</ele></trkpt>
      <trkpt lat="37.427921" lon="127.042852"><ele>563.4</ele></trkpt>
      <trkpt lat="37.427645" lon="127.042561"><ele>562.0</ele></trkpt>
      <trkpt lat="37.427401" lon="127.042091"><ele>557.3</ele></trkpt>
      <trkpt lat="37.427081" lon="127.041868"><ele>552.5</ele></trkpt>
      <trkpt lat="37.427056" lon="127.041757"><ele>550.7</ele></trkpt>
      <trkpt lat="37.426690" lon="127.041956"><ele>542.7</ele></trkpt>
      <trkpt lat="37.426291" lon="127.041829"><ele>531.7</ele></trkpt>
      <trkpt lat="37.426124" lon="127.041872"><ele>530.4</ele></trkpt>
      <trkpt lat="37.426040" lon="127.042044"><ele>529.9</ele></trkpt>
      <trkpt lat="37.425785" lon="127.041966"><ele>528.4</ele></trkpt>
      <trkpt lat="37.425446" lon="127.042101"><ele>528.5</ele></trkpt>
      <trkpt lat="37.425277" lon="127.042039"><ele>532.7</ele></trkpt>
      <trkpt lat="37.425176" lon="127.041930"><ele>534.9</ele></trkpt>
      <trkpt lat="37.424953" lon="127.041952"><ele>537.3</ele></trkpt>
      <trkpt lat="37.424723" lon="127.041795"><ele>535.8</ele></trkpt>
      <trkpt lat="37.424599" lon="127.041838"><ele>538.5</ele></trkpt>
      <trkpt lat="37.424307" lon="127.041712"><ele>540.1</ele></trkpt>
      <trkpt lat="37.424251" lon="127.041629"><ele>538.4</ele></trkpt>
      <trkpt lat="37.423812" lon="127.041592"><ele>546.7</ele></trkpt>
      <trkpt lat="37.423592" lon="127.041734"><ele>555.4</ele></trkpt>
      <trkpt lat="37.423433" lon="127.041715"><ele>563.3</ele></trkpt>
      <trkpt lat="37.423274" lon="127.041931"><ele>573.6</ele></trkpt>
      <trkpt lat="37.423236" lon="127.042291"><ele>574.3</ele></trkpt>
      <trkpt lat="37.423046" lon="127.041931"><ele>587.4</ele></trkpt>
      <trkpt lat="37.423027" lon="127.041600"><ele>584.8</ele></trkpt>
      <trkpt lat="37.422955" lon="127.041376"><ele>580.3</ele></trkpt>
      <trkpt lat="37.422755" lon="127.041311"><ele>580.4</ele></trkpt>
      <trkpt lat="37.422590" lon="127.041127"><ele>572.8</ele></trkpt>
      <trkpt lat="37.422393" lon="127.041246"><ele>572.4</ele></trkpt>
      <trkpt lat="37.422333" lon="127.041394"><ele>575.0</ele></trkpt>
      <trkpt lat="37.422156" lon="127.041517"><ele>573.9</ele></trkpt>
      <trkpt lat="37.422047" lon="127.041663"><ele>574.6</ele></trkpt>
      <trkpt lat="37.421366" lon="127.042059"><ele>580.6</ele></trkpt>
      <trkpt lat="37.421073" lon="127.042180"><ele>580.4</ele></trkpt>
      <trkpt lat="37.420350" lon="127.042138"><ele>569.2</ele></trkpt>
      <trkpt lat="37.420198" lon="127.042293"><ele>568.1</ele></trkpt>
      <trkpt lat="37.419984" lon="127.042322"><ele>558.2</ele></trkpt>
      <trkpt lat="37.419698" lon="127.042595"><ele>552.8</ele></trkpt>
      <trkpt lat="37.419293" lon="127.042591"><ele>551.8</ele></trkpt>
      <trkpt lat="37.419009" lon="127.042267"><ele>545.3</ele></trkpt>
      <trkpt lat="37.418979" lon="127.042125"><ele>542.5</ele></trkpt>
      <trkpt lat="37.418825" lon="127.042215"><ele>540.3</ele></trkpt>
      <trkpt lat="37.418717" lon="127.042036"><ele>533.8</ele></trkpt>
      <trkpt lat="37.418664" lon="127.042052"><ele>532.4</ele></trkpt>
      <trkpt lat="37.418543" lon="127.041934"><ele>527.2</ele></trkpt>
      <trkpt lat="37.418416" lon="127.041943"><ele>523.0</ele></trkpt>
      <trkpt lat="37.418242" lon="127.041838"><ele>515.4</ele></trkpt>
      <trkpt lat="37.418168" lon="127.041859"><ele>513.5</ele></trkpt>
      <trkpt lat="37.418111" lon="127.041760"><ele>510.5</ele></trkpt>
      <trkpt lat="37.417921" lon="127.041881"><ele>505.1</ele></trkpt>
      <trkpt lat="37.417876" lon="127.041986"><ele>504.1</ele></trkpt>
      <trkpt lat="37.417705" lon="127.041992"><ele>497.2</ele></trkpt>
      <trkpt lat="37.417681" lon="127.042051"><ele>495.7</ele></trkpt>
      <trkpt lat="37.417537" lon="127.042009"><ele>489.6</ele></trkpt>
      <trkpt lat="37.417362" lon="127.041717"><ele>481.5</ele></trkpt>
      <trkpt lat="37.417128" lon="127.041803"><ele>475.9</ele></trkpt>
      <trkpt lat="37.416792" lon="127.041699"><ele>474.8</ele></trkpt>
      <trkpt lat="37.416718" lon="127.041618"><ele>475.5</ele></trkpt>
      <trkpt lat="37.416602" lon="127.041642"><ele>478.1</ele></trkpt>
      <trkpt lat="37.416519" lon="127.041766"><ele>480.0</ele></trkpt>
      <trkpt lat="37.416384" lon="127.041830"><ele>483.2</ele></trkpt>
      <trkpt lat="37.416204" lon="127.041807"><ele>488.6</ele></trkpt>
      <trkpt lat="37.415997" lon="127.041950"><ele>495.1</ele></trkpt>
      <trkpt lat="37.415856" lon="127.041898"><ele>500.1</ele></trkpt>
      <trkpt lat="37.415680" lon="127.041745"><ele>500.6</ele></trkpt>
      <trkpt lat="37.415622" lon="127.041785"><ele>501.1</ele></trkpt>
      <trkpt lat="37.415582" lon="127.042040"><ele>504.0</ele></trkpt>
      <trkpt lat="37.415377" lon="127.042371"><ele>505.5</ele></trkpt>
      <trkpt lat="37.415298" lon="127.043057"><ele>508.6</ele></trkpt>
      <trkpt lat="37.415136" lon="127.043352"><ele>514.3</ele></trkpt>
      <trkpt lat="37.414952" lon="127.043500"><ele>517.5</ele></trkpt>
      <trkpt lat="37.414875" lon="127.043734"><ele>518.2</ele></trkpt>
      <trkpt lat="37.414634" lon="127.044132"><ele>519.8</ele></trkpt>
      <trkpt lat="37.414261" lon="127.044527"><ele>522.5</ele></trkpt>
      <trkpt lat="37.414222" lon="127.044922"><ele>524.3</ele></trkpt>
      <trkpt lat="37.414148" lon="127.045179"><ele>523.9</ele></trkpt>
      <trkpt lat="37.413896" lon="127.045457"><ele>522.3</ele></trkpt>
      <trkpt lat="37.413877" lon="127.045740"><ele>527.5</ele></trkpt>
      <trkpt lat="37.413817" lon="127.045864"><ele>528.0</ele></trkpt>
      <trkpt lat="37.413690" lon="127.046523"><ele>534.3</ele></trkpt>
      <trkpt lat="37.413581" lon="127.046747"><ele>535.5</ele></trkpt>
      <trkpt lat="37.413550" lon="127.047722"><ele>532.8</ele></trkpt>
      <trkpt lat="37.413732" lon="127.048051"><ele>533.4</ele></trkpt>
      <trkpt lat="37.413729" lon="127.048292"><ele>536.4</ele></trkpt>
      <trkpt lat="37.413970" lon="127.048590"><ele>531.0</ele></trkpt>
      <trkpt lat="37.413984" lon="127.048732"><ele>530.2</ele></trkpt>
      <trkpt lat="37.413924" lon="127.049052"><ele>530.1</ele></trkpt>
      <trkpt lat="37.414043" lon="127.049310"><ele>525.1</ele></trkpt>
      <trkpt lat="37.414877" lon="127.049717"><ele>495.8</ele></trkpt>
      <trkpt lat="37.415216" lon="127.050377"><ele>485.1</ele></trkpt>
      <trkpt lat="37.415566" lon="127.050704"><ele>474.5</ele></trkpt>
      <trkpt lat="37.415731" lon="127.050941"><ele>466.6</ele></trkpt>
      <trkpt lat="37.415929" lon="127.051096"><ele>460.5</ele></trkpt>
      <trkpt lat="37.416418" lon="127.051105"><ele>441.7</ele></trkpt>
      <trkpt lat="37.416985" lon="127.051006"><ele>419.8</ele></trkpt>
      <trkpt lat="37.417360" lon="127.051212"><ele>410.2</ele></trkpt>
      <trkpt lat="37.417464" lon="127.051391"><ele>409.4</ele></trkpt>
      <trkpt lat="37.418084" lon="127.052017"><ele>402.7</ele></trkpt>
      <trkpt lat="37.418263" lon="127.052279"><ele>401.9</ele></trkpt>
      <trkpt lat="37.418455" lon="127.053047"><ele>391.8</ele></trkpt>
    </trkseg>
  </trk>
</gpx>
