<?xml version="1.0" encoding="UTF-8"?>
<gpx version="1.1" creator="kr-100-mountains route-harvester"
     xmlns="http://www.topografix.com/GPX/1/1"
     xmlns:k100="https://github.com/jay-jang/kr-100-mountains/ns/1"
     xmlns:xsi="http://www.w3.org/2001/XMLSchema-instance"
     xsi:schemaLocation="http://www.topografix.com/GPX/1/1 http://www.topografix.com/GPX/1/1/gpx.xsd">
  <metadata>
    <name>청계산 · 옛골-이수봉-망경대 코스 (대안 1) (OSM 계산 경로)</name>
    <desc>실제 GPS 기록이 아닙니다. OpenStreetMap에 등록된 등산로 선형 위에서 계산한 경로이며, 현장 통제·훼손·출입 제한·계절 통제를 반영하지 않을 수 있습니다. 산행 전 공식 안내를 확인하세요.</desc>
    <time>2026-08-04T05:55:14.152Z</time>
    <link href="https://www.openstreetmap.org/copyright"><text>© OpenStreetMap contributors (ODbL 1.0)</text></link>
    <link href="https://registry.opendata.aws/terrain-tiles/"><text>Elevation: SRTM 1 arc-second (NASA/USGS) via AWS Terrain Tiles</text></link>
    <extensions>
      <k100:provenance>osm-routed</k100:provenance>
      <k100:not_a_recorded_track>true</k100:not_a_recorded_track>
      <k100:mountain_id>cheonggyesan-seoul</k100:mountain_id>
      <k100:mountain_name>청계산(서울)</k100:mountain_name>
      <k100:route_id>cheonggyesan-seoul-ad1a7af8</k100:route_id>
      <k100:route_index>2</k100:route_index>
      <k100:route_name>옛골-이수봉-망경대 코스</k100:route_name>
      <k100:variant>1</k100:variant>
      <k100:source>OpenStreetMap via Overpass API</k100:source>
      <k100:license>ODbL-1.0</k100:license>
      <k100:attribution>© OpenStreetMap contributors</k100:attribution>
      <k100:elevation_source>SRTM 1 arc-second (NASA/USGS) — AWS Terrain Tiles 배포본. 지형 DEM 추정 고도이며 실측 아님</k100:elevation_source>
      <k100:algorithm>dijkstra-grid-v1</k100:algorithm>
      <k100:osm_snapshot>2026-08-04</k100:osm_snapshot>
      <k100:snap_trailhead_m>17</k100:snap_trailhead_m>
      <k100:snap_summit_m>87</k100:snap_summit_m>
      <k100:validation_score>84</k100:validation_score>
      <k100:validation_status>accepted</k100:validation_status>
    </extensions>
  </metadata>
  <trk>
    <name>청계산 · 옛골-이수봉-망경대 코스 (대안 1) (OSM 계산 경로)</name>
    <desc>실제 GPS 기록이 아닙니다. OpenStreetMap에 등록된 등산로 선형 위에서 계산한 경로이며, 현장 통제·훼손·출입 제한·계절 통제를 반영하지 않을 수 있습니다. 산행 전 공식 안내를 확인하세요.</desc>
    <trkseg>
      <trkpt lat="37.430176" lon="127.070904"><ele>105.0</ele></trkpt>
      <trkpt lat="37.430514" lon="127.071251"><ele>105.0</ele></trkpt>
      <trkpt lat="37.430537" lon="127.071720"><ele>102.9</ele></trkpt>
      <trkpt lat="37.430164" lon="127.071899"><ele>101.9</ele></trkpt>
      <trkpt lat="37.429877" lon="127.071942"><ele>99.7</ele></trkpt>
      <trkpt lat="37.429153" lon="127.071669"><ele>103.0</ele></trkpt>
      <trkpt lat="37.428973" lon="127.071529"><ele>103.8</ele></trkpt>
      <trkpt lat="37.428724" lon="127.071175"><ele>104.0</ele></trkpt>
      <trkpt lat="37.428631" lon="127.070655"><ele>104.8</ele></trkpt>
      <trkpt lat="37.428746" lon="127.070443"><ele>106.0</ele></trkpt>
      <trkpt lat="37.429358" lon="127.070167"><ele>108.3</ele></trkpt>
      <trkpt lat="37.429545" lon="127.069925"><ele>110.5</ele></trkpt>
      <trkpt lat="37.429549" lon="127.069362"><ele>115.4</ele></trkpt>
      <trkpt lat="37.429353" lon="127.068633"><ele>126.2</ele></trkpt>
      <trkpt lat="37.429230" lon="127.068380"><ele>131.7</ele></trkpt>
      <trkpt lat="37.428898" lon="127.068144"><ele>136.4</ele></trkpt>
      <trkpt lat="37.427828" lon="127.068246"><ele>135.3</ele></trkpt>
      <trkpt lat="37.427534" lon="127.068166"><ele>136.4</ele></trkpt>
      <trkpt lat="37.427330" lon="127.067890"><ele>136.6</ele></trkpt>
      <trkpt lat="37.427187" lon="127.067172"><ele>137.7</ele></trkpt>
      <trkpt lat="37.427088" lon="127.066909"><ele>137.7</ele></trkpt>
      <trkpt lat="37.426636" lon="127.066239"><ele>137.2</ele></trkpt>
      <trkpt lat="37.426438" lon="127.065451"><ele>136.9</ele></trkpt>
      <trkpt lat="37.426397" lon="127.065056"><ele>138.7</ele></trkpt>
      <trkpt lat="37.426717" lon="127.062906"><ele>153.0</ele></trkpt>
      <trkpt lat="37.426673" lon="127.062846"><ele>152.6</ele></trkpt>
      <trkpt lat="37.426498" lon="127.062798"><ele>150.4</ele></trkpt>
      <trkpt lat="37.426370" lon="127.062549"><ele>150.8</ele></trkpt>
      <trkpt lat="37.426085" lon="127.062416"><ele>156.5</ele></trkpt>
      <trkpt lat="37.426054" lon="127.061971"><ele>166.4</ele></trkpt>
      <trkpt lat="37.426208" lon="127.061658"><ele>165.3</ele></trkpt>
      <trkpt lat="37.426248" lon="127.061469"><ele>167.5</ele></trkpt>
      <trkpt lat="37.426184" lon="127.061158"><ele>173.7</ele></trkpt>
      <trkpt lat="37.426035" lon="127.061059"><ele>180.4</ele></trkpt>
      <trkpt lat="37.425767" lon="127.061134"><ele>195.0</ele></trkpt>
      <trkpt lat="37.425511" lon="127.061433"><ele>212.0</ele></trkpt>
      <trkpt lat="37.425020" lon="127.061875"><ele>220.8</ele></trkpt>
      <trkpt lat="37.424867" lon="127.062161"><ele>216.1</ele></trkpt>
      <trkpt lat="37.424728" lon="127.062217"><ele>218.0</ele></trkpt>
      <trkpt lat="37.424569" lon="127.062142"><ele>218.3</ele></trkpt>
      <trkpt lat="37.424229" lon="127.061836"><ele>221.2</ele></trkpt>
      <trkpt lat="37.423550" lon="127.061659"><ele>212.3</ele></trkpt>
      <trkpt lat="37.423094" lon="127.061303"><ele>209.7</ele></trkpt>
      <trkpt lat="37.422951" lon="127.061045"><ele>208.1</ele></trkpt>
      <trkpt lat="37.422915" lon="127.060845"><ele>210.2</ele></trkpt>
      <trkpt lat="37.422934" lon="127.060459"><ele>216.8</ele></trkpt>
      <trkpt lat="37.422974" lon="127.060295"><ele>220.0</ele></trkpt>
      <trkpt lat="37.423317" lon="127.059630"><ele>238.8</ele></trkpt>
      <trkpt lat="37.423223" lon="127.059343"><ele>240.4</ele></trkpt>
      <trkpt lat="37.423072" lon="127.059080"><ele>240.9</ele></trkpt>
      <trkpt lat="37.423017" lon="127.058529"><ele>242.4</ele></trkpt>
      <trkpt lat="37.422925" lon="127.058212"><ele>242.3</ele></trkpt>
      <trkpt lat="37.422944" lon="127.058025"><ele>241.7</ele></trkpt>
      <trkpt lat="37.422513" lon="127.057934"><ele>242.7</ele></trkpt>
      <trkpt lat="37.422556" lon="127.057724"><ele>245.8</ele></trkpt>
      <trkpt lat="37.422511" lon="127.057494"><ele>247.8</ele></trkpt>
      <trkpt lat="37.422021" lon="127.057156"><ele>262.6</ele></trkpt>
      <trkpt lat="37.421955" lon="127.056989"><ele>268.5</ele></trkpt>
      <trkpt lat="37.421785" lon="127.056871"><ele>272.4</ele></trkpt>
      <trkpt lat="37.421736" lon="127.056708"><ele>276.0</ele></trkpt>
      <trkpt lat="37.421561" lon="127.056464"><ele>278.6</ele></trkpt>
      <trkpt lat="37.421252" lon="127.056279"><ele>283.3</ele></trkpt>
      <trkpt lat="37.421154" lon="127.056094"><ele>288.3</ele></trkpt>
      <trkpt lat="37.420905" lon="127.055831"><ele>301.2</ele></trkpt>
      <trkpt lat="37.420717" lon="127.055377"><ele>314.3</ele></trkpt>
      <trkpt lat="37.420622" lon="127.055286"><ele>321.9</ele></trkpt>
      <trkpt lat="37.420551" lon="127.055064"><ele>330.8</ele></trkpt>
      <trkpt lat="37.420170" lon="127.054892"><ele>345.5</ele></trkpt>
      <trkpt lat="37.420042" lon="127.054761"><ele>351.7</ele></trkpt>
      <trkpt lat="37.419868" lon="127.054683"><ele>357.0</ele></trkpt>
      <trkpt lat="37.419818" lon="127.054551"><ele>361.7</ele></trkpt>
      <trkpt lat="37.419731" lon="127.054506"><ele>364.8</ele></trkpt>
      <trkpt lat="37.419667" lon="127.054015"><ele>373.4</ele></trkpt>
      <trkpt lat="37.419546" lon="127.053777"><ele>373.3</ele></trkpt>
      <trkpt lat="37.419257" lon="127.053564"><ele>373.2</ele></trkpt>
      <trkpt lat="37.418560" lon="127.053273"><ele>388.1</ele></trkpt>
      <trkpt lat="37.418455" lon="127.053047"><ele>391.8</ele></trkpt>
    </trkseg>
  </trk>
</gpx>
