<?xml version="1.0" encoding="UTF-8"?>
<gpx version="1.1" creator="kr-100-mountains route-harvester"
     xmlns="http://www.topografix.com/GPX/1/1"
     xmlns:k100="https://github.com/jay-jang/kr-100-mountains/ns/1"
     xmlns:xsi="http://www.w3.org/2001/XMLSchema-instance"
     xsi:schemaLocation="http://www.topografix.com/GPX/1/1 http://www.topografix.com/GPX/1/1/gpx.xsd">
  <metadata>
    <name>주왕산 · 상의주차장-대전사-용추폭포-용연폭포 (OSM 계산 경로)</name>
    <desc>실제 GPS 기록이 아닙니다. OpenStreetMap에 등록된 등산로 선형 위에서 계산한 경로이며, 현장 통제·훼손·출입 제한·계절 통제를 반영하지 않을 수 있습니다. 산행 전 공식 안내를 확인하세요.</desc>
    <time>2026-08-04T05:46:53.655Z</time>
    <link href="https://www.openstreetmap.org/copyright"><text>© OpenStreetMap contributors (ODbL 1.0)</text></link>
    <link href="https://registry.opendata.aws/terrain-tiles/"><text>Elevation: SRTM 1 arc-second (NASA/USGS) via AWS Terrain Tiles</text></link>
    <extensions>
      <k100:provenance>osm-routed</k100:provenance>
      <k100:not_a_recorded_track>true</k100:not_a_recorded_track>
      <k100:mountain_id>juwangsan</k100:mountain_id>
      <k100:mountain_name>주왕산</k100:mountain_name>
      <k100:route_id>juwangsan-af880c4c</k100:route_id>
      <k100:route_index>3</k100:route_index>
      <k100:route_name>상의주차장-대전사-용추폭포-용연폭포</k100:route_name>
      <k100:variant>0</k100:variant>
      <k100:source>OpenStreetMap via Overpass API</k100:source>
      <k100:license>ODbL-1.0</k100:license>
      <k100:attribution>© OpenStreetMap contributors</k100:attribution>
      <k100:elevation_source>SRTM 1 arc-second (NASA/USGS) — AWS Terrain Tiles 배포본. 지형 DEM 추정 고도이며 실측 아님</k100:elevation_source>
      <k100:algorithm>dijkstra-grid-v1</k100:algorithm>
      <k100:osm_snapshot>2026-08-04</k100:osm_snapshot>
      <k100:snap_trailhead_m>12</k100:snap_trailhead_m>
      <k100:snap_summit_m>273</k100:snap_summit_m>
      <k100:validation_score>73</k100:validation_score>
      <k100:validation_status>review</k100:validation_status>
    </extensions>
  </metadata>
  <trk>
    <name>주왕산 · 상의주차장-대전사-용추폭포-용연폭포 (OSM 계산 경로)</name>
    <desc>실제 GPS 기록이 아닙니다. OpenStreetMap에 등록된 등산로 선형 위에서 계산한 경로이며, 현장 통제·훼손·출입 제한·계절 통제를 반영하지 않을 수 있습니다. 산행 전 공식 안내를 확인하세요.</desc>
    <trkseg>
      <trkpt lat="36.390442" lon="129.140987"><ele>255.0</ele></trkpt>
      <trkpt lat="36.390549" lon="129.141057"><ele>255.9</ele></trkpt>
      <trkpt lat="36.390730" lon="129.141025"><ele>255.8</ele></trkpt>
      <trkpt lat="36.390862" lon="129.141398"><ele>256.3</ele></trkpt>
      <trkpt lat="36.390915" lon="129.141453"><ele>256.9</ele></trkpt>
      <trkpt lat="36.391186" lon="129.141515"><ele>257.9</ele></trkpt>
      <trkpt lat="36.391059" lon="129.141777"><ele>257.9</ele></trkpt>
      <trkpt lat="36.391089" lon="129.141872"><ele>257.9</ele></trkpt>
      <trkpt lat="36.391318" lon="129.141713"><ele>258.0</ele></trkpt>
      <trkpt lat="36.391548" lon="129.142017"><ele>257.1</ele></trkpt>
      <trkpt lat="36.391618" lon="129.141971"><ele>257.1</ele></trkpt>
      <trkpt lat="36.391988" lon="129.142477"><ele>254.8</ele></trkpt>
      <trkpt lat="36.392473" lon="129.143391"><ele>257.7</ele></trkpt>
      <trkpt lat="36.393043" lon="129.144936"><ele>261.5</ele></trkpt>
      <trkpt lat="36.393214" lon="129.145234"><ele>260.9</ele></trkpt>
      <trkpt lat="36.393786" lon="129.145502"><ele>262.0</ele></trkpt>
      <trkpt lat="36.395667" lon="129.145631"><ele>260.8</ele></trkpt>
      <trkpt lat="36.396333" lon="129.145392"><ele>260.3</ele></trkpt>
      <trkpt lat="36.396453" lon="129.145427"><ele>260.8</ele></trkpt>
      <trkpt lat="36.396720" lon="129.145746"><ele>265.7</ele></trkpt>
      <trkpt lat="36.397031" lon="129.145722"><ele>266.7</ele></trkpt>
      <trkpt lat="36.397384" lon="129.145832"><ele>265.1</ele></trkpt>
      <trkpt lat="36.397382" lon="129.146023"><ele>266.9</ele></trkpt>
      <trkpt lat="36.397299" lon="129.146225"><ele>269.9</ele></trkpt>
      <trkpt lat="36.397129" lon="129.146502"><ele>271.3</ele></trkpt>
      <trkpt lat="36.396786" lon="129.146890"><ele>274.1</ele></trkpt>
      <trkpt lat="36.396706" lon="129.147102"><ele>274.3</ele></trkpt>
      <trkpt lat="36.396719" lon="129.147206"><ele>273.5</ele></trkpt>
      <trkpt lat="36.396851" lon="129.147408"><ele>271.8</ele></trkpt>
      <trkpt lat="36.397009" lon="129.147916"><ele>271.4</ele></trkpt>
      <trkpt lat="36.397196" lon="129.148231"><ele>275.5</ele></trkpt>
      <trkpt lat="36.397432" lon="129.148477"><ele>280.2</ele></trkpt>
      <trkpt lat="36.397646" lon="129.148797"><ele>281.4</ele></trkpt>
      <trkpt lat="36.397950" lon="129.149468"><ele>286.0</ele></trkpt>
    </trkseg>
  </trk>
</gpx>
