<?xml version="1.0" encoding="UTF-8"?>
<gpx version="1.1" creator="kr-100-mountains route-harvester"
     xmlns="http://www.topografix.com/GPX/1/1"
     xmlns:k100="https://github.com/jay-jang/kr-100-mountains/ns/1"
     xmlns:xsi="http://www.w3.org/2001/XMLSchema-instance"
     xsi:schemaLocation="http://www.topografix.com/GPX/1/1 http://www.topografix.com/GPX/1/1/gpx.xsd">
  <metadata>
    <name>민주지산 · 도마령-각호산-민주지산 (OSM 계산 경로)</name>
    <desc>실제 GPS 기록이 아닙니다. OpenStreetMap에 등록된 등산로 선형 위에서 계산한 경로이며, 현장 통제·훼손·출입 제한·계절 통제를 반영하지 않을 수 있습니다. 산행 전 공식 안내를 확인하세요.</desc>
    <time>2026-08-04T05:26:48.634Z</time>
    <link href="https://www.openstreetmap.org/copyright"><text>© OpenStreetMap contributors (ODbL 1.0)</text></link>
    <link href="https://registry.opendata.aws/terrain-tiles/"><text>Elevation: SRTM 1 arc-second (NASA/USGS) via AWS Terrain Tiles</text></link>
    <extensions>
      <k100:provenance>osm-routed</k100:provenance>
      <k100:not_a_recorded_track>true</k100:not_a_recorded_track>
      <k100:mountain_id>minjujisan</k100:mountain_id>
      <k100:mountain_name>민주지산</k100:mountain_name>
      <k100:route_id>minjujisan-6d2c32c5</k100:route_id>
      <k100:route_index>6</k100:route_index>
      <k100:route_name>도마령-각호산-민주지산</k100:route_name>
      <k100:variant>0</k100:variant>
      <k100:source>OpenStreetMap via Overpass API</k100:source>
      <k100:license>ODbL-1.0</k100:license>
      <k100:attribution>© OpenStreetMap contributors</k100:attribution>
      <k100:elevation_source>SRTM 1 arc-second (NASA/USGS) — AWS Terrain Tiles 배포본. 지형 DEM 추정 고도이며 실측 아님</k100:elevation_source>
      <k100:algorithm>dijkstra-grid-v1</k100:algorithm>
      <k100:osm_snapshot>2026-08-04</k100:osm_snapshot>
      <k100:snap_trailhead_m>6</k100:snap_trailhead_m>
      <k100:snap_summit_m>11</k100:snap_summit_m>
      <k100:validation_score>93</k100:validation_score>
      <k100:validation_status>accepted</k100:validation_status>
    </extensions>
  </metadata>
  <trk>
    <name>민주지산 · 도마령-각호산-민주지산 (OSM 계산 경로)</name>
    <desc>실제 GPS 기록이 아닙니다. OpenStreetMap에 등록된 등산로 선형 위에서 계산한 경로이며, 현장 통제·훼손·출입 제한·계절 통제를 반영하지 않을 수 있습니다. 산행 전 공식 안내를 확인하세요.</desc>
    <trkseg>
      <trkpt lat="36.069352" lon="127.834973"><ele>812.4</ele></trkpt>
      <trkpt lat="36.069144" lon="127.834685"><ele>810.4</ele></trkpt>
      <trkpt lat="36.069135" lon="127.834491"><ele>805.5</ele></trkpt>
      <trkpt lat="36.068895" lon="127.834621"><ele>799.3</ele></trkpt>
      <trkpt lat="36.068875" lon="127.834685"><ele>801.1</ele></trkpt>
      <trkpt lat="36.069002" lon="127.834863"><ele>810.3</ele></trkpt>
      <trkpt lat="36.069025" lon="127.835029"><ele>814.4</ele></trkpt>
      <trkpt lat="36.068983" lon="127.835345"><ele>819.0</ele></trkpt>
      <trkpt lat="36.068639" lon="127.835462"><ele>827.2</ele></trkpt>
      <trkpt lat="36.068616" lon="127.835553"><ele>830.8</ele></trkpt>
      <trkpt lat="36.068401" lon="127.835828"><ele>833.9</ele></trkpt>
      <trkpt lat="36.068085" lon="127.836125"><ele>834.4</ele></trkpt>
      <trkpt lat="36.068038" lon="127.836614"><ele>838.8</ele></trkpt>
      <trkpt lat="36.068151" lon="127.837097"><ele>849.3</ele></trkpt>
      <trkpt lat="36.068103" lon="127.837374"><ele>855.1</ele></trkpt>
      <trkpt lat="36.067991" lon="127.837642"><ele>859.1</ele></trkpt>
      <trkpt lat="36.067535" lon="127.838176"><ele>878.3</ele></trkpt>
      <trkpt lat="36.067260" lon="127.838425"><ele>890.2</ele></trkpt>
      <trkpt lat="36.067034" lon="127.838939"><ele>913.2</ele></trkpt>
      <trkpt lat="36.066864" lon="127.839151"><ele>923.2</ele></trkpt>
      <trkpt lat="36.066642" lon="127.839564"><ele>936.5</ele></trkpt>
      <trkpt lat="36.066439" lon="127.839749"><ele>945.3</ele></trkpt>
      <trkpt lat="36.066201" lon="127.840086"><ele>961.3</ele></trkpt>
      <trkpt lat="36.066171" lon="127.840193"><ele>965.7</ele></trkpt>
      <trkpt lat="36.066068" lon="127.840239"><ele>969.8</ele></trkpt>
      <trkpt lat="36.065930" lon="127.840524"><ele>977.6</ele></trkpt>
      <trkpt lat="36.065262" lon="127.840959"><ele>997.1</ele></trkpt>
      <trkpt lat="36.064539" lon="127.841194"><ele>1042.1</ele></trkpt>
      <trkpt lat="36.064517" lon="127.841303"><ele>1046.6</ele></trkpt>
      <trkpt lat="36.064205" lon="127.841560"><ele>1063.6</ele></trkpt>
      <trkpt lat="36.064016" lon="127.841598"><ele>1065.1</ele></trkpt>
      <trkpt lat="36.064049" lon="127.841774"><ele>1070.7</ele></trkpt>
      <trkpt lat="36.063968" lon="127.842033"><ele>1078.5</ele></trkpt>
      <trkpt lat="36.063843" lon="127.842230"><ele>1083.3</ele></trkpt>
      <trkpt lat="36.063672" lon="127.842760"><ele>1091.8</ele></trkpt>
      <trkpt lat="36.063520" lon="127.843092"><ele>1103.0</ele></trkpt>
      <trkpt lat="36.063326" lon="127.843217"><ele>1115.7</ele></trkpt>
      <trkpt lat="36.063191" lon="127.843759"><ele>1132.9</ele></trkpt>
      <trkpt lat="36.062704" lon="127.844545"><ele>1157.5</ele></trkpt>
      <trkpt lat="36.062657" lon="127.844765"><ele>1162.2</ele></trkpt>
      <trkpt lat="36.062691" lon="127.844907"><ele>1167.7</ele></trkpt>
      <trkpt lat="36.062572" lon="127.845008"><ele>1168.0</ele></trkpt>
      <trkpt lat="36.062558" lon="127.845085"><ele>1169.9</ele></trkpt>
      <trkpt lat="36.062686" lon="127.845501"><ele>1179.9</ele></trkpt>
      <trkpt lat="36.062599" lon="127.846012"><ele>1177.6</ele></trkpt>
      <trkpt lat="36.062532" lon="127.846213"><ele>1178.3</ele></trkpt>
      <trkpt lat="36.062375" lon="127.846452"><ele>1177.5</ele></trkpt>
      <trkpt lat="36.062396" lon="127.846544"><ele>1179.5</ele></trkpt>
      <trkpt lat="36.062241" lon="127.846813"><ele>1179.2</ele></trkpt>
      <trkpt lat="36.061850" lon="127.846965"><ele>1163.0</ele></trkpt>
      <trkpt lat="36.061817" lon="127.847060"><ele>1160.3</ele></trkpt>
      <trkpt lat="36.061437" lon="127.847286"><ele>1132.9</ele></trkpt>
      <trkpt lat="36.061223" lon="127.847150"><ele>1121.1</ele></trkpt>
      <trkpt lat="36.061112" lon="127.847166"><ele>1114.3</ele></trkpt>
      <trkpt lat="36.060577" lon="127.846994"><ele>1084.4</ele></trkpt>
      <trkpt lat="36.060460" lon="127.847011"><ele>1080.6</ele></trkpt>
      <trkpt lat="36.060352" lon="127.846942"><ele>1077.1</ele></trkpt>
      <trkpt lat="36.060130" lon="127.847012"><ele>1073.2</ele></trkpt>
      <trkpt lat="36.059964" lon="127.847133"><ele>1071.5</ele></trkpt>
      <trkpt lat="36.059280" lon="127.847220"><ele>1079.7</ele></trkpt>
      <trkpt lat="36.059088" lon="127.847139"><ele>1082.1</ele></trkpt>
      <trkpt lat="36.058986" lon="127.847194"><ele>1085.0</ele></trkpt>
      <trkpt lat="36.058695" lon="127.847111"><ele>1087.1</ele></trkpt>
      <trkpt lat="36.058581" lon="127.847133"><ele>1088.4</ele></trkpt>
      <trkpt lat="36.058399" lon="127.847308"><ele>1085.9</ele></trkpt>
      <trkpt lat="36.058211" lon="127.847331"><ele>1082.0</ele></trkpt>
      <trkpt lat="36.057684" lon="127.847568"><ele>1077.4</ele></trkpt>
      <trkpt lat="36.057161" lon="127.847600"><ele>1092.0</ele></trkpt>
      <trkpt lat="36.057039" lon="127.847725"><ele>1094.2</ele></trkpt>
      <trkpt lat="36.057024" lon="127.847816"><ele>1094.1</ele></trkpt>
      <trkpt lat="36.056660" lon="127.848095"><ele>1093.3</ele></trkpt>
      <trkpt lat="36.056487" lon="127.848095"><ele>1097.7</ele></trkpt>
      <trkpt lat="36.056221" lon="127.848229"><ele>1100.7</ele></trkpt>
      <trkpt lat="36.056053" lon="127.848257"><ele>1102.5</ele></trkpt>
      <trkpt lat="36.055840" lon="127.848515"><ele>1101.6</ele></trkpt>
      <trkpt lat="36.055447" lon="127.848775"><ele>1097.7</ele></trkpt>
      <trkpt lat="36.055401" lon="127.848882"><ele>1097.4</ele></trkpt>
      <trkpt lat="36.055232" lon="127.848972"><ele>1096.8</ele></trkpt>
      <trkpt lat="36.055199" lon="127.849069"><ele>1097.0</ele></trkpt>
      <trkpt lat="36.055061" lon="127.849144"><ele>1098.9</ele></trkpt>
      <trkpt lat="36.054811" lon="127.849705"><ele>1116.2</ele></trkpt>
      <trkpt lat="36.054712" lon="127.849803"><ele>1121.5</ele></trkpt>
      <trkpt lat="36.054532" lon="127.849835"><ele>1127.5</ele></trkpt>
      <trkpt lat="36.054529" lon="127.849927"><ele>1129.9</ele></trkpt>
      <trkpt lat="36.054406" lon="127.850017"><ele>1136.3</ele></trkpt>
      <trkpt lat="36.054230" lon="127.850313"><ele>1147.9</ele></trkpt>
      <trkpt lat="36.054063" lon="127.850815"><ele>1153.7</ele></trkpt>
      <trkpt lat="36.053963" lon="127.850922"><ele>1154.6</ele></trkpt>
      <trkpt lat="36.053953" lon="127.850996"><ele>1153.6</ele></trkpt>
      <trkpt lat="36.053825" lon="127.851023"><ele>1156.5</ele></trkpt>
      <trkpt lat="36.053656" lon="127.850942"><ele>1160.4</ele></trkpt>
      <trkpt lat="36.053548" lon="127.850988"><ele>1161.9</ele></trkpt>
      <trkpt lat="36.053212" lon="127.850939"><ele>1164.4</ele></trkpt>
      <trkpt lat="36.053178" lon="127.851044"><ele>1164.3</ele></trkpt>
      <trkpt lat="36.052634" lon="127.851029"><ele>1156.6</ele></trkpt>
      <trkpt lat="36.052528" lon="127.850955"><ele>1155.7</ele></trkpt>
      <trkpt lat="36.052144" lon="127.850925"><ele>1155.5</ele></trkpt>
      <trkpt lat="36.052023" lon="127.851010"><ele>1152.7</ele></trkpt>
      <trkpt lat="36.051777" lon="127.851020"><ele>1143.7</ele></trkpt>
      <trkpt lat="36.051670" lon="127.850938"><ele>1139.4</ele></trkpt>
      <trkpt lat="36.051481" lon="127.850896"><ele>1134.9</ele></trkpt>
      <trkpt lat="36.050171" lon="127.851271"><ele>1132.1</ele></trkpt>
      <trkpt lat="36.049988" lon="127.851271"><ele>1131.8</ele></trkpt>
      <trkpt lat="36.049925" lon="127.851218"><ele>1130.6</ele></trkpt>
      <trkpt lat="36.049558" lon="127.851294"><ele>1124.4</ele></trkpt>
      <trkpt lat="36.049412" lon="127.851200"><ele>1122.9</ele></trkpt>
      <trkpt lat="36.049357" lon="127.851268"><ele>1122.9</ele></trkpt>
      <trkpt lat="36.049078" lon="127.851134"><ele>1123.1</ele></trkpt>
      <trkpt lat="36.048739" lon="127.851242"><ele>1125.9</ele></trkpt>
      <trkpt lat="36.048503" lon="127.851112"><ele>1124.4</ele></trkpt>
      <trkpt lat="36.048238" lon="127.850847"><ele>1122.5</ele></trkpt>
      <trkpt lat="36.048013" lon="127.850814"><ele>1121.5</ele></trkpt>
      <trkpt lat="36.047694" lon="127.850668"><ele>1119.2</ele></trkpt>
      <trkpt lat="36.047409" lon="127.850699"><ele>1123.3</ele></trkpt>
      <trkpt lat="36.047257" lon="127.850648"><ele>1126.6</ele></trkpt>
      <trkpt lat="36.047088" lon="127.850662"><ele>1132.7</ele></trkpt>
      <trkpt lat="36.046850" lon="127.850559"><ele>1141.3</ele></trkpt>
      <trkpt lat="36.046290" lon="127.850748"><ele>1146.0</ele></trkpt>
      <trkpt lat="36.045870" lon="127.851018"><ele>1142.3</ele></trkpt>
      <trkpt lat="36.045735" lon="127.850981"><ele>1141.7</ele></trkpt>
      <trkpt lat="36.045404" lon="127.851029"><ele>1138.7</ele></trkpt>
      <trkpt lat="36.044948" lon="127.850952"><ele>1140.6</ele></trkpt>
      <trkpt lat="36.044510" lon="127.851030"><ele>1151.8</ele></trkpt>
      <trkpt lat="36.043845" lon="127.850667"><ele>1146.1</ele></trkpt>
      <trkpt lat="36.043741" lon="127.850697"><ele>1143.8</ele></trkpt>
      <trkpt lat="36.043548" lon="127.850632"><ele>1140.3</ele></trkpt>
      <trkpt lat="36.043361" lon="127.850675"><ele>1139.8</ele></trkpt>
      <trkpt lat="36.043096" lon="127.850574"><ele>1145.9</ele></trkpt>
      <trkpt lat="36.042658" lon="127.850538"><ele>1158.3</ele></trkpt>
      <trkpt lat="36.042449" lon="127.850072"><ele>1166.7</ele></trkpt>
      <trkpt lat="36.042188" lon="127.849900"><ele>1168.5</ele></trkpt>
      <trkpt lat="36.041629" lon="127.849980"><ele>1177.1</ele></trkpt>
      <trkpt lat="36.041594" lon="127.849927"><ele>1178.2</ele></trkpt>
      <trkpt lat="36.041519" lon="127.849965"><ele>1179.8</ele></trkpt>
      <trkpt lat="36.041101" lon="127.849849"><ele>1186.1</ele></trkpt>
      <trkpt lat="36.040962" lon="127.849721"><ele>1189.3</ele></trkpt>
      <trkpt lat="36.040645" lon="127.849676"><ele>1197.0</ele></trkpt>
      <trkpt lat="36.040464" lon="127.849758"><ele>1200.4</ele></trkpt>
      <trkpt lat="36.040418" lon="127.849661"><ele>1202.7</ele></trkpt>
      <trkpt lat="36.040257" lon="127.849589"><ele>1207.5</ele></trkpt>
      <trkpt lat="36.039948" lon="127.849269"><ele>1214.1</ele></trkpt>
    </trkseg>
  </trk>
</gpx>
