<?xml version="1.0" encoding="UTF-8"?>
<gpx version="1.1" creator="kr-100-mountains route-harvester"
     xmlns="http://www.topografix.com/GPX/1/1"
     xmlns:k100="https://github.com/jay-jang/kr-100-mountains/ns/1"
     xmlns:xsi="http://www.w3.org/2001/XMLSchema-instance"
     xsi:schemaLocation="http://www.topografix.com/GPX/1/1 http://www.topografix.com/GPX/1/1/gpx.xsd">
  <metadata>
    <name>민주지산 · 물한리-민주지산-석기봉-삼도봉 일주 코스 (대안 2) (OSM 계산 경로)</name>
    <desc>실제 GPS 기록이 아닙니다. OpenStreetMap에 등록된 등산로 선형 위에서 계산한 경로이며, 현장 통제·훼손·출입 제한·계절 통제를 반영하지 않을 수 있습니다. 산행 전 공식 안내를 확인하세요.</desc>
    <time>2026-08-04T05:26:48.552Z</time>
    <link href="https://www.openstreetmap.org/copyright"><text>© OpenStreetMap contributors (ODbL 1.0)</text></link>
    <link href="https://registry.opendata.aws/terrain-tiles/"><text>Elevation: SRTM 1 arc-second (NASA/USGS) via AWS Terrain Tiles</text></link>
    <extensions>
      <k100:provenance>osm-routed</k100:provenance>
      <k100:not_a_recorded_track>true</k100:not_a_recorded_track>
      <k100:mountain_id>minjujisan</k100:mountain_id>
      <k100:mountain_name>민주지산</k100:mountain_name>
      <k100:route_id>minjujisan-27554da7</k100:route_id>
      <k100:route_index>1</k100:route_index>
      <k100:route_name>물한리-민주지산-석기봉-삼도봉 일주 코스</k100:route_name>
      <k100:variant>2</k100:variant>
      <k100:source>OpenStreetMap via Overpass API</k100:source>
      <k100:license>ODbL-1.0</k100:license>
      <k100:attribution>© OpenStreetMap contributors</k100:attribution>
      <k100:elevation_source>SRTM 1 arc-second (NASA/USGS) — AWS Terrain Tiles 배포본. 지형 DEM 추정 고도이며 실측 아님</k100:elevation_source>
      <k100:algorithm>dijkstra-grid-v1</k100:algorithm>
      <k100:osm_snapshot>2026-08-04</k100:osm_snapshot>
      <k100:snap_trailhead_m>26</k100:snap_trailhead_m>
      <k100:snap_summit_m>11</k100:snap_summit_m>
      <k100:validation_score>100</k100:validation_score>
      <k100:validation_status>accepted</k100:validation_status>
    </extensions>
  </metadata>
  <trk>
    <name>민주지산 · 물한리-민주지산-석기봉-삼도봉 일주 코스 (대안 2) (OSM 계산 경로)</name>
    <desc>실제 GPS 기록이 아닙니다. OpenStreetMap에 등록된 등산로 선형 위에서 계산한 경로이며, 현장 통제·훼손·출입 제한·계절 통제를 반영하지 않을 수 있습니다. 산행 전 공식 안내를 확인하세요.</desc>
    <trkseg>
      <trkpt lat="36.059347" lon="127.882677"><ele>535.1</ele></trkpt>
      <trkpt lat="36.059640" lon="127.882439"><ele>530.9</ele></trkpt>
      <trkpt lat="36.059924" lon="127.882086"><ele>520.1</ele></trkpt>
      <trkpt lat="36.060273" lon="127.881989"><ele>516.6</ele></trkpt>
      <trkpt lat="36.060600" lon="127.881741"><ele>514.5</ele></trkpt>
      <trkpt lat="36.061041" lon="127.881740"><ele>515.2</ele></trkpt>
      <trkpt lat="36.061149" lon="127.881637"><ele>514.5</ele></trkpt>
      <trkpt lat="36.062099" lon="127.881572"><ele>514.7</ele></trkpt>
      <trkpt lat="36.062661" lon="127.881272"><ele>509.8</ele></trkpt>
      <trkpt lat="36.062890" lon="127.880997"><ele>505.4</ele></trkpt>
      <trkpt lat="36.063007" lon="127.880752"><ele>502.7</ele></trkpt>
      <trkpt lat="36.063571" lon="127.880206"><ele>503.8</ele></trkpt>
      <trkpt lat="36.064036" lon="127.878436"><ele>483.0</ele></trkpt>
      <trkpt lat="36.064261" lon="127.878298"><ele>482.6</ele></trkpt>
      <trkpt lat="36.064479" lon="127.878258"><ele>481.2</ele></trkpt>
      <trkpt lat="36.064381" lon="127.878006"><ele>480.7</ele></trkpt>
      <trkpt lat="36.064678" lon="127.877964"><ele>477.5</ele></trkpt>
      <trkpt lat="36.064620" lon="127.877894"><ele>478.1</ele></trkpt>
      <trkpt lat="36.064607" lon="127.877756"><ele>478.3</ele></trkpt>
      <trkpt lat="36.064811" lon="127.877656"><ele>477.0</ele></trkpt>
      <trkpt lat="36.064223" lon="127.876836"><ele>476.5</ele></trkpt>
      <trkpt lat="36.064061" lon="127.876683"><ele>478.9</ele></trkpt>
      <trkpt lat="36.063432" lon="127.876313"><ele>487.2</ele></trkpt>
      <trkpt lat="36.062833" lon="127.876138"><ele>484.7</ele></trkpt>
      <trkpt lat="36.062375" lon="127.875840"><ele>482.6</ele></trkpt>
      <trkpt lat="36.062157" lon="127.875841"><ele>483.5</ele></trkpt>
      <trkpt lat="36.061658" lon="127.875990"><ele>497.3</ele></trkpt>
      <trkpt lat="36.061053" lon="127.875098"><ele>493.0</ele></trkpt>
      <trkpt lat="36.060851" lon="127.875019"><ele>495.6</ele></trkpt>
      <trkpt lat="36.060811" lon="127.874756"><ele>495.4</ele></trkpt>
      <trkpt lat="36.060694" lon="127.874547"><ele>494.6</ele></trkpt>
      <trkpt lat="36.060522" lon="127.874621"><ele>496.8</ele></trkpt>
      <trkpt lat="36.060232" lon="127.874567"><ele>495.9</ele></trkpt>
      <trkpt lat="36.059674" lon="127.874882"><ele>499.9</ele></trkpt>
      <trkpt lat="36.059473" lon="127.874938"><ele>501.2</ele></trkpt>
      <trkpt lat="36.059224" lon="127.874956"><ele>506.5</ele></trkpt>
      <trkpt lat="36.059076" lon="127.874703"><ele>503.3</ele></trkpt>
      <trkpt lat="36.059073" lon="127.874764"><ele>505.1</ele></trkpt>
      <trkpt lat="36.058763" lon="127.874728"><ele>511.5</ele></trkpt>
      <trkpt lat="36.058400" lon="127.874400"><ele>510.9</ele></trkpt>
      <trkpt lat="36.057817" lon="127.873583"><ele>516.7</ele></trkpt>
      <trkpt lat="36.057088" lon="127.873197"><ele>513.4</ele></trkpt>
      <trkpt lat="36.056984" lon="127.872962"><ele>518.0</ele></trkpt>
      <trkpt lat="36.056250" lon="127.872713"><ele>526.3</ele></trkpt>
      <trkpt lat="36.055417" lon="127.872167"><ele>532.8</ele></trkpt>
      <trkpt lat="36.055189" lon="127.871804"><ele>533.2</ele></trkpt>
      <trkpt lat="36.055036" lon="127.871721"><ele>534.4</ele></trkpt>
      <trkpt lat="36.054725" lon="127.871693"><ele>543.1</ele></trkpt>
      <trkpt lat="36.054599" lon="127.871771"><ele>544.8</ele></trkpt>
      <trkpt lat="36.054052" lon="127.872477"><ele>548.3</ele></trkpt>
      <trkpt lat="36.054242" lon="127.872578"><ele>544.2</ele></trkpt>
      <trkpt lat="36.054263" lon="127.872711"><ele>546.5</ele></trkpt>
      <trkpt lat="36.054123" lon="127.872970"><ele>552.7</ele></trkpt>
      <trkpt lat="36.053834" lon="127.873129"><ele>554.1</ele></trkpt>
      <trkpt lat="36.053581" lon="127.873363"><ele>559.3</ele></trkpt>
      <trkpt lat="36.053354" lon="127.873489"><ele>561.5</ele></trkpt>
      <trkpt lat="36.053250" lon="127.873486"><ele>562.2</ele></trkpt>
      <trkpt lat="36.053105" lon="127.873714"><ele>570.3</ele></trkpt>
      <trkpt lat="36.052969" lon="127.873725"><ele>573.0</ele></trkpt>
      <trkpt lat="36.052611" lon="127.873624"><ele>577.7</ele></trkpt>
      <trkpt lat="36.052298" lon="127.873208"><ele>574.1</ele></trkpt>
      <trkpt lat="36.052205" lon="127.872920"><ele>571.1</ele></trkpt>
      <trkpt lat="36.051844" lon="127.872629"><ele>571.0</ele></trkpt>
      <trkpt lat="36.051669" lon="127.872570"><ele>570.5</ele></trkpt>
      <trkpt lat="36.050807" lon="127.871682"><ele>590.8</ele></trkpt>
      <trkpt lat="36.049802" lon="127.871032"><ele>591.2</ele></trkpt>
      <trkpt lat="36.049482" lon="127.871104"><ele>598.9</ele></trkpt>
      <trkpt lat="36.048627" lon="127.871045"><ele>598.3</ele></trkpt>
      <trkpt lat="36.047691" lon="127.870887"><ele>605.0</ele></trkpt>
      <trkpt lat="36.047306" lon="127.871038"><ele>610.3</ele></trkpt>
      <trkpt lat="36.047071" lon="127.871241"><ele>613.2</ele></trkpt>
      <trkpt lat="36.046626" lon="127.871095"><ele>615.9</ele></trkpt>
      <trkpt lat="36.046179" lon="127.871143"><ele>629.8</ele></trkpt>
      <trkpt lat="36.045587" lon="127.871001"><ele>632.4</ele></trkpt>
      <trkpt lat="36.045437" lon="127.870894"><ele>636.2</ele></trkpt>
      <trkpt lat="36.045303" lon="127.870541"><ele>629.4</ele></trkpt>
      <trkpt lat="36.045221" lon="127.870454"><ele>631.2</ele></trkpt>
      <trkpt lat="36.044744" lon="127.870254"><ele>636.5</ele></trkpt>
      <trkpt lat="36.044281" lon="127.870206"><ele>638.9</ele></trkpt>
      <trkpt lat="36.044138" lon="127.870257"><ele>641.0</ele></trkpt>
      <trkpt lat="36.043736" lon="127.870254"><ele>646.8</ele></trkpt>
      <trkpt lat="36.043609" lon="127.870119"><ele>646.8</ele></trkpt>
      <trkpt lat="36.043493" lon="127.869874"><ele>649.8</ele></trkpt>
      <trkpt lat="36.043678" lon="127.869624"><ele>650.9</ele></trkpt>
      <trkpt lat="36.044089" lon="127.869793"><ele>639.1</ele></trkpt>
      <trkpt lat="36.044816" lon="127.869891"><ele>636.7</ele></trkpt>
      <trkpt lat="36.045169" lon="127.870001"><ele>631.2</ele></trkpt>
      <trkpt lat="36.045511" lon="127.869992"><ele>626.7</ele></trkpt>
      <trkpt lat="36.045537" lon="127.869413"><ele>633.8</ele></trkpt>
      <trkpt lat="36.045503" lon="127.869144"><ele>637.9</ele></trkpt>
      <trkpt lat="36.045521" lon="127.868837"><ele>640.3</ele></trkpt>
      <trkpt lat="36.045583" lon="127.868608"><ele>643.4</ele></trkpt>
      <trkpt lat="36.045452" lon="127.868316"><ele>647.0</ele></trkpt>
      <trkpt lat="36.045415" lon="127.867674"><ele>659.2</ele></trkpt>
      <trkpt lat="36.045321" lon="127.867521"><ele>662.3</ele></trkpt>
      <trkpt lat="36.045120" lon="127.866862"><ele>680.7</ele></trkpt>
      <trkpt lat="36.044966" lon="127.866539"><ele>688.8</ele></trkpt>
      <trkpt lat="36.044960" lon="127.866353"><ele>692.6</ele></trkpt>
      <trkpt lat="36.044994" lon="127.866214"><ele>693.8</ele></trkpt>
      <trkpt lat="36.045347" lon="127.865681"><ele>691.7</ele></trkpt>
      <trkpt lat="36.045727" lon="127.865468"><ele>701.7</ele></trkpt>
      <trkpt lat="36.045823" lon="127.865288"><ele>703.0</ele></trkpt>
      <trkpt lat="36.046371" lon="127.864981"><ele>716.0</ele></trkpt>
      <trkpt lat="36.047327" lon="127.864285"><ele>741.7</ele></trkpt>
      <trkpt lat="36.047720" lon="127.863731"><ele>756.4</ele></trkpt>
      <trkpt lat="36.047809" lon="127.863118"><ele>765.3</ele></trkpt>
      <trkpt lat="36.047806" lon="127.862801"><ele>771.6</ele></trkpt>
      <trkpt lat="36.047605" lon="127.861726"><ele>779.4</ele></trkpt>
      <trkpt lat="36.047564" lon="127.860847"><ele>793.5</ele></trkpt>
      <trkpt lat="36.047758" lon="127.860185"><ele>810.4</ele></trkpt>
      <trkpt lat="36.047544" lon="127.859450"><ele>820.6</ele></trkpt>
      <trkpt lat="36.047453" lon="127.858694"><ele>843.2</ele></trkpt>
      <trkpt lat="36.047390" lon="127.858688"><ele>843.0</ele></trkpt>
      <trkpt lat="36.046861" lon="127.859243"><ele>830.3</ele></trkpt>
      <trkpt lat="36.046310" lon="127.858909"><ele>839.8</ele></trkpt>
      <trkpt lat="36.046182" lon="127.859117"><ele>839.2</ele></trkpt>
      <trkpt lat="36.045935" lon="127.859286"><ele>849.4</ele></trkpt>
      <trkpt lat="36.045150" lon="127.858240"><ele>878.4</ele></trkpt>
      <trkpt lat="36.045075" lon="127.857996"><ele>883.9</ele></trkpt>
      <trkpt lat="36.045037" lon="127.857607"><ele>890.5</ele></trkpt>
      <trkpt lat="36.045158" lon="127.856800"><ele>905.1</ele></trkpt>
      <trkpt lat="36.045159" lon="127.856533"><ele>909.9</ele></trkpt>
      <trkpt lat="36.045046" lon="127.856065"><ele>918.2</ele></trkpt>
      <trkpt lat="36.045136" lon="127.855968"><ele>922.6</ele></trkpt>
      <trkpt lat="36.045199" lon="127.855803"><ele>929.1</ele></trkpt>
      <trkpt lat="36.044949" lon="127.855511"><ele>938.2</ele></trkpt>
      <trkpt lat="36.044688" lon="127.855468"><ele>944.9</ele></trkpt>
      <trkpt lat="36.044634" lon="127.855169"><ele>955.0</ele></trkpt>
      <trkpt lat="36.044528" lon="127.855058"><ele>960.8</ele></trkpt>
      <trkpt lat="36.044298" lon="127.855123"><ele>964.7</ele></trkpt>
      <trkpt lat="36.043911" lon="127.854908"><ele>978.5</ele></trkpt>
      <trkpt lat="36.043937" lon="127.854486"><ele>987.7</ele></trkpt>
      <trkpt lat="36.043703" lon="127.854390"><ele>993.2</ele></trkpt>
      <trkpt lat="36.043536" lon="127.854423"><ele>993.9</ele></trkpt>
      <trkpt lat="36.043311" lon="127.854579"><ele>994.2</ele></trkpt>
      <trkpt lat="36.043174" lon="127.854803"><ele>998.1</ele></trkpt>
      <trkpt lat="36.043100" lon="127.854783"><ele>1000.4</ele></trkpt>
      <trkpt lat="36.042980" lon="127.854601"><ele>1004.9</ele></trkpt>
      <trkpt lat="36.042927" lon="127.854193"><ele>1009.9</ele></trkpt>
      <trkpt lat="36.043066" lon="127.853742"><ele>1016.9</ele></trkpt>
      <trkpt lat="36.042435" lon="127.852868"><ele>1051.7</ele></trkpt>
      <trkpt lat="36.042331" lon="127.852640"><ele>1059.8</ele></trkpt>
      <trkpt lat="36.042058" lon="127.852396"><ele>1072.1</ele></trkpt>
      <trkpt lat="36.041980" lon="127.852227"><ele>1076.4</ele></trkpt>
      <trkpt lat="36.041600" lon="127.851751"><ele>1097.8</ele></trkpt>
      <trkpt lat="36.041244" lon="127.851513"><ele>1119.2</ele></trkpt>
      <trkpt lat="36.040723" lon="127.851303"><ele>1139.4</ele></trkpt>
      <trkpt lat="36.040543" lon="127.851102"><ele>1146.6</ele></trkpt>
      <trkpt lat="36.040198" lon="127.850456"><ele>1177.7</ele></trkpt>
      <trkpt lat="36.040014" lon="127.850404"><ele>1185.1</ele></trkpt>
      <trkpt lat="36.039895" lon="127.850280"><ele>1192.2</ele></trkpt>
      <trkpt lat="36.039664" lon="127.850307"><ele>1193.4</ele></trkpt>
      <trkpt lat="36.039596" lon="127.849900"><ele>1200.5</ele></trkpt>
      <trkpt lat="36.039669" lon="127.849563"><ele>1210.0</ele></trkpt>
      <trkpt lat="36.039645" lon="127.849429"><ele>1212.9</ele></trkpt>
      <trkpt lat="36.039790" lon="127.849300"><ele>1214.3</ele></trkpt>
      <trkpt lat="36.039948" lon="127.849269"><ele>1214.1</ele></trkpt>
    </trkseg>
  </trk>
</gpx>
