<?xml version="1.0" encoding="UTF-8"?>
<gpx version="1.1" creator="kr-100-mountains route-harvester"
     xmlns="http://www.topografix.com/GPX/1/1"
     xmlns:k100="https://github.com/jay-jang/kr-100-mountains/ns/1"
     xmlns:xsi="http://www.w3.org/2001/XMLSchema-instance"
     xsi:schemaLocation="http://www.topografix.com/GPX/1/1 http://www.topografix.com/GPX/1/1/gpx.xsd">
  <metadata>
    <name>민주지산 · 물한리-민주지산-석기봉-삼도봉 일주 코스 (OSM 계산 경로)</name>
    <desc>실제 GPS 기록이 아닙니다. OpenStreetMap에 등록된 등산로 선형 위에서 계산한 경로이며, 현장 통제·훼손·출입 제한·계절 통제를 반영하지 않을 수 있습니다. 산행 전 공식 안내를 확인하세요.</desc>
    <time>2026-08-04T05:26:48.549Z</time>
    <link href="https://www.openstreetmap.org/copyright"><text>© OpenStreetMap contributors (ODbL 1.0)</text></link>
    <link href="https://registry.opendata.aws/terrain-tiles/"><text>Elevation: SRTM 1 arc-second (NASA/USGS) via AWS Terrain Tiles</text></link>
    <extensions>
      <k100:provenance>osm-routed</k100:provenance>
      <k100:not_a_recorded_track>true</k100:not_a_recorded_track>
      <k100:mountain_id>minjujisan</k100:mountain_id>
      <k100:mountain_name>민주지산</k100:mountain_name>
      <k100:route_id>minjujisan-27554da7</k100:route_id>
      <k100:route_index>1</k100:route_index>
      <k100:route_name>물한리-민주지산-석기봉-삼도봉 일주 코스</k100:route_name>
      <k100:variant>0</k100:variant>
      <k100:source>OpenStreetMap via Overpass API</k100:source>
      <k100:license>ODbL-1.0</k100:license>
      <k100:attribution>© OpenStreetMap contributors</k100:attribution>
      <k100:elevation_source>SRTM 1 arc-second (NASA/USGS) — AWS Terrain Tiles 배포본. 지형 DEM 추정 고도이며 실측 아님</k100:elevation_source>
      <k100:algorithm>dijkstra-grid-v1</k100:algorithm>
      <k100:osm_snapshot>2026-08-04</k100:osm_snapshot>
      <k100:snap_trailhead_m>26</k100:snap_trailhead_m>
      <k100:snap_summit_m>11</k100:snap_summit_m>
      <k100:validation_score>100</k100:validation_score>
      <k100:validation_status>accepted</k100:validation_status>
    </extensions>
  </metadata>
  <trk>
    <name>민주지산 · 물한리-민주지산-석기봉-삼도봉 일주 코스 (OSM 계산 경로)</name>
    <desc>실제 GPS 기록이 아닙니다. OpenStreetMap에 등록된 등산로 선형 위에서 계산한 경로이며, 현장 통제·훼손·출입 제한·계절 통제를 반영하지 않을 수 있습니다. 산행 전 공식 안내를 확인하세요.</desc>
    <trkseg>
      <trkpt lat="36.059347" lon="127.882677"><ele>535.1</ele></trkpt>
      <trkpt lat="36.059640" lon="127.882439"><ele>530.9</ele></trkpt>
      <trkpt lat="36.059924" lon="127.882086"><ele>520.1</ele></trkpt>
      <trkpt lat="36.060273" lon="127.881989"><ele>516.6</ele></trkpt>
      <trkpt lat="36.060600" lon="127.881741"><ele>514.5</ele></trkpt>
      <trkpt lat="36.061041" lon="127.881740"><ele>515.2</ele></trkpt>
      <trkpt lat="36.061149" lon="127.881637"><ele>514.5</ele></trkpt>
      <trkpt lat="36.062099" lon="127.881572"><ele>514.7</ele></trkpt>
      <trkpt lat="36.062661" lon="127.881272"><ele>509.8</ele></trkpt>
      <trkpt lat="36.062890" lon="127.880997"><ele>505.4</ele></trkpt>
      <trkpt lat="36.063007" lon="127.880752"><ele>502.7</ele></trkpt>
      <trkpt lat="36.063571" lon="127.880206"><ele>503.8</ele></trkpt>
      <trkpt lat="36.064036" lon="127.878436"><ele>483.0</ele></trkpt>
      <trkpt lat="36.064261" lon="127.878298"><ele>482.6</ele></trkpt>
      <trkpt lat="36.064659" lon="127.878195"><ele>479.1</ele></trkpt>
      <trkpt lat="36.064678" lon="127.877964"><ele>477.5</ele></trkpt>
      <trkpt lat="36.064607" lon="127.877756"><ele>478.3</ele></trkpt>
      <trkpt lat="36.064647" lon="127.877420"><ele>478.3</ele></trkpt>
      <trkpt lat="36.064355" lon="127.876999"><ele>476.4</ele></trkpt>
      <trkpt lat="36.064061" lon="127.876683"><ele>478.9</ele></trkpt>
      <trkpt lat="36.063432" lon="127.876313"><ele>487.2</ele></trkpt>
      <trkpt lat="36.062833" lon="127.876138"><ele>484.7</ele></trkpt>
      <trkpt lat="36.062375" lon="127.875840"><ele>482.6</ele></trkpt>
      <trkpt lat="36.062157" lon="127.875841"><ele>483.5</ele></trkpt>
      <trkpt lat="36.061658" lon="127.875990"><ele>497.3</ele></trkpt>
      <trkpt lat="36.061053" lon="127.875098"><ele>493.0</ele></trkpt>
      <trkpt lat="36.060851" lon="127.875019"><ele>495.6</ele></trkpt>
      <trkpt lat="36.060811" lon="127.874756"><ele>495.4</ele></trkpt>
      <trkpt lat="36.060694" lon="127.874547"><ele>494.6</ele></trkpt>
      <trkpt lat="36.060522" lon="127.874621"><ele>496.8</ele></trkpt>
      <trkpt lat="36.060232" lon="127.874567"><ele>495.9</ele></trkpt>
      <trkpt lat="36.059674" lon="127.874882"><ele>499.9</ele></trkpt>
      <trkpt lat="36.059473" lon="127.874938"><ele>501.2</ele></trkpt>
      <trkpt lat="36.059224" lon="127.874956"><ele>506.5</ele></trkpt>
      <trkpt lat="36.059073" lon="127.874764"><ele>505.1</ele></trkpt>
      <trkpt lat="36.058763" lon="127.874728"><ele>511.5</ele></trkpt>
      <trkpt lat="36.058400" lon="127.874400"><ele>510.9</ele></trkpt>
      <trkpt lat="36.057817" lon="127.873583"><ele>516.7</ele></trkpt>
      <trkpt lat="36.057088" lon="127.873197"><ele>513.4</ele></trkpt>
      <trkpt lat="36.056984" lon="127.872962"><ele>518.0</ele></trkpt>
      <trkpt lat="36.056250" lon="127.872713"><ele>526.3</ele></trkpt>
      <trkpt lat="36.055417" lon="127.872167"><ele>532.8</ele></trkpt>
      <trkpt lat="36.054837" lon="127.872283"><ele>535.9</ele></trkpt>
      <trkpt lat="36.054777" lon="127.872200"><ele>534.2</ele></trkpt>
      <trkpt lat="36.054609" lon="127.872157"><ele>535.8</ele></trkpt>
      <trkpt lat="36.054520" lon="127.872207"><ele>536.4</ele></trkpt>
      <trkpt lat="36.054338" lon="127.872488"><ele>541.5</ele></trkpt>
      <trkpt lat="36.054052" lon="127.872477"><ele>548.3</ele></trkpt>
      <trkpt lat="36.053717" lon="127.872850"><ele>555.6</ele></trkpt>
      <trkpt lat="36.053371" lon="127.873130"><ele>561.4</ele></trkpt>
      <trkpt lat="36.053067" lon="127.873239"><ele>563.9</ele></trkpt>
      <trkpt lat="36.052797" lon="127.873143"><ele>566.5</ele></trkpt>
      <trkpt lat="36.052283" lon="127.872600"><ele>574.4</ele></trkpt>
      <trkpt lat="36.051653" lon="127.872271"><ele>571.1</ele></trkpt>
      <trkpt lat="36.051057" lon="127.871585"><ele>588.3</ele></trkpt>
      <trkpt lat="36.050352" lon="127.870989"><ele>589.4</ele></trkpt>
      <trkpt lat="36.049700" lon="127.870720"><ele>593.2</ele></trkpt>
      <trkpt lat="36.049390" lon="127.870816"><ele>593.6</ele></trkpt>
      <trkpt lat="36.048331" lon="127.870553"><ele>594.1</ele></trkpt>
      <trkpt lat="36.048022" lon="127.870434"><ele>600.0</ele></trkpt>
      <trkpt lat="36.047795" lon="127.870093"><ele>611.7</ele></trkpt>
      <trkpt lat="36.047442" lon="127.869930"><ele>615.1</ele></trkpt>
      <trkpt lat="36.047144" lon="127.869892"><ele>619.2</ele></trkpt>
      <trkpt lat="36.046670" lon="127.870021"><ele>620.7</ele></trkpt>
      <trkpt lat="36.046554" lon="127.869995"><ele>621.6</ele></trkpt>
      <trkpt lat="36.046237" lon="127.869767"><ele>633.0</ele></trkpt>
      <trkpt lat="36.045954" lon="127.868926"><ele>647.7</ele></trkpt>
      <trkpt lat="36.045786" lon="127.868718"><ele>645.1</ele></trkpt>
      <trkpt lat="36.045746" lon="127.868331"><ele>648.5</ele></trkpt>
      <trkpt lat="36.045321" lon="127.867521"><ele>662.3</ele></trkpt>
      <trkpt lat="36.045120" lon="127.866862"><ele>680.7</ele></trkpt>
      <trkpt lat="36.044966" lon="127.866539"><ele>688.8</ele></trkpt>
      <trkpt lat="36.044994" lon="127.866214"><ele>693.8</ele></trkpt>
      <trkpt lat="36.045347" lon="127.865681"><ele>691.7</ele></trkpt>
      <trkpt lat="36.045727" lon="127.865468"><ele>701.7</ele></trkpt>
      <trkpt lat="36.045562" lon="127.865303"><ele>698.7</ele></trkpt>
      <trkpt lat="36.045328" lon="127.865241"><ele>696.3</ele></trkpt>
      <trkpt lat="36.044835" lon="127.864927"><ele>716.7</ele></trkpt>
      <trkpt lat="36.044393" lon="127.864326"><ele>730.2</ele></trkpt>
      <trkpt lat="36.043408" lon="127.863511"><ele>759.3</ele></trkpt>
      <trkpt lat="36.042905" lon="127.863216"><ele>773.4</ele></trkpt>
      <trkpt lat="36.042406" lon="127.863135"><ele>782.5</ele></trkpt>
      <trkpt lat="36.042159" lon="127.862958"><ele>790.1</ele></trkpt>
      <trkpt lat="36.041923" lon="127.863178"><ele>792.3</ele></trkpt>
      <trkpt lat="36.041660" lon="127.862956"><ele>800.6</ele></trkpt>
      <trkpt lat="36.041263" lon="127.862319"><ele>818.5</ele></trkpt>
      <trkpt lat="36.041204" lon="127.861094"><ele>862.2</ele></trkpt>
      <trkpt lat="36.041388" lon="127.860580"><ele>883.1</ele></trkpt>
      <trkpt lat="36.041386" lon="127.860394"><ele>890.3</ele></trkpt>
      <trkpt lat="36.041450" lon="127.860249"><ele>897.5</ele></trkpt>
      <trkpt lat="36.041387" lon="127.860150"><ele>900.9</ele></trkpt>
      <trkpt lat="36.041406" lon="127.860032"><ele>906.9</ele></trkpt>
      <trkpt lat="36.041500" lon="127.859885"><ele>916.8</ele></trkpt>
      <trkpt lat="36.041525" lon="127.859693"><ele>927.7</ele></trkpt>
      <trkpt lat="36.041494" lon="127.859497"><ele>938.1</ele></trkpt>
      <trkpt lat="36.041647" lon="127.859036"><ele>964.9</ele></trkpt>
      <trkpt lat="36.041654" lon="127.858869"><ele>971.0</ele></trkpt>
      <trkpt lat="36.041772" lon="127.858750"><ele>977.3</ele></trkpt>
      <trkpt lat="36.041836" lon="127.858553"><ele>984.5</ele></trkpt>
      <trkpt lat="36.041897" lon="127.858507"><ele>987.8</ele></trkpt>
      <trkpt lat="36.041911" lon="127.858346"><ele>993.3</ele></trkpt>
      <trkpt lat="36.041981" lon="127.858285"><ele>997.1</ele></trkpt>
      <trkpt lat="36.041993" lon="127.858105"><ele>1005.4</ele></trkpt>
      <trkpt lat="36.042048" lon="127.858018"><ele>1008.8</ele></trkpt>
      <trkpt lat="36.042105" lon="127.857378"><ele>1033.1</ele></trkpt>
      <trkpt lat="36.041909" lon="127.857095"><ele>1044.3</ele></trkpt>
      <trkpt lat="36.041927" lon="127.856888"><ele>1051.2</ele></trkpt>
      <trkpt lat="36.041713" lon="127.856544"><ele>1059.0</ele></trkpt>
      <trkpt lat="36.041648" lon="127.856158"><ele>1070.1</ele></trkpt>
      <trkpt lat="36.041745" lon="127.855555"><ele>1084.5</ele></trkpt>
      <trkpt lat="36.041683" lon="127.855447"><ele>1089.2</ele></trkpt>
      <trkpt lat="36.041257" lon="127.855181"><ele>1106.1</ele></trkpt>
      <trkpt lat="36.040959" lon="127.855137"><ele>1114.5</ele></trkpt>
      <trkpt lat="36.040722" lon="127.855039"><ele>1122.8</ele></trkpt>
      <trkpt lat="36.040565" lon="127.855054"><ele>1127.9</ele></trkpt>
      <trkpt lat="36.040482" lon="127.854956"><ele>1128.9</ele></trkpt>
      <trkpt lat="36.040361" lon="127.854913"><ele>1129.5</ele></trkpt>
      <trkpt lat="36.040206" lon="127.854601"><ele>1131.4</ele></trkpt>
      <trkpt lat="36.040162" lon="127.854341"><ele>1132.7</ele></trkpt>
      <trkpt lat="36.040026" lon="127.854263"><ele>1134.9</ele></trkpt>
      <trkpt lat="36.039851" lon="127.854049"><ele>1137.7</ele></trkpt>
      <trkpt lat="36.039375" lon="127.853704"><ele>1151.5</ele></trkpt>
      <trkpt lat="36.039294" lon="127.853549"><ele>1157.9</ele></trkpt>
      <trkpt lat="36.039206" lon="127.853483"><ele>1158.6</ele></trkpt>
      <trkpt lat="36.039315" lon="127.853312"><ele>1163.1</ele></trkpt>
      <trkpt lat="36.039276" lon="127.853092"><ele>1162.4</ele></trkpt>
      <trkpt lat="36.039297" lon="127.852900"><ele>1161.7</ele></trkpt>
      <trkpt lat="36.039564" lon="127.852138"><ele>1166.2</ele></trkpt>
      <trkpt lat="36.039571" lon="127.851689"><ele>1170.9</ele></trkpt>
      <trkpt lat="36.039680" lon="127.851473"><ele>1177.2</ele></trkpt>
      <trkpt lat="36.039709" lon="127.850781"><ele>1181.8</ele></trkpt>
      <trkpt lat="36.039621" lon="127.850529"><ele>1185.6</ele></trkpt>
      <trkpt lat="36.039664" lon="127.850307"><ele>1193.4</ele></trkpt>
      <trkpt lat="36.039596" lon="127.849900"><ele>1200.5</ele></trkpt>
      <trkpt lat="36.039669" lon="127.849563"><ele>1210.0</ele></trkpt>
      <trkpt lat="36.039645" lon="127.849429"><ele>1212.9</ele></trkpt>
      <trkpt lat="36.039790" lon="127.849300"><ele>1214.3</ele></trkpt>
      <trkpt lat="36.039948" lon="127.849269"><ele>1214.1</ele></trkpt>
    </trkseg>
  </trk>
</gpx>
