<?xml version="1.0" encoding="UTF-8"?>
<gpx version="1.1" creator="kr-100-mountains route-harvester"
     xmlns="http://www.topografix.com/GPX/1/1"
     xmlns:k100="https://github.com/jay-jang/kr-100-mountains/ns/1"
     xmlns:xsi="http://www.w3.org/2001/XMLSchema-instance"
     xsi:schemaLocation="http://www.topografix.com/GPX/1/1 http://www.topografix.com/GPX/1/1/gpx.xsd">
  <metadata>
    <name>천주산 · 굴현고개-용지봉 코스 (OSM 계산 경로)</name>
    <desc>실제 GPS 기록이 아닙니다. OpenStreetMap에 등록된 등산로 선형 위에서 계산한 경로이며, 현장 통제·훼손·출입 제한·계절 통제를 반영하지 않을 수 있습니다. 산행 전 공식 안내를 확인하세요.</desc>
    <time>2026-08-04T05:47:12.193Z</time>
    <link href="https://www.openstreetmap.org/copyright"><text>© OpenStreetMap contributors (ODbL 1.0)</text></link>
    <link href="https://registry.opendata.aws/terrain-tiles/"><text>Elevation: SRTM 1 arc-second (NASA/USGS) via AWS Terrain Tiles</text></link>
    <extensions>
      <k100:provenance>osm-routed</k100:provenance>
      <k100:not_a_recorded_track>true</k100:not_a_recorded_track>
      <k100:mountain_id>cheonjusan</k100:mountain_id>
      <k100:mountain_name>천주산</k100:mountain_name>
      <k100:route_id>cheonjusan-84655b5a</k100:route_id>
      <k100:route_index>1</k100:route_index>
      <k100:route_name>굴현고개-용지봉 코스</k100:route_name>
      <k100:variant>0</k100:variant>
      <k100:source>OpenStreetMap via Overpass API</k100:source>
      <k100:license>ODbL-1.0</k100:license>
      <k100:attribution>© OpenStreetMap contributors</k100:attribution>
      <k100:elevation_source>SRTM 1 arc-second (NASA/USGS) — AWS Terrain Tiles 배포본. 지형 DEM 추정 고도이며 실측 아님</k100:elevation_source>
      <k100:algorithm>dijkstra-grid-v1</k100:algorithm>
      <k100:osm_snapshot>2026-08-04</k100:osm_snapshot>
      <k100:snap_trailhead_m>8</k100:snap_trailhead_m>
      <k100:snap_summit_m>1</k100:snap_summit_m>
      <k100:validation_score>84</k100:validation_score>
      <k100:validation_status>accepted</k100:validation_status>
    </extensions>
  </metadata>
  <trk>
    <name>천주산 · 굴현고개-용지봉 코스 (OSM 계산 경로)</name>
    <desc>실제 GPS 기록이 아닙니다. OpenStreetMap에 등록된 등산로 선형 위에서 계산한 경로이며, 현장 통제·훼손·출입 제한·계절 통제를 반영하지 않을 수 있습니다. 산행 전 공식 안내를 확인하세요.</desc>
    <trkseg>
      <trkpt lat="35.276804" lon="128.616170"><ele>190.0</ele></trkpt>
      <trkpt lat="35.276933" lon="128.616146"><ele>190.0</ele></trkpt>
      <trkpt lat="35.276990" lon="128.616068"><ele>189.5</ele></trkpt>
      <trkpt lat="35.276751" lon="128.616085"><ele>190.4</ele></trkpt>
      <trkpt lat="35.276585" lon="128.615847"><ele>191.9</ele></trkpt>
      <trkpt lat="35.276540" lon="128.615714"><ele>192.8</ele></trkpt>
      <trkpt lat="35.276707" lon="128.615341"><ele>208.3</ele></trkpt>
      <trkpt lat="35.276620" lon="128.614913"><ele>216.4</ele></trkpt>
      <trkpt lat="35.276404" lon="128.614570"><ele>220.3</ele></trkpt>
      <trkpt lat="35.276390" lon="128.614468"><ele>221.7</ele></trkpt>
      <trkpt lat="35.276441" lon="128.614331"><ele>224.0</ele></trkpt>
      <trkpt lat="35.276477" lon="128.613719"><ele>240.4</ele></trkpt>
      <trkpt lat="35.276366" lon="128.613346"><ele>251.8</ele></trkpt>
      <trkpt lat="35.276366" lon="128.613176"><ele>257.0</ele></trkpt>
      <trkpt lat="35.276418" lon="128.613084"><ele>259.7</ele></trkpt>
      <trkpt lat="35.276351" lon="128.612555"><ele>273.4</ele></trkpt>
      <trkpt lat="35.276379" lon="128.612148"><ele>281.2</ele></trkpt>
      <trkpt lat="35.276473" lon="128.611722"><ele>303.0</ele></trkpt>
      <trkpt lat="35.276963" lon="128.611039"><ele>336.1</ele></trkpt>
      <trkpt lat="35.277047" lon="128.610759"><ele>367.5</ele></trkpt>
      <trkpt lat="35.277111" lon="128.610723"><ele>373.9</ele></trkpt>
      <trkpt lat="35.277163" lon="128.610567"><ele>391.6</ele></trkpt>
      <trkpt lat="35.277238" lon="128.610527"><ele>395.3</ele></trkpt>
      <trkpt lat="35.277341" lon="128.610331"><ele>402.1</ele></trkpt>
      <trkpt lat="35.277270" lon="128.610170"><ele>410.0</ele></trkpt>
      <trkpt lat="35.277266" lon="128.610024"><ele>415.7</ele></trkpt>
      <trkpt lat="35.277214" lon="128.610006"><ele>417.7</ele></trkpt>
      <trkpt lat="35.277130" lon="128.610065"><ele>414.4</ele></trkpt>
      <trkpt lat="35.276985" lon="128.609740"><ele>436.0</ele></trkpt>
      <trkpt lat="35.276984" lon="128.609459"><ele>448.3</ele></trkpt>
      <trkpt lat="35.276903" lon="128.609344"><ele>451.3</ele></trkpt>
      <trkpt lat="35.276826" lon="128.609071"><ele>454.3</ele></trkpt>
      <trkpt lat="35.276761" lon="128.609032"><ele>453.8</ele></trkpt>
      <trkpt lat="35.276858" lon="128.608740"><ele>462.7</ele></trkpt>
      <trkpt lat="35.276822" lon="128.608546"><ele>465.7</ele></trkpt>
      <trkpt lat="35.276556" lon="128.608276"><ele>464.6</ele></trkpt>
      <trkpt lat="35.276347" lon="128.607832"><ele>462.6</ele></trkpt>
      <trkpt lat="35.276314" lon="128.607644"><ele>461.5</ele></trkpt>
      <trkpt lat="35.276092" lon="128.607155"><ele>459.3</ele></trkpt>
      <trkpt lat="35.276009" lon="128.606610"><ele>453.8</ele></trkpt>
      <trkpt lat="35.275816" lon="128.606343"><ele>449.2</ele></trkpt>
      <trkpt lat="35.275813" lon="128.606113"><ele>445.1</ele></trkpt>
      <trkpt lat="35.275686" lon="128.605749"><ele>437.4</ele></trkpt>
      <trkpt lat="35.275524" lon="128.604234"><ele>433.0</ele></trkpt>
      <trkpt lat="35.275421" lon="128.603690"><ele>425.9</ele></trkpt>
      <trkpt lat="35.275242" lon="128.603099"><ele>423.0</ele></trkpt>
      <trkpt lat="35.275099" lon="128.602832"><ele>421.3</ele></trkpt>
      <trkpt lat="35.274550" lon="128.602325"><ele>420.1</ele></trkpt>
      <trkpt lat="35.274133" lon="128.602402"><ele>427.4</ele></trkpt>
      <trkpt lat="35.273427" lon="128.602438"><ele>443.9</ele></trkpt>
      <trkpt lat="35.272983" lon="128.602290"><ele>461.8</ele></trkpt>
      <trkpt lat="35.272467" lon="128.601963"><ele>487.1</ele></trkpt>
      <trkpt lat="35.272200" lon="128.601918"><ele>503.3</ele></trkpt>
      <trkpt lat="35.272114" lon="128.601705"><ele>507.4</ele></trkpt>
      <trkpt lat="35.271948" lon="128.601587"><ele>509.6</ele></trkpt>
      <trkpt lat="35.271547" lon="128.601005"><ele>519.7</ele></trkpt>
      <trkpt lat="35.271633" lon="128.600192"><ele>519.6</ele></trkpt>
      <trkpt lat="35.271777" lon="128.599895"><ele>522.7</ele></trkpt>
      <trkpt lat="35.271779" lon="128.599184"><ele>529.4</ele></trkpt>
      <trkpt lat="35.271680" lon="128.599045"><ele>532.5</ele></trkpt>
      <trkpt lat="35.271497" lon="128.598226"><ele>548.0</ele></trkpt>
      <trkpt lat="35.271586" lon="128.597711"><ele>555.6</ele></trkpt>
      <trkpt lat="35.271563" lon="128.597494"><ele>560.0</ele></trkpt>
      <trkpt lat="35.271466" lon="128.597312"><ele>558.9</ele></trkpt>
      <trkpt lat="35.271387" lon="128.596719"><ele>560.1</ele></trkpt>
      <trkpt lat="35.271392" lon="128.596072"><ele>572.3</ele></trkpt>
      <trkpt lat="35.271453" lon="128.595737"><ele>580.7</ele></trkpt>
      <trkpt lat="35.271332" lon="128.594970"><ele>593.7</ele></trkpt>
      <trkpt lat="35.271370" lon="128.594726"><ele>593.8</ele></trkpt>
      <trkpt lat="35.271306" lon="128.594466"><ele>589.1</ele></trkpt>
      <trkpt lat="35.271319" lon="128.594267"><ele>585.8</ele></trkpt>
      <trkpt lat="35.271221" lon="128.593975"><ele>588.2</ele></trkpt>
      <trkpt lat="35.271351" lon="128.593712"><ele>581.6</ele></trkpt>
      <trkpt lat="35.271459" lon="128.593106"><ele>592.0</ele></trkpt>
      <trkpt lat="35.271766" lon="128.592518"><ele>612.4</ele></trkpt>
      <trkpt lat="35.271747" lon="128.592333"><ele>614.7</ele></trkpt>
      <trkpt lat="35.271827" lon="128.591818"><ele>621.1</ele></trkpt>
      <trkpt lat="35.271524" lon="128.591229"><ele>625.3</ele></trkpt>
    </trkseg>
  </trk>
</gpx>
