<?xml version="1.0" encoding="UTF-8"?>
<gpx version="1.1" creator="kr-100-mountains route-harvester"
     xmlns="http://www.topografix.com/GPX/1/1"
     xmlns:k100="https://github.com/jay-jang/kr-100-mountains/ns/1"
     xmlns:xsi="http://www.w3.org/2001/XMLSchema-instance"
     xsi:schemaLocation="http://www.topografix.com/GPX/1/1 http://www.topografix.com/GPX/1/1/gpx.xsd">
  <metadata>
    <name>광덕산 · 강당골 코스 (OSM 계산 경로)</name>
    <desc>실제 GPS 기록이 아닙니다. OpenStreetMap에 등록된 등산로 선형 위에서 계산한 경로이며, 현장 통제·훼손·출입 제한·계절 통제를 반영하지 않을 수 있습니다. 산행 전 공식 안내를 확인하세요.</desc>
    <time>2026-08-04T05:29:30.057Z</time>
    <link href="https://www.openstreetmap.org/copyright"><text>© OpenStreetMap contributors (ODbL 1.0)</text></link>
    <link href="https://registry.opendata.aws/terrain-tiles/"><text>Elevation: SRTM 1 arc-second (NASA/USGS) via AWS Terrain Tiles</text></link>
    <extensions>
      <k100:provenance>osm-routed</k100:provenance>
      <k100:not_a_recorded_track>true</k100:not_a_recorded_track>
      <k100:mountain_id>gwangdeoksan-cheonan</k100:mountain_id>
      <k100:mountain_name>광덕산(천안)</k100:mountain_name>
      <k100:route_id>gwangdeoksan-cheonan-87c15b41</k100:route_id>
      <k100:route_index>2</k100:route_index>
      <k100:route_name>강당골 코스</k100:route_name>
      <k100:variant>0</k100:variant>
      <k100:source>OpenStreetMap via Overpass API</k100:source>
      <k100:license>ODbL-1.0</k100:license>
      <k100:attribution>© OpenStreetMap contributors</k100:attribution>
      <k100:elevation_source>SRTM 1 arc-second (NASA/USGS) — AWS Terrain Tiles 배포본. 지형 DEM 추정 고도이며 실측 아님</k100:elevation_source>
      <k100:algorithm>dijkstra-grid-v1</k100:algorithm>
      <k100:osm_snapshot>2026-08-04</k100:osm_snapshot>
      <k100:snap_trailhead_m>15</k100:snap_trailhead_m>
      <k100:snap_summit_m>381</k100:snap_summit_m>
      <k100:validation_score>72</k100:validation_score>
      <k100:validation_status>review</k100:validation_status>
    </extensions>
  </metadata>
  <trk>
    <name>광덕산 · 강당골 코스 (OSM 계산 경로)</name>
    <desc>실제 GPS 기록이 아닙니다. OpenStreetMap에 등록된 등산로 선형 위에서 계산한 경로이며, 현장 통제·훼손·출입 제한·계절 통제를 반영하지 않을 수 있습니다. 산행 전 공식 안내를 확인하세요.</desc>
    <trkseg>
      <trkpt lat="36.710921" lon="127.016067"><ele>101.8</ele></trkpt>
      <trkpt lat="36.710889" lon="127.015844"><ele>104.3</ele></trkpt>
      <trkpt lat="36.710809" lon="127.015715"><ele>106.9</ele></trkpt>
      <trkpt lat="36.710676" lon="127.015772"><ele>105.3</ele></trkpt>
      <trkpt lat="36.710139" lon="127.015552"><ele>105.5</ele></trkpt>
      <trkpt lat="36.710131" lon="127.015927"><ele>103.8</ele></trkpt>
      <trkpt lat="36.709916" lon="127.016006"><ele>103.7</ele></trkpt>
      <trkpt lat="36.709879" lon="127.016255"><ele>106.3</ele></trkpt>
      <trkpt lat="36.709793" lon="127.016409"><ele>109.5</ele></trkpt>
      <trkpt lat="36.709669" lon="127.016442"><ele>111.8</ele></trkpt>
      <trkpt lat="36.709438" lon="127.016377"><ele>112.7</ele></trkpt>
      <trkpt lat="36.709018" lon="127.016484"><ele>116.6</ele></trkpt>
      <trkpt lat="36.708809" lon="127.016720"><ele>121.3</ele></trkpt>
      <trkpt lat="36.708592" lon="127.017112"><ele>125.2</ele></trkpt>
      <trkpt lat="36.708804" lon="127.017312"><ele>133.4</ele></trkpt>
      <trkpt lat="36.708889" lon="127.017482"><ele>141.4</ele></trkpt>
      <trkpt lat="36.708963" lon="127.018079"><ele>168.1</ele></trkpt>
      <trkpt lat="36.709134" lon="127.018608"><ele>185.3</ele></trkpt>
      <trkpt lat="36.709205" lon="127.019279"><ele>194.4</ele></trkpt>
      <trkpt lat="36.709346" lon="127.019752"><ele>201.6</ele></trkpt>
      <trkpt lat="36.709484" lon="127.020094"><ele>206.8</ele></trkpt>
      <trkpt lat="36.709782" lon="127.020501"><ele>207.2</ele></trkpt>
      <trkpt lat="36.710035" lon="127.020973"><ele>211.8</ele></trkpt>
      <trkpt lat="36.710132" lon="127.021367"><ele>221.8</ele></trkpt>
      <trkpt lat="36.710440" lon="127.021928"><ele>239.8</ele></trkpt>
      <trkpt lat="36.710429" lon="127.022646"><ele>263.2</ele></trkpt>
      <trkpt lat="36.710171" lon="127.024017"><ele>288.5</ele></trkpt>
      <trkpt lat="36.709964" lon="127.024301"><ele>292.5</ele></trkpt>
      <trkpt lat="36.709521" lon="127.024722"><ele>295.0</ele></trkpt>
      <trkpt lat="36.709326" lon="127.025007"><ele>295.1</ele></trkpt>
      <trkpt lat="36.709279" lon="127.025288"><ele>293.8</ele></trkpt>
      <trkpt lat="36.709360" lon="127.025457"><ele>293.3</ele></trkpt>
      <trkpt lat="36.709367" lon="127.025650"><ele>291.7</ele></trkpt>
      <trkpt lat="36.708866" lon="127.026493"><ele>306.9</ele></trkpt>
      <trkpt lat="36.708793" lon="127.026793"><ele>309.8</ele></trkpt>
      <trkpt lat="36.708825" lon="127.026935"><ele>310.6</ele></trkpt>
      <trkpt lat="36.709216" lon="127.027710"><ele>324.0</ele></trkpt>
      <trkpt lat="36.709304" lon="127.028097"><ele>330.9</ele></trkpt>
      <trkpt lat="36.709472" lon="127.028518"><ele>336.8</ele></trkpt>
      <trkpt lat="36.709472" lon="127.028676"><ele>339.9</ele></trkpt>
      <trkpt lat="36.709136" lon="127.029419"><ele>357.8</ele></trkpt>
      <trkpt lat="36.709130" lon="127.029760"><ele>358.2</ele></trkpt>
      <trkpt lat="36.709487" lon="127.030256"><ele>354.2</ele></trkpt>
      <trkpt lat="36.709646" lon="127.030908"><ele>348.2</ele></trkpt>
      <trkpt lat="36.709857" lon="127.031315"><ele>353.1</ele></trkpt>
      <trkpt lat="36.710207" lon="127.032927"><ele>388.7</ele></trkpt>
      <trkpt lat="36.710328" lon="127.033877"><ele>392.6</ele></trkpt>
      <trkpt lat="36.710192" lon="127.034319"><ele>392.6</ele></trkpt>
      <trkpt lat="36.710158" lon="127.035001"><ele>400.8</ele></trkpt>
      <trkpt lat="36.710504" lon="127.035647"><ele>411.7</ele></trkpt>
      <trkpt lat="36.710676" lon="127.036535"><ele>428.1</ele></trkpt>
      <trkpt lat="36.710999" lon="127.037117"><ele>444.4</ele></trkpt>
      <trkpt lat="36.711012" lon="127.037403"><ele>446.8</ele></trkpt>
      <trkpt lat="36.711420" lon="127.036982"><ele>441.0</ele></trkpt>
      <trkpt lat="36.711831" lon="127.036806"><ele>427.2</ele></trkpt>
      <trkpt lat="36.712039" lon="127.036622"><ele>420.5</ele></trkpt>
      <trkpt lat="36.712478" lon="127.036502"><ele>403.7</ele></trkpt>
      <trkpt lat="36.712748" lon="127.036595"><ele>397.8</ele></trkpt>
      <trkpt lat="36.713205" lon="127.036474"><ele>390.4</ele></trkpt>
      <trkpt lat="36.713504" lon="127.036306"><ele>387.5</ele></trkpt>
      <trkpt lat="36.714200" lon="127.035718"><ele>379.3</ele></trkpt>
      <trkpt lat="36.714537" lon="127.035596"><ele>373.1</ele></trkpt>
      <trkpt lat="36.714964" lon="127.035689"><ele>367.6</ele></trkpt>
      <trkpt lat="36.715593" lon="127.036213"><ele>362.1</ele></trkpt>
      <trkpt lat="36.715907" lon="127.036614"><ele>366.0</ele></trkpt>
      <trkpt lat="36.716110" lon="127.036978"><ele>363.7</ele></trkpt>
      <trkpt lat="36.716372" lon="127.037212"><ele>367.7</ele></trkpt>
      <trkpt lat="36.716589" lon="127.037184"><ele>374.1</ele></trkpt>
      <trkpt lat="36.717143" lon="127.036773"><ele>387.9</ele></trkpt>
      <trkpt lat="36.717337" lon="127.036399"><ele>391.4</ele></trkpt>
      <trkpt lat="36.717757" lon="127.036128"><ele>390.5</ele></trkpt>
      <trkpt lat="36.718041" lon="127.035858"><ele>389.8</ele></trkpt>
      <trkpt lat="36.718366" lon="127.035822"><ele>395.4</ele></trkpt>
      <trkpt lat="36.718872" lon="127.035344"><ele>405.4</ele></trkpt>
      <trkpt lat="36.719246" lon="127.035129"><ele>414.8</ele></trkpt>
      <trkpt lat="36.719516" lon="127.035288"><ele>412.6</ele></trkpt>
      <trkpt lat="36.719853" lon="127.034998"><ele>417.6</ele></trkpt>
    </trkseg>
  </trk>
</gpx>
