<?xml version="1.0" encoding="UTF-8"?>
<gpx version="1.1" creator="kr-100-mountains route-harvester"
     xmlns="http://www.topografix.com/GPX/1/1"
     xmlns:k100="https://github.com/jay-jang/kr-100-mountains/ns/1"
     xmlns:xsi="http://www.w3.org/2001/XMLSchema-instance"
     xsi:schemaLocation="http://www.topografix.com/GPX/1/1 http://www.topografix.com/GPX/1/1/gpx.xsd">
  <metadata>
    <name>변산 · 내변산탐방지원센터-직소폭포-관음봉-내소사 (OSM 계산 경로)</name>
    <desc>실제 GPS 기록이 아닙니다. OpenStreetMap에 등록된 등산로 선형 위에서 계산한 경로이며, 현장 통제·훼손·출입 제한·계절 통제를 반영하지 않을 수 있습니다. 산행 전 공식 안내를 확인하세요.</desc>
    <time>2026-08-04T05:38:07.954Z</time>
    <link href="https://www.openstreetmap.org/copyright"><text>© OpenStreetMap contributors (ODbL 1.0)</text></link>
    <link href="https://registry.opendata.aws/terrain-tiles/"><text>Elevation: SRTM 1 arc-second (NASA/USGS) via AWS Terrain Tiles</text></link>
    <extensions>
      <k100:provenance>osm-routed</k100:provenance>
      <k100:not_a_recorded_track>true</k100:not_a_recorded_track>
      <k100:mountain_id>byeonsan</k100:mountain_id>
      <k100:mountain_name>변산</k100:mountain_name>
      <k100:route_id>byeonsan-5e544ac9</k100:route_id>
      <k100:route_index>3</k100:route_index>
      <k100:route_name>내변산탐방지원센터-직소폭포-관음봉-내소사</k100:route_name>
      <k100:variant>0</k100:variant>
      <k100:source>OpenStreetMap via Overpass API</k100:source>
      <k100:license>ODbL-1.0</k100:license>
      <k100:attribution>© OpenStreetMap contributors</k100:attribution>
      <k100:elevation_source>SRTM 1 arc-second (NASA/USGS) — AWS Terrain Tiles 배포본. 지형 DEM 추정 고도이며 실측 아님</k100:elevation_source>
      <k100:algorithm>dijkstra-grid-v1</k100:algorithm>
      <k100:osm_snapshot>2026-08-04</k100:osm_snapshot>
      <k100:snap_trailhead_m>16</k100:snap_trailhead_m>
      <k100:snap_summit_m>525</k100:snap_summit_m>
      <k100:validation_score>65</k100:validation_score>
      <k100:validation_status>review</k100:validation_status>
    </extensions>
  </metadata>
  <trk>
    <name>변산 · 내변산탐방지원센터-직소폭포-관음봉-내소사 (OSM 계산 경로)</name>
    <desc>실제 GPS 기록이 아닙니다. OpenStreetMap에 등록된 등산로 선형 위에서 계산한 경로이며, 현장 통제·훼손·출입 제한·계절 통제를 반영하지 않을 수 있습니다. 산행 전 공식 안내를 확인하세요.</desc>
    <trkseg>
      <trkpt lat="35.640450" lon="126.580583"><ele>57.3</ele></trkpt>
      <trkpt lat="35.640183" lon="126.580550"><ele>57.8</ele></trkpt>
      <trkpt lat="35.639938" lon="126.580415"><ele>59.6</ele></trkpt>
      <trkpt lat="35.639051" lon="126.580346"><ele>64.0</ele></trkpt>
      <trkpt lat="35.638564" lon="126.579940"><ele>65.5</ele></trkpt>
      <trkpt lat="35.638223" lon="126.579480"><ele>66.2</ele></trkpt>
      <trkpt lat="35.637817" lon="126.578300"><ele>73.0</ele></trkpt>
      <trkpt lat="35.637250" lon="126.577783"><ele>56.5</ele></trkpt>
      <trkpt lat="35.637051" lon="126.577385"><ele>58.9</ele></trkpt>
      <trkpt lat="35.637192" lon="126.577040"><ele>64.0</ele></trkpt>
      <trkpt lat="35.637405" lon="126.576850"><ele>76.5</ele></trkpt>
      <trkpt lat="35.637704" lon="126.576933"><ele>84.7</ele></trkpt>
      <trkpt lat="35.638057" lon="126.577198"><ele>92.0</ele></trkpt>
      <trkpt lat="35.638236" lon="126.577260"><ele>105.4</ele></trkpt>
      <trkpt lat="35.638460" lon="126.577207"><ele>126.8</ele></trkpt>
      <trkpt lat="35.638650" lon="126.576976"><ele>148.1</ele></trkpt>
      <trkpt lat="35.638652" lon="126.576777"><ele>146.8</ele></trkpt>
      <trkpt lat="35.638584" lon="126.576584"><ele>141.4</ele></trkpt>
      <trkpt lat="35.638637" lon="126.576418"><ele>144.5</ele></trkpt>
      <trkpt lat="35.638824" lon="126.576069"><ele>157.3</ele></trkpt>
      <trkpt lat="35.639204" lon="126.575560"><ele>194.9</ele></trkpt>
      <trkpt lat="35.639321" lon="126.575061"><ele>211.4</ele></trkpt>
      <trkpt lat="35.639498" lon="126.574763"><ele>224.2</ele></trkpt>
      <trkpt lat="35.639511" lon="126.574253"><ele>234.7</ele></trkpt>
      <trkpt lat="35.639299" lon="126.573706"><ele>244.6</ele></trkpt>
      <trkpt lat="35.639265" lon="126.573454"><ele>249.8</ele></trkpt>
      <trkpt lat="35.639295" lon="126.572727"><ele>261.2</ele></trkpt>
      <trkpt lat="35.639068" lon="126.572073"><ele>280.0</ele></trkpt>
      <trkpt lat="35.638842" lon="126.571794"><ele>295.1</ele></trkpt>
      <trkpt lat="35.638885" lon="126.571544"><ele>312.9</ele></trkpt>
      <trkpt lat="35.638796" lon="126.571330"><ele>326.4</ele></trkpt>
      <trkpt lat="35.638787" lon="126.571150"><ele>333.5</ele></trkpt>
      <trkpt lat="35.638977" lon="126.570496"><ele>341.2</ele></trkpt>
      <trkpt lat="35.638959" lon="126.570048"><ele>346.5</ele></trkpt>
      <trkpt lat="35.639108" lon="126.569307"><ele>351.4</ele></trkpt>
      <trkpt lat="35.639129" lon="126.568953"><ele>351.4</ele></trkpt>
      <trkpt lat="35.638996" lon="126.568675"><ele>348.0</ele></trkpt>
      <trkpt lat="35.639209" lon="126.568521"><ele>353.2</ele></trkpt>
      <trkpt lat="35.639371" lon="126.568286"><ele>357.4</ele></trkpt>
      <trkpt lat="35.639359" lon="126.567617"><ele>364.3</ele></trkpt>
      <trkpt lat="35.639283" lon="126.567283"><ele>362.7</ele></trkpt>
      <trkpt lat="35.639350" lon="126.567059"><ele>366.5</ele></trkpt>
      <trkpt lat="35.639477" lon="126.566866"><ele>370.2</ele></trkpt>
      <trkpt lat="35.639633" lon="126.566388"><ele>365.4</ele></trkpt>
      <trkpt lat="35.639656" lon="126.566058"><ele>362.3</ele></trkpt>
      <trkpt lat="35.639818" lon="126.565301"><ele>350.4</ele></trkpt>
      <trkpt lat="35.639874" lon="126.564372"><ele>343.9</ele></trkpt>
      <trkpt lat="35.639737" lon="126.563235"><ele>359.7</ele></trkpt>
      <trkpt lat="35.639554" lon="126.562982"><ele>364.2</ele></trkpt>
      <trkpt lat="35.639547" lon="126.562736"><ele>367.6</ele></trkpt>
      <trkpt lat="35.639336" lon="126.562784"><ele>372.0</ele></trkpt>
      <trkpt lat="35.639105" lon="126.562570"><ele>379.4</ele></trkpt>
      <trkpt lat="35.638944" lon="126.562296"><ele>385.4</ele></trkpt>
      <trkpt lat="35.638918" lon="126.562039"><ele>390.8</ele></trkpt>
      <trkpt lat="35.638988" lon="126.561647"><ele>394.6</ele></trkpt>
      <trkpt lat="35.638866" lon="126.561046"><ele>397.9</ele></trkpt>
      <trkpt lat="35.638817" lon="126.559483"><ele>413.4</ele></trkpt>
      <trkpt lat="35.638850" lon="126.559067"><ele>413.2</ele></trkpt>
      <trkpt lat="35.639517" lon="126.558450"><ele>413.8</ele></trkpt>
      <trkpt lat="35.639650" lon="126.557483"><ele>421.4</ele></trkpt>
      <trkpt lat="35.639783" lon="126.557100"><ele>421.9</ele></trkpt>
      <trkpt lat="35.640000" lon="126.556833"><ele>427.8</ele></trkpt>
      <trkpt lat="35.640000" lon="126.556583"><ele>425.1</ele></trkpt>
      <trkpt lat="35.640083" lon="126.556500"><ele>424.4</ele></trkpt>
      <trkpt lat="35.639800" lon="126.555967"><ele>409.7</ele></trkpt>
      <trkpt lat="35.638817" lon="126.554850"><ele>387.8</ele></trkpt>
      <trkpt lat="35.637939" lon="126.554426"><ele>391.1</ele></trkpt>
      <trkpt lat="35.637487" lon="126.553808"><ele>379.5</ele></trkpt>
      <trkpt lat="35.637017" lon="126.553300"><ele>394.2</ele></trkpt>
      <trkpt lat="35.636850" lon="126.552917"><ele>396.1</ele></trkpt>
      <trkpt lat="35.636891" lon="126.552425"><ele>402.8</ele></trkpt>
      <trkpt lat="35.636633" lon="126.551900"><ele>399.2</ele></trkpt>
      <trkpt lat="35.636390" lon="126.551647"><ele>395.6</ele></trkpt>
      <trkpt lat="35.635879" lon="126.551305"><ele>386.4</ele></trkpt>
      <trkpt lat="35.635487" lon="126.551261"><ele>388.7</ele></trkpt>
      <trkpt lat="35.635050" lon="126.550933"><ele>380.7</ele></trkpt>
      <trkpt lat="35.634933" lon="126.550767"><ele>379.7</ele></trkpt>
      <trkpt lat="35.634783" lon="126.550367"><ele>385.4</ele></trkpt>
      <trkpt lat="35.634790" lon="126.550198"><ele>388.3</ele></trkpt>
      <trkpt lat="35.634531" lon="126.549696"><ele>403.5</ele></trkpt>
      <trkpt lat="35.634283" lon="126.549350"><ele>407.8</ele></trkpt>
      <trkpt lat="35.633867" lon="126.549083"><ele>413.1</ele></trkpt>
      <trkpt lat="35.633617" lon="126.549000"><ele>414.2</ele></trkpt>
      <trkpt lat="35.633350" lon="126.548367"><ele>405.5</ele></trkpt>
      <trkpt lat="35.633233" lon="126.548250"><ele>404.6</ele></trkpt>
      <trkpt lat="35.632933" lon="126.547683"><ele>415.2</ele></trkpt>
      <trkpt lat="35.632750" lon="126.547433"><ele>418.2</ele></trkpt>
      <trkpt lat="35.632517" lon="126.547317"><ele>418.9</ele></trkpt>
      <trkpt lat="35.632185" lon="126.547020"><ele>423.4</ele></trkpt>
      <trkpt lat="35.632045" lon="126.546981"><ele>423.2</ele></trkpt>
      <trkpt lat="35.631371" lon="126.547249"><ele>417.7</ele></trkpt>
      <trkpt lat="35.630591" lon="126.548415"><ele>416.3</ele></trkpt>
      <trkpt lat="35.630210" lon="126.548692"><ele>413.9</ele></trkpt>
      <trkpt lat="35.629533" lon="126.549000"><ele>415.7</ele></trkpt>
      <trkpt lat="35.629059" lon="126.549425"><ele>421.6</ele></trkpt>
    </trkseg>
  </trk>
</gpx>
