<?xml version="1.0" encoding="UTF-8"?>
<gpx version="1.1" creator="kr-100-mountains route-harvester"
     xmlns="http://www.topografix.com/GPX/1/1"
     xmlns:k100="https://github.com/jay-jang/kr-100-mountains/ns/1"
     xmlns:xsi="http://www.w3.org/2001/XMLSchema-instance"
     xsi:schemaLocation="http://www.topografix.com/GPX/1/1 http://www.topografix.com/GPX/1/1/gpx.xsd">
  <metadata>
    <name>팔공산 · 수태골-비로봉 코스 (대안 1) (OSM 계산 경로)</name>
    <desc>실제 GPS 기록이 아닙니다. OpenStreetMap에 등록된 등산로 선형 위에서 계산한 경로이며, 현장 통제·훼손·출입 제한·계절 통제를 반영하지 않을 수 있습니다. 산행 전 공식 안내를 확인하세요.</desc>
    <time>2026-08-04T05:40:19.507Z</time>
    <link href="https://www.openstreetmap.org/copyright"><text>© OpenStreetMap contributors (ODbL 1.0)</text></link>
    <link href="https://registry.opendata.aws/terrain-tiles/"><text>Elevation: SRTM 1 arc-second (NASA/USGS) via AWS Terrain Tiles</text></link>
    <extensions>
      <k100:provenance>osm-routed</k100:provenance>
      <k100:not_a_recorded_track>true</k100:not_a_recorded_track>
      <k100:mountain_id>palgongsan</k100:mountain_id>
      <k100:mountain_name>팔공산</k100:mountain_name>
      <k100:route_id>palgongsan-be9f657e</k100:route_id>
      <k100:route_index>3</k100:route_index>
      <k100:route_name>수태골-비로봉 코스</k100:route_name>
      <k100:variant>1</k100:variant>
      <k100:source>OpenStreetMap via Overpass API</k100:source>
      <k100:license>ODbL-1.0</k100:license>
      <k100:attribution>© OpenStreetMap contributors</k100:attribution>
      <k100:elevation_source>SRTM 1 arc-second (NASA/USGS) — AWS Terrain Tiles 배포본. 지형 DEM 추정 고도이며 실측 아님</k100:elevation_source>
      <k100:algorithm>dijkstra-grid-v1</k100:algorithm>
      <k100:osm_snapshot>2026-08-04</k100:osm_snapshot>
      <k100:snap_trailhead_m>169</k100:snap_trailhead_m>
      <k100:snap_summit_m>20</k100:snap_summit_m>
      <k100:validation_score>94</k100:validation_score>
      <k100:validation_status>accepted</k100:validation_status>
    </extensions>
  </metadata>
  <trk>
    <name>팔공산 · 수태골-비로봉 코스 (대안 1) (OSM 계산 경로)</name>
    <desc>실제 GPS 기록이 아닙니다. OpenStreetMap에 등록된 등산로 선형 위에서 계산한 경로이며, 현장 통제·훼손·출입 제한·계절 통제를 반영하지 않을 수 있습니다. 산행 전 공식 안내를 확인하세요.</desc>
    <trkseg>
      <trkpt lat="35.994948" lon="128.672977"><ele>453.0</ele></trkpt>
      <trkpt lat="35.994392" lon="128.673050"><ele>443.1</ele></trkpt>
      <trkpt lat="35.993817" lon="128.672857"><ele>432.3</ele></trkpt>
      <trkpt lat="35.993576" lon="128.672723"><ele>426.1</ele></trkpt>
      <trkpt lat="35.993368" lon="128.672674"><ele>423.1</ele></trkpt>
      <trkpt lat="35.993197" lon="128.672438"><ele>420.6</ele></trkpt>
      <trkpt lat="35.992702" lon="128.672320"><ele>414.8</ele></trkpt>
      <trkpt lat="35.992200" lon="128.672009"><ele>410.7</ele></trkpt>
      <trkpt lat="35.992009" lon="128.671789"><ele>411.9</ele></trkpt>
      <trkpt lat="35.991684" lon="128.671730"><ele>414.5</ele></trkpt>
      <trkpt lat="35.991497" lon="128.671760"><ele>411.8</ele></trkpt>
      <trkpt lat="35.991173" lon="128.671954"><ele>405.0</ele></trkpt>
      <trkpt lat="35.990726" lon="128.671393"><ele>399.5</ele></trkpt>
      <trkpt lat="35.990562" lon="128.671113"><ele>397.1</ele></trkpt>
      <trkpt lat="35.990481" lon="128.671400"><ele>395.7</ele></trkpt>
      <trkpt lat="35.990187" lon="128.671479"><ele>389.8</ele></trkpt>
      <trkpt lat="35.989837" lon="128.671258"><ele>382.2</ele></trkpt>
      <trkpt lat="35.989161" lon="128.671306"><ele>367.6</ele></trkpt>
      <trkpt lat="35.987753" lon="128.671889"><ele>356.1</ele></trkpt>
      <trkpt lat="35.985953" lon="128.673036"><ele>334.4</ele></trkpt>
      <trkpt lat="35.985993" lon="128.673281"><ele>334.4</ele></trkpt>
      <trkpt lat="35.986162" lon="128.673722"><ele>337.8</ele></trkpt>
      <trkpt lat="35.986154" lon="128.673796"><ele>338.1</ele></trkpt>
      <trkpt lat="35.985908" lon="128.674002"><ele>338.1</ele></trkpt>
      <trkpt lat="35.985914" lon="128.674605"><ele>344.6</ele></trkpt>
      <trkpt lat="35.986566" lon="128.674535"><ele>347.4</ele></trkpt>
      <trkpt lat="35.986853" lon="128.674326"><ele>348.2</ele></trkpt>
      <trkpt lat="35.987314" lon="128.674173"><ele>348.4</ele></trkpt>
      <trkpt lat="35.987433" lon="128.674565"><ele>350.0</ele></trkpt>
      <trkpt lat="35.987591" lon="128.674678"><ele>351.7</ele></trkpt>
      <trkpt lat="35.988287" lon="128.674955"><ele>360.4</ele></trkpt>
      <trkpt lat="35.988744" lon="128.674995"><ele>365.9</ele></trkpt>
      <trkpt lat="35.988876" lon="128.674954"><ele>367.8</ele></trkpt>
      <trkpt lat="35.989240" lon="128.674667"><ele>375.4</ele></trkpt>
      <trkpt lat="35.989557" lon="128.674575"><ele>377.2</ele></trkpt>
      <trkpt lat="35.990096" lon="128.674677"><ele>380.0</ele></trkpt>
      <trkpt lat="35.990207" lon="128.674794"><ele>381.4</ele></trkpt>
      <trkpt lat="35.990630" lon="128.674849"><ele>387.7</ele></trkpt>
      <trkpt lat="35.990699" lon="128.674794"><ele>389.0</ele></trkpt>
      <trkpt lat="35.990826" lon="128.674454"><ele>389.9</ele></trkpt>
      <trkpt lat="35.991752" lon="128.674160"><ele>401.9</ele></trkpt>
      <trkpt lat="35.991848" lon="128.674080"><ele>402.5</ele></trkpt>
      <trkpt lat="35.992595" lon="128.674387"><ele>409.5</ele></trkpt>
      <trkpt lat="35.992826" lon="128.674172"><ele>414.5</ele></trkpt>
      <trkpt lat="35.993471" lon="128.675285"><ele>426.5</ele></trkpt>
      <trkpt lat="35.993361" lon="128.677245"><ele>429.8</ele></trkpt>
      <trkpt lat="35.993366" lon="128.677773"><ele>438.5</ele></trkpt>
      <trkpt lat="35.993639" lon="128.678538"><ele>454.4</ele></trkpt>
      <trkpt lat="35.993535" lon="128.678548"><ele>452.1</ele></trkpt>
      <trkpt lat="35.993097" lon="128.678362"><ele>443.7</ele></trkpt>
      <trkpt lat="35.992749" lon="128.679883"><ele>450.5</ele></trkpt>
      <trkpt lat="35.992621" lon="128.680788"><ele>445.8</ele></trkpt>
      <trkpt lat="35.993048" lon="128.680986"><ele>453.6</ele></trkpt>
      <trkpt lat="35.993736" lon="128.681132"><ele>463.2</ele></trkpt>
      <trkpt lat="35.994187" lon="128.681446"><ele>473.3</ele></trkpt>
      <trkpt lat="35.994505" lon="128.681592"><ele>478.3</ele></trkpt>
      <trkpt lat="35.994935" lon="128.681656"><ele>481.5</ele></trkpt>
      <trkpt lat="35.995286" lon="128.681833"><ele>489.8</ele></trkpt>
      <trkpt lat="35.995597" lon="128.682084"><ele>495.8</ele></trkpt>
      <trkpt lat="35.996302" lon="128.682953"><ele>511.3</ele></trkpt>
      <trkpt lat="35.996834" lon="128.683476"><ele>524.5</ele></trkpt>
      <trkpt lat="35.997317" lon="128.683717"><ele>530.8</ele></trkpt>
      <trkpt lat="35.997573" lon="128.683625"><ele>531.7</ele></trkpt>
      <trkpt lat="35.997710" lon="128.683682"><ele>534.4</ele></trkpt>
      <trkpt lat="35.997994" lon="128.683886"><ele>539.5</ele></trkpt>
      <trkpt lat="35.998515" lon="128.684393"><ele>549.6</ele></trkpt>
      <trkpt lat="35.998923" lon="128.684544"><ele>560.0</ele></trkpt>
      <trkpt lat="35.999294" lon="128.684866"><ele>565.7</ele></trkpt>
      <trkpt lat="35.999317" lon="128.685180"><ele>566.1</ele></trkpt>
      <trkpt lat="35.999434" lon="128.685447"><ele>570.4</ele></trkpt>
      <trkpt lat="35.999739" lon="128.685734"><ele>576.3</ele></trkpt>
      <trkpt lat="36.000139" lon="128.686009"><ele>585.9</ele></trkpt>
      <trkpt lat="36.000454" lon="128.686610"><ele>598.6</ele></trkpt>
      <trkpt lat="36.000712" lon="128.686942"><ele>603.4</ele></trkpt>
      <trkpt lat="36.000731" lon="128.687239"><ele>603.8</ele></trkpt>
      <trkpt lat="36.000860" lon="128.687646"><ele>608.2</ele></trkpt>
      <trkpt lat="36.001051" lon="128.687920"><ele>615.1</ele></trkpt>
      <trkpt lat="36.001765" lon="128.688392"><ele>630.6</ele></trkpt>
      <trkpt lat="36.001913" lon="128.688584"><ele>634.2</ele></trkpt>
      <trkpt lat="36.002465" lon="128.688890"><ele>647.7</ele></trkpt>
      <trkpt lat="36.002587" lon="128.689069"><ele>647.2</ele></trkpt>
      <trkpt lat="36.002991" lon="128.689125"><ele>656.7</ele></trkpt>
      <trkpt lat="36.004178" lon="128.689967"><ele>689.3</ele></trkpt>
      <trkpt lat="36.004825" lon="128.690135"><ele>708.8</ele></trkpt>
      <trkpt lat="36.005386" lon="128.690590"><ele>727.9</ele></trkpt>
      <trkpt lat="36.005460" lon="128.690832"><ele>734.5</ele></trkpt>
      <trkpt lat="36.005673" lon="128.690816"><ele>742.1</ele></trkpt>
      <trkpt lat="36.005856" lon="128.690723"><ele>748.9</ele></trkpt>
      <trkpt lat="36.006081" lon="128.690463"><ele>754.8</ele></trkpt>
      <trkpt lat="36.006608" lon="128.690091"><ele>777.9</ele></trkpt>
      <trkpt lat="36.007016" lon="128.690034"><ele>791.4</ele></trkpt>
      <trkpt lat="36.007283" lon="128.690195"><ele>794.3</ele></trkpt>
      <trkpt lat="36.007398" lon="128.690178"><ele>798.3</ele></trkpt>
      <trkpt lat="36.008084" lon="128.690331"><ele>821.3</ele></trkpt>
      <trkpt lat="36.008414" lon="128.690337"><ele>828.3</ele></trkpt>
      <trkpt lat="36.008737" lon="128.690430"><ele>839.4</ele></trkpt>
      <trkpt lat="36.009527" lon="128.690989"><ele>858.0</ele></trkpt>
      <trkpt lat="36.010250" lon="128.691002"><ele>880.9</ele></trkpt>
      <trkpt lat="36.010443" lon="128.691112"><ele>887.9</ele></trkpt>
      <trkpt lat="36.010550" lon="128.691429"><ele>889.9</ele></trkpt>
      <trkpt lat="36.010510" lon="128.691646"><ele>889.3</ele></trkpt>
      <trkpt lat="36.010686" lon="128.692054"><ele>904.6</ele></trkpt>
      <trkpt lat="36.010808" lon="128.692150"><ele>911.4</ele></trkpt>
      <trkpt lat="36.010902" lon="128.692154"><ele>915.8</ele></trkpt>
      <trkpt lat="36.011149" lon="128.692590"><ele>925.9</ele></trkpt>
      <trkpt lat="36.011522" lon="128.692951"><ele>938.7</ele></trkpt>
      <trkpt lat="36.011532" lon="128.693102"><ele>937.9</ele></trkpt>
      <trkpt lat="36.011622" lon="128.693141"><ele>940.2</ele></trkpt>
      <trkpt lat="36.011827" lon="128.693555"><ele>949.2</ele></trkpt>
      <trkpt lat="36.011809" lon="128.693763"><ele>952.9</ele></trkpt>
      <trkpt lat="36.011614" lon="128.693972"><ele>952.5</ele></trkpt>
      <trkpt lat="36.011548" lon="128.694109"><ele>954.7</ele></trkpt>
      <trkpt lat="36.011493" lon="128.694151"><ele>955.0</ele></trkpt>
      <trkpt lat="36.011429" lon="128.694117"><ele>952.9</ele></trkpt>
      <trkpt lat="36.011213" lon="128.694407"><ele>960.2</ele></trkpt>
      <trkpt lat="36.011086" lon="128.694470"><ele>959.7</ele></trkpt>
      <trkpt lat="36.010984" lon="128.694602"><ele>957.4</ele></trkpt>
      <trkpt lat="36.011098" lon="128.694569"><ele>960.9</ele></trkpt>
      <trkpt lat="36.011173" lon="128.694661"><ele>964.1</ele></trkpt>
      <trkpt lat="36.011456" lon="128.694758"><ele>976.7</ele></trkpt>
      <trkpt lat="36.011702" lon="128.694914"><ele>996.8</ele></trkpt>
      <trkpt lat="36.011734" lon="128.695005"><ele>1001.8</ele></trkpt>
      <trkpt lat="36.011977" lon="128.694991"><ele>1008.2</ele></trkpt>
      <trkpt lat="36.012023" lon="128.695064"><ele>1014.1</ele></trkpt>
      <trkpt lat="36.011964" lon="128.695137"><ele>1014.5</ele></trkpt>
      <trkpt lat="36.011980" lon="128.695265"><ele>1021.5</ele></trkpt>
      <trkpt lat="36.012084" lon="128.695335"><ele>1029.4</ele></trkpt>
      <trkpt lat="36.012105" lon="128.695425"><ele>1033.0</ele></trkpt>
      <trkpt lat="36.012877" lon="128.695932"><ele>1081.2</ele></trkpt>
      <trkpt lat="36.013222" lon="128.696356"><ele>1113.8</ele></trkpt>
      <trkpt lat="36.013491" lon="128.696782"><ele>1130.0</ele></trkpt>
      <trkpt lat="36.014004" lon="128.696816"><ele>1114.3</ele></trkpt>
      <trkpt lat="36.014112" lon="128.696635"><ele>1112.9</ele></trkpt>
      <trkpt lat="36.014500" lon="128.696610"><ele>1116.0</ele></trkpt>
      <trkpt lat="36.014563" lon="128.696948"><ele>1107.9</ele></trkpt>
      <trkpt lat="36.014815" lon="128.697635"><ele>1085.0</ele></trkpt>
      <trkpt lat="36.014815" lon="128.697984"><ele>1074.0</ele></trkpt>
      <trkpt lat="36.014763" lon="128.698268"><ele>1066.1</ele></trkpt>
      <trkpt lat="36.014658" lon="128.698429"><ele>1064.1</ele></trkpt>
      <trkpt lat="36.014658" lon="128.698665"><ele>1058.1</ele></trkpt>
      <trkpt lat="36.014858" lon="128.699137"><ele>1033.8</ele></trkpt>
      <trkpt lat="36.014841" lon="128.699512"><ele>1018.5</ele></trkpt>
      <trkpt lat="36.014919" lon="128.699765"><ele>1010.3</ele></trkpt>
    </trkseg>
  </trk>
</gpx>
