<?xml version="1.0" encoding="UTF-8"?>
<gpx version="1.1" creator="kr-100-mountains route-harvester"
     xmlns="http://www.topografix.com/GPX/1/1"
     xmlns:k100="https://github.com/jay-jang/kr-100-mountains/ns/1"
     xmlns:xsi="http://www.w3.org/2001/XMLSchema-instance"
     xsi:schemaLocation="http://www.topografix.com/GPX/1/1 http://www.topografix.com/GPX/1/1/gpx.xsd">
  <metadata>
    <name>팔공산 · 갓바위 코스 (OSM 계산 경로)</name>
    <desc>실제 GPS 기록이 아닙니다. OpenStreetMap에 등록된 등산로 선형 위에서 계산한 경로이며, 현장 통제·훼손·출입 제한·계절 통제를 반영하지 않을 수 있습니다. 산행 전 공식 안내를 확인하세요.</desc>
    <time>2026-08-04T05:40:19.450Z</time>
    <link href="https://www.openstreetmap.org/copyright"><text>© OpenStreetMap contributors (ODbL 1.0)</text></link>
    <link href="https://registry.opendata.aws/terrain-tiles/"><text>Elevation: SRTM 1 arc-second (NASA/USGS) via AWS Terrain Tiles</text></link>
    <extensions>
      <k100:provenance>osm-routed</k100:provenance>
      <k100:not_a_recorded_track>true</k100:not_a_recorded_track>
      <k100:mountain_id>palgongsan</k100:mountain_id>
      <k100:mountain_name>팔공산</k100:mountain_name>
      <k100:route_id>palgongsan-13d74778</k100:route_id>
      <k100:route_index>2</k100:route_index>
      <k100:route_name>갓바위 코스</k100:route_name>
      <k100:variant>0</k100:variant>
      <k100:source>OpenStreetMap via Overpass API</k100:source>
      <k100:license>ODbL-1.0</k100:license>
      <k100:attribution>© OpenStreetMap contributors</k100:attribution>
      <k100:elevation_source>SRTM 1 arc-second (NASA/USGS) — AWS Terrain Tiles 배포본. 지형 DEM 추정 고도이며 실측 아님</k100:elevation_source>
      <k100:algorithm>dijkstra-grid-v1</k100:algorithm>
      <k100:osm_snapshot>2026-08-04</k100:osm_snapshot>
      <k100:snap_trailhead_m>86</k100:snap_trailhead_m>
      <k100:snap_summit_m>20</k100:snap_summit_m>
      <k100:validation_score>75</k100:validation_score>
      <k100:validation_status>review</k100:validation_status>
    </extensions>
  </metadata>
  <trk>
    <name>팔공산 · 갓바위 코스 (OSM 계산 경로)</name>
    <desc>실제 GPS 기록이 아닙니다. OpenStreetMap에 등록된 등산로 선형 위에서 계산한 경로이며, 현장 통제·훼손·출입 제한·계절 통제를 반영하지 않을 수 있습니다. 산행 전 공식 안내를 확인하세요.</desc>
    <trkseg>
      <trkpt lat="35.974308" lon="128.719326"><ele>473.6</ele></trkpt>
      <trkpt lat="35.974340" lon="128.719137"><ele>467.6</ele></trkpt>
      <trkpt lat="35.974560" lon="128.719005"><ele>467.8</ele></trkpt>
      <trkpt lat="35.974675" lon="128.718846"><ele>463.8</ele></trkpt>
      <trkpt lat="35.974738" lon="128.718484"><ele>456.3</ele></trkpt>
      <trkpt lat="35.974708" lon="128.717989"><ele>449.4</ele></trkpt>
      <trkpt lat="35.974571" lon="128.717815"><ele>444.2</ele></trkpt>
      <trkpt lat="35.974045" lon="128.717447"><ele>428.2</ele></trkpt>
      <trkpt lat="35.974046" lon="128.716904"><ele>416.8</ele></trkpt>
      <trkpt lat="35.973996" lon="128.716710"><ele>411.2</ele></trkpt>
      <trkpt lat="35.973657" lon="128.716468"><ele>404.4</ele></trkpt>
      <trkpt lat="35.973663" lon="128.716373"><ele>403.5</ele></trkpt>
      <trkpt lat="35.973816" lon="128.716101"><ele>396.8</ele></trkpt>
      <trkpt lat="35.973876" lon="128.715897"><ele>390.9</ele></trkpt>
      <trkpt lat="35.973898" lon="128.715764"><ele>387.7</ele></trkpt>
      <trkpt lat="35.973867" lon="128.715681"><ele>386.7</ele></trkpt>
      <trkpt lat="35.973905" lon="128.715600"><ele>384.7</ele></trkpt>
      <trkpt lat="35.974201" lon="128.715596"><ele>384.0</ele></trkpt>
      <trkpt lat="35.974327" lon="128.715356"><ele>378.9</ele></trkpt>
      <trkpt lat="35.973808" lon="128.714737"><ele>372.2</ele></trkpt>
      <trkpt lat="35.973626" lon="128.714321"><ele>362.9</ele></trkpt>
      <trkpt lat="35.973272" lon="128.714021"><ele>357.4</ele></trkpt>
      <trkpt lat="35.973263" lon="128.713865"><ele>355.2</ele></trkpt>
      <trkpt lat="35.973159" lon="128.713699"><ele>353.9</ele></trkpt>
      <trkpt lat="35.973548" lon="128.713447"><ele>358.5</ele></trkpt>
      <trkpt lat="35.973999" lon="128.713349"><ele>368.1</ele></trkpt>
      <trkpt lat="35.974351" lon="128.713691"><ele>371.6</ele></trkpt>
      <trkpt lat="35.974801" lon="128.713980"><ele>377.2</ele></trkpt>
      <trkpt lat="35.975348" lon="128.714207"><ele>388.8</ele></trkpt>
      <trkpt lat="35.975627" lon="128.714171"><ele>395.2</ele></trkpt>
      <trkpt lat="35.975934" lon="128.714259"><ele>399.9</ele></trkpt>
      <trkpt lat="35.976389" lon="128.714031"><ele>417.4</ele></trkpt>
      <trkpt lat="35.976440" lon="128.713838"><ele>423.8</ele></trkpt>
      <trkpt lat="35.976548" lon="128.713706"><ele>430.3</ele></trkpt>
      <trkpt lat="35.976664" lon="128.713410"><ele>441.7</ele></trkpt>
      <trkpt lat="35.976695" lon="128.713239"><ele>446.1</ele></trkpt>
      <trkpt lat="35.976978" lon="128.713026"><ele>461.1</ele></trkpt>
      <trkpt lat="35.977057" lon="128.712883"><ele>464.7</ele></trkpt>
      <trkpt lat="35.977183" lon="128.712910"><ele>469.5</ele></trkpt>
      <trkpt lat="35.977285" lon="128.712824"><ele>474.3</ele></trkpt>
      <trkpt lat="35.977504" lon="128.712827"><ele>481.1</ele></trkpt>
      <trkpt lat="35.977972" lon="128.712660"><ele>499.8</ele></trkpt>
      <trkpt lat="35.978248" lon="128.712201"><ele>523.0</ele></trkpt>
      <trkpt lat="35.978522" lon="128.711952"><ele>539.7</ele></trkpt>
      <trkpt lat="35.978615" lon="128.711793"><ele>545.2</ele></trkpt>
      <trkpt lat="35.978796" lon="128.711687"><ele>551.1</ele></trkpt>
      <trkpt lat="35.978792" lon="128.711559"><ele>550.8</ele></trkpt>
      <trkpt lat="35.978961" lon="128.711430"><ele>550.1</ele></trkpt>
      <trkpt lat="35.979325" lon="128.710985"><ele>525.7</ele></trkpt>
      <trkpt lat="35.979311" lon="128.710794"><ele>524.0</ele></trkpt>
      <trkpt lat="35.979490" lon="128.710531"><ele>510.5</ele></trkpt>
      <trkpt lat="35.979559" lon="128.710257"><ele>498.8</ele></trkpt>
      <trkpt lat="35.979748" lon="128.710005"><ele>484.6</ele></trkpt>
      <trkpt lat="35.979737" lon="128.709810"><ele>477.2</ele></trkpt>
      <trkpt lat="35.979801" lon="128.709697"><ele>471.1</ele></trkpt>
      <trkpt lat="35.979867" lon="128.709244"><ele>458.9</ele></trkpt>
      <trkpt lat="35.980012" lon="128.708879"><ele>448.6</ele></trkpt>
      <trkpt lat="35.980030" lon="128.708634"><ele>443.2</ele></trkpt>
      <trkpt lat="35.979967" lon="128.708499"><ele>441.3</ele></trkpt>
      <trkpt lat="35.980235" lon="128.708704"><ele>442.2</ele></trkpt>
      <trkpt lat="35.980303" lon="128.708670"><ele>440.4</ele></trkpt>
      <trkpt lat="35.980439" lon="128.708720"><ele>437.2</ele></trkpt>
      <trkpt lat="35.980444" lon="128.708860"><ele>438.7</ele></trkpt>
      <trkpt lat="35.980513" lon="128.708965"><ele>437.3</ele></trkpt>
      <trkpt lat="35.980487" lon="128.709270"><ele>440.6</ele></trkpt>
      <trkpt lat="35.980648" lon="128.709270"><ele>434.7</ele></trkpt>
      <trkpt lat="35.980880" lon="128.709401"><ele>428.7</ele></trkpt>
      <trkpt lat="35.980980" lon="128.709297"><ele>425.5</ele></trkpt>
      <trkpt lat="35.981095" lon="128.708986"><ele>418.7</ele></trkpt>
      <trkpt lat="35.981500" lon="128.708374"><ele>403.3</ele></trkpt>
      <trkpt lat="35.981513" lon="128.707951"><ele>398.1</ele></trkpt>
      <trkpt lat="35.981462" lon="128.707654"><ele>394.8</ele></trkpt>
      <trkpt lat="35.981531" lon="128.707413"><ele>390.8</ele></trkpt>
      <trkpt lat="35.982026" lon="128.706828"><ele>379.7</ele></trkpt>
      <trkpt lat="35.982093" lon="128.706636"><ele>375.3</ele></trkpt>
      <trkpt lat="35.982233" lon="128.706435"><ele>370.1</ele></trkpt>
      <trkpt lat="35.982726" lon="128.706382"><ele>369.5</ele></trkpt>
      <trkpt lat="35.983465" lon="128.706931"><ele>382.6</ele></trkpt>
      <trkpt lat="35.984929" lon="128.707795"><ele>396.9</ele></trkpt>
      <trkpt lat="35.985057" lon="128.707960"><ele>398.2</ele></trkpt>
      <trkpt lat="35.985169" lon="128.707941"><ele>401.5</ele></trkpt>
      <trkpt lat="35.985392" lon="128.707790"><ele>410.6</ele></trkpt>
      <trkpt lat="35.985494" lon="128.707530"><ele>417.2</ele></trkpt>
      <trkpt lat="35.985533" lon="128.707770"><ele>414.6</ele></trkpt>
      <trkpt lat="35.985582" lon="128.707805"><ele>415.2</ele></trkpt>
      <trkpt lat="35.985677" lon="128.707743"><ele>418.9</ele></trkpt>
      <trkpt lat="35.985761" lon="128.707739"><ele>421.4</ele></trkpt>
      <trkpt lat="35.985784" lon="128.707786"><ele>421.4</ele></trkpt>
      <trkpt lat="35.985938" lon="128.707670"><ele>427.4</ele></trkpt>
      <trkpt lat="35.986677" lon="128.707546"><ele>450.4</ele></trkpt>
      <trkpt lat="35.986867" lon="128.707298"><ele>461.7</ele></trkpt>
      <trkpt lat="35.987190" lon="128.707127"><ele>470.8</ele></trkpt>
      <trkpt lat="35.987283" lon="128.706961"><ele>474.8</ele></trkpt>
      <trkpt lat="35.987282" lon="128.706658"><ele>479.7</ele></trkpt>
      <trkpt lat="35.987672" lon="128.706211"><ele>492.7</ele></trkpt>
      <trkpt lat="35.987750" lon="128.706287"><ele>493.1</ele></trkpt>
      <trkpt lat="35.988313" lon="128.706282"><ele>500.3</ele></trkpt>
      <trkpt lat="35.988450" lon="128.706334"><ele>501.4</ele></trkpt>
      <trkpt lat="35.988550" lon="128.706471"><ele>503.2</ele></trkpt>
      <trkpt lat="35.988653" lon="128.706775"><ele>504.2</ele></trkpt>
      <trkpt lat="35.988928" lon="128.706997"><ele>500.0</ele></trkpt>
      <trkpt lat="35.988972" lon="128.707115"><ele>499.2</ele></trkpt>
      <trkpt lat="35.989411" lon="128.706453"><ele>469.4</ele></trkpt>
      <trkpt lat="35.989310" lon="128.706360"><ele>474.2</ele></trkpt>
      <trkpt lat="35.989304" lon="128.705889"><ele>462.8</ele></trkpt>
      <trkpt lat="35.989438" lon="128.705591"><ele>452.9</ele></trkpt>
      <trkpt lat="35.989111" lon="128.704755"><ele>443.3</ele></trkpt>
      <trkpt lat="35.989537" lon="128.704756"><ele>454.8</ele></trkpt>
      <trkpt lat="35.989791" lon="128.704909"><ele>459.0</ele></trkpt>
      <trkpt lat="35.990130" lon="128.704947"><ele>467.2</ele></trkpt>
      <trkpt lat="35.990341" lon="128.705113"><ele>467.5</ele></trkpt>
      <trkpt lat="35.990600" lon="128.705460"><ele>468.3</ele></trkpt>
      <trkpt lat="35.990886" lon="128.705581"><ele>472.5</ele></trkpt>
      <trkpt lat="35.991141" lon="128.705617"><ele>477.7</ele></trkpt>
      <trkpt lat="35.991504" lon="128.705383"><ele>481.3</ele></trkpt>
      <trkpt lat="35.991894" lon="128.704723"><ele>484.5</ele></trkpt>
      <trkpt lat="35.992353" lon="128.704697"><ele>491.7</ele></trkpt>
      <trkpt lat="35.992557" lon="128.704751"><ele>494.6</ele></trkpt>
      <trkpt lat="35.992866" lon="128.704939"><ele>497.2</ele></trkpt>
      <trkpt lat="35.992927" lon="128.704902"><ele>497.4</ele></trkpt>
      <trkpt lat="35.992900" lon="128.704735"><ele>496.9</ele></trkpt>
      <trkpt lat="35.992668" lon="128.704307"><ele>495.3</ele></trkpt>
      <trkpt lat="35.992484" lon="128.703978"><ele>494.8</ele></trkpt>
      <trkpt lat="35.992217" lon="128.703634"><ele>494.8</ele></trkpt>
      <trkpt lat="35.992258" lon="128.703453"><ele>495.0</ele></trkpt>
      <trkpt lat="35.992696" lon="128.703122"><ele>499.2</ele></trkpt>
      <trkpt lat="35.992853" lon="128.703179"><ele>501.4</ele></trkpt>
      <trkpt lat="35.993437" lon="128.703077"><ele>510.1</ele></trkpt>
      <trkpt lat="35.993790" lon="128.703092"><ele>514.7</ele></trkpt>
      <trkpt lat="35.994205" lon="128.703025"><ele>516.1</ele></trkpt>
      <trkpt lat="35.994718" lon="128.703245"><ele>526.7</ele></trkpt>
      <trkpt lat="35.994833" lon="128.703251"><ele>528.4</ele></trkpt>
      <trkpt lat="35.995547" lon="128.703002"><ele>536.8</ele></trkpt>
      <trkpt lat="35.995844" lon="128.703092"><ele>540.8</ele></trkpt>
      <trkpt lat="35.995947" lon="128.703075"><ele>542.0</ele></trkpt>
      <trkpt lat="35.996285" lon="128.702777"><ele>546.5</ele></trkpt>
      <trkpt lat="35.996517" lon="128.702746"><ele>549.1</ele></trkpt>
      <trkpt lat="35.997051" lon="128.702969"><ele>556.2</ele></trkpt>
      <trkpt lat="35.998170" lon="128.702887"><ele>582.7</ele></trkpt>
      <trkpt lat="35.998912" lon="128.702924"><ele>600.0</ele></trkpt>
      <trkpt lat="35.999368" lon="128.702683"><ele>618.5</ele></trkpt>
      <trkpt lat="35.999951" lon="128.702584"><ele>633.8</ele></trkpt>
      <trkpt lat="36.000840" lon="128.702517"><ele>650.9</ele></trkpt>
      <trkpt lat="36.001148" lon="128.702341"><ele>660.8</ele></trkpt>
      <trkpt lat="36.001440" lon="128.701737"><ele>669.7</ele></trkpt>
      <trkpt lat="36.001615" lon="128.701662"><ele>670.0</ele></trkpt>
      <trkpt lat="36.002199" lon="128.701651"><ele>678.6</ele></trkpt>
      <trkpt lat="36.002844" lon="128.701261"><ele>698.6</ele></trkpt>
      <trkpt lat="36.003354" lon="128.701420"><ele>725.9</ele></trkpt>
      <trkpt lat="36.003700" lon="128.701358"><ele>744.5</ele></trkpt>
      <trkpt lat="36.004056" lon="128.700994"><ele>762.2</ele></trkpt>
      <trkpt lat="36.004194" lon="128.701016"><ele>767.7</ele></trkpt>
      <trkpt lat="36.004203" lon="128.700902"><ele>768.5</ele></trkpt>
      <trkpt lat="36.004323" lon="128.700810"><ele>772.0</ele></trkpt>
      <trkpt lat="36.004524" lon="128.700759"><ele>777.6</ele></trkpt>
      <trkpt lat="36.004828" lon="128.700244"><ele>794.6</ele></trkpt>
      <trkpt lat="36.006017" lon="128.700459"><ele>842.8</ele></trkpt>
      <trkpt lat="36.006468" lon="128.700180"><ele>849.6</ele></trkpt>
      <trkpt lat="36.007136" lon="128.700212"><ele>864.3</ele></trkpt>
      <trkpt lat="36.007596" lon="128.700148"><ele>882.0</ele></trkpt>
      <trkpt lat="36.007987" lon="128.700014"><ele>895.8</ele></trkpt>
      <trkpt lat="36.008193" lon="128.700025"><ele>900.9</ele></trkpt>
      <trkpt lat="36.008725" lon="128.700212"><ele>917.2</ele></trkpt>
      <trkpt lat="36.008881" lon="128.700512"><ele>930.5</ele></trkpt>
      <trkpt lat="36.009393" lon="128.700727"><ele>948.9</ele></trkpt>
      <trkpt lat="36.009720" lon="128.700615"><ele>958.4</ele></trkpt>
      <trkpt lat="36.009833" lon="128.700660"><ele>961.7</ele></trkpt>
      <trkpt lat="36.009968" lon="128.700607"><ele>963.7</ele></trkpt>
      <trkpt lat="36.010237" lon="128.700765"><ele>974.9</ele></trkpt>
      <trkpt lat="36.010386" lon="128.700636"><ele>987.4</ele></trkpt>
      <trkpt lat="36.010497" lon="128.700634"><ele>999.4</ele></trkpt>
      <trkpt lat="36.010577" lon="128.700558"><ele>1008.1</ele></trkpt>
      <trkpt lat="36.010595" lon="128.700682"><ele>1009.1</ele></trkpt>
      <trkpt lat="36.010686" lon="128.700658"><ele>1017.6</ele></trkpt>
      <trkpt lat="36.010894" lon="128.700478"><ele>1033.2</ele></trkpt>
      <trkpt lat="36.010957" lon="128.700591"><ele>1037.2</ele></trkpt>
      <trkpt lat="36.011068" lon="128.700642"><ele>1040.2</ele></trkpt>
      <trkpt lat="36.011304" lon="128.700615"><ele>1046.9</ele></trkpt>
      <trkpt lat="36.011504" lon="128.700392"><ele>1055.8</ele></trkpt>
      <trkpt lat="36.011559" lon="128.700150"><ele>1056.9</ele></trkpt>
      <trkpt lat="36.011653" lon="128.700158"><ele>1059.2</ele></trkpt>
      <trkpt lat="36.011821" lon="128.700044"><ele>1059.2</ele></trkpt>
      <trkpt lat="36.011977" lon="128.699557"><ele>1067.9</ele></trkpt>
      <trkpt lat="36.012211" lon="128.699156"><ele>1069.9</ele></trkpt>
      <trkpt lat="36.012261" lon="128.698812"><ele>1076.9</ele></trkpt>
      <trkpt lat="36.012509" lon="128.698924"><ele>1073.7</ele></trkpt>
      <trkpt lat="36.012530" lon="128.698737"><ele>1082.1</ele></trkpt>
      <trkpt lat="36.012678" lon="128.698550"><ele>1093.5</ele></trkpt>
      <trkpt lat="36.012669" lon="128.698036"><ele>1114.6</ele></trkpt>
      <trkpt lat="36.012716" lon="128.698061"><ele>1114.4</ele></trkpt>
      <trkpt lat="36.012914" lon="128.697818"><ele>1125.7</ele></trkpt>
      <trkpt lat="36.012906" lon="128.697690"><ele>1126.4</ele></trkpt>
      <trkpt lat="36.012988" lon="128.697616"><ele>1130.0</ele></trkpt>
      <trkpt lat="36.012988" lon="128.697494"><ele>1130.3</ele></trkpt>
      <trkpt lat="36.013303" lon="128.697186"><ele>1136.4</ele></trkpt>
      <trkpt lat="36.013491" lon="128.696782"><ele>1130.0</ele></trkpt>
      <trkpt lat="36.014004" lon="128.696816"><ele>1114.3</ele></trkpt>
      <trkpt lat="36.014112" lon="128.696635"><ele>1112.9</ele></trkpt>
      <trkpt lat="36.014500" lon="128.696610"><ele>1116.0</ele></trkpt>
      <trkpt lat="36.014563" lon="128.696948"><ele>1107.9</ele></trkpt>
      <trkpt lat="36.014815" lon="128.697635"><ele>1085.0</ele></trkpt>
      <trkpt lat="36.014815" lon="128.697984"><ele>1074.0</ele></trkpt>
      <trkpt lat="36.014763" lon="128.698268"><ele>1066.1</ele></trkpt>
      <trkpt lat="36.014658" lon="128.698429"><ele>1064.1</ele></trkpt>
      <trkpt lat="36.014658" lon="128.698665"><ele>1058.1</ele></trkpt>
      <trkpt lat="36.014858" lon="128.699137"><ele>1033.8</ele></trkpt>
      <trkpt lat="36.014841" lon="128.699512"><ele>1018.5</ele></trkpt>
      <trkpt lat="36.014919" lon="128.699765"><ele>1010.3</ele></trkpt>
    </trkseg>
  </trk>
</gpx>
