<?xml version="1.0" encoding="UTF-8"?>
<gpx version="1.1" creator="kr-100-mountains route-harvester"
     xmlns="http://www.topografix.com/GPX/1/1"
     xmlns:k100="https://github.com/jay-jang/kr-100-mountains/ns/1"
     xmlns:xsi="http://www.w3.org/2001/XMLSchema-instance"
     xsi:schemaLocation="http://www.topografix.com/GPX/1/1 http://www.topografix.com/GPX/1/1/gpx.xsd">
  <metadata>
    <name>문암산 · 창촌리-문암재-문암산-석화산-백성동 종주 (OSM 계산 경로)</name>
    <desc>실제 GPS 기록이 아닙니다. OpenStreetMap에 등록된 등산로 선형 위에서 계산한 경로이며, 현장 통제·훼손·출입 제한·계절 통제를 반영하지 않을 수 있습니다. 산행 전 공식 안내를 확인하세요.</desc>
    <time>2026-08-04T05:22:47.244Z</time>
    <link href="https://www.openstreetmap.org/copyright"><text>© OpenStreetMap contributors (ODbL 1.0)</text></link>
    <link href="https://registry.opendata.aws/terrain-tiles/"><text>Elevation: SRTM 1 arc-second (NASA/USGS) via AWS Terrain Tiles</text></link>
    <extensions>
      <k100:provenance>osm-routed</k100:provenance>
      <k100:not_a_recorded_track>true</k100:not_a_recorded_track>
      <k100:mountain_id>munamsan</k100:mountain_id>
      <k100:mountain_name>문암산</k100:mountain_name>
      <k100:route_id>munamsan-bfc2238c</k100:route_id>
      <k100:route_index>1</k100:route_index>
      <k100:route_name>창촌리-문암재-문암산-석화산-백성동 종주</k100:route_name>
      <k100:variant>0</k100:variant>
      <k100:source>OpenStreetMap via Overpass API</k100:source>
      <k100:license>ODbL-1.0</k100:license>
      <k100:attribution>© OpenStreetMap contributors</k100:attribution>
      <k100:elevation_source>SRTM 1 arc-second (NASA/USGS) — AWS Terrain Tiles 배포본. 지형 DEM 추정 고도이며 실측 아님</k100:elevation_source>
      <k100:algorithm>dijkstra-grid-v1</k100:algorithm>
      <k100:osm_snapshot>2026-08-04</k100:osm_snapshot>
      <k100:snap_trailhead_m>20</k100:snap_trailhead_m>
      <k100:snap_summit_m>269</k100:snap_summit_m>
      <k100:validation_score>73</k100:validation_score>
      <k100:validation_status>review</k100:validation_status>
    </extensions>
  </metadata>
  <trk>
    <name>문암산 · 창촌리-문암재-문암산-석화산-백성동 종주 (OSM 계산 경로)</name>
    <desc>실제 GPS 기록이 아닙니다. OpenStreetMap에 등록된 등산로 선형 위에서 계산한 경로이며, 현장 통제·훼손·출입 제한·계절 통제를 반영하지 않을 수 있습니다. 산행 전 공식 안내를 확인하세요.</desc>
    <trkseg>
      <trkpt lat="37.757322" lon="128.386905"><ele>608.9</ele></trkpt>
      <trkpt lat="37.757814" lon="128.387918"><ele>616.7</ele></trkpt>
      <trkpt lat="37.758318" lon="128.388506"><ele>618.6</ele></trkpt>
      <trkpt lat="37.758562" lon="128.388688"><ele>619.9</ele></trkpt>
      <trkpt lat="37.759390" lon="128.389010"><ele>625.4</ele></trkpt>
      <trkpt lat="37.759650" lon="128.389190"><ele>627.2</ele></trkpt>
      <trkpt lat="37.760170" lon="128.389590"><ele>620.1</ele></trkpt>
      <trkpt lat="37.761060" lon="128.390420"><ele>613.4</ele></trkpt>
      <trkpt lat="37.761560" lon="128.391040"><ele>614.4</ele></trkpt>
      <trkpt lat="37.761900" lon="128.391570"><ele>615.6</ele></trkpt>
      <trkpt lat="37.762030" lon="128.391840"><ele>617.8</ele></trkpt>
      <trkpt lat="37.762170" lon="128.392460"><ele>619.1</ele></trkpt>
      <trkpt lat="37.762140" lon="128.393100"><ele>621.4</ele></trkpt>
      <trkpt lat="37.761995" lon="128.393404"><ele>623.1</ele></trkpt>
      <trkpt lat="37.761653" lon="128.393751"><ele>620.0</ele></trkpt>
      <trkpt lat="37.761328" lon="128.393831"><ele>620.4</ele></trkpt>
      <trkpt lat="37.760850" lon="128.393699"><ele>619.6</ele></trkpt>
      <trkpt lat="37.760180" lon="128.393620"><ele>617.9</ele></trkpt>
      <trkpt lat="37.759950" lon="128.393680"><ele>622.1</ele></trkpt>
      <trkpt lat="37.759660" lon="128.393790"><ele>624.5</ele></trkpt>
      <trkpt lat="37.758219" lon="128.394653"><ele>625.7</ele></trkpt>
      <trkpt lat="37.758514" lon="128.395259"><ele>632.8</ele></trkpt>
      <trkpt lat="37.758661" lon="128.395406"><ele>633.3</ele></trkpt>
      <trkpt lat="37.758831" lon="128.395480"><ele>633.2</ele></trkpt>
      <trkpt lat="37.758948" lon="128.395653"><ele>637.8</ele></trkpt>
      <trkpt lat="37.758949" lon="128.395970"><ele>646.0</ele></trkpt>
      <trkpt lat="37.759018" lon="128.396170"><ele>650.9</ele></trkpt>
      <trkpt lat="37.758987" lon="128.396501"><ele>653.1</ele></trkpt>
      <trkpt lat="37.758786" lon="128.397148"><ele>659.9</ele></trkpt>
      <trkpt lat="37.758714" lon="128.397624"><ele>664.0</ele></trkpt>
      <trkpt lat="37.758463" lon="128.398164"><ele>668.9</ele></trkpt>
      <trkpt lat="37.758252" lon="128.398867"><ele>674.9</ele></trkpt>
      <trkpt lat="37.758265" lon="128.399093"><ele>678.4</ele></trkpt>
      <trkpt lat="37.758539" lon="128.399510"><ele>680.9</ele></trkpt>
      <trkpt lat="37.758710" lon="128.399567"><ele>683.1</ele></trkpt>
      <trkpt lat="37.758801" lon="128.400136"><ele>691.0</ele></trkpt>
      <trkpt lat="37.758870" lon="128.400334"><ele>694.6</ele></trkpt>
      <trkpt lat="37.759589" lon="128.401107"><ele>709.5</ele></trkpt>
      <trkpt lat="37.760200" lon="128.401896"><ele>729.1</ele></trkpt>
      <trkpt lat="37.760465" lon="128.402277"><ele>736.0</ele></trkpt>
      <trkpt lat="37.760728" lon="128.402777"><ele>745.0</ele></trkpt>
      <trkpt lat="37.761183" lon="128.403206"><ele>760.6</ele></trkpt>
      <trkpt lat="37.760658" lon="128.403138"><ele>756.2</ele></trkpt>
      <trkpt lat="37.760257" lon="128.403456"><ele>766.6</ele></trkpt>
      <trkpt lat="37.760230" lon="128.403555"><ele>768.9</ele></trkpt>
      <trkpt lat="37.760331" lon="128.403834"><ele>771.3</ele></trkpt>
      <trkpt lat="37.760461" lon="128.404038"><ele>774.0</ele></trkpt>
      <trkpt lat="37.760409" lon="128.404442"><ele>780.4</ele></trkpt>
      <trkpt lat="37.760283" lon="128.404495"><ele>781.1</ele></trkpt>
      <trkpt lat="37.759688" lon="128.404451"><ele>795.2</ele></trkpt>
      <trkpt lat="37.759480" lon="128.404542"><ele>797.2</ele></trkpt>
      <trkpt lat="37.759350" lon="128.404975"><ele>798.9</ele></trkpt>
      <trkpt lat="37.759412" lon="128.405482"><ele>801.4</ele></trkpt>
      <trkpt lat="37.759286" lon="128.405677"><ele>798.3</ele></trkpt>
      <trkpt lat="37.758919" lon="128.405936"><ele>796.3</ele></trkpt>
      <trkpt lat="37.758769" lon="128.406329"><ele>791.9</ele></trkpt>
      <trkpt lat="37.758446" lon="128.406378"><ele>798.0</ele></trkpt>
      <trkpt lat="37.758199" lon="128.406730"><ele>794.7</ele></trkpt>
      <trkpt lat="37.757832" lon="128.406791"><ele>797.4</ele></trkpt>
      <trkpt lat="37.757768" lon="128.406942"><ele>796.3</ele></trkpt>
      <trkpt lat="37.757848" lon="128.407350"><ele>787.4</ele></trkpt>
      <trkpt lat="37.757949" lon="128.407513"><ele>781.9</ele></trkpt>
      <trkpt lat="37.758133" lon="128.407645"><ele>774.0</ele></trkpt>
      <trkpt lat="37.758400" lon="128.407664"><ele>768.1</ele></trkpt>
      <trkpt lat="37.758580" lon="128.407589"><ele>767.5</ele></trkpt>
      <trkpt lat="37.758730" lon="128.407362"><ele>772.0</ele></trkpt>
      <trkpt lat="37.758774" lon="128.406971"><ele>781.3</ele></trkpt>
      <trkpt lat="37.758925" lon="128.406945"><ele>777.5</ele></trkpt>
      <trkpt lat="37.759038" lon="128.407022"><ele>772.2</ele></trkpt>
      <trkpt lat="37.759104" lon="128.407216"><ele>767.9</ele></trkpt>
      <trkpt lat="37.758993" lon="128.407590"><ele>762.1</ele></trkpt>
      <trkpt lat="37.759011" lon="128.407939"><ele>753.9</ele></trkpt>
      <trkpt lat="37.758907" lon="128.408249"><ele>747.2</ele></trkpt>
      <trkpt lat="37.758409" lon="128.408987"><ele>733.8</ele></trkpt>
      <trkpt lat="37.758395" lon="128.409559"><ele>719.0</ele></trkpt>
      <trkpt lat="37.758440" lon="128.409684"><ele>716.8</ele></trkpt>
      <trkpt lat="37.758604" lon="128.410089"><ele>706.2</ele></trkpt>
      <trkpt lat="37.758696" lon="128.410201"><ele>703.5</ele></trkpt>
      <trkpt lat="37.758883" lon="128.410269"><ele>697.5</ele></trkpt>
      <trkpt lat="37.759459" lon="128.410710"><ele>692.2</ele></trkpt>
      <trkpt lat="37.760457" lon="128.411318"><ele>668.1</ele></trkpt>
      <trkpt lat="37.760730" lon="128.411740"><ele>653.0</ele></trkpt>
      <trkpt lat="37.760880" lon="128.412161"><ele>646.6</ele></trkpt>
      <trkpt lat="37.761104" lon="128.412296"><ele>645.5</ele></trkpt>
      <trkpt lat="37.760553" lon="128.413569"><ele>648.5</ele></trkpt>
      <trkpt lat="37.760329" lon="128.414193"><ele>646.5</ele></trkpt>
      <trkpt lat="37.760100" lon="128.414627"><ele>650.9</ele></trkpt>
      <trkpt lat="37.759748" lon="128.416117"><ele>653.0</ele></trkpt>
      <trkpt lat="37.759347" lon="128.417290"><ele>653.6</ele></trkpt>
      <trkpt lat="37.759155" lon="128.417628"><ele>656.3</ele></trkpt>
      <trkpt lat="37.759212" lon="128.417827"><ele>657.4</ele></trkpt>
      <trkpt lat="37.758884" lon="128.418367"><ele>660.1</ele></trkpt>
      <trkpt lat="37.758747" lon="128.419165"><ele>661.5</ele></trkpt>
      <trkpt lat="37.759481" lon="128.419998"><ele>682.9</ele></trkpt>
      <trkpt lat="37.759786" lon="128.420203"><ele>689.7</ele></trkpt>
      <trkpt lat="37.759967" lon="128.420397"><ele>695.9</ele></trkpt>
      <trkpt lat="37.759985" lon="128.420490"><ele>695.9</ele></trkpt>
      <trkpt lat="37.759812" lon="128.420543"><ele>689.9</ele></trkpt>
      <trkpt lat="37.759785" lon="128.420659"><ele>690.9</ele></trkpt>
      <trkpt lat="37.759990" lon="128.420811"><ele>696.8</ele></trkpt>
      <trkpt lat="37.760472" lon="128.421312"><ele>710.2</ele></trkpt>
      <trkpt lat="37.760845" lon="128.421824"><ele>720.9</ele></trkpt>
      <trkpt lat="37.761026" lon="128.421963"><ele>725.6</ele></trkpt>
      <trkpt lat="37.761134" lon="128.421975"><ele>727.5</ele></trkpt>
      <trkpt lat="37.761536" lon="128.421785"><ele>732.7</ele></trkpt>
      <trkpt lat="37.762020" lon="128.422034"><ele>746.3</ele></trkpt>
      <trkpt lat="37.762345" lon="128.422098"><ele>757.8</ele></trkpt>
      <trkpt lat="37.762832" lon="128.422448"><ele>769.2</ele></trkpt>
      <trkpt lat="37.763323" lon="128.423263"><ele>779.5</ele></trkpt>
      <trkpt lat="37.763677" lon="128.423534"><ele>792.4</ele></trkpt>
      <trkpt lat="37.763960" lon="128.423555"><ele>803.0</ele></trkpt>
      <trkpt lat="37.764394" lon="128.423751"><ele>814.2</ele></trkpt>
      <trkpt lat="37.765000" lon="128.423838"><ele>832.5</ele></trkpt>
      <trkpt lat="37.765041" lon="128.423884"><ele>832.8</ele></trkpt>
      <trkpt lat="37.765217" lon="128.423788"><ele>842.5</ele></trkpt>
      <trkpt lat="37.765424" lon="128.423804"><ele>850.5</ele></trkpt>
      <trkpt lat="37.765533" lon="128.423935"><ele>851.6</ele></trkpt>
      <trkpt lat="37.765522" lon="128.424052"><ele>849.8</ele></trkpt>
      <trkpt lat="37.765595" lon="128.424220"><ele>851.1</ele></trkpt>
      <trkpt lat="37.766014" lon="128.424572"><ele>869.2</ele></trkpt>
      <trkpt lat="37.766241" lon="128.424673"><ele>880.5</ele></trkpt>
      <trkpt lat="37.766238" lon="128.424816"><ele>881.1</ele></trkpt>
      <trkpt lat="37.766566" lon="128.424996"><ele>884.8</ele></trkpt>
      <trkpt lat="37.767206" lon="128.424982"><ele>876.8</ele></trkpt>
      <trkpt lat="37.767551" lon="128.425045"><ele>864.4</ele></trkpt>
      <trkpt lat="37.767704" lon="128.424882"><ele>866.1</ele></trkpt>
      <trkpt lat="37.767831" lon="128.424934"><ele>863.3</ele></trkpt>
      <trkpt lat="37.767876" lon="128.425124"><ele>857.6</ele></trkpt>
      <trkpt lat="37.767957" lon="128.425182"><ele>856.0</ele></trkpt>
      <trkpt lat="37.768344" lon="128.425273"><ele>857.1</ele></trkpt>
      <trkpt lat="37.768615" lon="128.425224"><ele>858.0</ele></trkpt>
      <trkpt lat="37.768727" lon="128.425259"><ele>854.1</ele></trkpt>
      <trkpt lat="37.768840" lon="128.425165"><ele>853.8</ele></trkpt>
      <trkpt lat="37.768945" lon="128.424980"><ele>856.3</ele></trkpt>
      <trkpt lat="37.769181" lon="128.425026"><ele>855.4</ele></trkpt>
      <trkpt lat="37.769239" lon="128.425306"><ele>847.0</ele></trkpt>
      <trkpt lat="37.769195" lon="128.425454"><ele>840.4</ele></trkpt>
      <trkpt lat="37.769366" lon="128.426054"><ele>815.3</ele></trkpt>
      <trkpt lat="37.769498" lon="128.426188"><ele>811.2</ele></trkpt>
      <trkpt lat="37.769715" lon="128.426301"><ele>807.7</ele></trkpt>
      <trkpt lat="37.770057" lon="128.426675"><ele>803.1</ele></trkpt>
      <trkpt lat="37.770609" lon="128.427048"><ele>792.3</ele></trkpt>
      <trkpt lat="37.770712" lon="128.427063"><ele>790.3</ele></trkpt>
      <trkpt lat="37.771244" lon="128.426908"><ele>782.1</ele></trkpt>
      <trkpt lat="37.771708" lon="128.427337"><ele>772.5</ele></trkpt>
      <trkpt lat="37.772225" lon="128.427551"><ele>765.3</ele></trkpt>
      <trkpt lat="37.772483" lon="128.427924"><ele>758.7</ele></trkpt>
      <trkpt lat="37.772471" lon="128.428246"><ele>756.5</ele></trkpt>
      <trkpt lat="37.772512" lon="128.428348"><ele>754.8</ele></trkpt>
      <trkpt lat="37.772813" lon="128.428472"><ele>749.3</ele></trkpt>
      <trkpt lat="37.773339" lon="128.428802"><ele>745.9</ele></trkpt>
      <trkpt lat="37.773623" lon="128.428773"><ele>742.1</ele></trkpt>
      <trkpt lat="37.773827" lon="128.428817"><ele>738.3</ele></trkpt>
      <trkpt lat="37.774000" lon="128.428946"><ele>734.2</ele></trkpt>
      <trkpt lat="37.774464" lon="128.429608"><ele>735.6</ele></trkpt>
      <trkpt lat="37.774569" lon="128.429685"><ele>735.2</ele></trkpt>
      <trkpt lat="37.775179" lon="128.429920"><ele>726.7</ele></trkpt>
      <trkpt lat="37.775787" lon="128.429866"><ele>716.8</ele></trkpt>
      <trkpt lat="37.776340" lon="128.429998"><ele>712.3</ele></trkpt>
      <trkpt lat="37.776433" lon="128.430035"><ele>712.3</ele></trkpt>
      <trkpt lat="37.776609" lon="128.430339"><ele>713.4</ele></trkpt>
      <trkpt lat="37.776720" lon="128.430427"><ele>710.7</ele></trkpt>
      <trkpt lat="37.777547" lon="128.430690"><ele>693.8</ele></trkpt>
      <trkpt lat="37.777856" lon="128.430871"><ele>690.1</ele></trkpt>
      <trkpt lat="37.778350" lon="128.431266"><ele>686.7</ele></trkpt>
      <trkpt lat="37.778793" lon="128.431543"><ele>686.3</ele></trkpt>
      <trkpt lat="37.779040" lon="128.432013"><ele>685.1</ele></trkpt>
      <trkpt lat="37.779771" lon="128.432850"><ele>677.6</ele></trkpt>
      <trkpt lat="37.780480" lon="128.433108"><ele>664.3</ele></trkpt>
      <trkpt lat="37.780600" lon="128.433207"><ele>664.7</ele></trkpt>
      <trkpt lat="37.780590" lon="128.433662"><ele>664.2</ele></trkpt>
      <trkpt lat="37.780893" lon="128.433702"><ele>661.0</ele></trkpt>
      <trkpt lat="37.781291" lon="128.433661"><ele>661.3</ele></trkpt>
      <trkpt lat="37.781850" lon="128.433517"><ele>660.7</ele></trkpt>
      <trkpt lat="37.782593" lon="128.433435"><ele>659.9</ele></trkpt>
      <trkpt lat="37.782774" lon="128.433459"><ele>661.3</ele></trkpt>
      <trkpt lat="37.783756" lon="128.433253"><ele>657.2</ele></trkpt>
      <trkpt lat="37.784837" lon="128.433256"><ele>661.1</ele></trkpt>
      <trkpt lat="37.785030" lon="128.433167"><ele>660.2</ele></trkpt>
      <trkpt lat="37.785409" lon="128.432539"><ele>652.7</ele></trkpt>
      <trkpt lat="37.785621" lon="128.432303"><ele>649.5</ele></trkpt>
      <trkpt lat="37.786260" lon="128.431788"><ele>647.7</ele></trkpt>
      <trkpt lat="37.786984" lon="128.430951"><ele>642.2</ele></trkpt>
      <trkpt lat="37.787686" lon="128.430303"><ele>653.2</ele></trkpt>
      <trkpt lat="37.787873" lon="128.430193"><ele>649.4</ele></trkpt>
      <trkpt lat="37.788318" lon="128.430080"><ele>637.5</ele></trkpt>
      <trkpt lat="37.788969" lon="128.430107"><ele>637.0</ele></trkpt>
      <trkpt lat="37.789187" lon="128.429779"><ele>642.1</ele></trkpt>
      <trkpt lat="37.789338" lon="128.429632"><ele>648.1</ele></trkpt>
      <trkpt lat="37.789526" lon="128.429551"><ele>650.3</ele></trkpt>
      <trkpt lat="37.790171" lon="128.429370"><ele>647.6</ele></trkpt>
      <trkpt lat="37.791849" lon="128.429093"><ele>631.7</ele></trkpt>
      <trkpt lat="37.792457" lon="128.428658"><ele>640.8</ele></trkpt>
      <trkpt lat="37.793749" lon="128.427663"><ele>645.6</ele></trkpt>
      <trkpt lat="37.794118" lon="128.427289"><ele>635.2</ele></trkpt>
      <trkpt lat="37.794717" lon="128.426853"><ele>636.8</ele></trkpt>
      <trkpt lat="37.794817" lon="128.426685"><ele>633.4</ele></trkpt>
      <trkpt lat="37.794834" lon="128.426462"><ele>631.6</ele></trkpt>
      <trkpt lat="37.794723" lon="128.425911"><ele>635.9</ele></trkpt>
      <trkpt lat="37.794958" lon="128.426034"><ele>642.6</ele></trkpt>
      <trkpt lat="37.795137" lon="128.426353"><ele>643.0</ele></trkpt>
      <trkpt lat="37.795158" lon="128.426499"><ele>643.1</ele></trkpt>
      <trkpt lat="37.795137" lon="128.426790"><ele>643.8</ele></trkpt>
      <trkpt lat="37.794692" lon="128.427209"><ele>640.4</ele></trkpt>
      <trkpt lat="37.794631" lon="128.427343"><ele>638.8</ele></trkpt>
      <trkpt lat="37.794727" lon="128.427718"><ele>641.1</ele></trkpt>
      <trkpt lat="37.794819" lon="128.428588"><ele>639.0</ele></trkpt>
      <trkpt lat="37.794874" lon="128.428745"><ele>641.0</ele></trkpt>
      <trkpt lat="37.795232" lon="128.428983"><ele>645.0</ele></trkpt>
      <trkpt lat="37.795471" lon="128.428933"><ele>654.3</ele></trkpt>
      <trkpt lat="37.795569" lon="128.428998"><ele>657.0</ele></trkpt>
      <trkpt lat="37.795656" lon="128.429184"><ele>653.6</ele></trkpt>
      <trkpt lat="37.795828" lon="128.429330"><ele>656.2</ele></trkpt>
      <trkpt lat="37.795860" lon="128.429451"><ele>655.8</ele></trkpt>
      <trkpt lat="37.796022" lon="128.429640"><ele>659.4</ele></trkpt>
      <trkpt lat="37.796065" lon="128.429607"><ele>660.4</ele></trkpt>
      <trkpt lat="37.796315" lon="128.429860"><ele>661.6</ele></trkpt>
      <trkpt lat="37.796481" lon="128.429912"><ele>664.4</ele></trkpt>
      <trkpt lat="37.796632" lon="128.430083"><ele>666.8</ele></trkpt>
    </trkseg>
  </trk>
</gpx>
