<?xml version="1.0" encoding="UTF-8"?>
<gpx version="1.1" creator="kr-100-mountains route-harvester"
     xmlns="http://www.topografix.com/GPX/1/1"
     xmlns:k100="https://github.com/jay-jang/kr-100-mountains/ns/1"
     xmlns:xsi="http://www.w3.org/2001/XMLSchema-instance"
     xsi:schemaLocation="http://www.topografix.com/GPX/1/1 http://www.topografix.com/GPX/1/1/gpx.xsd">
  <metadata>
    <name>토함산 · 불국사-석굴암-토함산 정상 코스 (대안 1) (OSM 계산 경로)</name>
    <desc>실제 GPS 기록이 아닙니다. OpenStreetMap에 등록된 등산로 선형 위에서 계산한 경로이며, 현장 통제·훼손·출입 제한·계절 통제를 반영하지 않을 수 있습니다. 산행 전 공식 안내를 확인하세요.</desc>
    <time>2026-08-04T05:46:48.675Z</time>
    <link href="https://www.openstreetmap.org/copyright"><text>© OpenStreetMap contributors (ODbL 1.0)</text></link>
    <link href="https://registry.opendata.aws/terrain-tiles/"><text>Elevation: SRTM 1 arc-second (NASA/USGS) via AWS Terrain Tiles</text></link>
    <extensions>
      <k100:provenance>osm-routed</k100:provenance>
      <k100:not_a_recorded_track>true</k100:not_a_recorded_track>
      <k100:mountain_id>tohamsan</k100:mountain_id>
      <k100:mountain_name>토함산</k100:mountain_name>
      <k100:route_id>tohamsan-28714443</k100:route_id>
      <k100:route_index>2</k100:route_index>
      <k100:route_name>불국사-석굴암-토함산 정상 코스</k100:route_name>
      <k100:variant>1</k100:variant>
      <k100:source>OpenStreetMap via Overpass API</k100:source>
      <k100:license>ODbL-1.0</k100:license>
      <k100:attribution>© OpenStreetMap contributors</k100:attribution>
      <k100:elevation_source>SRTM 1 arc-second (NASA/USGS) — AWS Terrain Tiles 배포본. 지형 DEM 추정 고도이며 실측 아님</k100:elevation_source>
      <k100:algorithm>dijkstra-grid-v1</k100:algorithm>
      <k100:osm_snapshot>2026-08-04</k100:osm_snapshot>
      <k100:snap_trailhead_m>11</k100:snap_trailhead_m>
      <k100:snap_summit_m>8</k100:snap_summit_m>
      <k100:validation_score>84</k100:validation_score>
      <k100:validation_status>accepted</k100:validation_status>
    </extensions>
  </metadata>
  <trk>
    <name>토함산 · 불국사-석굴암-토함산 정상 코스 (대안 1) (OSM 계산 경로)</name>
    <desc>실제 GPS 기록이 아닙니다. OpenStreetMap에 등록된 등산로 선형 위에서 계산한 경로이며, 현장 통제·훼손·출입 제한·계절 통제를 반영하지 않을 수 있습니다. 산행 전 공식 안내를 확인하세요.</desc>
    <trkseg>
      <trkpt lat="35.789882" lon="129.331736"><ele>243.3</ele></trkpt>
      <trkpt lat="35.789852" lon="129.331492"><ele>242.6</ele></trkpt>
      <trkpt lat="35.790051" lon="129.331453"><ele>244.4</ele></trkpt>
      <trkpt lat="35.789963" lon="129.331325"><ele>243.6</ele></trkpt>
      <trkpt lat="35.789606" lon="129.331400"><ele>239.8</ele></trkpt>
      <trkpt lat="35.789617" lon="129.331199"><ele>239.9</ele></trkpt>
      <trkpt lat="35.789207" lon="129.331347"><ele>234.6</ele></trkpt>
      <trkpt lat="35.789018" lon="129.331261"><ele>233.0</ele></trkpt>
      <trkpt lat="35.788756" lon="129.330378"><ele>226.7</ele></trkpt>
      <trkpt lat="35.788774" lon="129.330213"><ele>226.2</ele></trkpt>
      <trkpt lat="35.788960" lon="129.329939"><ele>225.0</ele></trkpt>
      <trkpt lat="35.788969" lon="129.329763"><ele>223.5</ele></trkpt>
      <trkpt lat="35.788838" lon="129.329253"><ele>219.2</ele></trkpt>
      <trkpt lat="35.788701" lon="129.328971"><ele>215.2</ele></trkpt>
      <trkpt lat="35.788528" lon="129.328827"><ele>211.1</ele></trkpt>
      <trkpt lat="35.788323" lon="129.328417"><ele>205.2</ele></trkpt>
      <trkpt lat="35.787565" lon="129.326693"><ele>196.1</ele></trkpt>
      <trkpt lat="35.787312" lon="129.327011"><ele>192.6</ele></trkpt>
      <trkpt lat="35.787255" lon="129.326942"><ele>191.6</ele></trkpt>
      <trkpt lat="35.787458" lon="129.326647"><ele>194.1</ele></trkpt>
      <trkpt lat="35.787467" lon="129.326541"><ele>193.6</ele></trkpt>
      <trkpt lat="35.786858" lon="129.324367"><ele>180.9</ele></trkpt>
      <trkpt lat="35.787470" lon="129.323594"><ele>178.8</ele></trkpt>
      <trkpt lat="35.787496" lon="129.323313"><ele>177.0</ele></trkpt>
      <trkpt lat="35.787405" lon="129.322806"><ele>175.0</ele></trkpt>
      <trkpt lat="35.787440" lon="129.322613"><ele>177.2</ele></trkpt>
      <trkpt lat="35.787762" lon="129.322487"><ele>182.0</ele></trkpt>
      <trkpt lat="35.788275" lon="129.322572"><ele>179.4</ele></trkpt>
      <trkpt lat="35.788427" lon="129.322546"><ele>177.9</ele></trkpt>
      <trkpt lat="35.788691" lon="129.322323"><ele>172.0</ele></trkpt>
      <trkpt lat="35.788819" lon="129.321951"><ele>166.8</ele></trkpt>
      <trkpt lat="35.788526" lon="129.320868"><ele>163.6</ele></trkpt>
      <trkpt lat="35.788422" lon="129.319875"><ele>156.1</ele></trkpt>
      <trkpt lat="35.788220" lon="129.319623"><ele>155.0</ele></trkpt>
      <trkpt lat="35.787813" lon="129.319304"><ele>153.8</ele></trkpt>
      <trkpt lat="35.787480" lon="129.318882"><ele>153.3</ele></trkpt>
      <trkpt lat="35.787702" lon="129.318829"><ele>149.3</ele></trkpt>
      <trkpt lat="35.788067" lon="129.319100"><ele>150.8</ele></trkpt>
      <trkpt lat="35.788518" lon="129.319704"><ele>155.0</ele></trkpt>
      <trkpt lat="35.788683" lon="129.320388"><ele>160.9</ele></trkpt>
      <trkpt lat="35.788878" lon="129.320547"><ele>162.9</ele></trkpt>
      <trkpt lat="35.789146" lon="129.321240"><ele>164.9</ele></trkpt>
      <trkpt lat="35.789105" lon="129.321568"><ele>164.4</ele></trkpt>
      <trkpt lat="35.788994" lon="129.321927"><ele>165.5</ele></trkpt>
      <trkpt lat="35.789276" lon="129.322720"><ele>172.5</ele></trkpt>
      <trkpt lat="35.789362" lon="129.322811"><ele>172.6</ele></trkpt>
      <trkpt lat="35.789759" lon="129.323019"><ele>172.1</ele></trkpt>
      <trkpt lat="35.790007" lon="129.323278"><ele>175.6</ele></trkpt>
      <trkpt lat="35.790479" lon="129.323206"><ele>177.9</ele></trkpt>
      <trkpt lat="35.790656" lon="129.323097"><ele>180.3</ele></trkpt>
      <trkpt lat="35.790867" lon="129.323097"><ele>184.3</ele></trkpt>
      <trkpt lat="35.791011" lon="129.323193"><ele>186.2</ele></trkpt>
      <trkpt lat="35.791438" lon="129.323778"><ele>194.4</ele></trkpt>
      <trkpt lat="35.791642" lon="129.324349"><ele>200.6</ele></trkpt>
      <trkpt lat="35.791701" lon="129.324607"><ele>202.4</ele></trkpt>
      <trkpt lat="35.791729" lon="129.325079"><ele>206.4</ele></trkpt>
      <trkpt lat="35.791942" lon="129.325580"><ele>217.2</ele></trkpt>
      <trkpt lat="35.792053" lon="129.326213"><ele>225.4</ele></trkpt>
      <trkpt lat="35.792129" lon="129.326412"><ele>228.2</ele></trkpt>
      <trkpt lat="35.792808" lon="129.327359"><ele>233.8</ele></trkpt>
      <trkpt lat="35.793143" lon="129.327740"><ele>238.9</ele></trkpt>
      <trkpt lat="35.793293" lon="129.327828"><ele>240.2</ele></trkpt>
      <trkpt lat="35.793456" lon="129.328045"><ele>242.1</ele></trkpt>
      <trkpt lat="35.793626" lon="129.328110"><ele>245.6</ele></trkpt>
      <trkpt lat="35.793841" lon="129.328289"><ele>250.2</ele></trkpt>
      <trkpt lat="35.794370" lon="129.329212"><ele>268.9</ele></trkpt>
      <trkpt lat="35.794786" lon="129.330057"><ele>276.9</ele></trkpt>
      <trkpt lat="35.794910" lon="129.330355"><ele>280.3</ele></trkpt>
      <trkpt lat="35.795095" lon="129.331122"><ele>280.3</ele></trkpt>
      <trkpt lat="35.795114" lon="129.331283"><ele>279.8</ele></trkpt>
      <trkpt lat="35.795029" lon="129.332039"><ele>288.8</ele></trkpt>
      <trkpt lat="35.795210" lon="129.332506"><ele>292.8</ele></trkpt>
      <trkpt lat="35.795264" lon="129.332999"><ele>295.8</ele></trkpt>
      <trkpt lat="35.795397" lon="129.333340"><ele>298.5</ele></trkpt>
      <trkpt lat="35.795454" lon="129.333718"><ele>303.5</ele></trkpt>
      <trkpt lat="35.795443" lon="129.335040"><ele>326.2</ele></trkpt>
      <trkpt lat="35.795282" lon="129.335564"><ele>341.0</ele></trkpt>
      <trkpt lat="35.795225" lon="129.336148"><ele>348.5</ele></trkpt>
      <trkpt lat="35.795441" lon="129.336784"><ele>356.7</ele></trkpt>
      <trkpt lat="35.795391" lon="129.337468"><ele>361.8</ele></trkpt>
      <trkpt lat="35.795430" lon="129.337623"><ele>363.5</ele></trkpt>
      <trkpt lat="35.795743" lon="129.338020"><ele>369.4</ele></trkpt>
      <trkpt lat="35.796061" lon="129.338683"><ele>375.4</ele></trkpt>
      <trkpt lat="35.796326" lon="129.339115"><ele>388.2</ele></trkpt>
      <trkpt lat="35.796835" lon="129.339313"><ele>412.5</ele></trkpt>
      <trkpt lat="35.797433" lon="129.339420"><ele>428.7</ele></trkpt>
      <trkpt lat="35.797673" lon="129.339689"><ele>437.5</ele></trkpt>
      <trkpt lat="35.797777" lon="129.339852"><ele>444.1</ele></trkpt>
      <trkpt lat="35.797914" lon="129.340260"><ele>457.9</ele></trkpt>
      <trkpt lat="35.797925" lon="129.340451"><ele>464.5</ele></trkpt>
      <trkpt lat="35.797868" lon="129.340719"><ele>471.4</ele></trkpt>
      <trkpt lat="35.797927" lon="129.341030"><ele>485.4</ele></trkpt>
      <trkpt lat="35.798312" lon="129.341969"><ele>541.8</ele></trkpt>
      <trkpt lat="35.798515" lon="129.342159"><ele>557.1</ele></trkpt>
      <trkpt lat="35.799254" lon="129.342336"><ele>590.8</ele></trkpt>
      <trkpt lat="35.799678" lon="129.342513"><ele>608.2</ele></trkpt>
      <trkpt lat="35.800246" lon="129.343205"><ele>644.1</ele></trkpt>
      <trkpt lat="35.801043" lon="129.344321"><ele>699.1</ele></trkpt>
      <trkpt lat="35.801169" lon="129.344747"><ele>717.0</ele></trkpt>
      <trkpt lat="35.801410" lon="129.344965"><ele>731.0</ele></trkpt>
      <trkpt lat="35.801790" lon="129.345124"><ele>738.5</ele></trkpt>
    </trkseg>
  </trk>
</gpx>
