<?xml version="1.0" encoding="UTF-8"?>
<gpx version="1.1" creator="kr-100-mountains route-harvester"
     xmlns="http://www.topografix.com/GPX/1/1"
     xmlns:k100="https://github.com/jay-jang/kr-100-mountains/ns/1"
     xmlns:xsi="http://www.w3.org/2001/XMLSchema-instance"
     xsi:schemaLocation="http://www.topografix.com/GPX/1/1 http://www.topografix.com/GPX/1/1/gpx.xsd">
  <metadata>
    <name>신무산 · 뜬봉샘생태공원 순환코스 (대안 1) (OSM 계산 경로)</name>
    <desc>실제 GPS 기록이 아닙니다. OpenStreetMap에 등록된 등산로 선형 위에서 계산한 경로이며, 현장 통제·훼손·출입 제한·계절 통제를 반영하지 않을 수 있습니다. 산행 전 공식 안내를 확인하세요.</desc>
    <time>2026-08-04T05:31:48.719Z</time>
    <link href="https://www.openstreetmap.org/copyright"><text>© OpenStreetMap contributors (ODbL 1.0)</text></link>
    <link href="https://registry.opendata.aws/terrain-tiles/"><text>Elevation: SRTM 1 arc-second (NASA/USGS) via AWS Terrain Tiles</text></link>
    <extensions>
      <k100:provenance>osm-routed</k100:provenance>
      <k100:not_a_recorded_track>true</k100:not_a_recorded_track>
      <k100:mountain_id>sinmusan</k100:mountain_id>
      <k100:mountain_name>신무산</k100:mountain_name>
      <k100:route_id>sinmusan-bca666b8</k100:route_id>
      <k100:route_index>1</k100:route_index>
      <k100:route_name>뜬봉샘생태공원 순환코스</k100:route_name>
      <k100:variant>1</k100:variant>
      <k100:source>OpenStreetMap via Overpass API</k100:source>
      <k100:license>ODbL-1.0</k100:license>
      <k100:attribution>© OpenStreetMap contributors</k100:attribution>
      <k100:elevation_source>SRTM 1 arc-second (NASA/USGS) — AWS Terrain Tiles 배포본. 지형 DEM 추정 고도이며 실측 아님</k100:elevation_source>
      <k100:algorithm>dijkstra-grid-v1</k100:algorithm>
      <k100:osm_snapshot>2026-08-04</k100:osm_snapshot>
      <k100:snap_trailhead_m>32</k100:snap_trailhead_m>
      <k100:snap_summit_m>147</k100:snap_summit_m>
      <k100:validation_score>73</k100:validation_score>
      <k100:validation_status>review</k100:validation_status>
    </extensions>
  </metadata>
  <trk>
    <name>신무산 · 뜬봉샘생태공원 순환코스 (대안 1) (OSM 계산 경로)</name>
    <desc>실제 GPS 기록이 아닙니다. OpenStreetMap에 등록된 등산로 선형 위에서 계산한 경로이며, 현장 통제·훼손·출입 제한·계절 통제를 반영하지 않을 수 있습니다. 산행 전 공식 안내를 확인하세요.</desc>
    <trkseg>
      <trkpt lat="35.592051" lon="127.501073"><ele>561.1</ele></trkpt>
      <trkpt lat="35.591895" lon="127.501192"><ele>559.4</ele></trkpt>
      <trkpt lat="35.591682" lon="127.501536"><ele>555.8</ele></trkpt>
      <trkpt lat="35.591570" lon="127.501578"><ele>552.5</ele></trkpt>
      <trkpt lat="35.591219" lon="127.501379"><ele>546.2</ele></trkpt>
      <trkpt lat="35.591285" lon="127.500954"><ele>548.9</ele></trkpt>
      <trkpt lat="35.591366" lon="127.500742"><ele>550.6</ele></trkpt>
      <trkpt lat="35.591358" lon="127.500575"><ele>551.9</ele></trkpt>
      <trkpt lat="35.591214" lon="127.500399"><ele>553.7</ele></trkpt>
      <trkpt lat="35.591284" lon="127.500084"><ele>556.7</ele></trkpt>
      <trkpt lat="35.591082" lon="127.499959"><ele>558.6</ele></trkpt>
      <trkpt lat="35.591186" lon="127.499740"><ele>560.8</ele></trkpt>
      <trkpt lat="35.590766" lon="127.499430"><ele>570.5</ele></trkpt>
      <trkpt lat="35.590703" lon="127.499323"><ele>574.8</ele></trkpt>
      <trkpt lat="35.590234" lon="127.499337"><ele>577.5</ele></trkpt>
      <trkpt lat="35.589904" lon="127.499193"><ele>585.1</ele></trkpt>
      <trkpt lat="35.589774" lon="127.499025"><ele>591.2</ele></trkpt>
      <trkpt lat="35.589664" lon="127.499109"><ele>591.5</ele></trkpt>
      <trkpt lat="35.589550" lon="127.499357"><ele>589.2</ele></trkpt>
      <trkpt lat="35.589278" lon="127.498957"><ele>600.3</ele></trkpt>
      <trkpt lat="35.589411" lon="127.498529"><ele>608.4</ele></trkpt>
      <trkpt lat="35.589444" lon="127.497636"><ele>629.6</ele></trkpt>
      <trkpt lat="35.589547" lon="127.497322"><ele>642.4</ele></trkpt>
      <trkpt lat="35.589503" lon="127.496979"><ele>655.0</ele></trkpt>
      <trkpt lat="35.589565" lon="127.496687"><ele>663.5</ele></trkpt>
      <trkpt lat="35.589608" lon="127.495942"><ele>688.6</ele></trkpt>
      <trkpt lat="35.589519" lon="127.495618"><ele>699.7</ele></trkpt>
      <trkpt lat="35.589562" lon="127.495514"><ele>703.2</ele></trkpt>
      <trkpt lat="35.589520" lon="127.495415"><ele>707.1</ele></trkpt>
      <trkpt lat="35.588778" lon="127.495081"><ele>710.9</ele></trkpt>
      <trkpt lat="35.588314" lon="127.494642"><ele>709.4</ele></trkpt>
      <trkpt lat="35.588198" lon="127.494387"><ele>709.5</ele></trkpt>
      <trkpt lat="35.587953" lon="127.493275"><ele>718.5</ele></trkpt>
      <trkpt lat="35.587842" lon="127.492541"><ele>722.3</ele></trkpt>
      <trkpt lat="35.587810" lon="127.492421"><ele>723.6</ele></trkpt>
      <trkpt lat="35.587738" lon="127.492352"><ele>723.4</ele></trkpt>
      <trkpt lat="35.587426" lon="127.492171"><ele>722.3</ele></trkpt>
      <trkpt lat="35.587142" lon="127.492146"><ele>719.9</ele></trkpt>
      <trkpt lat="35.586091" lon="127.492273"><ele>713.1</ele></trkpt>
      <trkpt lat="35.585821" lon="127.492366"><ele>708.0</ele></trkpt>
      <trkpt lat="35.585616" lon="127.492506"><ele>699.8</ele></trkpt>
      <trkpt lat="35.585616" lon="127.492744"><ele>696.9</ele></trkpt>
      <trkpt lat="35.585547" lon="127.492975"><ele>694.5</ele></trkpt>
      <trkpt lat="35.585383" lon="127.493004"><ele>692.1</ele></trkpt>
      <trkpt lat="35.584950" lon="127.492865"><ele>690.8</ele></trkpt>
      <trkpt lat="35.584267" lon="127.492811"><ele>697.5</ele></trkpt>
      <trkpt lat="35.583968" lon="127.493073"><ele>700.3</ele></trkpt>
      <trkpt lat="35.583861" lon="127.493112"><ele>700.6</ele></trkpt>
      <trkpt lat="35.583707" lon="127.493069"><ele>699.7</ele></trkpt>
      <trkpt lat="35.583518" lon="127.492892"><ele>698.5</ele></trkpt>
      <trkpt lat="35.583546" lon="127.492595"><ele>702.9</ele></trkpt>
      <trkpt lat="35.583424" lon="127.492252"><ele>695.9</ele></trkpt>
      <trkpt lat="35.583458" lon="127.492143"><ele>695.0</ele></trkpt>
      <trkpt lat="35.583725" lon="127.492012"><ele>700.0</ele></trkpt>
      <trkpt lat="35.583808" lon="127.491836"><ele>700.3</ele></trkpt>
      <trkpt lat="35.583808" lon="127.491635"><ele>698.4</ele></trkpt>
      <trkpt lat="35.583619" lon="127.491122"><ele>691.2</ele></trkpt>
      <trkpt lat="35.583282" lon="127.489931"><ele>702.0</ele></trkpt>
      <trkpt lat="35.583020" lon="127.489931"><ele>697.0</ele></trkpt>
      <trkpt lat="35.582617" lon="127.489773"><ele>692.5</ele></trkpt>
      <trkpt lat="35.582299" lon="127.489399"><ele>694.1</ele></trkpt>
      <trkpt lat="35.582113" lon="127.489265"><ele>694.0</ele></trkpt>
      <trkpt lat="35.581770" lon="127.489184"><ele>696.3</ele></trkpt>
      <trkpt lat="35.581483" lon="127.489322"><ele>691.8</ele></trkpt>
      <trkpt lat="35.581130" lon="127.489631"><ele>683.4</ele></trkpt>
      <trkpt lat="35.580822" lon="127.489677"><ele>682.4</ele></trkpt>
      <trkpt lat="35.580567" lon="127.489469"><ele>682.2</ele></trkpt>
      <trkpt lat="35.580422" lon="127.489238"><ele>682.8</ele></trkpt>
      <trkpt lat="35.580303" lon="127.488995"><ele>685.6</ele></trkpt>
      <trkpt lat="35.580183" lon="127.488536"><ele>698.4</ele></trkpt>
      <trkpt lat="35.580089" lon="127.488501"><ele>700.6</ele></trkpt>
      <trkpt lat="35.578839" lon="127.490250"><ele>683.7</ele></trkpt>
      <trkpt lat="35.578865" lon="127.490021"><ele>689.0</ele></trkpt>
      <trkpt lat="35.578680" lon="127.489286"><ele>700.3</ele></trkpt>
      <trkpt lat="35.578669" lon="127.488890"><ele>708.0</ele></trkpt>
      <trkpt lat="35.578475" lon="127.488345"><ele>711.9</ele></trkpt>
      <trkpt lat="35.578466" lon="127.488210"><ele>713.3</ele></trkpt>
      <trkpt lat="35.578511" lon="127.488107"><ele>716.2</ele></trkpt>
      <trkpt lat="35.578478" lon="127.487925"><ele>718.3</ele></trkpt>
      <trkpt lat="35.578204" lon="127.487736"><ele>717.5</ele></trkpt>
      <trkpt lat="35.577968" lon="127.487482"><ele>726.4</ele></trkpt>
      <trkpt lat="35.577578" lon="127.487225"><ele>731.4</ele></trkpt>
      <trkpt lat="35.577049" lon="127.487385"><ele>735.5</ele></trkpt>
      <trkpt lat="35.576624" lon="127.487418"><ele>744.3</ele></trkpt>
      <trkpt lat="35.576372" lon="127.487570"><ele>749.0</ele></trkpt>
      <trkpt lat="35.576213" lon="127.487565"><ele>751.8</ele></trkpt>
      <trkpt lat="35.576031" lon="127.487478"><ele>755.7</ele></trkpt>
      <trkpt lat="35.575656" lon="127.487066"><ele>767.7</ele></trkpt>
      <trkpt lat="35.575376" lon="127.486908"><ele>773.1</ele></trkpt>
      <trkpt lat="35.573653" lon="127.486206"><ele>795.4</ele></trkpt>
      <trkpt lat="35.573515" lon="127.486237"><ele>796.2</ele></trkpt>
      <trkpt lat="35.572819" lon="127.486184"><ele>799.3</ele></trkpt>
      <trkpt lat="35.572271" lon="127.486242"><ele>803.1</ele></trkpt>
      <trkpt lat="35.572145" lon="127.486195"><ele>801.9</ele></trkpt>
      <trkpt lat="35.571931" lon="127.485987"><ele>792.7</ele></trkpt>
      <trkpt lat="35.571811" lon="127.485987"><ele>792.4</ele></trkpt>
      <trkpt lat="35.571616" lon="127.486110"><ele>798.7</ele></trkpt>
      <trkpt lat="35.571427" lon="127.486003"><ele>788.9</ele></trkpt>
      <trkpt lat="35.571181" lon="127.485710"><ele>772.0</ele></trkpt>
      <trkpt lat="35.571206" lon="127.485455"><ele>762.1</ele></trkpt>
      <trkpt lat="35.571301" lon="127.485332"><ele>757.5</ele></trkpt>
      <trkpt lat="35.571622" lon="127.485101"><ele>751.9</ele></trkpt>
      <trkpt lat="35.571672" lon="127.484885"><ele>744.6</ele></trkpt>
      <trkpt lat="35.571603" lon="127.484160"><ele>707.8</ele></trkpt>
      <trkpt lat="35.571446" lon="127.484052"><ele>696.2</ele></trkpt>
      <trkpt lat="35.571300" lon="127.483810"><ele>681.5</ele></trkpt>
      <trkpt lat="35.571251" lon="127.482912"><ele>654.1</ele></trkpt>
      <trkpt lat="35.571156" lon="127.482665"><ele>645.6</ele></trkpt>
      <trkpt lat="35.571117" lon="127.482314"><ele>633.8</ele></trkpt>
      <trkpt lat="35.571179" lon="127.481382"><ele>620.5</ele></trkpt>
      <trkpt lat="35.571325" lon="127.480587"><ele>602.9</ele></trkpt>
      <trkpt lat="35.571386" lon="127.480614"><ele>605.2</ele></trkpt>
      <trkpt lat="35.571519" lon="127.480493"><ele>609.5</ele></trkpt>
      <trkpt lat="35.571625" lon="127.480278"><ele>611.5</ele></trkpt>
      <trkpt lat="35.571614" lon="127.479685"><ele>609.1</ele></trkpt>
      <trkpt lat="35.571649" lon="127.479503"><ele>608.2</ele></trkpt>
      <trkpt lat="35.571771" lon="127.479347"><ele>609.9</ele></trkpt>
      <trkpt lat="35.572205" lon="127.479103"><ele>619.0</ele></trkpt>
      <trkpt lat="35.572288" lon="127.478948"><ele>621.1</ele></trkpt>
      <trkpt lat="35.572288" lon="127.478610"><ele>617.8</ele></trkpt>
      <trkpt lat="35.572165" lon="127.478227"><ele>614.3</ele></trkpt>
      <trkpt lat="35.572422" lon="127.477887"><ele>624.5</ele></trkpt>
      <trkpt lat="35.572540" lon="127.477541"><ele>628.1</ele></trkpt>
      <trkpt lat="35.572634" lon="127.477522"><ele>628.6</ele></trkpt>
      <trkpt lat="35.572782" lon="127.477640"><ele>630.9</ele></trkpt>
      <trkpt lat="35.572937" lon="127.477635"><ele>627.7</ele></trkpt>
      <trkpt lat="35.573097" lon="127.477554"><ele>621.6</ele></trkpt>
      <trkpt lat="35.573282" lon="127.477592"><ele>617.2</ele></trkpt>
      <trkpt lat="35.573415" lon="127.477860"><ele>619.0</ele></trkpt>
      <trkpt lat="35.573363" lon="127.478053"><ele>626.5</ele></trkpt>
      <trkpt lat="35.573391" lon="127.478161"><ele>628.2</ele></trkpt>
      <trkpt lat="35.573681" lon="127.478324"><ele>622.3</ele></trkpt>
      <trkpt lat="35.573801" lon="127.478563"><ele>625.6</ele></trkpt>
      <trkpt lat="35.573947" lon="127.478582"><ele>619.9</ele></trkpt>
      <trkpt lat="35.574131" lon="127.478499"><ele>607.2</ele></trkpt>
      <trkpt lat="35.574458" lon="127.478682"><ele>600.7</ele></trkpt>
      <trkpt lat="35.574416" lon="127.478950"><ele>615.0</ele></trkpt>
      <trkpt lat="35.574521" lon="127.479143"><ele>617.0</ele></trkpt>
      <trkpt lat="35.574649" lon="127.479208"><ele>612.6</ele></trkpt>
      <trkpt lat="35.575057" lon="127.479226"><ele>604.4</ele></trkpt>
      <trkpt lat="35.575332" lon="127.479082"><ele>597.2</ele></trkpt>
      <trkpt lat="35.575696" lon="127.478762"><ele>588.9</ele></trkpt>
      <trkpt lat="35.576146" lon="127.478773"><ele>590.5</ele></trkpt>
      <trkpt lat="35.576449" lon="127.478966"><ele>598.0</ele></trkpt>
      <trkpt lat="35.577134" lon="127.479060"><ele>596.2</ele></trkpt>
      <trkpt lat="35.577319" lon="127.479142"><ele>594.5</ele></trkpt>
      <trkpt lat="35.577487" lon="127.479300"><ele>594.8</ele></trkpt>
      <trkpt lat="35.577650" lon="127.479858"><ele>611.1</ele></trkpt>
      <trkpt lat="35.577763" lon="127.480034"><ele>613.1</ele></trkpt>
      <trkpt lat="35.577912" lon="127.480127"><ele>611.1</ele></trkpt>
      <trkpt lat="35.578019" lon="127.480413"><ele>620.5</ele></trkpt>
      <trkpt lat="35.578439" lon="127.480812"><ele>634.4</ele></trkpt>
      <trkpt lat="35.578522" lon="127.480822"><ele>634.6</ele></trkpt>
      <trkpt lat="35.578762" lon="127.480652"><ele>623.7</ele></trkpt>
      <trkpt lat="35.579133" lon="127.481000"><ele>639.2</ele></trkpt>
      <trkpt lat="35.579253" lon="127.481041"><ele>640.6</ele></trkpt>
      <trkpt lat="35.579326" lon="127.480981"><ele>637.9</ele></trkpt>
      <trkpt lat="35.579434" lon="127.480749"><ele>629.2</ele></trkpt>
      <trkpt lat="35.579504" lon="127.480679"><ele>627.0</ele></trkpt>
      <trkpt lat="35.579639" lon="127.480652"><ele>625.9</ele></trkpt>
      <trkpt lat="35.579805" lon="127.480722"><ele>627.5</ele></trkpt>
      <trkpt lat="35.580115" lon="127.480980"><ele>629.4</ele></trkpt>
      <trkpt lat="35.580228" lon="127.481216"><ele>631.7</ele></trkpt>
      <trkpt lat="35.580075" lon="127.481639"><ele>644.0</ele></trkpt>
      <trkpt lat="35.580132" lon="127.481790"><ele>647.1</ele></trkpt>
      <trkpt lat="35.580573" lon="127.482165"><ele>663.8</ele></trkpt>
      <trkpt lat="35.580708" lon="127.482160"><ele>664.3</ele></trkpt>
      <trkpt lat="35.581109" lon="127.481639"><ele>649.5</ele></trkpt>
      <trkpt lat="35.581607" lon="127.481564"><ele>652.1</ele></trkpt>
      <trkpt lat="35.581999" lon="127.481892"><ele>668.0</ele></trkpt>
      <trkpt lat="35.582196" lon="127.481983"><ele>670.6</ele></trkpt>
      <trkpt lat="35.582497" lon="127.481972"><ele>666.1</ele></trkpt>
      <trkpt lat="35.582963" lon="127.482342"><ele>681.7</ele></trkpt>
      <trkpt lat="35.583112" lon="127.482331"><ele>680.7</ele></trkpt>
      <trkpt lat="35.583343" lon="127.482133"><ele>672.1</ele></trkpt>
      <trkpt lat="35.583487" lon="127.482160"><ele>673.1</ele></trkpt>
      <trkpt lat="35.583581" lon="127.482283"><ele>678.2</ele></trkpt>
      <trkpt lat="35.584266" lon="127.482766"><ele>687.0</ele></trkpt>
      <trkpt lat="35.584729" lon="127.482837"><ele>690.6</ele></trkpt>
      <trkpt lat="35.585270" lon="127.482719"><ele>690.4</ele></trkpt>
      <trkpt lat="35.585583" lon="127.482498"><ele>692.8</ele></trkpt>
      <trkpt lat="35.585645" lon="127.482015"><ele>685.4</ele></trkpt>
      <trkpt lat="35.586015" lon="127.481752"><ele>682.6</ele></trkpt>
      <trkpt lat="35.586191" lon="127.481705"><ele>681.9</ele></trkpt>
      <trkpt lat="35.586430" lon="127.481859"><ele>684.2</ele></trkpt>
      <trkpt lat="35.586574" lon="127.481886"><ele>684.0</ele></trkpt>
      <trkpt lat="35.587460" lon="127.481490"><ele>669.8</ele></trkpt>
      <trkpt lat="35.587808" lon="127.481393"><ele>670.5</ele></trkpt>
    </trkseg>
  </trk>
</gpx>
