<?xml version="1.0" encoding="UTF-8"?>
<gpx version="1.1" creator="kr-100-mountains route-harvester"
     xmlns="http://www.topografix.com/GPX/1/1"
     xmlns:k100="https://github.com/jay-jang/kr-100-mountains/ns/1"
     xmlns:xsi="http://www.w3.org/2001/XMLSchema-instance"
     xsi:schemaLocation="http://www.topografix.com/GPX/1/1 http://www.topografix.com/GPX/1/1/gpx.xsd">
  <metadata>
    <name>신무산 · 자고개-신무산 원점회귀 (대안 1) (OSM 계산 경로)</name>
    <desc>실제 GPS 기록이 아닙니다. OpenStreetMap에 등록된 등산로 선형 위에서 계산한 경로이며, 현장 통제·훼손·출입 제한·계절 통제를 반영하지 않을 수 있습니다. 산행 전 공식 안내를 확인하세요.</desc>
    <time>2026-08-04T05:31:48.729Z</time>
    <link href="https://www.openstreetmap.org/copyright"><text>© OpenStreetMap contributors (ODbL 1.0)</text></link>
    <link href="https://registry.opendata.aws/terrain-tiles/"><text>Elevation: SRTM 1 arc-second (NASA/USGS) via AWS Terrain Tiles</text></link>
    <extensions>
      <k100:provenance>osm-routed</k100:provenance>
      <k100:not_a_recorded_track>true</k100:not_a_recorded_track>
      <k100:mountain_id>sinmusan</k100:mountain_id>
      <k100:mountain_name>신무산</k100:mountain_name>
      <k100:route_id>sinmusan-b302f80f</k100:route_id>
      <k100:route_index>2</k100:route_index>
      <k100:route_name>자고개-신무산 원점회귀</k100:route_name>
      <k100:variant>1</k100:variant>
      <k100:source>OpenStreetMap via Overpass API</k100:source>
      <k100:license>ODbL-1.0</k100:license>
      <k100:attribution>© OpenStreetMap contributors</k100:attribution>
      <k100:elevation_source>SRTM 1 arc-second (NASA/USGS) — AWS Terrain Tiles 배포본. 지형 DEM 추정 고도이며 실측 아님</k100:elevation_source>
      <k100:algorithm>dijkstra-grid-v1</k100:algorithm>
      <k100:osm_snapshot>2026-08-04</k100:osm_snapshot>
      <k100:snap_trailhead_m>149</k100:snap_trailhead_m>
      <k100:snap_summit_m>147</k100:snap_summit_m>
      <k100:validation_score>73</k100:validation_score>
      <k100:validation_status>review</k100:validation_status>
    </extensions>
  </metadata>
  <trk>
    <name>신무산 · 자고개-신무산 원점회귀 (대안 1) (OSM 계산 경로)</name>
    <desc>실제 GPS 기록이 아닙니다. OpenStreetMap에 등록된 등산로 선형 위에서 계산한 경로이며, 현장 통제·훼손·출입 제한·계절 통제를 반영하지 않을 수 있습니다. 산행 전 공식 안내를 확인하세요.</desc>
    <trkseg>
      <trkpt lat="35.584345" lon="127.476141"><ele>530.0</ele></trkpt>
      <trkpt lat="35.584533" lon="127.475890"><ele>528.5</ele></trkpt>
      <trkpt lat="35.584712" lon="127.475780"><ele>527.6</ele></trkpt>
      <trkpt lat="35.584772" lon="127.475851"><ele>528.4</ele></trkpt>
      <trkpt lat="35.585143" lon="127.475957"><ele>530.9</ele></trkpt>
      <trkpt lat="35.585413" lon="127.476279"><ele>535.0</ele></trkpt>
      <trkpt lat="35.585675" lon="127.476197"><ele>536.0</ele></trkpt>
      <trkpt lat="35.586063" lon="127.476241"><ele>542.1</ele></trkpt>
      <trkpt lat="35.586142" lon="127.476198"><ele>543.1</ele></trkpt>
      <trkpt lat="35.586395" lon="127.475812"><ele>543.9</ele></trkpt>
      <trkpt lat="35.586441" lon="127.475565"><ele>542.2</ele></trkpt>
      <trkpt lat="35.586493" lon="127.475508"><ele>542.6</ele></trkpt>
      <trkpt lat="35.586787" lon="127.475410"><ele>548.7</ele></trkpt>
      <trkpt lat="35.587005" lon="127.475132"><ele>548.9</ele></trkpt>
      <trkpt lat="35.587359" lon="127.475144"><ele>552.6</ele></trkpt>
      <trkpt lat="35.587381" lon="127.474626"><ele>545.8</ele></trkpt>
      <trkpt lat="35.587080" lon="127.474144"><ele>540.4</ele></trkpt>
      <trkpt lat="35.586875" lon="127.473951"><ele>538.9</ele></trkpt>
      <trkpt lat="35.586552" lon="127.473897"><ele>532.5</ele></trkpt>
      <trkpt lat="35.586416" lon="127.473789"><ele>528.6</ele></trkpt>
      <trkpt lat="35.587892" lon="127.472727"><ele>535.5</ele></trkpt>
      <trkpt lat="35.588227" lon="127.472571"><ele>535.9</ele></trkpt>
      <trkpt lat="35.590491" lon="127.472064"><ele>555.0</ele></trkpt>
      <trkpt lat="35.591157" lon="127.472243"><ele>556.1</ele></trkpt>
      <trkpt lat="35.591390" lon="127.472228"><ele>557.9</ele></trkpt>
      <trkpt lat="35.591942" lon="127.472048"><ele>567.2</ele></trkpt>
      <trkpt lat="35.592327" lon="127.471626"><ele>568.4</ele></trkpt>
      <trkpt lat="35.592760" lon="127.470802"><ele>563.7</ele></trkpt>
      <trkpt lat="35.592997" lon="127.470481"><ele>556.8</ele></trkpt>
      <trkpt lat="35.594066" lon="127.469438"><ele>546.6</ele></trkpt>
      <trkpt lat="35.594138" lon="127.469527"><ele>547.2</ele></trkpt>
      <trkpt lat="35.596565" lon="127.473326"><ele>572.6</ele></trkpt>
      <trkpt lat="35.596533" lon="127.473797"><ele>583.5</ele></trkpt>
      <trkpt lat="35.596747" lon="127.474295"><ele>587.2</ele></trkpt>
      <trkpt lat="35.596787" lon="127.474499"><ele>590.7</ele></trkpt>
      <trkpt lat="35.596765" lon="127.474617"><ele>593.8</ele></trkpt>
      <trkpt lat="35.596451" lon="127.475186"><ele>606.2</ele></trkpt>
      <trkpt lat="35.596438" lon="127.475293"><ele>607.0</ele></trkpt>
      <trkpt lat="35.596499" lon="127.475422"><ele>609.0</ele></trkpt>
      <trkpt lat="35.596739" lon="127.475679"><ele>612.1</ele></trkpt>
      <trkpt lat="35.596878" lon="127.475782"><ele>614.3</ele></trkpt>
      <trkpt lat="35.597159" lon="127.475812"><ele>615.2</ele></trkpt>
      <trkpt lat="35.597211" lon="127.475879"><ele>617.1</ele></trkpt>
      <trkpt lat="35.596919" lon="127.476006"><ele>621.0</ele></trkpt>
      <trkpt lat="35.596773" lon="127.476010"><ele>623.7</ele></trkpt>
      <trkpt lat="35.596592" lon="127.475938"><ele>624.3</ele></trkpt>
      <trkpt lat="35.596422" lon="127.475764"><ele>621.4</ele></trkpt>
      <trkpt lat="35.596150" lon="127.475626"><ele>621.3</ele></trkpt>
      <trkpt lat="35.596018" lon="127.475611"><ele>622.2</ele></trkpt>
      <trkpt lat="35.595858" lon="127.475808"><ele>631.0</ele></trkpt>
      <trkpt lat="35.595746" lon="127.475838"><ele>631.6</ele></trkpt>
      <trkpt lat="35.595425" lon="127.475905"><ele>631.1</ele></trkpt>
      <trkpt lat="35.594513" lon="127.475918"><ele>611.7</ele></trkpt>
      <trkpt lat="35.594390" lon="127.475962"><ele>609.8</ele></trkpt>
      <trkpt lat="35.594330" lon="127.476050"><ele>611.6</ele></trkpt>
      <trkpt lat="35.594364" lon="127.476599"><ele>620.9</ele></trkpt>
      <trkpt lat="35.594271" lon="127.477165"><ele>622.8</ele></trkpt>
      <trkpt lat="35.594223" lon="127.477285"><ele>624.2</ele></trkpt>
      <trkpt lat="35.594025" lon="127.477472"><ele>624.2</ele></trkpt>
      <trkpt lat="35.593968" lon="127.477943"><ele>632.1</ele></trkpt>
      <trkpt lat="35.593990" lon="127.478105"><ele>635.0</ele></trkpt>
      <trkpt lat="35.594213" lon="127.478529"><ele>643.7</ele></trkpt>
      <trkpt lat="35.594265" lon="127.478760"><ele>647.1</ele></trkpt>
      <trkpt lat="35.593964" lon="127.479418"><ele>649.5</ele></trkpt>
      <trkpt lat="35.594134" lon="127.479558"><ele>653.4</ele></trkpt>
      <trkpt lat="35.594760" lon="127.479762"><ele>666.0</ele></trkpt>
      <trkpt lat="35.594880" lon="127.479971"><ele>668.9</ele></trkpt>
      <trkpt lat="35.594849" lon="127.480150"><ele>669.4</ele></trkpt>
      <trkpt lat="35.594719" lon="127.480341"><ele>668.4</ele></trkpt>
      <trkpt lat="35.594372" lon="127.480596"><ele>667.6</ele></trkpt>
      <trkpt lat="35.594025" lon="127.480631"><ele>667.9</ele></trkpt>
      <trkpt lat="35.593078" lon="127.480379"><ele>670.8</ele></trkpt>
      <trkpt lat="35.592821" lon="127.480460"><ele>668.4</ele></trkpt>
      <trkpt lat="35.592581" lon="127.480777"><ele>674.0</ele></trkpt>
      <trkpt lat="35.592088" lon="127.480782"><ele>671.7</ele></trkpt>
      <trkpt lat="35.591137" lon="127.480588"><ele>670.6</ele></trkpt>
      <trkpt lat="35.590771" lon="127.480310"><ele>664.1</ele></trkpt>
      <trkpt lat="35.590589" lon="127.480352"><ele>667.6</ele></trkpt>
      <trkpt lat="35.590428" lon="127.480306"><ele>665.3</ele></trkpt>
      <trkpt lat="35.590123" lon="127.480490"><ele>669.8</ele></trkpt>
      <trkpt lat="35.589798" lon="127.480433"><ele>665.2</ele></trkpt>
      <trkpt lat="35.589611" lon="127.480541"><ele>667.2</ele></trkpt>
      <trkpt lat="35.589318" lon="127.480809"><ele>675.7</ele></trkpt>
      <trkpt lat="35.589204" lon="127.480792"><ele>677.4</ele></trkpt>
      <trkpt lat="35.589052" lon="127.480515"><ele>671.6</ele></trkpt>
      <trkpt lat="35.588999" lon="127.480499"><ele>671.0</ele></trkpt>
      <trkpt lat="35.588722" lon="127.480805"><ele>671.2</ele></trkpt>
      <trkpt lat="35.588323" lon="127.481130"><ele>670.5</ele></trkpt>
      <trkpt lat="35.587808" lon="127.481393"><ele>670.5</ele></trkpt>
    </trkseg>
  </trk>
</gpx>
