<?xml version="1.0" encoding="UTF-8"?>
<gpx version="1.1" creator="kr-100-mountains route-harvester"
     xmlns="http://www.topografix.com/GPX/1/1"
     xmlns:k100="https://github.com/jay-jang/kr-100-mountains/ns/1"
     xmlns:xsi="http://www.w3.org/2001/XMLSchema-instance"
     xsi:schemaLocation="http://www.topografix.com/GPX/1/1 http://www.topografix.com/GPX/1/1/gpx.xsd">
  <metadata>
    <name>운악산 · 자연휴양림-서봉-동봉 코스 (OSM 계산 경로)</name>
    <desc>실제 GPS 기록이 아닙니다. OpenStreetMap에 등록된 등산로 선형 위에서 계산한 경로이며, 현장 통제·훼손·출입 제한·계절 통제를 반영하지 않을 수 있습니다. 산행 전 공식 안내를 확인하세요.</desc>
    <time>2026-08-04T05:13:47.432Z</time>
    <link href="https://www.openstreetmap.org/copyright"><text>© OpenStreetMap contributors (ODbL 1.0)</text></link>
    <link href="https://registry.opendata.aws/terrain-tiles/"><text>Elevation: SRTM 1 arc-second (NASA/USGS) via AWS Terrain Tiles</text></link>
    <extensions>
      <k100:provenance>osm-routed</k100:provenance>
      <k100:not_a_recorded_track>true</k100:not_a_recorded_track>
      <k100:mountain_id>unaksan</k100:mountain_id>
      <k100:mountain_name>운악산</k100:mountain_name>
      <k100:route_id>unaksan-a1527ade</k100:route_id>
      <k100:route_index>5</k100:route_index>
      <k100:route_name>자연휴양림-서봉-동봉 코스</k100:route_name>
      <k100:variant>0</k100:variant>
      <k100:source>OpenStreetMap via Overpass API</k100:source>
      <k100:license>ODbL-1.0</k100:license>
      <k100:attribution>© OpenStreetMap contributors</k100:attribution>
      <k100:elevation_source>SRTM 1 arc-second (NASA/USGS) — AWS Terrain Tiles 배포본. 지형 DEM 추정 고도이며 실측 아님</k100:elevation_source>
      <k100:algorithm>dijkstra-grid-v1</k100:algorithm>
      <k100:osm_snapshot>2026-08-04</k100:osm_snapshot>
      <k100:snap_trailhead_m>679</k100:snap_trailhead_m>
      <k100:snap_summit_m>207</k100:snap_summit_m>
      <k100:validation_score>50</k100:validation_score>
      <k100:validation_status>review</k100:validation_status>
    </extensions>
  </metadata>
  <trk>
    <name>운악산 · 자연휴양림-서봉-동봉 코스 (OSM 계산 경로)</name>
    <desc>실제 GPS 기록이 아닙니다. OpenStreetMap에 등록된 등산로 선형 위에서 계산한 경로이며, 현장 통제·훼손·출입 제한·계절 통제를 반영하지 않을 수 있습니다. 산행 전 공식 안내를 확인하세요.</desc>
    <trkseg>
      <trkpt lat="37.933063" lon="127.308894"><ele>163.0</ele></trkpt>
      <trkpt lat="37.937330" lon="127.308193"><ele>162.3</ele></trkpt>
      <trkpt lat="37.938967" lon="127.307944"><ele>158.6</ele></trkpt>
      <trkpt lat="37.939189" lon="127.307958"><ele>158.6</ele></trkpt>
      <trkpt lat="37.940435" lon="127.308607"><ele>156.0</ele></trkpt>
      <trkpt lat="37.940665" lon="127.308798"><ele>156.5</ele></trkpt>
      <trkpt lat="37.941114" lon="127.309379"><ele>156.7</ele></trkpt>
      <trkpt lat="37.941554" lon="127.310265"><ele>154.8</ele></trkpt>
      <trkpt lat="37.941765" lon="127.310473"><ele>157.5</ele></trkpt>
      <trkpt lat="37.942542" lon="127.310569"><ele>161.4</ele></trkpt>
      <trkpt lat="37.942756" lon="127.310689"><ele>158.8</ele></trkpt>
      <trkpt lat="37.945324" lon="127.312555"><ele>151.5</ele></trkpt>
      <trkpt lat="37.945866" lon="127.312895"><ele>150.0</ele></trkpt>
      <trkpt lat="37.946415" lon="127.313089"><ele>147.1</ele></trkpt>
      <trkpt lat="37.947146" lon="127.313194"><ele>151.1</ele></trkpt>
      <trkpt lat="37.948152" lon="127.313025"><ele>148.4</ele></trkpt>
      <trkpt lat="37.950381" lon="127.314047"><ele>149.6</ele></trkpt>
      <trkpt lat="37.952126" lon="127.314467"><ele>150.7</ele></trkpt>
      <trkpt lat="37.952625" lon="127.314671"><ele>147.7</ele></trkpt>
      <trkpt lat="37.954156" lon="127.315637"><ele>150.3</ele></trkpt>
      <trkpt lat="37.955435" lon="127.316328"><ele>152.2</ele></trkpt>
      <trkpt lat="37.956581" lon="127.317103"><ele>150.9</ele></trkpt>
      <trkpt lat="37.957338" lon="127.315399"><ele>147.2</ele></trkpt>
      <trkpt lat="37.957549" lon="127.315156"><ele>146.6</ele></trkpt>
      <trkpt lat="37.957689" lon="127.315168"><ele>146.9</ele></trkpt>
      <trkpt lat="37.957820" lon="127.315304"><ele>146.9</ele></trkpt>
      <trkpt lat="37.957838" lon="127.315019"><ele>146.8</ele></trkpt>
      <trkpt lat="37.957921" lon="127.314812"><ele>146.2</ele></trkpt>
      <trkpt lat="37.958017" lon="127.314824"><ele>146.1</ele></trkpt>
      <trkpt lat="37.958273" lon="127.315116"><ele>145.2</ele></trkpt>
      <trkpt lat="37.958532" lon="127.314575"><ele>145.8</ele></trkpt>
      <trkpt lat="37.958686" lon="127.314383"><ele>145.6</ele></trkpt>
      <trkpt lat="37.958886" lon="127.314324"><ele>145.6</ele></trkpt>
      <trkpt lat="37.958854" lon="127.314558"><ele>146.4</ele></trkpt>
      <trkpt lat="37.958956" lon="127.314732"><ele>147.0</ele></trkpt>
      <trkpt lat="37.959441" lon="127.314626"><ele>146.0</ele></trkpt>
      <trkpt lat="37.959609" lon="127.314510"><ele>145.5</ele></trkpt>
      <trkpt lat="37.959646" lon="127.314333"><ele>144.9</ele></trkpt>
      <trkpt lat="37.959541" lon="127.313526"><ele>141.6</ele></trkpt>
      <trkpt lat="37.959586" lon="127.313425"><ele>141.7</ele></trkpt>
      <trkpt lat="37.959938" lon="127.313275"><ele>143.6</ele></trkpt>
      <trkpt lat="37.960369" lon="127.313292"><ele>141.3</ele></trkpt>
      <trkpt lat="37.961103" lon="127.313532"><ele>140.7</ele></trkpt>
      <trkpt lat="37.961972" lon="127.314012"><ele>140.0</ele></trkpt>
      <trkpt lat="37.962225" lon="127.314205"><ele>138.8</ele></trkpt>
      <trkpt lat="37.962619" lon="127.314755"><ele>139.1</ele></trkpt>
      <trkpt lat="37.963617" lon="127.316528"><ele>136.0</ele></trkpt>
      <trkpt lat="37.963913" lon="127.316973"><ele>134.2</ele></trkpt>
      <trkpt lat="37.964133" lon="127.317193"><ele>134.2</ele></trkpt>
      <trkpt lat="37.964467" lon="127.317413"><ele>133.7</ele></trkpt>
      <trkpt lat="37.964820" lon="127.317531"><ele>133.6</ele></trkpt>
      <trkpt lat="37.964962" lon="127.317638"><ele>133.5</ele></trkpt>
      <trkpt lat="37.965239" lon="127.317955"><ele>132.7</ele></trkpt>
      <trkpt lat="37.965342" lon="127.318156"><ele>132.1</ele></trkpt>
      <trkpt lat="37.965547" lon="127.318966"><ele>132.8</ele></trkpt>
      <trkpt lat="37.965518" lon="127.319151"><ele>132.3</ele></trkpt>
      <trkpt lat="37.965664" lon="127.319916"><ele>133.4</ele></trkpt>
      <trkpt lat="37.966304" lon="127.321340"><ele>129.4</ele></trkpt>
      <trkpt lat="37.966400" lon="127.321455"><ele>129.0</ele></trkpt>
      <trkpt lat="37.966698" lon="127.322260"><ele>131.9</ele></trkpt>
      <trkpt lat="37.966812" lon="127.322751"><ele>130.6</ele></trkpt>
      <trkpt lat="37.967052" lon="127.324700"><ele>130.3</ele></trkpt>
      <trkpt lat="37.968024" lon="127.324422"><ele>131.1</ele></trkpt>
      <trkpt lat="37.968451" lon="127.324408"><ele>131.7</ele></trkpt>
      <trkpt lat="37.968506" lon="127.324355"><ele>131.8</ele></trkpt>
      <trkpt lat="37.969147" lon="127.324741"><ele>132.8</ele></trkpt>
      <trkpt lat="37.969398" lon="127.324829"><ele>133.8</ele></trkpt>
      <trkpt lat="37.969673" lon="127.325229"><ele>132.7</ele></trkpt>
      <trkpt lat="37.969741" lon="127.325245"><ele>132.7</ele></trkpt>
      <trkpt lat="37.970460" lon="127.325001"><ele>124.7</ele></trkpt>
      <trkpt lat="37.970893" lon="127.324966"><ele>124.2</ele></trkpt>
      <trkpt lat="37.971612" lon="127.325055"><ele>122.7</ele></trkpt>
      <trkpt lat="37.971955" lon="127.325221"><ele>123.7</ele></trkpt>
      <trkpt lat="37.972179" lon="127.325414"><ele>126.3</ele></trkpt>
      <trkpt lat="37.972370" lon="127.325904"><ele>126.9</ele></trkpt>
      <trkpt lat="37.971310" lon="127.326138"><ele>126.3</ele></trkpt>
      <trkpt lat="37.970901" lon="127.326283"><ele>124.2</ele></trkpt>
      <trkpt lat="37.970492" lon="127.326522"><ele>127.8</ele></trkpt>
      <trkpt lat="37.970267" lon="127.326732"><ele>129.4</ele></trkpt>
      <trkpt lat="37.969639" lon="127.327717"><ele>129.2</ele></trkpt>
      <trkpt lat="37.969798" lon="127.327743"><ele>129.5</ele></trkpt>
      <trkpt lat="37.969856" lon="127.327642"><ele>128.5</ele></trkpt>
      <trkpt lat="37.971614" lon="127.328160"><ele>127.2</ele></trkpt>
      <trkpt lat="37.973453" lon="127.328474"><ele>126.5</ele></trkpt>
      <trkpt lat="37.973912" lon="127.328480"><ele>127.0</ele></trkpt>
      <trkpt lat="37.974456" lon="127.328400"><ele>126.4</ele></trkpt>
      <trkpt lat="37.976865" lon="127.327599"><ele>119.8</ele></trkpt>
      <trkpt lat="37.977559" lon="127.327642"><ele>121.7</ele></trkpt>
      <trkpt lat="37.977832" lon="127.328025"><ele>116.2</ele></trkpt>
      <trkpt lat="37.977894" lon="127.328215"><ele>116.0</ele></trkpt>
      <trkpt lat="37.980589" lon="127.331444"><ele>126.3</ele></trkpt>
      <trkpt lat="37.982476" lon="127.333565"><ele>134.7</ele></trkpt>
      <trkpt lat="37.982729" lon="127.333972"><ele>129.1</ele></trkpt>
      <trkpt lat="37.983614" lon="127.335019"><ele>127.0</ele></trkpt>
      <trkpt lat="37.983224" lon="127.336081"><ele>132.5</ele></trkpt>
      <trkpt lat="37.982442" lon="127.337348"><ele>130.4</ele></trkpt>
      <trkpt lat="37.980713" lon="127.340476"><ele>143.4</ele></trkpt>
      <trkpt lat="37.980590" lon="127.340520"><ele>143.9</ele></trkpt>
      <trkpt lat="37.980951" lon="127.340969"><ele>142.6</ele></trkpt>
      <trkpt lat="37.981668" lon="127.341505"><ele>145.8</ele></trkpt>
      <trkpt lat="37.982411" lon="127.342302"><ele>149.9</ele></trkpt>
      <trkpt lat="37.983770" lon="127.343977"><ele>139.6</ele></trkpt>
      <trkpt lat="37.984352" lon="127.345429"><ele>142.1</ele></trkpt>
      <trkpt lat="37.985557" lon="127.346548"><ele>147.4</ele></trkpt>
    </trkseg>
  </trk>
</gpx>
