<?xml version="1.0" encoding="UTF-8"?>
<gpx version="1.1" creator="kr-100-mountains route-harvester"
     xmlns="http://www.topografix.com/GPX/1/1"
     xmlns:k100="https://github.com/jay-jang/kr-100-mountains/ns/1"
     xmlns:xsi="http://www.w3.org/2001/XMLSchema-instance"
     xsi:schemaLocation="http://www.topografix.com/GPX/1/1 http://www.topografix.com/GPX/1/1/gpx.xsd">
  <metadata>
    <name>가야산 · 상가리-가야봉 코스 (대안 2) (OSM 계산 경로)</name>
    <desc>실제 GPS 기록이 아닙니다. OpenStreetMap에 등록된 등산로 선형 위에서 계산한 경로이며, 현장 통제·훼손·출입 제한·계절 통제를 반영하지 않을 수 있습니다. 산행 전 공식 안내를 확인하세요.</desc>
    <time>2026-08-04T05:29:36.309Z</time>
    <link href="https://www.openstreetmap.org/copyright"><text>© OpenStreetMap contributors (ODbL 1.0)</text></link>
    <link href="https://registry.opendata.aws/terrain-tiles/"><text>Elevation: SRTM 1 arc-second (NASA/USGS) via AWS Terrain Tiles</text></link>
    <extensions>
      <k100:provenance>osm-routed</k100:provenance>
      <k100:not_a_recorded_track>true</k100:not_a_recorded_track>
      <k100:mountain_id>gayasan-chungnam</k100:mountain_id>
      <k100:mountain_name>가야산(충남)</k100:mountain_name>
      <k100:route_id>gayasan-chungnam-2610fda4</k100:route_id>
      <k100:route_index>1</k100:route_index>
      <k100:route_name>상가리-가야봉 코스</k100:route_name>
      <k100:variant>2</k100:variant>
      <k100:source>OpenStreetMap via Overpass API</k100:source>
      <k100:license>ODbL-1.0</k100:license>
      <k100:attribution>© OpenStreetMap contributors</k100:attribution>
      <k100:elevation_source>SRTM 1 arc-second (NASA/USGS) — AWS Terrain Tiles 배포본. 지형 DEM 추정 고도이며 실측 아님</k100:elevation_source>
      <k100:algorithm>dijkstra-grid-v1</k100:algorithm>
      <k100:osm_snapshot>2026-08-04</k100:osm_snapshot>
      <k100:snap_trailhead_m>21</k100:snap_trailhead_m>
      <k100:snap_summit_m>92</k100:snap_summit_m>
      <k100:validation_score>84</k100:validation_score>
      <k100:validation_status>accepted</k100:validation_status>
    </extensions>
  </metadata>
  <trk>
    <name>가야산 · 상가리-가야봉 코스 (대안 2) (OSM 계산 경로)</name>
    <desc>실제 GPS 기록이 아닙니다. OpenStreetMap에 등록된 등산로 선형 위에서 계산한 경로이며, 현장 통제·훼손·출입 제한·계절 통제를 반영하지 않을 수 있습니다. 산행 전 공식 안내를 확인하세요.</desc>
    <trkseg>
      <trkpt lat="36.714440" lon="126.631371"><ele>111.1</ele></trkpt>
      <trkpt lat="36.714888" lon="126.631068"><ele>112.6</ele></trkpt>
      <trkpt lat="36.714941" lon="126.631199"><ele>112.1</ele></trkpt>
      <trkpt lat="36.715146" lon="126.631068"><ele>112.8</ele></trkpt>
      <trkpt lat="36.715918" lon="126.630405"><ele>115.0</ele></trkpt>
      <trkpt lat="36.716659" lon="126.629914"><ele>116.3</ele></trkpt>
      <trkpt lat="36.716920" lon="126.629967"><ele>115.3</ele></trkpt>
      <trkpt lat="36.717098" lon="126.629889"><ele>115.2</ele></trkpt>
      <trkpt lat="36.717320" lon="126.629947"><ele>115.1</ele></trkpt>
      <trkpt lat="36.717368" lon="126.629786"><ele>116.6</ele></trkpt>
      <trkpt lat="36.717522" lon="126.629633"><ele>118.6</ele></trkpt>
      <trkpt lat="36.717777" lon="126.629486"><ele>122.0</ele></trkpt>
      <trkpt lat="36.717929" lon="126.629475"><ele>123.2</ele></trkpt>
      <trkpt lat="36.718049" lon="126.628905"><ele>120.1</ele></trkpt>
      <trkpt lat="36.718158" lon="126.628796"><ele>120.4</ele></trkpt>
      <trkpt lat="36.718048" lon="126.628776"><ele>119.6</ele></trkpt>
      <trkpt lat="36.717878" lon="126.628566"><ele>120.4</ele></trkpt>
      <trkpt lat="36.717772" lon="126.628299"><ele>122.0</ele></trkpt>
      <trkpt lat="36.717510" lon="126.628505"><ele>122.3</ele></trkpt>
      <trkpt lat="36.717481" lon="126.628257"><ele>123.3</ele></trkpt>
      <trkpt lat="36.717606" lon="126.627420"><ele>126.7</ele></trkpt>
      <trkpt lat="36.717851" lon="126.626881"><ele>132.0</ele></trkpt>
      <trkpt lat="36.718118" lon="126.625543"><ele>136.5</ele></trkpt>
      <trkpt lat="36.718174" lon="126.624666"><ele>139.5</ele></trkpt>
      <trkpt lat="36.718105" lon="126.624389"><ele>141.2</ele></trkpt>
      <trkpt lat="36.718251" lon="126.623636"><ele>146.2</ele></trkpt>
      <trkpt lat="36.718260" lon="126.623086"><ele>152.9</ele></trkpt>
      <trkpt lat="36.718322" lon="126.622608"><ele>158.8</ele></trkpt>
      <trkpt lat="36.718311" lon="126.622399"><ele>162.3</ele></trkpt>
      <trkpt lat="36.718174" lon="126.621892"><ele>164.4</ele></trkpt>
      <trkpt lat="36.718197" lon="126.621694"><ele>164.6</ele></trkpt>
      <trkpt lat="36.718447" lon="126.620878"><ele>171.9</ele></trkpt>
      <trkpt lat="36.718457" lon="126.620683"><ele>173.0</ele></trkpt>
      <trkpt lat="36.718335" lon="126.619998"><ele>179.0</ele></trkpt>
      <trkpt lat="36.718421" lon="126.619580"><ele>183.9</ele></trkpt>
      <trkpt lat="36.718421" lon="126.619336"><ele>186.9</ele></trkpt>
      <trkpt lat="36.718363" lon="126.619100"><ele>190.5</ele></trkpt>
      <trkpt lat="36.717918" lon="126.618958"><ele>192.5</ele></trkpt>
      <trkpt lat="36.717834" lon="126.618840"><ele>193.0</ele></trkpt>
      <trkpt lat="36.717720" lon="126.618220"><ele>198.6</ele></trkpt>
      <trkpt lat="36.717752" lon="126.617989"><ele>204.9</ele></trkpt>
      <trkpt lat="36.717569" lon="126.617582"><ele>211.8</ele></trkpt>
      <trkpt lat="36.717366" lon="126.617469"><ele>213.2</ele></trkpt>
      <trkpt lat="36.717262" lon="126.617465"><ele>212.9</ele></trkpt>
      <trkpt lat="36.717114" lon="126.617501"><ele>212.0</ele></trkpt>
      <trkpt lat="36.716762" lon="126.617863"><ele>204.0</ele></trkpt>
      <trkpt lat="36.716611" lon="126.617877"><ele>204.2</ele></trkpt>
      <trkpt lat="36.716466" lon="126.617812"><ele>204.9</ele></trkpt>
      <trkpt lat="36.716258" lon="126.617636"><ele>206.4</ele></trkpt>
      <trkpt lat="36.715997" lon="126.617504"><ele>206.9</ele></trkpt>
      <trkpt lat="36.715972" lon="126.617446"><ele>207.8</ele></trkpt>
      <trkpt lat="36.716095" lon="126.616854"><ele>215.9</ele></trkpt>
      <trkpt lat="36.716060" lon="126.616576"><ele>223.1</ele></trkpt>
      <trkpt lat="36.715879" lon="126.616403"><ele>228.7</ele></trkpt>
      <trkpt lat="36.715725" lon="126.616386"><ele>229.5</ele></trkpt>
      <trkpt lat="36.715376" lon="126.616485"><ele>228.8</ele></trkpt>
      <trkpt lat="36.715204" lon="126.616438"><ele>230.1</ele></trkpt>
      <trkpt lat="36.714568" lon="126.615905"><ele>238.0</ele></trkpt>
      <trkpt lat="36.714265" lon="126.615543"><ele>240.3</ele></trkpt>
      <trkpt lat="36.714256" lon="126.615248"><ele>246.4</ele></trkpt>
      <trkpt lat="36.714136" lon="126.615018"><ele>251.3</ele></trkpt>
      <trkpt lat="36.713998" lon="126.614497"><ele>260.5</ele></trkpt>
      <trkpt lat="36.713796" lon="126.614181"><ele>264.1</ele></trkpt>
      <trkpt lat="36.713626" lon="126.613638"><ele>272.6</ele></trkpt>
      <trkpt lat="36.713739" lon="126.612928"><ele>292.0</ele></trkpt>
      <trkpt lat="36.713699" lon="126.612553"><ele>297.6</ele></trkpt>
      <trkpt lat="36.713514" lon="126.612558"><ele>296.2</ele></trkpt>
      <trkpt lat="36.713437" lon="126.612470"><ele>298.3</ele></trkpt>
      <trkpt lat="36.713323" lon="126.612067"><ele>309.2</ele></trkpt>
      <trkpt lat="36.713080" lon="126.611609"><ele>325.2</ele></trkpt>
      <trkpt lat="36.712947" lon="126.610900"><ele>339.2</ele></trkpt>
      <trkpt lat="36.712856" lon="126.610619"><ele>347.0</ele></trkpt>
      <trkpt lat="36.712654" lon="126.610254"><ele>357.4</ele></trkpt>
      <trkpt lat="36.712555" lon="126.609795"><ele>373.5</ele></trkpt>
      <trkpt lat="36.712394" lon="126.609597"><ele>380.9</ele></trkpt>
      <trkpt lat="36.712216" lon="126.609503"><ele>384.1</ele></trkpt>
      <trkpt lat="36.712059" lon="126.609283"><ele>393.3</ele></trkpt>
      <trkpt lat="36.711809" lon="126.609111"><ele>402.5</ele></trkpt>
      <trkpt lat="36.711556" lon="126.609063"><ele>409.6</ele></trkpt>
      <trkpt lat="36.711388" lon="126.608655"><ele>415.6</ele></trkpt>
      <trkpt lat="36.711252" lon="126.608497"><ele>424.3</ele></trkpt>
      <trkpt lat="36.710850" lon="126.608234"><ele>440.4</ele></trkpt>
      <trkpt lat="36.710695" lon="126.607867"><ele>455.4</ele></trkpt>
      <trkpt lat="36.710489" lon="126.607800"><ele>465.8</ele></trkpt>
      <trkpt lat="36.710119" lon="126.607502"><ele>492.0</ele></trkpt>
      <trkpt lat="36.709893" lon="126.607392"><ele>507.4</ele></trkpt>
      <trkpt lat="36.709756" lon="126.607223"><ele>516.7</ele></trkpt>
      <trkpt lat="36.709392" lon="126.607127"><ele>537.7</ele></trkpt>
      <trkpt lat="36.709139" lon="126.606756"><ele>555.2</ele></trkpt>
      <trkpt lat="36.709077" lon="126.606709"><ele>558.5</ele></trkpt>
      <trkpt lat="36.708888" lon="126.606715"><ele>568.5</ele></trkpt>
      <trkpt lat="36.708826" lon="126.606576"><ele>566.9</ele></trkpt>
      <trkpt lat="36.708210" lon="126.607191"><ele>588.2</ele></trkpt>
      <trkpt lat="36.708015" lon="126.607279"><ele>591.2</ele></trkpt>
      <trkpt lat="36.707932" lon="126.607245"><ele>591.9</ele></trkpt>
      <trkpt lat="36.707838" lon="126.607285"><ele>592.9</ele></trkpt>
      <trkpt lat="36.707545" lon="126.607701"><ele>602.0</ele></trkpt>
      <trkpt lat="36.707249" lon="126.607951"><ele>610.4</ele></trkpt>
      <trkpt lat="36.706945" lon="126.608144"><ele>618.6</ele></trkpt>
      <trkpt lat="36.706812" lon="126.608141"><ele>624.2</ele></trkpt>
      <trkpt lat="36.706630" lon="126.608291"><ele>635.4</ele></trkpt>
      <trkpt lat="36.706587" lon="126.608337"><ele>637.8</ele></trkpt>
      <trkpt lat="36.706560" lon="126.608740"><ele>642.3</ele></trkpt>
      <trkpt lat="36.706651" lon="126.609132"><ele>631.3</ele></trkpt>
      <trkpt lat="36.706491" lon="126.609246"><ele>631.7</ele></trkpt>
      <trkpt lat="36.706473" lon="126.609359"><ele>627.5</ele></trkpt>
      <trkpt lat="36.705816" lon="126.609655"><ele>620.8</ele></trkpt>
      <trkpt lat="36.705773" lon="126.610017"><ele>594.3</ele></trkpt>
      <trkpt lat="36.705677" lon="126.610105"><ele>593.6</ele></trkpt>
      <trkpt lat="36.705158" lon="126.610147"><ele>612.5</ele></trkpt>
      <trkpt lat="36.704810" lon="126.610327"><ele>617.0</ele></trkpt>
      <trkpt lat="36.704780" lon="126.610477"><ele>610.8</ele></trkpt>
      <trkpt lat="36.704869" lon="126.610630"><ele>603.1</ele></trkpt>
      <trkpt lat="36.704853" lon="126.610771"><ele>598.0</ele></trkpt>
      <trkpt lat="36.704725" lon="126.610884"><ele>594.4</ele></trkpt>
      <trkpt lat="36.704648" lon="126.610867"><ele>594.8</ele></trkpt>
      <trkpt lat="36.704328" lon="126.610987"><ele>587.5</ele></trkpt>
      <trkpt lat="36.704187" lon="126.611112"><ele>581.0</ele></trkpt>
      <trkpt lat="36.704068" lon="126.611260"><ele>576.0</ele></trkpt>
      <trkpt lat="36.704014" lon="126.611461"><ele>568.8</ele></trkpt>
      <trkpt lat="36.703819" lon="126.611694"><ele>567.4</ele></trkpt>
      <trkpt lat="36.703709" lon="126.611723"><ele>569.0</ele></trkpt>
      <trkpt lat="36.703639" lon="126.611867"><ele>563.3</ele></trkpt>
      <trkpt lat="36.703425" lon="126.612057"><ele>561.2</ele></trkpt>
      <trkpt lat="36.703378" lon="126.612274"><ele>558.1</ele></trkpt>
      <trkpt lat="36.703516" lon="126.612683"><ele>536.8</ele></trkpt>
      <trkpt lat="36.703507" lon="126.612791"><ele>534.0</ele></trkpt>
      <trkpt lat="36.703379" lon="126.612979"><ele>530.4</ele></trkpt>
      <trkpt lat="36.703313" lon="126.613384"><ele>509.9</ele></trkpt>
      <trkpt lat="36.703384" lon="126.613462"><ele>505.1</ele></trkpt>
      <trkpt lat="36.703481" lon="126.613950"><ele>487.8</ele></trkpt>
      <trkpt lat="36.703426" lon="126.614121"><ele>481.6</ele></trkpt>
      <trkpt lat="36.703246" lon="126.614402"><ele>469.0</ele></trkpt>
      <trkpt lat="36.702930" lon="126.614693"><ele>457.7</ele></trkpt>
      <trkpt lat="36.702922" lon="126.615161"><ele>454.5</ele></trkpt>
      <trkpt lat="36.702489" lon="126.615830"><ele>477.7</ele></trkpt>
      <trkpt lat="36.702389" lon="126.616462"><ele>493.8</ele></trkpt>
      <trkpt lat="36.702558" lon="126.616689"><ele>505.4</ele></trkpt>
      <trkpt lat="36.702517" lon="126.616974"><ele>520.3</ele></trkpt>
      <trkpt lat="36.702403" lon="126.617110"><ele>524.2</ele></trkpt>
      <trkpt lat="36.702097" lon="126.617133"><ele>530.4</ele></trkpt>
      <trkpt lat="36.701858" lon="126.617405"><ele>543.8</ele></trkpt>
      <trkpt lat="36.701643" lon="126.617489"><ele>547.3</ele></trkpt>
      <trkpt lat="36.701440" lon="126.617668"><ele>548.2</ele></trkpt>
      <trkpt lat="36.701216" lon="126.618311"><ele>557.0</ele></trkpt>
      <trkpt lat="36.700941" lon="126.618666"><ele>555.7</ele></trkpt>
      <trkpt lat="36.700888" lon="126.618966"><ele>558.2</ele></trkpt>
      <trkpt lat="36.700710" lon="126.619319"><ele>557.6</ele></trkpt>
      <trkpt lat="36.700491" lon="126.619552"><ele>559.0</ele></trkpt>
      <trkpt lat="36.700244" lon="126.619671"><ele>561.7</ele></trkpt>
      <trkpt lat="36.700090" lon="126.619835"><ele>564.4</ele></trkpt>
      <trkpt lat="36.699930" lon="126.619768"><ele>568.4</ele></trkpt>
      <trkpt lat="36.699444" lon="126.620084"><ele>578.9</ele></trkpt>
      <trkpt lat="36.699207" lon="126.620096"><ele>569.8</ele></trkpt>
      <trkpt lat="36.699092" lon="126.620153"><ele>565.9</ele></trkpt>
      <trkpt lat="36.698834" lon="126.620554"><ele>554.8</ele></trkpt>
      <trkpt lat="36.698503" lon="126.620829"><ele>536.4</ele></trkpt>
      <trkpt lat="36.698275" lon="126.620951"><ele>525.8</ele></trkpt>
      <trkpt lat="36.697529" lon="126.622089"><ele>493.9</ele></trkpt>
      <trkpt lat="36.697091" lon="126.622152"><ele>475.8</ele></trkpt>
      <trkpt lat="36.696804" lon="126.622267"><ele>461.9</ele></trkpt>
      <trkpt lat="36.696456" lon="126.622552"><ele>450.0</ele></trkpt>
      <trkpt lat="36.696417" lon="126.622746"><ele>442.2</ele></trkpt>
      <trkpt lat="36.696533" lon="126.623063"><ele>433.8</ele></trkpt>
      <trkpt lat="36.696643" lon="126.623063"><ele>437.0</ele></trkpt>
      <trkpt lat="36.696709" lon="126.623196"><ele>432.1</ele></trkpt>
      <trkpt lat="36.696919" lon="126.623302"><ele>430.2</ele></trkpt>
      <trkpt lat="36.696919" lon="126.623436"><ele>421.7</ele></trkpt>
      <trkpt lat="36.696993" lon="126.623629"><ele>409.5</ele></trkpt>
      <trkpt lat="36.696939" lon="126.623967"><ele>390.6</ele></trkpt>
      <trkpt lat="36.696847" lon="126.624172"><ele>376.6</ele></trkpt>
      <trkpt lat="36.696881" lon="126.624242"><ele>375.2</ele></trkpt>
      <trkpt lat="36.696850" lon="126.624507"><ele>365.1</ele></trkpt>
      <trkpt lat="36.696771" lon="126.624737"><ele>356.7</ele></trkpt>
      <trkpt lat="36.696869" lon="126.625028"><ele>348.5</ele></trkpt>
      <trkpt lat="36.696869" lon="126.625251"><ele>339.7</ele></trkpt>
      <trkpt lat="36.696529" lon="126.625762"><ele>314.8</ele></trkpt>
      <trkpt lat="36.696232" lon="126.625975"><ele>301.7</ele></trkpt>
      <trkpt lat="36.696222" lon="126.626200"><ele>296.3</ele></trkpt>
      <trkpt lat="36.696109" lon="126.626391"><ele>290.9</ele></trkpt>
      <trkpt lat="36.695791" lon="126.626582"><ele>276.4</ele></trkpt>
      <trkpt lat="36.695816" lon="126.626723"><ele>274.2</ele></trkpt>
      <trkpt lat="36.695787" lon="126.626890"><ele>269.3</ele></trkpt>
      <trkpt lat="36.695540" lon="126.627148"><ele>258.4</ele></trkpt>
      <trkpt lat="36.695314" lon="126.627522"><ele>251.4</ele></trkpt>
      <trkpt lat="36.695327" lon="126.627645"><ele>249.0</ele></trkpt>
      <trkpt lat="36.695236" lon="126.627928"><ele>244.1</ele></trkpt>
      <trkpt lat="36.695239" lon="126.628105"><ele>240.0</ele></trkpt>
      <trkpt lat="36.694606" lon="126.628661"><ele>223.2</ele></trkpt>
      <trkpt lat="36.694440" lon="126.628867"><ele>217.3</ele></trkpt>
      <trkpt lat="36.694091" lon="126.629059"><ele>209.0</ele></trkpt>
      <trkpt lat="36.693604" lon="126.629505"><ele>196.1</ele></trkpt>
      <trkpt lat="36.693431" lon="126.629713"><ele>191.3</ele></trkpt>
      <trkpt lat="36.693287" lon="126.629991"><ele>182.9</ele></trkpt>
      <trkpt lat="36.693108" lon="126.630175"><ele>178.9</ele></trkpt>
      <trkpt lat="36.692351" lon="126.630820"><ele>165.6</ele></trkpt>
      <trkpt lat="36.692086" lon="126.630874"><ele>166.1</ele></trkpt>
      <trkpt lat="36.691816" lon="126.631167"><ele>157.4</ele></trkpt>
      <trkpt lat="36.691878" lon="126.631414"><ele>153.5</ele></trkpt>
      <trkpt lat="36.692131" lon="126.631496"><ele>156.8</ele></trkpt>
      <trkpt lat="36.692520" lon="126.631960"><ele>175.8</ele></trkpt>
      <trkpt lat="36.692974" lon="126.632034"><ele>190.6</ele></trkpt>
      <trkpt lat="36.693355" lon="126.632555"><ele>215.1</ele></trkpt>
      <trkpt lat="36.693499" lon="126.632887"><ele>223.0</ele></trkpt>
      <trkpt lat="36.693770" lon="126.633290"><ele>234.8</ele></trkpt>
    </trkseg>
  </trk>
</gpx>
