<?xml version="1.0" encoding="UTF-8"?>
<gpx version="1.1" creator="kr-100-mountains route-harvester"
     xmlns="http://www.topografix.com/GPX/1/1"
     xmlns:k100="https://github.com/jay-jang/kr-100-mountains/ns/1"
     xmlns:xsi="http://www.w3.org/2001/XMLSchema-instance"
     xsi:schemaLocation="http://www.topografix.com/GPX/1/1 http://www.topografix.com/GPX/1/1/gpx.xsd">
  <metadata>
    <name>가야산 · 상가리-가야봉 코스 (OSM 계산 경로)</name>
    <desc>실제 GPS 기록이 아닙니다. OpenStreetMap에 등록된 등산로 선형 위에서 계산한 경로이며, 현장 통제·훼손·출입 제한·계절 통제를 반영하지 않을 수 있습니다. 산행 전 공식 안내를 확인하세요.</desc>
    <time>2026-08-04T05:29:36.307Z</time>
    <link href="https://www.openstreetmap.org/copyright"><text>© OpenStreetMap contributors (ODbL 1.0)</text></link>
    <link href="https://registry.opendata.aws/terrain-tiles/"><text>Elevation: SRTM 1 arc-second (NASA/USGS) via AWS Terrain Tiles</text></link>
    <extensions>
      <k100:provenance>osm-routed</k100:provenance>
      <k100:not_a_recorded_track>true</k100:not_a_recorded_track>
      <k100:mountain_id>gayasan-chungnam</k100:mountain_id>
      <k100:mountain_name>가야산(충남)</k100:mountain_name>
      <k100:route_id>gayasan-chungnam-2610fda4</k100:route_id>
      <k100:route_index>1</k100:route_index>
      <k100:route_name>상가리-가야봉 코스</k100:route_name>
      <k100:variant>0</k100:variant>
      <k100:source>OpenStreetMap via Overpass API</k100:source>
      <k100:license>ODbL-1.0</k100:license>
      <k100:attribution>© OpenStreetMap contributors</k100:attribution>
      <k100:elevation_source>SRTM 1 arc-second (NASA/USGS) — AWS Terrain Tiles 배포본. 지형 DEM 추정 고도이며 실측 아님</k100:elevation_source>
      <k100:algorithm>dijkstra-grid-v1</k100:algorithm>
      <k100:osm_snapshot>2026-08-04</k100:osm_snapshot>
      <k100:snap_trailhead_m>21</k100:snap_trailhead_m>
      <k100:snap_summit_m>92</k100:snap_summit_m>
      <k100:validation_score>100</k100:validation_score>
      <k100:validation_status>accepted</k100:validation_status>
    </extensions>
  </metadata>
  <trk>
    <name>가야산 · 상가리-가야봉 코스 (OSM 계산 경로)</name>
    <desc>실제 GPS 기록이 아닙니다. OpenStreetMap에 등록된 등산로 선형 위에서 계산한 경로이며, 현장 통제·훼손·출입 제한·계절 통제를 반영하지 않을 수 있습니다. 산행 전 공식 안내를 확인하세요.</desc>
    <trkseg>
      <trkpt lat="36.714440" lon="126.631371"><ele>111.1</ele></trkpt>
      <trkpt lat="36.714592" lon="126.631420"><ele>111.5</ele></trkpt>
      <trkpt lat="36.714837" lon="126.631637"><ele>112.0</ele></trkpt>
      <trkpt lat="36.715055" lon="126.631675"><ele>112.2</ele></trkpt>
      <trkpt lat="36.715445" lon="126.631891"><ele>112.5</ele></trkpt>
      <trkpt lat="36.715990" lon="126.631754"><ele>112.4</ele></trkpt>
      <trkpt lat="36.716184" lon="126.631633"><ele>112.6</ele></trkpt>
      <trkpt lat="36.716762" lon="126.630845"><ele>113.4</ele></trkpt>
      <trkpt lat="36.716973" lon="126.630442"><ele>113.2</ele></trkpt>
      <trkpt lat="36.717133" lon="126.629898"><ele>115.1</ele></trkpt>
      <trkpt lat="36.716920" lon="126.629967"><ele>115.3</ele></trkpt>
      <trkpt lat="36.716659" lon="126.629914"><ele>116.3</ele></trkpt>
      <trkpt lat="36.716800" lon="126.629774"><ele>116.7</ele></trkpt>
      <trkpt lat="36.717110" lon="126.629171"><ele>119.8</ele></trkpt>
      <trkpt lat="36.717132" lon="126.628963"><ele>121.8</ele></trkpt>
      <trkpt lat="36.717094" lon="126.628698"><ele>123.3</ele></trkpt>
      <trkpt lat="36.716965" lon="126.628488"><ele>124.0</ele></trkpt>
      <trkpt lat="36.716700" lon="126.628306"><ele>125.0</ele></trkpt>
      <trkpt lat="36.716558" lon="126.627946"><ele>129.4</ele></trkpt>
      <trkpt lat="36.716808" lon="126.627286"><ele>136.0</ele></trkpt>
      <trkpt lat="36.717118" lon="126.626672"><ele>135.2</ele></trkpt>
      <trkpt lat="36.717073" lon="126.626621"><ele>136.1</ele></trkpt>
      <trkpt lat="36.716866" lon="126.626624"><ele>139.7</ele></trkpt>
      <trkpt lat="36.716688" lon="126.626447"><ele>141.0</ele></trkpt>
      <trkpt lat="36.716541" lon="126.626380"><ele>143.4</ele></trkpt>
      <trkpt lat="36.716388" lon="126.626141"><ele>149.6</ele></trkpt>
      <trkpt lat="36.716408" lon="126.626069"><ele>150.0</ele></trkpt>
      <trkpt lat="36.716638" lon="126.626069"><ele>144.3</ele></trkpt>
      <trkpt lat="36.716681" lon="126.625840"><ele>146.6</ele></trkpt>
      <trkpt lat="36.716638" lon="126.625518"><ele>149.6</ele></trkpt>
      <trkpt lat="36.716683" lon="126.625371"><ele>150.2</ele></trkpt>
      <trkpt lat="36.716802" lon="126.625379"><ele>148.8</ele></trkpt>
      <trkpt lat="36.716894" lon="126.625269"><ele>148.6</ele></trkpt>
      <trkpt lat="36.717042" lon="126.624939"><ele>148.3</ele></trkpt>
      <trkpt lat="36.717139" lon="126.624488"><ele>150.0</ele></trkpt>
      <trkpt lat="36.717220" lon="126.624299"><ele>149.6</ele></trkpt>
      <trkpt lat="36.717177" lon="126.624086"><ele>153.0</ele></trkpt>
      <trkpt lat="36.716945" lon="126.623659"><ele>160.1</ele></trkpt>
      <trkpt lat="36.716526" lon="126.622452"><ele>161.3</ele></trkpt>
      <trkpt lat="36.715844" lon="126.621765"><ele>186.2</ele></trkpt>
      <trkpt lat="36.715371" lon="126.621081"><ele>183.9</ele></trkpt>
      <trkpt lat="36.715308" lon="126.620720"><ele>179.8</ele></trkpt>
      <trkpt lat="36.715156" lon="126.620354"><ele>179.8</ele></trkpt>
      <trkpt lat="36.715146" lon="126.620028"><ele>177.9</ele></trkpt>
      <trkpt lat="36.715009" lon="126.619823"><ele>181.1</ele></trkpt>
      <trkpt lat="36.714342" lon="126.619215"><ele>194.9</ele></trkpt>
      <trkpt lat="36.714226" lon="126.618939"><ele>194.0</ele></trkpt>
      <trkpt lat="36.714205" lon="126.618790"><ele>193.3</ele></trkpt>
      <trkpt lat="36.714248" lon="126.618590"><ele>193.4</ele></trkpt>
      <trkpt lat="36.714014" lon="126.618574"><ele>194.6</ele></trkpt>
      <trkpt lat="36.713981" lon="126.618523"><ele>195.5</ele></trkpt>
      <trkpt lat="36.713676" lon="126.618445"><ele>198.0</ele></trkpt>
      <trkpt lat="36.713609" lon="126.618217"><ele>200.5</ele></trkpt>
      <trkpt lat="36.713523" lon="126.618164"><ele>201.3</ele></trkpt>
      <trkpt lat="36.713435" lon="126.618180"><ele>200.8</ele></trkpt>
      <trkpt lat="36.713201" lon="126.617785"><ele>206.8</ele></trkpt>
      <trkpt lat="36.712802" lon="126.617553"><ele>216.6</ele></trkpt>
      <trkpt lat="36.712179" lon="126.617502"><ele>225.6</ele></trkpt>
      <trkpt lat="36.712147" lon="126.617335"><ele>228.3</ele></trkpt>
      <trkpt lat="36.711655" lon="126.617149"><ele>242.1</ele></trkpt>
      <trkpt lat="36.711334" lon="126.616823"><ele>257.2</ele></trkpt>
      <trkpt lat="36.711167" lon="126.616776"><ele>259.2</ele></trkpt>
      <trkpt lat="36.710822" lon="126.616347"><ele>271.1</ele></trkpt>
      <trkpt lat="36.710667" lon="126.616458"><ele>270.8</ele></trkpt>
      <trkpt lat="36.710485" lon="126.616412"><ele>274.4</ele></trkpt>
      <trkpt lat="36.710405" lon="126.616453"><ele>274.3</ele></trkpt>
      <trkpt lat="36.709994" lon="126.616336"><ele>283.9</ele></trkpt>
      <trkpt lat="36.709810" lon="126.616386"><ele>286.9</ele></trkpt>
      <trkpt lat="36.709355" lon="126.616236"><ele>299.9</ele></trkpt>
      <trkpt lat="36.709050" lon="126.616453"><ele>300.8</ele></trkpt>
      <trkpt lat="36.708123" lon="126.616229"><ele>320.7</ele></trkpt>
      <trkpt lat="36.707284" lon="126.615751"><ele>341.3</ele></trkpt>
      <trkpt lat="36.707045" lon="126.615507"><ele>353.3</ele></trkpt>
      <trkpt lat="36.706826" lon="126.615548"><ele>354.0</ele></trkpt>
      <trkpt lat="36.706600" lon="126.615384"><ele>362.3</ele></trkpt>
      <trkpt lat="36.706378" lon="126.615321"><ele>367.7</ele></trkpt>
      <trkpt lat="36.706254" lon="126.615379"><ele>369.8</ele></trkpt>
      <trkpt lat="36.706032" lon="126.615307"><ele>376.3</ele></trkpt>
      <trkpt lat="36.705798" lon="126.615403"><ele>380.8</ele></trkpt>
      <trkpt lat="36.705060" lon="126.615234"><ele>404.2</ele></trkpt>
      <trkpt lat="36.704922" lon="126.615330"><ele>406.9</ele></trkpt>
      <trkpt lat="36.704688" lon="126.615379"><ele>413.4</ele></trkpt>
      <trkpt lat="36.704283" lon="126.615079"><ele>427.7</ele></trkpt>
      <trkpt lat="36.703997" lon="126.615179"><ele>434.7</ele></trkpt>
      <trkpt lat="36.703548" lon="126.615232"><ele>445.8</ele></trkpt>
      <trkpt lat="36.703451" lon="126.615362"><ele>448.4</ele></trkpt>
      <trkpt lat="36.703305" lon="126.615380"><ele>451.5</ele></trkpt>
      <trkpt lat="36.703045" lon="126.615282"><ele>452.4</ele></trkpt>
      <trkpt lat="36.702922" lon="126.615161"><ele>454.5</ele></trkpt>
      <trkpt lat="36.702489" lon="126.615830"><ele>477.7</ele></trkpt>
      <trkpt lat="36.702389" lon="126.616462"><ele>493.8</ele></trkpt>
      <trkpt lat="36.702558" lon="126.616689"><ele>505.4</ele></trkpt>
      <trkpt lat="36.702517" lon="126.616974"><ele>520.3</ele></trkpt>
      <trkpt lat="36.702403" lon="126.617110"><ele>524.2</ele></trkpt>
      <trkpt lat="36.702097" lon="126.617133"><ele>530.4</ele></trkpt>
      <trkpt lat="36.701858" lon="126.617405"><ele>543.8</ele></trkpt>
      <trkpt lat="36.701643" lon="126.617489"><ele>547.3</ele></trkpt>
      <trkpt lat="36.701440" lon="126.617668"><ele>548.2</ele></trkpt>
      <trkpt lat="36.701216" lon="126.618311"><ele>557.0</ele></trkpt>
      <trkpt lat="36.700941" lon="126.618666"><ele>555.7</ele></trkpt>
      <trkpt lat="36.700888" lon="126.618966"><ele>558.2</ele></trkpt>
      <trkpt lat="36.700710" lon="126.619319"><ele>557.6</ele></trkpt>
      <trkpt lat="36.700491" lon="126.619552"><ele>559.0</ele></trkpt>
      <trkpt lat="36.700244" lon="126.619671"><ele>561.7</ele></trkpt>
      <trkpt lat="36.700090" lon="126.619835"><ele>564.4</ele></trkpt>
      <trkpt lat="36.699930" lon="126.619768"><ele>568.4</ele></trkpt>
      <trkpt lat="36.699444" lon="126.620084"><ele>578.9</ele></trkpt>
      <trkpt lat="36.699573" lon="126.620312"><ele>576.2</ele></trkpt>
      <trkpt lat="36.699684" lon="126.620703"><ele>564.1</ele></trkpt>
      <trkpt lat="36.699858" lon="126.620801"><ele>558.5</ele></trkpt>
      <trkpt lat="36.700006" lon="126.621145"><ele>544.4</ele></trkpt>
      <trkpt lat="36.700104" lon="126.621246"><ele>537.3</ele></trkpt>
      <trkpt lat="36.700142" lon="126.621390"><ele>530.9</ele></trkpt>
      <trkpt lat="36.700127" lon="126.621695"><ele>517.9</ele></trkpt>
      <trkpt lat="36.700652" lon="126.622590"><ele>479.8</ele></trkpt>
      <trkpt lat="36.700770" lon="126.622722"><ele>471.0</ele></trkpt>
      <trkpt lat="36.700838" lon="126.622900"><ele>464.3</ele></trkpt>
      <trkpt lat="36.700862" lon="126.623167"><ele>456.6</ele></trkpt>
      <trkpt lat="36.701127" lon="126.623709"><ele>452.2</ele></trkpt>
      <trkpt lat="36.700625" lon="126.624881"><ele>426.0</ele></trkpt>
      <trkpt lat="36.700577" lon="126.625260"><ele>424.1</ele></trkpt>
      <trkpt lat="36.700628" lon="126.625658"><ele>420.0</ele></trkpt>
      <trkpt lat="36.700501" lon="126.625913"><ele>416.1</ele></trkpt>
      <trkpt lat="36.700347" lon="126.626647"><ele>410.0</ele></trkpt>
      <trkpt lat="36.700045" lon="126.626964"><ele>402.9</ele></trkpt>
      <trkpt lat="36.700145" lon="126.627772"><ele>410.3</ele></trkpt>
      <trkpt lat="36.700034" lon="126.628579"><ele>397.4</ele></trkpt>
      <trkpt lat="36.700103" lon="126.629013"><ele>394.6</ele></trkpt>
      <trkpt lat="36.699781" lon="126.630137"><ele>397.8</ele></trkpt>
      <trkpt lat="36.699449" lon="126.630510"><ele>401.0</ele></trkpt>
      <trkpt lat="36.699247" lon="126.630918"><ele>396.0</ele></trkpt>
      <trkpt lat="36.698696" lon="126.631419"><ele>387.1</ele></trkpt>
      <trkpt lat="36.698492" lon="126.631463"><ele>383.2</ele></trkpt>
      <trkpt lat="36.697738" lon="126.631160"><ele>374.3</ele></trkpt>
      <trkpt lat="36.697401" lon="126.631340"><ele>363.5</ele></trkpt>
      <trkpt lat="36.697090" lon="126.631711"><ele>345.7</ele></trkpt>
      <trkpt lat="36.696828" lon="126.631856"><ele>332.4</ele></trkpt>
      <trkpt lat="36.696725" lon="126.632113"><ele>325.0</ele></trkpt>
      <trkpt lat="36.696406" lon="126.632447"><ele>312.1</ele></trkpt>
      <trkpt lat="36.695657" lon="126.632858"><ele>292.8</ele></trkpt>
      <trkpt lat="36.695486" lon="126.632807"><ele>288.2</ele></trkpt>
      <trkpt lat="36.695314" lon="126.632834"><ele>282.0</ele></trkpt>
      <trkpt lat="36.695012" lon="126.633242"><ele>270.8</ele></trkpt>
      <trkpt lat="36.694709" lon="126.633480"><ele>261.1</ele></trkpt>
      <trkpt lat="36.694433" lon="126.633472"><ele>256.2</ele></trkpt>
      <trkpt lat="36.694114" lon="126.633553"><ele>247.2</ele></trkpt>
      <trkpt lat="36.693770" lon="126.633290"><ele>234.8</ele></trkpt>
    </trkseg>
  </trk>
</gpx>
