<?xml version="1.0" encoding="UTF-8"?>
<gpx version="1.1" creator="kr-100-mountains route-harvester"
     xmlns="http://www.topografix.com/GPX/1/1"
     xmlns:k100="https://github.com/jay-jang/kr-100-mountains/ns/1"
     xmlns:xsi="http://www.w3.org/2001/XMLSchema-instance"
     xsi:schemaLocation="http://www.topografix.com/GPX/1/1 http://www.topografix.com/GPX/1/1/gpx.xsd">
  <metadata>
    <name>오대산 · 상원사-비로봉 코스 (OSM 계산 경로)</name>
    <desc>실제 GPS 기록이 아닙니다. OpenStreetMap에 등록된 등산로 선형 위에서 계산한 경로이며, 현장 통제·훼손·출입 제한·계절 통제를 반영하지 않을 수 있습니다. 산행 전 공식 안내를 확인하세요.</desc>
    <time>2026-08-04T05:19:58.843Z</time>
    <link href="https://www.openstreetmap.org/copyright"><text>© OpenStreetMap contributors (ODbL 1.0)</text></link>
    <link href="https://registry.opendata.aws/terrain-tiles/"><text>Elevation: SRTM 1 arc-second (NASA/USGS) via AWS Terrain Tiles</text></link>
    <extensions>
      <k100:provenance>osm-routed</k100:provenance>
      <k100:not_a_recorded_track>true</k100:not_a_recorded_track>
      <k100:mountain_id>odaesan</k100:mountain_id>
      <k100:mountain_name>오대산</k100:mountain_name>
      <k100:route_id>odaesan-550099ea</k100:route_id>
      <k100:route_index>1</k100:route_index>
      <k100:route_name>상원사-비로봉 코스</k100:route_name>
      <k100:variant>0</k100:variant>
      <k100:source>OpenStreetMap via Overpass API</k100:source>
      <k100:license>ODbL-1.0</k100:license>
      <k100:attribution>© OpenStreetMap contributors</k100:attribution>
      <k100:elevation_source>SRTM 1 arc-second (NASA/USGS) — AWS Terrain Tiles 배포본. 지형 DEM 추정 고도이며 실측 아님</k100:elevation_source>
      <k100:algorithm>dijkstra-grid-v1</k100:algorithm>
      <k100:osm_snapshot>2026-08-04</k100:osm_snapshot>
      <k100:snap_trailhead_m>2</k100:snap_trailhead_m>
      <k100:snap_summit_m>42</k100:snap_summit_m>
      <k100:validation_score>100</k100:validation_score>
      <k100:validation_status>accepted</k100:validation_status>
    </extensions>
  </metadata>
  <trk>
    <name>오대산 · 상원사-비로봉 코스 (OSM 계산 경로)</name>
    <desc>실제 GPS 기록이 아닙니다. OpenStreetMap에 등록된 등산로 선형 위에서 계산한 경로이며, 현장 통제·훼손·출입 제한·계절 통제를 반영하지 않을 수 있습니다. 산행 전 공식 안내를 확인하세요.</desc>
    <trkseg>
      <trkpt lat="37.786460" lon="128.564318"><ele>904.5</ele></trkpt>
      <trkpt lat="37.786348" lon="128.564097"><ele>907.3</ele></trkpt>
      <trkpt lat="37.786241" lon="128.564139"><ele>904.1</ele></trkpt>
      <trkpt lat="37.786133" lon="128.564099"><ele>903.3</ele></trkpt>
      <trkpt lat="37.785766" lon="128.563516"><ele>915.8</ele></trkpt>
      <trkpt lat="37.785639" lon="128.563409"><ele>916.9</ele></trkpt>
      <trkpt lat="37.785669" lon="128.563022"><ele>932.0</ele></trkpt>
      <trkpt lat="37.785501" lon="128.562204"><ele>950.6</ele></trkpt>
      <trkpt lat="37.785548" lon="128.561744"><ele>968.0</ele></trkpt>
      <trkpt lat="37.785531" lon="128.561343"><ele>974.7</ele></trkpt>
      <trkpt lat="37.785650" lon="128.560829"><ele>995.6</ele></trkpt>
      <trkpt lat="37.785658" lon="128.560538"><ele>1005.5</ele></trkpt>
      <trkpt lat="37.785518" lon="128.560215"><ele>998.8</ele></trkpt>
      <trkpt lat="37.785527" lon="128.560110"><ele>999.9</ele></trkpt>
      <trkpt lat="37.785868" lon="128.559309"><ele>1024.5</ele></trkpt>
      <trkpt lat="37.785873" lon="128.559096"><ele>1021.8</ele></trkpt>
      <trkpt lat="37.785962" lon="128.558704"><ele>1015.9</ele></trkpt>
      <trkpt lat="37.786144" lon="128.558622"><ele>1023.7</ele></trkpt>
      <trkpt lat="37.786461" lon="128.558251"><ele>1032.7</ele></trkpt>
      <trkpt lat="37.786544" lon="128.558017"><ele>1031.6</ele></trkpt>
      <trkpt lat="37.786727" lon="128.557922"><ele>1039.3</ele></trkpt>
      <trkpt lat="37.786768" lon="128.557722"><ele>1036.3</ele></trkpt>
      <trkpt lat="37.787102" lon="128.557476"><ele>1044.6</ele></trkpt>
      <trkpt lat="37.787202" lon="128.557268"><ele>1049.0</ele></trkpt>
      <trkpt lat="37.787551" lon="128.556863"><ele>1062.2</ele></trkpt>
      <trkpt lat="37.787567" lon="128.557650"><ele>1080.2</ele></trkpt>
      <trkpt lat="37.787426" lon="128.557928"><ele>1078.1</ele></trkpt>
      <trkpt lat="37.787310" lon="128.558485"><ele>1088.5</ele></trkpt>
      <trkpt lat="37.787204" lon="128.558688"><ele>1089.6</ele></trkpt>
      <trkpt lat="37.787243" lon="128.558850"><ele>1093.9</ele></trkpt>
      <trkpt lat="37.787651" lon="128.558412"><ele>1105.8</ele></trkpt>
      <trkpt lat="37.787944" lon="128.558366"><ele>1120.0</ele></trkpt>
      <trkpt lat="37.788127" lon="128.558165"><ele>1122.6</ele></trkpt>
      <trkpt lat="37.788224" lon="128.557975"><ele>1122.4</ele></trkpt>
      <trkpt lat="37.788776" lon="128.557447"><ele>1151.1</ele></trkpt>
      <trkpt lat="37.789571" lon="128.557059"><ele>1177.1</ele></trkpt>
      <trkpt lat="37.789814" lon="128.557074"><ele>1177.3</ele></trkpt>
      <trkpt lat="37.790100" lon="128.556950"><ele>1176.0</ele></trkpt>
      <trkpt lat="37.790283" lon="128.556433"><ele>1178.1</ele></trkpt>
      <trkpt lat="37.790302" lon="128.556048"><ele>1180.6</ele></trkpt>
      <trkpt lat="37.790377" lon="128.555698"><ele>1177.7</ele></trkpt>
      <trkpt lat="37.790327" lon="128.555423"><ele>1178.7</ele></trkpt>
      <trkpt lat="37.790190" lon="128.555160"><ele>1176.3</ele></trkpt>
      <trkpt lat="37.790164" lon="128.554968"><ele>1172.6</ele></trkpt>
      <trkpt lat="37.790467" lon="128.554183"><ele>1180.9</ele></trkpt>
      <trkpt lat="37.790470" lon="128.553443"><ele>1181.4</ele></trkpt>
      <trkpt lat="37.790633" lon="128.552917"><ele>1182.6</ele></trkpt>
      <trkpt lat="37.790655" lon="128.552023"><ele>1201.5</ele></trkpt>
      <trkpt lat="37.790726" lon="128.551689"><ele>1210.9</ele></trkpt>
      <trkpt lat="37.790713" lon="128.551535"><ele>1213.0</ele></trkpt>
      <trkpt lat="37.790883" lon="128.551217"><ele>1226.6</ele></trkpt>
      <trkpt lat="37.791050" lon="128.550550"><ele>1254.1</ele></trkpt>
      <trkpt lat="37.791252" lon="128.550324"><ele>1261.6</ele></trkpt>
      <trkpt lat="37.791283" lon="128.550183"><ele>1264.0</ele></trkpt>
      <trkpt lat="37.791605" lon="128.549711"><ele>1277.7</ele></trkpt>
      <trkpt lat="37.791867" lon="128.549017"><ele>1297.4</ele></trkpt>
      <trkpt lat="37.792857" lon="128.547240"><ele>1371.0</ele></trkpt>
      <trkpt lat="37.793000" lon="128.546800"><ele>1394.8</ele></trkpt>
      <trkpt lat="37.793210" lon="128.546711"><ele>1410.1</ele></trkpt>
      <trkpt lat="37.793389" lon="128.546368"><ele>1428.2</ele></trkpt>
      <trkpt lat="37.793467" lon="128.546050"><ele>1440.0</ele></trkpt>
      <trkpt lat="37.793650" lon="128.546000"><ele>1449.5</ele></trkpt>
      <trkpt lat="37.793712" lon="128.545732"><ele>1461.3</ele></trkpt>
      <trkpt lat="37.793813" lon="128.545681"><ele>1468.7</ele></trkpt>
      <trkpt lat="37.793896" lon="128.545514"><ele>1478.3</ele></trkpt>
      <trkpt lat="37.793988" lon="128.545556"><ele>1480.6</ele></trkpt>
      <trkpt lat="37.794183" lon="128.545267"><ele>1498.3</ele></trkpt>
      <trkpt lat="37.794284" lon="128.545008"><ele>1509.5</ele></trkpt>
      <trkpt lat="37.794347" lon="128.544658"><ele>1523.4</ele></trkpt>
      <trkpt lat="37.794542" lon="128.544177"><ele>1538.2</ele></trkpt>
      <trkpt lat="37.794532" lon="128.543840"><ele>1544.9</ele></trkpt>
      <trkpt lat="37.794459" lon="128.543620"><ele>1547.8</ele></trkpt>
      <trkpt lat="37.794616" lon="128.543724"><ele>1545.9</ele></trkpt>
      <trkpt lat="37.794809" lon="128.543682"><ele>1544.3</ele></trkpt>
      <trkpt lat="37.795067" lon="128.543767"><ele>1540.2</ele></trkpt>
      <trkpt lat="37.795300" lon="128.543767"><ele>1537.6</ele></trkpt>
      <trkpt lat="37.795502" lon="128.543663"><ele>1535.0</ele></trkpt>
      <trkpt lat="37.795983" lon="128.543700"><ele>1529.2</ele></trkpt>
      <trkpt lat="37.796317" lon="128.543483"><ele>1524.3</ele></trkpt>
      <trkpt lat="37.796583" lon="128.543500"><ele>1520.9</ele></trkpt>
      <trkpt lat="37.797033" lon="128.543133"><ele>1524.0</ele></trkpt>
      <trkpt lat="37.797100" lon="128.542933"><ele>1523.8</ele></trkpt>
      <trkpt lat="37.797310" lon="128.542815"><ele>1524.2</ele></trkpt>
      <trkpt lat="37.797652" lon="128.542762"><ele>1527.6</ele></trkpt>
      <trkpt lat="37.798018" lon="128.542590"><ele>1530.4</ele></trkpt>
    </trkseg>
  </trk>
</gpx>
