<?xml version="1.0" encoding="UTF-8"?>
<gpx version="1.1" creator="kr-100-mountains route-harvester"
     xmlns="http://www.topografix.com/GPX/1/1"
     xmlns:k100="https://github.com/jay-jang/kr-100-mountains/ns/1"
     xmlns:xsi="http://www.w3.org/2001/XMLSchema-instance"
     xsi:schemaLocation="http://www.topografix.com/GPX/1/1 http://www.topografix.com/GPX/1/1/gpx.xsd">
  <metadata>
    <name>오대산 · 월정사 전나무숲길 (OSM 계산 경로)</name>
    <desc>실제 GPS 기록이 아닙니다. OpenStreetMap에 등록된 등산로 선형 위에서 계산한 경로이며, 현장 통제·훼손·출입 제한·계절 통제를 반영하지 않을 수 있습니다. 산행 전 공식 안내를 확인하세요.</desc>
    <time>2026-08-04T05:19:58.872Z</time>
    <link href="https://www.openstreetmap.org/copyright"><text>© OpenStreetMap contributors (ODbL 1.0)</text></link>
    <link href="https://registry.opendata.aws/terrain-tiles/"><text>Elevation: SRTM 1 arc-second (NASA/USGS) via AWS Terrain Tiles</text></link>
    <extensions>
      <k100:provenance>osm-routed</k100:provenance>
      <k100:not_a_recorded_track>true</k100:not_a_recorded_track>
      <k100:mountain_id>odaesan</k100:mountain_id>
      <k100:mountain_name>오대산</k100:mountain_name>
      <k100:route_id>odaesan-9fb40bee</k100:route_id>
      <k100:route_index>3</k100:route_index>
      <k100:route_name>월정사 전나무숲길</k100:route_name>
      <k100:variant>0</k100:variant>
      <k100:source>OpenStreetMap via Overpass API</k100:source>
      <k100:license>ODbL-1.0</k100:license>
      <k100:attribution>© OpenStreetMap contributors</k100:attribution>
      <k100:elevation_source>SRTM 1 arc-second (NASA/USGS) — AWS Terrain Tiles 배포본. 지형 DEM 추정 고도이며 실측 아님</k100:elevation_source>
      <k100:algorithm>dijkstra-grid-v1</k100:algorithm>
      <k100:osm_snapshot>2026-08-04</k100:osm_snapshot>
      <k100:snap_trailhead_m>31</k100:snap_trailhead_m>
      <k100:snap_summit_m>42</k100:snap_summit_m>
      <k100:validation_score>75</k100:validation_score>
      <k100:validation_status>review</k100:validation_status>
    </extensions>
  </metadata>
  <trk>
    <name>오대산 · 월정사 전나무숲길 (OSM 계산 경로)</name>
    <desc>실제 GPS 기록이 아닙니다. OpenStreetMap에 등록된 등산로 선형 위에서 계산한 경로이며, 현장 통제·훼손·출입 제한·계절 통제를 반영하지 않을 수 있습니다. 산행 전 공식 안내를 확인하세요.</desc>
    <trkseg>
      <trkpt lat="37.728391" lon="128.595185"><ele>655.7</ele></trkpt>
      <trkpt lat="37.729503" lon="128.595180"><ele>656.4</ele></trkpt>
      <trkpt lat="37.730234" lon="128.595118"><ele>660.5</ele></trkpt>
      <trkpt lat="37.730413" lon="128.595036"><ele>660.4</ele></trkpt>
      <trkpt lat="37.730654" lon="128.594720"><ele>657.8</ele></trkpt>
      <trkpt lat="37.730780" lon="128.594302"><ele>656.4</ele></trkpt>
      <trkpt lat="37.730777" lon="128.593925"><ele>658.8</ele></trkpt>
      <trkpt lat="37.730434" lon="128.592368"><ele>670.3</ele></trkpt>
      <trkpt lat="37.730344" lon="128.591894"><ele>674.8</ele></trkpt>
      <trkpt lat="37.730351" lon="128.591734"><ele>672.8</ele></trkpt>
      <trkpt lat="37.730419" lon="128.591482"><ele>672.8</ele></trkpt>
      <trkpt lat="37.731025" lon="128.590594"><ele>665.2</ele></trkpt>
      <trkpt lat="37.731184" lon="128.590461"><ele>661.6</ele></trkpt>
      <trkpt lat="37.731538" lon="128.590348"><ele>657.7</ele></trkpt>
      <trkpt lat="37.733441" lon="128.590585"><ele>680.7</ele></trkpt>
      <trkpt lat="37.733802" lon="128.590586"><ele>682.7</ele></trkpt>
      <trkpt lat="37.734260" lon="128.590403"><ele>677.1</ele></trkpt>
      <trkpt lat="37.735620" lon="128.588879"><ele>675.6</ele></trkpt>
      <trkpt lat="37.736433" lon="128.587740"><ele>677.5</ele></trkpt>
      <trkpt lat="37.737361" lon="128.586775"><ele>673.1</ele></trkpt>
      <trkpt lat="37.738381" lon="128.585885"><ele>679.8</ele></trkpt>
      <trkpt lat="37.739289" lon="128.585465"><ele>679.6</ele></trkpt>
      <trkpt lat="37.739827" lon="128.585080"><ele>687.4</ele></trkpt>
      <trkpt lat="37.741651" lon="128.584427"><ele>683.9</ele></trkpt>
      <trkpt lat="37.742101" lon="128.584092"><ele>689.8</ele></trkpt>
      <trkpt lat="37.742768" lon="128.583695"><ele>712.2</ele></trkpt>
      <trkpt lat="37.744477" lon="128.583271"><ele>712.4</ele></trkpt>
      <trkpt lat="37.744994" lon="128.583321"><ele>700.0</ele></trkpt>
      <trkpt lat="37.746194" lon="128.583880"><ele>696.7</ele></trkpt>
      <trkpt lat="37.746670" lon="128.583864"><ele>705.6</ele></trkpt>
      <trkpt lat="37.747349" lon="128.583477"><ele>693.4</ele></trkpt>
      <trkpt lat="37.748575" lon="128.582656"><ele>705.8</ele></trkpt>
      <trkpt lat="37.748943" lon="128.582317"><ele>703.9</ele></trkpt>
      <trkpt lat="37.749087" lon="128.582029"><ele>704.1</ele></trkpt>
      <trkpt lat="37.749150" lon="128.581779"><ele>706.9</ele></trkpt>
      <trkpt lat="37.749082" lon="128.581574"><ele>709.8</ele></trkpt>
      <trkpt lat="37.748925" lon="128.581430"><ele>707.9</ele></trkpt>
      <trkpt lat="37.748606" lon="128.581336"><ele>704.1</ele></trkpt>
      <trkpt lat="37.747749" lon="128.581241"><ele>713.5</ele></trkpt>
      <trkpt lat="37.747416" lon="128.581081"><ele>715.6</ele></trkpt>
      <trkpt lat="37.747088" lon="128.580587"><ele>733.0</ele></trkpt>
      <trkpt lat="37.747034" lon="128.580409"><ele>735.5</ele></trkpt>
      <trkpt lat="37.747034" lon="128.580154"><ele>733.1</ele></trkpt>
      <trkpt lat="37.747147" lon="128.579938"><ele>724.0</ele></trkpt>
      <trkpt lat="37.747528" lon="128.579544"><ele>716.8</ele></trkpt>
      <trkpt lat="37.748760" lon="128.578966"><ele>713.5</ele></trkpt>
      <trkpt lat="37.748889" lon="128.578840"><ele>714.2</ele></trkpt>
      <trkpt lat="37.749170" lon="128.578034"><ele>717.1</ele></trkpt>
      <trkpt lat="37.749226" lon="128.577353"><ele>717.7</ele></trkpt>
      <trkpt lat="37.749487" lon="128.576510"><ele>720.2</ele></trkpt>
      <trkpt lat="37.749837" lon="128.575944"><ele>730.7</ele></trkpt>
      <trkpt lat="37.750201" lon="128.575672"><ele>727.0</ele></trkpt>
      <trkpt lat="37.750628" lon="128.575595"><ele>721.3</ele></trkpt>
      <trkpt lat="37.751041" lon="128.575611"><ele>721.0</ele></trkpt>
      <trkpt lat="37.751486" lon="128.575722"><ele>721.3</ele></trkpt>
      <trkpt lat="37.752015" lon="128.575977"><ele>730.4</ele></trkpt>
      <trkpt lat="37.752209" lon="128.576144"><ele>731.4</ele></trkpt>
      <trkpt lat="37.752434" lon="128.576941"><ele>729.6</ele></trkpt>
      <trkpt lat="37.752445" lon="128.577708"><ele>724.2</ele></trkpt>
      <trkpt lat="37.752510" lon="128.578001"><ele>725.2</ele></trkpt>
      <trkpt lat="37.752805" lon="128.578512"><ele>732.6</ele></trkpt>
      <trkpt lat="37.753030" lon="128.578701"><ele>733.8</ele></trkpt>
      <trkpt lat="37.753408" lon="128.578856"><ele>731.8</ele></trkpt>
      <trkpt lat="37.753760" lon="128.578910"><ele>732.4</ele></trkpt>
      <trkpt lat="37.754860" lon="128.578225"><ele>749.1</ele></trkpt>
      <trkpt lat="37.755223" lon="128.578162"><ele>749.2</ele></trkpt>
      <trkpt lat="37.755450" lon="128.578182"><ele>749.8</ele></trkpt>
      <trkpt lat="37.755643" lon="128.578317"><ele>745.1</ele></trkpt>
      <trkpt lat="37.757006" lon="128.579897"><ele>740.2</ele></trkpt>
      <trkpt lat="37.757239" lon="128.580021"><ele>740.0</ele></trkpt>
      <trkpt lat="37.757600" lon="128.580070"><ele>740.0</ele></trkpt>
      <trkpt lat="37.758524" lon="128.579850"><ele>754.9</ele></trkpt>
      <trkpt lat="37.759130" lon="128.579572"><ele>753.4</ele></trkpt>
      <trkpt lat="37.759640" lon="128.579254"><ele>749.9</ele></trkpt>
      <trkpt lat="37.760063" lon="128.578732"><ele>753.7</ele></trkpt>
      <trkpt lat="37.760389" lon="128.578425"><ele>752.9</ele></trkpt>
      <trkpt lat="37.761178" lon="128.577979"><ele>754.5</ele></trkpt>
      <trkpt lat="37.761861" lon="128.577691"><ele>754.3</ele></trkpt>
      <trkpt lat="37.762557" lon="128.577566"><ele>757.4</ele></trkpt>
      <trkpt lat="37.762963" lon="128.577561"><ele>755.4</ele></trkpt>
      <trkpt lat="37.764556" lon="128.577675"><ele>756.4</ele></trkpt>
      <trkpt lat="37.765529" lon="128.577874"><ele>759.2</ele></trkpt>
      <trkpt lat="37.766189" lon="128.577720"><ele>761.8</ele></trkpt>
      <trkpt lat="37.766357" lon="128.577639"><ele>760.8</ele></trkpt>
      <trkpt lat="37.766821" lon="128.576552"><ele>765.1</ele></trkpt>
      <trkpt lat="37.766953" lon="128.576414"><ele>766.0</ele></trkpt>
      <trkpt lat="37.767139" lon="128.576425"><ele>767.6</ele></trkpt>
      <trkpt lat="37.767277" lon="128.576357"><ele>768.8</ele></trkpt>
      <trkpt lat="37.767443" lon="128.576119"><ele>768.6</ele></trkpt>
      <trkpt lat="37.767628" lon="128.576096"><ele>765.9</ele></trkpt>
      <trkpt lat="37.768234" lon="128.575763"><ele>770.6</ele></trkpt>
      <trkpt lat="37.769023" lon="128.575672"><ele>794.8</ele></trkpt>
      <trkpt lat="37.769158" lon="128.575738"><ele>793.0</ele></trkpt>
      <trkpt lat="37.769202" lon="128.575661"><ele>799.7</ele></trkpt>
      <trkpt lat="37.769071" lon="128.575338"><ele>820.3</ele></trkpt>
      <trkpt lat="37.769077" lon="128.574602"><ele>827.7</ele></trkpt>
      <trkpt lat="37.769909" lon="128.574392"><ele>873.3</ele></trkpt>
      <trkpt lat="37.770131" lon="128.573994"><ele>902.5</ele></trkpt>
      <trkpt lat="37.770631" lon="128.573713"><ele>921.8</ele></trkpt>
      <trkpt lat="37.770982" lon="128.572754"><ele>931.4</ele></trkpt>
      <trkpt lat="37.771852" lon="128.571958"><ele>974.3</ele></trkpt>
      <trkpt lat="37.772407" lon="128.570648"><ele>996.8</ele></trkpt>
      <trkpt lat="37.772407" lon="128.569571"><ele>1011.8</ele></trkpt>
      <trkpt lat="37.772813" lon="128.568073"><ele>1047.9</ele></trkpt>
      <trkpt lat="37.773516" lon="128.566084"><ele>1053.6</ele></trkpt>
      <trkpt lat="37.773849" lon="128.561404"><ele>1126.0</ele></trkpt>
      <trkpt lat="37.773590" lon="128.560140"><ele>1156.2</ele></trkpt>
      <trkpt lat="37.774441" lon="128.559157"><ele>1149.8</ele></trkpt>
      <trkpt lat="37.775792" lon="128.558011"><ele>1190.5</ele></trkpt>
      <trkpt lat="37.775884" lon="128.556583"><ele>1208.8</ele></trkpt>
      <trkpt lat="37.775792" lon="128.555109"><ele>1246.6</ele></trkpt>
      <trkpt lat="37.777049" lon="128.553354"><ele>1293.1</ele></trkpt>
      <trkpt lat="37.777512" lon="128.552348"><ele>1322.9</ele></trkpt>
      <trkpt lat="37.778235" lon="128.552292"><ele>1328.6</ele></trkpt>
      <trkpt lat="37.778267" lon="128.551991"><ele>1329.0</ele></trkpt>
      <trkpt lat="37.778524" lon="128.551693"><ele>1325.5</ele></trkpt>
      <trkpt lat="37.778920" lon="128.550720"><ele>1331.9</ele></trkpt>
      <trkpt lat="37.779394" lon="128.549266"><ele>1358.3</ele></trkpt>
      <trkpt lat="37.779674" lon="128.548821"><ele>1378.1</ele></trkpt>
      <trkpt lat="37.779846" lon="128.548370"><ele>1386.8</ele></trkpt>
      <trkpt lat="37.780235" lon="128.547884"><ele>1392.0</ele></trkpt>
      <trkpt lat="37.780325" lon="128.547671"><ele>1390.3</ele></trkpt>
      <trkpt lat="37.780654" lon="128.547605"><ele>1394.0</ele></trkpt>
      <trkpt lat="37.781362" lon="128.547208"><ele>1394.5</ele></trkpt>
      <trkpt lat="37.781624" lon="128.546519"><ele>1373.7</ele></trkpt>
      <trkpt lat="37.781917" lon="128.545975"><ele>1361.5</ele></trkpt>
      <trkpt lat="37.782154" lon="128.545387"><ele>1352.4</ele></trkpt>
      <trkpt lat="37.782528" lon="128.544958"><ele>1358.1</ele></trkpt>
      <trkpt lat="37.783066" lon="128.543845"><ele>1393.3</ele></trkpt>
      <trkpt lat="37.783496" lon="128.543123"><ele>1420.2</ele></trkpt>
      <trkpt lat="37.783759" lon="128.542484"><ele>1441.1</ele></trkpt>
      <trkpt lat="37.783962" lon="128.541895"><ele>1458.3</ele></trkpt>
      <trkpt lat="37.784095" lon="128.541323"><ele>1478.1</ele></trkpt>
      <trkpt lat="37.784134" lon="128.540238"><ele>1518.3</ele></trkpt>
      <trkpt lat="37.784201" lon="128.539875"><ele>1523.7</ele></trkpt>
      <trkpt lat="37.784656" lon="128.540044"><ele>1516.7</ele></trkpt>
      <trkpt lat="37.784957" lon="128.540232"><ele>1510.0</ele></trkpt>
      <trkpt lat="37.785457" lon="128.540715"><ele>1495.7</ele></trkpt>
      <trkpt lat="37.786017" lon="128.541114"><ele>1485.0</ele></trkpt>
      <trkpt lat="37.786474" lon="128.541138"><ele>1481.8</ele></trkpt>
      <trkpt lat="37.786801" lon="128.541219"><ele>1481.5</ele></trkpt>
      <trkpt lat="37.787571" lon="128.541855"><ele>1501.6</ele></trkpt>
      <trkpt lat="37.788742" lon="128.542709"><ele>1505.3</ele></trkpt>
      <trkpt lat="37.789894" lon="128.542923"><ele>1495.2</ele></trkpt>
      <trkpt lat="37.791418" lon="128.542657"><ele>1508.9</ele></trkpt>
      <trkpt lat="37.791729" lon="128.542740"><ele>1517.0</ele></trkpt>
      <trkpt lat="37.792086" lon="128.542748"><ele>1525.8</ele></trkpt>
      <trkpt lat="37.792723" lon="128.542409"><ele>1537.6</ele></trkpt>
      <trkpt lat="37.793088" lon="128.542453"><ele>1545.4</ele></trkpt>
      <trkpt lat="37.793937" lon="128.542992"><ele>1554.8</ele></trkpt>
      <trkpt lat="37.794508" lon="128.543676"><ele>1546.8</ele></trkpt>
      <trkpt lat="37.794616" lon="128.543724"><ele>1545.9</ele></trkpt>
      <trkpt lat="37.794809" lon="128.543682"><ele>1544.3</ele></trkpt>
      <trkpt lat="37.795067" lon="128.543767"><ele>1540.2</ele></trkpt>
      <trkpt lat="37.795300" lon="128.543767"><ele>1537.6</ele></trkpt>
      <trkpt lat="37.795502" lon="128.543663"><ele>1535.0</ele></trkpt>
      <trkpt lat="37.795983" lon="128.543700"><ele>1529.2</ele></trkpt>
      <trkpt lat="37.796317" lon="128.543483"><ele>1524.3</ele></trkpt>
      <trkpt lat="37.796583" lon="128.543500"><ele>1520.9</ele></trkpt>
      <trkpt lat="37.797033" lon="128.543133"><ele>1524.0</ele></trkpt>
      <trkpt lat="37.797100" lon="128.542933"><ele>1523.8</ele></trkpt>
      <trkpt lat="37.797310" lon="128.542815"><ele>1524.2</ele></trkpt>
      <trkpt lat="37.797652" lon="128.542762"><ele>1527.6</ele></trkpt>
      <trkpt lat="37.798018" lon="128.542590"><ele>1530.4</ele></trkpt>
    </trkseg>
  </trk>
</gpx>
