<?xml version="1.0" encoding="UTF-8"?>
<gpx version="1.1" creator="kr-100-mountains route-harvester"
     xmlns="http://www.topografix.com/GPX/1/1"
     xmlns:k100="https://github.com/jay-jang/kr-100-mountains/ns/1"
     xmlns:xsi="http://www.w3.org/2001/XMLSchema-instance"
     xsi:schemaLocation="http://www.topografix.com/GPX/1/1 http://www.topografix.com/GPX/1/1/gpx.xsd">
  <metadata>
    <name>계룡산 · 포로수용소 유적공원 모노레일 연계 코스 (대안 1) (OSM 계산 경로)</name>
    <desc>실제 GPS 기록이 아닙니다. OpenStreetMap에 등록된 등산로 선형 위에서 계산한 경로이며, 현장 통제·훼손·출입 제한·계절 통제를 반영하지 않을 수 있습니다. 산행 전 공식 안내를 확인하세요.</desc>
    <time>2026-08-04T05:47:17.831Z</time>
    <link href="https://www.openstreetmap.org/copyright"><text>© OpenStreetMap contributors (ODbL 1.0)</text></link>
    <link href="https://registry.opendata.aws/terrain-tiles/"><text>Elevation: SRTM 1 arc-second (NASA/USGS) via AWS Terrain Tiles</text></link>
    <extensions>
      <k100:provenance>osm-routed</k100:provenance>
      <k100:not_a_recorded_track>true</k100:not_a_recorded_track>
      <k100:mountain_id>gyeryongsan-geoje</k100:mountain_id>
      <k100:mountain_name>계룡산(거제)</k100:mountain_name>
      <k100:route_id>gyeryongsan-geoje-61e3d51d</k100:route_id>
      <k100:route_index>2</k100:route_index>
      <k100:route_name>포로수용소 유적공원 모노레일 연계 코스</k100:route_name>
      <k100:variant>1</k100:variant>
      <k100:source>OpenStreetMap via Overpass API</k100:source>
      <k100:license>ODbL-1.0</k100:license>
      <k100:attribution>© OpenStreetMap contributors</k100:attribution>
      <k100:elevation_source>SRTM 1 arc-second (NASA/USGS) — AWS Terrain Tiles 배포본. 지형 DEM 추정 고도이며 실측 아님</k100:elevation_source>
      <k100:algorithm>dijkstra-grid-v1</k100:algorithm>
      <k100:osm_snapshot>2026-08-04</k100:osm_snapshot>
      <k100:snap_trailhead_m>18</k100:snap_trailhead_m>
      <k100:snap_summit_m>12</k100:snap_summit_m>
      <k100:validation_score>75</k100:validation_score>
      <k100:validation_status>review</k100:validation_status>
    </extensions>
  </metadata>
  <trk>
    <name>계룡산 · 포로수용소 유적공원 모노레일 연계 코스 (대안 1) (OSM 계산 경로)</name>
    <desc>실제 GPS 기록이 아닙니다. OpenStreetMap에 등록된 등산로 선형 위에서 계산한 경로이며, 현장 통제·훼손·출입 제한·계절 통제를 반영하지 않을 수 있습니다. 산행 전 공식 안내를 확인하세요.</desc>
    <trkseg>
      <trkpt lat="34.877445" lon="128.625763"><ele>37.7</ele></trkpt>
      <trkpt lat="34.876861" lon="128.626380"><ele>33.0</ele></trkpt>
      <trkpt lat="34.875673" lon="128.627838"><ele>46.4</ele></trkpt>
      <trkpt lat="34.874754" lon="128.629134"><ele>48.1</ele></trkpt>
      <trkpt lat="34.874412" lon="128.628930"><ele>43.2</ele></trkpt>
      <trkpt lat="34.874299" lon="128.628834"><ele>45.4</ele></trkpt>
      <trkpt lat="34.873890" lon="128.628216"><ele>57.7</ele></trkpt>
      <trkpt lat="34.873596" lon="128.627975"><ele>64.7</ele></trkpt>
      <trkpt lat="34.872824" lon="128.627523"><ele>87.1</ele></trkpt>
      <trkpt lat="34.872588" lon="128.627244"><ele>86.4</ele></trkpt>
      <trkpt lat="34.871790" lon="128.625609"><ele>113.2</ele></trkpt>
      <trkpt lat="34.871452" lon="128.625059"><ele>129.4</ele></trkpt>
      <trkpt lat="34.871360" lon="128.624979"><ele>132.5</ele></trkpt>
      <trkpt lat="34.871413" lon="128.624748"><ele>131.3</ele></trkpt>
      <trkpt lat="34.871237" lon="128.624485"><ele>138.9</ele></trkpt>
      <trkpt lat="34.870845" lon="128.624164"><ele>156.7</ele></trkpt>
      <trkpt lat="34.870497" lon="128.624174"><ele>169.4</ele></trkpt>
      <trkpt lat="34.870418" lon="128.624260"><ele>170.4</ele></trkpt>
      <trkpt lat="34.870260" lon="128.624239"><ele>176.5</ele></trkpt>
      <trkpt lat="34.869868" lon="128.623772"><ele>190.6</ele></trkpt>
      <trkpt lat="34.869793" lon="128.622962"><ele>207.7</ele></trkpt>
      <trkpt lat="34.869753" lon="128.622849"><ele>210.9</ele></trkpt>
      <trkpt lat="34.869656" lon="128.622780"><ele>213.7</ele></trkpt>
      <trkpt lat="34.869533" lon="128.622463"><ele>219.6</ele></trkpt>
      <trkpt lat="34.869436" lon="128.622436"><ele>221.3</ele></trkpt>
      <trkpt lat="34.869472" lon="128.622249"><ele>224.1</ele></trkpt>
      <trkpt lat="34.869353" lon="128.622039"><ele>230.7</ele></trkpt>
      <trkpt lat="34.868966" lon="128.621589"><ele>256.9</ele></trkpt>
      <trkpt lat="34.868776" lon="128.621492"><ele>264.9</ele></trkpt>
      <trkpt lat="34.868600" lon="128.621471"><ele>270.7</ele></trkpt>
      <trkpt lat="34.868292" lon="128.621181"><ele>282.9</ele></trkpt>
      <trkpt lat="34.868107" lon="128.621111"><ele>289.5</ele></trkpt>
      <trkpt lat="34.867966" lon="128.620956"><ele>295.4</ele></trkpt>
      <trkpt lat="34.867861" lon="128.620924"><ele>299.1</ele></trkpt>
      <trkpt lat="34.867614" lon="128.620360"><ele>311.4</ele></trkpt>
      <trkpt lat="34.867495" lon="128.620258"><ele>317.6</ele></trkpt>
      <trkpt lat="34.867363" lon="128.620006"><ele>328.2</ele></trkpt>
      <trkpt lat="34.867042" lon="128.619582"><ele>346.1</ele></trkpt>
      <trkpt lat="34.867002" lon="128.619395"><ele>350.3</ele></trkpt>
      <trkpt lat="34.866857" lon="128.619175"><ele>358.6</ele></trkpt>
      <trkpt lat="34.866840" lon="128.618976"><ele>362.1</ele></trkpt>
      <trkpt lat="34.866312" lon="128.618590"><ele>389.7</ele></trkpt>
      <trkpt lat="34.866131" lon="128.618172"><ele>403.8</ele></trkpt>
      <trkpt lat="34.866087" lon="128.617946"><ele>409.9</ele></trkpt>
      <trkpt lat="34.865708" lon="128.617485"><ele>435.1</ele></trkpt>
      <trkpt lat="34.865297" lon="128.617266"><ele>451.9</ele></trkpt>
      <trkpt lat="34.865266" lon="128.616917"><ele>463.3</ele></trkpt>
      <trkpt lat="34.865385" lon="128.616531"><ele>467.2</ele></trkpt>
      <trkpt lat="34.865411" lon="128.616081"><ele>476.3</ele></trkpt>
      <trkpt lat="34.865530" lon="128.615753"><ele>482.5</ele></trkpt>
      <trkpt lat="34.865499" lon="128.615110"><ele>499.8</ele></trkpt>
      <trkpt lat="34.865813" lon="128.614842"><ele>499.6</ele></trkpt>
      <trkpt lat="34.865753" lon="128.614634"><ele>503.6</ele></trkpt>
      <trkpt lat="34.865558" lon="128.614516"><ele>503.0</ele></trkpt>
      <trkpt lat="34.865694" lon="128.614223"><ele>506.3</ele></trkpt>
      <trkpt lat="34.865788" lon="128.614181"><ele>511.3</ele></trkpt>
      <trkpt lat="34.865913" lon="128.614244"><ele>515.0</ele></trkpt>
      <trkpt lat="34.866072" lon="128.613947"><ele>527.8</ele></trkpt>
      <trkpt lat="34.866415" lon="128.613743"><ele>541.6</ele></trkpt>
      <trkpt lat="34.866447" lon="128.613691"><ele>544.5</ele></trkpt>
      <trkpt lat="34.866400" lon="128.613588"><ele>544.8</ele></trkpt>
      <trkpt lat="34.866440" lon="128.613528"><ele>544.9</ele></trkpt>
      <trkpt lat="34.866419" lon="128.613464"><ele>542.2</ele></trkpt>
      <trkpt lat="34.866490" lon="128.613395"><ele>543.9</ele></trkpt>
      <trkpt lat="34.867172" lon="128.613385"><ele>553.5</ele></trkpt>
      <trkpt lat="34.867325" lon="128.613265"><ele>550.3</ele></trkpt>
      <trkpt lat="34.867518" lon="128.612964"><ele>541.6</ele></trkpt>
      <trkpt lat="34.867557" lon="128.612797"><ele>536.0</ele></trkpt>
      <trkpt lat="34.867624" lon="128.612736"><ele>533.1</ele></trkpt>
      <trkpt lat="34.867696" lon="128.612550"><ele>529.0</ele></trkpt>
      <trkpt lat="34.867780" lon="128.612494"><ele>527.9</ele></trkpt>
      <trkpt lat="34.867774" lon="128.612416"><ele>526.8</ele></trkpt>
      <trkpt lat="34.867934" lon="128.612162"><ele>521.2</ele></trkpt>
      <trkpt lat="34.868465" lon="128.610823"><ele>509.2</ele></trkpt>
      <trkpt lat="34.868980" lon="128.610206"><ele>506.2</ele></trkpt>
      <trkpt lat="34.869000" lon="128.610102"><ele>504.6</ele></trkpt>
      <trkpt lat="34.869130" lon="128.610022"><ele>504.6</ele></trkpt>
      <trkpt lat="34.869626" lon="128.609456"><ele>508.8</ele></trkpt>
      <trkpt lat="34.869704" lon="128.609210"><ele>518.5</ele></trkpt>
      <trkpt lat="34.869786" lon="128.609134"><ele>522.0</ele></trkpt>
      <trkpt lat="34.869797" lon="128.608892"><ele>523.2</ele></trkpt>
      <trkpt lat="34.869903" lon="128.608681"><ele>527.7</ele></trkpt>
      <trkpt lat="34.870041" lon="128.608675"><ele>533.6</ele></trkpt>
      <trkpt lat="34.870111" lon="128.608541"><ele>534.8</ele></trkpt>
      <trkpt lat="34.870116" lon="128.608386"><ele>535.0</ele></trkpt>
      <trkpt lat="34.870188" lon="128.608316"><ele>537.6</ele></trkpt>
      <trkpt lat="34.870262" lon="128.608361"><ele>540.8</ele></trkpt>
      <trkpt lat="34.870337" lon="128.608315"><ele>542.2</ele></trkpt>
      <trkpt lat="34.870530" lon="128.607903"><ele>540.0</ele></trkpt>
      <trkpt lat="34.870610" lon="128.607923"><ele>543.4</ele></trkpt>
      <trkpt lat="34.870653" lon="128.607855"><ele>544.1</ele></trkpt>
      <trkpt lat="34.870959" lon="128.607712"><ele>552.2</ele></trkpt>
      <trkpt lat="34.871077" lon="128.607723"><ele>555.0</ele></trkpt>
    </trkseg>
  </trk>
</gpx>
