<?xml version="1.0" encoding="UTF-8"?>
<gpx version="1.1" creator="kr-100-mountains route-harvester"
     xmlns="http://www.topografix.com/GPX/1/1"
     xmlns:k100="https://github.com/jay-jang/kr-100-mountains/ns/1"
     xmlns:xsi="http://www.w3.org/2001/XMLSchema-instance"
     xsi:schemaLocation="http://www.topografix.com/GPX/1/1 http://www.topografix.com/GPX/1/1/gpx.xsd">
  <metadata>
    <name>계룡산 · 포로수용소 유적공원 모노레일 연계 코스 (대안 2) (OSM 계산 경로)</name>
    <desc>실제 GPS 기록이 아닙니다. OpenStreetMap에 등록된 등산로 선형 위에서 계산한 경로이며, 현장 통제·훼손·출입 제한·계절 통제를 반영하지 않을 수 있습니다. 산행 전 공식 안내를 확인하세요.</desc>
    <time>2026-08-04T05:47:17.831Z</time>
    <link href="https://www.openstreetmap.org/copyright"><text>© OpenStreetMap contributors (ODbL 1.0)</text></link>
    <link href="https://registry.opendata.aws/terrain-tiles/"><text>Elevation: SRTM 1 arc-second (NASA/USGS) via AWS Terrain Tiles</text></link>
    <extensions>
      <k100:provenance>osm-routed</k100:provenance>
      <k100:not_a_recorded_track>true</k100:not_a_recorded_track>
      <k100:mountain_id>gyeryongsan-geoje</k100:mountain_id>
      <k100:mountain_name>계룡산(거제)</k100:mountain_name>
      <k100:route_id>gyeryongsan-geoje-61e3d51d</k100:route_id>
      <k100:route_index>2</k100:route_index>
      <k100:route_name>포로수용소 유적공원 모노레일 연계 코스</k100:route_name>
      <k100:variant>2</k100:variant>
      <k100:source>OpenStreetMap via Overpass API</k100:source>
      <k100:license>ODbL-1.0</k100:license>
      <k100:attribution>© OpenStreetMap contributors</k100:attribution>
      <k100:elevation_source>SRTM 1 arc-second (NASA/USGS) — AWS Terrain Tiles 배포본. 지형 DEM 추정 고도이며 실측 아님</k100:elevation_source>
      <k100:algorithm>dijkstra-grid-v1</k100:algorithm>
      <k100:osm_snapshot>2026-08-04</k100:osm_snapshot>
      <k100:snap_trailhead_m>18</k100:snap_trailhead_m>
      <k100:snap_summit_m>12</k100:snap_summit_m>
      <k100:validation_score>75</k100:validation_score>
      <k100:validation_status>review</k100:validation_status>
    </extensions>
  </metadata>
  <trk>
    <name>계룡산 · 포로수용소 유적공원 모노레일 연계 코스 (대안 2) (OSM 계산 경로)</name>
    <desc>실제 GPS 기록이 아닙니다. OpenStreetMap에 등록된 등산로 선형 위에서 계산한 경로이며, 현장 통제·훼손·출입 제한·계절 통제를 반영하지 않을 수 있습니다. 산행 전 공식 안내를 확인하세요.</desc>
    <trkseg>
      <trkpt lat="34.877445" lon="128.625763"><ele>37.7</ele></trkpt>
      <trkpt lat="34.877860" lon="128.626435"><ele>30.0</ele></trkpt>
      <trkpt lat="34.879964" lon="128.625140"><ele>26.6</ele></trkpt>
      <trkpt lat="34.881188" lon="128.624485"><ele>23.7</ele></trkpt>
      <trkpt lat="34.881512" lon="128.624273"><ele>25.1</ele></trkpt>
      <trkpt lat="34.882620" lon="128.622824"><ele>25.6</ele></trkpt>
      <trkpt lat="34.883190" lon="128.622154"><ele>21.1</ele></trkpt>
      <trkpt lat="34.883954" lon="128.621675"><ele>21.0</ele></trkpt>
      <trkpt lat="34.883772" lon="128.621230"><ele>24.7</ele></trkpt>
      <trkpt lat="34.883744" lon="128.620945"><ele>27.5</ele></trkpt>
      <trkpt lat="34.883950" lon="128.620810"><ele>27.7</ele></trkpt>
      <trkpt lat="34.884296" lon="128.620416"><ele>26.1</ele></trkpt>
      <trkpt lat="34.883990" lon="128.619658"><ele>33.8</ele></trkpt>
      <trkpt lat="34.884352" lon="128.618600"><ele>36.7</ele></trkpt>
      <trkpt lat="34.884376" lon="128.618367"><ele>37.8</ele></trkpt>
      <trkpt lat="34.884340" lon="128.617989"><ele>43.5</ele></trkpt>
      <trkpt lat="34.884238" lon="128.617573"><ele>54.0</ele></trkpt>
      <trkpt lat="34.883840" lon="128.617130"><ele>52.9</ele></trkpt>
      <trkpt lat="34.883521" lon="128.616953"><ele>52.1</ele></trkpt>
      <trkpt lat="34.882358" lon="128.617288"><ele>45.9</ele></trkpt>
      <trkpt lat="34.882247" lon="128.616747"><ele>50.7</ele></trkpt>
      <trkpt lat="34.881966" lon="128.616834"><ele>55.1</ele></trkpt>
      <trkpt lat="34.881878" lon="128.616516"><ele>60.4</ele></trkpt>
      <trkpt lat="34.882044" lon="128.616066"><ele>74.4</ele></trkpt>
      <trkpt lat="34.882075" lon="128.615659"><ele>92.7</ele></trkpt>
      <trkpt lat="34.881748" lon="128.615760"><ele>88.3</ele></trkpt>
      <trkpt lat="34.881614" lon="128.615697"><ele>89.5</ele></trkpt>
      <trkpt lat="34.881623" lon="128.615657"><ele>90.8</ele></trkpt>
      <trkpt lat="34.881422" lon="128.615484"><ele>95.5</ele></trkpt>
      <trkpt lat="34.881333" lon="128.615164"><ele>100.5</ele></trkpt>
      <trkpt lat="34.881155" lon="128.615195"><ele>105.1</ele></trkpt>
      <trkpt lat="34.881102" lon="128.615158"><ele>106.8</ele></trkpt>
      <trkpt lat="34.881050" lon="128.614974"><ele>109.7</ele></trkpt>
      <trkpt lat="34.881119" lon="128.614627"><ele>114.9</ele></trkpt>
      <trkpt lat="34.881074" lon="128.614482"><ele>119.2</ele></trkpt>
      <trkpt lat="34.881211" lon="128.614132"><ele>119.1</ele></trkpt>
      <trkpt lat="34.881282" lon="128.613739"><ele>124.8</ele></trkpt>
      <trkpt lat="34.881607" lon="128.613297"><ele>131.5</ele></trkpt>
      <trkpt lat="34.881797" lon="128.612931"><ele>130.3</ele></trkpt>
      <trkpt lat="34.881832" lon="128.612704"><ele>130.7</ele></trkpt>
      <trkpt lat="34.881916" lon="128.612532"><ele>130.4</ele></trkpt>
      <trkpt lat="34.881632" lon="128.612345"><ele>142.2</ele></trkpt>
      <trkpt lat="34.881510" lon="128.611979"><ele>155.3</ele></trkpt>
      <trkpt lat="34.881068" lon="128.611855"><ele>173.4</ele></trkpt>
      <trkpt lat="34.880861" lon="128.611665"><ele>182.1</ele></trkpt>
      <trkpt lat="34.880542" lon="128.611157"><ele>214.5</ele></trkpt>
      <trkpt lat="34.880492" lon="128.611169"><ele>216.6</ele></trkpt>
      <trkpt lat="34.880434" lon="128.611098"><ele>220.8</ele></trkpt>
      <trkpt lat="34.880397" lon="128.611129"><ele>222.0</ele></trkpt>
      <trkpt lat="34.880379" lon="128.611027"><ele>223.9</ele></trkpt>
      <trkpt lat="34.880098" lon="128.611134"><ele>231.6</ele></trkpt>
      <trkpt lat="34.879793" lon="128.611079"><ele>245.0</ele></trkpt>
      <trkpt lat="34.879915" lon="128.610943"><ele>245.4</ele></trkpt>
      <trkpt lat="34.879919" lon="128.610792"><ele>251.1</ele></trkpt>
      <trkpt lat="34.879602" lon="128.610451"><ele>268.6</ele></trkpt>
      <trkpt lat="34.879239" lon="128.610361"><ele>282.2</ele></trkpt>
      <trkpt lat="34.879040" lon="128.610371"><ele>289.4</ele></trkpt>
      <trkpt lat="34.878768" lon="128.610572"><ele>299.0</ele></trkpt>
      <trkpt lat="34.878629" lon="128.610537"><ele>302.2</ele></trkpt>
      <trkpt lat="34.878343" lon="128.610679"><ele>315.7</ele></trkpt>
      <trkpt lat="34.878243" lon="128.610614"><ele>320.3</ele></trkpt>
      <trkpt lat="34.878150" lon="128.610626"><ele>326.5</ele></trkpt>
      <trkpt lat="34.878102" lon="128.610715"><ele>330.5</ele></trkpt>
      <trkpt lat="34.877964" lon="128.610726"><ele>334.5</ele></trkpt>
      <trkpt lat="34.877836" lon="128.610642"><ele>336.9</ele></trkpt>
      <trkpt lat="34.877734" lon="128.610329"><ele>342.8</ele></trkpt>
      <trkpt lat="34.877619" lon="128.610143"><ele>355.5</ele></trkpt>
      <trkpt lat="34.877179" lon="128.609705"><ele>386.3</ele></trkpt>
      <trkpt lat="34.877054" lon="128.609341"><ele>395.6</ele></trkpt>
      <trkpt lat="34.876977" lon="128.609270"><ele>399.6</ele></trkpt>
      <trkpt lat="34.876921" lon="128.609107"><ele>403.8</ele></trkpt>
      <trkpt lat="34.876878" lon="128.609091"><ele>404.8</ele></trkpt>
      <trkpt lat="34.876861" lon="128.608970"><ele>408.3</ele></trkpt>
      <trkpt lat="34.876625" lon="128.608625"><ele>426.9</ele></trkpt>
      <trkpt lat="34.876575" lon="128.608623"><ele>428.7</ele></trkpt>
      <trkpt lat="34.876367" lon="128.608402"><ele>443.0</ele></trkpt>
      <trkpt lat="34.876232" lon="128.608152"><ele>453.5</ele></trkpt>
      <trkpt lat="34.876052" lon="128.608124"><ele>462.2</ele></trkpt>
      <trkpt lat="34.875959" lon="128.608004"><ele>467.2</ele></trkpt>
      <trkpt lat="34.875870" lon="128.607997"><ele>472.1</ele></trkpt>
      <trkpt lat="34.875747" lon="128.607866"><ele>476.0</ele></trkpt>
      <trkpt lat="34.875533" lon="128.607588"><ele>493.1</ele></trkpt>
      <trkpt lat="34.875463" lon="128.607378"><ele>495.6</ele></trkpt>
      <trkpt lat="34.875205" lon="128.607240"><ele>502.9</ele></trkpt>
      <trkpt lat="34.874713" lon="128.607318"><ele>514.0</ele></trkpt>
      <trkpt lat="34.874468" lon="128.607491"><ele>514.8</ele></trkpt>
      <trkpt lat="34.874264" lon="128.607383"><ele>514.9</ele></trkpt>
      <trkpt lat="34.873697" lon="128.607460"><ele>531.1</ele></trkpt>
      <trkpt lat="34.873631" lon="128.607530"><ele>535.1</ele></trkpt>
      <trkpt lat="34.873478" lon="128.607535"><ele>539.7</ele></trkpt>
      <trkpt lat="34.873441" lon="128.607699"><ele>543.1</ele></trkpt>
      <trkpt lat="34.873317" lon="128.607758"><ele>549.4</ele></trkpt>
      <trkpt lat="34.873202" lon="128.607636"><ele>547.4</ele></trkpt>
      <trkpt lat="34.873120" lon="128.607741"><ele>548.3</ele></trkpt>
      <trkpt lat="34.872490" lon="128.607599"><ele>541.3</ele></trkpt>
      <trkpt lat="34.872317" lon="128.607482"><ele>544.1</ele></trkpt>
      <trkpt lat="34.872193" lon="128.607463"><ele>545.5</ele></trkpt>
      <trkpt lat="34.872022" lon="128.607511"><ele>550.8</ele></trkpt>
      <trkpt lat="34.871912" lon="128.607465"><ele>553.0</ele></trkpt>
      <trkpt lat="34.871497" lon="128.607461"><ele>558.6</ele></trkpt>
      <trkpt lat="34.871077" lon="128.607723"><ele>555.0</ele></trkpt>
    </trkseg>
  </trk>
</gpx>
