<?xml version="1.0" encoding="UTF-8"?>
<gpx version="1.1" creator="kr-100-mountains route-harvester"
     xmlns="http://www.topografix.com/GPX/1/1"
     xmlns:k100="https://github.com/jay-jang/kr-100-mountains/ns/1"
     xmlns:xsi="http://www.w3.org/2001/XMLSchema-instance"
     xsi:schemaLocation="http://www.topografix.com/GPX/1/1 http://www.topografix.com/GPX/1/1/gpx.xsd">
  <metadata>
    <name>계룡산 · 거제공설운동장-계룡산 정상 코스 (대안 1) (OSM 계산 경로)</name>
    <desc>실제 GPS 기록이 아닙니다. OpenStreetMap에 등록된 등산로 선형 위에서 계산한 경로이며, 현장 통제·훼손·출입 제한·계절 통제를 반영하지 않을 수 있습니다. 산행 전 공식 안내를 확인하세요.</desc>
    <time>2026-08-04T05:47:17.743Z</time>
    <link href="https://www.openstreetmap.org/copyright"><text>© OpenStreetMap contributors (ODbL 1.0)</text></link>
    <link href="https://registry.opendata.aws/terrain-tiles/"><text>Elevation: SRTM 1 arc-second (NASA/USGS) via AWS Terrain Tiles</text></link>
    <extensions>
      <k100:provenance>osm-routed</k100:provenance>
      <k100:not_a_recorded_track>true</k100:not_a_recorded_track>
      <k100:mountain_id>gyeryongsan-geoje</k100:mountain_id>
      <k100:mountain_name>계룡산(거제)</k100:mountain_name>
      <k100:route_id>gyeryongsan-geoje-ec68ce49</k100:route_id>
      <k100:route_index>1</k100:route_index>
      <k100:route_name>거제공설운동장-계룡산 정상 코스</k100:route_name>
      <k100:variant>1</k100:variant>
      <k100:source>OpenStreetMap via Overpass API</k100:source>
      <k100:license>ODbL-1.0</k100:license>
      <k100:attribution>© OpenStreetMap contributors</k100:attribution>
      <k100:elevation_source>SRTM 1 arc-second (NASA/USGS) — AWS Terrain Tiles 배포본. 지형 DEM 추정 고도이며 실측 아님</k100:elevation_source>
      <k100:algorithm>dijkstra-grid-v1</k100:algorithm>
      <k100:osm_snapshot>2026-08-04</k100:osm_snapshot>
      <k100:snap_trailhead_m>14</k100:snap_trailhead_m>
      <k100:snap_summit_m>12</k100:snap_summit_m>
      <k100:validation_score>100</k100:validation_score>
      <k100:validation_status>accepted</k100:validation_status>
    </extensions>
  </metadata>
  <trk>
    <name>계룡산 · 거제공설운동장-계룡산 정상 코스 (대안 1) (OSM 계산 경로)</name>
    <desc>실제 GPS 기록이 아닙니다. OpenStreetMap에 등록된 등산로 선형 위에서 계산한 경로이며, 현장 통제·훼손·출입 제한·계절 통제를 반영하지 않을 수 있습니다. 산행 전 공식 안내를 확인하세요.</desc>
    <trkseg>
      <trkpt lat="34.882883" lon="128.617904"><ele>32.1</ele></trkpt>
      <trkpt lat="34.882824" lon="128.618136"><ele>31.3</ele></trkpt>
      <trkpt lat="34.882796" lon="128.618708"><ele>37.6</ele></trkpt>
      <trkpt lat="34.882942" lon="128.619420"><ele>37.1</ele></trkpt>
      <trkpt lat="34.883156" lon="128.619620"><ele>34.3</ele></trkpt>
      <trkpt lat="34.883410" lon="128.619755"><ele>33.5</ele></trkpt>
      <trkpt lat="34.883990" lon="128.619658"><ele>33.8</ele></trkpt>
      <trkpt lat="34.884352" lon="128.618600"><ele>36.7</ele></trkpt>
      <trkpt lat="34.884376" lon="128.618367"><ele>37.8</ele></trkpt>
      <trkpt lat="34.884340" lon="128.617989"><ele>43.5</ele></trkpt>
      <trkpt lat="34.884238" lon="128.617573"><ele>54.0</ele></trkpt>
      <trkpt lat="34.883840" lon="128.617130"><ele>52.9</ele></trkpt>
      <trkpt lat="34.883521" lon="128.616953"><ele>52.1</ele></trkpt>
      <trkpt lat="34.881851" lon="128.617414"><ele>48.1</ele></trkpt>
      <trkpt lat="34.881780" lon="128.617560"><ele>48.4</ele></trkpt>
      <trkpt lat="34.881610" lon="128.617634"><ele>52.3</ele></trkpt>
      <trkpt lat="34.881436" lon="128.617379"><ele>56.7</ele></trkpt>
      <trkpt lat="34.881210" lon="128.617238"><ele>60.6</ele></trkpt>
      <trkpt lat="34.881176" lon="128.617292"><ele>61.2</ele></trkpt>
      <trkpt lat="34.881209" lon="128.617438"><ele>60.8</ele></trkpt>
      <trkpt lat="34.881148" lon="128.617389"><ele>61.9</ele></trkpt>
      <trkpt lat="34.880841" lon="128.617096"><ele>74.5</ele></trkpt>
      <trkpt lat="34.880800" lon="128.616949"><ele>78.7</ele></trkpt>
      <trkpt lat="34.880395" lon="128.616691"><ele>96.8</ele></trkpt>
      <trkpt lat="34.880154" lon="128.616410"><ele>115.1</ele></trkpt>
      <trkpt lat="34.880121" lon="128.616485"><ele>113.0</ele></trkpt>
      <trkpt lat="34.880007" lon="128.616528"><ele>115.3</ele></trkpt>
      <trkpt lat="34.879905" lon="128.616474"><ele>121.3</ele></trkpt>
      <trkpt lat="34.879703" lon="128.616629"><ele>124.5</ele></trkpt>
      <trkpt lat="34.879242" lon="128.616786"><ele>121.1</ele></trkpt>
      <trkpt lat="34.879128" lon="128.616871"><ele>116.5</ele></trkpt>
      <trkpt lat="34.879095" lon="128.616981"><ele>112.5</ele></trkpt>
      <trkpt lat="34.878804" lon="128.617144"><ele>110.9</ele></trkpt>
      <trkpt lat="34.878581" lon="128.617445"><ele>109.0</ele></trkpt>
      <trkpt lat="34.878485" lon="128.617501"><ele>111.1</ele></trkpt>
      <trkpt lat="34.878197" lon="128.617339"><ele>123.0</ele></trkpt>
      <trkpt lat="34.878157" lon="128.617465"><ele>120.7</ele></trkpt>
      <trkpt lat="34.877969" lon="128.617729"><ele>115.3</ele></trkpt>
      <trkpt lat="34.877703" lon="128.617788"><ele>116.1</ele></trkpt>
      <trkpt lat="34.877694" lon="128.617660"><ele>120.8</ele></trkpt>
      <trkpt lat="34.877554" lon="128.617492"><ele>129.1</ele></trkpt>
      <trkpt lat="34.877605" lon="128.617280"><ele>131.2</ele></trkpt>
      <trkpt lat="34.877398" lon="128.616914"><ele>135.0</ele></trkpt>
      <trkpt lat="34.877416" lon="128.616807"><ele>138.7</ele></trkpt>
      <trkpt lat="34.877376" lon="128.616698"><ele>141.8</ele></trkpt>
      <trkpt lat="34.877211" lon="128.616584"><ele>143.4</ele></trkpt>
      <trkpt lat="34.877203" lon="128.616463"><ele>148.3</ele></trkpt>
      <trkpt lat="34.877136" lon="128.616536"><ele>146.1</ele></trkpt>
      <trkpt lat="34.876863" lon="128.616462"><ele>152.1</ele></trkpt>
      <trkpt lat="34.876796" lon="128.616503"><ele>152.0</ele></trkpt>
      <trkpt lat="34.876734" lon="128.616448"><ele>153.9</ele></trkpt>
      <trkpt lat="34.876507" lon="128.616468"><ele>156.5</ele></trkpt>
      <trkpt lat="34.876283" lon="128.616334"><ele>162.7</ele></trkpt>
      <trkpt lat="34.876221" lon="128.616435"><ele>164.6</ele></trkpt>
      <trkpt lat="34.876026" lon="128.616568"><ele>173.4</ele></trkpt>
      <trkpt lat="34.875800" lon="128.616481"><ele>183.7</ele></trkpt>
      <trkpt lat="34.875689" lon="128.616515"><ele>187.1</ele></trkpt>
      <trkpt lat="34.875616" lon="128.616438"><ele>189.1</ele></trkpt>
      <trkpt lat="34.875315" lon="128.616466"><ele>196.2</ele></trkpt>
      <trkpt lat="34.875212" lon="128.616396"><ele>199.4</ele></trkpt>
      <trkpt lat="34.875134" lon="128.616484"><ele>202.3</ele></trkpt>
      <trkpt lat="34.874213" lon="128.616196"><ele>245.2</ele></trkpt>
      <trkpt lat="34.874159" lon="128.616110"><ele>246.4</ele></trkpt>
      <trkpt lat="34.874010" lon="128.616025"><ele>252.8</ele></trkpt>
      <trkpt lat="34.873880" lon="128.615828"><ele>256.4</ele></trkpt>
      <trkpt lat="34.873703" lon="128.615758"><ele>265.2</ele></trkpt>
      <trkpt lat="34.873488" lon="128.615578"><ele>276.5</ele></trkpt>
      <trkpt lat="34.873390" lon="128.615416"><ele>282.1</ele></trkpt>
      <trkpt lat="34.873304" lon="128.615101"><ele>285.6</ele></trkpt>
      <trkpt lat="34.872166" lon="128.614034"><ele>326.9</ele></trkpt>
      <trkpt lat="34.872068" lon="128.613741"><ele>327.6</ele></trkpt>
      <trkpt lat="34.871903" lon="128.613521"><ele>334.1</ele></trkpt>
      <trkpt lat="34.871820" lon="128.613051"><ele>338.9</ele></trkpt>
      <trkpt lat="34.871564" lon="128.612492"><ele>360.8</ele></trkpt>
      <trkpt lat="34.871559" lon="128.612266"><ele>367.8</ele></trkpt>
      <trkpt lat="34.871499" lon="128.612181"><ele>372.1</ele></trkpt>
      <trkpt lat="34.871483" lon="128.612008"><ele>378.0</ele></trkpt>
      <trkpt lat="34.871292" lon="128.611864"><ele>388.3</ele></trkpt>
      <trkpt lat="34.871251" lon="128.611748"><ele>393.0</ele></trkpt>
      <trkpt lat="34.871209" lon="128.611769"><ele>393.5</ele></trkpt>
      <trkpt lat="34.871239" lon="128.611654"><ele>396.1</ele></trkpt>
      <trkpt lat="34.871061" lon="128.611496"><ele>405.0</ele></trkpt>
      <trkpt lat="34.870868" lon="128.611453"><ele>412.8</ele></trkpt>
      <trkpt lat="34.870743" lon="128.611286"><ele>423.6</ele></trkpt>
      <trkpt lat="34.870603" lon="128.611239"><ele>431.1</ele></trkpt>
      <trkpt lat="34.870512" lon="128.611092"><ele>440.5</ele></trkpt>
      <trkpt lat="34.870320" lon="128.611048"><ele>445.5</ele></trkpt>
      <trkpt lat="34.870242" lon="128.610974"><ele>449.8</ele></trkpt>
      <trkpt lat="34.869971" lon="128.611001"><ele>456.0</ele></trkpt>
      <trkpt lat="34.869778" lon="128.610921"><ele>465.3</ele></trkpt>
      <trkpt lat="34.869689" lon="128.610789"><ele>472.8</ele></trkpt>
      <trkpt lat="34.869772" lon="128.610431"><ele>482.7</ele></trkpt>
      <trkpt lat="34.869882" lon="128.610194"><ele>488.7</ele></trkpt>
      <trkpt lat="34.870064" lon="128.610173"><ele>484.9</ele></trkpt>
      <trkpt lat="34.870110" lon="128.610089"><ele>486.6</ele></trkpt>
      <trkpt lat="34.870152" lon="128.609724"><ele>499.2</ele></trkpt>
      <trkpt lat="34.870270" lon="128.609549"><ele>503.4</ele></trkpt>
      <trkpt lat="34.870125" lon="128.609344"><ele>515.0</ele></trkpt>
      <trkpt lat="34.870252" lon="128.608952"><ele>525.9</ele></trkpt>
      <trkpt lat="34.870296" lon="128.608981"><ele>523.8</ele></trkpt>
      <trkpt lat="34.870587" lon="128.608578"><ele>534.9</ele></trkpt>
      <trkpt lat="34.870777" lon="128.608513"><ele>535.3</ele></trkpt>
      <trkpt lat="34.870848" lon="128.608232"><ele>546.0</ele></trkpt>
      <trkpt lat="34.871008" lon="128.608110"><ele>551.1</ele></trkpt>
      <trkpt lat="34.871004" lon="128.608049"><ele>552.9</ele></trkpt>
      <trkpt lat="34.871135" lon="128.608009"><ele>554.5</ele></trkpt>
      <trkpt lat="34.871110" lon="128.607953"><ele>554.7</ele></trkpt>
      <trkpt lat="34.871170" lon="128.607820"><ele>556.6</ele></trkpt>
      <trkpt lat="34.871077" lon="128.607723"><ele>555.0</ele></trkpt>
    </trkseg>
  </trk>
</gpx>
