<?xml version="1.0" encoding="UTF-8"?>
<gpx version="1.1" creator="kr-100-mountains route-harvester"
     xmlns="http://www.topografix.com/GPX/1/1"
     xmlns:k100="https://github.com/jay-jang/kr-100-mountains/ns/1"
     xmlns:xsi="http://www.w3.org/2001/XMLSchema-instance"
     xsi:schemaLocation="http://www.topografix.com/GPX/1/1 http://www.topografix.com/GPX/1/1/gpx.xsd">
  <metadata>
    <name>마대산 · 김삿갓 생가-정상 최단 코스 (OSM 계산 경로)</name>
    <desc>실제 GPS 기록이 아닙니다. OpenStreetMap에 등록된 등산로 선형 위에서 계산한 경로이며, 현장 통제·훼손·출입 제한·계절 통제를 반영하지 않을 수 있습니다. 산행 전 공식 안내를 확인하세요.</desc>
    <time>2026-08-04T05:23:05.847Z</time>
    <link href="https://www.openstreetmap.org/copyright"><text>© OpenStreetMap contributors (ODbL 1.0)</text></link>
    <link href="https://registry.opendata.aws/terrain-tiles/"><text>Elevation: SRTM 1 arc-second (NASA/USGS) via AWS Terrain Tiles</text></link>
    <extensions>
      <k100:provenance>osm-routed</k100:provenance>
      <k100:not_a_recorded_track>true</k100:not_a_recorded_track>
      <k100:mountain_id>madaesan</k100:mountain_id>
      <k100:mountain_name>마대산</k100:mountain_name>
      <k100:route_id>madaesan-52a4b73c</k100:route_id>
      <k100:route_index>2</k100:route_index>
      <k100:route_name>김삿갓 생가-정상 최단 코스</k100:route_name>
      <k100:variant>0</k100:variant>
      <k100:source>OpenStreetMap via Overpass API</k100:source>
      <k100:license>ODbL-1.0</k100:license>
      <k100:attribution>© OpenStreetMap contributors</k100:attribution>
      <k100:elevation_source>SRTM 1 arc-second (NASA/USGS) — AWS Terrain Tiles 배포본. 지형 DEM 추정 고도이며 실측 아님</k100:elevation_source>
      <k100:algorithm>dijkstra-grid-v1</k100:algorithm>
      <k100:osm_snapshot>2026-08-04</k100:osm_snapshot>
      <k100:snap_trailhead_m>727</k100:snap_trailhead_m>
      <k100:snap_summit_m>17</k100:snap_summit_m>
      <k100:validation_score>61</k100:validation_score>
      <k100:validation_status>review</k100:validation_status>
    </extensions>
  </metadata>
  <trk>
    <name>마대산 · 김삿갓 생가-정상 최단 코스 (OSM 계산 경로)</name>
    <desc>실제 GPS 기록이 아닙니다. OpenStreetMap에 등록된 등산로 선형 위에서 계산한 경로이며, 현장 통제·훼손·출입 제한·계절 통제를 반영하지 않을 수 있습니다. 산행 전 공식 안내를 확인하세요.</desc>
    <trkseg>
      <trkpt lat="37.111609" lon="128.418792"><ele>301.2</ele></trkpt>
      <trkpt lat="37.111643" lon="128.418642"><ele>297.0</ele></trkpt>
      <trkpt lat="37.111802" lon="128.418353"><ele>292.8</ele></trkpt>
      <trkpt lat="37.111857" lon="128.418117"><ele>288.6</ele></trkpt>
      <trkpt lat="37.111819" lon="128.417929"><ele>285.1</ele></trkpt>
      <trkpt lat="37.111673" lon="128.417655"><ele>280.6</ele></trkpt>
      <trkpt lat="37.111913" lon="128.416754"><ele>273.3</ele></trkpt>
      <trkpt lat="37.111913" lon="128.416475"><ele>268.9</ele></trkpt>
      <trkpt lat="37.112033" lon="128.415617"><ele>257.4</ele></trkpt>
      <trkpt lat="37.112007" lon="128.415027"><ele>256.6</ele></trkpt>
      <trkpt lat="37.112161" lon="128.414861"><ele>248.8</ele></trkpt>
      <trkpt lat="37.112234" lon="128.414566"><ele>243.2</ele></trkpt>
      <trkpt lat="37.112131" lon="128.413858"><ele>236.5</ele></trkpt>
      <trkpt lat="37.112200" lon="128.413729"><ele>236.3</ele></trkpt>
      <trkpt lat="37.112217" lon="128.413402"><ele>236.7</ele></trkpt>
      <trkpt lat="37.111695" lon="128.412972"><ele>228.9</ele></trkpt>
      <trkpt lat="37.111399" lon="128.413058"><ele>228.0</ele></trkpt>
      <trkpt lat="37.110920" lon="128.412817"><ele>226.9</ele></trkpt>
      <trkpt lat="37.110698" lon="128.412463"><ele>226.6</ele></trkpt>
      <trkpt lat="37.110595" lon="128.412066"><ele>226.4</ele></trkpt>
      <trkpt lat="37.110578" lon="128.411572"><ele>226.2</ele></trkpt>
      <trkpt lat="37.110454" lon="128.411156"><ele>223.8</ele></trkpt>
      <trkpt lat="37.110374" lon="128.411034"><ele>223.1</ele></trkpt>
      <trkpt lat="37.110307" lon="128.411053"><ele>222.9</ele></trkpt>
      <trkpt lat="37.110022" lon="128.410494"><ele>220.1</ele></trkpt>
      <trkpt lat="37.109787" lon="128.410231"><ele>220.1</ele></trkpt>
      <trkpt lat="37.109521" lon="128.410028"><ele>222.2</ele></trkpt>
      <trkpt lat="37.109386" lon="128.410604"><ele>219.8</ele></trkpt>
      <trkpt lat="37.109203" lon="128.410995"><ele>219.6</ele></trkpt>
      <trkpt lat="37.108766" lon="128.411247"><ele>218.3</ele></trkpt>
      <trkpt lat="37.108332" lon="128.411658"><ele>215.0</ele></trkpt>
      <trkpt lat="37.107177" lon="128.413286"><ele>217.1</ele></trkpt>
      <trkpt lat="37.106533" lon="128.413688"><ele>214.4</ele></trkpt>
      <trkpt lat="37.106390" lon="128.413720"><ele>214.0</ele></trkpt>
      <trkpt lat="37.106227" lon="128.413653"><ele>214.1</ele></trkpt>
      <trkpt lat="37.105438" lon="128.412682"><ele>213.3</ele></trkpt>
      <trkpt lat="37.104961" lon="128.412503"><ele>218.0</ele></trkpt>
      <trkpt lat="37.104529" lon="128.412530"><ele>216.9</ele></trkpt>
      <trkpt lat="37.104158" lon="128.412672"><ele>215.3</ele></trkpt>
      <trkpt lat="37.103373" lon="128.413171"><ele>210.6</ele></trkpt>
      <trkpt lat="37.103429" lon="128.413466"><ele>212.1</ele></trkpt>
      <trkpt lat="37.103326" lon="128.413685"><ele>214.8</ele></trkpt>
      <trkpt lat="37.103120" lon="128.413680"><ele>213.4</ele></trkpt>
      <trkpt lat="37.101890" lon="128.413920"><ele>209.9</ele></trkpt>
      <trkpt lat="37.101480" lon="128.414060"><ele>213.3</ele></trkpt>
      <trkpt lat="37.101100" lon="128.414350"><ele>212.6</ele></trkpt>
      <trkpt lat="37.100830" lon="128.414630"><ele>214.3</ele></trkpt>
      <trkpt lat="37.099960" lon="128.415170"><ele>204.8</ele></trkpt>
      <trkpt lat="37.099670" lon="128.415500"><ele>207.2</ele></trkpt>
      <trkpt lat="37.099224" lon="128.415886"><ele>205.4</ele></trkpt>
      <trkpt lat="37.099027" lon="128.415923"><ele>207.2</ele></trkpt>
      <trkpt lat="37.098022" lon="128.415805"><ele>203.5</ele></trkpt>
      <trkpt lat="37.097559" lon="128.415869"><ele>202.4</ele></trkpt>
      <trkpt lat="37.097393" lon="128.415981"><ele>201.8</ele></trkpt>
      <trkpt lat="37.096771" lon="128.416850"><ele>217.8</ele></trkpt>
      <trkpt lat="37.096663" lon="128.416932"><ele>217.5</ele></trkpt>
      <trkpt lat="37.096190" lon="128.416892"><ele>203.4</ele></trkpt>
      <trkpt lat="37.095184" lon="128.417250"><ele>198.6</ele></trkpt>
      <trkpt lat="37.094606" lon="128.417661"><ele>199.2</ele></trkpt>
      <trkpt lat="37.094394" lon="128.417758"><ele>199.1</ele></trkpt>
      <trkpt lat="37.093840" lon="128.417885"><ele>199.7</ele></trkpt>
      <trkpt lat="37.093489" lon="128.418115"><ele>199.6</ele></trkpt>
      <trkpt lat="37.092445" lon="128.418942"><ele>197.6</ele></trkpt>
      <trkpt lat="37.092192" lon="128.419272"><ele>195.8</ele></trkpt>
      <trkpt lat="37.091342" lon="128.420684"><ele>200.9</ele></trkpt>
      <trkpt lat="37.090708" lon="128.421357"><ele>203.1</ele></trkpt>
      <trkpt lat="37.089813" lon="128.422609"><ele>204.6</ele></trkpt>
      <trkpt lat="37.089505" lon="128.422735"><ele>194.9</ele></trkpt>
      <trkpt lat="37.089368" lon="128.423237"><ele>198.8</ele></trkpt>
      <trkpt lat="37.087906" lon="128.424868"><ele>194.1</ele></trkpt>
      <trkpt lat="37.087556" lon="128.425115"><ele>192.4</ele></trkpt>
      <trkpt lat="37.086561" lon="128.425497"><ele>187.8</ele></trkpt>
      <trkpt lat="37.085818" lon="128.425879"><ele>201.6</ele></trkpt>
      <trkpt lat="37.085230" lon="128.425541"><ele>194.6</ele></trkpt>
      <trkpt lat="37.083887" lon="128.424980"><ele>194.7</ele></trkpt>
      <trkpt lat="37.082042" lon="128.424410"><ele>192.6</ele></trkpt>
      <trkpt lat="37.081753" lon="128.424438"><ele>192.5</ele></trkpt>
      <trkpt lat="37.081599" lon="128.424564"><ele>193.3</ele></trkpt>
      <trkpt lat="37.081142" lon="128.425132"><ele>192.6</ele></trkpt>
      <trkpt lat="37.080206" lon="128.426572"><ele>188.5</ele></trkpt>
      <trkpt lat="37.079583" lon="128.427048"><ele>186.3</ele></trkpt>
      <trkpt lat="37.079321" lon="128.427328"><ele>185.5</ele></trkpt>
      <trkpt lat="37.079179" lon="128.427581"><ele>184.8</ele></trkpt>
      <trkpt lat="37.078884" lon="128.428425"><ele>192.2</ele></trkpt>
      <trkpt lat="37.078729" lon="128.428741"><ele>192.8</ele></trkpt>
      <trkpt lat="37.077625" lon="128.430231"><ele>174.2</ele></trkpt>
      <trkpt lat="37.077726" lon="128.430462"><ele>173.4</ele></trkpt>
      <trkpt lat="37.077532" lon="128.430614"><ele>174.6</ele></trkpt>
      <trkpt lat="37.077116" lon="128.430790"><ele>173.5</ele></trkpt>
      <trkpt lat="37.076138" lon="128.430928"><ele>171.3</ele></trkpt>
      <trkpt lat="37.075168" lon="128.431677"><ele>173.4</ele></trkpt>
      <trkpt lat="37.074604" lon="128.432247"><ele>173.1</ele></trkpt>
      <trkpt lat="37.073248" lon="128.432982"><ele>183.9</ele></trkpt>
      <trkpt lat="37.073024" lon="128.433039"><ele>192.0</ele></trkpt>
      <trkpt lat="37.072080" lon="128.432950"><ele>186.6</ele></trkpt>
      <trkpt lat="37.071548" lon="128.433117"><ele>185.1</ele></trkpt>
      <trkpt lat="37.071078" lon="128.433446"><ele>182.1</ele></trkpt>
      <trkpt lat="37.070520" lon="128.433987"><ele>178.6</ele></trkpt>
      <trkpt lat="37.070396" lon="128.434153"><ele>175.8</ele></trkpt>
      <trkpt lat="37.070278" lon="128.434525"><ele>172.0</ele></trkpt>
      <trkpt lat="37.070400" lon="128.434960"><ele>172.1</ele></trkpt>
      <trkpt lat="37.070512" lon="128.435081"><ele>172.6</ele></trkpt>
      <trkpt lat="37.071406" lon="128.435464"><ele>179.5</ele></trkpt>
      <trkpt lat="37.071825" lon="128.435743"><ele>184.7</ele></trkpt>
      <trkpt lat="37.072074" lon="128.436052"><ele>183.8</ele></trkpt>
      <trkpt lat="37.072175" lon="128.436329"><ele>180.8</ele></trkpt>
      <trkpt lat="37.072260" lon="128.436765"><ele>173.3</ele></trkpt>
      <trkpt lat="37.072249" lon="128.437236"><ele>171.9</ele></trkpt>
      <trkpt lat="37.072138" lon="128.437583"><ele>173.1</ele></trkpt>
      <trkpt lat="37.070990" lon="128.439276"><ele>171.9</ele></trkpt>
      <trkpt lat="37.070349" lon="128.439846"><ele>176.8</ele></trkpt>
      <trkpt lat="37.069233" lon="128.440465"><ele>161.2</ele></trkpt>
      <trkpt lat="37.068977" lon="128.440548"><ele>153.8</ele></trkpt>
      <trkpt lat="37.066792" lon="128.440644"><ele>166.9</ele></trkpt>
      <trkpt lat="37.066670" lon="128.440566"><ele>169.1</ele></trkpt>
      <trkpt lat="37.066593" lon="128.440415"><ele>170.0</ele></trkpt>
      <trkpt lat="37.066561" lon="128.439620"><ele>165.5</ele></trkpt>
      <trkpt lat="37.065577" lon="128.440193"><ele>177.6</ele></trkpt>
      <trkpt lat="37.065467" lon="128.440325"><ele>179.3</ele></trkpt>
      <trkpt lat="37.065051" lon="128.441122"><ele>198.8</ele></trkpt>
      <trkpt lat="37.064304" lon="128.441644"><ele>201.8</ele></trkpt>
      <trkpt lat="37.063905" lon="128.442028"><ele>212.4</ele></trkpt>
      <trkpt lat="37.063128" lon="128.443590"><ele>252.5</ele></trkpt>
      <trkpt lat="37.062269" lon="128.444051"><ele>256.6</ele></trkpt>
      <trkpt lat="37.061628" lon="128.444845"><ele>271.2</ele></trkpt>
      <trkpt lat="37.061144" lon="128.445303"><ele>276.4</ele></trkpt>
      <trkpt lat="37.060633" lon="128.446311"><ele>289.9</ele></trkpt>
      <trkpt lat="37.060199" lon="128.446754"><ele>296.0</ele></trkpt>
      <trkpt lat="37.059893" lon="128.446976"><ele>302.9</ele></trkpt>
      <trkpt lat="37.059291" lon="128.447222"><ele>312.4</ele></trkpt>
      <trkpt lat="37.059253" lon="128.447328"><ele>311.4</ele></trkpt>
      <trkpt lat="37.059266" lon="128.447501"><ele>307.9</ele></trkpt>
      <trkpt lat="37.059615" lon="128.447647"><ele>307.0</ele></trkpt>
      <trkpt lat="37.059670" lon="128.447762"><ele>309.5</ele></trkpt>
      <trkpt lat="37.059620" lon="128.447842"><ele>311.7</ele></trkpt>
      <trkpt lat="37.058923" lon="128.448221"><ele>316.5</ele></trkpt>
      <trkpt lat="37.058655" lon="128.448757"><ele>329.1</ele></trkpt>
      <trkpt lat="37.058507" lon="128.449438"><ele>344.6</ele></trkpt>
      <trkpt lat="37.058249" lon="128.449613"><ele>344.4</ele></trkpt>
      <trkpt lat="37.057726" lon="128.449792"><ele>354.2</ele></trkpt>
      <trkpt lat="37.057172" lon="128.450119"><ele>367.4</ele></trkpt>
      <trkpt lat="37.056724" lon="128.450172"><ele>378.3</ele></trkpt>
      <trkpt lat="37.056539" lon="128.450360"><ele>382.0</ele></trkpt>
      <trkpt lat="37.056413" lon="128.450633"><ele>386.6</ele></trkpt>
      <trkpt lat="37.056429" lon="128.450799"><ele>389.4</ele></trkpt>
      <trkpt lat="37.056491" lon="128.450928"><ele>393.5</ele></trkpt>
      <trkpt lat="37.056654" lon="128.450974"><ele>393.8</ele></trkpt>
      <trkpt lat="37.057213" lon="128.451380"><ele>401.0</ele></trkpt>
      <trkpt lat="37.057311" lon="128.451381"><ele>400.4</ele></trkpt>
      <trkpt lat="37.057511" lon="128.451122"><ele>391.3</ele></trkpt>
      <trkpt lat="37.057597" lon="128.451106"><ele>390.4</ele></trkpt>
      <trkpt lat="37.057766" lon="128.451191"><ele>392.9</ele></trkpt>
      <trkpt lat="37.058003" lon="128.451497"><ele>403.9</ele></trkpt>
      <trkpt lat="37.058205" lon="128.451562"><ele>406.0</ele></trkpt>
      <trkpt lat="37.058290" lon="128.451529"><ele>405.0</ele></trkpt>
      <trkpt lat="37.058394" lon="128.451212"><ele>397.3</ele></trkpt>
      <trkpt lat="37.058505" lon="128.451129"><ele>398.7</ele></trkpt>
      <trkpt lat="37.058709" lon="128.451117"><ele>405.7</ele></trkpt>
      <trkpt lat="37.059038" lon="128.451236"><ele>415.0</ele></trkpt>
      <trkpt lat="37.059011" lon="128.451324"><ele>416.6</ele></trkpt>
      <trkpt lat="37.058828" lon="128.451351"><ele>414.5</ele></trkpt>
      <trkpt lat="37.058724" lon="128.451447"><ele>413.3</ele></trkpt>
      <trkpt lat="37.058680" lon="128.451609"><ele>415.1</ele></trkpt>
      <trkpt lat="37.058681" lon="128.451894"><ele>420.5</ele></trkpt>
      <trkpt lat="37.058487" lon="128.452379"><ele>424.2</ele></trkpt>
      <trkpt lat="37.058364" lon="128.452462"><ele>423.9</ele></trkpt>
      <trkpt lat="37.057968" lon="128.452506"><ele>432.4</ele></trkpt>
      <trkpt lat="37.057926" lon="128.452646"><ele>440.0</ele></trkpt>
      <trkpt lat="37.058471" lon="128.453515"><ele>450.0</ele></trkpt>
      <trkpt lat="37.058652" lon="128.453650"><ele>447.0</ele></trkpt>
      <trkpt lat="37.058831" lon="128.453880"><ele>446.4</ele></trkpt>
      <trkpt lat="37.059063" lon="128.454412"><ele>445.2</ele></trkpt>
      <trkpt lat="37.059650" lon="128.454963"><ele>433.8</ele></trkpt>
      <trkpt lat="37.060299" lon="128.455259"><ele>408.8</ele></trkpt>
      <trkpt lat="37.060656" lon="128.455679"><ele>409.7</ele></trkpt>
      <trkpt lat="37.060973" lon="128.456215"><ele>406.9</ele></trkpt>
      <trkpt lat="37.061025" lon="128.456392"><ele>404.4</ele></trkpt>
      <trkpt lat="37.060905" lon="128.456523"><ele>405.3</ele></trkpt>
      <trkpt lat="37.060306" lon="128.456534"><ele>416.9</ele></trkpt>
      <trkpt lat="37.059963" lon="128.456650"><ele>421.2</ele></trkpt>
      <trkpt lat="37.059556" lon="128.456701"><ele>426.7</ele></trkpt>
      <trkpt lat="37.059421" lon="128.456803"><ele>428.0</ele></trkpt>
      <trkpt lat="37.059401" lon="128.456979"><ele>428.1</ele></trkpt>
      <trkpt lat="37.059502" lon="128.457210"><ele>428.1</ele></trkpt>
      <trkpt lat="37.059940" lon="128.457538"><ele>420.9</ele></trkpt>
      <trkpt lat="37.061206" lon="128.459123"><ele>423.3</ele></trkpt>
      <trkpt lat="37.061439" lon="128.460111"><ele>427.8</ele></trkpt>
      <trkpt lat="37.061490" lon="128.461115"><ele>438.1</ele></trkpt>
      <trkpt lat="37.061690" lon="128.461696"><ele>434.1</ele></trkpt>
      <trkpt lat="37.061659" lon="128.461810"><ele>433.1</ele></trkpt>
      <trkpt lat="37.061577" lon="128.461874"><ele>433.9</ele></trkpt>
      <trkpt lat="37.060815" lon="128.462017"><ele>438.3</ele></trkpt>
      <trkpt lat="37.060268" lon="128.462051"><ele>445.0</ele></trkpt>
      <trkpt lat="37.059993" lon="128.462142"><ele>450.2</ele></trkpt>
      <trkpt lat="37.059871" lon="128.462277"><ele>456.0</ele></trkpt>
      <trkpt lat="37.059980" lon="128.462525"><ele>459.3</ele></trkpt>
      <trkpt lat="37.060758" lon="128.463106"><ele>447.8</ele></trkpt>
      <trkpt lat="37.061637" lon="128.464004"><ele>434.5</ele></trkpt>
      <trkpt lat="37.061683" lon="128.464215"><ele>437.5</ele></trkpt>
      <trkpt lat="37.061739" lon="128.465376"><ele>452.4</ele></trkpt>
      <trkpt lat="37.061810" lon="128.465501"><ele>453.6</ele></trkpt>
      <trkpt lat="37.061930" lon="128.465559"><ele>452.4</ele></trkpt>
      <trkpt lat="37.062280" lon="128.465525"><ele>449.6</ele></trkpt>
      <trkpt lat="37.062651" lon="128.465220"><ele>440.5</ele></trkpt>
      <trkpt lat="37.063403" lon="128.466063"><ele>448.9</ele></trkpt>
      <trkpt lat="37.063995" lon="128.467031"><ele>447.3</ele></trkpt>
      <trkpt lat="37.064003" lon="128.467461"><ele>449.1</ele></trkpt>
      <trkpt lat="37.063896" lon="128.467867"><ele>450.3</ele></trkpt>
      <trkpt lat="37.063766" lon="128.468086"><ele>450.7</ele></trkpt>
      <trkpt lat="37.063607" lon="128.468220"><ele>452.4</ele></trkpt>
      <trkpt lat="37.062981" lon="128.468422"><ele>456.7</ele></trkpt>
      <trkpt lat="37.062690" lon="128.468309"><ele>466.2</ele></trkpt>
      <trkpt lat="37.062521" lon="128.468078"><ele>472.3</ele></trkpt>
      <trkpt lat="37.062169" lon="128.468334"><ele>471.8</ele></trkpt>
      <trkpt lat="37.062034" lon="128.468378"><ele>473.0</ele></trkpt>
      <trkpt lat="37.061574" lon="128.468229"><ele>474.3</ele></trkpt>
      <trkpt lat="37.060943" lon="128.467914"><ele>471.9</ele></trkpt>
      <trkpt lat="37.060819" lon="128.467924"><ele>471.5</ele></trkpt>
      <trkpt lat="37.060545" lon="128.468138"><ele>466.9</ele></trkpt>
      <trkpt lat="37.060408" lon="128.468181"><ele>469.0</ele></trkpt>
      <trkpt lat="37.058640" lon="128.468166"><ele>487.2</ele></trkpt>
      <trkpt lat="37.058369" lon="128.468124"><ele>490.2</ele></trkpt>
      <trkpt lat="37.057856" lon="128.467871"><ele>501.9</ele></trkpt>
      <trkpt lat="37.057324" lon="128.467945"><ele>494.9</ele></trkpt>
      <trkpt lat="37.057045" lon="128.468082"><ele>494.6</ele></trkpt>
      <trkpt lat="37.056875" lon="128.468242"><ele>497.7</ele></trkpt>
      <trkpt lat="37.056505" lon="128.469164"><ele>493.6</ele></trkpt>
      <trkpt lat="37.056309" lon="128.469457"><ele>490.1</ele></trkpt>
      <trkpt lat="37.056193" lon="128.469498"><ele>491.3</ele></trkpt>
      <trkpt lat="37.055754" lon="128.469440"><ele>499.3</ele></trkpt>
      <trkpt lat="37.055107" lon="128.469457"><ele>516.9</ele></trkpt>
      <trkpt lat="37.055025" lon="128.469519"><ele>517.4</ele></trkpt>
      <trkpt lat="37.054947" lon="128.469667"><ele>516.8</ele></trkpt>
      <trkpt lat="37.054915" lon="128.469884"><ele>520.0</ele></trkpt>
      <trkpt lat="37.055402" lon="128.470881"><ele>517.5</ele></trkpt>
      <trkpt lat="37.055875" lon="128.472330"><ele>509.9</ele></trkpt>
      <trkpt lat="37.056002" lon="128.472554"><ele>511.0</ele></trkpt>
      <trkpt lat="37.057480" lon="128.474065"><ele>482.8</ele></trkpt>
      <trkpt lat="37.057522" lon="128.474217"><ele>481.8</ele></trkpt>
      <trkpt lat="37.057518" lon="128.474973"><ele>485.3</ele></trkpt>
      <trkpt lat="37.057441" lon="128.475091"><ele>484.8</ele></trkpt>
      <trkpt lat="37.057280" lon="128.475126"><ele>481.3</ele></trkpt>
      <trkpt lat="37.057102" lon="128.475013"><ele>478.2</ele></trkpt>
      <trkpt lat="37.056816" lon="128.474568"><ele>483.5</ele></trkpt>
      <trkpt lat="37.056610" lon="128.474509"><ele>484.6</ele></trkpt>
      <trkpt lat="37.056418" lon="128.474587"><ele>480.6</ele></trkpt>
      <trkpt lat="37.056021" lon="128.474976"><ele>473.4</ele></trkpt>
      <trkpt lat="37.055852" lon="128.475244"><ele>472.3</ele></trkpt>
      <trkpt lat="37.055855" lon="128.475472"><ele>469.0</ele></trkpt>
      <trkpt lat="37.055994" lon="128.475858"><ele>456.5</ele></trkpt>
      <trkpt lat="37.055900" lon="128.476285"><ele>448.3</ele></trkpt>
      <trkpt lat="37.055726" lon="128.476435"><ele>448.0</ele></trkpt>
      <trkpt lat="37.055255" lon="128.476596"><ele>451.4</ele></trkpt>
      <trkpt lat="37.055009" lon="128.476765"><ele>443.7</ele></trkpt>
      <trkpt lat="37.054361" lon="128.477626"><ele>431.0</ele></trkpt>
      <trkpt lat="37.053943" lon="128.478082"><ele>418.4</ele></trkpt>
      <trkpt lat="37.053832" lon="128.478141"><ele>416.0</ele></trkpt>
      <trkpt lat="37.053729" lon="128.478114"><ele>413.1</ele></trkpt>
      <trkpt lat="37.053620" lon="128.477991"><ele>411.0</ele></trkpt>
      <trkpt lat="37.053479" lon="128.477605"><ele>409.2</ele></trkpt>
      <trkpt lat="37.053297" lon="128.477328"><ele>404.4</ele></trkpt>
      <trkpt lat="37.052280" lon="128.476451"><ele>388.0</ele></trkpt>
      <trkpt lat="37.051892" lon="128.476266"><ele>391.0</ele></trkpt>
      <trkpt lat="37.051456" lon="128.476204"><ele>394.2</ele></trkpt>
      <trkpt lat="37.051090" lon="128.476250"><ele>391.3</ele></trkpt>
      <trkpt lat="37.050873" lon="128.476403"><ele>387.0</ele></trkpt>
      <trkpt lat="37.050784" lon="128.476580"><ele>384.0</ele></trkpt>
      <trkpt lat="37.050749" lon="128.476827"><ele>381.7</ele></trkpt>
      <trkpt lat="37.050773" lon="128.477111"><ele>381.0</ele></trkpt>
      <trkpt lat="37.050843" lon="128.477261"><ele>378.4</ele></trkpt>
      <trkpt lat="37.051032" lon="128.477363"><ele>370.5</ele></trkpt>
      <trkpt lat="37.051344" lon="128.477296"><ele>365.7</ele></trkpt>
      <trkpt lat="37.051612" lon="128.477355"><ele>365.3</ele></trkpt>
    </trkseg>
  </trk>
</gpx>
