<?xml version="1.0" encoding="UTF-8"?>
<gpx version="1.1" creator="kr-100-mountains route-harvester"
     xmlns="http://www.topografix.com/GPX/1/1"
     xmlns:k100="https://github.com/jay-jang/kr-100-mountains/ns/1"
     xmlns:xsi="http://www.w3.org/2001/XMLSchema-instance"
     xsi:schemaLocation="http://www.topografix.com/GPX/1/1 http://www.topografix.com/GPX/1/1/gpx.xsd">
  <metadata>
    <name>마대산 · 김삿갓유적지 원점회귀 코스 (OSM 계산 경로)</name>
    <desc>실제 GPS 기록이 아닙니다. OpenStreetMap에 등록된 등산로 선형 위에서 계산한 경로이며, 현장 통제·훼손·출입 제한·계절 통제를 반영하지 않을 수 있습니다. 산행 전 공식 안내를 확인하세요.</desc>
    <time>2026-08-04T05:23:05.710Z</time>
    <link href="https://www.openstreetmap.org/copyright"><text>© OpenStreetMap contributors (ODbL 1.0)</text></link>
    <link href="https://registry.opendata.aws/terrain-tiles/"><text>Elevation: SRTM 1 arc-second (NASA/USGS) via AWS Terrain Tiles</text></link>
    <extensions>
      <k100:provenance>osm-routed</k100:provenance>
      <k100:not_a_recorded_track>true</k100:not_a_recorded_track>
      <k100:mountain_id>madaesan</k100:mountain_id>
      <k100:mountain_name>마대산</k100:mountain_name>
      <k100:route_id>madaesan-9b81ffaa</k100:route_id>
      <k100:route_index>1</k100:route_index>
      <k100:route_name>김삿갓유적지 원점회귀 코스</k100:route_name>
      <k100:variant>0</k100:variant>
      <k100:source>OpenStreetMap via Overpass API</k100:source>
      <k100:license>ODbL-1.0</k100:license>
      <k100:attribution>© OpenStreetMap contributors</k100:attribution>
      <k100:elevation_source>SRTM 1 arc-second (NASA/USGS) — AWS Terrain Tiles 배포본. 지형 DEM 추정 고도이며 실측 아님</k100:elevation_source>
      <k100:algorithm>dijkstra-grid-v1</k100:algorithm>
      <k100:osm_snapshot>2026-08-04</k100:osm_snapshot>
      <k100:snap_trailhead_m>18</k100:snap_trailhead_m>
      <k100:snap_summit_m>17</k100:snap_summit_m>
      <k100:validation_score>75</k100:validation_score>
      <k100:validation_status>review</k100:validation_status>
    </extensions>
  </metadata>
  <trk>
    <name>마대산 · 김삿갓유적지 원점회귀 코스 (OSM 계산 경로)</name>
    <desc>실제 GPS 기록이 아닙니다. OpenStreetMap에 등록된 등산로 선형 위에서 계산한 경로이며, 현장 통제·훼손·출입 제한·계절 통제를 반영하지 않을 수 있습니다. 산행 전 공식 안내를 확인하세요.</desc>
    <trkseg>
      <trkpt lat="37.080547" lon="128.601856"><ele>331.8</ele></trkpt>
      <trkpt lat="37.080957" lon="128.601889"><ele>331.7</ele></trkpt>
      <trkpt lat="37.081425" lon="128.601675"><ele>327.9</ele></trkpt>
      <trkpt lat="37.081578" lon="128.601270"><ele>335.1</ele></trkpt>
      <trkpt lat="37.080475" lon="128.600886"><ele>335.0</ele></trkpt>
      <trkpt lat="37.079844" lon="128.600776"><ele>343.7</ele></trkpt>
      <trkpt lat="37.078974" lon="128.600847"><ele>356.7</ele></trkpt>
      <trkpt lat="37.078704" lon="128.601026"><ele>357.0</ele></trkpt>
      <trkpt lat="37.078599" lon="128.601171"><ele>357.0</ele></trkpt>
      <trkpt lat="37.078436" lon="128.601566"><ele>356.1</ele></trkpt>
      <trkpt lat="37.078290" lon="128.602434"><ele>353.9</ele></trkpt>
      <trkpt lat="37.078284" lon="128.603010"><ele>363.2</ele></trkpt>
      <trkpt lat="37.078383" lon="128.603691"><ele>364.7</ele></trkpt>
      <trkpt lat="37.078352" lon="128.604055"><ele>364.6</ele></trkpt>
      <trkpt lat="37.078056" lon="128.604498"><ele>359.1</ele></trkpt>
      <trkpt lat="37.076607" lon="128.605322"><ele>361.9</ele></trkpt>
      <trkpt lat="37.076260" lon="128.605652"><ele>367.7</ele></trkpt>
      <trkpt lat="37.076109" lon="128.606065"><ele>366.4</ele></trkpt>
      <trkpt lat="37.076019" lon="128.606613"><ele>373.1</ele></trkpt>
      <trkpt lat="37.076028" lon="128.607141"><ele>379.6</ele></trkpt>
      <trkpt lat="37.076119" lon="128.607386"><ele>375.9</ele></trkpt>
      <trkpt lat="37.076237" lon="128.608078"><ele>384.8</ele></trkpt>
      <trkpt lat="37.076160" lon="128.608220"><ele>389.1</ele></trkpt>
      <trkpt lat="37.076047" lon="128.608283"><ele>390.5</ele></trkpt>
      <trkpt lat="37.075956" lon="128.608299"><ele>389.6</ele></trkpt>
      <trkpt lat="37.075770" lon="128.608218"><ele>387.3</ele></trkpt>
      <trkpt lat="37.075219" lon="128.607626"><ele>387.9</ele></trkpt>
      <trkpt lat="37.074625" lon="128.606815"><ele>391.5</ele></trkpt>
      <trkpt lat="37.074232" lon="128.606411"><ele>388.4</ele></trkpt>
      <trkpt lat="37.073708" lon="128.606133"><ele>386.6</ele></trkpt>
      <trkpt lat="37.072763" lon="128.605803"><ele>374.5</ele></trkpt>
      <trkpt lat="37.072368" lon="128.605845"><ele>375.5</ele></trkpt>
      <trkpt lat="37.072060" lon="128.606003"><ele>373.5</ele></trkpt>
      <trkpt lat="37.070484" lon="128.607176"><ele>381.7</ele></trkpt>
      <trkpt lat="37.069964" lon="128.607786"><ele>380.4</ele></trkpt>
      <trkpt lat="37.069624" lon="128.608104"><ele>381.9</ele></trkpt>
      <trkpt lat="37.069243" lon="128.608250"><ele>382.9</ele></trkpt>
      <trkpt lat="37.068870" lon="128.608250"><ele>385.5</ele></trkpt>
      <trkpt lat="37.068531" lon="128.608142"><ele>390.4</ele></trkpt>
      <trkpt lat="37.068231" lon="128.607966"><ele>394.4</ele></trkpt>
      <trkpt lat="37.067922" lon="128.608167"><ele>394.7</ele></trkpt>
      <trkpt lat="37.068296" lon="128.608760"><ele>388.3</ele></trkpt>
      <trkpt lat="37.068521" lon="128.608980"><ele>386.2</ele></trkpt>
      <trkpt lat="37.068849" lon="128.609161"><ele>385.1</ele></trkpt>
      <trkpt lat="37.068745" lon="128.609302"><ele>386.0</ele></trkpt>
      <trkpt lat="37.068348" lon="128.609594"><ele>389.0</ele></trkpt>
      <trkpt lat="37.068237" lon="128.609817"><ele>388.0</ele></trkpt>
      <trkpt lat="37.068097" lon="128.610286"><ele>384.3</ele></trkpt>
      <trkpt lat="37.067536" lon="128.610904"><ele>386.2</ele></trkpt>
      <trkpt lat="37.067222" lon="128.611154"><ele>387.2</ele></trkpt>
      <trkpt lat="37.066773" lon="128.611398"><ele>387.0</ele></trkpt>
      <trkpt lat="37.065058" lon="128.612681"><ele>392.2</ele></trkpt>
      <trkpt lat="37.064754" lon="128.612687"><ele>393.8</ele></trkpt>
      <trkpt lat="37.064561" lon="128.612535"><ele>396.1</ele></trkpt>
      <trkpt lat="37.063777" lon="128.612565"><ele>402.8</ele></trkpt>
      <trkpt lat="37.062909" lon="128.612274"><ele>404.8</ele></trkpt>
      <trkpt lat="37.061892" lon="128.612184"><ele>397.9</ele></trkpt>
      <trkpt lat="37.061660" lon="128.612231"><ele>398.9</ele></trkpt>
      <trkpt lat="37.060967" lon="128.612537"><ele>396.9</ele></trkpt>
      <trkpt lat="37.060691" lon="128.612595"><ele>396.8</ele></trkpt>
      <trkpt lat="37.060421" lon="128.612545"><ele>397.6</ele></trkpt>
      <trkpt lat="37.060040" lon="128.612303"><ele>399.7</ele></trkpt>
      <trkpt lat="37.059272" lon="128.611185"><ele>403.3</ele></trkpt>
      <trkpt lat="37.059004" lon="128.610892"><ele>405.6</ele></trkpt>
      <trkpt lat="37.058444" lon="128.610439"><ele>405.9</ele></trkpt>
      <trkpt lat="37.057998" lon="128.610238"><ele>407.2</ele></trkpt>
      <trkpt lat="37.056181" lon="128.609601"><ele>414.3</ele></trkpt>
      <trkpt lat="37.055163" lon="128.609141"><ele>423.0</ele></trkpt>
      <trkpt lat="37.054021" lon="128.608112"><ele>424.8</ele></trkpt>
      <trkpt lat="37.053790" lon="128.607969"><ele>425.9</ele></trkpt>
      <trkpt lat="37.052779" lon="128.607786"><ele>426.9</ele></trkpt>
      <trkpt lat="37.051966" lon="128.607805"><ele>429.5</ele></trkpt>
      <trkpt lat="37.051508" lon="128.607558"><ele>430.0</ele></trkpt>
      <trkpt lat="37.051300" lon="128.607349"><ele>435.6</ele></trkpt>
      <trkpt lat="37.050930" lon="128.607259"><ele>434.8</ele></trkpt>
      <trkpt lat="37.050216" lon="128.606742"><ele>439.1</ele></trkpt>
      <trkpt lat="37.049941" lon="128.606673"><ele>439.7</ele></trkpt>
      <trkpt lat="37.049645" lon="128.606751"><ele>437.7</ele></trkpt>
      <trkpt lat="37.049369" lon="128.606935"><ele>432.4</ele></trkpt>
      <trkpt lat="37.049006" lon="128.607282"><ele>430.2</ele></trkpt>
      <trkpt lat="37.048802" lon="128.607368"><ele>431.1</ele></trkpt>
      <trkpt lat="37.048403" lon="128.607358"><ele>433.6</ele></trkpt>
      <trkpt lat="37.047796" lon="128.607065"><ele>439.3</ele></trkpt>
      <trkpt lat="37.046725" lon="128.606324"><ele>446.4</ele></trkpt>
      <trkpt lat="37.045880" lon="128.605873"><ele>447.3</ele></trkpt>
      <trkpt lat="37.045222" lon="128.606031"><ele>454.2</ele></trkpt>
      <trkpt lat="37.044666" lon="128.605986"><ele>466.8</ele></trkpt>
      <trkpt lat="37.043394" lon="128.606399"><ele>464.7</ele></trkpt>
      <trkpt lat="37.043204" lon="128.606357"><ele>465.6</ele></trkpt>
      <trkpt lat="37.042884" lon="128.606174"><ele>472.1</ele></trkpt>
      <trkpt lat="37.042338" lon="128.605627"><ele>473.5</ele></trkpt>
      <trkpt lat="37.041432" lon="128.604891"><ele>460.8</ele></trkpt>
      <trkpt lat="37.041078" lon="128.604045"><ele>478.1</ele></trkpt>
      <trkpt lat="37.040915" lon="128.604016"><ele>477.7</ele></trkpt>
      <trkpt lat="37.040134" lon="128.604246"><ele>468.3</ele></trkpt>
      <trkpt lat="37.039023" lon="128.604868"><ele>469.8</ele></trkpt>
      <trkpt lat="37.038682" lon="128.604844"><ele>473.9</ele></trkpt>
      <trkpt lat="37.038503" lon="128.604750"><ele>474.4</ele></trkpt>
      <trkpt lat="37.038086" lon="128.604244"><ele>473.8</ele></trkpt>
      <trkpt lat="37.037927" lon="128.603975"><ele>474.3</ele></trkpt>
      <trkpt lat="37.037720" lon="128.603766"><ele>475.0</ele></trkpt>
      <trkpt lat="37.037352" lon="128.603696"><ele>474.9</ele></trkpt>
      <trkpt lat="37.036937" lon="128.603525"><ele>478.4</ele></trkpt>
      <trkpt lat="37.036507" lon="128.603188"><ele>482.6</ele></trkpt>
      <trkpt lat="37.035264" lon="128.601907"><ele>491.3</ele></trkpt>
      <trkpt lat="37.034847" lon="128.601744"><ele>491.1</ele></trkpt>
      <trkpt lat="37.033573" lon="128.601019"><ele>504.6</ele></trkpt>
      <trkpt lat="37.033299" lon="128.600777"><ele>505.5</ele></trkpt>
      <trkpt lat="37.033088" lon="128.600211"><ele>506.0</ele></trkpt>
      <trkpt lat="37.032688" lon="128.599766"><ele>509.2</ele></trkpt>
      <trkpt lat="37.032403" lon="128.599559"><ele>511.0</ele></trkpt>
      <trkpt lat="37.031844" lon="128.599559"><ele>513.4</ele></trkpt>
      <trkpt lat="37.031324" lon="128.599297"><ele>524.3</ele></trkpt>
      <trkpt lat="37.030798" lon="128.599201"><ele>521.8</ele></trkpt>
      <trkpt lat="37.030100" lon="128.598709"><ele>523.7</ele></trkpt>
      <trkpt lat="37.029719" lon="128.598367"><ele>525.4</ele></trkpt>
      <trkpt lat="37.029053" lon="128.597985"><ele>533.2</ele></trkpt>
      <trkpt lat="37.028660" lon="128.597691"><ele>537.0</ele></trkpt>
      <trkpt lat="37.028298" lon="128.597548"><ele>537.3</ele></trkpt>
      <trkpt lat="37.028057" lon="128.597246"><ele>536.1</ele></trkpt>
      <trkpt lat="37.027955" lon="128.596801"><ele>536.1</ele></trkpt>
      <trkpt lat="37.027372" lon="128.595729"><ele>549.3</ele></trkpt>
      <trkpt lat="37.026858" lon="128.595140"><ele>554.9</ele></trkpt>
      <trkpt lat="37.026579" lon="128.595053"><ele>553.5</ele></trkpt>
      <trkpt lat="37.026058" lon="128.594298"><ele>571.0</ele></trkpt>
      <trkpt lat="37.024948" lon="128.593177"><ele>585.8</ele></trkpt>
      <trkpt lat="37.024098" lon="128.592152"><ele>600.3</ele></trkpt>
      <trkpt lat="37.023628" lon="128.591803"><ele>610.7</ele></trkpt>
      <trkpt lat="37.023311" lon="128.591787"><ele>609.6</ele></trkpt>
      <trkpt lat="37.023226" lon="128.591540"><ele>615.1</ele></trkpt>
      <trkpt lat="37.023167" lon="128.591508"><ele>615.6</ele></trkpt>
      <trkpt lat="37.022888" lon="128.591594"><ele>614.2</ele></trkpt>
      <trkpt lat="37.022747" lon="128.591545"><ele>615.6</ele></trkpt>
      <trkpt lat="37.022561" lon="128.591270"><ele>620.5</ele></trkpt>
      <trkpt lat="37.022425" lon="128.590915"><ele>626.4</ele></trkpt>
      <trkpt lat="37.022184" lon="128.590832"><ele>628.2</ele></trkpt>
      <trkpt lat="37.022038" lon="128.590710"><ele>631.5</ele></trkpt>
      <trkpt lat="37.021627" lon="128.589987"><ele>651.5</ele></trkpt>
      <trkpt lat="37.021528" lon="128.589891"><ele>654.9</ele></trkpt>
      <trkpt lat="37.021073" lon="128.589742"><ele>659.0</ele></trkpt>
      <trkpt lat="37.020976" lon="128.589791"><ele>659.5</ele></trkpt>
      <trkpt lat="37.020940" lon="128.589913"><ele>658.4</ele></trkpt>
      <trkpt lat="37.020975" lon="128.590082"><ele>657.5</ele></trkpt>
      <trkpt lat="37.021181" lon="128.590630"><ele>653.5</ele></trkpt>
      <trkpt lat="37.021220" lon="128.590945"><ele>651.2</ele></trkpt>
      <trkpt lat="37.021174" lon="128.591027"><ele>652.4</ele></trkpt>
      <trkpt lat="37.020956" lon="128.591161"><ele>658.4</ele></trkpt>
      <trkpt lat="37.020967" lon="128.591437"><ele>651.5</ele></trkpt>
      <trkpt lat="37.020833" lon="128.591548"><ele>653.0</ele></trkpt>
      <trkpt lat="37.020469" lon="128.591252"><ele>667.2</ele></trkpt>
      <trkpt lat="37.020275" lon="128.591190"><ele>670.2</ele></trkpt>
      <trkpt lat="37.020164" lon="128.590952"><ele>678.2</ele></trkpt>
      <trkpt lat="37.019879" lon="128.590700"><ele>685.2</ele></trkpt>
      <trkpt lat="37.019760" lon="128.590696"><ele>684.7</ele></trkpt>
      <trkpt lat="37.019552" lon="128.590919"><ele>674.5</ele></trkpt>
      <trkpt lat="37.019390" lon="128.590869"><ele>674.1</ele></trkpt>
      <trkpt lat="37.019319" lon="128.590773"><ele>676.2</ele></trkpt>
      <trkpt lat="37.019235" lon="128.590491"><ele>683.6</ele></trkpt>
      <trkpt lat="37.019053" lon="128.590246"><ele>687.3</ele></trkpt>
      <trkpt lat="37.018998" lon="128.590107"><ele>689.7</ele></trkpt>
      <trkpt lat="37.019011" lon="128.589855"><ele>695.1</ele></trkpt>
      <trkpt lat="37.018927" lon="128.589718"><ele>696.5</ele></trkpt>
      <trkpt lat="37.018777" lon="128.589761"><ele>696.7</ele></trkpt>
      <trkpt lat="37.018387" lon="128.590201"><ele>690.7</ele></trkpt>
      <trkpt lat="37.018253" lon="128.590174"><ele>692.4</ele></trkpt>
      <trkpt lat="37.018171" lon="128.589887"><ele>699.2</ele></trkpt>
      <trkpt lat="37.018030" lon="128.589636"><ele>707.5</ele></trkpt>
      <trkpt lat="37.017979" lon="128.589225"><ele>721.4</ele></trkpt>
      <trkpt lat="37.017923" lon="128.589136"><ele>724.7</ele></trkpt>
      <trkpt lat="37.017870" lon="128.589130"><ele>725.7</ele></trkpt>
      <trkpt lat="37.017752" lon="128.589249"><ele>724.3</ele></trkpt>
      <trkpt lat="37.017585" lon="128.589563"><ele>719.7</ele></trkpt>
      <trkpt lat="37.017473" lon="128.589649"><ele>719.9</ele></trkpt>
      <trkpt lat="37.017307" lon="128.589540"><ele>725.7</ele></trkpt>
      <trkpt lat="37.017157" lon="128.589200"><ele>738.3</ele></trkpt>
      <trkpt lat="37.016807" lon="128.589072"><ele>745.4</ele></trkpt>
      <trkpt lat="37.016522" lon="128.589259"><ele>742.0</ele></trkpt>
      <trkpt lat="37.016364" lon="128.589226"><ele>743.5</ele></trkpt>
      <trkpt lat="37.015457" lon="128.588614"><ele>765.0</ele></trkpt>
      <trkpt lat="37.014970" lon="128.588802"><ele>767.5</ele></trkpt>
      <trkpt lat="37.014791" lon="128.589075"><ele>767.9</ele></trkpt>
      <trkpt lat="37.014672" lon="128.589128"><ele>771.1</ele></trkpt>
      <trkpt lat="37.014315" lon="128.589108"><ele>778.3</ele></trkpt>
      <trkpt lat="37.013962" lon="128.589176"><ele>777.6</ele></trkpt>
      <trkpt lat="37.014030" lon="128.589024"><ele>776.2</ele></trkpt>
      <trkpt lat="37.014243" lon="128.589004"><ele>778.7</ele></trkpt>
      <trkpt lat="37.014486" lon="128.588834"><ele>780.7</ele></trkpt>
      <trkpt lat="37.014543" lon="128.588626"><ele>783.0</ele></trkpt>
      <trkpt lat="37.014548" lon="128.588196"><ele>792.1</ele></trkpt>
      <trkpt lat="37.014834" lon="128.587666"><ele>812.2</ele></trkpt>
      <trkpt lat="37.015315" lon="128.586453"><ele>845.2</ele></trkpt>
      <trkpt lat="37.015398" lon="128.585881"><ele>861.1</ele></trkpt>
      <trkpt lat="37.015300" lon="128.585694"><ele>861.7</ele></trkpt>
      <trkpt lat="37.015510" lon="128.585377"><ele>861.2</ele></trkpt>
      <trkpt lat="37.015599" lon="128.585064"><ele>853.7</ele></trkpt>
      <trkpt lat="37.015453" lon="128.584484"><ele>849.6</ele></trkpt>
      <trkpt lat="37.015286" lon="128.584144"><ele>849.3</ele></trkpt>
      <trkpt lat="37.015374" lon="128.583941"><ele>851.1</ele></trkpt>
      <trkpt lat="37.015391" lon="128.583598"><ele>847.8</ele></trkpt>
      <trkpt lat="37.015151" lon="128.582770"><ele>846.8</ele></trkpt>
      <trkpt lat="37.015109" lon="128.582472"><ele>843.0</ele></trkpt>
      <trkpt lat="37.014630" lon="128.581735"><ele>838.9</ele></trkpt>
      <trkpt lat="37.014170" lon="128.581258"><ele>830.0</ele></trkpt>
      <trkpt lat="37.014065" lon="128.580991"><ele>831.3</ele></trkpt>
      <trkpt lat="37.014157" lon="128.580112"><ele>837.7</ele></trkpt>
      <trkpt lat="37.014061" lon="128.579493"><ele>839.6</ele></trkpt>
      <trkpt lat="37.014248" lon="128.578883"><ele>859.3</ele></trkpt>
      <trkpt lat="37.014047" lon="128.578591"><ele>868.9</ele></trkpt>
      <trkpt lat="37.014073" lon="128.578334"><ele>878.6</ele></trkpt>
      <trkpt lat="37.014153" lon="128.577874"><ele>890.0</ele></trkpt>
      <trkpt lat="37.014527" lon="128.577233"><ele>916.6</ele></trkpt>
      <trkpt lat="37.014636" lon="128.576867"><ele>927.5</ele></trkpt>
      <trkpt lat="37.014766" lon="128.575675"><ele>949.3</ele></trkpt>
      <trkpt lat="37.014929" lon="128.575103"><ele>967.9</ele></trkpt>
      <trkpt lat="37.014813" lon="128.574554"><ele>967.2</ele></trkpt>
      <trkpt lat="37.014925" lon="128.574057"><ele>980.3</ele></trkpt>
      <trkpt lat="37.014851" lon="128.573615"><ele>980.6</ele></trkpt>
      <trkpt lat="37.014875" lon="128.573371"><ele>982.1</ele></trkpt>
      <trkpt lat="37.014988" lon="128.573030"><ele>988.5</ele></trkpt>
      <trkpt lat="37.014946" lon="128.572564"><ele>989.4</ele></trkpt>
      <trkpt lat="37.015083" lon="128.572243"><ele>998.1</ele></trkpt>
      <trkpt lat="37.015084" lon="128.572039"><ele>1001.9</ele></trkpt>
      <trkpt lat="37.015041" lon="128.571361"><ele>1017.9</ele></trkpt>
      <trkpt lat="37.014795" lon="128.570509"><ele>1021.1</ele></trkpt>
      <trkpt lat="37.014640" lon="128.570346"><ele>1018.4</ele></trkpt>
      <trkpt lat="37.014265" lon="128.570146"><ele>1012.0</ele></trkpt>
      <trkpt lat="37.013921" lon="128.570041"><ele>1007.7</ele></trkpt>
      <trkpt lat="37.013584" lon="128.569442"><ele>1006.7</ele></trkpt>
      <trkpt lat="37.013268" lon="128.569185"><ele>1010.7</ele></trkpt>
      <trkpt lat="37.012932" lon="128.569036"><ele>999.2</ele></trkpt>
      <trkpt lat="37.012727" lon="128.568658"><ele>990.3</ele></trkpt>
      <trkpt lat="37.012698" lon="128.568515"><ele>990.9</ele></trkpt>
      <trkpt lat="37.012258" lon="128.567883"><ele>986.4</ele></trkpt>
      <trkpt lat="37.012035" lon="128.567701"><ele>979.5</ele></trkpt>
      <trkpt lat="37.011915" lon="128.567483"><ele>977.3</ele></trkpt>
      <trkpt lat="37.011716" lon="128.567309"><ele>970.0</ele></trkpt>
      <trkpt lat="37.011403" lon="128.566797"><ele>954.8</ele></trkpt>
      <trkpt lat="37.011357" lon="128.566462"><ele>950.5</ele></trkpt>
      <trkpt lat="37.011136" lon="128.566203"><ele>944.2</ele></trkpt>
      <trkpt lat="37.011053" lon="128.565969"><ele>940.7</ele></trkpt>
      <trkpt lat="37.011080" lon="128.565910"><ele>940.9</ele></trkpt>
      <trkpt lat="37.010863" lon="128.565317"><ele>929.1</ele></trkpt>
      <trkpt lat="37.010915" lon="128.564889"><ele>921.6</ele></trkpt>
      <trkpt lat="37.010495" lon="128.564353"><ele>929.7</ele></trkpt>
      <trkpt lat="37.010356" lon="128.564004"><ele>945.1</ele></trkpt>
      <trkpt lat="37.010101" lon="128.563774"><ele>950.5</ele></trkpt>
      <trkpt lat="37.009997" lon="128.563554"><ele>956.0</ele></trkpt>
      <trkpt lat="37.009574" lon="128.563279"><ele>954.7</ele></trkpt>
      <trkpt lat="37.008783" lon="128.563123"><ele>966.3</ele></trkpt>
      <trkpt lat="37.008567" lon="128.562984"><ele>970.5</ele></trkpt>
      <trkpt lat="37.008134" lon="128.562893"><ele>980.9</ele></trkpt>
      <trkpt lat="37.007901" lon="128.562737"><ele>984.0</ele></trkpt>
      <trkpt lat="37.007769" lon="128.562238"><ele>983.8</ele></trkpt>
      <trkpt lat="37.007751" lon="128.561334"><ele>985.8</ele></trkpt>
      <trkpt lat="37.007618" lon="128.561059"><ele>988.2</ele></trkpt>
      <trkpt lat="37.007214" lon="128.560487"><ele>991.4</ele></trkpt>
      <trkpt lat="37.006990" lon="128.559911"><ele>1000.0</ele></trkpt>
      <trkpt lat="37.006455" lon="128.559136"><ele>1005.4</ele></trkpt>
      <trkpt lat="37.006336" lon="128.558845"><ele>1005.8</ele></trkpt>
      <trkpt lat="37.006274" lon="128.558442"><ele>1007.8</ele></trkpt>
      <trkpt lat="37.006270" lon="128.557958"><ele>1014.3</ele></trkpt>
      <trkpt lat="37.005864" lon="128.557170"><ele>1019.3</ele></trkpt>
      <trkpt lat="37.005782" lon="128.556886"><ele>1018.6</ele></trkpt>
      <trkpt lat="37.005865" lon="128.556024"><ele>1028.5</ele></trkpt>
      <trkpt lat="37.005093" lon="128.555651"><ele>1020.7</ele></trkpt>
      <trkpt lat="37.004802" lon="128.555754"><ele>1016.7</ele></trkpt>
      <trkpt lat="37.004291" lon="128.555582"><ele>1009.0</ele></trkpt>
      <trkpt lat="37.003942" lon="128.555317"><ele>1001.1</ele></trkpt>
      <trkpt lat="37.003634" lon="128.555213"><ele>995.4</ele></trkpt>
      <trkpt lat="37.003279" lon="128.555703"><ele>982.0</ele></trkpt>
      <trkpt lat="37.003028" lon="128.555787"><ele>972.8</ele></trkpt>
      <trkpt lat="37.002589" lon="128.555770"><ele>960.2</ele></trkpt>
      <trkpt lat="37.002156" lon="128.555870"><ele>950.5</ele></trkpt>
      <trkpt lat="37.001927" lon="128.555859"><ele>954.2</ele></trkpt>
      <trkpt lat="37.001679" lon="128.555774"><ele>956.2</ele></trkpt>
      <trkpt lat="37.001507" lon="128.555792"><ele>955.9</ele></trkpt>
      <trkpt lat="37.000956" lon="128.555579"><ele>953.9</ele></trkpt>
      <trkpt lat="37.000421" lon="128.555648"><ele>959.2</ele></trkpt>
      <trkpt lat="37.000125" lon="128.555557"><ele>966.0</ele></trkpt>
      <trkpt lat="36.999859" lon="128.555363"><ele>967.4</ele></trkpt>
      <trkpt lat="36.999453" lon="128.555201"><ele>968.2</ele></trkpt>
      <trkpt lat="36.999160" lon="128.554962"><ele>976.4</ele></trkpt>
      <trkpt lat="36.998591" lon="128.554687"><ele>985.0</ele></trkpt>
      <trkpt lat="36.998132" lon="128.554352"><ele>978.9</ele></trkpt>
      <trkpt lat="36.997759" lon="128.553732"><ele>975.5</ele></trkpt>
      <trkpt lat="36.997619" lon="128.553396"><ele>978.6</ele></trkpt>
      <trkpt lat="36.997533" lon="128.553042"><ele>980.1</ele></trkpt>
      <trkpt lat="36.997525" lon="128.552582"><ele>976.0</ele></trkpt>
      <trkpt lat="36.997302" lon="128.552280"><ele>975.3</ele></trkpt>
      <trkpt lat="36.996923" lon="128.551961"><ele>975.5</ele></trkpt>
      <trkpt lat="36.996641" lon="128.551400"><ele>978.0</ele></trkpt>
      <trkpt lat="36.996334" lon="128.550978"><ele>980.5</ele></trkpt>
      <trkpt lat="36.996019" lon="128.549909"><ele>975.9</ele></trkpt>
      <trkpt lat="36.995361" lon="128.549194"><ele>979.9</ele></trkpt>
      <trkpt lat="36.995096" lon="128.548642"><ele>981.5</ele></trkpt>
      <trkpt lat="36.994724" lon="128.548159"><ele>995.2</ele></trkpt>
      <trkpt lat="36.994617" lon="128.547785"><ele>1005.4</ele></trkpt>
      <trkpt lat="36.994306" lon="128.547628"><ele>1016.8</ele></trkpt>
      <trkpt lat="36.994145" lon="128.546978"><ele>1023.4</ele></trkpt>
      <trkpt lat="36.994219" lon="128.546625"><ele>1020.2</ele></trkpt>
      <trkpt lat="36.994384" lon="128.546304"><ele>1027.2</ele></trkpt>
      <trkpt lat="36.994060" lon="128.545425"><ele>1022.1</ele></trkpt>
      <trkpt lat="36.993294" lon="128.545046"><ele>1013.8</ele></trkpt>
      <trkpt lat="36.992613" lon="128.544296"><ele>1016.4</ele></trkpt>
      <trkpt lat="36.992329" lon="128.543565"><ele>1023.1</ele></trkpt>
      <trkpt lat="36.992267" lon="128.543198"><ele>1027.7</ele></trkpt>
      <trkpt lat="36.992313" lon="128.542443"><ele>1034.6</ele></trkpt>
      <trkpt lat="36.992037" lon="128.541584"><ele>1035.6</ele></trkpt>
      <trkpt lat="36.991947" lon="128.540591"><ele>1048.0</ele></trkpt>
      <trkpt lat="36.991614" lon="128.539963"><ele>1040.3</ele></trkpt>
      <trkpt lat="36.991439" lon="128.539779"><ele>1037.6</ele></trkpt>
      <trkpt lat="36.991250" lon="128.539382"><ele>1035.1</ele></trkpt>
      <trkpt lat="36.991083" lon="128.538703"><ele>1036.5</ele></trkpt>
      <trkpt lat="36.990784" lon="128.538017"><ele>1032.1</ele></trkpt>
      <trkpt lat="36.990857" lon="128.537659"><ele>1032.3</ele></trkpt>
      <trkpt lat="36.990838" lon="128.537579"><ele>1031.6</ele></trkpt>
      <trkpt lat="36.991040" lon="128.537443"><ele>1031.7</ele></trkpt>
      <trkpt lat="36.991168" lon="128.537241"><ele>1029.7</ele></trkpt>
      <trkpt lat="36.991166" lon="128.537124"><ele>1028.2</ele></trkpt>
      <trkpt lat="36.991123" lon="128.536914"><ele>1025.5</ele></trkpt>
      <trkpt lat="36.990938" lon="128.536469"><ele>1017.1</ele></trkpt>
      <trkpt lat="36.990790" lon="128.536214"><ele>1014.9</ele></trkpt>
      <trkpt lat="36.990474" lon="128.535862"><ele>1014.9</ele></trkpt>
      <trkpt lat="36.990199" lon="128.534908"><ele>1035.1</ele></trkpt>
      <trkpt lat="36.990179" lon="128.534239"><ele>1036.6</ele></trkpt>
      <trkpt lat="36.990281" lon="128.533653"><ele>1037.1</ele></trkpt>
      <trkpt lat="36.990216" lon="128.533165"><ele>1037.4</ele></trkpt>
      <trkpt lat="36.990223" lon="128.532852"><ele>1036.8</ele></trkpt>
      <trkpt lat="36.990383" lon="128.532170"><ele>1037.7</ele></trkpt>
      <trkpt lat="36.990573" lon="128.531765"><ele>1044.0</ele></trkpt>
      <trkpt lat="36.990612" lon="128.531577"><ele>1044.5</ele></trkpt>
      <trkpt lat="36.990558" lon="128.531319"><ele>1044.5</ele></trkpt>
      <trkpt lat="36.990578" lon="128.530907"><ele>1050.9</ele></trkpt>
      <trkpt lat="36.990364" lon="128.530378"><ele>1067.8</ele></trkpt>
      <trkpt lat="36.990423" lon="128.530093"><ele>1079.4</ele></trkpt>
      <trkpt lat="36.990376" lon="128.529546"><ele>1091.4</ele></trkpt>
      <trkpt lat="36.990479" lon="128.529316"><ele>1096.1</ele></trkpt>
      <trkpt lat="36.990663" lon="128.529096"><ele>1101.3</ele></trkpt>
      <trkpt lat="36.990788" lon="128.528731"><ele>1107.7</ele></trkpt>
      <trkpt lat="36.990621" lon="128.527864"><ele>1123.2</ele></trkpt>
      <trkpt lat="36.990492" lon="128.527645"><ele>1126.3</ele></trkpt>
      <trkpt lat="36.990340" lon="128.527164"><ele>1125.7</ele></trkpt>
      <trkpt lat="36.990247" lon="128.526471"><ele>1131.7</ele></trkpt>
      <trkpt lat="36.990274" lon="128.525971"><ele>1140.5</ele></trkpt>
      <trkpt lat="36.990078" lon="128.525433"><ele>1144.4</ele></trkpt>
      <trkpt lat="36.990066" lon="128.525056"><ele>1145.4</ele></trkpt>
      <trkpt lat="36.989890" lon="128.524699"><ele>1145.5</ele></trkpt>
      <trkpt lat="36.989728" lon="128.524125"><ele>1147.4</ele></trkpt>
      <trkpt lat="36.989506" lon="128.523886"><ele>1146.6</ele></trkpt>
      <trkpt lat="36.989219" lon="128.523286"><ele>1146.6</ele></trkpt>
      <trkpt lat="36.989254" lon="128.522398"><ele>1154.0</ele></trkpt>
      <trkpt lat="36.989166" lon="128.522237"><ele>1156.8</ele></trkpt>
      <trkpt lat="36.988680" lon="128.521752"><ele>1167.2</ele></trkpt>
      <trkpt lat="36.988625" lon="128.521246"><ele>1173.9</ele></trkpt>
      <trkpt lat="36.988320" lon="128.520494"><ele>1180.6</ele></trkpt>
      <trkpt lat="36.988322" lon="128.520353"><ele>1182.1</ele></trkpt>
      <trkpt lat="36.988184" lon="128.520112"><ele>1183.1</ele></trkpt>
      <trkpt lat="36.988205" lon="128.519955"><ele>1184.3</ele></trkpt>
      <trkpt lat="36.988125" lon="128.519694"><ele>1184.9</ele></trkpt>
      <trkpt lat="36.988118" lon="128.519341"><ele>1185.6</ele></trkpt>
      <trkpt lat="36.987991" lon="128.518792"><ele>1188.6</ele></trkpt>
      <trkpt lat="36.987977" lon="128.518600"><ele>1192.0</ele></trkpt>
      <trkpt lat="36.988048" lon="128.518236"><ele>1202.0</ele></trkpt>
      <trkpt lat="36.987793" lon="128.517668"><ele>1211.5</ele></trkpt>
      <trkpt lat="36.987483" lon="128.517154"><ele>1217.0</ele></trkpt>
      <trkpt lat="36.987329" lon="128.516529"><ele>1228.7</ele></trkpt>
      <trkpt lat="36.987159" lon="128.516209"><ele>1235.8</ele></trkpt>
      <trkpt lat="36.986909" lon="128.515995"><ele>1238.0</ele></trkpt>
      <trkpt lat="36.986898" lon="128.515379"><ele>1248.2</ele></trkpt>
      <trkpt lat="36.986861" lon="128.515289"><ele>1248.4</ele></trkpt>
      <trkpt lat="36.986892" lon="128.515107"><ele>1253.3</ele></trkpt>
      <trkpt lat="36.986780" lon="128.514628"><ele>1258.0</ele></trkpt>
      <trkpt lat="36.986550" lon="128.514477"><ele>1254.3</ele></trkpt>
      <trkpt lat="36.986027" lon="128.514268"><ele>1237.7</ele></trkpt>
      <trkpt lat="36.985929" lon="128.514177"><ele>1236.0</ele></trkpt>
      <trkpt lat="36.985708" lon="128.514136"><ele>1231.5</ele></trkpt>
      <trkpt lat="36.986171" lon="128.513970"><ele>1238.4</ele></trkpt>
      <trkpt lat="36.986722" lon="128.513496"><ele>1246.7</ele></trkpt>
      <trkpt lat="36.987596" lon="128.513789"><ele>1240.5</ele></trkpt>
      <trkpt lat="36.987814" lon="128.513681"><ele>1240.8</ele></trkpt>
      <trkpt lat="36.988083" lon="128.513417"><ele>1249.8</ele></trkpt>
      <trkpt lat="36.988350" lon="128.512817"><ele>1257.0</ele></trkpt>
      <trkpt lat="36.988467" lon="128.512656"><ele>1256.3</ele></trkpt>
      <trkpt lat="36.988567" lon="128.512317"><ele>1256.2</ele></trkpt>
      <trkpt lat="36.988846" lon="128.511736"><ele>1265.1</ele></trkpt>
      <trkpt lat="36.989219" lon="128.511201"><ele>1265.3</ele></trkpt>
      <trkpt lat="36.989404" lon="128.510352"><ele>1271.1</ele></trkpt>
      <trkpt lat="36.989579" lon="128.510149"><ele>1276.8</ele></trkpt>
      <trkpt lat="36.989856" lon="128.509601"><ele>1282.4</ele></trkpt>
      <trkpt lat="36.990333" lon="128.509481"><ele>1297.3</ele></trkpt>
      <trkpt lat="36.991062" lon="128.509172"><ele>1308.7</ele></trkpt>
      <trkpt lat="36.991400" lon="128.508950"><ele>1315.5</ele></trkpt>
      <trkpt lat="36.991771" lon="128.508565"><ele>1322.7</ele></trkpt>
      <trkpt lat="36.992388" lon="128.508393"><ele>1331.5</ele></trkpt>
      <trkpt lat="36.992812" lon="128.508015"><ele>1329.9</ele></trkpt>
      <trkpt lat="36.992769" lon="128.507828"><ele>1324.3</ele></trkpt>
      <trkpt lat="36.992812" lon="128.507702"><ele>1321.6</ele></trkpt>
      <trkpt lat="36.993290" lon="128.506841"><ele>1326.9</ele></trkpt>
      <trkpt lat="36.993299" lon="128.506745"><ele>1328.2</ele></trkpt>
      <trkpt lat="36.993396" lon="128.506578"><ele>1332.4</ele></trkpt>
      <trkpt lat="36.993491" lon="128.506514"><ele>1334.2</ele></trkpt>
      <trkpt lat="36.993614" lon="128.505956"><ele>1337.5</ele></trkpt>
      <trkpt lat="36.993799" lon="128.505398"><ele>1341.9</ele></trkpt>
      <trkpt lat="36.993813" lon="128.505127"><ele>1345.0</ele></trkpt>
      <trkpt lat="36.993968" lon="128.504712"><ele>1356.2</ele></trkpt>
      <trkpt lat="36.994183" lon="128.504414"><ele>1367.0</ele></trkpt>
      <trkpt lat="36.994297" lon="128.504071"><ele>1366.5</ele></trkpt>
      <trkpt lat="36.994721" lon="128.503837"><ele>1360.1</ele></trkpt>
      <trkpt lat="36.995058" lon="128.503318"><ele>1357.7</ele></trkpt>
      <trkpt lat="36.995102" lon="128.503132"><ele>1353.8</ele></trkpt>
      <trkpt lat="36.995190" lon="128.503067"><ele>1354.7</ele></trkpt>
      <trkpt lat="36.995317" lon="128.502799"><ele>1352.2</ele></trkpt>
      <trkpt lat="36.995372" lon="128.502558"><ele>1348.2</ele></trkpt>
      <trkpt lat="36.995376" lon="128.502274"><ele>1343.6</ele></trkpt>
      <trkpt lat="36.995531" lon="128.501743"><ele>1337.6</ele></trkpt>
      <trkpt lat="36.995531" lon="128.501581"><ele>1334.1</ele></trkpt>
      <trkpt lat="36.995980" lon="128.501115"><ele>1319.6</ele></trkpt>
      <trkpt lat="36.996148" lon="128.501088"><ele>1317.0</ele></trkpt>
      <trkpt lat="36.996343" lon="128.500978"><ele>1307.3</ele></trkpt>
      <trkpt lat="36.996632" lon="128.500934"><ele>1300.0</ele></trkpt>
      <trkpt lat="36.996983" lon="128.500619"><ele>1298.2</ele></trkpt>
      <trkpt lat="36.997020" lon="128.500460"><ele>1295.4</ele></trkpt>
      <trkpt lat="36.997482" lon="128.499991"><ele>1285.0</ele></trkpt>
      <trkpt lat="36.998021" lon="128.498996"><ele>1292.5</ele></trkpt>
      <trkpt lat="36.998249" lon="128.498162"><ele>1313.7</ele></trkpt>
      <trkpt lat="36.998343" lon="128.498081"><ele>1321.8</ele></trkpt>
      <trkpt lat="36.998546" lon="128.498046"><ele>1329.8</ele></trkpt>
      <trkpt lat="36.998628" lon="128.497950"><ele>1334.4</ele></trkpt>
      <trkpt lat="36.998731" lon="128.497746"><ele>1337.8</ele></trkpt>
      <trkpt lat="36.998691" lon="128.497633"><ele>1334.3</ele></trkpt>
      <trkpt lat="36.998770" lon="128.497518"><ele>1332.9</ele></trkpt>
      <trkpt lat="36.998855" lon="128.497494"><ele>1334.9</ele></trkpt>
      <trkpt lat="36.999068" lon="128.497277"><ele>1332.7</ele></trkpt>
      <trkpt lat="36.999167" lon="128.497283"><ele>1334.0</ele></trkpt>
      <trkpt lat="36.999496" lon="128.496932"><ele>1341.6</ele></trkpt>
      <trkpt lat="36.999878" lon="128.496792"><ele>1346.1</ele></trkpt>
      <trkpt lat="37.000133" lon="128.496799"><ele>1347.7</ele></trkpt>
      <trkpt lat="37.000261" lon="128.496872"><ele>1349.3</ele></trkpt>
      <trkpt lat="37.000462" lon="128.496598"><ele>1347.9</ele></trkpt>
      <trkpt lat="37.001000" lon="128.496117"><ele>1333.3</ele></trkpt>
      <trkpt lat="37.001203" lon="128.496067"><ele>1328.3</ele></trkpt>
      <trkpt lat="37.001583" lon="128.495700"><ele>1322.5</ele></trkpt>
      <trkpt lat="37.001851" lon="128.495103"><ele>1315.2</ele></trkpt>
      <trkpt lat="37.002090" lon="128.494865"><ele>1312.5</ele></trkpt>
      <trkpt lat="37.002253" lon="128.494500"><ele>1305.5</ele></trkpt>
      <trkpt lat="37.002500" lon="128.494159"><ele>1302.0</ele></trkpt>
      <trkpt lat="37.003118" lon="128.493092"><ele>1302.0</ele></trkpt>
      <trkpt lat="37.003135" lon="128.492872"><ele>1301.9</ele></trkpt>
      <trkpt lat="37.003262" lon="128.492682"><ele>1301.9</ele></trkpt>
      <trkpt lat="37.003300" lon="128.492524"><ele>1302.4</ele></trkpt>
      <trkpt lat="37.003553" lon="128.492159"><ele>1302.5</ele></trkpt>
      <trkpt lat="37.003563" lon="128.492028"><ele>1300.9</ele></trkpt>
      <trkpt lat="37.003692" lon="128.491958"><ele>1300.5</ele></trkpt>
      <trkpt lat="37.003947" lon="128.491993"><ele>1296.7</ele></trkpt>
      <trkpt lat="37.004356" lon="128.491853"><ele>1285.7</ele></trkpt>
      <trkpt lat="37.004418" lon="128.491931"><ele>1284.5</ele></trkpt>
      <trkpt lat="37.004630" lon="128.491856"><ele>1280.3</ele></trkpt>
      <trkpt lat="37.004810" lon="128.491925"><ele>1276.8</ele></trkpt>
      <trkpt lat="37.005445" lon="128.492630"><ele>1251.5</ele></trkpt>
      <trkpt lat="37.005866" lon="128.492730"><ele>1242.1</ele></trkpt>
      <trkpt lat="37.006248" lon="128.492985"><ele>1225.7</ele></trkpt>
      <trkpt lat="37.006507" lon="128.493052"><ele>1223.1</ele></trkpt>
      <trkpt lat="37.007093" lon="128.493385"><ele>1222.1</ele></trkpt>
      <trkpt lat="37.007218" lon="128.493394"><ele>1223.0</ele></trkpt>
      <trkpt lat="37.007353" lon="128.493328"><ele>1224.2</ele></trkpt>
      <trkpt lat="37.007639" lon="128.493036"><ele>1219.9</ele></trkpt>
      <trkpt lat="37.008079" lon="128.492907"><ele>1225.1</ele></trkpt>
      <trkpt lat="37.008486" lon="128.492582"><ele>1213.2</ele></trkpt>
      <trkpt lat="37.008557" lon="128.492572"><ele>1211.7</ele></trkpt>
      <trkpt lat="37.008876" lon="128.491571"><ele>1174.6</ele></trkpt>
      <trkpt lat="37.009458" lon="128.490590"><ele>1139.4</ele></trkpt>
      <trkpt lat="37.010255" lon="128.489855"><ele>1109.8</ele></trkpt>
      <trkpt lat="37.010580" lon="128.489426"><ele>1098.5</ele></trkpt>
      <trkpt lat="37.011212" lon="128.488828"><ele>1069.3</ele></trkpt>
      <trkpt lat="37.011585" lon="128.487704"><ele>1038.9</ele></trkpt>
      <trkpt lat="37.012142" lon="128.487224"><ele>1016.9</ele></trkpt>
      <trkpt lat="37.012440" lon="128.486829"><ele>999.2</ele></trkpt>
      <trkpt lat="37.012692" lon="128.486309"><ele>988.9</ele></trkpt>
      <trkpt lat="37.012855" lon="128.486271"><ele>987.5</ele></trkpt>
      <trkpt lat="37.013007" lon="128.486105"><ele>985.5</ele></trkpt>
      <trkpt lat="37.013166" lon="128.485786"><ele>980.5</ele></trkpt>
      <trkpt lat="37.013589" lon="128.485268"><ele>965.2</ele></trkpt>
      <trkpt lat="37.014161" lon="128.484749"><ele>953.8</ele></trkpt>
      <trkpt lat="37.014688" lon="128.484721"><ele>934.3</ele></trkpt>
      <trkpt lat="37.015133" lon="128.484471"><ele>922.0</ele></trkpt>
      <trkpt lat="37.015357" lon="128.484281"><ele>916.1</ele></trkpt>
      <trkpt lat="37.015592" lon="128.483930"><ele>912.6</ele></trkpt>
      <trkpt lat="37.016106" lon="128.483633"><ele>915.5</ele></trkpt>
      <trkpt lat="37.016185" lon="128.483518"><ele>917.3</ele></trkpt>
      <trkpt lat="37.016286" lon="128.483037"><ele>920.1</ele></trkpt>
      <trkpt lat="37.016766" lon="128.482859"><ele>933.3</ele></trkpt>
      <trkpt lat="37.016995" lon="128.482621"><ele>934.6</ele></trkpt>
      <trkpt lat="37.017460" lon="128.483088"><ele>895.8</ele></trkpt>
      <trkpt lat="37.017942" lon="128.483281"><ele>869.0</ele></trkpt>
      <trkpt lat="37.018625" lon="128.483981"><ele>804.5</ele></trkpt>
      <trkpt lat="37.019199" lon="128.484453"><ele>758.4</ele></trkpt>
      <trkpt lat="37.019439" lon="128.484914"><ele>720.7</ele></trkpt>
      <trkpt lat="37.019927" lon="128.485129"><ele>683.5</ele></trkpt>
      <trkpt lat="37.020124" lon="128.485408"><ele>665.4</ele></trkpt>
      <trkpt lat="37.020449" lon="128.485311"><ele>662.9</ele></trkpt>
      <trkpt lat="37.021160" lon="128.485268"><ele>641.0</ele></trkpt>
      <trkpt lat="37.021332" lon="128.485193"><ele>629.8</ele></trkpt>
      <trkpt lat="37.021434" lon="128.484979"><ele>622.6</ele></trkpt>
      <trkpt lat="37.021820" lon="128.484700"><ele>604.0</ele></trkpt>
      <trkpt lat="37.021940" lon="128.484474"><ele>594.2</ele></trkpt>
      <trkpt lat="37.021940" lon="128.484067"><ele>595.5</ele></trkpt>
      <trkpt lat="37.022120" lon="128.484120"><ele>585.5</ele></trkpt>
      <trkpt lat="37.022255" lon="128.484048"><ele>578.4</ele></trkpt>
      <trkpt lat="37.022852" lon="128.483321"><ele>550.2</ele></trkpt>
      <trkpt lat="37.023002" lon="128.483203"><ele>545.6</ele></trkpt>
      <trkpt lat="37.023602" lon="128.482329"><ele>531.8</ele></trkpt>
      <trkpt lat="37.023816" lon="128.482125"><ele>531.4</ele></trkpt>
      <trkpt lat="37.024223" lon="128.482039"><ele>526.0</ele></trkpt>
      <trkpt lat="37.024441" lon="128.482119"><ele>516.7</ele></trkpt>
      <trkpt lat="37.024822" lon="128.482125"><ele>501.0</ele></trkpt>
      <trkpt lat="37.025066" lon="128.482307"><ele>493.6</ele></trkpt>
      <trkpt lat="37.025478" lon="128.482393"><ele>488.0</ele></trkpt>
      <trkpt lat="37.026291" lon="128.482345"><ele>469.6</ele></trkpt>
      <trkpt lat="37.026641" lon="128.482422"><ele>460.9</ele></trkpt>
      <trkpt lat="37.026873" lon="128.482843"><ele>458.9</ele></trkpt>
      <trkpt lat="37.027240" lon="128.483182"><ele>454.5</ele></trkpt>
      <trkpt lat="37.027468" lon="128.483296"><ele>450.3</ele></trkpt>
      <trkpt lat="37.027744" lon="128.483353"><ele>443.3</ele></trkpt>
      <trkpt lat="37.027967" lon="128.483500"><ele>440.2</ele></trkpt>
      <trkpt lat="37.028441" lon="128.483575"><ele>430.6</ele></trkpt>
      <trkpt lat="37.028506" lon="128.483619"><ele>429.5</ele></trkpt>
      <trkpt lat="37.028761" lon="128.484139"><ele>426.2</ele></trkpt>
      <trkpt lat="37.029118" lon="128.484558"><ele>415.3</ele></trkpt>
      <trkpt lat="37.030044" lon="128.485019"><ele>404.4</ele></trkpt>
      <trkpt lat="37.030550" lon="128.485559"><ele>393.4</ele></trkpt>
      <trkpt lat="37.031329" lon="128.485952"><ele>390.2</ele></trkpt>
      <trkpt lat="37.031913" lon="128.485903"><ele>379.3</ele></trkpt>
      <trkpt lat="37.032212" lon="128.485968"><ele>373.7</ele></trkpt>
      <trkpt lat="37.032789" lon="128.485826"><ele>362.8</ele></trkpt>
      <trkpt lat="37.033552" lon="128.486108"><ele>351.9</ele></trkpt>
      <trkpt lat="37.034148" lon="128.486161"><ele>338.5</ele></trkpt>
      <trkpt lat="37.034380" lon="128.486154"><ele>335.8</ele></trkpt>
      <trkpt lat="37.034611" lon="128.485938"><ele>337.6</ele></trkpt>
      <trkpt lat="37.034773" lon="128.485881"><ele>338.7</ele></trkpt>
      <trkpt lat="37.035396" lon="128.486109"><ele>328.1</ele></trkpt>
      <trkpt lat="37.036433" lon="128.486760"><ele>320.3</ele></trkpt>
      <trkpt lat="37.036966" lon="128.486939"><ele>316.3</ele></trkpt>
      <trkpt lat="37.037339" lon="128.486931"><ele>305.7</ele></trkpt>
      <trkpt lat="37.037608" lon="128.487065"><ele>302.8</ele></trkpt>
      <trkpt lat="37.037978" lon="128.486801"><ele>306.1</ele></trkpt>
      <trkpt lat="37.038464" lon="128.486700"><ele>304.3</ele></trkpt>
      <trkpt lat="37.038977" lon="128.486107"><ele>309.1</ele></trkpt>
      <trkpt lat="37.039208" lon="128.485907"><ele>309.1</ele></trkpt>
      <trkpt lat="37.039919" lon="128.485625"><ele>287.2</ele></trkpt>
      <trkpt lat="37.040422" lon="128.484960"><ele>283.6</ele></trkpt>
      <trkpt lat="37.040858" lon="128.484573"><ele>277.4</ele></trkpt>
      <trkpt lat="37.041635" lon="128.484884"><ele>267.6</ele></trkpt>
      <trkpt lat="37.042198" lon="128.484994"><ele>265.1</ele></trkpt>
      <trkpt lat="37.043053" lon="128.484658"><ele>259.0</ele></trkpt>
      <trkpt lat="37.044008" lon="128.484512"><ele>257.2</ele></trkpt>
      <trkpt lat="37.044266" lon="128.484343"><ele>255.4</ele></trkpt>
      <trkpt lat="37.044398" lon="128.484380"><ele>254.7</ele></trkpt>
      <trkpt lat="37.045007" lon="128.484329"><ele>249.4</ele></trkpt>
      <trkpt lat="37.045406" lon="128.484494"><ele>244.0</ele></trkpt>
      <trkpt lat="37.046239" lon="128.484975"><ele>243.8</ele></trkpt>
      <trkpt lat="37.047244" lon="128.485668"><ele>245.3</ele></trkpt>
      <trkpt lat="37.047533" lon="128.485936"><ele>234.6</ele></trkpt>
      <trkpt lat="37.048107" lon="128.486642"><ele>229.9</ele></trkpt>
      <trkpt lat="37.048725" lon="128.487057"><ele>234.1</ele></trkpt>
      <trkpt lat="37.049030" lon="128.487135"><ele>231.5</ele></trkpt>
      <trkpt lat="37.050027" lon="128.487007"><ele>228.8</ele></trkpt>
      <trkpt lat="37.050544" lon="128.487070"><ele>227.8</ele></trkpt>
      <trkpt lat="37.050857" lon="128.487220"><ele>228.7</ele></trkpt>
      <trkpt lat="37.051730" lon="128.487840"><ele>226.1</ele></trkpt>
      <trkpt lat="37.052464" lon="128.488248"><ele>217.8</ele></trkpt>
      <trkpt lat="37.052518" lon="128.487563"><ele>231.5</ele></trkpt>
      <trkpt lat="37.052712" lon="128.487096"><ele>229.5</ele></trkpt>
      <trkpt lat="37.052776" lon="128.486420"><ele>243.5</ele></trkpt>
      <trkpt lat="37.052911" lon="128.485861"><ele>250.0</ele></trkpt>
      <trkpt lat="37.052940" lon="128.485573"><ele>248.9</ele></trkpt>
      <trkpt lat="37.052889" lon="128.485114"><ele>252.2</ele></trkpt>
      <trkpt lat="37.052973" lon="128.484581"><ele>257.4</ele></trkpt>
      <trkpt lat="37.053208" lon="128.483956"><ele>255.1</ele></trkpt>
      <trkpt lat="37.053803" lon="128.483335"><ele>258.7</ele></trkpt>
      <trkpt lat="37.053923" lon="128.482381"><ele>271.3</ele></trkpt>
      <trkpt lat="37.054092" lon="128.481696"><ele>281.6</ele></trkpt>
      <trkpt lat="37.054046" lon="128.481520"><ele>284.0</ele></trkpt>
      <trkpt lat="37.053583" lon="128.481075"><ele>289.6</ele></trkpt>
      <trkpt lat="37.053289" lon="128.480411"><ele>299.0</ele></trkpt>
      <trkpt lat="37.052995" lon="128.480100"><ele>308.6</ele></trkpt>
      <trkpt lat="37.052586" lon="128.479943"><ele>311.4</ele></trkpt>
      <trkpt lat="37.052415" lon="128.479954"><ele>314.3</ele></trkpt>
      <trkpt lat="37.052006" lon="128.480102"><ele>334.2</ele></trkpt>
      <trkpt lat="37.051858" lon="128.480021"><ele>341.8</ele></trkpt>
      <trkpt lat="37.051826" lon="128.479702"><ele>334.0</ele></trkpt>
      <trkpt lat="37.052149" lon="128.478962"><ele>330.5</ele></trkpt>
      <trkpt lat="37.052145" lon="128.478707"><ele>339.4</ele></trkpt>
      <trkpt lat="37.052081" lon="128.478608"><ele>343.6</ele></trkpt>
      <trkpt lat="37.051972" lon="128.478567"><ele>345.5</ele></trkpt>
      <trkpt lat="37.051287" lon="128.478846"><ele>353.0</ele></trkpt>
      <trkpt lat="37.051182" lon="128.478782"><ele>356.8</ele></trkpt>
      <trkpt lat="37.051124" lon="128.478640"><ele>357.8</ele></trkpt>
      <trkpt lat="37.051139" lon="128.478471"><ele>355.0</ele></trkpt>
      <trkpt lat="37.051216" lon="128.478318"><ele>351.0</ele></trkpt>
      <trkpt lat="37.051698" lon="128.477749"><ele>352.4</ele></trkpt>
      <trkpt lat="37.051715" lon="128.477505"><ele>362.1</ele></trkpt>
      <trkpt lat="37.051612" lon="128.477355"><ele>365.3</ele></trkpt>
    </trkseg>
  </trk>
</gpx>
