<?xml version="1.0" encoding="UTF-8"?>
<gpx version="1.1" creator="kr-100-mountains route-harvester"
     xmlns="http://www.topografix.com/GPX/1/1"
     xmlns:k100="https://github.com/jay-jang/kr-100-mountains/ns/1"
     xmlns:xsi="http://www.w3.org/2001/XMLSchema-instance"
     xsi:schemaLocation="http://www.topografix.com/GPX/1/1 http://www.topografix.com/GPX/1/1/gpx.xsd">
  <metadata>
    <name>계방산 · 운두령-계방산 정상 코스 (대안 1) (OSM 계산 경로)</name>
    <desc>실제 GPS 기록이 아닙니다. OpenStreetMap에 등록된 등산로 선형 위에서 계산한 경로이며, 현장 통제·훼손·출입 제한·계절 통제를 반영하지 않을 수 있습니다. 산행 전 공식 안내를 확인하세요.</desc>
    <time>2026-08-04T05:19:41.631Z</time>
    <link href="https://www.openstreetmap.org/copyright"><text>© OpenStreetMap contributors (ODbL 1.0)</text></link>
    <link href="https://registry.opendata.aws/terrain-tiles/"><text>Elevation: SRTM 1 arc-second (NASA/USGS) via AWS Terrain Tiles</text></link>
    <extensions>
      <k100:provenance>osm-routed</k100:provenance>
      <k100:not_a_recorded_track>true</k100:not_a_recorded_track>
      <k100:mountain_id>gyebangsan</k100:mountain_id>
      <k100:mountain_name>계방산</k100:mountain_name>
      <k100:route_id>gyebangsan-b8590f0a</k100:route_id>
      <k100:route_index>1</k100:route_index>
      <k100:route_name>운두령-계방산 정상 코스</k100:route_name>
      <k100:variant>1</k100:variant>
      <k100:source>OpenStreetMap via Overpass API</k100:source>
      <k100:license>ODbL-1.0</k100:license>
      <k100:attribution>© OpenStreetMap contributors</k100:attribution>
      <k100:elevation_source>SRTM 1 arc-second (NASA/USGS) — AWS Terrain Tiles 배포본. 지형 DEM 추정 고도이며 실측 아님</k100:elevation_source>
      <k100:algorithm>dijkstra-grid-v1</k100:algorithm>
      <k100:osm_snapshot>2026-08-04</k100:osm_snapshot>
      <k100:snap_trailhead_m>141</k100:snap_trailhead_m>
      <k100:snap_summit_m>83</k100:snap_summit_m>
      <k100:validation_score>84</k100:validation_score>
      <k100:validation_status>accepted</k100:validation_status>
    </extensions>
  </metadata>
  <trk>
    <name>계방산 · 운두령-계방산 정상 코스 (대안 1) (OSM 계산 경로)</name>
    <desc>실제 GPS 기록이 아닙니다. OpenStreetMap에 등록된 등산로 선형 위에서 계산한 경로이며, 현장 통제·훼손·출입 제한·계절 통제를 반영하지 않을 수 있습니다. 산행 전 공식 안내를 확인하세요.</desc>
    <trkseg>
      <trkpt lat="37.708534" lon="128.449360"><ele>1022.3</ele></trkpt>
      <trkpt lat="37.708500" lon="128.449520"><ele>1020.8</ele></trkpt>
      <trkpt lat="37.708430" lon="128.449610"><ele>1017.3</ele></trkpt>
      <trkpt lat="37.708090" lon="128.449690"><ele>1003.9</ele></trkpt>
      <trkpt lat="37.708000" lon="128.449770"><ele>1002.0</ele></trkpt>
      <trkpt lat="37.707940" lon="128.450620"><ele>1009.6</ele></trkpt>
      <trkpt lat="37.707230" lon="128.450820"><ele>991.0</ele></trkpt>
      <trkpt lat="37.706730" lon="128.451130"><ele>973.3</ele></trkpt>
      <trkpt lat="37.706690" lon="128.451340"><ele>972.3</ele></trkpt>
      <trkpt lat="37.706763" lon="128.451531"><ele>971.9</ele></trkpt>
      <trkpt lat="37.707286" lon="128.451793"><ele>994.2</ele></trkpt>
      <trkpt lat="37.707500" lon="128.452170"><ele>988.3</ele></trkpt>
      <trkpt lat="37.707480" lon="128.452350"><ele>984.1</ele></trkpt>
      <trkpt lat="37.707230" lon="128.452590"><ele>971.7</ele></trkpt>
      <trkpt lat="37.707261" lon="128.453138"><ele>973.1</ele></trkpt>
      <trkpt lat="37.707151" lon="128.453209"><ele>970.8</ele></trkpt>
      <trkpt lat="37.707037" lon="128.453064"><ele>965.8</ele></trkpt>
      <trkpt lat="37.706944" lon="128.452744"><ele>961.0</ele></trkpt>
      <trkpt lat="37.706919" lon="128.452292"><ele>960.6</ele></trkpt>
      <trkpt lat="37.706850" lon="128.452200"><ele>957.9</ele></trkpt>
      <trkpt lat="37.706470" lon="128.452040"><ele>951.2</ele></trkpt>
      <trkpt lat="37.706160" lon="128.451950"><ele>943.7</ele></trkpt>
      <trkpt lat="37.706110" lon="128.451980"><ele>941.6</ele></trkpt>
      <trkpt lat="37.706106" lon="128.452110"><ele>940.0</ele></trkpt>
      <trkpt lat="37.706497" lon="128.452467"><ele>941.8</ele></trkpt>
      <trkpt lat="37.706580" lon="128.452880"><ele>946.0</ele></trkpt>
      <trkpt lat="37.706560" lon="128.452990"><ele>947.0</ele></trkpt>
      <trkpt lat="37.706380" lon="128.453050"><ele>941.7</ele></trkpt>
      <trkpt lat="37.706142" lon="128.452770"><ele>929.0</ele></trkpt>
      <trkpt lat="37.706012" lon="128.452814"><ele>926.1</ele></trkpt>
      <trkpt lat="37.705727" lon="128.453331"><ele>928.9</ele></trkpt>
      <trkpt lat="37.705400" lon="128.453780"><ele>921.1</ele></trkpt>
      <trkpt lat="37.705260" lon="128.454190"><ele>919.9</ele></trkpt>
      <trkpt lat="37.705240" lon="128.454860"><ele>915.5</ele></trkpt>
      <trkpt lat="37.704590" lon="128.455420"><ele>900.0</ele></trkpt>
      <trkpt lat="37.704460" lon="128.455610"><ele>897.2</ele></trkpt>
      <trkpt lat="37.704400" lon="128.455850"><ele>897.4</ele></trkpt>
      <trkpt lat="37.704440" lon="128.456120"><ele>898.7</ele></trkpt>
      <trkpt lat="37.704640" lon="128.456360"><ele>896.2</ele></trkpt>
      <trkpt lat="37.706010" lon="128.456600"><ele>896.9</ele></trkpt>
      <trkpt lat="37.706340" lon="128.456720"><ele>893.1</ele></trkpt>
      <trkpt lat="37.706655" lon="128.456959"><ele>884.3</ele></trkpt>
      <trkpt lat="37.707019" lon="128.457361"><ele>878.0</ele></trkpt>
      <trkpt lat="37.707352" lon="128.457919"><ele>870.4</ele></trkpt>
      <trkpt lat="37.707389" lon="128.458129"><ele>869.0</ele></trkpt>
      <trkpt lat="37.707867" lon="128.458006"><ele>875.3</ele></trkpt>
      <trkpt lat="37.708104" lon="128.457856"><ele>877.0</ele></trkpt>
      <trkpt lat="37.708414" lon="128.457320"><ele>884.9</ele></trkpt>
      <trkpt lat="37.708720" lon="128.457159"><ele>888.8</ele></trkpt>
      <trkpt lat="37.709034" lon="128.457223"><ele>893.6</ele></trkpt>
      <trkpt lat="37.709195" lon="128.457132"><ele>896.1</ele></trkpt>
      <trkpt lat="37.709335" lon="128.457304"><ele>900.7</ele></trkpt>
      <trkpt lat="37.709696" lon="128.457459"><ele>912.8</ele></trkpt>
      <trkpt lat="37.709997" lon="128.457824"><ele>934.2</ele></trkpt>
      <trkpt lat="37.710209" lon="128.457878"><ele>941.0</ele></trkpt>
      <trkpt lat="37.710358" lon="128.458033"><ele>948.7</ele></trkpt>
      <trkpt lat="37.710438" lon="128.458237"><ele>955.7</ele></trkpt>
      <trkpt lat="37.710464" lon="128.458725"><ele>970.3</ele></trkpt>
      <trkpt lat="37.710625" lon="128.459476"><ele>989.6</ele></trkpt>
      <trkpt lat="37.711122" lon="128.460721"><ele>1012.5</ele></trkpt>
      <trkpt lat="37.711130" lon="128.460973"><ele>1022.3</ele></trkpt>
      <trkpt lat="37.711385" lon="128.461477"><ele>1045.1</ele></trkpt>
      <trkpt lat="37.711423" lon="128.461654"><ele>1049.9</ele></trkpt>
      <trkpt lat="37.711368" lon="128.461965"><ele>1060.6</ele></trkpt>
      <trkpt lat="37.711580" lon="128.462781"><ele>1090.5</ele></trkpt>
      <trkpt lat="37.711478" lon="128.463966"><ele>1131.5</ele></trkpt>
      <trkpt lat="37.711516" lon="128.464288"><ele>1143.2</ele></trkpt>
      <trkpt lat="37.711830" lon="128.464884"><ele>1176.5</ele></trkpt>
      <trkpt lat="37.711805" lon="128.465216"><ele>1185.7</ele></trkpt>
      <trkpt lat="37.711979" lon="128.465415"><ele>1196.7</ele></trkpt>
      <trkpt lat="37.712026" lon="128.465645"><ele>1205.0</ele></trkpt>
      <trkpt lat="37.712361" lon="128.466080"><ele>1229.3</ele></trkpt>
      <trkpt lat="37.712645" lon="128.466884"><ele>1251.5</ele></trkpt>
      <trkpt lat="37.712785" lon="128.467003"><ele>1258.3</ele></trkpt>
      <trkpt lat="37.712853" lon="128.467442"><ele>1270.7</ele></trkpt>
      <trkpt lat="37.713074" lon="128.467732"><ele>1284.4</ele></trkpt>
      <trkpt lat="37.713059" lon="128.467907"><ele>1289.7</ele></trkpt>
      <trkpt lat="37.713256" lon="128.467983"><ele>1292.1</ele></trkpt>
      <trkpt lat="37.713925" lon="128.468007"><ele>1285.3</ele></trkpt>
      <trkpt lat="37.714497" lon="128.467929"><ele>1297.0</ele></trkpt>
      <trkpt lat="37.714732" lon="128.468014"><ele>1297.0</ele></trkpt>
      <trkpt lat="37.715428" lon="128.468071"><ele>1304.6</ele></trkpt>
      <trkpt lat="37.715495" lon="128.468184"><ele>1308.7</ele></trkpt>
      <trkpt lat="37.715637" lon="128.468135"><ele>1311.6</ele></trkpt>
      <trkpt lat="37.715728" lon="128.468184"><ele>1314.2</ele></trkpt>
      <trkpt lat="37.715860" lon="128.468129"><ele>1314.9</ele></trkpt>
      <trkpt lat="37.716777" lon="128.468366"><ele>1314.8</ele></trkpt>
      <trkpt lat="37.716986" lon="128.468366"><ele>1315.2</ele></trkpt>
      <trkpt lat="37.717524" lon="128.468190"><ele>1321.8</ele></trkpt>
      <trkpt lat="37.717704" lon="128.468217"><ele>1325.7</ele></trkpt>
      <trkpt lat="37.718167" lon="128.468463"><ele>1338.3</ele></trkpt>
      <trkpt lat="37.718306" lon="128.468450"><ele>1342.9</ele></trkpt>
      <trkpt lat="37.718434" lon="128.468575"><ele>1346.8</ele></trkpt>
      <trkpt lat="37.718539" lon="128.468542"><ele>1348.6</ele></trkpt>
      <trkpt lat="37.719355" lon="128.468675"><ele>1365.3</ele></trkpt>
      <trkpt lat="37.719473" lon="128.468566"><ele>1368.9</ele></trkpt>
      <trkpt lat="37.719617" lon="128.468569"><ele>1371.8</ele></trkpt>
      <trkpt lat="37.719823" lon="128.468399"><ele>1375.6</ele></trkpt>
      <trkpt lat="37.720224" lon="128.468344"><ele>1384.6</ele></trkpt>
      <trkpt lat="37.720520" lon="128.468232"><ele>1389.0</ele></trkpt>
      <trkpt lat="37.720855" lon="128.467841"><ele>1395.2</ele></trkpt>
      <trkpt lat="37.721055" lon="128.467680"><ele>1399.6</ele></trkpt>
      <trkpt lat="37.721211" lon="128.467698"><ele>1404.6</ele></trkpt>
      <trkpt lat="37.721295" lon="128.467583"><ele>1405.4</ele></trkpt>
      <trkpt lat="37.721463" lon="128.467613"><ele>1409.7</ele></trkpt>
      <trkpt lat="37.721501" lon="128.467546"><ele>1410.2</ele></trkpt>
      <trkpt lat="37.721631" lon="128.467513"><ele>1412.4</ele></trkpt>
      <trkpt lat="37.722053" lon="128.467492"><ele>1421.6</ele></trkpt>
      <trkpt lat="37.722478" lon="128.467525"><ele>1431.1</ele></trkpt>
      <trkpt lat="37.722718" lon="128.467410"><ele>1431.0</ele></trkpt>
      <trkpt lat="37.723073" lon="128.467431"><ele>1437.3</ele></trkpt>
      <trkpt lat="37.723347" lon="128.467325"><ele>1439.8</ele></trkpt>
      <trkpt lat="37.723462" lon="128.467358"><ele>1442.5</ele></trkpt>
      <trkpt lat="37.723712" lon="128.467316"><ele>1449.3</ele></trkpt>
      <trkpt lat="37.723914" lon="128.467367"><ele>1456.7</ele></trkpt>
      <trkpt lat="37.724425" lon="128.467313"><ele>1469.9</ele></trkpt>
      <trkpt lat="37.724473" lon="128.467216"><ele>1471.7</ele></trkpt>
      <trkpt lat="37.724775" lon="128.467115"><ele>1478.9</ele></trkpt>
      <trkpt lat="37.724931" lon="128.466939"><ele>1481.7</ele></trkpt>
      <trkpt lat="37.725427" lon="128.466715"><ele>1486.5</ele></trkpt>
      <trkpt lat="37.725566" lon="128.466545"><ele>1491.5</ele></trkpt>
      <trkpt lat="37.725801" lon="128.466418"><ele>1498.6</ele></trkpt>
      <trkpt lat="37.726080" lon="128.466115"><ele>1505.2</ele></trkpt>
      <trkpt lat="37.726301" lon="128.466165"><ele>1510.8</ele></trkpt>
      <trkpt lat="37.726560" lon="128.466078"><ele>1516.5</ele></trkpt>
      <trkpt lat="37.726771" lon="128.465866"><ele>1521.4</ele></trkpt>
      <trkpt lat="37.726992" lon="128.465854"><ele>1528.5</ele></trkpt>
      <trkpt lat="37.727376" lon="128.465690"><ele>1542.3</ele></trkpt>
      <trkpt lat="37.727645" lon="128.465653"><ele>1552.7</ele></trkpt>
      <trkpt lat="37.727722" lon="128.465556"><ele>1555.0</ele></trkpt>
      <trkpt lat="37.727913" lon="128.465593"><ele>1561.1</ele></trkpt>
      <trkpt lat="37.728272" lon="128.465481"><ele>1568.2</ele></trkpt>
      <trkpt lat="37.728331" lon="128.465074"><ele>1562.6</ele></trkpt>
      <trkpt lat="37.728313" lon="128.464519"><ele>1548.3</ele></trkpt>
      <trkpt lat="37.728375" lon="128.463196"><ele>1518.5</ele></trkpt>
      <trkpt lat="37.728322" lon="128.462649"><ele>1511.8</ele></trkpt>
      <trkpt lat="37.728250" lon="128.462427"><ele>1507.8</ele></trkpt>
      <trkpt lat="37.728256" lon="128.462124"><ele>1503.3</ele></trkpt>
      <trkpt lat="37.728292" lon="128.462062"><ele>1502.7</ele></trkpt>
      <trkpt lat="37.728439" lon="128.462037"><ele>1500.1</ele></trkpt>
      <trkpt lat="37.728634" lon="128.461786"><ele>1489.4</ele></trkpt>
      <trkpt lat="37.729431" lon="128.460452"><ele>1469.8</ele></trkpt>
      <trkpt lat="37.729686" lon="128.460219"><ele>1470.6</ele></trkpt>
      <trkpt lat="37.730074" lon="128.459993"><ele>1473.1</ele></trkpt>
      <trkpt lat="37.730212" lon="128.459535"><ele>1468.2</ele></trkpt>
      <trkpt lat="37.730281" lon="128.459096"><ele>1470.7</ele></trkpt>
      <trkpt lat="37.730414" lon="128.458720"><ele>1471.6</ele></trkpt>
      <trkpt lat="37.730658" lon="128.458302"><ele>1478.5</ele></trkpt>
      <trkpt lat="37.730700" lon="128.458119"><ele>1481.7</ele></trkpt>
      <trkpt lat="37.730689" lon="128.457864"><ele>1485.1</ele></trkpt>
      <trkpt lat="37.730801" lon="128.457477"><ele>1490.1</ele></trkpt>
      <trkpt lat="37.730784" lon="128.457368"><ele>1488.8</ele></trkpt>
    </trkseg>
  </trk>
</gpx>
