<?xml version="1.0" encoding="UTF-8"?>
<gpx version="1.1" creator="kr-100-mountains route-harvester"
     xmlns="http://www.topografix.com/GPX/1/1"
     xmlns:k100="https://github.com/jay-jang/kr-100-mountains/ns/1"
     xmlns:xsi="http://www.w3.org/2001/XMLSchema-instance"
     xsi:schemaLocation="http://www.topografix.com/GPX/1/1 http://www.topografix.com/GPX/1/1/gpx.xsd">
  <metadata>
    <name>계방산 · 이승복생가-계방산 코스 (OSM 계산 경로)</name>
    <desc>실제 GPS 기록이 아닙니다. OpenStreetMap에 등록된 등산로 선형 위에서 계산한 경로이며, 현장 통제·훼손·출입 제한·계절 통제를 반영하지 않을 수 있습니다. 산행 전 공식 안내를 확인하세요.</desc>
    <time>2026-08-04T05:19:41.637Z</time>
    <link href="https://www.openstreetmap.org/copyright"><text>© OpenStreetMap contributors (ODbL 1.0)</text></link>
    <link href="https://registry.opendata.aws/terrain-tiles/"><text>Elevation: SRTM 1 arc-second (NASA/USGS) via AWS Terrain Tiles</text></link>
    <extensions>
      <k100:provenance>osm-routed</k100:provenance>
      <k100:not_a_recorded_track>true</k100:not_a_recorded_track>
      <k100:mountain_id>gyebangsan</k100:mountain_id>
      <k100:mountain_name>계방산</k100:mountain_name>
      <k100:route_id>gyebangsan-619cd25c</k100:route_id>
      <k100:route_index>2</k100:route_index>
      <k100:route_name>이승복생가-계방산 코스</k100:route_name>
      <k100:variant>0</k100:variant>
      <k100:source>OpenStreetMap via Overpass API</k100:source>
      <k100:license>ODbL-1.0</k100:license>
      <k100:attribution>© OpenStreetMap contributors</k100:attribution>
      <k100:elevation_source>SRTM 1 arc-second (NASA/USGS) — AWS Terrain Tiles 배포본. 지형 DEM 추정 고도이며 실측 아님</k100:elevation_source>
      <k100:algorithm>dijkstra-grid-v1</k100:algorithm>
      <k100:osm_snapshot>2026-08-04</k100:osm_snapshot>
      <k100:snap_trailhead_m>806</k100:snap_trailhead_m>
      <k100:snap_summit_m>83</k100:snap_summit_m>
      <k100:validation_score>70</k100:validation_score>
      <k100:validation_status>review</k100:validation_status>
    </extensions>
  </metadata>
  <trk>
    <name>계방산 · 이승복생가-계방산 코스 (OSM 계산 경로)</name>
    <desc>실제 GPS 기록이 아닙니다. OpenStreetMap에 등록된 등산로 선형 위에서 계산한 경로이며, 현장 통제·훼손·출입 제한·계절 통제를 반영하지 않을 수 있습니다. 산행 전 공식 안내를 확인하세요.</desc>
    <trkseg>
      <trkpt lat="37.666440" lon="128.471560"><ele>685.5</ele></trkpt>
      <trkpt lat="37.668280" lon="128.469460"><ele>687.0</ele></trkpt>
      <trkpt lat="37.668880" lon="128.468650"><ele>693.7</ele></trkpt>
      <trkpt lat="37.669630" lon="128.467930"><ele>696.3</ele></trkpt>
      <trkpt lat="37.670330" lon="128.466970"><ele>700.3</ele></trkpt>
      <trkpt lat="37.670840" lon="128.466140"><ele>698.8</ele></trkpt>
      <trkpt lat="37.671030" lon="128.465729"><ele>697.8</ele></trkpt>
      <trkpt lat="37.671168" lon="128.465194"><ele>698.6</ele></trkpt>
      <trkpt lat="37.671300" lon="128.464091"><ele>700.2</ele></trkpt>
      <trkpt lat="37.671440" lon="128.463730"><ele>700.0</ele></trkpt>
      <trkpt lat="37.671630" lon="128.463420"><ele>700.9</ele></trkpt>
      <trkpt lat="37.672030" lon="128.463100"><ele>698.7</ele></trkpt>
      <trkpt lat="37.672690" lon="128.462800"><ele>700.6</ele></trkpt>
      <trkpt lat="37.673610" lon="128.462720"><ele>704.6</ele></trkpt>
      <trkpt lat="37.674322" lon="128.462740"><ele>707.4</ele></trkpt>
      <trkpt lat="37.676085" lon="128.463023"><ele>709.3</ele></trkpt>
      <trkpt lat="37.676445" lon="128.463163"><ele>713.3</ele></trkpt>
      <trkpt lat="37.677115" lon="128.463684"><ele>716.2</ele></trkpt>
      <trkpt lat="37.677590" lon="128.463860"><ele>716.8</ele></trkpt>
      <trkpt lat="37.678000" lon="128.463880"><ele>714.6</ele></trkpt>
      <trkpt lat="37.680010" lon="128.463660"><ele>719.9</ele></trkpt>
      <trkpt lat="37.680620" lon="128.463670"><ele>734.6</ele></trkpt>
      <trkpt lat="37.680840" lon="128.463750"><ele>738.8</ele></trkpt>
      <trkpt lat="37.681080" lon="128.463890"><ele>735.1</ele></trkpt>
      <trkpt lat="37.681650" lon="128.464410"><ele>731.4</ele></trkpt>
      <trkpt lat="37.682100" lon="128.465060"><ele>728.4</ele></trkpt>
      <trkpt lat="37.682520" lon="128.465510"><ele>728.3</ele></trkpt>
      <trkpt lat="37.683670" lon="128.466080"><ele>740.4</ele></trkpt>
      <trkpt lat="37.684750" lon="128.466210"><ele>732.8</ele></trkpt>
      <trkpt lat="37.685140" lon="128.466410"><ele>737.5</ele></trkpt>
      <trkpt lat="37.685630" lon="128.466740"><ele>738.7</ele></trkpt>
      <trkpt lat="37.686280" lon="128.467780"><ele>731.2</ele></trkpt>
      <trkpt lat="37.686720" lon="128.468340"><ele>736.8</ele></trkpt>
      <trkpt lat="37.687350" lon="128.468710"><ele>735.8</ele></trkpt>
      <trkpt lat="37.687900" lon="128.468900"><ele>742.3</ele></trkpt>
      <trkpt lat="37.688970" lon="128.468890"><ele>742.7</ele></trkpt>
      <trkpt lat="37.689900" lon="128.469130"><ele>745.2</ele></trkpt>
      <trkpt lat="37.690080" lon="128.469030"><ele>746.1</ele></trkpt>
      <trkpt lat="37.690272" lon="128.469163"><ele>747.0</ele></trkpt>
      <trkpt lat="37.690509" lon="128.468990"><ele>751.0</ele></trkpt>
      <trkpt lat="37.691137" lon="128.468784"><ele>765.4</ele></trkpt>
      <trkpt lat="37.692570" lon="128.468132"><ele>814.6</ele></trkpt>
      <trkpt lat="37.692954" lon="128.468063"><ele>828.6</ele></trkpt>
      <trkpt lat="37.693039" lon="128.467973"><ele>829.6</ele></trkpt>
      <trkpt lat="37.693181" lon="128.468055"><ele>838.9</ele></trkpt>
      <trkpt lat="37.693626" lon="128.468119"><ele>857.7</ele></trkpt>
      <trkpt lat="37.693871" lon="128.468102"><ele>865.9</ele></trkpt>
      <trkpt lat="37.694282" lon="128.467905"><ele>873.8</ele></trkpt>
      <trkpt lat="37.694533" lon="128.467995"><ele>879.5</ele></trkpt>
      <trkpt lat="37.694754" lon="128.468149"><ele>886.9</ele></trkpt>
      <trkpt lat="37.694917" lon="128.468158"><ele>891.6</ele></trkpt>
      <trkpt lat="37.695056" lon="128.468029"><ele>894.0</ele></trkpt>
      <trkpt lat="37.695266" lon="128.468059"><ele>899.8</ele></trkpt>
      <trkpt lat="37.695423" lon="128.467965"><ele>896.1</ele></trkpt>
      <trkpt lat="37.695596" lon="128.468012"><ele>897.9</ele></trkpt>
      <trkpt lat="37.696047" lon="128.467836"><ele>910.0</ele></trkpt>
      <trkpt lat="37.696387" lon="128.467797"><ele>927.6</ele></trkpt>
      <trkpt lat="37.696404" lon="128.467716"><ele>928.4</ele></trkpt>
      <trkpt lat="37.696496" lon="128.467703"><ele>931.8</ele></trkpt>
      <trkpt lat="37.696669" lon="128.467755"><ele>939.5</ele></trkpt>
      <trkpt lat="37.696839" lon="128.467905"><ele>937.4</ele></trkpt>
      <trkpt lat="37.697596" lon="128.467755"><ele>950.1</ele></trkpt>
      <trkpt lat="37.697654" lon="128.467626"><ele>952.4</ele></trkpt>
      <trkpt lat="37.698071" lon="128.467119"><ele>971.0</ele></trkpt>
      <trkpt lat="37.698309" lon="128.467227"><ele>977.6</ele></trkpt>
      <trkpt lat="37.698716" lon="128.467274"><ele>982.0</ele></trkpt>
      <trkpt lat="37.699103" lon="128.467179"><ele>991.5</ele></trkpt>
      <trkpt lat="37.699236" lon="128.467072"><ele>995.9</ele></trkpt>
      <trkpt lat="37.699585" lon="128.467033"><ele>1011.3</ele></trkpt>
      <trkpt lat="37.699809" lon="128.466863"><ele>1019.2</ele></trkpt>
      <trkpt lat="37.700114" lon="128.466845"><ele>1020.8</ele></trkpt>
      <trkpt lat="37.700659" lon="128.467000"><ele>1020.3</ele></trkpt>
      <trkpt lat="37.700774" lon="128.466927"><ele>1021.6</ele></trkpt>
      <trkpt lat="37.700913" lon="128.466951"><ele>1026.2</ele></trkpt>
      <trkpt lat="37.701007" lon="128.466879"><ele>1028.2</ele></trkpt>
      <trkpt lat="37.701266" lon="128.466857"><ele>1040.2</ele></trkpt>
      <trkpt lat="37.701559" lon="128.466706"><ele>1053.5</ele></trkpt>
      <trkpt lat="37.701749" lon="128.466690"><ele>1060.4</ele></trkpt>
      <trkpt lat="37.701866" lon="128.466742"><ele>1063.8</ele></trkpt>
      <trkpt lat="37.702214" lon="128.466730"><ele>1067.6</ele></trkpt>
      <trkpt lat="37.702330" lon="128.466818"><ele>1069.1</ele></trkpt>
      <trkpt lat="37.702575" lon="128.466885"><ele>1071.3</ele></trkpt>
      <trkpt lat="37.702771" lon="128.467033"><ele>1074.2</ele></trkpt>
      <trkpt lat="37.702951" lon="128.467300"><ele>1077.5</ele></trkpt>
      <trkpt lat="37.703307" lon="128.467616"><ele>1084.3</ele></trkpt>
      <trkpt lat="37.703653" lon="128.468180"><ele>1097.5</ele></trkpt>
      <trkpt lat="37.703914" lon="128.468271"><ele>1103.7</ele></trkpt>
      <trkpt lat="37.704887" lon="128.469064"><ele>1131.6</ele></trkpt>
      <trkpt lat="37.705316" lon="128.469024"><ele>1140.6</ele></trkpt>
      <trkpt lat="37.705566" lon="128.469079"><ele>1147.0</ele></trkpt>
      <trkpt lat="37.706428" lon="128.468933"><ele>1161.3</ele></trkpt>
      <trkpt lat="37.706841" lon="128.469106"><ele>1181.8</ele></trkpt>
      <trkpt lat="37.707340" lon="128.469145"><ele>1190.1</ele></trkpt>
      <trkpt lat="37.707540" lon="128.469051"><ele>1189.9</ele></trkpt>
      <trkpt lat="37.707621" lon="128.469112"><ele>1191.7</ele></trkpt>
      <trkpt lat="37.707960" lon="128.469100"><ele>1188.5</ele></trkpt>
      <trkpt lat="37.708848" lon="128.469476"><ele>1208.1</ele></trkpt>
      <trkpt lat="37.708997" lon="128.469640"><ele>1214.7</ele></trkpt>
      <trkpt lat="37.709210" lon="128.469652"><ele>1220.8</ele></trkpt>
      <trkpt lat="37.709352" lon="128.469610"><ele>1225.0</ele></trkpt>
      <trkpt lat="37.709434" lon="128.469510"><ele>1225.3</ele></trkpt>
      <trkpt lat="37.709695" lon="128.469555"><ele>1234.9</ele></trkpt>
      <trkpt lat="37.709936" lon="128.469507"><ele>1236.2</ele></trkpt>
      <trkpt lat="37.710092" lon="128.469567"><ele>1242.8</ele></trkpt>
      <trkpt lat="37.710166" lon="128.469746"><ele>1254.3</ele></trkpt>
      <trkpt lat="37.710396" lon="128.469953"><ele>1262.6</ele></trkpt>
      <trkpt lat="37.710713" lon="128.469989"><ele>1267.9</ele></trkpt>
      <trkpt lat="37.710997" lon="128.470214"><ele>1273.2</ele></trkpt>
      <trkpt lat="37.711225" lon="128.470001"><ele>1275.0</ele></trkpt>
      <trkpt lat="37.711390" lon="128.469649"><ele>1273.7</ele></trkpt>
      <trkpt lat="37.711719" lon="128.469312"><ele>1268.0</ele></trkpt>
      <trkpt lat="37.711998" lon="128.468930"><ele>1267.1</ele></trkpt>
      <trkpt lat="37.712319" lon="128.468681"><ele>1271.4</ele></trkpt>
      <trkpt lat="37.712375" lon="128.468545"><ele>1271.8</ele></trkpt>
      <trkpt lat="37.712533" lon="128.468508"><ele>1276.6</ele></trkpt>
      <trkpt lat="37.712680" lon="128.468390"><ele>1282.2</ele></trkpt>
      <trkpt lat="37.712912" lon="128.468041"><ele>1288.4</ele></trkpt>
      <trkpt lat="37.713059" lon="128.467907"><ele>1289.7</ele></trkpt>
      <trkpt lat="37.713256" lon="128.467983"><ele>1292.1</ele></trkpt>
      <trkpt lat="37.713453" lon="128.467959"><ele>1288.7</ele></trkpt>
      <trkpt lat="37.713664" lon="128.468017"><ele>1285.8</ele></trkpt>
      <trkpt lat="37.714497" lon="128.467929"><ele>1297.0</ele></trkpt>
      <trkpt lat="37.714732" lon="128.468014"><ele>1297.0</ele></trkpt>
      <trkpt lat="37.715428" lon="128.468071"><ele>1304.6</ele></trkpt>
      <trkpt lat="37.715495" lon="128.468184"><ele>1308.7</ele></trkpt>
      <trkpt lat="37.715637" lon="128.468135"><ele>1311.6</ele></trkpt>
      <trkpt lat="37.715728" lon="128.468184"><ele>1314.2</ele></trkpt>
      <trkpt lat="37.715860" lon="128.468129"><ele>1314.9</ele></trkpt>
      <trkpt lat="37.716777" lon="128.468366"><ele>1314.8</ele></trkpt>
      <trkpt lat="37.716986" lon="128.468366"><ele>1315.2</ele></trkpt>
      <trkpt lat="37.717524" lon="128.468190"><ele>1321.8</ele></trkpt>
      <trkpt lat="37.717704" lon="128.468217"><ele>1325.7</ele></trkpt>
      <trkpt lat="37.718167" lon="128.468463"><ele>1338.3</ele></trkpt>
      <trkpt lat="37.718306" lon="128.468450"><ele>1342.9</ele></trkpt>
      <trkpt lat="37.718434" lon="128.468575"><ele>1346.8</ele></trkpt>
      <trkpt lat="37.718539" lon="128.468542"><ele>1348.6</ele></trkpt>
      <trkpt lat="37.719355" lon="128.468675"><ele>1365.3</ele></trkpt>
      <trkpt lat="37.719473" lon="128.468566"><ele>1368.9</ele></trkpt>
      <trkpt lat="37.719617" lon="128.468569"><ele>1371.8</ele></trkpt>
      <trkpt lat="37.719823" lon="128.468399"><ele>1375.6</ele></trkpt>
      <trkpt lat="37.720224" lon="128.468344"><ele>1384.6</ele></trkpt>
      <trkpt lat="37.720520" lon="128.468232"><ele>1389.0</ele></trkpt>
      <trkpt lat="37.720855" lon="128.467841"><ele>1395.2</ele></trkpt>
      <trkpt lat="37.721055" lon="128.467680"><ele>1399.6</ele></trkpt>
      <trkpt lat="37.721211" lon="128.467698"><ele>1404.6</ele></trkpt>
      <trkpt lat="37.721295" lon="128.467583"><ele>1405.4</ele></trkpt>
      <trkpt lat="37.721463" lon="128.467613"><ele>1409.7</ele></trkpt>
      <trkpt lat="37.721501" lon="128.467546"><ele>1410.2</ele></trkpt>
      <trkpt lat="37.721631" lon="128.467513"><ele>1412.4</ele></trkpt>
      <trkpt lat="37.722053" lon="128.467492"><ele>1421.6</ele></trkpt>
      <trkpt lat="37.722478" lon="128.467525"><ele>1431.1</ele></trkpt>
      <trkpt lat="37.722718" lon="128.467410"><ele>1431.0</ele></trkpt>
      <trkpt lat="37.723073" lon="128.467431"><ele>1437.3</ele></trkpt>
      <trkpt lat="37.723347" lon="128.467325"><ele>1439.8</ele></trkpt>
      <trkpt lat="37.723462" lon="128.467358"><ele>1442.5</ele></trkpt>
      <trkpt lat="37.723712" lon="128.467316"><ele>1449.3</ele></trkpt>
      <trkpt lat="37.723914" lon="128.467367"><ele>1456.7</ele></trkpt>
      <trkpt lat="37.724425" lon="128.467313"><ele>1469.9</ele></trkpt>
      <trkpt lat="37.724473" lon="128.467216"><ele>1471.7</ele></trkpt>
      <trkpt lat="37.724775" lon="128.467115"><ele>1478.9</ele></trkpt>
      <trkpt lat="37.724931" lon="128.466939"><ele>1481.7</ele></trkpt>
      <trkpt lat="37.725427" lon="128.466715"><ele>1486.5</ele></trkpt>
      <trkpt lat="37.725566" lon="128.466545"><ele>1491.5</ele></trkpt>
      <trkpt lat="37.725801" lon="128.466418"><ele>1498.6</ele></trkpt>
      <trkpt lat="37.726080" lon="128.466115"><ele>1505.2</ele></trkpt>
      <trkpt lat="37.726301" lon="128.466165"><ele>1510.8</ele></trkpt>
      <trkpt lat="37.726560" lon="128.466078"><ele>1516.5</ele></trkpt>
      <trkpt lat="37.726771" lon="128.465866"><ele>1521.4</ele></trkpt>
      <trkpt lat="37.726992" lon="128.465854"><ele>1528.5</ele></trkpt>
      <trkpt lat="37.727376" lon="128.465690"><ele>1542.3</ele></trkpt>
      <trkpt lat="37.727645" lon="128.465653"><ele>1552.7</ele></trkpt>
      <trkpt lat="37.727722" lon="128.465556"><ele>1555.0</ele></trkpt>
      <trkpt lat="37.727913" lon="128.465593"><ele>1561.1</ele></trkpt>
      <trkpt lat="37.728272" lon="128.465481"><ele>1568.2</ele></trkpt>
      <trkpt lat="37.728331" lon="128.465074"><ele>1562.6</ele></trkpt>
      <trkpt lat="37.728313" lon="128.464519"><ele>1548.3</ele></trkpt>
      <trkpt lat="37.728375" lon="128.463196"><ele>1518.5</ele></trkpt>
      <trkpt lat="37.728322" lon="128.462649"><ele>1511.8</ele></trkpt>
      <trkpt lat="37.728250" lon="128.462427"><ele>1507.8</ele></trkpt>
      <trkpt lat="37.728256" lon="128.462124"><ele>1503.3</ele></trkpt>
      <trkpt lat="37.728292" lon="128.462062"><ele>1502.7</ele></trkpt>
      <trkpt lat="37.728439" lon="128.462037"><ele>1500.1</ele></trkpt>
      <trkpt lat="37.728634" lon="128.461786"><ele>1489.4</ele></trkpt>
      <trkpt lat="37.729431" lon="128.460452"><ele>1469.8</ele></trkpt>
      <trkpt lat="37.729686" lon="128.460219"><ele>1470.6</ele></trkpt>
      <trkpt lat="37.730074" lon="128.459993"><ele>1473.1</ele></trkpt>
      <trkpt lat="37.730212" lon="128.459535"><ele>1468.2</ele></trkpt>
      <trkpt lat="37.730281" lon="128.459096"><ele>1470.7</ele></trkpt>
      <trkpt lat="37.730414" lon="128.458720"><ele>1471.6</ele></trkpt>
      <trkpt lat="37.730658" lon="128.458302"><ele>1478.5</ele></trkpt>
      <trkpt lat="37.730700" lon="128.458119"><ele>1481.7</ele></trkpt>
      <trkpt lat="37.730689" lon="128.457864"><ele>1485.1</ele></trkpt>
      <trkpt lat="37.730801" lon="128.457477"><ele>1490.1</ele></trkpt>
      <trkpt lat="37.730784" lon="128.457368"><ele>1488.8</ele></trkpt>
    </trkseg>
  </trk>
</gpx>
