<?xml version="1.0" encoding="UTF-8"?>
<gpx version="1.1" creator="kr-100-mountains route-harvester"
     xmlns="http://www.topografix.com/GPX/1/1"
     xmlns:k100="https://github.com/jay-jang/kr-100-mountains/ns/1"
     xmlns:xsi="http://www.w3.org/2001/XMLSchema-instance"
     xsi:schemaLocation="http://www.topografix.com/GPX/1/1 http://www.topografix.com/GPX/1/1/gpx.xsd">
  <metadata>
    <name>칠갑산 · 칠갑광장(도림로) 코스 (대안 1) (OSM 계산 경로)</name>
    <desc>실제 GPS 기록이 아닙니다. OpenStreetMap에 등록된 등산로 선형 위에서 계산한 경로이며, 현장 통제·훼손·출입 제한·계절 통제를 반영하지 않을 수 있습니다. 산행 전 공식 안내를 확인하세요.</desc>
    <time>2026-08-04T05:29:41.339Z</time>
    <link href="https://www.openstreetmap.org/copyright"><text>© OpenStreetMap contributors (ODbL 1.0)</text></link>
    <link href="https://registry.opendata.aws/terrain-tiles/"><text>Elevation: SRTM 1 arc-second (NASA/USGS) via AWS Terrain Tiles</text></link>
    <extensions>
      <k100:provenance>osm-routed</k100:provenance>
      <k100:not_a_recorded_track>true</k100:not_a_recorded_track>
      <k100:mountain_id>chilgapsan</k100:mountain_id>
      <k100:mountain_name>칠갑산</k100:mountain_name>
      <k100:route_id>chilgapsan-8754f794</k100:route_id>
      <k100:route_index>2</k100:route_index>
      <k100:route_name>칠갑광장(도림로) 코스</k100:route_name>
      <k100:variant>1</k100:variant>
      <k100:source>OpenStreetMap via Overpass API</k100:source>
      <k100:license>ODbL-1.0</k100:license>
      <k100:attribution>© OpenStreetMap contributors</k100:attribution>
      <k100:elevation_source>SRTM 1 arc-second (NASA/USGS) — AWS Terrain Tiles 배포본. 지형 DEM 추정 고도이며 실측 아님</k100:elevation_source>
      <k100:algorithm>dijkstra-grid-v1</k100:algorithm>
      <k100:osm_snapshot>2026-08-04</k100:osm_snapshot>
      <k100:snap_trailhead_m>13</k100:snap_trailhead_m>
      <k100:snap_summit_m>69</k100:snap_summit_m>
      <k100:validation_score>100</k100:validation_score>
      <k100:validation_status>accepted</k100:validation_status>
    </extensions>
  </metadata>
  <trk>
    <name>칠갑산 · 칠갑광장(도림로) 코스 (대안 1) (OSM 계산 경로)</name>
    <desc>실제 GPS 기록이 아닙니다. OpenStreetMap에 등록된 등산로 선형 위에서 계산한 경로이며, 현장 통제·훼손·출입 제한·계절 통제를 반영하지 않을 수 있습니다. 산행 전 공식 안내를 확인하세요.</desc>
    <trkseg>
      <trkpt lat="36.436415" lon="126.885588"><ele>228.3</ele></trkpt>
      <trkpt lat="36.436502" lon="126.885482"><ele>228.0</ele></trkpt>
      <trkpt lat="36.436257" lon="126.885259"><ele>226.3</ele></trkpt>
      <trkpt lat="36.436106" lon="126.885333"><ele>227.8</ele></trkpt>
      <trkpt lat="36.435881" lon="126.885234"><ele>227.2</ele></trkpt>
      <trkpt lat="36.435621" lon="126.885302"><ele>226.8</ele></trkpt>
      <trkpt lat="36.435820" lon="126.886572"><ele>238.8</ele></trkpt>
      <trkpt lat="36.435795" lon="126.887383"><ele>246.8</ele></trkpt>
      <trkpt lat="36.434461" lon="126.893289"><ele>246.6</ele></trkpt>
      <trkpt lat="36.434169" lon="126.894187"><ele>226.7</ele></trkpt>
      <trkpt lat="36.433805" lon="126.894702"><ele>213.6</ele></trkpt>
      <trkpt lat="36.433503" lon="126.894979"><ele>207.2</ele></trkpt>
      <trkpt lat="36.433220" lon="126.895094"><ele>205.6</ele></trkpt>
      <trkpt lat="36.432743" lon="126.895154"><ele>198.5</ele></trkpt>
      <trkpt lat="36.432314" lon="126.895379"><ele>192.7</ele></trkpt>
      <trkpt lat="36.431427" lon="126.896320"><ele>194.2</ele></trkpt>
      <trkpt lat="36.431116" lon="126.896713"><ele>194.2</ele></trkpt>
      <trkpt lat="36.432177" lon="126.897036"><ele>205.7</ele></trkpt>
      <trkpt lat="36.432613" lon="126.897014"><ele>206.9</ele></trkpt>
      <trkpt lat="36.433316" lon="126.897135"><ele>221.7</ele></trkpt>
      <trkpt lat="36.433394" lon="126.897064"><ele>224.2</ele></trkpt>
      <trkpt lat="36.433400" lon="126.896938"><ele>224.0</ele></trkpt>
      <trkpt lat="36.433112" lon="126.896494"><ele>216.3</ele></trkpt>
      <trkpt lat="36.433098" lon="126.896276"><ele>214.1</ele></trkpt>
      <trkpt lat="36.433330" lon="126.896153"><ele>218.1</ele></trkpt>
      <trkpt lat="36.433672" lon="126.896091"><ele>219.7</ele></trkpt>
      <trkpt lat="36.433912" lon="126.896325"><ele>230.1</ele></trkpt>
      <trkpt lat="36.434141" lon="126.896377"><ele>228.9</ele></trkpt>
      <trkpt lat="36.434416" lon="126.896415"><ele>229.1</ele></trkpt>
      <trkpt lat="36.435137" lon="126.896324"><ele>234.1</ele></trkpt>
      <trkpt lat="36.435340" lon="126.896505"><ele>239.3</ele></trkpt>
      <trkpt lat="36.435534" lon="126.896918"><ele>252.3</ele></trkpt>
      <trkpt lat="36.435609" lon="126.896994"><ele>256.1</ele></trkpt>
      <trkpt lat="36.435726" lon="126.896975"><ele>257.8</ele></trkpt>
      <trkpt lat="36.435804" lon="126.896730"><ele>245.7</ele></trkpt>
      <trkpt lat="36.435869" lon="126.896671"><ele>243.2</ele></trkpt>
      <trkpt lat="36.436380" lon="126.896598"><ele>249.9</ele></trkpt>
      <trkpt lat="36.436670" lon="126.896748"><ele>260.8</ele></trkpt>
      <trkpt lat="36.437101" lon="126.896706"><ele>260.1</ele></trkpt>
      <trkpt lat="36.437414" lon="126.896770"><ele>264.9</ele></trkpt>
      <trkpt lat="36.437971" lon="126.897028"><ele>278.9</ele></trkpt>
      <trkpt lat="36.438100" lon="126.897038"><ele>281.5</ele></trkpt>
      <trkpt lat="36.438141" lon="126.896996"><ele>282.2</ele></trkpt>
      <trkpt lat="36.438135" lon="126.896819"><ele>281.4</ele></trkpt>
      <trkpt lat="36.438014" lon="126.896322"><ele>272.8</ele></trkpt>
      <trkpt lat="36.438027" lon="126.896153"><ele>271.5</ele></trkpt>
      <trkpt lat="36.438109" lon="126.895984"><ele>273.3</ele></trkpt>
      <trkpt lat="36.438476" lon="126.895826"><ele>288.0</ele></trkpt>
      <trkpt lat="36.438573" lon="126.895759"><ele>291.0</ele></trkpt>
      <trkpt lat="36.438597" lon="126.895671"><ele>289.7</ele></trkpt>
      <trkpt lat="36.438465" lon="126.895059"><ele>284.0</ele></trkpt>
      <trkpt lat="36.438422" lon="126.895016"><ele>284.7</ele></trkpt>
      <trkpt lat="36.438124" lon="126.895008"><ele>283.2</ele></trkpt>
      <trkpt lat="36.438087" lon="126.894920"><ele>286.1</ele></trkpt>
      <trkpt lat="36.438189" lon="126.894552"><ele>298.7</ele></trkpt>
      <trkpt lat="36.438182" lon="126.894421"><ele>302.7</ele></trkpt>
      <trkpt lat="36.438109" lon="126.894351"><ele>304.6</ele></trkpt>
      <trkpt lat="36.437802" lon="126.894464"><ele>298.4</ele></trkpt>
      <trkpt lat="36.437682" lon="126.894437"><ele>297.6</ele></trkpt>
      <trkpt lat="36.437410" lon="126.894061"><ele>311.8</ele></trkpt>
      <trkpt lat="36.437285" lon="126.894059"><ele>311.5</ele></trkpt>
      <trkpt lat="36.437062" lon="126.894321"><ele>300.6</ele></trkpt>
      <trkpt lat="36.436911" lon="126.894313"><ele>299.8</ele></trkpt>
      <trkpt lat="36.436769" lon="126.894201"><ele>299.3</ele></trkpt>
      <trkpt lat="36.436601" lon="126.893989"><ele>298.9</ele></trkpt>
      <trkpt lat="36.436536" lon="126.893750"><ele>299.0</ele></trkpt>
      <trkpt lat="36.436877" lon="126.893283"><ele>312.0</ele></trkpt>
      <trkpt lat="36.436939" lon="126.893047"><ele>317.9</ele></trkpt>
      <trkpt lat="36.436868" lon="126.892905"><ele>317.7</ele></trkpt>
      <trkpt lat="36.436775" lon="126.892843"><ele>314.7</ele></trkpt>
      <trkpt lat="36.436218" lon="126.892141"><ele>315.5</ele></trkpt>
      <trkpt lat="36.435917" lon="126.892037"><ele>315.4</ele></trkpt>
      <trkpt lat="36.435772" lon="126.891618"><ele>319.2</ele></trkpt>
      <trkpt lat="36.435082" lon="126.890747"><ele>319.6</ele></trkpt>
      <trkpt lat="36.434323" lon="126.890107"><ele>330.7</ele></trkpt>
      <trkpt lat="36.433950" lon="126.890404"><ele>332.0</ele></trkpt>
      <trkpt lat="36.433758" lon="126.890401"><ele>331.9</ele></trkpt>
      <trkpt lat="36.433649" lon="126.890329"><ele>333.4</ele></trkpt>
      <trkpt lat="36.433495" lon="126.889965"><ele>342.4</ele></trkpt>
      <trkpt lat="36.432895" lon="126.888877"><ele>347.0</ele></trkpt>
      <trkpt lat="36.432409" lon="126.888516"><ele>351.7</ele></trkpt>
      <trkpt lat="36.432287" lon="126.888504"><ele>355.0</ele></trkpt>
      <trkpt lat="36.432045" lon="126.888607"><ele>360.5</ele></trkpt>
      <trkpt lat="36.431668" lon="126.888660"><ele>363.5</ele></trkpt>
      <trkpt lat="36.431323" lon="126.888417"><ele>363.9</ele></trkpt>
      <trkpt lat="36.431099" lon="126.888498"><ele>361.3</ele></trkpt>
      <trkpt lat="36.430916" lon="126.888477"><ele>363.6</ele></trkpt>
      <trkpt lat="36.430635" lon="126.888269"><ele>366.4</ele></trkpt>
      <trkpt lat="36.430357" lon="126.888253"><ele>372.7</ele></trkpt>
      <trkpt lat="36.429808" lon="126.888868"><ele>380.0</ele></trkpt>
      <trkpt lat="36.429310" lon="126.888743"><ele>387.3</ele></trkpt>
      <trkpt lat="36.429044" lon="126.888632"><ele>388.2</ele></trkpt>
      <trkpt lat="36.428727" lon="126.888408"><ele>397.3</ele></trkpt>
      <trkpt lat="36.428368" lon="126.888327"><ele>402.3</ele></trkpt>
      <trkpt lat="36.428084" lon="126.888357"><ele>407.7</ele></trkpt>
      <trkpt lat="36.427777" lon="126.888494"><ele>408.3</ele></trkpt>
      <trkpt lat="36.427477" lon="126.888726"><ele>405.6</ele></trkpt>
      <trkpt lat="36.427335" lon="126.888666"><ele>403.9</ele></trkpt>
      <trkpt lat="36.427294" lon="126.888511"><ele>404.2</ele></trkpt>
      <trkpt lat="36.427435" lon="126.888052"><ele>415.2</ele></trkpt>
      <trkpt lat="36.427252" lon="126.887370"><ele>415.6</ele></trkpt>
      <trkpt lat="36.427131" lon="126.887074"><ele>415.2</ele></trkpt>
      <trkpt lat="36.427107" lon="126.886391"><ele>425.1</ele></trkpt>
    </trkseg>
  </trk>
</gpx>
