<?xml version="1.0" encoding="UTF-8"?>
<gpx version="1.1" creator="kr-100-mountains route-harvester"
     xmlns="http://www.topografix.com/GPX/1/1"
     xmlns:k100="https://github.com/jay-jang/kr-100-mountains/ns/1"
     xmlns:xsi="http://www.w3.org/2001/XMLSchema-instance"
     xsi:schemaLocation="http://www.topografix.com/GPX/1/1 http://www.topografix.com/GPX/1/1/gpx.xsd">
  <metadata>
    <name>칠갑산 · 장곡사-칠갑산 정상 코스 (대안 1) (OSM 계산 경로)</name>
    <desc>실제 GPS 기록이 아닙니다. OpenStreetMap에 등록된 등산로 선형 위에서 계산한 경로이며, 현장 통제·훼손·출입 제한·계절 통제를 반영하지 않을 수 있습니다. 산행 전 공식 안내를 확인하세요.</desc>
    <time>2026-08-04T05:29:41.318Z</time>
    <link href="https://www.openstreetmap.org/copyright"><text>© OpenStreetMap contributors (ODbL 1.0)</text></link>
    <link href="https://registry.opendata.aws/terrain-tiles/"><text>Elevation: SRTM 1 arc-second (NASA/USGS) via AWS Terrain Tiles</text></link>
    <extensions>
      <k100:provenance>osm-routed</k100:provenance>
      <k100:not_a_recorded_track>true</k100:not_a_recorded_track>
      <k100:mountain_id>chilgapsan</k100:mountain_id>
      <k100:mountain_name>칠갑산</k100:mountain_name>
      <k100:route_id>chilgapsan-8b02d5b2</k100:route_id>
      <k100:route_index>1</k100:route_index>
      <k100:route_name>장곡사-칠갑산 정상 코스</k100:route_name>
      <k100:variant>1</k100:variant>
      <k100:source>OpenStreetMap via Overpass API</k100:source>
      <k100:license>ODbL-1.0</k100:license>
      <k100:attribution>© OpenStreetMap contributors</k100:attribution>
      <k100:elevation_source>SRTM 1 arc-second (NASA/USGS) — AWS Terrain Tiles 배포본. 지형 DEM 추정 고도이며 실측 아님</k100:elevation_source>
      <k100:algorithm>dijkstra-grid-v1</k100:algorithm>
      <k100:osm_snapshot>2026-08-04</k100:osm_snapshot>
      <k100:snap_trailhead_m>24</k100:snap_trailhead_m>
      <k100:snap_summit_m>69</k100:snap_summit_m>
      <k100:validation_score>93</k100:validation_score>
      <k100:validation_status>accepted</k100:validation_status>
    </extensions>
  </metadata>
  <trk>
    <name>칠갑산 · 장곡사-칠갑산 정상 코스 (대안 1) (OSM 계산 경로)</name>
    <desc>실제 GPS 기록이 아닙니다. OpenStreetMap에 등록된 등산로 선형 위에서 계산한 경로이며, 현장 통제·훼손·출입 제한·계절 통제를 반영하지 않을 수 있습니다. 산행 전 공식 안내를 확인하세요.</desc>
    <trkseg>
      <trkpt lat="36.413075" lon="126.855574"><ele>111.7</ele></trkpt>
      <trkpt lat="36.412858" lon="126.855366"><ele>109.6</ele></trkpt>
      <trkpt lat="36.412409" lon="126.855129"><ele>107.3</ele></trkpt>
      <trkpt lat="36.411822" lon="126.854729"><ele>105.9</ele></trkpt>
      <trkpt lat="36.411320" lon="126.854230"><ele>103.0</ele></trkpt>
      <trkpt lat="36.411151" lon="126.853877"><ele>94.4</ele></trkpt>
      <trkpt lat="36.410835" lon="126.853805"><ele>98.2</ele></trkpt>
      <trkpt lat="36.410459" lon="126.853428"><ele>97.3</ele></trkpt>
      <trkpt lat="36.409774" lon="126.852439"><ele>90.8</ele></trkpt>
      <trkpt lat="36.409589" lon="126.851882"><ele>83.4</ele></trkpt>
      <trkpt lat="36.409479" lon="126.851233"><ele>78.0</ele></trkpt>
      <trkpt lat="36.409069" lon="126.851287"><ele>81.1</ele></trkpt>
      <trkpt lat="36.408465" lon="126.851232"><ele>90.6</ele></trkpt>
      <trkpt lat="36.408358" lon="126.851047"><ele>93.0</ele></trkpt>
      <trkpt lat="36.408100" lon="126.850936"><ele>112.3</ele></trkpt>
      <trkpt lat="36.407994" lon="126.850760"><ele>116.9</ele></trkpt>
      <trkpt lat="36.407736" lon="126.850510"><ele>127.2</ele></trkpt>
      <trkpt lat="36.407539" lon="126.850499"><ele>137.7</ele></trkpt>
      <trkpt lat="36.407507" lon="126.850640"><ele>146.0</ele></trkpt>
      <trkpt lat="36.407311" lon="126.850640"><ele>160.7</ele></trkpt>
      <trkpt lat="36.407311" lon="126.850884"><ele>169.1</ele></trkpt>
      <trkpt lat="36.407160" lon="126.851031"><ele>186.6</ele></trkpt>
      <trkpt lat="36.407023" lon="126.850966"><ele>194.4</ele></trkpt>
      <trkpt lat="36.406835" lon="126.851011"><ele>205.4</ele></trkpt>
      <trkpt lat="36.406689" lon="126.850941"><ele>208.9</ele></trkpt>
      <trkpt lat="36.406573" lon="126.850951"><ele>209.9</ele></trkpt>
      <trkpt lat="36.406523" lon="126.851011"><ele>210.9</ele></trkpt>
      <trkpt lat="36.406453" lon="126.851210"><ele>211.9</ele></trkpt>
      <trkpt lat="36.406591" lon="126.851437"><ele>215.1</ele></trkpt>
      <trkpt lat="36.406552" lon="126.851868"><ele>210.7</ele></trkpt>
      <trkpt lat="36.406421" lon="126.852202"><ele>206.9</ele></trkpt>
      <trkpt lat="36.406344" lon="126.852555"><ele>205.0</ele></trkpt>
      <trkpt lat="36.406388" lon="126.852998"><ele>205.8</ele></trkpt>
      <trkpt lat="36.406277" lon="126.853185"><ele>202.9</ele></trkpt>
      <trkpt lat="36.406100" lon="126.853332"><ele>200.6</ele></trkpt>
      <trkpt lat="36.406028" lon="126.853559"><ele>200.9</ele></trkpt>
      <trkpt lat="36.406035" lon="126.853828"><ele>201.1</ele></trkpt>
      <trkpt lat="36.405387" lon="126.854730"><ele>209.7</ele></trkpt>
      <trkpt lat="36.405282" lon="126.855340"><ele>208.7</ele></trkpt>
      <trkpt lat="36.405296" lon="126.855555"><ele>204.1</ele></trkpt>
      <trkpt lat="36.405190" lon="126.856097"><ele>198.7</ele></trkpt>
      <trkpt lat="36.405078" lon="126.856309"><ele>199.4</ele></trkpt>
      <trkpt lat="36.404759" lon="126.856600"><ele>205.7</ele></trkpt>
      <trkpt lat="36.404647" lon="126.856765"><ele>209.6</ele></trkpt>
      <trkpt lat="36.404451" lon="126.857430"><ele>225.6</ele></trkpt>
      <trkpt lat="36.404189" lon="126.857844"><ele>232.6</ele></trkpt>
      <trkpt lat="36.404091" lon="126.858161"><ele>233.2</ele></trkpt>
      <trkpt lat="36.404065" lon="126.858454"><ele>235.2</ele></trkpt>
      <trkpt lat="36.403980" lon="126.858576"><ele>235.5</ele></trkpt>
      <trkpt lat="36.403895" lon="126.858885"><ele>240.9</ele></trkpt>
      <trkpt lat="36.403986" lon="126.859121"><ele>242.9</ele></trkpt>
      <trkpt lat="36.403848" lon="126.859914"><ele>253.2</ele></trkpt>
      <trkpt lat="36.403869" lon="126.860162"><ele>255.1</ele></trkpt>
      <trkpt lat="36.404065" lon="126.860503"><ele>259.6</ele></trkpt>
      <trkpt lat="36.404130" lon="126.860763"><ele>260.2</ele></trkpt>
      <trkpt lat="36.404588" lon="126.861514"><ele>266.8</ele></trkpt>
      <trkpt lat="36.404603" lon="126.861777"><ele>266.8</ele></trkpt>
      <trkpt lat="36.404578" lon="126.862030"><ele>262.7</ele></trkpt>
      <trkpt lat="36.404399" lon="126.862617"><ele>252.2</ele></trkpt>
      <trkpt lat="36.404202" lon="126.862950"><ele>251.0</ele></trkpt>
      <trkpt lat="36.404150" lon="126.863219"><ele>249.1</ele></trkpt>
      <trkpt lat="36.404346" lon="126.863552"><ele>255.2</ele></trkpt>
      <trkpt lat="36.404383" lon="126.864012"><ele>252.8</ele></trkpt>
      <trkpt lat="36.404329" lon="126.864380"><ele>245.0</ele></trkpt>
      <trkpt lat="36.404353" lon="126.864699"><ele>249.9</ele></trkpt>
      <trkpt lat="36.404458" lon="126.865114"><ele>256.8</ele></trkpt>
      <trkpt lat="36.404270" lon="126.865457"><ele>261.9</ele></trkpt>
      <trkpt lat="36.404176" lon="126.865764"><ele>266.1</ele></trkpt>
      <trkpt lat="36.404137" lon="126.866317"><ele>268.8</ele></trkpt>
      <trkpt lat="36.403857" lon="126.866781"><ele>281.7</ele></trkpt>
      <trkpt lat="36.403803" lon="126.867032"><ele>288.0</ele></trkpt>
      <trkpt lat="36.403855" lon="126.867505"><ele>294.0</ele></trkpt>
      <trkpt lat="36.404248" lon="126.868301"><ele>302.5</ele></trkpt>
      <trkpt lat="36.404294" lon="126.868642"><ele>307.9</ele></trkpt>
      <trkpt lat="36.403954" lon="126.869911"><ele>318.8</ele></trkpt>
      <trkpt lat="36.403954" lon="126.870390"><ele>322.4</ele></trkpt>
      <trkpt lat="36.403771" lon="126.870740"><ele>321.0</ele></trkpt>
      <trkpt lat="36.403712" lon="126.871277"><ele>318.9</ele></trkpt>
      <trkpt lat="36.403685" lon="126.871884"><ele>322.9</ele></trkpt>
      <trkpt lat="36.403777" lon="126.872830"><ele>339.7</ele></trkpt>
      <trkpt lat="36.403561" lon="126.873521"><ele>361.7</ele></trkpt>
      <trkpt lat="36.403646" lon="126.873570"><ele>364.9</ele></trkpt>
      <trkpt lat="36.403744" lon="126.873984"><ele>386.0</ele></trkpt>
      <trkpt lat="36.403705" lon="126.874179"><ele>396.2</ele></trkpt>
      <trkpt lat="36.403771" lon="126.874269"><ele>398.9</ele></trkpt>
      <trkpt lat="36.403790" lon="126.874513"><ele>404.3</ele></trkpt>
      <trkpt lat="36.403201" lon="126.874952"><ele>408.7</ele></trkpt>
      <trkpt lat="36.402972" lon="126.875180"><ele>412.7</ele></trkpt>
      <trkpt lat="36.402881" lon="126.875440"><ele>422.9</ele></trkpt>
      <trkpt lat="36.402651" lon="126.875586"><ele>433.0</ele></trkpt>
      <trkpt lat="36.402455" lon="126.876944"><ele>456.1</ele></trkpt>
      <trkpt lat="36.402344" lon="126.877359"><ele>456.3</ele></trkpt>
      <trkpt lat="36.402606" lon="126.877895"><ele>467.1</ele></trkpt>
      <trkpt lat="36.402769" lon="126.878538"><ele>464.8</ele></trkpt>
      <trkpt lat="36.402815" lon="126.879343"><ele>485.6</ele></trkpt>
      <trkpt lat="36.402745" lon="126.879936"><ele>506.1</ele></trkpt>
      <trkpt lat="36.402730" lon="126.880822"><ele>530.2</ele></trkpt>
      <trkpt lat="36.402682" lon="126.881080"><ele>532.1</ele></trkpt>
      <trkpt lat="36.402918" lon="126.880961"><ele>529.0</ele></trkpt>
      <trkpt lat="36.403405" lon="126.880897"><ele>526.7</ele></trkpt>
      <trkpt lat="36.403779" lon="126.880964"><ele>525.6</ele></trkpt>
      <trkpt lat="36.404002" lon="126.880739"><ele>523.7</ele></trkpt>
      <trkpt lat="36.404538" lon="126.880518"><ele>519.4</ele></trkpt>
      <trkpt lat="36.404702" lon="126.880645"><ele>514.8</ele></trkpt>
      <trkpt lat="36.405204" lon="126.881213"><ele>496.8</ele></trkpt>
      <trkpt lat="36.405622" lon="126.881514"><ele>493.8</ele></trkpt>
      <trkpt lat="36.405936" lon="126.881849"><ele>495.3</ele></trkpt>
      <trkpt lat="36.406735" lon="126.882075"><ele>477.8</ele></trkpt>
      <trkpt lat="36.407147" lon="126.882302"><ele>468.8</ele></trkpt>
      <trkpt lat="36.407507" lon="126.882408"><ele>462.9</ele></trkpt>
      <trkpt lat="36.407743" lon="126.882335"><ele>459.1</ele></trkpt>
      <trkpt lat="36.408984" lon="126.882853"><ele>443.0</ele></trkpt>
      <trkpt lat="36.409230" lon="126.882915"><ele>439.7</ele></trkpt>
      <trkpt lat="36.409509" lon="126.882880"><ele>441.6</ele></trkpt>
      <trkpt lat="36.409745" lon="126.882977"><ele>443.2</ele></trkpt>
      <trkpt lat="36.410007" lon="126.882969"><ele>448.5</ele></trkpt>
      <trkpt lat="36.410321" lon="126.883091"><ele>452.8</ele></trkpt>
      <trkpt lat="36.410674" lon="126.883140"><ele>461.6</ele></trkpt>
      <trkpt lat="36.410884" lon="126.883018"><ele>470.4</ele></trkpt>
      <trkpt lat="36.411316" lon="126.882888"><ele>492.1</ele></trkpt>
      <trkpt lat="36.411603" lon="126.882953"><ele>504.6</ele></trkpt>
      <trkpt lat="36.411820" lon="126.883457"><ele>513.8</ele></trkpt>
      <trkpt lat="36.411966" lon="126.883583"><ele>520.2</ele></trkpt>
      <trkpt lat="36.412307" lon="126.884239"><ele>533.1</ele></trkpt>
      <trkpt lat="36.413023" lon="126.884882"><ele>542.2</ele></trkpt>
      <trkpt lat="36.413173" lon="126.884799"><ele>538.1</ele></trkpt>
      <trkpt lat="36.413589" lon="126.884982"><ele>523.2</ele></trkpt>
      <trkpt lat="36.414170" lon="126.885098"><ele>489.1</ele></trkpt>
      <trkpt lat="36.414620" lon="126.885282"><ele>476.0</ele></trkpt>
      <trkpt lat="36.415011" lon="126.885226"><ele>468.7</ele></trkpt>
      <trkpt lat="36.416375" lon="126.885544"><ele>450.1</ele></trkpt>
      <trkpt lat="36.416837" lon="126.885473"><ele>448.7</ele></trkpt>
      <trkpt lat="36.417076" lon="126.885396"><ele>451.8</ele></trkpt>
      <trkpt lat="36.417471" lon="126.885123"><ele>454.2</ele></trkpt>
      <trkpt lat="36.417815" lon="126.885130"><ele>446.6</ele></trkpt>
      <trkpt lat="36.418367" lon="126.885001"><ele>437.9</ele></trkpt>
      <trkpt lat="36.418554" lon="126.884867"><ele>436.2</ele></trkpt>
      <trkpt lat="36.419111" lon="126.884655"><ele>428.5</ele></trkpt>
      <trkpt lat="36.419550" lon="126.884308"><ele>429.3</ele></trkpt>
      <trkpt lat="36.419776" lon="126.884203"><ele>433.4</ele></trkpt>
      <trkpt lat="36.420341" lon="126.884141"><ele>437.2</ele></trkpt>
      <trkpt lat="36.421354" lon="126.884495"><ele>439.6</ele></trkpt>
      <trkpt lat="36.421864" lon="126.884732"><ele>432.8</ele></trkpt>
      <trkpt lat="36.422053" lon="126.884585"><ele>429.4</ele></trkpt>
      <trkpt lat="36.422171" lon="126.884559"><ele>425.0</ele></trkpt>
      <trkpt lat="36.422905" lon="126.884838"><ele>419.2</ele></trkpt>
      <trkpt lat="36.423508" lon="126.884796"><ele>419.4</ele></trkpt>
      <trkpt lat="36.423755" lon="126.884927"><ele>423.3</ele></trkpt>
      <trkpt lat="36.423941" lon="126.885125"><ele>427.8</ele></trkpt>
      <trkpt lat="36.424386" lon="126.885190"><ele>429.0</ele></trkpt>
      <trkpt lat="36.424966" lon="126.885400"><ele>420.2</ele></trkpt>
      <trkpt lat="36.425343" lon="126.885700"><ele>423.1</ele></trkpt>
      <trkpt lat="36.425913" lon="126.885825"><ele>419.8</ele></trkpt>
      <trkpt lat="36.426292" lon="126.885834"><ele>420.3</ele></trkpt>
      <trkpt lat="36.426886" lon="126.886181"><ele>423.3</ele></trkpt>
      <trkpt lat="36.427107" lon="126.886391"><ele>425.1</ele></trkpt>
    </trkseg>
  </trk>
</gpx>
