<?xml version="1.0" encoding="UTF-8"?>
<gpx version="1.1" creator="kr-100-mountains route-harvester"
     xmlns="http://www.topografix.com/GPX/1/1"
     xmlns:k100="https://github.com/jay-jang/kr-100-mountains/ns/1"
     xmlns:xsi="http://www.w3.org/2001/XMLSchema-instance"
     xsi:schemaLocation="http://www.topografix.com/GPX/1/1 http://www.topografix.com/GPX/1/1/gpx.xsd">
  <metadata>
    <name>칠갑산 · 천장호-정상 코스 (OSM 계산 경로)</name>
    <desc>실제 GPS 기록이 아닙니다. OpenStreetMap에 등록된 등산로 선형 위에서 계산한 경로이며, 현장 통제·훼손·출입 제한·계절 통제를 반영하지 않을 수 있습니다. 산행 전 공식 안내를 확인하세요.</desc>
    <time>2026-08-04T05:29:41.407Z</time>
    <link href="https://www.openstreetmap.org/copyright"><text>© OpenStreetMap contributors (ODbL 1.0)</text></link>
    <link href="https://registry.opendata.aws/terrain-tiles/"><text>Elevation: SRTM 1 arc-second (NASA/USGS) via AWS Terrain Tiles</text></link>
    <extensions>
      <k100:provenance>osm-routed</k100:provenance>
      <k100:not_a_recorded_track>true</k100:not_a_recorded_track>
      <k100:mountain_id>chilgapsan</k100:mountain_id>
      <k100:mountain_name>칠갑산</k100:mountain_name>
      <k100:route_id>chilgapsan-f4ad4779</k100:route_id>
      <k100:route_index>3</k100:route_index>
      <k100:route_name>천장호-정상 코스</k100:route_name>
      <k100:variant>0</k100:variant>
      <k100:source>OpenStreetMap via Overpass API</k100:source>
      <k100:license>ODbL-1.0</k100:license>
      <k100:attribution>© OpenStreetMap contributors</k100:attribution>
      <k100:elevation_source>SRTM 1 arc-second (NASA/USGS) — AWS Terrain Tiles 배포본. 지형 DEM 추정 고도이며 실측 아님</k100:elevation_source>
      <k100:algorithm>dijkstra-grid-v1</k100:algorithm>
      <k100:osm_snapshot>2026-08-04</k100:osm_snapshot>
      <k100:snap_trailhead_m>7</k100:snap_trailhead_m>
      <k100:snap_summit_m>69</k100:snap_summit_m>
      <k100:validation_score>100</k100:validation_score>
      <k100:validation_status>accepted</k100:validation_status>
    </extensions>
  </metadata>
  <trk>
    <name>칠갑산 · 천장호-정상 코스 (OSM 계산 경로)</name>
    <desc>실제 GPS 기록이 아닙니다. OpenStreetMap에 등록된 등산로 선형 위에서 계산한 경로이며, 현장 통제·훼손·출입 제한·계절 통제를 반영하지 않을 수 있습니다. 산행 전 공식 안내를 확인하세요.</desc>
    <trkseg>
      <trkpt lat="36.414658" lon="126.921705"><ele>128.3</ele></trkpt>
      <trkpt lat="36.414675" lon="126.921363"><ele>124.0</ele></trkpt>
      <trkpt lat="36.414196" lon="126.919737"><ele>116.0</ele></trkpt>
      <trkpt lat="36.413992" lon="126.918892"><ele>116.0</ele></trkpt>
      <trkpt lat="36.413948" lon="126.918432"><ele>118.1</ele></trkpt>
      <trkpt lat="36.413989" lon="126.917904"><ele>105.6</ele></trkpt>
      <trkpt lat="36.413955" lon="126.917450"><ele>105.7</ele></trkpt>
      <trkpt lat="36.414111" lon="126.916941"><ele>110.0</ele></trkpt>
      <trkpt lat="36.415400" lon="126.914818"><ele>123.5</ele></trkpt>
      <trkpt lat="36.415327" lon="126.914676"><ele>124.3</ele></trkpt>
      <trkpt lat="36.415327" lon="126.914284"><ele>132.8</ele></trkpt>
      <trkpt lat="36.414733" lon="126.912746"><ele>189.4</ele></trkpt>
      <trkpt lat="36.414743" lon="126.911704"><ele>213.3</ele></trkpt>
      <trkpt lat="36.414662" lon="126.911412"><ele>224.1</ele></trkpt>
      <trkpt lat="36.414465" lon="126.911143"><ele>237.2</ele></trkpt>
      <trkpt lat="36.414522" lon="126.910769"><ele>247.8</ele></trkpt>
      <trkpt lat="36.414465" lon="126.910476"><ele>255.5</ele></trkpt>
      <trkpt lat="36.414515" lon="126.910145"><ele>259.7</ele></trkpt>
      <trkpt lat="36.414659" lon="126.909823"><ele>265.1</ele></trkpt>
      <trkpt lat="36.414799" lon="126.909635"><ele>271.6</ele></trkpt>
      <trkpt lat="36.415305" lon="126.909213"><ele>290.4</ele></trkpt>
      <trkpt lat="36.415281" lon="126.908537"><ele>294.2</ele></trkpt>
      <trkpt lat="36.415569" lon="126.908115"><ele>290.9</ele></trkpt>
      <trkpt lat="36.416007" lon="126.907614"><ele>296.4</ele></trkpt>
      <trkpt lat="36.416158" lon="126.907516"><ele>296.0</ele></trkpt>
      <trkpt lat="36.416210" lon="126.907346"><ele>295.4</ele></trkpt>
      <trkpt lat="36.416171" lon="126.907142"><ele>296.8</ele></trkpt>
      <trkpt lat="36.415916" lon="126.906793"><ele>298.2</ele></trkpt>
      <trkpt lat="36.415811" lon="126.906524"><ele>298.8</ele></trkpt>
      <trkpt lat="36.415438" lon="126.906223"><ele>298.5</ele></trkpt>
      <trkpt lat="36.415331" lon="126.906053"><ele>298.9</ele></trkpt>
      <trkpt lat="36.415257" lon="126.905752"><ele>295.2</ele></trkpt>
      <trkpt lat="36.415324" lon="126.905592"><ele>290.1</ele></trkpt>
      <trkpt lat="36.416053" lon="126.904597"><ele>265.3</ele></trkpt>
      <trkpt lat="36.416158" lon="126.904361"><ele>264.7</ele></trkpt>
      <trkpt lat="36.416171" lon="126.904134"><ele>265.7</ele></trkpt>
      <trkpt lat="36.416282" lon="126.903727"><ele>269.9</ele></trkpt>
      <trkpt lat="36.416544" lon="126.903443"><ele>277.7</ele></trkpt>
      <trkpt lat="36.416675" lon="126.902898"><ele>293.2</ele></trkpt>
      <trkpt lat="36.416655" lon="126.902621"><ele>298.1</ele></trkpt>
      <trkpt lat="36.416485" lon="126.902402"><ele>302.1</ele></trkpt>
      <trkpt lat="36.416400" lon="126.902093"><ele>310.6</ele></trkpt>
      <trkpt lat="36.416321" lon="126.901125"><ele>332.7</ele></trkpt>
      <trkpt lat="36.416256" lon="126.900849"><ele>339.5</ele></trkpt>
      <trkpt lat="36.416145" lon="126.900564"><ele>346.5</ele></trkpt>
      <trkpt lat="36.415968" lon="126.900499"><ele>346.6</ele></trkpt>
      <trkpt lat="36.415935" lon="126.900385"><ele>349.5</ele></trkpt>
      <trkpt lat="36.415955" lon="126.900239"><ele>354.0</ele></trkpt>
      <trkpt lat="36.415824" lon="126.899824"><ele>364.0</ele></trkpt>
      <trkpt lat="36.415955" lon="126.899328"><ele>373.0</ele></trkpt>
      <trkpt lat="36.415942" lon="126.899052"><ele>373.5</ele></trkpt>
      <trkpt lat="36.416164" lon="126.898865"><ele>381.3</ele></trkpt>
      <trkpt lat="36.416367" lon="126.898800"><ele>389.5</ele></trkpt>
      <trkpt lat="36.416505" lon="126.898304"><ele>398.2</ele></trkpt>
      <trkpt lat="36.416493" lon="126.897713"><ele>401.3</ele></trkpt>
      <trkpt lat="36.416590" lon="126.897531"><ele>404.5</ele></trkpt>
      <trkpt lat="36.416812" lon="126.897417"><ele>411.2</ele></trkpt>
      <trkpt lat="36.416962" lon="126.897198"><ele>419.2</ele></trkpt>
      <trkpt lat="36.417084" lon="126.896734"><ele>420.2</ele></trkpt>
      <trkpt lat="36.416923" lon="126.896051"><ele>425.3</ele></trkpt>
      <trkpt lat="36.416956" lon="126.894913"><ele>441.6</ele></trkpt>
      <trkpt lat="36.416821" lon="126.894512"><ele>435.9</ele></trkpt>
      <trkpt lat="36.416851" lon="126.894230"><ele>429.9</ele></trkpt>
      <trkpt lat="36.416806" lon="126.893873"><ele>428.1</ele></trkpt>
      <trkpt lat="36.416724" lon="126.893707"><ele>431.2</ele></trkpt>
      <trkpt lat="36.416607" lon="126.893085"><ele>442.8</ele></trkpt>
      <trkpt lat="36.416439" lon="126.892629"><ele>454.4</ele></trkpt>
      <trkpt lat="36.416236" lon="126.892572"><ele>460.7</ele></trkpt>
      <trkpt lat="36.416035" lon="126.891902"><ele>468.0</ele></trkpt>
      <trkpt lat="36.416055" lon="126.891471"><ele>478.6</ele></trkpt>
      <trkpt lat="36.415903" lon="126.891092"><ele>481.2</ele></trkpt>
      <trkpt lat="36.415481" lon="126.890588"><ele>479.0</ele></trkpt>
      <trkpt lat="36.415202" lon="126.890010"><ele>480.4</ele></trkpt>
      <trkpt lat="36.414814" lon="126.889418"><ele>478.2</ele></trkpt>
      <trkpt lat="36.414646" lon="126.889037"><ele>476.3</ele></trkpt>
      <trkpt lat="36.414201" lon="126.888531"><ele>474.4</ele></trkpt>
      <trkpt lat="36.413985" lon="126.888192"><ele>477.3</ele></trkpt>
      <trkpt lat="36.413807" lon="126.887698"><ele>484.4</ele></trkpt>
      <trkpt lat="36.413187" lon="126.886856"><ele>498.6</ele></trkpt>
      <trkpt lat="36.412770" lon="126.886105"><ele>531.0</ele></trkpt>
      <trkpt lat="36.412690" lon="126.885872"><ele>534.4</ele></trkpt>
      <trkpt lat="36.412894" lon="126.885142"><ele>541.9</ele></trkpt>
      <trkpt lat="36.413023" lon="126.884882"><ele>542.2</ele></trkpt>
      <trkpt lat="36.413173" lon="126.884799"><ele>538.1</ele></trkpt>
      <trkpt lat="36.413589" lon="126.884982"><ele>523.2</ele></trkpt>
      <trkpt lat="36.414170" lon="126.885098"><ele>489.1</ele></trkpt>
      <trkpt lat="36.414620" lon="126.885282"><ele>476.0</ele></trkpt>
      <trkpt lat="36.415011" lon="126.885226"><ele>468.7</ele></trkpt>
      <trkpt lat="36.416375" lon="126.885544"><ele>450.1</ele></trkpt>
      <trkpt lat="36.417076" lon="126.885396"><ele>451.8</ele></trkpt>
      <trkpt lat="36.417471" lon="126.885123"><ele>454.2</ele></trkpt>
      <trkpt lat="36.417815" lon="126.885130"><ele>446.6</ele></trkpt>
      <trkpt lat="36.418367" lon="126.885001"><ele>437.9</ele></trkpt>
      <trkpt lat="36.418554" lon="126.884867"><ele>436.2</ele></trkpt>
      <trkpt lat="36.419111" lon="126.884655"><ele>428.5</ele></trkpt>
      <trkpt lat="36.419550" lon="126.884308"><ele>429.3</ele></trkpt>
      <trkpt lat="36.419776" lon="126.884203"><ele>433.4</ele></trkpt>
      <trkpt lat="36.420341" lon="126.884141"><ele>437.2</ele></trkpt>
      <trkpt lat="36.421354" lon="126.884495"><ele>439.6</ele></trkpt>
      <trkpt lat="36.421864" lon="126.884732"><ele>432.8</ele></trkpt>
      <trkpt lat="36.422053" lon="126.884585"><ele>429.4</ele></trkpt>
      <trkpt lat="36.422171" lon="126.884559"><ele>425.0</ele></trkpt>
      <trkpt lat="36.422905" lon="126.884838"><ele>419.2</ele></trkpt>
      <trkpt lat="36.423508" lon="126.884796"><ele>419.4</ele></trkpt>
      <trkpt lat="36.423755" lon="126.884927"><ele>423.3</ele></trkpt>
      <trkpt lat="36.423941" lon="126.885125"><ele>427.8</ele></trkpt>
      <trkpt lat="36.424386" lon="126.885190"><ele>429.0</ele></trkpt>
      <trkpt lat="36.424966" lon="126.885400"><ele>420.2</ele></trkpt>
      <trkpt lat="36.425343" lon="126.885700"><ele>423.1</ele></trkpt>
      <trkpt lat="36.425913" lon="126.885825"><ele>419.8</ele></trkpt>
      <trkpt lat="36.426292" lon="126.885834"><ele>420.3</ele></trkpt>
      <trkpt lat="36.426886" lon="126.886181"><ele>423.3</ele></trkpt>
      <trkpt lat="36.427107" lon="126.886391"><ele>425.1</ele></trkpt>
    </trkseg>
  </trk>
</gpx>
