<?xml version="1.0" encoding="UTF-8"?>
<gpx version="1.1" creator="kr-100-mountains route-harvester"
     xmlns="http://www.topografix.com/GPX/1/1"
     xmlns:k100="https://github.com/jay-jang/kr-100-mountains/ns/1"
     xmlns:xsi="http://www.w3.org/2001/XMLSchema-instance"
     xsi:schemaLocation="http://www.topografix.com/GPX/1/1 http://www.topografix.com/GPX/1/1/gpx.xsd">
  <metadata>
    <name>연인산 · 백둔리-소망능선-연인산 정상 (OSM 계산 경로)</name>
    <desc>실제 GPS 기록이 아닙니다. OpenStreetMap에 등록된 등산로 선형 위에서 계산한 경로이며, 현장 통제·훼손·출입 제한·계절 통제를 반영하지 않을 수 있습니다. 산행 전 공식 안내를 확인하세요.</desc>
    <time>2026-08-04T05:13:42.276Z</time>
    <link href="https://www.openstreetmap.org/copyright"><text>© OpenStreetMap contributors (ODbL 1.0)</text></link>
    <link href="https://registry.opendata.aws/terrain-tiles/"><text>Elevation: SRTM 1 arc-second (NASA/USGS) via AWS Terrain Tiles</text></link>
    <extensions>
      <k100:provenance>osm-routed</k100:provenance>
      <k100:not_a_recorded_track>true</k100:not_a_recorded_track>
      <k100:mountain_id>yeoninsan-gapyeong</k100:mountain_id>
      <k100:mountain_name>연인산(가평)</k100:mountain_name>
      <k100:route_id>yeoninsan-gapyeong-835113c6</k100:route_id>
      <k100:route_index>3</k100:route_index>
      <k100:route_name>백둔리-소망능선-연인산 정상</k100:route_name>
      <k100:variant>0</k100:variant>
      <k100:source>OpenStreetMap via Overpass API</k100:source>
      <k100:license>ODbL-1.0</k100:license>
      <k100:attribution>© OpenStreetMap contributors</k100:attribution>
      <k100:elevation_source>SRTM 1 arc-second (NASA/USGS) — AWS Terrain Tiles 배포본. 지형 DEM 추정 고도이며 실측 아님</k100:elevation_source>
      <k100:algorithm>dijkstra-grid-v1</k100:algorithm>
      <k100:osm_snapshot>2026-08-04</k100:osm_snapshot>
      <k100:snap_trailhead_m>323</k100:snap_trailhead_m>
      <k100:snap_summit_m>29</k100:snap_summit_m>
      <k100:validation_score>94</k100:validation_score>
      <k100:validation_status>accepted</k100:validation_status>
    </extensions>
  </metadata>
  <trk>
    <name>연인산 · 백둔리-소망능선-연인산 정상 (OSM 계산 경로)</name>
    <desc>실제 GPS 기록이 아닙니다. OpenStreetMap에 등록된 등산로 선형 위에서 계산한 경로이며, 현장 통제·훼손·출입 제한·계절 통제를 반영하지 않을 수 있습니다. 산행 전 공식 안내를 확인하세요.</desc>
    <trkseg>
      <trkpt lat="37.917526" lon="127.428158"><ele>573.3</ele></trkpt>
      <trkpt lat="37.917655" lon="127.427946"><ele>575.7</ele></trkpt>
      <trkpt lat="37.917640" lon="127.427706"><ele>572.3</ele></trkpt>
      <trkpt lat="37.917676" lon="127.427570"><ele>573.6</ele></trkpt>
      <trkpt lat="37.917596" lon="127.427283"><ele>574.1</ele></trkpt>
      <trkpt lat="37.917675" lon="127.427116"><ele>576.6</ele></trkpt>
      <trkpt lat="37.917685" lon="127.426972"><ele>578.3</ele></trkpt>
      <trkpt lat="37.917605" lon="127.426745"><ele>583.2</ele></trkpt>
      <trkpt lat="37.917594" lon="127.426553"><ele>588.0</ele></trkpt>
      <trkpt lat="37.917709" lon="127.426045"><ele>597.3</ele></trkpt>
      <trkpt lat="37.917699" lon="127.425793"><ele>600.6</ele></trkpt>
      <trkpt lat="37.917817" lon="127.425702"><ele>600.8</ele></trkpt>
      <trkpt lat="37.917874" lon="127.425571"><ele>604.2</ele></trkpt>
      <trkpt lat="37.917835" lon="127.425483"><ele>605.2</ele></trkpt>
      <trkpt lat="37.917899" lon="127.425146"><ele>615.0</ele></trkpt>
      <trkpt lat="37.918014" lon="127.424827"><ele>623.5</ele></trkpt>
      <trkpt lat="37.918270" lon="127.424399"><ele>629.9</ele></trkpt>
      <trkpt lat="37.918431" lon="127.423883"><ele>639.0</ele></trkpt>
      <trkpt lat="37.918509" lon="127.423201"><ele>656.2</ele></trkpt>
      <trkpt lat="37.918630" lon="127.422939"><ele>662.1</ele></trkpt>
      <trkpt lat="37.918610" lon="127.422589"><ele>665.7</ele></trkpt>
      <trkpt lat="37.918701" lon="127.422267"><ele>671.7</ele></trkpt>
      <trkpt lat="37.918648" lon="127.422018"><ele>674.0</ele></trkpt>
      <trkpt lat="37.918718" lon="127.421469"><ele>685.9</ele></trkpt>
      <trkpt lat="37.918843" lon="127.421320"><ele>689.0</ele></trkpt>
      <trkpt lat="37.918864" lon="127.421002"><ele>697.2</ele></trkpt>
      <trkpt lat="37.918649" lon="127.420450"><ele>714.6</ele></trkpt>
      <trkpt lat="37.918489" lon="127.420160"><ele>722.7</ele></trkpt>
      <trkpt lat="37.918352" lon="127.420070"><ele>722.9</ele></trkpt>
      <trkpt lat="37.918159" lon="127.419557"><ele>735.5</ele></trkpt>
      <trkpt lat="37.917984" lon="127.419344"><ele>744.2</ele></trkpt>
      <trkpt lat="37.917847" lon="127.419045"><ele>757.9</ele></trkpt>
      <trkpt lat="37.917831" lon="127.418905"><ele>763.4</ele></trkpt>
      <trkpt lat="37.918152" lon="127.417750"><ele>806.1</ele></trkpt>
      <trkpt lat="37.918093" lon="127.417248"><ele>812.2</ele></trkpt>
      <trkpt lat="37.917986" lon="127.417063"><ele>810.5</ele></trkpt>
      <trkpt lat="37.917683" lon="127.417304"><ele>813.7</ele></trkpt>
      <trkpt lat="37.917488" lon="127.417342"><ele>816.8</ele></trkpt>
      <trkpt lat="37.916769" lon="127.417298"><ele>840.2</ele></trkpt>
      <trkpt lat="37.916085" lon="127.417653"><ele>848.1</ele></trkpt>
      <trkpt lat="37.915899" lon="127.417400"><ele>844.9</ele></trkpt>
      <trkpt lat="37.915455" lon="127.417178"><ele>833.9</ele></trkpt>
      <trkpt lat="37.915203" lon="127.417128"><ele>825.1</ele></trkpt>
      <trkpt lat="37.915118" lon="127.417167"><ele>823.8</ele></trkpt>
      <trkpt lat="37.914981" lon="127.417079"><ele>821.8</ele></trkpt>
      <trkpt lat="37.914792" lon="127.417019"><ele>825.2</ele></trkpt>
      <trkpt lat="37.914694" lon="127.417041"><ele>826.7</ele></trkpt>
      <trkpt lat="37.914333" lon="127.416879"><ele>830.4</ele></trkpt>
      <trkpt lat="37.914113" lon="127.416857"><ele>828.5</ele></trkpt>
      <trkpt lat="37.913908" lon="127.416963"><ele>825.6</ele></trkpt>
      <trkpt lat="37.913413" lon="127.416947"><ele>827.8</ele></trkpt>
      <trkpt lat="37.912406" lon="127.417491"><ele>829.0</ele></trkpt>
      <trkpt lat="37.911935" lon="127.417555"><ele>837.4</ele></trkpt>
      <trkpt lat="37.911806" lon="127.417634"><ele>843.3</ele></trkpt>
      <trkpt lat="37.911697" lon="127.417803"><ele>852.6</ele></trkpt>
      <trkpt lat="37.911503" lon="127.417885"><ele>855.5</ele></trkpt>
      <trkpt lat="37.910843" lon="127.417948"><ele>858.7</ele></trkpt>
      <trkpt lat="37.910683" lon="127.418059"><ele>866.0</ele></trkpt>
      <trkpt lat="37.910467" lon="127.418042"><ele>873.9</ele></trkpt>
      <trkpt lat="37.910242" lon="127.418160"><ele>883.3</ele></trkpt>
      <trkpt lat="37.909907" lon="127.418471"><ele>898.0</ele></trkpt>
      <trkpt lat="37.909768" lon="127.418506"><ele>907.0</ele></trkpt>
      <trkpt lat="37.909525" lon="127.418733"><ele>917.5</ele></trkpt>
      <trkpt lat="37.909382" lon="127.418721"><ele>925.4</ele></trkpt>
      <trkpt lat="37.909288" lon="127.418643"><ele>932.4</ele></trkpt>
      <trkpt lat="37.909263" lon="127.418721"><ele>933.4</ele></trkpt>
      <trkpt lat="37.909023" lon="127.418805"><ele>947.9</ele></trkpt>
      <trkpt lat="37.908909" lon="127.418791"><ele>955.1</ele></trkpt>
      <trkpt lat="37.908538" lon="127.419011"><ele>966.0</ele></trkpt>
      <trkpt lat="37.908324" lon="127.418977"><ele>966.9</ele></trkpt>
      <trkpt lat="37.908271" lon="127.418617"><ele>974.8</ele></trkpt>
      <trkpt lat="37.908270" lon="127.417974"><ele>985.8</ele></trkpt>
      <trkpt lat="37.908205" lon="127.417816"><ele>985.5</ele></trkpt>
      <trkpt lat="37.907734" lon="127.417662"><ele>988.3</ele></trkpt>
      <trkpt lat="37.907431" lon="127.417231"><ele>993.9</ele></trkpt>
      <trkpt lat="37.907301" lon="127.417226"><ele>995.8</ele></trkpt>
      <trkpt lat="37.907197" lon="127.417044"><ele>998.8</ele></trkpt>
      <trkpt lat="37.907055" lon="127.416919"><ele>1002.1</ele></trkpt>
      <trkpt lat="37.906535" lon="127.416845"><ele>1012.1</ele></trkpt>
      <trkpt lat="37.906327" lon="127.416581"><ele>1015.7</ele></trkpt>
      <trkpt lat="37.906211" lon="127.416525"><ele>1017.1</ele></trkpt>
      <trkpt lat="37.905992" lon="127.416113"><ele>1026.5</ele></trkpt>
      <trkpt lat="37.905608" lon="127.416156"><ele>1010.6</ele></trkpt>
      <trkpt lat="37.905478" lon="127.416046"><ele>1008.5</ele></trkpt>
      <trkpt lat="37.905023" lon="127.415960"><ele>1010.4</ele></trkpt>
      <trkpt lat="37.904738" lon="127.416119"><ele>1007.9</ele></trkpt>
      <trkpt lat="37.904214" lon="127.416135"><ele>1002.6</ele></trkpt>
      <trkpt lat="37.904153" lon="127.416209"><ele>1002.1</ele></trkpt>
      <trkpt lat="37.904167" lon="127.416252"><ele>1002.0</ele></trkpt>
      <trkpt lat="37.904071" lon="127.416292"><ele>1002.7</ele></trkpt>
      <trkpt lat="37.903928" lon="127.416238"><ele>1003.7</ele></trkpt>
      <trkpt lat="37.903808" lon="127.416266"><ele>1005.3</ele></trkpt>
      <trkpt lat="37.903580" lon="127.416357"><ele>1009.8</ele></trkpt>
      <trkpt lat="37.903526" lon="127.416449"><ele>1011.8</ele></trkpt>
      <trkpt lat="37.903371" lon="127.416456"><ele>1015.8</ele></trkpt>
      <trkpt lat="37.902986" lon="127.416323"><ele>1018.2</ele></trkpt>
      <trkpt lat="37.902697" lon="127.416330"><ele>1022.7</ele></trkpt>
      <trkpt lat="37.902605" lon="127.416269"><ele>1022.8</ele></trkpt>
      <trkpt lat="37.902530" lon="127.416315"><ele>1024.6</ele></trkpt>
      <trkpt lat="37.902280" lon="127.416254"><ele>1024.4</ele></trkpt>
      <trkpt lat="37.901941" lon="127.416372"><ele>1026.0</ele></trkpt>
      <trkpt lat="37.901595" lon="127.416374"><ele>1033.0</ele></trkpt>
      <trkpt lat="37.901194" lon="127.416064"><ele>1025.8</ele></trkpt>
      <trkpt lat="37.901166" lon="127.415989"><ele>1025.0</ele></trkpt>
      <trkpt lat="37.900679" lon="127.415524"><ele>1026.3</ele></trkpt>
      <trkpt lat="37.900607" lon="127.415525"><ele>1026.1</ele></trkpt>
      <trkpt lat="37.900538" lon="127.415427"><ele>1025.4</ele></trkpt>
      <trkpt lat="37.900031" lon="127.415096"><ele>1028.6</ele></trkpt>
      <trkpt lat="37.899775" lon="127.415031"><ele>1032.6</ele></trkpt>
      <trkpt lat="37.899542" lon="127.414852"><ele>1038.5</ele></trkpt>
      <trkpt lat="37.899175" lon="127.414374"><ele>1058.5</ele></trkpt>
      <trkpt lat="37.899333" lon="127.414150"><ele>1051.3</ele></trkpt>
    </trkseg>
  </trk>
</gpx>
