<?xml version="1.0" encoding="UTF-8"?>
<gpx version="1.1" creator="kr-100-mountains route-harvester"
     xmlns="http://www.topografix.com/GPX/1/1"
     xmlns:k100="https://github.com/jay-jang/kr-100-mountains/ns/1"
     xmlns:xsi="http://www.w3.org/2001/XMLSchema-instance"
     xsi:schemaLocation="http://www.topografix.com/GPX/1/1 http://www.topografix.com/GPX/1/1/gpx.xsd">
  <metadata>
    <name>황석산 · 유동마을 코스 (OSM 계산 경로)</name>
    <desc>실제 GPS 기록이 아닙니다. OpenStreetMap에 등록된 등산로 선형 위에서 계산한 경로이며, 현장 통제·훼손·출입 제한·계절 통제를 반영하지 않을 수 있습니다. 산행 전 공식 안내를 확인하세요.</desc>
    <time>2026-08-04T05:39:44.561Z</time>
    <link href="https://www.openstreetmap.org/copyright"><text>© OpenStreetMap contributors (ODbL 1.0)</text></link>
    <link href="https://registry.opendata.aws/terrain-tiles/"><text>Elevation: SRTM 1 arc-second (NASA/USGS) via AWS Terrain Tiles</text></link>
    <extensions>
      <k100:provenance>osm-routed</k100:provenance>
      <k100:not_a_recorded_track>true</k100:not_a_recorded_track>
      <k100:mountain_id>hwangseoksan</k100:mountain_id>
      <k100:mountain_name>황석산</k100:mountain_name>
      <k100:route_id>hwangseoksan-02004b83</k100:route_id>
      <k100:route_index>2</k100:route_index>
      <k100:route_name>유동마을 코스</k100:route_name>
      <k100:variant>0</k100:variant>
      <k100:source>OpenStreetMap via Overpass API</k100:source>
      <k100:license>ODbL-1.0</k100:license>
      <k100:attribution>© OpenStreetMap contributors</k100:attribution>
      <k100:elevation_source>SRTM 1 arc-second (NASA/USGS) — AWS Terrain Tiles 배포본. 지형 DEM 추정 고도이며 실측 아님</k100:elevation_source>
      <k100:algorithm>dijkstra-grid-v1</k100:algorithm>
      <k100:osm_snapshot>2026-08-04</k100:osm_snapshot>
      <k100:snap_trailhead_m>57</k100:snap_trailhead_m>
      <k100:snap_summit_m>36</k100:snap_summit_m>
      <k100:validation_score>93</k100:validation_score>
      <k100:validation_status>accepted</k100:validation_status>
    </extensions>
  </metadata>
  <trk>
    <name>황석산 · 유동마을 코스 (OSM 계산 경로)</name>
    <desc>실제 GPS 기록이 아닙니다. OpenStreetMap에 등록된 등산로 선형 위에서 계산한 경로이며, 현장 통제·훼손·출입 제한·계절 통제를 반영하지 않을 수 있습니다. 산행 전 공식 안내를 확인하세요.</desc>
    <trkseg>
      <trkpt lat="35.617870" lon="127.763150"><ele>260.4</ele></trkpt>
      <trkpt lat="35.616776" lon="127.762394"><ele>261.5</ele></trkpt>
      <trkpt lat="35.616636" lon="127.762244"><ele>266.0</ele></trkpt>
      <trkpt lat="35.617167" lon="127.761864"><ele>259.5</ele></trkpt>
      <trkpt lat="35.616800" lon="127.762515"><ele>259.4</ele></trkpt>
      <trkpt lat="35.616569" lon="127.763113"><ele>259.8</ele></trkpt>
      <trkpt lat="35.616482" lon="127.763558"><ele>258.8</ele></trkpt>
      <trkpt lat="35.616244" lon="127.764041"><ele>259.5</ele></trkpt>
      <trkpt lat="35.616236" lon="127.764189"><ele>258.5</ele></trkpt>
      <trkpt lat="35.615998" lon="127.764795"><ele>259.7</ele></trkpt>
      <trkpt lat="35.615843" lon="127.765490"><ele>265.7</ele></trkpt>
      <trkpt lat="35.615793" lon="127.765892"><ele>267.6</ele></trkpt>
      <trkpt lat="35.615808" lon="127.766168"><ele>268.8</ele></trkpt>
      <trkpt lat="35.615621" lon="127.767085"><ele>262.7</ele></trkpt>
      <trkpt lat="35.615629" lon="127.767238"><ele>262.0</ele></trkpt>
      <trkpt lat="35.615784" lon="127.767826"><ele>255.0</ele></trkpt>
      <trkpt lat="35.615839" lon="127.767641"><ele>252.5</ele></trkpt>
      <trkpt lat="35.615900" lon="127.767608"><ele>251.9</ele></trkpt>
      <trkpt lat="35.616218" lon="127.767732"><ele>251.9</ele></trkpt>
      <trkpt lat="35.616456" lon="127.767732"><ele>254.6</ele></trkpt>
      <trkpt lat="35.616623" lon="127.768421"><ele>255.2</ele></trkpt>
      <trkpt lat="35.616522" lon="127.768527"><ele>252.7</ele></trkpt>
      <trkpt lat="35.616461" lon="127.770406"><ele>251.9</ele></trkpt>
      <trkpt lat="35.616531" lon="127.770924"><ele>248.5</ele></trkpt>
      <trkpt lat="35.616802" lon="127.771840"><ele>249.6</ele></trkpt>
      <trkpt lat="35.617096" lon="127.772394"><ele>248.6</ele></trkpt>
      <trkpt lat="35.617228" lon="127.772545"><ele>248.9</ele></trkpt>
      <trkpt lat="35.618190" lon="127.773508"><ele>246.1</ele></trkpt>
      <trkpt lat="35.619078" lon="127.774262"><ele>245.8</ele></trkpt>
      <trkpt lat="35.622443" lon="127.773507"><ele>240.2</ele></trkpt>
      <trkpt lat="35.623666" lon="127.773453"><ele>246.0</ele></trkpt>
      <trkpt lat="35.624189" lon="127.773711"><ele>246.7</ele></trkpt>
      <trkpt lat="35.624399" lon="127.773346"><ele>254.4</ele></trkpt>
      <trkpt lat="35.624405" lon="127.773161"><ele>257.9</ele></trkpt>
      <trkpt lat="35.624310" lon="127.772609"><ele>262.1</ele></trkpt>
      <trkpt lat="35.624221" lon="127.772369"><ele>264.2</ele></trkpt>
      <trkpt lat="35.624432" lon="127.772101"><ele>270.1</ele></trkpt>
      <trkpt lat="35.624593" lon="127.772031"><ele>273.2</ele></trkpt>
      <trkpt lat="35.624992" lon="127.771372"><ele>280.3</ele></trkpt>
      <trkpt lat="35.625306" lon="127.771125"><ele>284.9</ele></trkpt>
      <trkpt lat="35.625637" lon="127.770985"><ele>287.7</ele></trkpt>
      <trkpt lat="35.626492" lon="127.770792"><ele>299.3</ele></trkpt>
      <trkpt lat="35.626963" lon="127.770578"><ele>308.4</ele></trkpt>
      <trkpt lat="35.628192" lon="127.770567"><ele>324.0</ele></trkpt>
      <trkpt lat="35.628986" lon="127.770138"><ele>337.9</ele></trkpt>
      <trkpt lat="35.629370" lon="127.770127"><ele>337.7</ele></trkpt>
      <trkpt lat="35.629893" lon="127.769784"><ele>348.7</ele></trkpt>
      <trkpt lat="35.630320" lon="127.769687"><ele>353.8</ele></trkpt>
      <trkpt lat="35.631018" lon="127.769290"><ele>369.1</ele></trkpt>
      <trkpt lat="35.631166" lon="127.769333"><ele>369.5</ele></trkpt>
      <trkpt lat="35.631785" lon="127.769290"><ele>375.2</ele></trkpt>
      <trkpt lat="35.632247" lon="127.769440"><ele>381.7</ele></trkpt>
      <trkpt lat="35.632614" lon="127.769333"><ele>391.0</ele></trkpt>
      <trkpt lat="35.633111" lon="127.769097"><ele>398.7</ele></trkpt>
      <trkpt lat="35.633311" lon="127.768904"><ele>400.8</ele></trkpt>
      <trkpt lat="35.634061" lon="127.768593"><ele>409.7</ele></trkpt>
      <trkpt lat="35.634689" lon="127.768647"><ele>416.6</ele></trkpt>
      <trkpt lat="35.635500" lon="127.768818"><ele>431.1</ele></trkpt>
      <trkpt lat="35.635997" lon="127.768765"><ele>439.6</ele></trkpt>
      <trkpt lat="35.636381" lon="127.768485"><ele>443.2</ele></trkpt>
      <trkpt lat="35.636633" lon="127.768378"><ele>444.6</ele></trkpt>
      <trkpt lat="35.637061" lon="127.768357"><ele>450.9</ele></trkpt>
      <trkpt lat="35.637409" lon="127.768164"><ele>462.5</ele></trkpt>
      <trkpt lat="35.637845" lon="127.768024"><ele>470.9</ele></trkpt>
      <trkpt lat="35.638953" lon="127.768239"><ele>485.6</ele></trkpt>
      <trkpt lat="35.639877" lon="127.767885"><ele>504.6</ele></trkpt>
      <trkpt lat="35.641185" lon="127.767681"><ele>529.0</ele></trkpt>
      <trkpt lat="35.641865" lon="127.767177"><ele>544.9</ele></trkpt>
      <trkpt lat="35.642327" lon="127.767091"><ele>555.4</ele></trkpt>
      <trkpt lat="35.642955" lon="127.766823"><ele>565.4</ele></trkpt>
      <trkpt lat="35.643278" lon="127.766565"><ele>573.3</ele></trkpt>
      <trkpt lat="35.643408" lon="127.766179"><ele>594.1</ele></trkpt>
      <trkpt lat="35.643426" lon="127.765782"><ele>614.4</ele></trkpt>
      <trkpt lat="35.643312" lon="127.765503"><ele>627.5</ele></trkpt>
      <trkpt lat="35.643347" lon="127.764838"><ele>659.3</ele></trkpt>
      <trkpt lat="35.643434" lon="127.764645"><ele>668.8</ele></trkpt>
      <trkpt lat="35.643696" lon="127.764645"><ele>673.7</ele></trkpt>
      <trkpt lat="35.643836" lon="127.764366"><ele>690.0</ele></trkpt>
      <trkpt lat="35.644080" lon="127.764130"><ele>703.9</ele></trkpt>
      <trkpt lat="35.644184" lon="127.763861"><ele>716.5</ele></trkpt>
      <trkpt lat="35.644193" lon="127.763464"><ele>728.1</ele></trkpt>
      <trkpt lat="35.644350" lon="127.763186"><ele>729.3</ele></trkpt>
      <trkpt lat="35.644594" lon="127.763143"><ele>731.1</ele></trkpt>
      <trkpt lat="35.644734" lon="127.763003"><ele>733.5</ele></trkpt>
      <trkpt lat="35.645056" lon="127.762950"><ele>747.7</ele></trkpt>
      <trkpt lat="35.645396" lon="127.762638"><ele>759.5</ele></trkpt>
      <trkpt lat="35.646277" lon="127.762821"><ele>790.7</ele></trkpt>
      <trkpt lat="35.646512" lon="127.762670"><ele>802.1</ele></trkpt>
      <trkpt lat="35.646852" lon="127.762713"><ele>817.8</ele></trkpt>
      <trkpt lat="35.647114" lon="127.762628"><ele>825.5</ele></trkpt>
      <trkpt lat="35.647881" lon="127.762778"><ele>852.2</ele></trkpt>
      <trkpt lat="35.648177" lon="127.762660"><ele>856.5</ele></trkpt>
      <trkpt lat="35.648535" lon="127.762628"><ele>867.4</ele></trkpt>
      <trkpt lat="35.650130" lon="127.762950"><ele>915.0</ele></trkpt>
      <trkpt lat="35.650505" lon="127.762950"><ele>916.8</ele></trkpt>
      <trkpt lat="35.650863" lon="127.763121"><ele>922.9</ele></trkpt>
      <trkpt lat="35.651734" lon="127.763078"><ele>947.1</ele></trkpt>
      <trkpt lat="35.652698" lon="127.763271"><ele>976.6</ele></trkpt>
      <trkpt lat="35.653003" lon="127.763266"><ele>983.7</ele></trkpt>
      <trkpt lat="35.653312" lon="127.763100"><ele>988.5</ele></trkpt>
      <trkpt lat="35.653681" lon="127.763006"><ele>1006.7</ele></trkpt>
      <trkpt lat="35.653785" lon="127.763098"><ele>1009.9</ele></trkpt>
      <trkpt lat="35.654074" lon="127.763126"><ele>1013.7</ele></trkpt>
      <trkpt lat="35.654244" lon="127.763257"><ele>1010.1</ele></trkpt>
      <trkpt lat="35.654463" lon="127.763315"><ele>1009.4</ele></trkpt>
      <trkpt lat="35.654628" lon="127.763503"><ele>1006.3</ele></trkpt>
      <trkpt lat="35.654821" lon="127.763465"><ele>1011.4</ele></trkpt>
      <trkpt lat="35.654894" lon="127.763513"><ele>1010.8</ele></trkpt>
      <trkpt lat="35.655010" lon="127.763652"><ele>1007.7</ele></trkpt>
      <trkpt lat="35.655078" lon="127.763982"><ele>998.7</ele></trkpt>
      <trkpt lat="35.655214" lon="127.764309"><ele>992.2</ele></trkpt>
      <trkpt lat="35.655265" lon="127.765044"><ele>990.3</ele></trkpt>
      <trkpt lat="35.655165" lon="127.765291"><ele>986.3</ele></trkpt>
      <trkpt lat="35.655164" lon="127.765787"><ele>983.0</ele></trkpt>
      <trkpt lat="35.655097" lon="127.765946"><ele>980.3</ele></trkpt>
      <trkpt lat="35.654951" lon="127.766109"><ele>976.9</ele></trkpt>
      <trkpt lat="35.654942" lon="127.766377"><ele>972.1</ele></trkpt>
      <trkpt lat="35.655031" lon="127.766551"><ele>966.5</ele></trkpt>
      <trkpt lat="35.654933" lon="127.767116"><ele>951.3</ele></trkpt>
      <trkpt lat="35.655459" lon="127.766633"><ele>953.6</ele></trkpt>
      <trkpt lat="35.655619" lon="127.766567"><ele>951.3</ele></trkpt>
    </trkseg>
  </trk>
</gpx>
