<?xml version="1.0" encoding="UTF-8"?>
<gpx version="1.1" creator="kr-100-mountains route-harvester"
     xmlns="http://www.topografix.com/GPX/1/1"
     xmlns:k100="https://github.com/jay-jang/kr-100-mountains/ns/1"
     xmlns:xsi="http://www.w3.org/2001/XMLSchema-instance"
     xsi:schemaLocation="http://www.topografix.com/GPX/1/1 http://www.topografix.com/GPX/1/1/gpx.xsd">
  <metadata>
    <name>월악산 · 신륵사-신륵사삼거리-영봉 (OSM 계산 경로)</name>
    <desc>실제 GPS 기록이 아닙니다. OpenStreetMap에 등록된 등산로 선형 위에서 계산한 경로이며, 현장 통제·훼손·출입 제한·계절 통제를 반영하지 않을 수 있습니다. 산행 전 공식 안내를 확인하세요.</desc>
    <time>2026-08-04T05:26:53.417Z</time>
    <link href="https://www.openstreetmap.org/copyright"><text>© OpenStreetMap contributors (ODbL 1.0)</text></link>
    <link href="https://registry.opendata.aws/terrain-tiles/"><text>Elevation: SRTM 1 arc-second (NASA/USGS) via AWS Terrain Tiles</text></link>
    <extensions>
      <k100:provenance>osm-routed</k100:provenance>
      <k100:not_a_recorded_track>true</k100:not_a_recorded_track>
      <k100:mountain_id>wolaksan</k100:mountain_id>
      <k100:mountain_name>월악산</k100:mountain_name>
      <k100:route_id>wolaksan-a2ba2365</k100:route_id>
      <k100:route_index>4</k100:route_index>
      <k100:route_name>신륵사-신륵사삼거리-영봉</k100:route_name>
      <k100:variant>0</k100:variant>
      <k100:source>OpenStreetMap via Overpass API</k100:source>
      <k100:license>ODbL-1.0</k100:license>
      <k100:attribution>© OpenStreetMap contributors</k100:attribution>
      <k100:elevation_source>SRTM 1 arc-second (NASA/USGS) — AWS Terrain Tiles 배포본. 지형 DEM 추정 고도이며 실측 아님</k100:elevation_source>
      <k100:algorithm>dijkstra-grid-v1</k100:algorithm>
      <k100:osm_snapshot>2026-08-04</k100:osm_snapshot>
      <k100:snap_trailhead_m>209</k100:snap_trailhead_m>
      <k100:snap_summit_m>26</k100:snap_summit_m>
      <k100:validation_score>94</k100:validation_score>
      <k100:validation_status>accepted</k100:validation_status>
    </extensions>
  </metadata>
  <trk>
    <name>월악산 · 신륵사-신륵사삼거리-영봉 (OSM 계산 경로)</name>
    <desc>실제 GPS 기록이 아닙니다. OpenStreetMap에 등록된 등산로 선형 위에서 계산한 경로이며, 현장 통제·훼손·출입 제한·계절 통제를 반영하지 않을 수 있습니다. 산행 전 공식 안내를 확인하세요.</desc>
    <trkseg>
      <trkpt lat="36.880597" lon="128.132187"><ele>270.5</ele></trkpt>
      <trkpt lat="36.880270" lon="128.132061"><ele>273.7</ele></trkpt>
      <trkpt lat="36.879838" lon="128.131741"><ele>274.9</ele></trkpt>
      <trkpt lat="36.879481" lon="128.131285"><ele>273.6</ele></trkpt>
      <trkpt lat="36.879143" lon="128.130486"><ele>279.6</ele></trkpt>
      <trkpt lat="36.879007" lon="128.129904"><ele>282.2</ele></trkpt>
      <trkpt lat="36.878998" lon="128.129569"><ele>284.3</ele></trkpt>
      <trkpt lat="36.879288" lon="128.128899"><ele>293.9</ele></trkpt>
      <trkpt lat="36.879323" lon="128.128717"><ele>293.8</ele></trkpt>
      <trkpt lat="36.879458" lon="128.127530"><ele>299.9</ele></trkpt>
      <trkpt lat="36.879471" lon="128.126617"><ele>305.2</ele></trkpt>
      <trkpt lat="36.879297" lon="128.125584"><ele>310.4</ele></trkpt>
      <trkpt lat="36.879342" lon="128.125171"><ele>315.3</ele></trkpt>
      <trkpt lat="36.879186" lon="128.124688"><ele>322.0</ele></trkpt>
      <trkpt lat="36.878771" lon="128.124272"><ele>327.5</ele></trkpt>
      <trkpt lat="36.878728" lon="128.124128"><ele>329.3</ele></trkpt>
      <trkpt lat="36.878686" lon="128.123854"><ele>331.8</ele></trkpt>
      <trkpt lat="36.878696" lon="128.123276"><ele>341.4</ele></trkpt>
      <trkpt lat="36.878585" lon="128.121410"><ele>360.3</ele></trkpt>
      <trkpt lat="36.878611" lon="128.121130"><ele>360.9</ele></trkpt>
      <trkpt lat="36.878746" lon="128.120645"><ele>371.8</ele></trkpt>
      <trkpt lat="36.878994" lon="128.120214"><ele>384.2</ele></trkpt>
      <trkpt lat="36.879123" lon="128.120141"><ele>384.4</ele></trkpt>
      <trkpt lat="36.879298" lon="128.120151"><ele>386.1</ele></trkpt>
      <trkpt lat="36.879343" lon="128.120088"><ele>387.1</ele></trkpt>
      <trkpt lat="36.879319" lon="128.119864"><ele>387.1</ele></trkpt>
      <trkpt lat="36.879612" lon="128.119592"><ele>393.1</ele></trkpt>
      <trkpt lat="36.879674" lon="128.119437"><ele>397.7</ele></trkpt>
      <trkpt lat="36.880060" lon="128.119144"><ele>416.0</ele></trkpt>
      <trkpt lat="36.880291" lon="128.118900"><ele>423.0</ele></trkpt>
      <trkpt lat="36.880383" lon="128.118610"><ele>435.5</ele></trkpt>
      <trkpt lat="36.880537" lon="128.118420"><ele>439.1</ele></trkpt>
      <trkpt lat="36.880584" lon="128.118144"><ele>449.1</ele></trkpt>
      <trkpt lat="36.880984" lon="128.117532"><ele>467.1</ele></trkpt>
      <trkpt lat="36.881249" lon="128.116969"><ele>479.8</ele></trkpt>
      <trkpt lat="36.881312" lon="128.116980"><ele>480.6</ele></trkpt>
      <trkpt lat="36.881446" lon="128.117167"><ele>478.2</ele></trkpt>
      <trkpt lat="36.881535" lon="128.117189"><ele>481.3</ele></trkpt>
      <trkpt lat="36.881960" lon="128.116965"><ele>509.1</ele></trkpt>
      <trkpt lat="36.882394" lon="128.116658"><ele>538.8</ele></trkpt>
      <trkpt lat="36.883281" lon="128.116305"><ele>586.8</ele></trkpt>
      <trkpt lat="36.883637" lon="128.116223"><ele>605.4</ele></trkpt>
      <trkpt lat="36.883853" lon="128.116104"><ele>619.9</ele></trkpt>
      <trkpt lat="36.884195" lon="128.116066"><ele>644.4</ele></trkpt>
      <trkpt lat="36.884268" lon="128.115960"><ele>650.3</ele></trkpt>
      <trkpt lat="36.884510" lon="128.115880"><ele>658.6</ele></trkpt>
      <trkpt lat="36.884451" lon="128.115383"><ele>668.3</ele></trkpt>
      <trkpt lat="36.884459" lon="128.114842"><ele>686.8</ele></trkpt>
      <trkpt lat="36.884359" lon="128.114473"><ele>699.1</ele></trkpt>
      <trkpt lat="36.884389" lon="128.114269"><ele>706.9</ele></trkpt>
      <trkpt lat="36.884310" lon="128.113942"><ele>715.4</ele></trkpt>
      <trkpt lat="36.884366" lon="128.113577"><ele>728.1</ele></trkpt>
      <trkpt lat="36.884501" lon="128.113426"><ele>734.3</ele></trkpt>
      <trkpt lat="36.884688" lon="128.112936"><ele>744.9</ele></trkpt>
      <trkpt lat="36.885000" lon="128.112697"><ele>755.2</ele></trkpt>
      <trkpt lat="36.885092" lon="128.112565"><ele>757.9</ele></trkpt>
      <trkpt lat="36.885345" lon="128.112488"><ele>759.3</ele></trkpt>
      <trkpt lat="36.885525" lon="128.112215"><ele>767.5</ele></trkpt>
      <trkpt lat="36.885519" lon="128.111873"><ele>781.6</ele></trkpt>
      <trkpt lat="36.885589" lon="128.111421"><ele>802.8</ele></trkpt>
      <trkpt lat="36.885672" lon="128.111250"><ele>812.5</ele></trkpt>
      <trkpt lat="36.885637" lon="128.111167"><ele>815.7</ele></trkpt>
      <trkpt lat="36.885658" lon="128.111076"><ele>820.3</ele></trkpt>
      <trkpt lat="36.885854" lon="128.110911"><ele>832.6</ele></trkpt>
      <trkpt lat="36.885698" lon="128.110613"><ele>839.9</ele></trkpt>
      <trkpt lat="36.885681" lon="128.110364"><ele>847.9</ele></trkpt>
      <trkpt lat="36.885765" lon="128.110170"><ele>857.4</ele></trkpt>
      <trkpt lat="36.886068" lon="128.109966"><ele>871.7</ele></trkpt>
      <trkpt lat="36.886166" lon="128.109813"><ele>876.7</ele></trkpt>
      <trkpt lat="36.886205" lon="128.109189"><ele>906.7</ele></trkpt>
      <trkpt lat="36.886177" lon="128.108967"><ele>910.8</ele></trkpt>
      <trkpt lat="36.886215" lon="128.108753"><ele>921.3</ele></trkpt>
      <trkpt lat="36.886316" lon="128.108587"><ele>935.1</ele></trkpt>
      <trkpt lat="36.886479" lon="128.108446"><ele>946.6</ele></trkpt>
      <trkpt lat="36.886638" lon="128.108490"><ele>947.2</ele></trkpt>
      <trkpt lat="36.886831" lon="128.108681"><ele>942.7</ele></trkpt>
      <trkpt lat="36.887105" lon="128.108794"><ele>941.0</ele></trkpt>
      <trkpt lat="36.887210" lon="128.108681"><ele>950.0</ele></trkpt>
      <trkpt lat="36.887154" lon="128.108450"><ele>958.9</ele></trkpt>
      <trkpt lat="36.887034" lon="128.108517"><ele>954.8</ele></trkpt>
      <trkpt lat="36.886955" lon="128.108465"><ele>956.0</ele></trkpt>
      <trkpt lat="36.886924" lon="128.108375"><ele>959.5</ele></trkpt>
      <trkpt lat="36.886822" lon="128.108361"><ele>957.6</ele></trkpt>
      <trkpt lat="36.886919" lon="128.108114"><ele>970.8</ele></trkpt>
      <trkpt lat="36.886777" lon="128.107841"><ele>978.4</ele></trkpt>
      <trkpt lat="36.886680" lon="128.107801"><ele>981.5</ele></trkpt>
      <trkpt lat="36.886677" lon="128.107692"><ele>983.4</ele></trkpt>
      <trkpt lat="36.886618" lon="128.107645"><ele>982.5</ele></trkpt>
      <trkpt lat="36.886649" lon="128.107576"><ele>984.0</ele></trkpt>
      <trkpt lat="36.886591" lon="128.107298"><ele>979.9</ele></trkpt>
      <trkpt lat="36.886622" lon="128.107030"><ele>976.6</ele></trkpt>
      <trkpt lat="36.886553" lon="128.106989"><ele>975.3</ele></trkpt>
      <trkpt lat="36.886457" lon="128.106786"><ele>973.6</ele></trkpt>
      <trkpt lat="36.886333" lon="128.106713"><ele>973.2</ele></trkpt>
      <trkpt lat="36.886274" lon="128.106528"><ele>980.3</ele></trkpt>
      <trkpt lat="36.886140" lon="128.106425"><ele>987.7</ele></trkpt>
      <trkpt lat="36.886079" lon="128.106286"><ele>994.3</ele></trkpt>
      <trkpt lat="36.886098" lon="128.106182"><ele>997.1</ele></trkpt>
      <trkpt lat="36.886035" lon="128.105965"><ele>1004.7</ele></trkpt>
    </trkseg>
  </trk>
</gpx>
