<?xml version="1.0" encoding="UTF-8"?>
<gpx version="1.1" creator="kr-100-mountains route-harvester"
     xmlns="http://www.topografix.com/GPX/1/1"
     xmlns:k100="https://github.com/jay-jang/kr-100-mountains/ns/1"
     xmlns:xsi="http://www.w3.org/2001/XMLSchema-instance"
     xsi:schemaLocation="http://www.topografix.com/GPX/1/1 http://www.topografix.com/GPX/1/1/gpx.xsd">
  <metadata>
    <name>월악산 · 덕주사 코스 (OSM 계산 경로)</name>
    <desc>실제 GPS 기록이 아닙니다. OpenStreetMap에 등록된 등산로 선형 위에서 계산한 경로이며, 현장 통제·훼손·출입 제한·계절 통제를 반영하지 않을 수 있습니다. 산행 전 공식 안내를 확인하세요.</desc>
    <time>2026-08-04T05:26:53.375Z</time>
    <link href="https://www.openstreetmap.org/copyright"><text>© OpenStreetMap contributors (ODbL 1.0)</text></link>
    <link href="https://registry.opendata.aws/terrain-tiles/"><text>Elevation: SRTM 1 arc-second (NASA/USGS) via AWS Terrain Tiles</text></link>
    <extensions>
      <k100:provenance>osm-routed</k100:provenance>
      <k100:not_a_recorded_track>true</k100:not_a_recorded_track>
      <k100:mountain_id>wolaksan</k100:mountain_id>
      <k100:mountain_name>월악산</k100:mountain_name>
      <k100:route_id>wolaksan-f5bce178</k100:route_id>
      <k100:route_index>1</k100:route_index>
      <k100:route_name>덕주사 코스</k100:route_name>
      <k100:variant>0</k100:variant>
      <k100:source>OpenStreetMap via Overpass API</k100:source>
      <k100:license>ODbL-1.0</k100:license>
      <k100:attribution>© OpenStreetMap contributors</k100:attribution>
      <k100:elevation_source>SRTM 1 arc-second (NASA/USGS) — AWS Terrain Tiles 배포본. 지형 DEM 추정 고도이며 실측 아님</k100:elevation_source>
      <k100:algorithm>dijkstra-grid-v1</k100:algorithm>
      <k100:osm_snapshot>2026-08-04</k100:osm_snapshot>
      <k100:snap_trailhead_m>7</k100:snap_trailhead_m>
      <k100:snap_summit_m>26</k100:snap_summit_m>
      <k100:validation_score>84</k100:validation_score>
      <k100:validation_status>accepted</k100:validation_status>
    </extensions>
  </metadata>
  <trk>
    <name>월악산 · 덕주사 코스 (OSM 계산 경로)</name>
    <desc>실제 GPS 기록이 아닙니다. OpenStreetMap에 등록된 등산로 선형 위에서 계산한 경로이며, 현장 통제·훼손·출입 제한·계절 통제를 반영하지 않을 수 있습니다. 산행 전 공식 안내를 확인하세요.</desc>
    <trkseg>
      <trkpt lat="36.861743" lon="128.098182"><ele>295.3</ele></trkpt>
      <trkpt lat="36.861730" lon="128.098050"><ele>293.9</ele></trkpt>
      <trkpt lat="36.861381" lon="128.098251"><ele>298.1</ele></trkpt>
      <trkpt lat="36.861397" lon="128.098783"><ele>301.5</ele></trkpt>
      <trkpt lat="36.861440" lon="128.098958"><ele>301.4</ele></trkpt>
      <trkpt lat="36.861422" lon="128.099343"><ele>303.6</ele></trkpt>
      <trkpt lat="36.861281" lon="128.099840"><ele>315.6</ele></trkpt>
      <trkpt lat="36.861312" lon="128.100014"><ele>317.2</ele></trkpt>
      <trkpt lat="36.861249" lon="128.100275"><ele>323.0</ele></trkpt>
      <trkpt lat="36.861266" lon="128.100524"><ele>327.3</ele></trkpt>
      <trkpt lat="36.861515" lon="128.100998"><ele>328.2</ele></trkpt>
      <trkpt lat="36.861509" lon="128.101270"><ele>332.2</ele></trkpt>
      <trkpt lat="36.861572" lon="128.101543"><ele>333.0</ele></trkpt>
      <trkpt lat="36.861810" lon="128.101936"><ele>330.4</ele></trkpt>
      <trkpt lat="36.861987" lon="128.102614"><ele>338.5</ele></trkpt>
      <trkpt lat="36.861984" lon="128.102832"><ele>341.3</ele></trkpt>
      <trkpt lat="36.862046" lon="128.103074"><ele>342.2</ele></trkpt>
      <trkpt lat="36.862332" lon="128.102923"><ele>345.7</ele></trkpt>
      <trkpt lat="36.862944" lon="128.103204"><ele>364.4</ele></trkpt>
      <trkpt lat="36.863302" lon="128.103287"><ele>372.2</ele></trkpt>
      <trkpt lat="36.863733" lon="128.103653"><ele>387.3</ele></trkpt>
      <trkpt lat="36.863950" lon="128.103692"><ele>391.7</ele></trkpt>
      <trkpt lat="36.864300" lon="128.103949"><ele>403.2</ele></trkpt>
      <trkpt lat="36.865071" lon="128.104074"><ele>418.9</ele></trkpt>
      <trkpt lat="36.865116" lon="128.104183"><ele>422.5</ele></trkpt>
      <trkpt lat="36.865392" lon="128.104218"><ele>427.7</ele></trkpt>
      <trkpt lat="36.865966" lon="128.104738"><ele>446.8</ele></trkpt>
      <trkpt lat="36.866393" lon="128.104897"><ele>455.9</ele></trkpt>
      <trkpt lat="36.867014" lon="128.105616"><ele>475.0</ele></trkpt>
      <trkpt lat="36.867313" lon="128.105201"><ele>473.1</ele></trkpt>
      <trkpt lat="36.868771" lon="128.105207"><ele>520.5</ele></trkpt>
      <trkpt lat="36.868878" lon="128.105032"><ele>520.3</ele></trkpt>
      <trkpt lat="36.868966" lon="128.105016"><ele>523.6</ele></trkpt>
      <trkpt lat="36.869055" lon="128.104862"><ele>529.2</ele></trkpt>
      <trkpt lat="36.869252" lon="128.104682"><ele>540.9</ele></trkpt>
      <trkpt lat="36.869149" lon="128.104676"><ele>536.6</ele></trkpt>
      <trkpt lat="36.868977" lon="128.104494"><ele>533.8</ele></trkpt>
      <trkpt lat="36.869278" lon="128.104347"><ele>553.1</ele></trkpt>
      <trkpt lat="36.869417" lon="128.104221"><ele>566.0</ele></trkpt>
      <trkpt lat="36.869959" lon="128.104112"><ele>585.3</ele></trkpt>
      <trkpt lat="36.870163" lon="128.103595"><ele>621.0</ele></trkpt>
      <trkpt lat="36.870357" lon="128.103416"><ele>639.7</ele></trkpt>
      <trkpt lat="36.871154" lon="128.103727"><ele>674.4</ele></trkpt>
      <trkpt lat="36.871444" lon="128.103636"><ele>702.2</ele></trkpt>
      <trkpt lat="36.871927" lon="128.103634"><ele>734.4</ele></trkpt>
      <trkpt lat="36.872499" lon="128.103723"><ele>769.5</ele></trkpt>
      <trkpt lat="36.872643" lon="128.103593"><ele>789.1</ele></trkpt>
      <trkpt lat="36.872688" lon="128.103422"><ele>799.0</ele></trkpt>
      <trkpt lat="36.872999" lon="128.103497"><ele>818.2</ele></trkpt>
      <trkpt lat="36.873236" lon="128.103298"><ele>832.1</ele></trkpt>
      <trkpt lat="36.873533" lon="128.103537"><ele>841.3</ele></trkpt>
      <trkpt lat="36.874400" lon="128.103861"><ele>865.2</ele></trkpt>
      <trkpt lat="36.874492" lon="128.104182"><ele>884.8</ele></trkpt>
      <trkpt lat="36.874510" lon="128.104765"><ele>901.5</ele></trkpt>
      <trkpt lat="36.874558" lon="128.104969"><ele>908.0</ele></trkpt>
      <trkpt lat="36.874892" lon="128.105339"><ele>918.8</ele></trkpt>
      <trkpt lat="36.875138" lon="128.105953"><ele>931.2</ele></trkpt>
      <trkpt lat="36.875405" lon="128.106346"><ele>942.0</ele></trkpt>
      <trkpt lat="36.875530" lon="128.106405"><ele>942.9</ele></trkpt>
      <trkpt lat="36.876106" lon="128.106514"><ele>937.6</ele></trkpt>
      <trkpt lat="36.876712" lon="128.106480"><ele>932.5</ele></trkpt>
      <trkpt lat="36.877503" lon="128.106243"><ele>920.1</ele></trkpt>
      <trkpt lat="36.878157" lon="128.105979"><ele>918.0</ele></trkpt>
      <trkpt lat="36.879166" lon="128.105164"><ele>934.6</ele></trkpt>
      <trkpt lat="36.879363" lon="128.105175"><ele>933.2</ele></trkpt>
      <trkpt lat="36.879531" lon="128.105116"><ele>933.2</ele></trkpt>
      <trkpt lat="36.879891" lon="128.105170"><ele>933.5</ele></trkpt>
      <trkpt lat="36.881397" lon="128.104918"><ele>914.9</ele></trkpt>
      <trkpt lat="36.881524" lon="128.104963"><ele>912.8</ele></trkpt>
      <trkpt lat="36.881653" lon="128.104872"><ele>909.3</ele></trkpt>
      <trkpt lat="36.882778" lon="128.105369"><ele>902.7</ele></trkpt>
      <trkpt lat="36.883100" lon="128.105264"><ele>910.8</ele></trkpt>
      <trkpt lat="36.883300" lon="128.105274"><ele>915.3</ele></trkpt>
      <trkpt lat="36.883622" lon="128.105403"><ele>924.2</ele></trkpt>
      <trkpt lat="36.883755" lon="128.105371"><ele>928.5</ele></trkpt>
      <trkpt lat="36.883935" lon="128.105433"><ele>934.0</ele></trkpt>
      <trkpt lat="36.884118" lon="128.105594"><ele>943.0</ele></trkpt>
      <trkpt lat="36.884219" lon="128.105798"><ele>944.9</ele></trkpt>
      <trkpt lat="36.884510" lon="128.106117"><ele>955.2</ele></trkpt>
      <trkpt lat="36.884750" lon="128.106549"><ele>965.0</ele></trkpt>
      <trkpt lat="36.884991" lon="128.106569"><ele>972.0</ele></trkpt>
      <trkpt lat="36.885173" lon="128.106500"><ele>974.5</ele></trkpt>
      <trkpt lat="36.885351" lon="128.106597"><ele>976.4</ele></trkpt>
      <trkpt lat="36.885455" lon="128.106566"><ele>978.7</ele></trkpt>
      <trkpt lat="36.885963" lon="128.107244"><ele>969.6</ele></trkpt>
      <trkpt lat="36.886479" lon="128.108446"><ele>946.6</ele></trkpt>
      <trkpt lat="36.886638" lon="128.108490"><ele>947.2</ele></trkpt>
      <trkpt lat="36.886831" lon="128.108681"><ele>942.7</ele></trkpt>
      <trkpt lat="36.887105" lon="128.108794"><ele>941.0</ele></trkpt>
      <trkpt lat="36.887210" lon="128.108681"><ele>950.0</ele></trkpt>
      <trkpt lat="36.887154" lon="128.108450"><ele>958.9</ele></trkpt>
      <trkpt lat="36.887034" lon="128.108517"><ele>954.8</ele></trkpt>
      <trkpt lat="36.886955" lon="128.108465"><ele>956.0</ele></trkpt>
      <trkpt lat="36.886924" lon="128.108375"><ele>959.5</ele></trkpt>
      <trkpt lat="36.886822" lon="128.108361"><ele>957.6</ele></trkpt>
      <trkpt lat="36.886919" lon="128.108114"><ele>970.8</ele></trkpt>
      <trkpt lat="36.886777" lon="128.107841"><ele>978.4</ele></trkpt>
      <trkpt lat="36.886680" lon="128.107801"><ele>981.5</ele></trkpt>
      <trkpt lat="36.886677" lon="128.107692"><ele>983.4</ele></trkpt>
      <trkpt lat="36.886618" lon="128.107645"><ele>982.5</ele></trkpt>
      <trkpt lat="36.886649" lon="128.107576"><ele>984.0</ele></trkpt>
      <trkpt lat="36.886591" lon="128.107298"><ele>979.9</ele></trkpt>
      <trkpt lat="36.886622" lon="128.107030"><ele>976.6</ele></trkpt>
      <trkpt lat="36.886553" lon="128.106989"><ele>975.3</ele></trkpt>
      <trkpt lat="36.886457" lon="128.106786"><ele>973.6</ele></trkpt>
      <trkpt lat="36.886333" lon="128.106713"><ele>973.2</ele></trkpt>
      <trkpt lat="36.886274" lon="128.106528"><ele>980.3</ele></trkpt>
      <trkpt lat="36.886140" lon="128.106425"><ele>987.7</ele></trkpt>
      <trkpt lat="36.886079" lon="128.106286"><ele>994.3</ele></trkpt>
      <trkpt lat="36.886098" lon="128.106182"><ele>997.1</ele></trkpt>
      <trkpt lat="36.886035" lon="128.105965"><ele>1004.7</ele></trkpt>
    </trkseg>
  </trk>
</gpx>
