<?xml version="1.0" encoding="UTF-8"?>
<gpx version="1.1" creator="kr-100-mountains route-harvester"
     xmlns="http://www.topografix.com/GPX/1/1"
     xmlns:k100="https://github.com/jay-jang/kr-100-mountains/ns/1"
     xmlns:xsi="http://www.w3.org/2001/XMLSchema-instance"
     xsi:schemaLocation="http://www.topografix.com/GPX/1/1 http://www.topografix.com/GPX/1/1/gpx.xsd">
  <metadata>
    <name>만행산 · 용평제-작은천황봉-천황봉 원점회귀 (OSM 계산 경로)</name>
    <desc>실제 GPS 기록이 아닙니다. OpenStreetMap에 등록된 등산로 선형 위에서 계산한 경로이며, 현장 통제·훼손·출입 제한·계절 통제를 반영하지 않을 수 있습니다. 산행 전 공식 안내를 확인하세요.</desc>
    <time>2026-08-04T05:31:44.575Z</time>
    <link href="https://www.openstreetmap.org/copyright"><text>© OpenStreetMap contributors (ODbL 1.0)</text></link>
    <link href="https://registry.opendata.aws/terrain-tiles/"><text>Elevation: SRTM 1 arc-second (NASA/USGS) via AWS Terrain Tiles</text></link>
    <extensions>
      <k100:provenance>osm-routed</k100:provenance>
      <k100:not_a_recorded_track>true</k100:not_a_recorded_track>
      <k100:mountain_id>manhaengsan</k100:mountain_id>
      <k100:mountain_name>만행산</k100:mountain_name>
      <k100:route_id>manhaengsan-0cbb910a</k100:route_id>
      <k100:route_index>1</k100:route_index>
      <k100:route_name>용평제-작은천황봉-천황봉 원점회귀</k100:route_name>
      <k100:variant>0</k100:variant>
      <k100:source>OpenStreetMap via Overpass API</k100:source>
      <k100:license>ODbL-1.0</k100:license>
      <k100:attribution>© OpenStreetMap contributors</k100:attribution>
      <k100:elevation_source>SRTM 1 arc-second (NASA/USGS) — AWS Terrain Tiles 배포본. 지형 DEM 추정 고도이며 실측 아님</k100:elevation_source>
      <k100:algorithm>dijkstra-grid-v1</k100:algorithm>
      <k100:osm_snapshot>2026-08-04</k100:osm_snapshot>
      <k100:snap_trailhead_m>50</k100:snap_trailhead_m>
      <k100:snap_summit_m>12</k100:snap_summit_m>
      <k100:validation_score>75</k100:validation_score>
      <k100:validation_status>review</k100:validation_status>
    </extensions>
  </metadata>
  <trk>
    <name>만행산 · 용평제-작은천황봉-천황봉 원점회귀 (OSM 계산 경로)</name>
    <desc>실제 GPS 기록이 아닙니다. OpenStreetMap에 등록된 등산로 선형 위에서 계산한 경로이며, 현장 통제·훼손·출입 제한·계절 통제를 반영하지 않을 수 있습니다. 산행 전 공식 안내를 확인하세요.</desc>
    <trkseg>
      <trkpt lat="35.533027" lon="127.429505"><ele>310.5</ele></trkpt>
      <trkpt lat="35.533121" lon="127.429604"><ele>312.3</ele></trkpt>
      <trkpt lat="35.533235" lon="127.429948"><ele>309.3</ele></trkpt>
      <trkpt lat="35.533302" lon="127.430009"><ele>310.0</ele></trkpt>
      <trkpt lat="35.533363" lon="127.429993"><ele>312.5</ele></trkpt>
      <trkpt lat="35.533363" lon="127.429941"><ele>313.8</ele></trkpt>
      <trkpt lat="35.533536" lon="127.430082"><ele>317.8</ele></trkpt>
      <trkpt lat="35.534002" lon="127.430132"><ele>327.7</ele></trkpt>
      <trkpt lat="35.534252" lon="127.430427"><ele>320.4</ele></trkpt>
      <trkpt lat="35.534859" lon="127.430680"><ele>332.5</ele></trkpt>
      <trkpt lat="35.534992" lon="127.430880"><ele>333.4</ele></trkpt>
      <trkpt lat="35.534959" lon="127.431035"><ele>334.4</ele></trkpt>
      <trkpt lat="35.534837" lon="127.431163"><ele>332.8</ele></trkpt>
      <trkpt lat="35.534156" lon="127.431163"><ele>327.7</ele></trkpt>
      <trkpt lat="35.533613" lon="127.431280"><ele>325.9</ele></trkpt>
      <trkpt lat="35.533361" lon="127.431221"><ele>331.6</ele></trkpt>
      <trkpt lat="35.532761" lon="127.430891"><ele>318.0</ele></trkpt>
      <trkpt lat="35.532686" lon="127.430908"><ele>315.0</ele></trkpt>
      <trkpt lat="35.532362" lon="127.431457"><ele>318.6</ele></trkpt>
      <trkpt lat="35.532282" lon="127.432011"><ele>327.6</ele></trkpt>
      <trkpt lat="35.532328" lon="127.432264"><ele>330.1</ele></trkpt>
      <trkpt lat="35.532430" lon="127.432477"><ele>328.3</ele></trkpt>
      <trkpt lat="35.532854" lon="127.432969"><ele>325.0</ele></trkpt>
      <trkpt lat="35.532915" lon="127.433105"><ele>322.6</ele></trkpt>
      <trkpt lat="35.532930" lon="127.433215"><ele>322.1</ele></trkpt>
      <trkpt lat="35.532880" lon="127.433370"><ele>320.8</ele></trkpt>
      <trkpt lat="35.532648" lon="127.433578"><ele>320.1</ele></trkpt>
      <trkpt lat="35.532244" lon="127.433491"><ele>320.3</ele></trkpt>
      <trkpt lat="35.531903" lon="127.433183"><ele>323.8</ele></trkpt>
      <trkpt lat="35.531353" lon="127.432065"><ele>327.1</ele></trkpt>
      <trkpt lat="35.531312" lon="127.431706"><ele>321.5</ele></trkpt>
      <trkpt lat="35.531188" lon="127.431539"><ele>323.0</ele></trkpt>
      <trkpt lat="35.530780" lon="127.431564"><ele>330.7</ele></trkpt>
      <trkpt lat="35.530085" lon="127.432381"><ele>350.8</ele></trkpt>
      <trkpt lat="35.529998" lon="127.432698"><ele>354.2</ele></trkpt>
      <trkpt lat="35.529946" lon="127.433333"><ele>362.8</ele></trkpt>
      <trkpt lat="35.529427" lon="127.435045"><ele>393.3</ele></trkpt>
      <trkpt lat="35.529229" lon="127.435885"><ele>408.4</ele></trkpt>
      <trkpt lat="35.528913" lon="127.436371"><ele>415.9</ele></trkpt>
      <trkpt lat="35.528016" lon="127.437362"><ele>444.4</ele></trkpt>
      <trkpt lat="35.527846" lon="127.437649"><ele>450.9</ele></trkpt>
      <trkpt lat="35.527791" lon="127.438126"><ele>458.4</ele></trkpt>
      <trkpt lat="35.527845" lon="127.439150"><ele>482.6</ele></trkpt>
      <trkpt lat="35.527749" lon="127.439635"><ele>488.8</ele></trkpt>
      <trkpt lat="35.527418" lon="127.440554"><ele>513.5</ele></trkpt>
      <trkpt lat="35.527020" lon="127.441144"><ele>529.9</ele></trkpt>
      <trkpt lat="35.526968" lon="127.441369"><ele>531.1</ele></trkpt>
      <trkpt lat="35.526490" lon="127.442426"><ele>565.4</ele></trkpt>
      <trkpt lat="35.526248" lon="127.443078"><ele>583.0</ele></trkpt>
      <trkpt lat="35.526069" lon="127.443382"><ele>590.2</ele></trkpt>
      <trkpt lat="35.526047" lon="127.443711"><ele>595.5</ele></trkpt>
      <trkpt lat="35.525859" lon="127.444676"><ele>623.0</ele></trkpt>
      <trkpt lat="35.525833" lon="127.445122"><ele>638.1</ele></trkpt>
      <trkpt lat="35.525855" lon="127.445368"><ele>650.0</ele></trkpt>
      <trkpt lat="35.525964" lon="127.445567"><ele>659.7</ele></trkpt>
      <trkpt lat="35.525947" lon="127.445797"><ele>666.5</ele></trkpt>
      <trkpt lat="35.526051" lon="127.445942"><ele>673.9</ele></trkpt>
      <trkpt lat="35.526173" lon="127.446017"><ele>681.2</ele></trkpt>
      <trkpt lat="35.526466" lon="127.446012"><ele>697.0</ele></trkpt>
      <trkpt lat="35.526558" lon="127.445932"><ele>697.8</ele></trkpt>
      <trkpt lat="35.526628" lon="127.445975"><ele>705.1</ele></trkpt>
      <trkpt lat="35.526435" lon="127.446463"><ele>720.8</ele></trkpt>
      <trkpt lat="35.526527" lon="127.446586"><ele>728.8</ele></trkpt>
      <trkpt lat="35.526549" lon="127.446709"><ele>734.1</ele></trkpt>
      <trkpt lat="35.526894" lon="127.447026"><ele>749.6</ele></trkpt>
      <trkpt lat="35.526763" lon="127.447198"><ele>757.3</ele></trkpt>
      <trkpt lat="35.526680" lon="127.447428"><ele>767.7</ele></trkpt>
      <trkpt lat="35.526689" lon="127.447697"><ele>775.7</ele></trkpt>
      <trkpt lat="35.526632" lon="127.447857"><ele>780.9</ele></trkpt>
      <trkpt lat="35.526514" lon="127.447997"><ele>784.7</ele></trkpt>
      <trkpt lat="35.526418" lon="127.448233"><ele>793.7</ele></trkpt>
      <trkpt lat="35.526370" lon="127.448523"><ele>804.9</ele></trkpt>
      <trkpt lat="35.526401" lon="127.449556"><ele>850.9</ele></trkpt>
      <trkpt lat="35.526029" lon="127.449987"><ele>870.5</ele></trkpt>
      <trkpt lat="35.525878" lon="127.450305"><ele>882.9</ele></trkpt>
      <trkpt lat="35.525494" lon="127.450557"><ele>882.9</ele></trkpt>
      <trkpt lat="35.525395" lon="127.450826"><ele>878.8</ele></trkpt>
      <trkpt lat="35.525097" lon="127.451072"><ele>863.1</ele></trkpt>
      <trkpt lat="35.524968" lon="127.451251"><ele>854.0</ele></trkpt>
      <trkpt lat="35.524454" lon="127.451312"><ele>829.6</ele></trkpt>
      <trkpt lat="35.524377" lon="127.451397"><ele>824.1</ele></trkpt>
      <trkpt lat="35.524256" lon="127.451400"><ele>817.5</ele></trkpt>
      <trkpt lat="35.524071" lon="127.451502"><ele>808.5</ele></trkpt>
      <trkpt lat="35.523142" lon="127.451607"><ele>787.4</ele></trkpt>
      <trkpt lat="35.522909" lon="127.451784"><ele>783.1</ele></trkpt>
      <trkpt lat="35.522437" lon="127.451735"><ele>779.3</ele></trkpt>
      <trkpt lat="35.522286" lon="127.451786"><ele>776.7</ele></trkpt>
      <trkpt lat="35.522029" lon="127.452041"><ele>767.9</ele></trkpt>
      <trkpt lat="35.521796" lon="127.452094"><ele>757.6</ele></trkpt>
      <trkpt lat="35.521724" lon="127.452330"><ele>749.6</ele></trkpt>
      <trkpt lat="35.521425" lon="127.452799"><ele>733.5</ele></trkpt>
      <trkpt lat="35.520769" lon="127.453165"><ele>697.9</ele></trkpt>
      <trkpt lat="35.520226" lon="127.453590"><ele>678.1</ele></trkpt>
      <trkpt lat="35.520018" lon="127.453626"><ele>670.6</ele></trkpt>
      <trkpt lat="35.519843" lon="127.453574"><ele>662.6</ele></trkpt>
      <trkpt lat="35.519668" lon="127.453655"><ele>656.7</ele></trkpt>
      <trkpt lat="35.519346" lon="127.453657"><ele>648.9</ele></trkpt>
      <trkpt lat="35.519053" lon="127.453892"><ele>638.7</ele></trkpt>
      <trkpt lat="35.518658" lon="127.453905"><ele>629.8</ele></trkpt>
      <trkpt lat="35.517883" lon="127.454211"><ele>616.7</ele></trkpt>
      <trkpt lat="35.517626" lon="127.454254"><ele>612.3</ele></trkpt>
      <trkpt lat="35.517486" lon="127.454345"><ele>609.1</ele></trkpt>
      <trkpt lat="35.517218" lon="127.454339"><ele>599.4</ele></trkpt>
      <trkpt lat="35.517176" lon="127.454416"><ele>597.5</ele></trkpt>
      <trkpt lat="35.516940" lon="127.454526"><ele>584.3</ele></trkpt>
      <trkpt lat="35.516632" lon="127.454550"><ele>570.9</ele></trkpt>
      <trkpt lat="35.516452" lon="127.454455"><ele>567.1</ele></trkpt>
      <trkpt lat="35.515971" lon="127.454444"><ele>553.5</ele></trkpt>
      <trkpt lat="35.515204" lon="127.454019"><ele>532.6</ele></trkpt>
      <trkpt lat="35.515159" lon="127.453913"><ele>532.2</ele></trkpt>
      <trkpt lat="35.514834" lon="127.453751"><ele>519.5</ele></trkpt>
      <trkpt lat="35.514646" lon="127.453553"><ele>504.8</ele></trkpt>
      <trkpt lat="35.514602" lon="127.453536"><ele>501.6</ele></trkpt>
      <trkpt lat="35.514507" lon="127.453660"><ele>499.5</ele></trkpt>
      <trkpt lat="35.514088" lon="127.453551"><ele>473.3</ele></trkpt>
      <trkpt lat="35.514046" lon="127.453581"><ele>471.5</ele></trkpt>
      <trkpt lat="35.513904" lon="127.454212"><ele>474.8</ele></trkpt>
      <trkpt lat="35.513483" lon="127.454544"><ele>449.2</ele></trkpt>
      <trkpt lat="35.513201" lon="127.454622"><ele>436.3</ele></trkpt>
      <trkpt lat="35.512889" lon="127.454487"><ele>422.9</ele></trkpt>
      <trkpt lat="35.512786" lon="127.454568"><ele>418.5</ele></trkpt>
      <trkpt lat="35.512400" lon="127.454479"><ele>400.4</ele></trkpt>
      <trkpt lat="35.512105" lon="127.454753"><ele>389.6</ele></trkpt>
      <trkpt lat="35.512046" lon="127.454981"><ele>385.1</ele></trkpt>
      <trkpt lat="35.512018" lon="127.455389"><ele>377.4</ele></trkpt>
      <trkpt lat="35.512086" lon="127.455619"><ele>375.1</ele></trkpt>
      <trkpt lat="35.512217" lon="127.455847"><ele>374.7</ele></trkpt>
      <trkpt lat="35.512378" lon="127.455989"><ele>374.5</ele></trkpt>
      <trkpt lat="35.512485" lon="127.456207"><ele>372.3</ele></trkpt>
      <trkpt lat="35.512503" lon="127.456502"><ele>366.9</ele></trkpt>
      <trkpt lat="35.512363" lon="127.457027"><ele>359.8</ele></trkpt>
      <trkpt lat="35.512411" lon="127.457387"><ele>357.3</ele></trkpt>
      <trkpt lat="35.512756" lon="127.458036"><ele>355.0</ele></trkpt>
      <trkpt lat="35.512717" lon="127.458615"><ele>348.3</ele></trkpt>
      <trkpt lat="35.513057" lon="127.459302"><ele>345.1</ele></trkpt>
      <trkpt lat="35.513219" lon="127.459855"><ele>342.7</ele></trkpt>
      <trkpt lat="35.513529" lon="127.460643"><ele>337.2</ele></trkpt>
      <trkpt lat="35.513507" lon="127.460777"><ele>336.9</ele></trkpt>
      <trkpt lat="35.513324" lon="127.461035"><ele>331.1</ele></trkpt>
      <trkpt lat="35.513215" lon="127.461405"><ele>328.9</ele></trkpt>
      <trkpt lat="35.513236" lon="127.462338"><ele>329.2</ele></trkpt>
      <trkpt lat="35.513446" lon="127.463170"><ele>323.6</ele></trkpt>
      <trkpt lat="35.513581" lon="127.464243"><ele>312.2</ele></trkpt>
      <trkpt lat="35.513712" lon="127.464918"><ele>309.2</ele></trkpt>
      <trkpt lat="35.513678" lon="127.465138"><ele>305.7</ele></trkpt>
      <trkpt lat="35.513699" lon="127.465691"><ele>301.3</ele></trkpt>
      <trkpt lat="35.513778" lon="127.465879"><ele>300.2</ele></trkpt>
      <trkpt lat="35.513944" lon="127.466093"><ele>300.0</ele></trkpt>
      <trkpt lat="35.514228" lon="127.466984"><ele>300.6</ele></trkpt>
      <trkpt lat="35.514180" lon="127.467220"><ele>299.2</ele></trkpt>
      <trkpt lat="35.514167" lon="127.468325"><ele>296.0</ele></trkpt>
      <trkpt lat="35.514450" lon="127.469172"><ele>299.2</ele></trkpt>
      <trkpt lat="35.514337" lon="127.470288"><ele>287.1</ele></trkpt>
      <trkpt lat="35.514468" lon="127.471318"><ele>282.9</ele></trkpt>
      <trkpt lat="35.514408" lon="127.471629"><ele>279.5</ele></trkpt>
      <trkpt lat="35.514241" lon="127.471802"><ele>276.0</ele></trkpt>
      <trkpt lat="35.513985" lon="127.472263"><ele>269.5</ele></trkpt>
      <trkpt lat="35.513897" lon="127.473173"><ele>266.7</ele></trkpt>
      <trkpt lat="35.514116" lon="127.473402"><ele>267.1</ele></trkpt>
      <trkpt lat="35.514152" lon="127.473777"><ele>263.5</ele></trkpt>
      <trkpt lat="35.514351" lon="127.474791"><ele>260.7</ele></trkpt>
      <trkpt lat="35.514042" lon="127.475204"><ele>255.7</ele></trkpt>
      <trkpt lat="35.513983" lon="127.475669"><ele>255.8</ele></trkpt>
      <trkpt lat="35.513774" lon="127.476157"><ele>254.7</ele></trkpt>
      <trkpt lat="35.513560" lon="127.476420"><ele>255.0</ele></trkpt>
      <trkpt lat="35.513455" lon="127.476677"><ele>255.2</ele></trkpt>
      <trkpt lat="35.513411" lon="127.477605"><ele>247.2</ele></trkpt>
      <trkpt lat="35.513455" lon="127.478018"><ele>244.3</ele></trkpt>
      <trkpt lat="35.513638" lon="127.478571"><ele>245.0</ele></trkpt>
      <trkpt lat="35.513638" lon="127.478796"><ele>245.0</ele></trkpt>
      <trkpt lat="35.513581" lon="127.479032"><ele>243.5</ele></trkpt>
      <trkpt lat="35.513446" lon="127.479263"><ele>240.4</ele></trkpt>
      <trkpt lat="35.513001" lon="127.479735"><ele>237.1</ele></trkpt>
      <trkpt lat="35.512940" lon="127.480277"><ele>236.2</ele></trkpt>
      <trkpt lat="35.513442" lon="127.480152"><ele>237.7</ele></trkpt>
      <trkpt lat="35.513454" lon="127.480255"><ele>238.0</ele></trkpt>
      <trkpt lat="35.513981" lon="127.480292"><ele>239.3</ele></trkpt>
      <trkpt lat="35.514152" lon="127.480176"><ele>239.9</ele></trkpt>
      <trkpt lat="35.514395" lon="127.480560"><ele>240.9</ele></trkpt>
      <trkpt lat="35.514658" lon="127.480543"><ele>241.0</ele></trkpt>
      <trkpt lat="35.515492" lon="127.480234"><ele>244.9</ele></trkpt>
      <trkpt lat="35.515758" lon="127.479867"><ele>244.7</ele></trkpt>
      <trkpt lat="35.516643" lon="127.479723"><ele>250.0</ele></trkpt>
      <trkpt lat="35.517656" lon="127.480163"><ele>249.1</ele></trkpt>
      <trkpt lat="35.518882" lon="127.479922"><ele>255.7</ele></trkpt>
      <trkpt lat="35.519399" lon="127.480130"><ele>260.1</ele></trkpt>
      <trkpt lat="35.519334" lon="127.479828"><ele>257.6</ele></trkpt>
      <trkpt lat="35.520521" lon="127.479616"><ele>263.9</ele></trkpt>
      <trkpt lat="35.520861" lon="127.479465"><ele>264.5</ele></trkpt>
      <trkpt lat="35.521132" lon="127.479208"><ele>264.4</ele></trkpt>
      <trkpt lat="35.521446" lon="127.479026"><ele>266.6</ele></trkpt>
      <trkpt lat="35.522136" lon="127.478897"><ele>267.6</ele></trkpt>
      <trkpt lat="35.522656" lon="127.478669"><ele>269.4</ele></trkpt>
      <trkpt lat="35.523028" lon="127.478743"><ele>272.7</ele></trkpt>
      <trkpt lat="35.523185" lon="127.478829"><ele>273.8</ele></trkpt>
      <trkpt lat="35.523700" lon="127.478861"><ele>278.3</ele></trkpt>
      <trkpt lat="35.523988" lon="127.478711"><ele>280.1</ele></trkpt>
      <trkpt lat="35.524259" lon="127.478700"><ele>281.0</ele></trkpt>
      <trkpt lat="35.524387" lon="127.478603"><ele>279.0</ele></trkpt>
      <trkpt lat="35.524940" lon="127.479097"><ele>292.2</ele></trkpt>
      <trkpt lat="35.525089" lon="127.479097"><ele>293.0</ele></trkpt>
      <trkpt lat="35.525543" lon="127.478808"><ele>301.4</ele></trkpt>
      <trkpt lat="35.526119" lon="127.478754"><ele>300.4</ele></trkpt>
      <trkpt lat="35.526460" lon="127.478818"><ele>297.8</ele></trkpt>
      <trkpt lat="35.526529" lon="127.478711"><ele>299.1</ele></trkpt>
      <trkpt lat="35.526992" lon="127.478625"><ele>304.1</ele></trkpt>
      <trkpt lat="35.527412" lon="127.478889"><ele>309.4</ele></trkpt>
      <trkpt lat="35.527724" lon="127.479163"><ele>308.5</ele></trkpt>
      <trkpt lat="35.527941" lon="127.479439"><ele>310.4</ele></trkpt>
      <trkpt lat="35.528307" lon="127.479501"><ele>315.9</ele></trkpt>
      <trkpt lat="35.528523" lon="127.479608"><ele>318.2</ele></trkpt>
      <trkpt lat="35.528597" lon="127.479707"><ele>318.9</ele></trkpt>
      <trkpt lat="35.528601" lon="127.479945"><ele>320.6</ele></trkpt>
      <trkpt lat="35.528877" lon="127.480249"><ele>323.7</ele></trkpt>
      <trkpt lat="35.529231" lon="127.480600"><ele>329.3</ele></trkpt>
      <trkpt lat="35.529923" lon="127.481060"><ele>346.1</ele></trkpt>
      <trkpt lat="35.530490" lon="127.482199"><ele>358.8</ele></trkpt>
      <trkpt lat="35.530746" lon="127.482325"><ele>358.3</ele></trkpt>
      <trkpt lat="35.530953" lon="127.482325"><ele>357.2</ele></trkpt>
      <trkpt lat="35.531204" lon="127.482062"><ele>352.5</ele></trkpt>
      <trkpt lat="35.531490" lon="127.482100"><ele>354.3</ele></trkpt>
      <trkpt lat="35.532455" lon="127.482698"><ele>365.8</ele></trkpt>
      <trkpt lat="35.533007" lon="127.482845"><ele>376.0</ele></trkpt>
      <trkpt lat="35.533227" lon="127.482982"><ele>382.7</ele></trkpt>
      <trkpt lat="35.533590" lon="127.483352"><ele>394.6</ele></trkpt>
      <trkpt lat="35.533869" lon="127.483436"><ele>399.1</ele></trkpt>
      <trkpt lat="35.533983" lon="127.483412"><ele>401.0</ele></trkpt>
      <trkpt lat="35.534030" lon="127.483304"><ele>401.0</ele></trkpt>
      <trkpt lat="35.533932" lon="127.483111"><ele>396.9</ele></trkpt>
      <trkpt lat="35.533906" lon="127.482931"><ele>393.9</ele></trkpt>
      <trkpt lat="35.533969" lon="127.482845"><ele>395.8</ele></trkpt>
      <trkpt lat="35.534113" lon="127.482808"><ele>402.4</ele></trkpt>
      <trkpt lat="35.534340" lon="127.482891"><ele>410.0</ele></trkpt>
      <trkpt lat="35.534843" lon="127.482883"><ele>416.8</ele></trkpt>
      <trkpt lat="35.535179" lon="127.482800"><ele>423.8</ele></trkpt>
      <trkpt lat="35.535462" lon="127.482613"><ele>433.4</ele></trkpt>
      <trkpt lat="35.535779" lon="127.482591"><ele>437.9</ele></trkpt>
      <trkpt lat="35.535864" lon="127.482483"><ele>441.7</ele></trkpt>
      <trkpt lat="35.536135" lon="127.482483"><ele>443.8</ele></trkpt>
      <trkpt lat="35.536364" lon="127.482593"><ele>444.9</ele></trkpt>
      <trkpt lat="35.536637" lon="127.483143"><ele>442.2</ele></trkpt>
      <trkpt lat="35.537108" lon="127.483267"><ele>451.9</ele></trkpt>
      <trkpt lat="35.537444" lon="127.483594"><ele>460.1</ele></trkpt>
      <trkpt lat="35.537937" lon="127.483656"><ele>474.7</ele></trkpt>
      <trkpt lat="35.538852" lon="127.484246"><ele>458.9</ele></trkpt>
      <trkpt lat="35.539799" lon="127.484307"><ele>453.0</ele></trkpt>
      <trkpt lat="35.540452" lon="127.484498"><ele>439.0</ele></trkpt>
      <trkpt lat="35.540672" lon="127.484409"><ele>440.6</ele></trkpt>
      <trkpt lat="35.540816" lon="127.484458"><ele>440.5</ele></trkpt>
      <trkpt lat="35.541054" lon="127.484675"><ele>436.5</ele></trkpt>
      <trkpt lat="35.541576" lon="127.485018"><ele>420.8</ele></trkpt>
      <trkpt lat="35.542112" lon="127.485065"><ele>415.9</ele></trkpt>
      <trkpt lat="35.542624" lon="127.484949"><ele>414.3</ele></trkpt>
      <trkpt lat="35.543439" lon="127.485031"><ele>397.7</ele></trkpt>
      <trkpt lat="35.543889" lon="127.485359"><ele>385.1</ele></trkpt>
      <trkpt lat="35.544367" lon="127.485581"><ele>373.8</ele></trkpt>
      <trkpt lat="35.544428" lon="127.485657"><ele>371.8</ele></trkpt>
      <trkpt lat="35.544537" lon="127.486021"><ele>368.5</ele></trkpt>
      <trkpt lat="35.544655" lon="127.486113"><ele>366.2</ele></trkpt>
      <trkpt lat="35.544902" lon="127.486155"><ele>363.8</ele></trkpt>
      <trkpt lat="35.545306" lon="127.485984"><ele>367.0</ele></trkpt>
      <trkpt lat="35.545550" lon="127.486214"><ele>360.5</ele></trkpt>
      <trkpt lat="35.546301" lon="127.486525"><ele>353.8</ele></trkpt>
      <trkpt lat="35.546842" lon="127.486877"><ele>343.8</ele></trkpt>
      <trkpt lat="35.547062" lon="127.487408"><ele>342.4</ele></trkpt>
      <trkpt lat="35.548029" lon="127.487673"><ele>333.7</ele></trkpt>
      <trkpt lat="35.548167" lon="127.487856"><ele>330.5</ele></trkpt>
      <trkpt lat="35.548354" lon="127.487931"><ele>327.4</ele></trkpt>
      <trkpt lat="35.548625" lon="127.487918"><ele>327.3</ele></trkpt>
      <trkpt lat="35.548677" lon="127.487847"><ele>327.0</ele></trkpt>
      <trkpt lat="35.548657" lon="127.487691"><ele>327.9</ele></trkpt>
      <trkpt lat="35.548481" lon="127.487526"><ele>329.3</ele></trkpt>
      <trkpt lat="35.548446" lon="127.487411"><ele>329.9</ele></trkpt>
      <trkpt lat="35.548668" lon="127.486555"><ele>338.0</ele></trkpt>
      <trkpt lat="35.549192" lon="127.485674"><ele>340.3</ele></trkpt>
      <trkpt lat="35.549454" lon="127.485489"><ele>337.2</ele></trkpt>
      <trkpt lat="35.549506" lon="127.485320"><ele>339.7</ele></trkpt>
      <trkpt lat="35.549639" lon="127.485192"><ele>339.7</ele></trkpt>
      <trkpt lat="35.550151" lon="127.484867"><ele>334.9</ele></trkpt>
      <trkpt lat="35.550171" lon="127.484410"><ele>341.0</ele></trkpt>
      <trkpt lat="35.550286" lon="127.484176"><ele>344.7</ele></trkpt>
      <trkpt lat="35.550859" lon="127.483978"><ele>341.2</ele></trkpt>
      <trkpt lat="35.550952" lon="127.483773"><ele>343.9</ele></trkpt>
      <trkpt lat="35.551522" lon="127.483511"><ele>338.4</ele></trkpt>
      <trkpt lat="35.551657" lon="127.483369"><ele>338.6</ele></trkpt>
      <trkpt lat="35.551867" lon="127.482778"><ele>342.9</ele></trkpt>
      <trkpt lat="35.551836" lon="127.482315"><ele>351.3</ele></trkpt>
      <trkpt lat="35.552075" lon="127.481759"><ele>351.4</ele></trkpt>
      <trkpt lat="35.552954" lon="127.480648"><ele>346.0</ele></trkpt>
      <trkpt lat="35.553200" lon="127.480402"><ele>339.5</ele></trkpt>
      <trkpt lat="35.553566" lon="127.480198"><ele>331.3</ele></trkpt>
      <trkpt lat="35.553635" lon="127.480045"><ele>332.4</ele></trkpt>
      <trkpt lat="35.553691" lon="127.479705"><ele>337.6</ele></trkpt>
      <trkpt lat="35.553922" lon="127.479570"><ele>337.9</ele></trkpt>
      <trkpt lat="35.554854" lon="127.479366"><ele>343.6</ele></trkpt>
      <trkpt lat="35.555025" lon="127.479570"><ele>341.8</ele></trkpt>
      <trkpt lat="35.555097" lon="127.479742"><ele>344.1</ele></trkpt>
      <trkpt lat="35.555308" lon="127.479589"><ele>345.8</ele></trkpt>
      <trkpt lat="35.555437" lon="127.479580"><ele>349.0</ele></trkpt>
      <trkpt lat="35.555529" lon="127.479652"><ele>352.7</ele></trkpt>
      <trkpt lat="35.556429" lon="127.478959"><ele>360.0</ele></trkpt>
      <trkpt lat="35.556708" lon="127.478821"><ele>359.0</ele></trkpt>
      <trkpt lat="35.557228" lon="127.478242"><ele>352.2</ele></trkpt>
      <trkpt lat="35.557493" lon="127.478000"><ele>355.7</ele></trkpt>
      <trkpt lat="35.557838" lon="127.477786"><ele>362.8</ele></trkpt>
      <trkpt lat="35.558641" lon="127.476957"><ele>356.0</ele></trkpt>
      <trkpt lat="35.558887" lon="127.476606"><ele>356.0</ele></trkpt>
      <trkpt lat="35.559472" lon="127.475015"><ele>359.1</ele></trkpt>
      <trkpt lat="35.559536" lon="127.474957"><ele>359.6</ele></trkpt>
      <trkpt lat="35.559618" lon="127.475077"><ele>360.1</ele></trkpt>
      <trkpt lat="35.560021" lon="127.475094"><ele>366.0</ele></trkpt>
      <trkpt lat="35.560106" lon="127.475310"><ele>372.3</ele></trkpt>
      <trkpt lat="35.560163" lon="127.475379"><ele>375.5</ele></trkpt>
      <trkpt lat="35.560239" lon="127.475379"><ele>378.4</ele></trkpt>
      <trkpt lat="35.560717" lon="127.474851"><ele>383.7</ele></trkpt>
      <trkpt lat="35.560934" lon="127.474712"><ele>385.7</ele></trkpt>
      <trkpt lat="35.561611" lon="127.474635"><ele>402.2</ele></trkpt>
      <trkpt lat="35.562616" lon="127.474761"><ele>409.1</ele></trkpt>
      <trkpt lat="35.562884" lon="127.474896"><ele>415.3</ele></trkpt>
      <trkpt lat="35.563271" lon="127.474989"><ele>417.0</ele></trkpt>
      <trkpt lat="35.563769" lon="127.475015"><ele>421.4</ele></trkpt>
      <trkpt lat="35.564106" lon="127.474946"><ele>423.0</ele></trkpt>
      <trkpt lat="35.564798" lon="127.474399"><ele>432.1</ele></trkpt>
      <trkpt lat="35.565053" lon="127.474387"><ele>437.3</ele></trkpt>
      <trkpt lat="35.565570" lon="127.474553"><ele>442.1</ele></trkpt>
      <trkpt lat="35.566426" lon="127.475099"><ele>462.5</ele></trkpt>
      <trkpt lat="35.566918" lon="127.475755"><ele>470.2</ele></trkpt>
      <trkpt lat="35.567823" lon="127.476389"><ele>491.1</ele></trkpt>
      <trkpt lat="35.568365" lon="127.476478"><ele>501.2</ele></trkpt>
      <trkpt lat="35.568887" lon="127.476492"><ele>511.1</ele></trkpt>
      <trkpt lat="35.569135" lon="127.476612"><ele>516.1</ele></trkpt>
      <trkpt lat="35.569325" lon="127.476769"><ele>519.6</ele></trkpt>
      <trkpt lat="35.569484" lon="127.477246"><ele>525.6</ele></trkpt>
      <trkpt lat="35.569587" lon="127.477381"><ele>528.3</ele></trkpt>
      <trkpt lat="35.569653" lon="127.477339"><ele>528.2</ele></trkpt>
      <trkpt lat="35.569758" lon="127.477041"><ele>527.1</ele></trkpt>
      <trkpt lat="35.569878" lon="127.476966"><ele>529.4</ele></trkpt>
      <trkpt lat="35.569959" lon="127.476999"><ele>531.3</ele></trkpt>
      <trkpt lat="35.570043" lon="127.477503"><ele>534.8</ele></trkpt>
      <trkpt lat="35.569984" lon="127.477790"><ele>537.0</ele></trkpt>
      <trkpt lat="35.569974" lon="127.478343"><ele>544.9</ele></trkpt>
      <trkpt lat="35.570077" lon="127.478331"><ele>544.0</ele></trkpt>
      <trkpt lat="35.570264" lon="127.477904"><ele>540.8</ele></trkpt>
      <trkpt lat="35.570362" lon="127.477952"><ele>543.1</ele></trkpt>
      <trkpt lat="35.570403" lon="127.478105"><ele>545.7</ele></trkpt>
      <trkpt lat="35.570407" lon="127.478348"><ele>548.4</ele></trkpt>
      <trkpt lat="35.570231" lon="127.479279"><ele>572.3</ele></trkpt>
      <trkpt lat="35.570261" lon="127.479332"><ele>574.6</ele></trkpt>
      <trkpt lat="35.570349" lon="127.479340"><ele>572.4</ele></trkpt>
      <trkpt lat="35.570869" lon="127.478949"><ele>571.5</ele></trkpt>
      <trkpt lat="35.570921" lon="127.479251"><ele>578.5</ele></trkpt>
      <trkpt lat="35.571299" lon="127.480178"><ele>600.1</ele></trkpt>
      <trkpt lat="35.571325" lon="127.480587"><ele>602.9</ele></trkpt>
      <trkpt lat="35.571386" lon="127.480614"><ele>605.2</ele></trkpt>
      <trkpt lat="35.571519" lon="127.480493"><ele>609.5</ele></trkpt>
      <trkpt lat="35.571625" lon="127.480278"><ele>611.5</ele></trkpt>
      <trkpt lat="35.571614" lon="127.479685"><ele>609.1</ele></trkpt>
      <trkpt lat="35.571649" lon="127.479503"><ele>608.2</ele></trkpt>
      <trkpt lat="35.571771" lon="127.479347"><ele>609.9</ele></trkpt>
      <trkpt lat="35.572205" lon="127.479103"><ele>619.0</ele></trkpt>
      <trkpt lat="35.572288" lon="127.478948"><ele>621.1</ele></trkpt>
      <trkpt lat="35.572288" lon="127.478610"><ele>617.8</ele></trkpt>
      <trkpt lat="35.572165" lon="127.478227"><ele>614.3</ele></trkpt>
      <trkpt lat="35.572422" lon="127.477887"><ele>624.5</ele></trkpt>
      <trkpt lat="35.572540" lon="127.477541"><ele>628.1</ele></trkpt>
      <trkpt lat="35.572634" lon="127.477522"><ele>628.6</ele></trkpt>
      <trkpt lat="35.572782" lon="127.477640"><ele>630.9</ele></trkpt>
      <trkpt lat="35.572937" lon="127.477635"><ele>627.7</ele></trkpt>
      <trkpt lat="35.573097" lon="127.477554"><ele>621.6</ele></trkpt>
      <trkpt lat="35.573282" lon="127.477592"><ele>617.2</ele></trkpt>
      <trkpt lat="35.573415" lon="127.477860"><ele>619.0</ele></trkpt>
      <trkpt lat="35.573363" lon="127.478053"><ele>626.5</ele></trkpt>
      <trkpt lat="35.573391" lon="127.478161"><ele>628.2</ele></trkpt>
      <trkpt lat="35.573681" lon="127.478324"><ele>622.3</ele></trkpt>
      <trkpt lat="35.573801" lon="127.478563"><ele>625.6</ele></trkpt>
      <trkpt lat="35.573947" lon="127.478582"><ele>619.9</ele></trkpt>
      <trkpt lat="35.574131" lon="127.478499"><ele>607.2</ele></trkpt>
      <trkpt lat="35.574458" lon="127.478682"><ele>600.7</ele></trkpt>
      <trkpt lat="35.574416" lon="127.478950"><ele>615.0</ele></trkpt>
      <trkpt lat="35.574521" lon="127.479143"><ele>617.0</ele></trkpt>
      <trkpt lat="35.574876" lon="127.479229"><ele>606.6</ele></trkpt>
      <trkpt lat="35.575057" lon="127.479226"><ele>604.4</ele></trkpt>
      <trkpt lat="35.575332" lon="127.479082"><ele>597.2</ele></trkpt>
      <trkpt lat="35.575696" lon="127.478762"><ele>588.9</ele></trkpt>
      <trkpt lat="35.576146" lon="127.478773"><ele>590.5</ele></trkpt>
      <trkpt lat="35.576449" lon="127.478966"><ele>598.0</ele></trkpt>
      <trkpt lat="35.576977" lon="127.479035"><ele>597.4</ele></trkpt>
      <trkpt lat="35.577039" lon="127.478820"><ele>586.0</ele></trkpt>
      <trkpt lat="35.577383" lon="127.478761"><ele>577.0</ele></trkpt>
      <trkpt lat="35.577606" lon="127.478587"><ele>565.9</ele></trkpt>
      <trkpt lat="35.577588" lon="127.478517"><ele>564.0</ele></trkpt>
      <trkpt lat="35.577135" lon="127.478426"><ele>568.0</ele></trkpt>
      <trkpt lat="35.577102" lon="127.478346"><ele>564.5</ele></trkpt>
      <trkpt lat="35.577143" lon="127.478174"><ele>559.8</ele></trkpt>
      <trkpt lat="35.577410" lon="127.478107"><ele>556.0</ele></trkpt>
      <trkpt lat="35.577577" lon="127.477965"><ele>551.3</ele></trkpt>
      <trkpt lat="35.577717" lon="127.477949"><ele>548.8</ele></trkpt>
      <trkpt lat="35.577866" lon="127.478051"><ele>549.0</ele></trkpt>
      <trkpt lat="35.578092" lon="127.478056"><ele>544.8</ele></trkpt>
      <trkpt lat="35.578421" lon="127.478391"><ele>549.7</ele></trkpt>
      <trkpt lat="35.578815" lon="127.478446"><ele>546.2</ele></trkpt>
      <trkpt lat="35.579248" lon="127.478356"><ele>541.7</ele></trkpt>
      <trkpt lat="35.580069" lon="127.477849"><ele>531.6</ele></trkpt>
      <trkpt lat="35.580402" lon="127.477785"><ele>530.0</ele></trkpt>
      <trkpt lat="35.580666" lon="127.477865"><ele>530.0</ele></trkpt>
      <trkpt lat="35.580876" lon="127.478091"><ele>531.3</ele></trkpt>
      <trkpt lat="35.580994" lon="127.478136"><ele>529.2</ele></trkpt>
      <trkpt lat="35.581214" lon="127.477857"><ele>522.4</ele></trkpt>
      <trkpt lat="35.581456" lon="127.477769"><ele>523.9</ele></trkpt>
      <trkpt lat="35.582098" lon="127.477831"><ele>529.2</ele></trkpt>
      <trkpt lat="35.582250" lon="127.477774"><ele>529.6</ele></trkpt>
      <trkpt lat="35.582473" lon="127.477587"><ele>531.1</ele></trkpt>
      <trkpt lat="35.582619" lon="127.477321"><ele>532.1</ele></trkpt>
      <trkpt lat="35.582647" lon="127.477192"><ele>533.0</ele></trkpt>
      <trkpt lat="35.582584" lon="127.476889"><ele>536.2</ele></trkpt>
      <trkpt lat="35.582763" lon="127.476758"><ele>540.9</ele></trkpt>
      <trkpt lat="35.582875" lon="127.476547"><ele>545.4</ele></trkpt>
      <trkpt lat="35.583121" lon="127.476263"><ele>543.6</ele></trkpt>
      <trkpt lat="35.583509" lon="127.476300"><ele>538.9</ele></trkpt>
      <trkpt lat="35.583785" lon="127.476149"><ele>532.6</ele></trkpt>
      <trkpt lat="35.584042" lon="127.476163"><ele>530.8</ele></trkpt>
      <trkpt lat="35.584014" lon="127.476006"><ele>528.9</ele></trkpt>
      <trkpt lat="35.583882" lon="127.475867"><ele>527.6</ele></trkpt>
      <trkpt lat="35.583833" lon="127.475699"><ele>526.1</ele></trkpt>
      <trkpt lat="35.584112" lon="127.475168"><ele>519.8</ele></trkpt>
      <trkpt lat="35.584672" lon="127.474819"><ele>519.3</ele></trkpt>
      <trkpt lat="35.584336" lon="127.474861"><ele>517.4</ele></trkpt>
      <trkpt lat="35.584098" lon="127.474831"><ele>516.2</ele></trkpt>
      <trkpt lat="35.583127" lon="127.474231"><ele>511.3</ele></trkpt>
      <trkpt lat="35.582957" lon="127.474197"><ele>508.7</ele></trkpt>
      <trkpt lat="35.582938" lon="127.473534"><ele>507.9</ele></trkpt>
      <trkpt lat="35.582776" lon="127.473252"><ele>509.1</ele></trkpt>
      <trkpt lat="35.582431" lon="127.472949"><ele>494.5</ele></trkpt>
      <trkpt lat="35.582481" lon="127.472362"><ele>489.4</ele></trkpt>
      <trkpt lat="35.582475" lon="127.471005"><ele>479.0</ele></trkpt>
      <trkpt lat="35.582509" lon="127.470287"><ele>481.0</ele></trkpt>
      <trkpt lat="35.583121" lon="127.469361"><ele>496.4</ele></trkpt>
      <trkpt lat="35.583238" lon="127.469003"><ele>498.0</ele></trkpt>
      <trkpt lat="35.583418" lon="127.467784"><ele>502.8</ele></trkpt>
      <trkpt lat="35.583749" lon="127.467040"><ele>507.8</ele></trkpt>
      <trkpt lat="35.583810" lon="127.466600"><ele>508.2</ele></trkpt>
      <trkpt lat="35.583797" lon="127.465938"><ele>503.3</ele></trkpt>
      <trkpt lat="35.583893" lon="127.465761"><ele>504.3</ele></trkpt>
      <trkpt lat="35.585088" lon="127.464921"><ele>512.4</ele></trkpt>
    </trkseg>
  </trk>
</gpx>
