<?xml version="1.0" encoding="UTF-8"?>
<gpx version="1.1" creator="kr-100-mountains route-harvester"
     xmlns="http://www.topografix.com/GPX/1/1"
     xmlns:k100="https://github.com/jay-jang/kr-100-mountains/ns/1"
     xmlns:xsi="http://www.w3.org/2001/XMLSchema-instance"
     xsi:schemaLocation="http://www.topografix.com/GPX/1/1 http://www.topografix.com/GPX/1/1/gpx.xsd">
  <metadata>
    <name>명성산 · 제1코스(등룡폭포·억새밭) (대안 2) (OSM 계산 경로)</name>
    <desc>실제 GPS 기록이 아닙니다. OpenStreetMap에 등록된 등산로 선형 위에서 계산한 경로이며, 현장 통제·훼손·출입 제한·계절 통제를 반영하지 않을 수 있습니다. 산행 전 공식 안내를 확인하세요.</desc>
    <time>2026-08-04T05:55:23.963Z</time>
    <link href="https://www.openstreetmap.org/copyright"><text>© OpenStreetMap contributors (ODbL 1.0)</text></link>
    <link href="https://registry.opendata.aws/terrain-tiles/"><text>Elevation: SRTM 1 arc-second (NASA/USGS) via AWS Terrain Tiles</text></link>
    <extensions>
      <k100:provenance>osm-routed</k100:provenance>
      <k100:not_a_recorded_track>true</k100:not_a_recorded_track>
      <k100:mountain_id>myeongseongsan</k100:mountain_id>
      <k100:mountain_name>명성산</k100:mountain_name>
      <k100:route_id>myeongseongsan-11b9a702</k100:route_id>
      <k100:route_index>1</k100:route_index>
      <k100:route_name>제1코스(등룡폭포·억새밭)</k100:route_name>
      <k100:variant>2</k100:variant>
      <k100:source>OpenStreetMap via Overpass API</k100:source>
      <k100:license>ODbL-1.0</k100:license>
      <k100:attribution>© OpenStreetMap contributors</k100:attribution>
      <k100:elevation_source>SRTM 1 arc-second (NASA/USGS) — AWS Terrain Tiles 배포본. 지형 DEM 추정 고도이며 실측 아님</k100:elevation_source>
      <k100:algorithm>dijkstra-grid-v1</k100:algorithm>
      <k100:osm_snapshot>2026-08-04</k100:osm_snapshot>
      <k100:snap_trailhead_m>9</k100:snap_trailhead_m>
      <k100:snap_summit_m>235</k100:snap_summit_m>
      <k100:validation_score>89</k100:validation_score>
      <k100:validation_status>accepted</k100:validation_status>
    </extensions>
  </metadata>
  <trk>
    <name>명성산 · 제1코스(등룡폭포·억새밭) (대안 2) (OSM 계산 경로)</name>
    <desc>실제 GPS 기록이 아닙니다. OpenStreetMap에 등록된 등산로 선형 위에서 계산한 경로이며, 현장 통제·훼손·출입 제한·계절 통제를 반영하지 않을 수 있습니다. 산행 전 공식 안내를 확인하세요.</desc>
    <trkseg>
      <trkpt lat="38.067533" lon="127.325058"><ele>222.5</ele></trkpt>
      <trkpt lat="38.067642" lon="127.325170"><ele>222.8</ele></trkpt>
      <trkpt lat="38.067740" lon="127.325627"><ele>225.4</ele></trkpt>
      <trkpt lat="38.067343" lon="127.325891"><ele>232.6</ele></trkpt>
      <trkpt lat="38.067038" lon="127.325867"><ele>232.3</ele></trkpt>
      <trkpt lat="38.066624" lon="127.325740"><ele>233.2</ele></trkpt>
      <trkpt lat="38.066214" lon="127.325720"><ele>237.4</ele></trkpt>
      <trkpt lat="38.066381" lon="127.326114"><ele>241.1</ele></trkpt>
      <trkpt lat="38.066364" lon="127.326372"><ele>245.1</ele></trkpt>
      <trkpt lat="38.066457" lon="127.326613"><ele>244.8</ele></trkpt>
      <trkpt lat="38.066854" lon="127.326983"><ele>237.7</ele></trkpt>
      <trkpt lat="38.066883" lon="127.327074"><ele>238.1</ele></trkpt>
      <trkpt lat="38.066799" lon="127.327616"><ele>250.7</ele></trkpt>
      <trkpt lat="38.066849" lon="127.327745"><ele>251.8</ele></trkpt>
      <trkpt lat="38.067128" lon="127.328287"><ele>252.2</ele></trkpt>
      <trkpt lat="38.067284" lon="127.328335"><ele>250.5</ele></trkpt>
      <trkpt lat="38.067322" lon="127.328453"><ele>252.1</ele></trkpt>
      <trkpt lat="38.067467" lon="127.328369"><ele>252.0</ele></trkpt>
      <trkpt lat="38.067656" lon="127.328901"><ele>254.9</ele></trkpt>
      <trkpt lat="38.067669" lon="127.329590"><ele>259.5</ele></trkpt>
      <trkpt lat="38.067753" lon="127.329880"><ele>264.9</ele></trkpt>
      <trkpt lat="38.067651" lon="127.330792"><ele>272.0</ele></trkpt>
      <trkpt lat="38.067677" lon="127.331784"><ele>281.3</ele></trkpt>
      <trkpt lat="38.067855" lon="127.332106"><ele>284.4</ele></trkpt>
      <trkpt lat="38.067991" lon="127.332958"><ele>286.3</ele></trkpt>
      <trkpt lat="38.068160" lon="127.333560"><ele>291.9</ele></trkpt>
      <trkpt lat="38.068508" lon="127.333975"><ele>295.4</ele></trkpt>
      <trkpt lat="38.069094" lon="127.335089"><ele>298.5</ele></trkpt>
      <trkpt lat="38.069100" lon="127.335263"><ele>298.3</ele></trkpt>
      <trkpt lat="38.068970" lon="127.335717"><ele>301.6</ele></trkpt>
      <trkpt lat="38.069015" lon="127.336164"><ele>309.0</ele></trkpt>
      <trkpt lat="38.069283" lon="127.336752"><ele>314.5</ele></trkpt>
      <trkpt lat="38.069823" lon="127.336983"><ele>323.9</ele></trkpt>
      <trkpt lat="38.070014" lon="127.337139"><ele>329.6</ele></trkpt>
      <trkpt lat="38.070161" lon="127.337421"><ele>329.8</ele></trkpt>
      <trkpt lat="38.070334" lon="127.337602"><ele>332.0</ele></trkpt>
      <trkpt lat="38.070619" lon="127.337688"><ele>334.6</ele></trkpt>
      <trkpt lat="38.071096" lon="127.337599"><ele>345.7</ele></trkpt>
      <trkpt lat="38.071285" lon="127.337649"><ele>351.8</ele></trkpt>
      <trkpt lat="38.071506" lon="127.337916"><ele>352.4</ele></trkpt>
      <trkpt lat="38.071671" lon="127.338257"><ele>349.5</ele></trkpt>
      <trkpt lat="38.071630" lon="127.338563"><ele>349.3</ele></trkpt>
      <trkpt lat="38.072245" lon="127.339724"><ele>367.8</ele></trkpt>
      <trkpt lat="38.072363" lon="127.339744"><ele>372.3</ele></trkpt>
      <trkpt lat="38.072517" lon="127.339689"><ele>376.0</ele></trkpt>
      <trkpt lat="38.073194" lon="127.339220"><ele>384.9</ele></trkpt>
      <trkpt lat="38.073436" lon="127.339201"><ele>386.2</ele></trkpt>
      <trkpt lat="38.073539" lon="127.339284"><ele>386.6</ele></trkpt>
      <trkpt lat="38.074007" lon="127.340023"><ele>399.2</ele></trkpt>
      <trkpt lat="38.074185" lon="127.340176"><ele>404.0</ele></trkpt>
      <trkpt lat="38.074426" lon="127.340215"><ele>408.1</ele></trkpt>
      <trkpt lat="38.074608" lon="127.340324"><ele>410.4</ele></trkpt>
      <trkpt lat="38.074612" lon="127.340425"><ele>410.4</ele></trkpt>
      <trkpt lat="38.074810" lon="127.340308"><ele>414.8</ele></trkpt>
      <trkpt lat="38.075139" lon="127.340287"><ele>428.5</ele></trkpt>
      <trkpt lat="38.075401" lon="127.340201"><ele>442.0</ele></trkpt>
      <trkpt lat="38.076364" lon="127.339632"><ele>485.8</ele></trkpt>
      <trkpt lat="38.076719" lon="127.339257"><ele>499.6</ele></trkpt>
      <trkpt lat="38.077580" lon="127.339032"><ele>539.4</ele></trkpt>
      <trkpt lat="38.077960" lon="127.339021"><ele>570.4</ele></trkpt>
      <trkpt lat="38.078104" lon="127.338957"><ele>580.5</ele></trkpt>
      <trkpt lat="38.078290" lon="127.338731"><ele>587.3</ele></trkpt>
      <trkpt lat="38.078467" lon="127.338785"><ele>599.1</ele></trkpt>
      <trkpt lat="38.078737" lon="127.338645"><ele>612.7</ele></trkpt>
      <trkpt lat="38.078847" lon="127.338656"><ele>619.1</ele></trkpt>
      <trkpt lat="38.079404" lon="127.338999"><ele>651.4</ele></trkpt>
      <trkpt lat="38.079628" lon="127.339060"><ele>659.0</ele></trkpt>
      <trkpt lat="38.079708" lon="127.338806"><ele>661.0</ele></trkpt>
      <trkpt lat="38.079861" lon="127.338549"><ele>661.4</ele></trkpt>
      <trkpt lat="38.080122" lon="127.338356"><ele>668.5</ele></trkpt>
      <trkpt lat="38.080263" lon="127.338550"><ele>672.8</ele></trkpt>
      <trkpt lat="38.080514" lon="127.338391"><ele>679.9</ele></trkpt>
      <trkpt lat="38.080647" lon="127.338241"><ele>686.1</ele></trkpt>
      <trkpt lat="38.080739" lon="127.338399"><ele>689.1</ele></trkpt>
      <trkpt lat="38.080933" lon="127.338538"><ele>696.3</ele></trkpt>
      <trkpt lat="38.081786" lon="127.338195"><ele>732.4</ele></trkpt>
      <trkpt lat="38.082073" lon="127.338238"><ele>738.6</ele></trkpt>
      <trkpt lat="38.083103" lon="127.337851"><ele>773.3</ele></trkpt>
      <trkpt lat="38.083078" lon="127.337648"><ele>777.6</ele></trkpt>
      <trkpt lat="38.083111" lon="127.337146"><ele>784.1</ele></trkpt>
      <trkpt lat="38.083611" lon="127.337049"><ele>789.4</ele></trkpt>
      <trkpt lat="38.083953" lon="127.336815"><ele>794.3</ele></trkpt>
      <trkpt lat="38.084414" lon="127.336706"><ele>808.3</ele></trkpt>
      <trkpt lat="38.085420" lon="127.337217"><ele>811.7</ele></trkpt>
      <trkpt lat="38.085888" lon="127.337230"><ele>820.5</ele></trkpt>
      <trkpt lat="38.086485" lon="127.336988"><ele>831.9</ele></trkpt>
      <trkpt lat="38.086903" lon="127.336918"><ele>840.0</ele></trkpt>
      <trkpt lat="38.087140" lon="127.336656"><ele>847.2</ele></trkpt>
      <trkpt lat="38.087359" lon="127.336553"><ele>846.8</ele></trkpt>
      <trkpt lat="38.087776" lon="127.336686"><ele>841.0</ele></trkpt>
      <trkpt lat="38.087976" lon="127.336670"><ele>842.4</ele></trkpt>
      <trkpt lat="38.088704" lon="127.337017"><ele>848.8</ele></trkpt>
      <trkpt lat="38.089447" lon="127.337077"><ele>868.6</ele></trkpt>
      <trkpt lat="38.089838" lon="127.337281"><ele>883.4</ele></trkpt>
      <trkpt lat="38.090184" lon="127.337603"><ele>884.8</ele></trkpt>
      <trkpt lat="38.090285" lon="127.337935"><ele>881.1</ele></trkpt>
      <trkpt lat="38.090433" lon="127.338082"><ele>877.5</ele></trkpt>
      <trkpt lat="38.091418" lon="127.338664"><ele>862.7</ele></trkpt>
      <trkpt lat="38.092313" lon="127.339066"><ele>869.4</ele></trkpt>
      <trkpt lat="38.093042" lon="127.339079"><ele>868.3</ele></trkpt>
      <trkpt lat="38.093562" lon="127.338985"><ele>866.0</ele></trkpt>
      <trkpt lat="38.094007" lon="127.339030"><ele>865.6</ele></trkpt>
      <trkpt lat="38.093947" lon="127.338164"><ele>841.1</ele></trkpt>
      <trkpt lat="38.093760" lon="127.337691"><ele>821.7</ele></trkpt>
      <trkpt lat="38.093490" lon="127.337540"><ele>813.9</ele></trkpt>
      <trkpt lat="38.093198" lon="127.337285"><ele>804.6</ele></trkpt>
      <trkpt lat="38.093169" lon="127.337197"><ele>801.3</ele></trkpt>
      <trkpt lat="38.093184" lon="127.337103"><ele>797.3</ele></trkpt>
      <trkpt lat="38.093313" lon="127.336950"><ele>791.2</ele></trkpt>
      <trkpt lat="38.093338" lon="127.336831"><ele>785.6</ele></trkpt>
      <trkpt lat="38.093296" lon="127.336553"><ele>772.4</ele></trkpt>
      <trkpt lat="38.093485" lon="127.335707"><ele>722.7</ele></trkpt>
      <trkpt lat="38.093466" lon="127.335330"><ele>707.6</ele></trkpt>
      <trkpt lat="38.093279" lon="127.334740"><ele>683.7</ele></trkpt>
      <trkpt lat="38.093458" lon="127.334471"><ele>673.7</ele></trkpt>
      <trkpt lat="38.093540" lon="127.334182"><ele>660.9</ele></trkpt>
      <trkpt lat="38.093828" lon="127.333828"><ele>644.6</ele></trkpt>
      <trkpt lat="38.094461" lon="127.333249"><ele>623.4</ele></trkpt>
      <trkpt lat="38.094799" lon="127.333077"><ele>605.2</ele></trkpt>
      <trkpt lat="38.095221" lon="127.332637"><ele>591.2</ele></trkpt>
      <trkpt lat="38.095407" lon="127.332251"><ele>580.9</ele></trkpt>
      <trkpt lat="38.095432" lon="127.331876"><ele>576.4</ele></trkpt>
      <trkpt lat="38.095786" lon="127.331554"><ele>558.9</ele></trkpt>
      <trkpt lat="38.095964" lon="127.330620"><ele>521.9</ele></trkpt>
      <trkpt lat="38.096507" lon="127.329597"><ele>483.1</ele></trkpt>
      <trkpt lat="38.096946" lon="127.329356"><ele>466.2</ele></trkpt>
      <trkpt lat="38.097095" lon="127.329419"><ele>472.8</ele></trkpt>
      <trkpt lat="38.097335" lon="127.329646"><ele>493.0</ele></trkpt>
      <trkpt lat="38.097263" lon="127.329374"><ele>475.2</ele></trkpt>
      <trkpt lat="38.097299" lon="127.328782"><ele>450.9</ele></trkpt>
      <trkpt lat="38.097120" lon="127.328342"><ele>439.5</ele></trkpt>
      <trkpt lat="38.097057" lon="127.327528"><ele>428.2</ele></trkpt>
      <trkpt lat="38.096844" lon="127.326538"><ele>406.7</ele></trkpt>
      <trkpt lat="38.096882" lon="127.326390"><ele>401.6</ele></trkpt>
      <trkpt lat="38.096538" lon="127.326093"><ele>391.9</ele></trkpt>
      <trkpt lat="38.096201" lon="127.325596"><ele>381.5</ele></trkpt>
      <trkpt lat="38.096065" lon="127.325503"><ele>377.6</ele></trkpt>
      <trkpt lat="38.095837" lon="127.325605"><ele>377.6</ele></trkpt>
      <trkpt lat="38.095633" lon="127.325589"><ele>379.7</ele></trkpt>
      <trkpt lat="38.094943" lon="127.324456"><ele>362.4</ele></trkpt>
      <trkpt lat="38.094938" lon="127.324228"><ele>356.2</ele></trkpt>
      <trkpt lat="38.094752" lon="127.323270"><ele>339.2</ele></trkpt>
      <trkpt lat="38.094768" lon="127.322045"><ele>328.3</ele></trkpt>
      <trkpt lat="38.094819" lon="127.321830"><ele>325.3</ele></trkpt>
      <trkpt lat="38.094516" lon="127.321087"><ele>318.5</ele></trkpt>
      <trkpt lat="38.094136" lon="127.321150"><ele>316.0</ele></trkpt>
      <trkpt lat="38.093536" lon="127.321083"><ele>311.8</ele></trkpt>
      <trkpt lat="38.092941" lon="127.320914"><ele>301.1</ele></trkpt>
      <trkpt lat="38.091577" lon="127.320260"><ele>287.9</ele></trkpt>
      <trkpt lat="38.090676" lon="127.320029"><ele>274.7</ele></trkpt>
      <trkpt lat="38.090297" lon="127.319983"><ele>272.8</ele></trkpt>
      <trkpt lat="38.089656" lon="127.319997"><ele>268.7</ele></trkpt>
      <trkpt lat="38.088778" lon="127.319586"><ele>263.7</ele></trkpt>
    </trkseg>
  </trk>
</gpx>
