<?xml version="1.0" encoding="UTF-8"?>
<gpx version="1.1" creator="kr-100-mountains route-harvester"
     xmlns="http://www.topografix.com/GPX/1/1"
     xmlns:k100="https://github.com/jay-jang/kr-100-mountains/ns/1"
     xmlns:xsi="http://www.w3.org/2001/XMLSchema-instance"
     xsi:schemaLocation="http://www.topografix.com/GPX/1/1 http://www.topografix.com/GPX/1/1/gpx.xsd">
  <metadata>
    <name>백운산 · 진틀-상봉 코스 (OSM 계산 경로)</name>
    <desc>실제 GPS 기록이 아닙니다. OpenStreetMap에 등록된 등산로 선형 위에서 계산한 경로이며, 현장 통제·훼손·출입 제한·계절 통제를 반영하지 않을 수 있습니다. 산행 전 공식 안내를 확인하세요.</desc>
    <time>2026-08-04T05:30:31.622Z</time>
    <link href="https://www.openstreetmap.org/copyright"><text>© OpenStreetMap contributors (ODbL 1.0)</text></link>
    <link href="https://registry.opendata.aws/terrain-tiles/"><text>Elevation: SRTM 1 arc-second (NASA/USGS) via AWS Terrain Tiles</text></link>
    <extensions>
      <k100:provenance>osm-routed</k100:provenance>
      <k100:not_a_recorded_track>true</k100:not_a_recorded_track>
      <k100:mountain_id>baekunsan-gwangyang</k100:mountain_id>
      <k100:mountain_name>백운산(광양)</k100:mountain_name>
      <k100:route_id>baekunsan-gwangyang-bb45667f</k100:route_id>
      <k100:route_index>1</k100:route_index>
      <k100:route_name>진틀-상봉 코스</k100:route_name>
      <k100:variant>0</k100:variant>
      <k100:source>OpenStreetMap via Overpass API</k100:source>
      <k100:license>ODbL-1.0</k100:license>
      <k100:attribution>© OpenStreetMap contributors</k100:attribution>
      <k100:elevation_source>SRTM 1 arc-second (NASA/USGS) — AWS Terrain Tiles 배포본. 지형 DEM 추정 고도이며 실측 아님</k100:elevation_source>
      <k100:algorithm>dijkstra-grid-v1</k100:algorithm>
      <k100:osm_snapshot>2026-08-04</k100:osm_snapshot>
      <k100:snap_trailhead_m>610</k100:snap_trailhead_m>
      <k100:snap_summit_m>413</k100:snap_summit_m>
      <k100:validation_score>58</k100:validation_score>
      <k100:validation_status>review</k100:validation_status>
    </extensions>
  </metadata>
  <trk>
    <name>백운산 · 진틀-상봉 코스 (OSM 계산 경로)</name>
    <desc>실제 GPS 기록이 아닙니다. OpenStreetMap에 등록된 등산로 선형 위에서 계산한 경로이며, 현장 통제·훼손·출입 제한·계절 통제를 반영하지 않을 수 있습니다. 산행 전 공식 안내를 확인하세요.</desc>
    <trkseg>
      <trkpt lat="35.087544" lon="127.599572"><ele>341.1</ele></trkpt>
      <trkpt lat="35.088259" lon="127.599116"><ele>353.1</ele></trkpt>
      <trkpt lat="35.088641" lon="127.598752"><ele>351.6</ele></trkpt>
      <trkpt lat="35.088895" lon="127.598408"><ele>352.4</ele></trkpt>
      <trkpt lat="35.089771" lon="127.597899"><ele>362.9</ele></trkpt>
      <trkpt lat="35.090376" lon="127.597177"><ele>369.6</ele></trkpt>
      <trkpt lat="35.090589" lon="127.596986"><ele>373.6</ele></trkpt>
      <trkpt lat="35.091763" lon="127.596519"><ele>389.0</ele></trkpt>
      <trkpt lat="35.092506" lon="127.595998"><ele>403.9</ele></trkpt>
      <trkpt lat="35.092675" lon="127.595936"><ele>405.3</ele></trkpt>
      <trkpt lat="35.092917" lon="127.595934"><ele>407.9</ele></trkpt>
      <trkpt lat="35.093645" lon="127.596331"><ele>422.2</ele></trkpt>
      <trkpt lat="35.094186" lon="127.596490"><ele>423.4</ele></trkpt>
      <trkpt lat="35.094596" lon="127.596803"><ele>427.3</ele></trkpt>
      <trkpt lat="35.094837" lon="127.596835"><ele>426.7</ele></trkpt>
      <trkpt lat="35.095351" lon="127.596608"><ele>431.8</ele></trkpt>
      <trkpt lat="35.095343" lon="127.597016"><ele>432.9</ele></trkpt>
      <trkpt lat="35.095823" lon="127.598240"><ele>451.9</ele></trkpt>
      <trkpt lat="35.095967" lon="127.598477"><ele>457.1</ele></trkpt>
      <trkpt lat="35.096473" lon="127.600364"><ele>486.3</ele></trkpt>
      <trkpt lat="35.097038" lon="127.601317"><ele>499.7</ele></trkpt>
      <trkpt lat="35.097057" lon="127.601475"><ele>500.3</ele></trkpt>
      <trkpt lat="35.096753" lon="127.601983"><ele>500.9</ele></trkpt>
      <trkpt lat="35.096844" lon="127.602406"><ele>509.5</ele></trkpt>
      <trkpt lat="35.096869" lon="127.602992"><ele>519.0</ele></trkpt>
      <trkpt lat="35.096732" lon="127.603653"><ele>528.7</ele></trkpt>
      <trkpt lat="35.096848" lon="127.603765"><ele>532.2</ele></trkpt>
      <trkpt lat="35.096916" lon="127.603914"><ele>535.6</ele></trkpt>
      <trkpt lat="35.096994" lon="127.603855"><ele>534.4</ele></trkpt>
      <trkpt lat="35.097019" lon="127.603891"><ele>535.3</ele></trkpt>
      <trkpt lat="35.097053" lon="127.604540"><ele>548.1</ele></trkpt>
      <trkpt lat="35.097130" lon="127.604592"><ele>550.7</ele></trkpt>
      <trkpt lat="35.097202" lon="127.604863"><ele>557.1</ele></trkpt>
      <trkpt lat="35.097202" lon="127.605122"><ele>560.5</ele></trkpt>
      <trkpt lat="35.097293" lon="127.605310"><ele>563.9</ele></trkpt>
      <trkpt lat="35.097264" lon="127.605562"><ele>565.8</ele></trkpt>
      <trkpt lat="35.097194" lon="127.605726"><ele>567.2</ele></trkpt>
      <trkpt lat="35.097271" lon="127.606193"><ele>576.1</ele></trkpt>
      <trkpt lat="35.097266" lon="127.606605"><ele>586.3</ele></trkpt>
      <trkpt lat="35.097382" lon="127.606987"><ele>599.7</ele></trkpt>
      <trkpt lat="35.097505" lon="127.607119"><ele>604.0</ele></trkpt>
      <trkpt lat="35.097555" lon="127.607261"><ele>606.4</ele></trkpt>
      <trkpt lat="35.097946" lon="127.607607"><ele>622.2</ele></trkpt>
      <trkpt lat="35.097977" lon="127.607730"><ele>625.2</ele></trkpt>
      <trkpt lat="35.098135" lon="127.607853"><ele>632.4</ele></trkpt>
      <trkpt lat="35.098166" lon="127.608001"><ele>635.6</ele></trkpt>
      <trkpt lat="35.098270" lon="127.608012"><ele>637.5</ele></trkpt>
      <trkpt lat="35.098582" lon="127.608295"><ele>642.7</ele></trkpt>
      <trkpt lat="35.098648" lon="127.608462"><ele>646.0</ele></trkpt>
      <trkpt lat="35.098711" lon="127.608911"><ele>654.9</ele></trkpt>
      <trkpt lat="35.098652" lon="127.609148"><ele>656.2</ele></trkpt>
      <trkpt lat="35.098735" lon="127.609747"><ele>671.1</ele></trkpt>
      <trkpt lat="35.098662" lon="127.609881"><ele>672.2</ele></trkpt>
      <trkpt lat="35.098648" lon="127.610240"><ele>680.0</ele></trkpt>
      <trkpt lat="35.098567" lon="127.610498"><ele>684.6</ele></trkpt>
      <trkpt lat="35.098604" lon="127.610975"><ele>693.5</ele></trkpt>
      <trkpt lat="35.098566" lon="127.611120"><ele>695.6</ele></trkpt>
      <trkpt lat="35.098687" lon="127.611612"><ele>706.3</ele></trkpt>
      <trkpt lat="35.098798" lon="127.611777"><ele>712.4</ele></trkpt>
      <trkpt lat="35.098856" lon="127.612111"><ele>718.5</ele></trkpt>
      <trkpt lat="35.099204" lon="127.612487"><ele>730.1</ele></trkpt>
      <trkpt lat="35.099488" lon="127.612569"><ele>738.7</ele></trkpt>
      <trkpt lat="35.099739" lon="127.612515"><ele>742.5</ele></trkpt>
      <trkpt lat="35.100253" lon="127.612527"><ele>755.3</ele></trkpt>
      <trkpt lat="35.100588" lon="127.612668"><ele>764.1</ele></trkpt>
      <trkpt lat="35.100821" lon="127.612656"><ele>769.5</ele></trkpt>
      <trkpt lat="35.101032" lon="127.612826"><ele>774.1</ele></trkpt>
      <trkpt lat="35.101313" lon="127.612850"><ele>781.9</ele></trkpt>
      <trkpt lat="35.101577" lon="127.613084"><ele>786.5</ele></trkpt>
      <trkpt lat="35.101697" lon="127.613135"><ele>789.3</ele></trkpt>
      <trkpt lat="35.101793" lon="127.613091"><ele>791.6</ele></trkpt>
      <trkpt lat="35.101827" lon="127.613147"><ele>793.3</ele></trkpt>
      <trkpt lat="35.102174" lon="127.613253"><ele>812.5</ele></trkpt>
      <trkpt lat="35.102838" lon="127.613046"><ele>848.2</ele></trkpt>
      <trkpt lat="35.102937" lon="127.612904"><ele>855.3</ele></trkpt>
      <trkpt lat="35.103051" lon="127.612917"><ele>859.8</ele></trkpt>
      <trkpt lat="35.103155" lon="127.612825"><ele>865.0</ele></trkpt>
      <trkpt lat="35.103327" lon="127.612517"><ele>874.6</ele></trkpt>
      <trkpt lat="35.103545" lon="127.612730"><ele>886.3</ele></trkpt>
      <trkpt lat="35.103608" lon="127.612689"><ele>889.5</ele></trkpt>
      <trkpt lat="35.103915" lon="127.612898"><ele>899.9</ele></trkpt>
      <trkpt lat="35.104052" lon="127.613221"><ele>905.7</ele></trkpt>
      <trkpt lat="35.104263" lon="127.613394"><ele>914.7</ele></trkpt>
      <trkpt lat="35.104311" lon="127.613507"><ele>919.6</ele></trkpt>
      <trkpt lat="35.104365" lon="127.613655"><ele>925.8</ele></trkpt>
      <trkpt lat="35.104251" lon="127.613805"><ele>928.8</ele></trkpt>
      <trkpt lat="35.104292" lon="127.613900"><ele>932.7</ele></trkpt>
      <trkpt lat="35.104467" lon="127.614002"><ele>939.3</ele></trkpt>
      <trkpt lat="35.104855" lon="127.614438"><ele>958.3</ele></trkpt>
      <trkpt lat="35.105024" lon="127.614763"><ele>958.4</ele></trkpt>
      <trkpt lat="35.105180" lon="127.614859"><ele>963.6</ele></trkpt>
      <trkpt lat="35.105188" lon="127.614972"><ele>966.0</ele></trkpt>
      <trkpt lat="35.105395" lon="127.615093"><ele>979.3</ele></trkpt>
      <trkpt lat="35.105484" lon="127.615408"><ele>991.7</ele></trkpt>
      <trkpt lat="35.105585" lon="127.615562"><ele>998.2</ele></trkpt>
      <trkpt lat="35.105761" lon="127.615645"><ele>1000.3</ele></trkpt>
      <trkpt lat="35.105761" lon="127.615895"><ele>1004.1</ele></trkpt>
      <trkpt lat="35.105873" lon="127.616005"><ele>1009.0</ele></trkpt>
      <trkpt lat="35.105894" lon="127.616135"><ele>1011.9</ele></trkpt>
      <trkpt lat="35.106080" lon="127.616227"><ele>1024.6</ele></trkpt>
      <trkpt lat="35.106397" lon="127.616190"><ele>1040.8</ele></trkpt>
      <trkpt lat="35.106537" lon="127.616504"><ele>1053.2</ele></trkpt>
      <trkpt lat="35.107054" lon="127.616770"><ele>1092.1</ele></trkpt>
      <trkpt lat="35.107262" lon="127.617085"><ele>1103.1</ele></trkpt>
      <trkpt lat="35.107369" lon="127.617124"><ele>1107.7</ele></trkpt>
      <trkpt lat="35.107688" lon="127.616937"><ele>1121.6</ele></trkpt>
      <trkpt lat="35.107718" lon="127.617027"><ele>1123.6</ele></trkpt>
      <trkpt lat="35.107971" lon="127.617130"><ele>1139.8</ele></trkpt>
      <trkpt lat="35.108099" lon="127.617131"><ele>1147.8</ele></trkpt>
      <trkpt lat="35.108289" lon="127.617450"><ele>1166.9</ele></trkpt>
      <trkpt lat="35.108488" lon="127.617452"><ele>1173.5</ele></trkpt>
      <trkpt lat="35.108625" lon="127.617576"><ele>1178.5</ele></trkpt>
      <trkpt lat="35.108755" lon="127.617404"><ele>1175.2</ele></trkpt>
      <trkpt lat="35.109221" lon="127.617406"><ele>1169.4</ele></trkpt>
      <trkpt lat="35.109365" lon="127.617374"><ele>1168.4</ele></trkpt>
      <trkpt lat="35.109524" lon="127.617262"><ele>1167.6</ele></trkpt>
      <trkpt lat="35.109689" lon="127.616844"><ele>1164.4</ele></trkpt>
      <trkpt lat="35.109738" lon="127.616808"><ele>1163.8</ele></trkpt>
      <trkpt lat="35.109713" lon="127.616686"><ele>1162.2</ele></trkpt>
      <trkpt lat="35.109758" lon="127.616667"><ele>1161.8</ele></trkpt>
      <trkpt lat="35.109790" lon="127.616750"><ele>1162.4</ele></trkpt>
      <trkpt lat="35.109850" lon="127.616751"><ele>1161.6</ele></trkpt>
      <trkpt lat="35.109939" lon="127.616590"><ele>1159.6</ele></trkpt>
      <trkpt lat="35.109978" lon="127.616243"><ele>1153.4</ele></trkpt>
      <trkpt lat="35.110097" lon="127.616053"><ele>1149.3</ele></trkpt>
      <trkpt lat="35.110234" lon="127.616040"><ele>1151.6</ele></trkpt>
      <trkpt lat="35.110303" lon="127.616103"><ele>1153.1</ele></trkpt>
      <trkpt lat="35.110487" lon="127.616015"><ele>1147.2</ele></trkpt>
      <trkpt lat="35.110566" lon="127.616060"><ele>1145.1</ele></trkpt>
      <trkpt lat="35.110623" lon="127.616029"><ele>1141.5</ele></trkpt>
      <trkpt lat="35.110630" lon="127.615916"><ele>1141.0</ele></trkpt>
      <trkpt lat="35.111170" lon="127.615911"><ele>1119.8</ele></trkpt>
      <trkpt lat="35.111565" lon="127.615632"><ele>1121.1</ele></trkpt>
      <trkpt lat="35.112322" lon="127.615758"><ele>1119.7</ele></trkpt>
    </trkseg>
  </trk>
</gpx>
