<?xml version="1.0" encoding="UTF-8"?>
<gpx version="1.1" creator="kr-100-mountains route-harvester"
     xmlns="http://www.topografix.com/GPX/1/1"
     xmlns:k100="https://github.com/jay-jang/kr-100-mountains/ns/1"
     xmlns:xsi="http://www.w3.org/2001/XMLSchema-instance"
     xsi:schemaLocation="http://www.topografix.com/GPX/1/1 http://www.topografix.com/GPX/1/1/gpx.xsd">
  <metadata>
    <name>백운산 · 논실-한재-상봉 코스 (OSM 계산 경로)</name>
    <desc>실제 GPS 기록이 아닙니다. OpenStreetMap에 등록된 등산로 선형 위에서 계산한 경로이며, 현장 통제·훼손·출입 제한·계절 통제를 반영하지 않을 수 있습니다. 산행 전 공식 안내를 확인하세요.</desc>
    <time>2026-08-04T05:30:31.627Z</time>
    <link href="https://www.openstreetmap.org/copyright"><text>© OpenStreetMap contributors (ODbL 1.0)</text></link>
    <link href="https://registry.opendata.aws/terrain-tiles/"><text>Elevation: SRTM 1 arc-second (NASA/USGS) via AWS Terrain Tiles</text></link>
    <extensions>
      <k100:provenance>osm-routed</k100:provenance>
      <k100:not_a_recorded_track>true</k100:not_a_recorded_track>
      <k100:mountain_id>baekunsan-gwangyang</k100:mountain_id>
      <k100:mountain_name>백운산(광양)</k100:mountain_name>
      <k100:route_id>baekunsan-gwangyang-ccfad98c</k100:route_id>
      <k100:route_index>2</k100:route_index>
      <k100:route_name>논실-한재-상봉 코스</k100:route_name>
      <k100:variant>0</k100:variant>
      <k100:source>OpenStreetMap via Overpass API</k100:source>
      <k100:license>ODbL-1.0</k100:license>
      <k100:attribution>© OpenStreetMap contributors</k100:attribution>
      <k100:elevation_source>SRTM 1 arc-second (NASA/USGS) — AWS Terrain Tiles 배포본. 지형 DEM 추정 고도이며 실측 아님</k100:elevation_source>
      <k100:algorithm>dijkstra-grid-v1</k100:algorithm>
      <k100:osm_snapshot>2026-08-04</k100:osm_snapshot>
      <k100:snap_trailhead_m>267</k100:snap_trailhead_m>
      <k100:snap_summit_m>413</k100:snap_summit_m>
      <k100:validation_score>59</k100:validation_score>
      <k100:validation_status>review</k100:validation_status>
    </extensions>
  </metadata>
  <trk>
    <name>백운산 · 논실-한재-상봉 코스 (OSM 계산 경로)</name>
    <desc>실제 GPS 기록이 아닙니다. OpenStreetMap에 등록된 등산로 선형 위에서 계산한 경로이며, 현장 통제·훼손·출입 제한·계절 통제를 반영하지 않을 수 있습니다. 산행 전 공식 안내를 확인하세요.</desc>
    <trkseg>
      <trkpt lat="35.105167" lon="127.601887"><ele>610.2</ele></trkpt>
      <trkpt lat="35.105470" lon="127.601601"><ele>610.0</ele></trkpt>
      <trkpt lat="35.105948" lon="127.601356"><ele>607.2</ele></trkpt>
      <trkpt lat="35.106171" lon="127.601422"><ele>611.3</ele></trkpt>
      <trkpt lat="35.106498" lon="127.601434"><ele>612.5</ele></trkpt>
      <trkpt lat="35.106697" lon="127.601552"><ele>614.5</ele></trkpt>
      <trkpt lat="35.107205" lon="127.601700"><ele>627.9</ele></trkpt>
      <trkpt lat="35.107973" lon="127.601788"><ele>636.9</ele></trkpt>
      <trkpt lat="35.108366" lon="127.602044"><ele>645.2</ele></trkpt>
      <trkpt lat="35.108567" lon="127.602116"><ele>648.6</ele></trkpt>
      <trkpt lat="35.109061" lon="127.602110"><ele>659.3</ele></trkpt>
      <trkpt lat="35.109261" lon="127.602234"><ele>666.3</ele></trkpt>
      <trkpt lat="35.109474" lon="127.602268"><ele>671.1</ele></trkpt>
      <trkpt lat="35.109781" lon="127.602081"><ele>669.9</ele></trkpt>
      <trkpt lat="35.110000" lon="127.602089"><ele>671.6</ele></trkpt>
      <trkpt lat="35.110386" lon="127.602325"><ele>678.3</ele></trkpt>
      <trkpt lat="35.110588" lon="127.602282"><ele>679.2</ele></trkpt>
      <trkpt lat="35.111361" lon="127.602539"><ele>699.8</ele></trkpt>
      <trkpt lat="35.111992" lon="127.602633"><ele>708.9</ele></trkpt>
      <trkpt lat="35.111931" lon="127.603165"><ele>720.9</ele></trkpt>
      <trkpt lat="35.112550" lon="127.604345"><ele>747.4</ele></trkpt>
      <trkpt lat="35.112607" lon="127.604635"><ele>754.8</ele></trkpt>
      <trkpt lat="35.112532" lon="127.604930"><ele>761.0</ele></trkpt>
      <trkpt lat="35.112462" lon="127.605740"><ele>782.0</ele></trkpt>
      <trkpt lat="35.112322" lon="127.606389"><ele>796.6</ele></trkpt>
      <trkpt lat="35.112177" lon="127.606748"><ele>805.7</ele></trkpt>
      <trkpt lat="35.112032" lon="127.606872"><ele>814.9</ele></trkpt>
      <trkpt lat="35.111720" lon="127.606716"><ele>830.3</ele></trkpt>
      <trkpt lat="35.111527" lon="127.606770"><ele>841.4</ele></trkpt>
      <trkpt lat="35.111312" lon="127.606942"><ele>851.9</ele></trkpt>
      <trkpt lat="35.111119" lon="127.607220"><ele>859.7</ele></trkpt>
      <trkpt lat="35.110979" lon="127.607853"><ele>875.0</ele></trkpt>
      <trkpt lat="35.110729" lon="127.608202"><ele>882.9</ele></trkpt>
      <trkpt lat="35.110610" lon="127.608503"><ele>890.1</ele></trkpt>
      <trkpt lat="35.110523" lon="127.609157"><ele>907.4</ele></trkpt>
      <trkpt lat="35.110531" lon="127.609431"><ele>921.6</ele></trkpt>
      <trkpt lat="35.110663" lon="127.609822"><ele>936.6</ele></trkpt>
      <trkpt lat="35.110637" lon="127.610063"><ele>944.6</ele></trkpt>
      <trkpt lat="35.110386" lon="127.610970"><ele>986.0</ele></trkpt>
      <trkpt lat="35.110250" lon="127.611759"><ele>1009.4</ele></trkpt>
      <trkpt lat="35.109987" lon="127.612247"><ele>1033.3</ele></trkpt>
      <trkpt lat="35.109952" lon="127.612392"><ele>1040.1</ele></trkpt>
      <trkpt lat="35.110075" lon="127.613288"><ele>1072.1</ele></trkpt>
      <trkpt lat="35.109943" lon="127.614419"><ele>1099.9</ele></trkpt>
      <trkpt lat="35.110127" lon="127.614902"><ele>1115.6</ele></trkpt>
      <trkpt lat="35.110185" lon="127.615272"><ele>1128.8</ele></trkpt>
      <trkpt lat="35.110334" lon="127.615455"><ele>1135.4</ele></trkpt>
      <trkpt lat="35.110386" lon="127.615600"><ele>1140.2</ele></trkpt>
      <trkpt lat="35.110234" lon="127.616040"><ele>1151.6</ele></trkpt>
      <trkpt lat="35.110303" lon="127.616103"><ele>1153.1</ele></trkpt>
      <trkpt lat="35.110487" lon="127.616015"><ele>1147.2</ele></trkpt>
      <trkpt lat="35.110566" lon="127.616060"><ele>1145.1</ele></trkpt>
      <trkpt lat="35.110623" lon="127.616029"><ele>1141.5</ele></trkpt>
      <trkpt lat="35.110630" lon="127.615916"><ele>1141.0</ele></trkpt>
      <trkpt lat="35.111170" lon="127.615911"><ele>1119.8</ele></trkpt>
      <trkpt lat="35.111565" lon="127.615632"><ele>1121.1</ele></trkpt>
      <trkpt lat="35.112322" lon="127.615758"><ele>1119.7</ele></trkpt>
    </trkseg>
  </trk>
</gpx>
