<?xml version="1.0" encoding="UTF-8"?>
<gpx version="1.1" creator="kr-100-mountains route-harvester"
     xmlns="http://www.topografix.com/GPX/1/1"
     xmlns:k100="https://github.com/jay-jang/kr-100-mountains/ns/1"
     xmlns:xsi="http://www.w3.org/2001/XMLSchema-instance"
     xsi:schemaLocation="http://www.topografix.com/GPX/1/1 http://www.topografix.com/GPX/1/1/gpx.xsd">
  <metadata>
    <name>백운산 · 구황마을-노랭이재-억불봉삼거리-백운산 상봉 (OSM 계산 경로)</name>
    <desc>실제 GPS 기록이 아닙니다. OpenStreetMap에 등록된 등산로 선형 위에서 계산한 경로이며, 현장 통제·훼손·출입 제한·계절 통제를 반영하지 않을 수 있습니다. 산행 전 공식 안내를 확인하세요.</desc>
    <time>2026-08-04T05:30:31.657Z</time>
    <link href="https://www.openstreetmap.org/copyright"><text>© OpenStreetMap contributors (ODbL 1.0)</text></link>
    <link href="https://registry.opendata.aws/terrain-tiles/"><text>Elevation: SRTM 1 arc-second (NASA/USGS) via AWS Terrain Tiles</text></link>
    <extensions>
      <k100:provenance>osm-routed</k100:provenance>
      <k100:not_a_recorded_track>true</k100:not_a_recorded_track>
      <k100:mountain_id>baekunsan-gwangyang</k100:mountain_id>
      <k100:mountain_name>백운산(광양)</k100:mountain_name>
      <k100:route_id>baekunsan-gwangyang-2ed03d1f</k100:route_id>
      <k100:route_index>4</k100:route_index>
      <k100:route_name>구황마을-노랭이재-억불봉삼거리-백운산 상봉</k100:route_name>
      <k100:variant>0</k100:variant>
      <k100:source>OpenStreetMap via Overpass API</k100:source>
      <k100:license>ODbL-1.0</k100:license>
      <k100:attribution>© OpenStreetMap contributors</k100:attribution>
      <k100:elevation_source>SRTM 1 arc-second (NASA/USGS) — AWS Terrain Tiles 배포본. 지형 DEM 추정 고도이며 실측 아님</k100:elevation_source>
      <k100:algorithm>dijkstra-grid-v1</k100:algorithm>
      <k100:osm_snapshot>2026-08-04</k100:osm_snapshot>
      <k100:snap_trailhead_m>491</k100:snap_trailhead_m>
      <k100:snap_summit_m>413</k100:snap_summit_m>
      <k100:validation_score>50</k100:validation_score>
      <k100:validation_status>review</k100:validation_status>
    </extensions>
  </metadata>
  <trk>
    <name>백운산 · 구황마을-노랭이재-억불봉삼거리-백운산 상봉 (OSM 계산 경로)</name>
    <desc>실제 GPS 기록이 아닙니다. OpenStreetMap에 등록된 등산로 선형 위에서 계산한 경로이며, 현장 통제·훼손·출입 제한·계절 통제를 반영하지 않을 수 있습니다. 산행 전 공식 안내를 확인하세요.</desc>
    <trkseg>
      <trkpt lat="35.072840" lon="127.652747"><ele>928.6</ele></trkpt>
      <trkpt lat="35.072788" lon="127.652188"><ele>915.3</ele></trkpt>
      <trkpt lat="35.072881" lon="127.651997"><ele>912.0</ele></trkpt>
      <trkpt lat="35.072875" lon="127.651792"><ele>909.0</ele></trkpt>
      <trkpt lat="35.073020" lon="127.651707"><ele>909.1</ele></trkpt>
      <trkpt lat="35.072980" lon="127.651560"><ele>906.9</ele></trkpt>
      <trkpt lat="35.073068" lon="127.651434"><ele>905.9</ele></trkpt>
      <trkpt lat="35.073043" lon="127.651289"><ele>905.0</ele></trkpt>
      <trkpt lat="35.073136" lon="127.651098"><ele>903.3</ele></trkpt>
      <trkpt lat="35.073162" lon="127.650842"><ele>900.2</ele></trkpt>
      <trkpt lat="35.073367" lon="127.650553"><ele>900.4</ele></trkpt>
      <trkpt lat="35.073489" lon="127.650142"><ele>896.6</ele></trkpt>
      <trkpt lat="35.073518" lon="127.649746"><ele>899.4</ele></trkpt>
      <trkpt lat="35.073569" lon="127.649599"><ele>902.3</ele></trkpt>
      <trkpt lat="35.073553" lon="127.649314"><ele>902.9</ele></trkpt>
      <trkpt lat="35.073696" lon="127.649074"><ele>907.0</ele></trkpt>
      <trkpt lat="35.074080" lon="127.648798"><ele>911.7</ele></trkpt>
      <trkpt lat="35.074219" lon="127.648486"><ele>912.7</ele></trkpt>
      <trkpt lat="35.074752" lon="127.647892"><ele>903.5</ele></trkpt>
      <trkpt lat="35.074885" lon="127.647812"><ele>903.3</ele></trkpt>
      <trkpt lat="35.075748" lon="127.647594"><ele>909.5</ele></trkpt>
      <trkpt lat="35.076412" lon="127.647268"><ele>919.7</ele></trkpt>
      <trkpt lat="35.077015" lon="127.647368"><ele>926.2</ele></trkpt>
      <trkpt lat="35.077304" lon="127.647468"><ele>925.9</ele></trkpt>
      <trkpt lat="35.077505" lon="127.647346"><ele>921.3</ele></trkpt>
      <trkpt lat="35.077707" lon="127.647299"><ele>920.5</ele></trkpt>
      <trkpt lat="35.078395" lon="127.646816"><ele>922.0</ele></trkpt>
      <trkpt lat="35.079343" lon="127.646414"><ele>933.0</ele></trkpt>
      <trkpt lat="35.079680" lon="127.645662"><ele>940.3</ele></trkpt>
      <trkpt lat="35.079895" lon="127.645479"><ele>945.1</ele></trkpt>
      <trkpt lat="35.080303" lon="127.644981"><ele>940.3</ele></trkpt>
      <trkpt lat="35.080546" lon="127.644783"><ele>936.0</ele></trkpt>
      <trkpt lat="35.080655" lon="127.644522"><ele>930.7</ele></trkpt>
      <trkpt lat="35.080886" lon="127.644253"><ele>934.6</ele></trkpt>
      <trkpt lat="35.080986" lon="127.643979"><ele>936.0</ele></trkpt>
      <trkpt lat="35.081148" lon="127.643844"><ele>936.0</ele></trkpt>
      <trkpt lat="35.081535" lon="127.642809"><ele>926.2</ele></trkpt>
      <trkpt lat="35.081732" lon="127.642519"><ele>925.5</ele></trkpt>
      <trkpt lat="35.082271" lon="127.642172"><ele>924.9</ele></trkpt>
      <trkpt lat="35.082676" lon="127.641799"><ele>923.3</ele></trkpt>
      <trkpt lat="35.083325" lon="127.641606"><ele>934.9</ele></trkpt>
      <trkpt lat="35.084311" lon="127.640488"><ele>925.4</ele></trkpt>
      <trkpt lat="35.084420" lon="127.640308"><ele>927.3</ele></trkpt>
      <trkpt lat="35.084495" lon="127.640318"><ele>927.8</ele></trkpt>
      <trkpt lat="35.085164" lon="127.640040"><ele>931.5</ele></trkpt>
      <trkpt lat="35.086152" lon="127.639312"><ele>939.0</ele></trkpt>
      <trkpt lat="35.086503" lon="127.638875"><ele>929.5</ele></trkpt>
      <trkpt lat="35.086675" lon="127.638811"><ele>927.6</ele></trkpt>
      <trkpt lat="35.086762" lon="127.638684"><ele>923.6</ele></trkpt>
      <trkpt lat="35.087258" lon="127.638576"><ele>925.4</ele></trkpt>
      <trkpt lat="35.087915" lon="127.638168"><ele>923.4</ele></trkpt>
      <trkpt lat="35.088080" lon="127.638137"><ele>923.5</ele></trkpt>
      <trkpt lat="35.088231" lon="127.637975"><ele>925.2</ele></trkpt>
      <trkpt lat="35.088587" lon="127.637741"><ele>930.1</ele></trkpt>
      <trkpt lat="35.089100" lon="127.637599"><ele>938.8</ele></trkpt>
      <trkpt lat="35.089743" lon="127.637231"><ele>941.0</ele></trkpt>
      <trkpt lat="35.090322" lon="127.637132"><ele>951.2</ele></trkpt>
      <trkpt lat="35.090571" lon="127.637147"><ele>959.4</ele></trkpt>
      <trkpt lat="35.090915" lon="127.637006"><ele>972.0</ele></trkpt>
      <trkpt lat="35.091065" lon="127.636808"><ele>972.8</ele></trkpt>
      <trkpt lat="35.091242" lon="127.636676"><ele>977.8</ele></trkpt>
      <trkpt lat="35.091326" lon="127.636564"><ele>979.1</ele></trkpt>
      <trkpt lat="35.091378" lon="127.636373"><ele>977.0</ele></trkpt>
      <trkpt lat="35.091339" lon="127.636261"><ele>971.2</ele></trkpt>
      <trkpt lat="35.091380" lon="127.636156"><ele>970.7</ele></trkpt>
      <trkpt lat="35.091741" lon="127.635845"><ele>968.1</ele></trkpt>
      <trkpt lat="35.091898" lon="127.635550"><ele>963.9</ele></trkpt>
      <trkpt lat="35.092077" lon="127.635384"><ele>960.6</ele></trkpt>
      <trkpt lat="35.092187" lon="127.635080"><ele>955.1</ele></trkpt>
      <trkpt lat="35.092337" lon="127.634329"><ele>947.4</ele></trkpt>
      <trkpt lat="35.092818" lon="127.632921"><ele>936.2</ele></trkpt>
      <trkpt lat="35.092992" lon="127.632616"><ele>939.7</ele></trkpt>
      <trkpt lat="35.093090" lon="127.632269"><ele>941.1</ele></trkpt>
      <trkpt lat="35.093282" lon="127.631958"><ele>946.4</ele></trkpt>
      <trkpt lat="35.093509" lon="127.631115"><ele>944.0</ele></trkpt>
      <trkpt lat="35.093539" lon="127.630890"><ele>943.0</ele></trkpt>
      <trkpt lat="35.093479" lon="127.630419"><ele>948.1</ele></trkpt>
      <trkpt lat="35.093416" lon="127.630173"><ele>952.5</ele></trkpt>
      <trkpt lat="35.093147" lon="127.629615"><ele>967.0</ele></trkpt>
      <trkpt lat="35.093121" lon="127.629406"><ele>974.9</ele></trkpt>
      <trkpt lat="35.093078" lon="127.629347"><ele>976.6</ele></trkpt>
      <trkpt lat="35.093014" lon="127.629350"><ele>974.9</ele></trkpt>
      <trkpt lat="35.093008" lon="127.628662"><ele>1004.5</ele></trkpt>
      <trkpt lat="35.092878" lon="127.628457"><ele>1010.5</ele></trkpt>
      <trkpt lat="35.092864" lon="127.628362"><ele>1012.9</ele></trkpt>
      <trkpt lat="35.093052" lon="127.628101"><ele>1018.3</ele></trkpt>
      <trkpt lat="35.093606" lon="127.627704"><ele>1019.5</ele></trkpt>
      <trkpt lat="35.094040" lon="127.627116"><ele>1021.3</ele></trkpt>
      <trkpt lat="35.094312" lon="127.626883"><ele>1024.0</ele></trkpt>
      <trkpt lat="35.094448" lon="127.626783"><ele>1025.5</ele></trkpt>
      <trkpt lat="35.094961" lon="127.626607"><ele>1034.1</ele></trkpt>
      <trkpt lat="35.095026" lon="127.626509"><ele>1035.9</ele></trkpt>
      <trkpt lat="35.095306" lon="127.626338"><ele>1042.0</ele></trkpt>
      <trkpt lat="35.095442" lon="127.626167"><ele>1046.8</ele></trkpt>
      <trkpt lat="35.095671" lon="127.625740"><ele>1052.5</ele></trkpt>
      <trkpt lat="35.095833" lon="127.625143"><ele>1058.5</ele></trkpt>
      <trkpt lat="35.095825" lon="127.624953"><ele>1058.7</ele></trkpt>
      <trkpt lat="35.096079" lon="127.624313"><ele>1067.7</ele></trkpt>
      <trkpt lat="35.095940" lon="127.623549"><ele>1079.2</ele></trkpt>
      <trkpt lat="35.095986" lon="127.623393"><ele>1082.0</ele></trkpt>
      <trkpt lat="35.096055" lon="127.623327"><ele>1084.3</ele></trkpt>
      <trkpt lat="35.096287" lon="127.623280"><ele>1086.9</ele></trkpt>
      <trkpt lat="35.096565" lon="127.623011"><ele>1086.1</ele></trkpt>
      <trkpt lat="35.097118" lon="127.622705"><ele>1089.3</ele></trkpt>
      <trkpt lat="35.097337" lon="127.622691"><ele>1091.0</ele></trkpt>
      <trkpt lat="35.097489" lon="127.622364"><ele>1097.7</ele></trkpt>
      <trkpt lat="35.097686" lon="127.622142"><ele>1101.9</ele></trkpt>
      <trkpt lat="35.097702" lon="127.622056"><ele>1103.1</ele></trkpt>
      <trkpt lat="35.097897" lon="127.621921"><ele>1103.5</ele></trkpt>
      <trkpt lat="35.098389" lon="127.621903"><ele>1100.3</ele></trkpt>
      <trkpt lat="35.098572" lon="127.621948"><ele>1100.8</ele></trkpt>
      <trkpt lat="35.098879" lon="127.621785"><ele>1103.7</ele></trkpt>
      <trkpt lat="35.099421" lon="127.621900"><ele>1092.4</ele></trkpt>
      <trkpt lat="35.099557" lon="127.622055"><ele>1089.0</ele></trkpt>
      <trkpt lat="35.099932" lon="127.622186"><ele>1088.1</ele></trkpt>
      <trkpt lat="35.100221" lon="127.622098"><ele>1088.9</ele></trkpt>
      <trkpt lat="35.100399" lon="127.622105"><ele>1090.5</ele></trkpt>
      <trkpt lat="35.100525" lon="127.622268"><ele>1095.9</ele></trkpt>
      <trkpt lat="35.100591" lon="127.622517"><ele>1097.6</ele></trkpt>
      <trkpt lat="35.100721" lon="127.622590"><ele>1095.9</ele></trkpt>
      <trkpt lat="35.100960" lon="127.622573"><ele>1097.3</ele></trkpt>
      <trkpt lat="35.101216" lon="127.622683"><ele>1097.0</ele></trkpt>
      <trkpt lat="35.101576" lon="127.622646"><ele>1107.2</ele></trkpt>
      <trkpt lat="35.101927" lon="127.622730"><ele>1119.8</ele></trkpt>
      <trkpt lat="35.102840" lon="127.622530"><ele>1127.1</ele></trkpt>
      <trkpt lat="35.103145" lon="127.622513"><ele>1131.6</ele></trkpt>
      <trkpt lat="35.103381" lon="127.622203"><ele>1136.7</ele></trkpt>
      <trkpt lat="35.103953" lon="127.621847"><ele>1141.3</ele></trkpt>
      <trkpt lat="35.104039" lon="127.621720"><ele>1143.1</ele></trkpt>
      <trkpt lat="35.104214" lon="127.621618"><ele>1145.4</ele></trkpt>
      <trkpt lat="35.104252" lon="127.621495"><ele>1146.1</ele></trkpt>
      <trkpt lat="35.104659" lon="127.621482"><ele>1149.7</ele></trkpt>
      <trkpt lat="35.104984" lon="127.621612"><ele>1158.1</ele></trkpt>
      <trkpt lat="35.105301" lon="127.621545"><ele>1168.0</ele></trkpt>
      <trkpt lat="35.105592" lon="127.621602"><ele>1181.4</ele></trkpt>
      <trkpt lat="35.105651" lon="127.621723"><ele>1185.0</ele></trkpt>
      <trkpt lat="35.105776" lon="127.621820"><ele>1189.7</ele></trkpt>
      <trkpt lat="35.105945" lon="127.621814"><ele>1194.1</ele></trkpt>
      <trkpt lat="35.106219" lon="127.621574"><ele>1198.8</ele></trkpt>
      <trkpt lat="35.106319" lon="127.621339"><ele>1196.9</ele></trkpt>
      <trkpt lat="35.106603" lon="127.620946"><ele>1189.2</ele></trkpt>
      <trkpt lat="35.106787" lon="127.620943"><ele>1188.6</ele></trkpt>
      <trkpt lat="35.107021" lon="127.620722"><ele>1183.5</ele></trkpt>
      <trkpt lat="35.107128" lon="127.620275"><ele>1174.9</ele></trkpt>
      <trkpt lat="35.107225" lon="127.620055"><ele>1168.4</ele></trkpt>
      <trkpt lat="35.107598" lon="127.619620"><ele>1161.0</ele></trkpt>
      <trkpt lat="35.107596" lon="127.619386"><ele>1158.9</ele></trkpt>
      <trkpt lat="35.107807" lon="127.619046"><ele>1157.3</ele></trkpt>
      <trkpt lat="35.107892" lon="127.618709"><ele>1156.8</ele></trkpt>
      <trkpt lat="35.108230" lon="127.618375"><ele>1164.9</ele></trkpt>
      <trkpt lat="35.108197" lon="127.618142"><ele>1165.6</ele></trkpt>
      <trkpt lat="35.108252" lon="127.618014"><ele>1168.4</ele></trkpt>
      <trkpt lat="35.108240" lon="127.617867"><ele>1167.7</ele></trkpt>
      <trkpt lat="35.108318" lon="127.617846"><ele>1171.3</ele></trkpt>
      <trkpt lat="35.108529" lon="127.617928"><ele>1175.0</ele></trkpt>
      <trkpt lat="35.108522" lon="127.617801"><ele>1177.0</ele></trkpt>
      <trkpt lat="35.108755" lon="127.617404"><ele>1175.2</ele></trkpt>
      <trkpt lat="35.109221" lon="127.617406"><ele>1169.4</ele></trkpt>
      <trkpt lat="35.109365" lon="127.617374"><ele>1168.4</ele></trkpt>
      <trkpt lat="35.109524" lon="127.617262"><ele>1167.6</ele></trkpt>
      <trkpt lat="35.109689" lon="127.616844"><ele>1164.4</ele></trkpt>
      <trkpt lat="35.109738" lon="127.616808"><ele>1163.8</ele></trkpt>
      <trkpt lat="35.109713" lon="127.616686"><ele>1162.2</ele></trkpt>
      <trkpt lat="35.109758" lon="127.616667"><ele>1161.8</ele></trkpt>
      <trkpt lat="35.109790" lon="127.616750"><ele>1162.4</ele></trkpt>
      <trkpt lat="35.109850" lon="127.616751"><ele>1161.6</ele></trkpt>
      <trkpt lat="35.109939" lon="127.616590"><ele>1159.6</ele></trkpt>
      <trkpt lat="35.109978" lon="127.616243"><ele>1153.4</ele></trkpt>
      <trkpt lat="35.110097" lon="127.616053"><ele>1149.3</ele></trkpt>
      <trkpt lat="35.110234" lon="127.616040"><ele>1151.6</ele></trkpt>
      <trkpt lat="35.110303" lon="127.616103"><ele>1153.1</ele></trkpt>
      <trkpt lat="35.110487" lon="127.616015"><ele>1147.2</ele></trkpt>
      <trkpt lat="35.110566" lon="127.616060"><ele>1145.1</ele></trkpt>
      <trkpt lat="35.110623" lon="127.616029"><ele>1141.5</ele></trkpt>
      <trkpt lat="35.110630" lon="127.615916"><ele>1141.0</ele></trkpt>
      <trkpt lat="35.111170" lon="127.615911"><ele>1119.8</ele></trkpt>
      <trkpt lat="35.111565" lon="127.615632"><ele>1121.1</ele></trkpt>
      <trkpt lat="35.112322" lon="127.615758"><ele>1119.7</ele></trkpt>
    </trkseg>
  </trk>
</gpx>
