<?xml version="1.0" encoding="UTF-8"?>
<gpx version="1.1" creator="kr-100-mountains route-harvester"
     xmlns="http://www.topografix.com/GPX/1/1"
     xmlns:k100="https://github.com/jay-jang/kr-100-mountains/ns/1"
     xmlns:xsi="http://www.w3.org/2001/XMLSchema-instance"
     xsi:schemaLocation="http://www.topografix.com/GPX/1/1 http://www.topografix.com/GPX/1/1/gpx.xsd">
  <metadata>
    <name>금대봉 · 검룡소~금대봉 코스 (대안 1) (OSM 계산 경로)</name>
    <desc>실제 GPS 기록이 아닙니다. OpenStreetMap에 등록된 등산로 선형 위에서 계산한 경로이며, 현장 통제·훼손·출입 제한·계절 통제를 반영하지 않을 수 있습니다. 산행 전 공식 안내를 확인하세요.</desc>
    <time>2026-08-04T05:55:18.609Z</time>
    <link href="https://www.openstreetmap.org/copyright"><text>© OpenStreetMap contributors (ODbL 1.0)</text></link>
    <link href="https://registry.opendata.aws/terrain-tiles/"><text>Elevation: SRTM 1 arc-second (NASA/USGS) via AWS Terrain Tiles</text></link>
    <extensions>
      <k100:provenance>osm-routed</k100:provenance>
      <k100:not_a_recorded_track>true</k100:not_a_recorded_track>
      <k100:mountain_id>geumdaebong</k100:mountain_id>
      <k100:mountain_name>금대봉</k100:mountain_name>
      <k100:route_id>geumdaebong-74155482</k100:route_id>
      <k100:route_index>3</k100:route_index>
      <k100:route_name>검룡소~금대봉 코스</k100:route_name>
      <k100:variant>1</k100:variant>
      <k100:source>OpenStreetMap via Overpass API</k100:source>
      <k100:license>ODbL-1.0</k100:license>
      <k100:attribution>© OpenStreetMap contributors</k100:attribution>
      <k100:elevation_source>SRTM 1 arc-second (NASA/USGS) — AWS Terrain Tiles 배포본. 지형 DEM 추정 고도이며 실측 아님</k100:elevation_source>
      <k100:algorithm>dijkstra-grid-v1</k100:algorithm>
      <k100:osm_snapshot>2026-08-04</k100:osm_snapshot>
      <k100:snap_trailhead_m>4</k100:snap_trailhead_m>
      <k100:snap_summit_m>137</k100:snap_summit_m>
      <k100:validation_score>89</k100:validation_score>
      <k100:validation_status>accepted</k100:validation_status>
    </extensions>
  </metadata>
  <trk>
    <name>금대봉 · 검룡소~금대봉 코스 (대안 1) (OSM 계산 경로)</name>
    <desc>실제 GPS 기록이 아닙니다. OpenStreetMap에 등록된 등산로 선형 위에서 계산한 경로이며, 현장 통제·훼손·출입 제한·계절 통제를 반영하지 않을 수 있습니다. 산행 전 공식 안내를 확인하세요.</desc>
    <trkseg>
      <trkpt lat="37.227040" lon="128.924593"><ele>959.8</ele></trkpt>
      <trkpt lat="37.227238" lon="128.924523"><ele>959.5</ele></trkpt>
      <trkpt lat="37.227711" lon="128.924660"><ele>952.5</ele></trkpt>
      <trkpt lat="37.228923" lon="128.925945"><ele>937.1</ele></trkpt>
      <trkpt lat="37.229158" lon="128.926076"><ele>937.4</ele></trkpt>
      <trkpt lat="37.229446" lon="128.926021"><ele>932.4</ele></trkpt>
      <trkpt lat="37.229732" lon="128.926138"><ele>931.3</ele></trkpt>
      <trkpt lat="37.230211" lon="128.926773"><ele>927.7</ele></trkpt>
      <trkpt lat="37.230316" lon="128.926956"><ele>924.8</ele></trkpt>
      <trkpt lat="37.230356" lon="128.927192"><ele>921.0</ele></trkpt>
      <trkpt lat="37.230538" lon="128.927376"><ele>912.3</ele></trkpt>
      <trkpt lat="37.230668" lon="128.927774"><ele>914.0</ele></trkpt>
      <trkpt lat="37.230736" lon="128.928325"><ele>917.1</ele></trkpt>
      <trkpt lat="37.231082" lon="128.928695"><ele>919.7</ele></trkpt>
      <trkpt lat="37.230935" lon="128.928210"><ele>918.2</ele></trkpt>
      <trkpt lat="37.230933" lon="128.928007"><ele>917.8</ele></trkpt>
      <trkpt lat="37.230810" lon="128.927559"><ele>913.1</ele></trkpt>
      <trkpt lat="37.230826" lon="128.927302"><ele>915.7</ele></trkpt>
      <trkpt lat="37.230920" lon="128.927152"><ele>924.5</ele></trkpt>
      <trkpt lat="37.231003" lon="128.926177"><ele>926.5</ele></trkpt>
      <trkpt lat="37.230984" lon="128.925945"><ele>927.7</ele></trkpt>
      <trkpt lat="37.232096" lon="128.924136"><ele>944.2</ele></trkpt>
      <trkpt lat="37.232104" lon="128.923512"><ele>951.2</ele></trkpt>
      <trkpt lat="37.232150" lon="128.923324"><ele>953.4</ele></trkpt>
      <trkpt lat="37.232656" lon="128.922836"><ele>964.2</ele></trkpt>
      <trkpt lat="37.232812" lon="128.922597"><ele>968.5</ele></trkpt>
      <trkpt lat="37.233021" lon="128.922128"><ele>974.1</ele></trkpt>
      <trkpt lat="37.233370" lon="128.921694"><ele>982.3</ele></trkpt>
      <trkpt lat="37.233576" lon="128.921247"><ele>984.2</ele></trkpt>
      <trkpt lat="37.233781" lon="128.920595"><ele>993.1</ele></trkpt>
      <trkpt lat="37.234098" lon="128.920283"><ele>1002.5</ele></trkpt>
      <trkpt lat="37.234335" lon="128.920151"><ele>1004.9</ele></trkpt>
      <trkpt lat="37.234717" lon="128.920060"><ele>1009.1</ele></trkpt>
      <trkpt lat="37.235136" lon="128.920055"><ele>1017.5</ele></trkpt>
      <trkpt lat="37.235480" lon="128.920202"><ele>1025.6</ele></trkpt>
      <trkpt lat="37.235531" lon="128.920054"><ele>1027.2</ele></trkpt>
      <trkpt lat="37.235507" lon="128.919869"><ele>1029.0</ele></trkpt>
      <trkpt lat="37.235432" lon="128.919708"><ele>1029.7</ele></trkpt>
      <trkpt lat="37.235078" lon="128.919344"><ele>1031.2</ele></trkpt>
      <trkpt lat="37.235059" lon="128.919258"><ele>1033.6</ele></trkpt>
      <trkpt lat="37.235112" lon="128.919065"><ele>1041.4</ele></trkpt>
      <trkpt lat="37.235281" lon="128.918982"><ele>1046.7</ele></trkpt>
      <trkpt lat="37.235932" lon="128.918845"><ele>1060.3</ele></trkpt>
      <trkpt lat="37.236199" lon="128.918687"><ele>1065.0</ele></trkpt>
      <trkpt lat="37.236498" lon="128.918351"><ele>1068.6</ele></trkpt>
      <trkpt lat="37.236520" lon="128.918203"><ele>1068.9</ele></trkpt>
      <trkpt lat="37.235927" lon="128.918096"><ele>1069.6</ele></trkpt>
      <trkpt lat="37.235656" lon="128.917952"><ele>1074.9</ele></trkpt>
      <trkpt lat="37.235018" lon="128.917831"><ele>1083.3</ele></trkpt>
      <trkpt lat="37.233822" lon="128.916879"><ele>1112.2</ele></trkpt>
      <trkpt lat="37.233623" lon="128.916873"><ele>1114.8</ele></trkpt>
      <trkpt lat="37.233378" lon="128.916997"><ele>1115.5</ele></trkpt>
      <trkpt lat="37.232285" lon="128.917125"><ele>1128.7</ele></trkpt>
      <trkpt lat="37.231900" lon="128.917061"><ele>1136.7</ele></trkpt>
      <trkpt lat="37.231430" lon="128.916892"><ele>1142.7</ele></trkpt>
      <trkpt lat="37.231377" lon="128.916935"><ele>1145.0</ele></trkpt>
      <trkpt lat="37.231146" lon="128.916886"><ele>1148.3</ele></trkpt>
      <trkpt lat="37.229621" lon="128.917548"><ele>1156.7</ele></trkpt>
      <trkpt lat="37.229448" lon="128.917506"><ele>1161.7</ele></trkpt>
      <trkpt lat="37.228694" lon="128.917578"><ele>1172.4</ele></trkpt>
      <trkpt lat="37.228246" lon="128.917508"><ele>1176.7</ele></trkpt>
      <trkpt lat="37.227306" lon="128.916936"><ele>1193.8</ele></trkpt>
      <trkpt lat="37.226993" lon="128.916809"><ele>1195.5</ele></trkpt>
      <trkpt lat="37.226764" lon="128.916838"><ele>1196.4</ele></trkpt>
      <trkpt lat="37.226527" lon="128.916635"><ele>1200.5</ele></trkpt>
      <trkpt lat="37.226323" lon="128.916553"><ele>1202.9</ele></trkpt>
      <trkpt lat="37.225347" lon="128.916517"><ele>1208.3</ele></trkpt>
      <trkpt lat="37.225169" lon="128.916589"><ele>1209.6</ele></trkpt>
      <trkpt lat="37.224976" lon="128.916584"><ele>1209.4</ele></trkpt>
      <trkpt lat="37.224651" lon="128.916154"><ele>1207.7</ele></trkpt>
      <trkpt lat="37.223822" lon="128.915604"><ele>1219.3</ele></trkpt>
      <trkpt lat="37.223128" lon="128.914893"><ele>1242.8</ele></trkpt>
      <trkpt lat="37.222666" lon="128.913821"><ele>1262.8</ele></trkpt>
      <trkpt lat="37.221841" lon="128.913150"><ele>1264.4</ele></trkpt>
      <trkpt lat="37.221450" lon="128.912732"><ele>1254.8</ele></trkpt>
      <trkpt lat="37.221207" lon="128.912251"><ele>1246.6</ele></trkpt>
      <trkpt lat="37.220256" lon="128.911748"><ele>1250.7</ele></trkpt>
      <trkpt lat="37.219750" lon="128.911354"><ele>1249.8</ele></trkpt>
      <trkpt lat="37.219407" lon="128.910977"><ele>1250.5</ele></trkpt>
      <trkpt lat="37.219216" lon="128.910900"><ele>1253.8</ele></trkpt>
      <trkpt lat="37.219037" lon="128.910940"><ele>1256.4</ele></trkpt>
      <trkpt lat="37.218682" lon="128.910767"><ele>1264.4</ele></trkpt>
      <trkpt lat="37.218463" lon="128.910765"><ele>1269.9</ele></trkpt>
      <trkpt lat="37.218243" lon="128.910668"><ele>1275.0</ele></trkpt>
      <trkpt lat="37.218098" lon="128.910726"><ele>1275.1</ele></trkpt>
      <trkpt lat="37.217656" lon="128.910716"><ele>1274.4</ele></trkpt>
      <trkpt lat="37.217539" lon="128.910644"><ele>1276.2</ele></trkpt>
      <trkpt lat="37.217321" lon="128.910624"><ele>1276.6</ele></trkpt>
      <trkpt lat="37.216681" lon="128.910305"><ele>1287.0</ele></trkpt>
      <trkpt lat="37.216253" lon="128.910218"><ele>1297.7</ele></trkpt>
      <trkpt lat="37.215809" lon="128.910356"><ele>1303.2</ele></trkpt>
      <trkpt lat="37.215261" lon="128.910633"><ele>1312.9</ele></trkpt>
      <trkpt lat="37.215015" lon="128.910630"><ele>1311.5</ele></trkpt>
      <trkpt lat="37.214687" lon="128.910806"><ele>1306.0</ele></trkpt>
      <trkpt lat="37.214066" lon="128.910989"><ele>1307.2</ele></trkpt>
      <trkpt lat="37.213925" lon="128.911142"><ele>1307.9</ele></trkpt>
      <trkpt lat="37.213708" lon="128.911072"><ele>1310.3</ele></trkpt>
      <trkpt lat="37.213543" lon="128.910932"><ele>1311.2</ele></trkpt>
      <trkpt lat="37.213586" lon="128.911332"><ele>1315.1</ele></trkpt>
      <trkpt lat="37.213543" lon="128.911437"><ele>1317.2</ele></trkpt>
      <trkpt lat="37.213222" lon="128.911710"><ele>1327.0</ele></trkpt>
      <trkpt lat="37.212917" lon="128.911871"><ele>1327.0</ele></trkpt>
      <trkpt lat="37.212795" lon="128.912098"><ele>1326.0</ele></trkpt>
      <trkpt lat="37.212657" lon="128.913011"><ele>1330.1</ele></trkpt>
      <trkpt lat="37.212704" lon="128.913210"><ele>1334.0</ele></trkpt>
      <trkpt lat="37.212647" lon="128.913633"><ele>1344.2</ele></trkpt>
      <trkpt lat="37.212413" lon="128.914292"><ele>1366.2</ele></trkpt>
      <trkpt lat="37.212297" lon="128.914835"><ele>1384.7</ele></trkpt>
      <trkpt lat="37.212000" lon="128.915350"><ele>1409.0</ele></trkpt>
      <trkpt lat="37.211843" lon="128.916003"><ele>1416.0</ele></trkpt>
      <trkpt lat="37.211920" lon="128.916132"><ele>1416.1</ele></trkpt>
      <trkpt lat="37.211929" lon="128.916265"><ele>1412.9</ele></trkpt>
      <trkpt lat="37.212004" lon="128.916318"><ele>1410.3</ele></trkpt>
      <trkpt lat="37.212056" lon="128.916563"><ele>1403.4</ele></trkpt>
      <trkpt lat="37.212241" lon="128.916787"><ele>1398.9</ele></trkpt>
      <trkpt lat="37.212570" lon="128.917533"><ele>1393.9</ele></trkpt>
    </trkseg>
  </trk>
</gpx>
