<?xml version="1.0" encoding="UTF-8"?>
<gpx version="1.1" creator="kr-100-mountains route-harvester"
     xmlns="http://www.topografix.com/GPX/1/1"
     xmlns:k100="https://github.com/jay-jang/kr-100-mountains/ns/1"
     xmlns:xsi="http://www.w3.org/2001/XMLSchema-instance"
     xsi:schemaLocation="http://www.topografix.com/GPX/1/1 http://www.topografix.com/GPX/1/1/gpx.xsd">
  <metadata>
    <name>칠보산 · 각연사-활목고개-정상 원점회귀 코스 (대안 2) (OSM 계산 경로)</name>
    <desc>실제 GPS 기록이 아닙니다. OpenStreetMap에 등록된 등산로 선형 위에서 계산한 경로이며, 현장 통제·훼손·출입 제한·계절 통제를 반영하지 않을 수 있습니다. 산행 전 공식 안내를 확인하세요.</desc>
    <time>2026-08-04T05:29:14.378Z</time>
    <link href="https://www.openstreetmap.org/copyright"><text>© OpenStreetMap contributors (ODbL 1.0)</text></link>
    <link href="https://registry.opendata.aws/terrain-tiles/"><text>Elevation: SRTM 1 arc-second (NASA/USGS) via AWS Terrain Tiles</text></link>
    <extensions>
      <k100:provenance>osm-routed</k100:provenance>
      <k100:not_a_recorded_track>true</k100:not_a_recorded_track>
      <k100:mountain_id>chilbosan-goesan</k100:mountain_id>
      <k100:mountain_name>칠보산(괴산)</k100:mountain_name>
      <k100:route_id>chilbosan-goesan-00f20409</k100:route_id>
      <k100:route_index>2</k100:route_index>
      <k100:route_name>각연사-활목고개-정상 원점회귀 코스</k100:route_name>
      <k100:variant>2</k100:variant>
      <k100:source>OpenStreetMap via Overpass API</k100:source>
      <k100:license>ODbL-1.0</k100:license>
      <k100:attribution>© OpenStreetMap contributors</k100:attribution>
      <k100:elevation_source>SRTM 1 arc-second (NASA/USGS) — AWS Terrain Tiles 배포본. 지형 DEM 추정 고도이며 실측 아님</k100:elevation_source>
      <k100:algorithm>dijkstra-grid-v1</k100:algorithm>
      <k100:osm_snapshot>2026-08-04</k100:osm_snapshot>
      <k100:snap_trailhead_m>59</k100:snap_trailhead_m>
      <k100:snap_summit_m>80</k100:snap_summit_m>
      <k100:validation_score>75</k100:validation_score>
      <k100:validation_status>review</k100:validation_status>
    </extensions>
  </metadata>
  <trk>
    <name>칠보산 · 각연사-활목고개-정상 원점회귀 코스 (대안 2) (OSM 계산 경로)</name>
    <desc>실제 GPS 기록이 아닙니다. OpenStreetMap에 등록된 등산로 선형 위에서 계산한 경로이며, 현장 통제·훼손·출입 제한·계절 통제를 반영하지 않을 수 있습니다. 산행 전 공식 안내를 확인하세요.</desc>
    <trkseg>
      <trkpt lat="36.754393" lon="127.927094"><ele>319.1</ele></trkpt>
      <trkpt lat="36.754183" lon="127.927455"><ele>319.9</ele></trkpt>
      <trkpt lat="36.754116" lon="127.927962"><ele>322.5</ele></trkpt>
      <trkpt lat="36.754002" lon="127.928222"><ele>324.3</ele></trkpt>
      <trkpt lat="36.753733" lon="127.928342"><ele>324.6</ele></trkpt>
      <trkpt lat="36.753520" lon="127.928232"><ele>327.6</ele></trkpt>
      <trkpt lat="36.753443" lon="127.928136"><ele>329.6</ele></trkpt>
      <trkpt lat="36.753374" lon="127.927852"><ele>332.0</ele></trkpt>
      <trkpt lat="36.753211" lon="127.927659"><ele>335.8</ele></trkpt>
      <trkpt lat="36.752760" lon="127.927347"><ele>347.0</ele></trkpt>
      <trkpt lat="36.752570" lon="127.927414"><ele>348.3</ele></trkpt>
      <trkpt lat="36.752173" lon="127.927755"><ele>352.2</ele></trkpt>
      <trkpt lat="36.751861" lon="127.927879"><ele>353.4</ele></trkpt>
      <trkpt lat="36.751204" lon="127.927428"><ele>362.5</ele></trkpt>
      <trkpt lat="36.750774" lon="127.926929"><ele>372.0</ele></trkpt>
      <trkpt lat="36.749996" lon="127.926344"><ele>382.4</ele></trkpt>
      <trkpt lat="36.749446" lon="127.925636"><ele>393.0</ele></trkpt>
      <trkpt lat="36.748784" lon="127.925239"><ele>407.5</ele></trkpt>
      <trkpt lat="36.747937" lon="127.925014"><ele>423.3</ele></trkpt>
      <trkpt lat="36.747494" lon="127.924831"><ele>432.6</ele></trkpt>
      <trkpt lat="36.746966" lon="127.924129"><ele>449.1</ele></trkpt>
      <trkpt lat="36.746867" lon="127.924054"><ele>451.5</ele></trkpt>
      <trkpt lat="36.746291" lon="127.923946"><ele>466.9</ele></trkpt>
      <trkpt lat="36.746089" lon="127.924038"><ele>471.9</ele></trkpt>
      <trkpt lat="36.745388" lon="127.924016"><ele>490.8</ele></trkpt>
      <trkpt lat="36.744950" lon="127.924161"><ele>507.8</ele></trkpt>
      <trkpt lat="36.744584" lon="127.924161"><ele>520.5</ele></trkpt>
      <trkpt lat="36.744038" lon="127.923976"><ele>544.6</ele></trkpt>
      <trkpt lat="36.743506" lon="127.923944"><ele>574.1</ele></trkpt>
      <trkpt lat="36.743428" lon="127.923877"><ele>579.2</ele></trkpt>
      <trkpt lat="36.743247" lon="127.923488"><ele>596.1</ele></trkpt>
      <trkpt lat="36.742964" lon="127.923278"><ele>603.6</ele></trkpt>
      <trkpt lat="36.742966" lon="127.923166"><ele>603.5</ele></trkpt>
      <trkpt lat="36.742889" lon="127.922976"><ele>600.6</ele></trkpt>
      <trkpt lat="36.742789" lon="127.922915"><ele>596.8</ele></trkpt>
      <trkpt lat="36.742705" lon="127.922929"><ele>595.4</ele></trkpt>
      <trkpt lat="36.742601" lon="127.922830"><ele>590.2</ele></trkpt>
      <trkpt lat="36.742558" lon="127.922586"><ele>581.0</ele></trkpt>
      <trkpt lat="36.742435" lon="127.922360"><ele>570.3</ele></trkpt>
      <trkpt lat="36.742455" lon="127.922190"><ele>564.6</ele></trkpt>
      <trkpt lat="36.742363" lon="127.921569"><ele>547.3</ele></trkpt>
      <trkpt lat="36.742379" lon="127.921234"><ele>542.9</ele></trkpt>
      <trkpt lat="36.742310" lon="127.921076"><ele>539.0</ele></trkpt>
      <trkpt lat="36.742230" lon="127.921026"><ele>535.7</ele></trkpt>
      <trkpt lat="36.742018" lon="127.920548"><ele>520.3</ele></trkpt>
      <trkpt lat="36.741974" lon="127.920266"><ele>513.5</ele></trkpt>
      <trkpt lat="36.741591" lon="127.919705"><ele>495.7</ele></trkpt>
      <trkpt lat="36.741347" lon="127.919238"><ele>485.7</ele></trkpt>
      <trkpt lat="36.741061" lon="127.918417"><ele>472.8</ele></trkpt>
      <trkpt lat="36.740935" lon="127.918368"><ele>467.0</ele></trkpt>
      <trkpt lat="36.740882" lon="127.918261"><ele>465.3</ele></trkpt>
      <trkpt lat="36.740425" lon="127.918063"><ele>453.6</ele></trkpt>
      <trkpt lat="36.740147" lon="127.918083"><ele>450.9</ele></trkpt>
      <trkpt lat="36.740027" lon="127.918006"><ele>451.8</ele></trkpt>
      <trkpt lat="36.739886" lon="127.918002"><ele>449.6</ele></trkpt>
      <trkpt lat="36.739477" lon="127.917636"><ele>437.7</ele></trkpt>
      <trkpt lat="36.739238" lon="127.917213"><ele>425.3</ele></trkpt>
      <trkpt lat="36.739085" lon="127.916796"><ele>421.6</ele></trkpt>
      <trkpt lat="36.738894" lon="127.916035"><ele>409.7</ele></trkpt>
      <trkpt lat="36.738899" lon="127.915762"><ele>405.2</ele></trkpt>
      <trkpt lat="36.738990" lon="127.915465"><ele>403.1</ele></trkpt>
      <trkpt lat="36.738969" lon="127.915169"><ele>399.0</ele></trkpt>
      <trkpt lat="36.739044" lon="127.914806"><ele>398.4</ele></trkpt>
      <trkpt lat="36.738711" lon="127.914049"><ele>387.8</ele></trkpt>
      <trkpt lat="36.738519" lon="127.913813"><ele>381.7</ele></trkpt>
      <trkpt lat="36.738504" lon="127.913614"><ele>382.3</ele></trkpt>
      <trkpt lat="36.738100" lon="127.912924"><ele>372.2</ele></trkpt>
      <trkpt lat="36.738074" lon="127.912567"><ele>365.9</ele></trkpt>
      <trkpt lat="36.738145" lon="127.912131"><ele>359.6</ele></trkpt>
      <trkpt lat="36.738462" lon="127.911657"><ele>353.0</ele></trkpt>
      <trkpt lat="36.738636" lon="127.911041"><ele>333.5</ele></trkpt>
      <trkpt lat="36.738572" lon="127.910589"><ele>322.4</ele></trkpt>
      <trkpt lat="36.738712" lon="127.910360"><ele>324.1</ele></trkpt>
      <trkpt lat="36.738723" lon="127.910267"><ele>323.0</ele></trkpt>
      <trkpt lat="36.738611" lon="127.909682"><ele>309.7</ele></trkpt>
      <trkpt lat="36.738749" lon="127.909031"><ele>304.3</ele></trkpt>
      <trkpt lat="36.738725" lon="127.908714"><ele>301.2</ele></trkpt>
      <trkpt lat="36.738636" lon="127.908613"><ele>299.4</ele></trkpt>
      <trkpt lat="36.738599" lon="127.908406"><ele>300.0</ele></trkpt>
      <trkpt lat="36.738715" lon="127.907855"><ele>295.9</ele></trkpt>
      <trkpt lat="36.738756" lon="127.907196"><ele>284.6</ele></trkpt>
      <trkpt lat="36.738951" lon="127.906422"><ele>280.0</ele></trkpt>
      <trkpt lat="36.739146" lon="127.906298"><ele>279.0</ele></trkpt>
      <trkpt lat="36.739301" lon="127.905911"><ele>277.6</ele></trkpt>
      <trkpt lat="36.739342" lon="127.905658"><ele>274.6</ele></trkpt>
      <trkpt lat="36.739257" lon="127.905243"><ele>267.1</ele></trkpt>
      <trkpt lat="36.739337" lon="127.904646"><ele>260.3</ele></trkpt>
      <trkpt lat="36.739315" lon="127.904250"><ele>248.0</ele></trkpt>
      <trkpt lat="36.739219" lon="127.903690"><ele>242.1</ele></trkpt>
      <trkpt lat="36.739004" lon="127.903770"><ele>242.8</ele></trkpt>
      <trkpt lat="36.738877" lon="127.903531"><ele>244.5</ele></trkpt>
      <trkpt lat="36.738560" lon="127.903635"><ele>242.8</ele></trkpt>
      <trkpt lat="36.737505" lon="127.903813"><ele>243.3</ele></trkpt>
      <trkpt lat="36.737180" lon="127.903780"><ele>245.5</ele></trkpt>
      <trkpt lat="36.736390" lon="127.903570"><ele>253.6</ele></trkpt>
      <trkpt lat="36.735329" lon="127.903452"><ele>260.4</ele></trkpt>
      <trkpt lat="36.734817" lon="127.903484"><ele>262.6</ele></trkpt>
      <trkpt lat="36.734450" lon="127.903647"><ele>264.8</ele></trkpt>
      <trkpt lat="36.733723" lon="127.904224"><ele>271.6</ele></trkpt>
      <trkpt lat="36.733297" lon="127.904636"><ele>274.9</ele></trkpt>
      <trkpt lat="36.733110" lon="127.904946"><ele>276.6</ele></trkpt>
      <trkpt lat="36.733000" lon="127.905380"><ele>279.0</ele></trkpt>
      <trkpt lat="36.733000" lon="127.905740"><ele>277.1</ele></trkpt>
      <trkpt lat="36.733130" lon="127.907060"><ele>268.8</ele></trkpt>
      <trkpt lat="36.732980" lon="127.907760"><ele>265.1</ele></trkpt>
      <trkpt lat="36.732882" lon="127.907912"><ele>266.3</ele></trkpt>
      <trkpt lat="36.732620" lon="127.908100"><ele>267.3</ele></trkpt>
      <trkpt lat="36.732044" lon="127.908356"><ele>267.1</ele></trkpt>
      <trkpt lat="36.731542" lon="127.908674"><ele>269.1</ele></trkpt>
      <trkpt lat="36.731323" lon="127.908741"><ele>270.2</ele></trkpt>
      <trkpt lat="36.730755" lon="127.908772"><ele>272.2</ele></trkpt>
      <trkpt lat="36.730209" lon="127.909119"><ele>274.2</ele></trkpt>
      <trkpt lat="36.729568" lon="127.909358"><ele>284.2</ele></trkpt>
      <trkpt lat="36.729619" lon="127.909505"><ele>285.7</ele></trkpt>
      <trkpt lat="36.729555" lon="127.909688"><ele>289.5</ele></trkpt>
      <trkpt lat="36.729220" lon="127.909838"><ele>297.3</ele></trkpt>
      <trkpt lat="36.729031" lon="127.909790"><ele>301.0</ele></trkpt>
      <trkpt lat="36.728605" lon="127.910181"><ele>315.4</ele></trkpt>
      <trkpt lat="36.728480" lon="127.910224"><ele>317.6</ele></trkpt>
      <trkpt lat="36.728239" lon="127.910165"><ele>322.4</ele></trkpt>
      <trkpt lat="36.728115" lon="127.910246"><ele>326.3</ele></trkpt>
      <trkpt lat="36.727921" lon="127.910235"><ele>332.8</ele></trkpt>
      <trkpt lat="36.727177" lon="127.909983"><ele>359.7</ele></trkpt>
      <trkpt lat="36.726859" lon="127.909993"><ele>372.0</ele></trkpt>
      <trkpt lat="36.726679" lon="127.910026"><ele>378.8</ele></trkpt>
      <trkpt lat="36.726494" lon="127.910138"><ele>387.3</ele></trkpt>
      <trkpt lat="36.726421" lon="127.910262"><ele>393.1</ele></trkpt>
      <trkpt lat="36.726163" lon="127.910433"><ele>400.3</ele></trkpt>
      <trkpt lat="36.726115" lon="127.910605"><ele>403.0</ele></trkpt>
      <trkpt lat="36.725965" lon="127.910659"><ele>408.9</ele></trkpt>
      <trkpt lat="36.725810" lon="127.910519"><ele>411.8</ele></trkpt>
      <trkpt lat="36.725303" lon="127.910761"><ele>433.2</ele></trkpt>
      <trkpt lat="36.725114" lon="127.911023"><ele>445.9</ele></trkpt>
      <trkpt lat="36.725127" lon="127.911490"><ele>467.9</ele></trkpt>
      <trkpt lat="36.724967" lon="127.912118"><ele>496.8</ele></trkpt>
      <trkpt lat="36.724391" lon="127.913148"><ele>535.4</ele></trkpt>
      <trkpt lat="36.724086" lon="127.913320"><ele>547.2</ele></trkpt>
      <trkpt lat="36.723828" lon="127.913593"><ele>559.5</ele></trkpt>
      <trkpt lat="36.723729" lon="127.913625"><ele>561.1</ele></trkpt>
      <trkpt lat="36.723462" lon="127.913523"><ele>565.5</ele></trkpt>
      <trkpt lat="36.723243" lon="127.913614"><ele>570.9</ele></trkpt>
      <trkpt lat="36.722620" lon="127.913518"><ele>576.3</ele></trkpt>
      <trkpt lat="36.722413" lon="127.913636"><ele>578.2</ele></trkpt>
      <trkpt lat="36.722198" lon="127.913899"><ele>582.7</ele></trkpt>
      <trkpt lat="36.722160" lon="127.914392"><ele>579.0</ele></trkpt>
      <trkpt lat="36.721966" lon="127.914639"><ele>578.1</ele></trkpt>
      <trkpt lat="36.721519" lon="127.915996"><ele>593.8</ele></trkpt>
      <trkpt lat="36.721399" lon="127.916195"><ele>601.2</ele></trkpt>
      <trkpt lat="36.721162" lon="127.917391"><ele>612.2</ele></trkpt>
      <trkpt lat="36.720483" lon="127.918003"><ele>605.9</ele></trkpt>
      <trkpt lat="36.720293" lon="127.918260"><ele>606.8</ele></trkpt>
      <trkpt lat="36.720233" lon="127.918442"><ele>604.1</ele></trkpt>
      <trkpt lat="36.719683" lon="127.918678"><ele>603.3</ele></trkpt>
      <trkpt lat="36.719253" lon="127.918464"><ele>604.6</ele></trkpt>
      <trkpt lat="36.719012" lon="127.918507"><ele>604.2</ele></trkpt>
      <trkpt lat="36.718505" lon="127.918936"><ele>613.2</ele></trkpt>
      <trkpt lat="36.718100" lon="127.919033"><ele>627.3</ele></trkpt>
      <trkpt lat="36.717903" lon="127.919140"><ele>633.4</ele></trkpt>
      <trkpt lat="36.717688" lon="127.919462"><ele>641.4</ele></trkpt>
      <trkpt lat="36.717232" lon="127.919623"><ele>645.9</ele></trkpt>
      <trkpt lat="36.716750" lon="127.919676"><ele>653.5</ele></trkpt>
      <trkpt lat="36.716535" lon="127.919794"><ele>658.0</ele></trkpt>
      <trkpt lat="36.716157" lon="127.920277"><ele>669.5</ele></trkpt>
      <trkpt lat="36.715800" lon="127.920309"><ele>678.3</ele></trkpt>
      <trkpt lat="36.715447" lon="127.920197"><ele>684.1</ele></trkpt>
      <trkpt lat="36.715211" lon="127.920277"><ele>686.3</ele></trkpt>
      <trkpt lat="36.714686" lon="127.920197"><ele>683.7</ele></trkpt>
      <trkpt lat="36.714574" lon="127.920256"><ele>683.7</ele></trkpt>
      <trkpt lat="36.714312" lon="127.920610"><ele>673.3</ele></trkpt>
      <trkpt lat="36.714140" lon="127.920985"><ele>664.6</ele></trkpt>
      <trkpt lat="36.714063" lon="127.921345"><ele>660.7</ele></trkpt>
      <trkpt lat="36.713938" lon="127.921640"><ele>659.6</ele></trkpt>
      <trkpt lat="36.713615" lon="127.922069"><ele>654.1</ele></trkpt>
      <trkpt lat="36.713564" lon="127.922396"><ele>647.0</ele></trkpt>
      <trkpt lat="36.713426" lon="127.922643"><ele>641.3</ele></trkpt>
      <trkpt lat="36.712695" lon="127.924789"><ele>670.1</ele></trkpt>
      <trkpt lat="36.712592" lon="127.924976"><ele>670.8</ele></trkpt>
      <trkpt lat="36.712459" lon="127.925014"><ele>669.2</ele></trkpt>
      <trkpt lat="36.711594" lon="127.925647"><ele>666.9</ele></trkpt>
      <trkpt lat="36.711242" lon="127.925776"><ele>670.5</ele></trkpt>
      <trkpt lat="36.710764" lon="127.926215"><ele>668.0</ele></trkpt>
      <trkpt lat="36.710343" lon="127.926940"><ele>673.9</ele></trkpt>
      <trkpt lat="36.709934" lon="127.927342"><ele>675.1</ele></trkpt>
      <trkpt lat="36.709595" lon="127.927562"><ele>681.5</ele></trkpt>
      <trkpt lat="36.709276" lon="127.927648"><ele>688.3</ele></trkpt>
      <trkpt lat="36.709057" lon="127.927943"><ele>697.2</ele></trkpt>
      <trkpt lat="36.708567" lon="127.928286"><ele>703.9</ele></trkpt>
      <trkpt lat="36.708369" lon="127.928356"><ele>705.2</ele></trkpt>
      <trkpt lat="36.707900" lon="127.929107"><ele>719.3</ele></trkpt>
      <trkpt lat="36.707805" lon="127.929740"><ele>726.3</ele></trkpt>
      <trkpt lat="36.707694" lon="127.930105"><ele>725.0</ele></trkpt>
      <trkpt lat="36.707444" lon="127.930491"><ele>731.2</ele></trkpt>
      <trkpt lat="36.707152" lon="127.931135"><ele>746.2</ele></trkpt>
      <trkpt lat="36.707238" lon="127.931843"><ele>764.0</ele></trkpt>
      <trkpt lat="36.707014" lon="127.932068"><ele>769.3</ele></trkpt>
      <trkpt lat="36.706529" lon="127.932234"><ele>773.9</ele></trkpt>
      <trkpt lat="36.706459" lon="127.933363"><ele>756.9</ele></trkpt>
      <trkpt lat="36.706308" lon="127.933616"><ele>757.6</ele></trkpt>
      <trkpt lat="36.706070" lon="127.933833"><ele>760.8</ele></trkpt>
      <trkpt lat="36.705997" lon="127.934180"><ele>768.7</ele></trkpt>
      <trkpt lat="36.705854" lon="127.934461"><ele>772.0</ele></trkpt>
      <trkpt lat="36.705900" lon="127.934556"><ele>771.2</ele></trkpt>
      <trkpt lat="36.705201" lon="127.935208"><ele>790.2</ele></trkpt>
      <trkpt lat="36.705103" lon="127.935489"><ele>786.5</ele></trkpt>
      <trkpt lat="36.705161" lon="127.935854"><ele>769.6</ele></trkpt>
      <trkpt lat="36.705391" lon="127.936166"><ele>761.5</ele></trkpt>
      <trkpt lat="36.705380" lon="127.936416"><ele>756.4</ele></trkpt>
      <trkpt lat="36.705586" lon="127.936802"><ele>751.7</ele></trkpt>
      <trkpt lat="36.705651" lon="127.937209"><ele>755.4</ele></trkpt>
      <trkpt lat="36.705608" lon="127.937701"><ele>762.5</ele></trkpt>
      <trkpt lat="36.705683" lon="127.938944"><ele>773.0</ele></trkpt>
      <trkpt lat="36.705651" lon="127.939264"><ele>773.2</ele></trkpt>
      <trkpt lat="36.705717" lon="127.939565"><ele>773.3</ele></trkpt>
      <trkpt lat="36.705776" lon="127.939688"><ele>773.6</ele></trkpt>
      <trkpt lat="36.705943" lon="127.939739"><ele>776.7</ele></trkpt>
      <trkpt lat="36.705937" lon="127.939836"><ele>771.2</ele></trkpt>
      <trkpt lat="36.706021" lon="127.939860"><ele>772.1</ele></trkpt>
      <trkpt lat="36.706197" lon="127.940074"><ele>768.0</ele></trkpt>
      <trkpt lat="36.706214" lon="127.940192"><ele>762.9</ele></trkpt>
      <trkpt lat="36.706276" lon="127.940239"><ele>761.9</ele></trkpt>
      <trkpt lat="36.706371" lon="127.940466"><ele>756.3</ele></trkpt>
      <trkpt lat="36.706296" lon="127.940820"><ele>752.0</ele></trkpt>
      <trkpt lat="36.706322" lon="127.941528"><ele>760.4</ele></trkpt>
      <trkpt lat="36.706270" lon="127.941917"><ele>762.8</ele></trkpt>
      <trkpt lat="36.706164" lon="127.942173"><ele>767.9</ele></trkpt>
      <trkpt lat="36.706154" lon="127.942321"><ele>773.0</ele></trkpt>
      <trkpt lat="36.706221" lon="127.942396"><ele>776.4</ele></trkpt>
      <trkpt lat="36.706006" lon="127.942884"><ele>789.7</ele></trkpt>
      <trkpt lat="36.706058" lon="127.943113"><ele>795.7</ele></trkpt>
      <trkpt lat="36.705998" lon="127.943313"><ele>798.6</ele></trkpt>
      <trkpt lat="36.705782" lon="127.943575"><ele>803.7</ele></trkpt>
      <trkpt lat="36.705784" lon="127.943722"><ele>807.0</ele></trkpt>
      <trkpt lat="36.705638" lon="127.943948"><ele>809.0</ele></trkpt>
      <trkpt lat="36.705655" lon="127.944021"><ele>809.9</ele></trkpt>
      <trkpt lat="36.705581" lon="127.944103"><ele>812.0</ele></trkpt>
      <trkpt lat="36.705527" lon="127.944300"><ele>817.3</ele></trkpt>
      <trkpt lat="36.705294" lon="127.944504"><ele>829.7</ele></trkpt>
      <trkpt lat="36.705276" lon="127.944606"><ele>832.5</ele></trkpt>
      <trkpt lat="36.704933" lon="127.944983"><ele>846.0</ele></trkpt>
      <trkpt lat="36.704903" lon="127.945064"><ele>848.0</ele></trkpt>
      <trkpt lat="36.704953" lon="127.945329"><ele>852.4</ele></trkpt>
      <trkpt lat="36.704882" lon="127.945538"><ele>857.5</ele></trkpt>
      <trkpt lat="36.704761" lon="127.945694"><ele>864.0</ele></trkpt>
      <trkpt lat="36.704587" lon="127.945806"><ele>867.9</ele></trkpt>
      <trkpt lat="36.704322" lon="127.946391"><ele>855.3</ele></trkpt>
      <trkpt lat="36.704711" lon="127.946843"><ele>837.4</ele></trkpt>
      <trkpt lat="36.704916" lon="127.946955"><ele>831.0</ele></trkpt>
      <trkpt lat="36.705072" lon="127.947165"><ele>826.1</ele></trkpt>
      <trkpt lat="36.705138" lon="127.947608"><ele>824.0</ele></trkpt>
      <trkpt lat="36.705190" lon="127.947703"><ele>825.7</ele></trkpt>
      <trkpt lat="36.705235" lon="127.947733"><ele>827.8</ele></trkpt>
      <trkpt lat="36.705266" lon="127.947669"><ele>829.4</ele></trkpt>
      <trkpt lat="36.705445" lon="127.947643"><ele>831.9</ele></trkpt>
      <trkpt lat="36.705587" lon="127.947861"><ele>835.8</ele></trkpt>
      <trkpt lat="36.705602" lon="127.948234"><ele>836.3</ele></trkpt>
      <trkpt lat="36.705519" lon="127.948730"><ele>839.3</ele></trkpt>
      <trkpt lat="36.705380" lon="127.948706"><ele>834.9</ele></trkpt>
      <trkpt lat="36.704836" lon="127.949095"><ele>822.8</ele></trkpt>
      <trkpt lat="36.704702" lon="127.949249"><ele>822.7</ele></trkpt>
      <trkpt lat="36.704399" lon="127.949958"><ele>824.9</ele></trkpt>
      <trkpt lat="36.704197" lon="127.950272"><ele>828.8</ele></trkpt>
      <trkpt lat="36.703990" lon="127.950531"><ele>833.8</ele></trkpt>
      <trkpt lat="36.703797" lon="127.950586"><ele>832.6</ele></trkpt>
      <trkpt lat="36.703350" lon="127.950945"><ele>829.7</ele></trkpt>
      <trkpt lat="36.703240" lon="127.951106"><ele>829.8</ele></trkpt>
      <trkpt lat="36.703150" lon="127.951420"><ele>834.9</ele></trkpt>
      <trkpt lat="36.703030" lon="127.951630"><ele>840.4</ele></trkpt>
      <trkpt lat="36.703087" lon="127.952416"><ele>861.7</ele></trkpt>
      <trkpt lat="36.702743" lon="127.953347"><ele>852.4</ele></trkpt>
      <trkpt lat="36.702425" lon="127.953840"><ele>856.6</ele></trkpt>
      <trkpt lat="36.702275" lon="127.954242"><ele>868.7</ele></trkpt>
      <trkpt lat="36.702081" lon="127.954577"><ele>879.0</ele></trkpt>
      <trkpt lat="36.702083" lon="127.954816"><ele>885.9</ele></trkpt>
      <trkpt lat="36.702260" lon="127.955217"><ele>895.5</ele></trkpt>
      <trkpt lat="36.702030" lon="127.955538"><ele>895.2</ele></trkpt>
      <trkpt lat="36.701724" lon="127.956240"><ele>893.4</ele></trkpt>
      <trkpt lat="36.701397" lon="127.956815"><ele>888.9</ele></trkpt>
      <trkpt lat="36.701333" lon="127.956879"><ele>887.0</ele></trkpt>
      <trkpt lat="36.701189" lon="127.956860"><ele>887.6</ele></trkpt>
      <trkpt lat="36.701066" lon="127.956777"><ele>888.3</ele></trkpt>
      <trkpt lat="36.700743" lon="127.956831"><ele>889.1</ele></trkpt>
      <trkpt lat="36.700301" lon="127.956392"><ele>883.9</ele></trkpt>
      <trkpt lat="36.699848" lon="127.956293"><ele>878.5</ele></trkpt>
      <trkpt lat="36.699697" lon="127.956322"><ele>876.8</ele></trkpt>
      <trkpt lat="36.699514" lon="127.955951"><ele>863.6</ele></trkpt>
      <trkpt lat="36.699350" lon="127.955382"><ele>838.9</ele></trkpt>
    </trkseg>
  </trk>
</gpx>
