<?xml version="1.0" encoding="UTF-8"?>
<gpx version="1.1" creator="kr-100-mountains route-harvester"
     xmlns="http://www.topografix.com/GPX/1/1"
     xmlns:k100="https://github.com/jay-jang/kr-100-mountains/ns/1"
     xmlns:xsi="http://www.w3.org/2001/XMLSchema-instance"
     xsi:schemaLocation="http://www.topografix.com/GPX/1/1 http://www.topografix.com/GPX/1/1/gpx.xsd">
  <metadata>
    <name>칠보산 · 떡바위-청석재-정상 코스 (OSM 계산 경로)</name>
    <desc>실제 GPS 기록이 아닙니다. OpenStreetMap에 등록된 등산로 선형 위에서 계산한 경로이며, 현장 통제·훼손·출입 제한·계절 통제를 반영하지 않을 수 있습니다. 산행 전 공식 안내를 확인하세요.</desc>
    <time>2026-08-04T05:29:14.349Z</time>
    <link href="https://www.openstreetmap.org/copyright"><text>© OpenStreetMap contributors (ODbL 1.0)</text></link>
    <link href="https://registry.opendata.aws/terrain-tiles/"><text>Elevation: SRTM 1 arc-second (NASA/USGS) via AWS Terrain Tiles</text></link>
    <extensions>
      <k100:provenance>osm-routed</k100:provenance>
      <k100:not_a_recorded_track>true</k100:not_a_recorded_track>
      <k100:mountain_id>chilbosan-goesan</k100:mountain_id>
      <k100:mountain_name>칠보산(괴산)</k100:mountain_name>
      <k100:route_id>chilbosan-goesan-13178a40</k100:route_id>
      <k100:route_index>1</k100:route_index>
      <k100:route_name>떡바위-청석재-정상 코스</k100:route_name>
      <k100:variant>0</k100:variant>
      <k100:source>OpenStreetMap via Overpass API</k100:source>
      <k100:license>ODbL-1.0</k100:license>
      <k100:attribution>© OpenStreetMap contributors</k100:attribution>
      <k100:elevation_source>SRTM 1 arc-second (NASA/USGS) — AWS Terrain Tiles 배포본. 지형 DEM 추정 고도이며 실측 아님</k100:elevation_source>
      <k100:algorithm>dijkstra-grid-v1</k100:algorithm>
      <k100:osm_snapshot>2026-08-04</k100:osm_snapshot>
      <k100:snap_trailhead_m>14</k100:snap_trailhead_m>
      <k100:snap_summit_m>80</k100:snap_summit_m>
      <k100:validation_score>75</k100:validation_score>
      <k100:validation_status>review</k100:validation_status>
    </extensions>
  </metadata>
  <trk>
    <name>칠보산 · 떡바위-청석재-정상 코스 (OSM 계산 경로)</name>
    <desc>실제 GPS 기록이 아닙니다. OpenStreetMap에 등록된 등산로 선형 위에서 계산한 경로이며, 현장 통제·훼손·출입 제한·계절 통제를 반영하지 않을 수 있습니다. 산행 전 공식 안내를 확인하세요.</desc>
    <trkseg>
      <trkpt lat="36.728209" lon="127.916852"><ele>303.0</ele></trkpt>
      <trkpt lat="36.728310" lon="127.916873"><ele>300.7</ele></trkpt>
      <trkpt lat="36.728468" lon="127.917101"><ele>301.8</ele></trkpt>
      <trkpt lat="36.728351" lon="127.917339"><ele>302.0</ele></trkpt>
      <trkpt lat="36.728290" lon="127.917653"><ele>303.2</ele></trkpt>
      <trkpt lat="36.728465" lon="127.918112"><ele>305.0</ele></trkpt>
      <trkpt lat="36.728413" lon="127.918218"><ele>304.3</ele></trkpt>
      <trkpt lat="36.728246" lon="127.918366"><ele>304.7</ele></trkpt>
      <trkpt lat="36.728319" lon="127.918803"><ele>310.0</ele></trkpt>
      <trkpt lat="36.728383" lon="127.918931"><ele>311.6</ele></trkpt>
      <trkpt lat="36.728321" lon="127.919264"><ele>314.1</ele></trkpt>
      <trkpt lat="36.728387" lon="127.919412"><ele>313.6</ele></trkpt>
      <trkpt lat="36.728348" lon="127.919786"><ele>314.7</ele></trkpt>
      <trkpt lat="36.728279" lon="127.919878"><ele>314.7</ele></trkpt>
      <trkpt lat="36.727997" lon="127.919888"><ele>316.7</ele></trkpt>
      <trkpt lat="36.727931" lon="127.920022"><ele>317.3</ele></trkpt>
      <trkpt lat="36.727960" lon="127.920415"><ele>317.6</ele></trkpt>
      <trkpt lat="36.727931" lon="127.920674"><ele>318.9</ele></trkpt>
      <trkpt lat="36.728086" lon="127.921457"><ele>320.9</ele></trkpt>
      <trkpt lat="36.728066" lon="127.921837"><ele>323.4</ele></trkpt>
      <trkpt lat="36.727824" lon="127.921968"><ele>325.1</ele></trkpt>
      <trkpt lat="36.727787" lon="127.922043"><ele>326.0</ele></trkpt>
      <trkpt lat="36.727308" lon="127.921758"><ele>328.4</ele></trkpt>
      <trkpt lat="36.726768" lon="127.921975"><ele>333.9</ele></trkpt>
      <trkpt lat="36.726739" lon="127.922173"><ele>334.0</ele></trkpt>
      <trkpt lat="36.726148" lon="127.922569"><ele>337.6</ele></trkpt>
      <trkpt lat="36.725819" lon="127.923092"><ele>345.8</ele></trkpt>
      <trkpt lat="36.725635" lon="127.923247"><ele>352.4</ele></trkpt>
      <trkpt lat="36.725015" lon="127.923490"><ele>353.6</ele></trkpt>
      <trkpt lat="36.724291" lon="127.923988"><ele>358.7</ele></trkpt>
      <trkpt lat="36.723916" lon="127.924693"><ele>366.2</ele></trkpt>
      <trkpt lat="36.723416" lon="127.925025"><ele>367.3</ele></trkpt>
      <trkpt lat="36.722955" lon="127.925769"><ele>374.6</ele></trkpt>
      <trkpt lat="36.722540" lon="127.926308"><ele>377.2</ele></trkpt>
      <trkpt lat="36.721881" lon="127.926615"><ele>387.7</ele></trkpt>
      <trkpt lat="36.721422" lon="127.927047"><ele>393.7</ele></trkpt>
      <trkpt lat="36.720863" lon="127.927715"><ele>398.8</ele></trkpt>
      <trkpt lat="36.720641" lon="127.928053"><ele>402.3</ele></trkpt>
      <trkpt lat="36.720450" lon="127.928234"><ele>406.0</ele></trkpt>
      <trkpt lat="36.720070" lon="127.928791"><ele>409.7</ele></trkpt>
      <trkpt lat="36.719964" lon="127.928892"><ele>409.8</ele></trkpt>
      <trkpt lat="36.719858" lon="127.928909"><ele>412.2</ele></trkpt>
      <trkpt lat="36.719716" lon="127.929072"><ele>414.6</ele></trkpt>
      <trkpt lat="36.718987" lon="127.930214"><ele>428.2</ele></trkpt>
      <trkpt lat="36.718732" lon="127.930739"><ele>430.8</ele></trkpt>
      <trkpt lat="36.718370" lon="127.931170"><ele>438.2</ele></trkpt>
      <trkpt lat="36.718283" lon="127.931400"><ele>440.3</ele></trkpt>
      <trkpt lat="36.717845" lon="127.932048"><ele>445.0</ele></trkpt>
      <trkpt lat="36.717890" lon="127.932194"><ele>446.9</ele></trkpt>
      <trkpt lat="36.717875" lon="127.932320"><ele>448.7</ele></trkpt>
      <trkpt lat="36.717770" lon="127.932677"><ele>453.8</ele></trkpt>
      <trkpt lat="36.717499" lon="127.933226"><ele>461.7</ele></trkpt>
      <trkpt lat="36.716855" lon="127.933854"><ele>467.3</ele></trkpt>
      <trkpt lat="36.716613" lon="127.934172"><ele>468.2</ele></trkpt>
      <trkpt lat="36.716524" lon="127.934205"><ele>470.2</ele></trkpt>
      <trkpt lat="36.716335" lon="127.934517"><ele>473.3</ele></trkpt>
      <trkpt lat="36.716073" lon="127.934795"><ele>479.1</ele></trkpt>
      <trkpt lat="36.715905" lon="127.935158"><ele>484.8</ele></trkpt>
      <trkpt lat="36.715555" lon="127.935720"><ele>492.9</ele></trkpt>
      <trkpt lat="36.714658" lon="127.936467"><ele>513.7</ele></trkpt>
      <trkpt lat="36.714609" lon="127.936720"><ele>512.7</ele></trkpt>
      <trkpt lat="36.714358" lon="127.937090"><ele>517.4</ele></trkpt>
      <trkpt lat="36.713960" lon="127.937887"><ele>527.3</ele></trkpt>
      <trkpt lat="36.713522" lon="127.938256"><ele>538.8</ele></trkpt>
      <trkpt lat="36.713259" lon="127.938774"><ele>545.4</ele></trkpt>
      <trkpt lat="36.713062" lon="127.938987"><ele>550.9</ele></trkpt>
      <trkpt lat="36.712402" lon="127.940035"><ele>563.7</ele></trkpt>
      <trkpt lat="36.712166" lon="127.940256"><ele>568.4</ele></trkpt>
      <trkpt lat="36.711635" lon="127.941322"><ele>581.7</ele></trkpt>
      <trkpt lat="36.711062" lon="127.941865"><ele>596.4</ele></trkpt>
      <trkpt lat="36.710661" lon="127.942132"><ele>604.1</ele></trkpt>
      <trkpt lat="36.710158" lon="127.942855"><ele>622.3</ele></trkpt>
      <trkpt lat="36.709924" lon="127.942995"><ele>627.2</ele></trkpt>
      <trkpt lat="36.709537" lon="127.943703"><ele>643.3</ele></trkpt>
      <trkpt lat="36.709229" lon="127.944023"><ele>653.4</ele></trkpt>
      <trkpt lat="36.709068" lon="127.944055"><ele>658.7</ele></trkpt>
      <trkpt lat="36.708850" lon="127.944278"><ele>667.7</ele></trkpt>
      <trkpt lat="36.708448" lon="127.944253"><ele>680.4</ele></trkpt>
      <trkpt lat="36.708232" lon="127.944407"><ele>689.2</ele></trkpt>
      <trkpt lat="36.707769" lon="127.945101"><ele>700.9</ele></trkpt>
      <trkpt lat="36.707580" lon="127.945270"><ele>704.8</ele></trkpt>
      <trkpt lat="36.707116" lon="127.945536"><ele>728.9</ele></trkpt>
      <trkpt lat="36.706644" lon="127.945966"><ele>754.1</ele></trkpt>
      <trkpt lat="36.706378" lon="127.946405"><ele>768.4</ele></trkpt>
      <trkpt lat="36.706185" lon="127.946524"><ele>780.9</ele></trkpt>
      <trkpt lat="36.706022" lon="127.946722"><ele>796.5</ele></trkpt>
      <trkpt lat="36.705726" lon="127.946912"><ele>814.2</ele></trkpt>
      <trkpt lat="36.705335" lon="127.946921"><ele>822.8</ele></trkpt>
      <trkpt lat="36.705072" lon="127.947165"><ele>826.1</ele></trkpt>
      <trkpt lat="36.705138" lon="127.947608"><ele>824.0</ele></trkpt>
      <trkpt lat="36.705190" lon="127.947703"><ele>825.7</ele></trkpt>
      <trkpt lat="36.705235" lon="127.947733"><ele>827.8</ele></trkpt>
      <trkpt lat="36.705266" lon="127.947669"><ele>829.4</ele></trkpt>
      <trkpt lat="36.705445" lon="127.947643"><ele>831.9</ele></trkpt>
      <trkpt lat="36.705587" lon="127.947861"><ele>835.8</ele></trkpt>
      <trkpt lat="36.705602" lon="127.948234"><ele>836.3</ele></trkpt>
      <trkpt lat="36.705519" lon="127.948730"><ele>839.3</ele></trkpt>
      <trkpt lat="36.705380" lon="127.948706"><ele>834.9</ele></trkpt>
      <trkpt lat="36.704836" lon="127.949095"><ele>822.8</ele></trkpt>
      <trkpt lat="36.704702" lon="127.949249"><ele>822.7</ele></trkpt>
      <trkpt lat="36.704399" lon="127.949958"><ele>824.9</ele></trkpt>
      <trkpt lat="36.704197" lon="127.950272"><ele>828.8</ele></trkpt>
      <trkpt lat="36.703990" lon="127.950531"><ele>833.8</ele></trkpt>
      <trkpt lat="36.703797" lon="127.950586"><ele>832.6</ele></trkpt>
      <trkpt lat="36.703350" lon="127.950945"><ele>829.7</ele></trkpt>
      <trkpt lat="36.703240" lon="127.951106"><ele>829.8</ele></trkpt>
      <trkpt lat="36.703150" lon="127.951420"><ele>834.9</ele></trkpt>
      <trkpt lat="36.703030" lon="127.951630"><ele>840.4</ele></trkpt>
      <trkpt lat="36.703087" lon="127.952416"><ele>861.7</ele></trkpt>
      <trkpt lat="36.702743" lon="127.953347"><ele>852.4</ele></trkpt>
      <trkpt lat="36.702425" lon="127.953840"><ele>856.6</ele></trkpt>
      <trkpt lat="36.702275" lon="127.954242"><ele>868.7</ele></trkpt>
      <trkpt lat="36.702081" lon="127.954577"><ele>879.0</ele></trkpt>
      <trkpt lat="36.702083" lon="127.954816"><ele>885.9</ele></trkpt>
      <trkpt lat="36.702260" lon="127.955217"><ele>895.5</ele></trkpt>
      <trkpt lat="36.702030" lon="127.955538"><ele>895.2</ele></trkpt>
      <trkpt lat="36.701724" lon="127.956240"><ele>893.4</ele></trkpt>
      <trkpt lat="36.701397" lon="127.956815"><ele>888.9</ele></trkpt>
      <trkpt lat="36.701333" lon="127.956879"><ele>887.0</ele></trkpt>
      <trkpt lat="36.701189" lon="127.956860"><ele>887.6</ele></trkpt>
      <trkpt lat="36.701066" lon="127.956777"><ele>888.3</ele></trkpt>
      <trkpt lat="36.700743" lon="127.956831"><ele>889.1</ele></trkpt>
      <trkpt lat="36.700301" lon="127.956392"><ele>883.9</ele></trkpt>
      <trkpt lat="36.699848" lon="127.956293"><ele>878.5</ele></trkpt>
      <trkpt lat="36.699697" lon="127.956322"><ele>876.8</ele></trkpt>
      <trkpt lat="36.699514" lon="127.955951"><ele>863.6</ele></trkpt>
      <trkpt lat="36.699350" lon="127.955382"><ele>838.9</ele></trkpt>
    </trkseg>
  </trk>
</gpx>
