<?xml version="1.0" encoding="UTF-8"?>
<gpx version="1.1" creator="kr-100-mountains route-harvester"
     xmlns="http://www.topografix.com/GPX/1/1"
     xmlns:k100="https://github.com/jay-jang/kr-100-mountains/ns/1"
     xmlns:xsi="http://www.w3.org/2001/XMLSchema-instance"
     xsi:schemaLocation="http://www.topografix.com/GPX/1/1 http://www.topografix.com/GPX/1/1/gpx.xsd">
  <metadata>
    <name>희양산 · 은티마을-희양산성-정상 코스 (OSM 계산 경로)</name>
    <desc>실제 GPS 기록이 아닙니다. OpenStreetMap에 등록된 등산로 선형 위에서 계산한 경로이며, 현장 통제·훼손·출입 제한·계절 통제를 반영하지 않을 수 있습니다. 산행 전 공식 안내를 확인하세요.</desc>
    <time>2026-08-04T05:42:40.730Z</time>
    <link href="https://www.openstreetmap.org/copyright"><text>© OpenStreetMap contributors (ODbL 1.0)</text></link>
    <link href="https://registry.opendata.aws/terrain-tiles/"><text>Elevation: SRTM 1 arc-second (NASA/USGS) via AWS Terrain Tiles</text></link>
    <extensions>
      <k100:provenance>osm-routed</k100:provenance>
      <k100:not_a_recorded_track>true</k100:not_a_recorded_track>
      <k100:mountain_id>huiyangsan</k100:mountain_id>
      <k100:mountain_name>희양산</k100:mountain_name>
      <k100:route_id>huiyangsan-d80d2d5c</k100:route_id>
      <k100:route_index>1</k100:route_index>
      <k100:route_name>은티마을-희양산성-정상 코스</k100:route_name>
      <k100:variant>0</k100:variant>
      <k100:source>OpenStreetMap via Overpass API</k100:source>
      <k100:license>ODbL-1.0</k100:license>
      <k100:attribution>© OpenStreetMap contributors</k100:attribution>
      <k100:elevation_source>SRTM 1 arc-second (NASA/USGS) — AWS Terrain Tiles 배포본. 지형 DEM 추정 고도이며 실측 아님</k100:elevation_source>
      <k100:algorithm>dijkstra-grid-v1</k100:algorithm>
      <k100:osm_snapshot>2026-08-04</k100:osm_snapshot>
      <k100:snap_trailhead_m>45</k100:snap_trailhead_m>
      <k100:snap_summit_m>35</k100:snap_summit_m>
      <k100:validation_score>100</k100:validation_score>
      <k100:validation_status>accepted</k100:validation_status>
    </extensions>
  </metadata>
  <trk>
    <name>희양산 · 은티마을-희양산성-정상 코스 (OSM 계산 경로)</name>
    <desc>실제 GPS 기록이 아닙니다. OpenStreetMap에 등록된 등산로 선형 위에서 계산한 경로이며, 현장 통제·훼손·출입 제한·계절 통제를 반영하지 않을 수 있습니다. 산행 전 공식 안내를 확인하세요.</desc>
    <trkseg>
      <trkpt lat="36.737076" lon="127.988596"><ele>285.1</ele></trkpt>
      <trkpt lat="36.736112" lon="127.988802"><ele>296.0</ele></trkpt>
      <trkpt lat="36.735710" lon="127.988792"><ele>298.6</ele></trkpt>
      <trkpt lat="36.735164" lon="127.988487"><ele>305.1</ele></trkpt>
      <trkpt lat="36.734649" lon="127.988281"><ele>311.6</ele></trkpt>
      <trkpt lat="36.734031" lon="127.988319"><ele>318.9</ele></trkpt>
      <trkpt lat="36.733460" lon="127.988504"><ele>328.1</ele></trkpt>
      <trkpt lat="36.733402" lon="127.988626"><ele>329.8</ele></trkpt>
      <trkpt lat="36.733429" lon="127.989084"><ele>328.0</ele></trkpt>
      <trkpt lat="36.733215" lon="127.989366"><ele>329.9</ele></trkpt>
      <trkpt lat="36.732723" lon="127.989622"><ele>333.2</ele></trkpt>
      <trkpt lat="36.732569" lon="127.989623"><ele>335.6</ele></trkpt>
      <trkpt lat="36.732385" lon="127.989527"><ele>339.0</ele></trkpt>
      <trkpt lat="36.732124" lon="127.989002"><ele>342.4</ele></trkpt>
      <trkpt lat="36.731951" lon="127.988907"><ele>343.1</ele></trkpt>
      <trkpt lat="36.731520" lon="127.989039"><ele>349.4</ele></trkpt>
      <trkpt lat="36.731266" lon="127.989403"><ele>355.1</ele></trkpt>
      <trkpt lat="36.730557" lon="127.989855"><ele>362.5</ele></trkpt>
      <trkpt lat="36.730254" lon="127.989882"><ele>364.2</ele></trkpt>
      <trkpt lat="36.729510" lon="127.989494"><ele>380.0</ele></trkpt>
      <trkpt lat="36.729296" lon="127.989603"><ele>384.6</ele></trkpt>
      <trkpt lat="36.728867" lon="127.990251"><ele>390.5</ele></trkpt>
      <trkpt lat="36.728751" lon="127.990331"><ele>391.7</ele></trkpt>
      <trkpt lat="36.728602" lon="127.990379"><ele>393.4</ele></trkpt>
      <trkpt lat="36.728307" lon="127.990206"><ele>398.5</ele></trkpt>
      <trkpt lat="36.727907" lon="127.990242"><ele>409.2</ele></trkpt>
      <trkpt lat="36.727890" lon="127.990445"><ele>408.5</ele></trkpt>
      <trkpt lat="36.728068" lon="127.990692"><ele>402.1</ele></trkpt>
      <trkpt lat="36.728071" lon="127.990994"><ele>403.2</ele></trkpt>
      <trkpt lat="36.728021" lon="127.991160"><ele>405.7</ele></trkpt>
      <trkpt lat="36.726094" lon="127.992404"><ele>452.9</ele></trkpt>
      <trkpt lat="36.725991" lon="127.992672"><ele>453.8</ele></trkpt>
      <trkpt lat="36.725758" lon="127.992921"><ele>460.6</ele></trkpt>
      <trkpt lat="36.725248" lon="127.993177"><ele>473.2</ele></trkpt>
      <trkpt lat="36.725148" lon="127.993308"><ele>475.1</ele></trkpt>
      <trkpt lat="36.724741" lon="127.993535"><ele>485.6</ele></trkpt>
      <trkpt lat="36.724385" lon="127.993955"><ele>487.8</ele></trkpt>
      <trkpt lat="36.723974" lon="127.993999"><ele>498.6</ele></trkpt>
      <trkpt lat="36.723626" lon="127.994109"><ele>508.4</ele></trkpt>
      <trkpt lat="36.723587" lon="127.994180"><ele>508.6</ele></trkpt>
      <trkpt lat="36.723001" lon="127.994432"><ele>518.6</ele></trkpt>
      <trkpt lat="36.722323" lon="127.994668"><ele>537.3</ele></trkpt>
      <trkpt lat="36.721957" lon="127.994653"><ele>545.8</ele></trkpt>
      <trkpt lat="36.721188" lon="127.994350"><ele>561.5</ele></trkpt>
      <trkpt lat="36.720845" lon="127.994279"><ele>568.6</ele></trkpt>
      <trkpt lat="36.720630" lon="127.994412"><ele>571.7</ele></trkpt>
      <trkpt lat="36.720534" lon="127.994307"><ele>575.2</ele></trkpt>
      <trkpt lat="36.720119" lon="127.994341"><ele>589.4</ele></trkpt>
      <trkpt lat="36.719967" lon="127.994226"><ele>595.7</ele></trkpt>
      <trkpt lat="36.719853" lon="127.994266"><ele>596.8</ele></trkpt>
      <trkpt lat="36.719648" lon="127.994499"><ele>596.6</ele></trkpt>
      <trkpt lat="36.719586" lon="127.994644"><ele>598.8</ele></trkpt>
      <trkpt lat="36.719470" lon="127.994619"><ele>599.9</ele></trkpt>
      <trkpt lat="36.719131" lon="127.994692"><ele>609.8</ele></trkpt>
      <trkpt lat="36.718984" lon="127.994783"><ele>615.6</ele></trkpt>
      <trkpt lat="36.718718" lon="127.994834"><ele>623.4</ele></trkpt>
      <trkpt lat="36.718657" lon="127.995046"><ele>625.3</ele></trkpt>
      <trkpt lat="36.718429" lon="127.995014"><ele>632.5</ele></trkpt>
      <trkpt lat="36.718277" lon="127.995065"><ele>640.1</ele></trkpt>
      <trkpt lat="36.718153" lon="127.995268"><ele>647.1</ele></trkpt>
      <trkpt lat="36.717974" lon="127.995412"><ele>649.7</ele></trkpt>
      <trkpt lat="36.717999" lon="127.995508"><ele>649.8</ele></trkpt>
      <trkpt lat="36.717907" lon="127.995725"><ele>651.9</ele></trkpt>
      <trkpt lat="36.717827" lon="127.996269"><ele>665.0</ele></trkpt>
      <trkpt lat="36.717933" lon="127.996760"><ele>687.4</ele></trkpt>
      <trkpt lat="36.718146" lon="127.996968"><ele>699.5</ele></trkpt>
      <trkpt lat="36.718128" lon="127.997495"><ele>724.1</ele></trkpt>
      <trkpt lat="36.718187" lon="127.997691"><ele>733.2</ele></trkpt>
      <trkpt lat="36.718156" lon="127.998018"><ele>743.8</ele></trkpt>
      <trkpt lat="36.718328" lon="127.998364"><ele>757.3</ele></trkpt>
      <trkpt lat="36.718404" lon="127.998799"><ele>762.3</ele></trkpt>
      <trkpt lat="36.718369" lon="127.999145"><ele>766.9</ele></trkpt>
      <trkpt lat="36.718257" lon="127.999298"><ele>770.7</ele></trkpt>
      <trkpt lat="36.718296" lon="127.999451"><ele>773.3</ele></trkpt>
      <trkpt lat="36.718004" lon="128.000148"><ele>796.8</ele></trkpt>
      <trkpt lat="36.718057" lon="128.000280"><ele>804.1</ele></trkpt>
      <trkpt lat="36.717903" lon="128.000542"><ele>817.8</ele></trkpt>
      <trkpt lat="36.717954" lon="128.001621"><ele>853.0</ele></trkpt>
      <trkpt lat="36.717755" lon="128.001944"><ele>898.1</ele></trkpt>
      <trkpt lat="36.717716" lon="128.002525"><ele>934.1</ele></trkpt>
      <trkpt lat="36.717651" lon="128.002587"><ele>938.8</ele></trkpt>
      <trkpt lat="36.717650" lon="128.002761"><ele>940.7</ele></trkpt>
      <trkpt lat="36.717256" lon="128.002569"><ele>960.0</ele></trkpt>
      <trkpt lat="36.717130" lon="128.002571"><ele>963.2</ele></trkpt>
      <trkpt lat="36.716683" lon="128.002699"><ele>964.7</ele></trkpt>
      <trkpt lat="36.716253" lon="128.002953"><ele>960.6</ele></trkpt>
      <trkpt lat="36.715900" lon="128.003336"><ele>962.3</ele></trkpt>
      <trkpt lat="36.715804" lon="128.003380"><ele>962.2</ele></trkpt>
      <trkpt lat="36.715568" lon="128.003750"><ele>967.8</ele></trkpt>
      <trkpt lat="36.715396" lon="128.003882"><ele>965.8</ele></trkpt>
      <trkpt lat="36.715237" lon="128.004171"><ele>964.1</ele></trkpt>
      <trkpt lat="36.715125" lon="128.004217"><ele>964.8</ele></trkpt>
      <trkpt lat="36.714843" lon="128.004702"><ele>966.7</ele></trkpt>
      <trkpt lat="36.714878" lon="128.004861"><ele>969.2</ele></trkpt>
      <trkpt lat="36.714798" lon="128.004861"><ele>967.0</ele></trkpt>
      <trkpt lat="36.714758" lon="128.005005"><ele>967.0</ele></trkpt>
      <trkpt lat="36.714652" lon="128.005067"><ele>963.5</ele></trkpt>
      <trkpt lat="36.714852" lon="128.005105"><ele>969.6</ele></trkpt>
      <trkpt lat="36.715127" lon="128.005480"><ele>965.8</ele></trkpt>
      <trkpt lat="36.715260" lon="128.005386"><ele>969.7</ele></trkpt>
      <trkpt lat="36.716030" lon="128.005394"><ele>941.1</ele></trkpt>
    </trkseg>
  </trk>
</gpx>
