<?xml version="1.0" encoding="UTF-8"?>
<gpx version="1.1" creator="kr-100-mountains route-harvester"
     xmlns="http://www.topografix.com/GPX/1/1"
     xmlns:k100="https://github.com/jay-jang/kr-100-mountains/ns/1"
     xmlns:xsi="http://www.w3.org/2001/XMLSchema-instance"
     xsi:schemaLocation="http://www.topografix.com/GPX/1/1 http://www.topografix.com/GPX/1/1/gpx.xsd">
  <metadata>
    <name>가리왕산 · 가리왕산자연휴양림-심마니교-어은골-상봉 (대안 1) (OSM 계산 경로)</name>
    <desc>실제 GPS 기록이 아닙니다. OpenStreetMap에 등록된 등산로 선형 위에서 계산한 경로이며, 현장 통제·훼손·출입 제한·계절 통제를 반영하지 않을 수 있습니다. 산행 전 공식 안내를 확인하세요.</desc>
    <time>2026-08-04T05:20:07.480Z</time>
    <link href="https://www.openstreetmap.org/copyright"><text>© OpenStreetMap contributors (ODbL 1.0)</text></link>
    <link href="https://registry.opendata.aws/terrain-tiles/"><text>Elevation: SRTM 1 arc-second (NASA/USGS) via AWS Terrain Tiles</text></link>
    <extensions>
      <k100:provenance>osm-routed</k100:provenance>
      <k100:not_a_recorded_track>true</k100:not_a_recorded_track>
      <k100:mountain_id>gariwangsan</k100:mountain_id>
      <k100:mountain_name>가리왕산</k100:mountain_name>
      <k100:route_id>gariwangsan-e93603bf</k100:route_id>
      <k100:route_index>3</k100:route_index>
      <k100:route_name>가리왕산자연휴양림-심마니교-어은골-상봉</k100:route_name>
      <k100:variant>1</k100:variant>
      <k100:source>OpenStreetMap via Overpass API</k100:source>
      <k100:license>ODbL-1.0</k100:license>
      <k100:attribution>© OpenStreetMap contributors</k100:attribution>
      <k100:elevation_source>SRTM 1 arc-second (NASA/USGS) — AWS Terrain Tiles 배포본. 지형 DEM 추정 고도이며 실측 아님</k100:elevation_source>
      <k100:algorithm>dijkstra-grid-v1</k100:algorithm>
      <k100:osm_snapshot>2026-08-04</k100:osm_snapshot>
      <k100:snap_trailhead_m>15</k100:snap_trailhead_m>
      <k100:snap_summit_m>16</k100:snap_summit_m>
      <k100:validation_score>100</k100:validation_score>
      <k100:validation_status>accepted</k100:validation_status>
    </extensions>
  </metadata>
  <trk>
    <name>가리왕산 · 가리왕산자연휴양림-심마니교-어은골-상봉 (대안 1) (OSM 계산 경로)</name>
    <desc>실제 GPS 기록이 아닙니다. OpenStreetMap에 등록된 등산로 선형 위에서 계산한 경로이며, 현장 통제·훼손·출입 제한·계절 통제를 반영하지 않을 수 있습니다. 산행 전 공식 안내를 확인하세요.</desc>
    <trkseg>
      <trkpt lat="37.424962" lon="128.574665"><ele>382.4</ele></trkpt>
      <trkpt lat="37.424773" lon="128.574889"><ele>381.2</ele></trkpt>
      <trkpt lat="37.424562" lon="128.574990"><ele>380.2</ele></trkpt>
      <trkpt lat="37.423963" lon="128.575043"><ele>380.4</ele></trkpt>
      <trkpt lat="37.423229" lon="128.574965"><ele>383.5</ele></trkpt>
      <trkpt lat="37.422820" lon="128.575003"><ele>386.5</ele></trkpt>
      <trkpt lat="37.422601" lon="128.575166"><ele>383.1</ele></trkpt>
      <trkpt lat="37.422030" lon="128.575823"><ele>380.3</ele></trkpt>
      <trkpt lat="37.422751" lon="128.576655"><ele>375.8</ele></trkpt>
      <trkpt lat="37.422908" lon="128.576730"><ele>379.9</ele></trkpt>
      <trkpt lat="37.423346" lon="128.576038"><ele>385.7</ele></trkpt>
      <trkpt lat="37.423575" lon="128.575909"><ele>389.1</ele></trkpt>
      <trkpt lat="37.423690" lon="128.575924"><ele>389.4</ele></trkpt>
      <trkpt lat="37.424437" lon="128.576775"><ele>400.8</ele></trkpt>
      <trkpt lat="37.424711" lon="128.577420"><ele>408.1</ele></trkpt>
      <trkpt lat="37.425602" lon="128.578236"><ele>432.2</ele></trkpt>
      <trkpt lat="37.426089" lon="128.578967"><ele>444.6</ele></trkpt>
      <trkpt lat="37.426229" lon="128.579035"><ele>445.9</ele></trkpt>
      <trkpt lat="37.426489" lon="128.578950"><ele>448.6</ele></trkpt>
      <trkpt lat="37.427145" lon="128.579032"><ele>462.5</ele></trkpt>
      <trkpt lat="37.427173" lon="128.578878"><ele>466.7</ele></trkpt>
      <trkpt lat="37.427049" lon="128.578456"><ele>467.2</ele></trkpt>
      <trkpt lat="37.427004" lon="128.577813"><ele>469.0</ele></trkpt>
      <trkpt lat="37.427208" lon="128.577949"><ele>475.0</ele></trkpt>
      <trkpt lat="37.427668" lon="128.577895"><ele>495.5</ele></trkpt>
      <trkpt lat="37.427803" lon="128.577830"><ele>503.9</ele></trkpt>
      <trkpt lat="37.428094" lon="128.577834"><ele>523.1</ele></trkpt>
      <trkpt lat="37.428200" lon="128.577863"><ele>529.8</ele></trkpt>
      <trkpt lat="37.428354" lon="128.578042"><ele>538.4</ele></trkpt>
      <trkpt lat="37.428536" lon="128.578066"><ele>549.9</ele></trkpt>
      <trkpt lat="37.428660" lon="128.578188"><ele>555.4</ele></trkpt>
      <trkpt lat="37.428726" lon="128.578168"><ele>559.4</ele></trkpt>
      <trkpt lat="37.428739" lon="128.578222"><ele>559.1</ele></trkpt>
      <trkpt lat="37.428951" lon="128.578155"><ele>572.6</ele></trkpt>
      <trkpt lat="37.429024" lon="128.578229"><ele>575.7</ele></trkpt>
      <trkpt lat="37.429059" lon="128.578185"><ele>578.6</ele></trkpt>
      <trkpt lat="37.429130" lon="128.578237"><ele>582.1</ele></trkpt>
      <trkpt lat="37.429232" lon="128.578030"><ele>592.1</ele></trkpt>
      <trkpt lat="37.429271" lon="128.578141"><ele>592.7</ele></trkpt>
      <trkpt lat="37.429412" lon="128.578223"><ele>599.6</ele></trkpt>
      <trkpt lat="37.429414" lon="128.578019"><ele>605.4</ele></trkpt>
      <trkpt lat="37.429468" lon="128.577981"><ele>610.1</ele></trkpt>
      <trkpt lat="37.429956" lon="128.577941"><ele>641.2</ele></trkpt>
      <trkpt lat="37.430668" lon="128.578128"><ele>664.8</ele></trkpt>
      <trkpt lat="37.431077" lon="128.578061"><ele>686.8</ele></trkpt>
      <trkpt lat="37.431334" lon="128.577931"><ele>691.1</ele></trkpt>
      <trkpt lat="37.431547" lon="128.578033"><ele>698.5</ele></trkpt>
      <trkpt lat="37.431823" lon="128.578301"><ele>714.7</ele></trkpt>
      <trkpt lat="37.432104" lon="128.578471"><ele>723.8</ele></trkpt>
      <trkpt lat="37.432528" lon="128.579133"><ele>750.9</ele></trkpt>
      <trkpt lat="37.432909" lon="128.579567"><ele>754.6</ele></trkpt>
      <trkpt lat="37.433125" lon="128.579740"><ele>761.2</ele></trkpt>
      <trkpt lat="37.433391" lon="128.579802"><ele>766.4</ele></trkpt>
      <trkpt lat="37.433492" lon="128.580057"><ele>775.1</ele></trkpt>
      <trkpt lat="37.433900" lon="128.580187"><ele>795.4</ele></trkpt>
      <trkpt lat="37.434103" lon="128.580415"><ele>807.3</ele></trkpt>
      <trkpt lat="37.434321" lon="128.580325"><ele>811.6</ele></trkpt>
      <trkpt lat="37.434651" lon="128.580298"><ele>819.1</ele></trkpt>
      <trkpt lat="37.435600" lon="128.580538"><ele>857.4</ele></trkpt>
      <trkpt lat="37.436029" lon="128.580714"><ele>878.4</ele></trkpt>
      <trkpt lat="37.436085" lon="128.580898"><ele>884.9</ele></trkpt>
      <trkpt lat="37.436447" lon="128.581043"><ele>909.9</ele></trkpt>
      <trkpt lat="37.436499" lon="128.581150"><ele>913.0</ele></trkpt>
      <trkpt lat="37.436703" lon="128.581091"><ele>924.8</ele></trkpt>
      <trkpt lat="37.436791" lon="128.580943"><ele>927.5</ele></trkpt>
      <trkpt lat="37.436811" lon="128.581236"><ele>931.7</ele></trkpt>
      <trkpt lat="37.436861" lon="128.581276"><ele>934.9</ele></trkpt>
      <trkpt lat="37.436965" lon="128.581161"><ele>939.5</ele></trkpt>
      <trkpt lat="37.437110" lon="128.581185"><ele>946.6</ele></trkpt>
      <trkpt lat="37.437615" lon="128.581681"><ele>985.8</ele></trkpt>
      <trkpt lat="37.437781" lon="128.581671"><ele>999.2</ele></trkpt>
      <trkpt lat="37.437849" lon="128.581832"><ele>1004.8</ele></trkpt>
      <trkpt lat="37.438153" lon="128.582022"><ele>1022.4</ele></trkpt>
      <trkpt lat="37.438430" lon="128.582845"><ele>1040.3</ele></trkpt>
      <trkpt lat="37.438516" lon="128.582950"><ele>1042.6</ele></trkpt>
      <trkpt lat="37.438784" lon="128.583108"><ele>1047.7</ele></trkpt>
      <trkpt lat="37.439442" lon="128.583087"><ele>1062.7</ele></trkpt>
      <trkpt lat="37.439738" lon="128.582988"><ele>1075.3</ele></trkpt>
      <trkpt lat="37.439834" lon="128.583108"><ele>1076.4</ele></trkpt>
      <trkpt lat="37.440051" lon="128.583037"><ele>1085.2</ele></trkpt>
      <trkpt lat="37.440233" lon="128.583125"><ele>1089.7</ele></trkpt>
      <trkpt lat="37.440337" lon="128.583010"><ele>1095.5</ele></trkpt>
      <trkpt lat="37.440661" lon="128.582946"><ele>1109.2</ele></trkpt>
      <trkpt lat="37.440806" lon="128.582839"><ele>1120.0</ele></trkpt>
      <trkpt lat="37.440858" lon="128.582904"><ele>1120.4</ele></trkpt>
      <trkpt lat="37.441038" lon="128.582938"><ele>1130.2</ele></trkpt>
      <trkpt lat="37.441321" lon="128.582902"><ele>1143.5</ele></trkpt>
      <trkpt lat="37.441452" lon="128.582954"><ele>1147.9</ele></trkpt>
      <trkpt lat="37.441500" lon="128.582893"><ele>1150.5</ele></trkpt>
      <trkpt lat="37.441670" lon="128.582872"><ele>1157.1</ele></trkpt>
      <trkpt lat="37.441750" lon="128.582807"><ele>1161.6</ele></trkpt>
      <trkpt lat="37.441966" lon="128.582810"><ele>1171.0</ele></trkpt>
      <trkpt lat="37.442072" lon="128.582754"><ele>1173.6</ele></trkpt>
      <trkpt lat="37.442479" lon="128.582906"><ele>1187.1</ele></trkpt>
      <trkpt lat="37.442550" lon="128.582995"><ele>1189.9</ele></trkpt>
      <trkpt lat="37.443286" lon="128.582853"><ele>1212.9</ele></trkpt>
      <trkpt lat="37.443409" lon="128.582891"><ele>1215.9</ele></trkpt>
      <trkpt lat="37.443578" lon="128.582843"><ele>1220.4</ele></trkpt>
      <trkpt lat="37.443881" lon="128.582856"><ele>1228.4</ele></trkpt>
      <trkpt lat="37.444017" lon="128.582922"><ele>1231.4</ele></trkpt>
      <trkpt lat="37.444435" lon="128.582967"><ele>1248.2</ele></trkpt>
      <trkpt lat="37.444491" lon="128.583040"><ele>1252.1</ele></trkpt>
      <trkpt lat="37.444712" lon="128.583046"><ele>1267.1</ele></trkpt>
      <trkpt lat="37.444853" lon="128.583158"><ele>1272.1</ele></trkpt>
      <trkpt lat="37.444951" lon="128.583126"><ele>1275.2</ele></trkpt>
      <trkpt lat="37.445080" lon="128.583209"><ele>1279.2</ele></trkpt>
      <trkpt lat="37.445624" lon="128.582831"><ele>1293.8</ele></trkpt>
      <trkpt lat="37.446312" lon="128.582506"><ele>1318.1</ele></trkpt>
      <trkpt lat="37.446594" lon="128.582459"><ele>1328.8</ele></trkpt>
      <trkpt lat="37.447114" lon="128.582156"><ele>1352.2</ele></trkpt>
      <trkpt lat="37.447475" lon="128.582177"><ele>1359.0</ele></trkpt>
      <trkpt lat="37.448024" lon="128.581943"><ele>1379.1</ele></trkpt>
      <trkpt lat="37.448513" lon="128.581924"><ele>1383.9</ele></trkpt>
      <trkpt lat="37.449250" lon="128.581794"><ele>1404.0</ele></trkpt>
      <trkpt lat="37.449460" lon="128.581874"><ele>1408.7</ele></trkpt>
      <trkpt lat="37.449683" lon="128.581811"><ele>1414.5</ele></trkpt>
      <trkpt lat="37.450391" lon="128.581827"><ele>1425.0</ele></trkpt>
      <trkpt lat="37.450796" lon="128.581456"><ele>1429.5</ele></trkpt>
      <trkpt lat="37.451001" lon="128.581385"><ele>1428.8</ele></trkpt>
      <trkpt lat="37.451139" lon="128.581226"><ele>1430.0</ele></trkpt>
      <trkpt lat="37.451319" lon="128.581169"><ele>1432.9</ele></trkpt>
      <trkpt lat="37.451554" lon="128.581002"><ele>1434.8</ele></trkpt>
      <trkpt lat="37.451669" lon="128.580605"><ele>1431.7</ele></trkpt>
      <trkpt lat="37.451806" lon="128.580524"><ele>1430.2</ele></trkpt>
      <trkpt lat="37.451876" lon="128.580295"><ele>1428.4</ele></trkpt>
      <trkpt lat="37.451997" lon="128.580180"><ele>1429.1</ele></trkpt>
      <trkpt lat="37.452095" lon="128.579994"><ele>1430.0</ele></trkpt>
      <trkpt lat="37.452166" lon="128.579674"><ele>1430.9</ele></trkpt>
      <trkpt lat="37.452193" lon="128.578969"><ele>1429.0</ele></trkpt>
      <trkpt lat="37.452249" lon="128.578786"><ele>1427.7</ele></trkpt>
      <trkpt lat="37.452483" lon="128.578525"><ele>1425.9</ele></trkpt>
      <trkpt lat="37.452518" lon="128.578410"><ele>1424.9</ele></trkpt>
      <trkpt lat="37.452496" lon="128.578296"><ele>1423.4</ele></trkpt>
      <trkpt lat="37.452639" lon="128.577910"><ele>1419.4</ele></trkpt>
      <trkpt lat="37.452624" lon="128.577782"><ele>1417.3</ele></trkpt>
      <trkpt lat="37.452897" lon="128.577485"><ele>1419.5</ele></trkpt>
      <trkpt lat="37.453101" lon="128.577152"><ele>1420.5</ele></trkpt>
      <trkpt lat="37.453268" lon="128.576758"><ele>1415.4</ele></trkpt>
      <trkpt lat="37.453229" lon="128.576542"><ele>1411.8</ele></trkpt>
      <trkpt lat="37.453356" lon="128.576162"><ele>1407.4</ele></trkpt>
      <trkpt lat="37.453412" lon="128.575505"><ele>1410.2</ele></trkpt>
      <trkpt lat="37.453526" lon="128.575269"><ele>1412.4</ele></trkpt>
      <trkpt lat="37.453443" lon="128.575002"><ele>1412.2</ele></trkpt>
      <trkpt lat="37.453618" lon="128.574717"><ele>1412.0</ele></trkpt>
      <trkpt lat="37.453597" lon="128.574462"><ele>1410.9</ele></trkpt>
      <trkpt lat="37.453701" lon="128.574331"><ele>1411.3</ele></trkpt>
      <trkpt lat="37.453777" lon="128.573990"><ele>1413.0</ele></trkpt>
      <trkpt lat="37.453756" lon="128.573765"><ele>1414.5</ele></trkpt>
      <trkpt lat="37.453845" lon="128.573494"><ele>1420.8</ele></trkpt>
      <trkpt lat="37.453803" lon="128.573385"><ele>1421.3</ele></trkpt>
      <trkpt lat="37.453845" lon="128.572801"><ele>1433.8</ele></trkpt>
      <trkpt lat="37.453966" lon="128.572698"><ele>1438.7</ele></trkpt>
      <trkpt lat="37.454037" lon="128.572696"><ele>1440.2</ele></trkpt>
      <trkpt lat="37.454200" lon="128.572464"><ele>1446.8</ele></trkpt>
      <trkpt lat="37.454308" lon="128.572082"><ele>1444.5</ele></trkpt>
      <trkpt lat="37.454547" lon="128.572056"><ele>1441.1</ele></trkpt>
      <trkpt lat="37.455065" lon="128.571847"><ele>1435.8</ele></trkpt>
      <trkpt lat="37.455420" lon="128.571513"><ele>1432.0</ele></trkpt>
      <trkpt lat="37.455839" lon="128.570929"><ele>1423.4</ele></trkpt>
      <trkpt lat="37.456266" lon="128.570539"><ele>1425.9</ele></trkpt>
      <trkpt lat="37.456622" lon="128.570628"><ele>1430.2</ele></trkpt>
      <trkpt lat="37.456773" lon="128.570454"><ele>1431.2</ele></trkpt>
      <trkpt lat="37.457071" lon="128.570252"><ele>1434.9</ele></trkpt>
      <trkpt lat="37.457200" lon="128.570048"><ele>1435.8</ele></trkpt>
      <trkpt lat="37.457359" lon="128.569989"><ele>1436.9</ele></trkpt>
      <trkpt lat="37.457496" lon="128.570012"><ele>1437.8</ele></trkpt>
      <trkpt lat="37.457622" lon="128.569835"><ele>1438.3</ele></trkpt>
      <trkpt lat="37.458110" lon="128.569507"><ele>1446.0</ele></trkpt>
      <trkpt lat="37.458166" lon="128.569412"><ele>1447.5</ele></trkpt>
      <trkpt lat="37.458349" lon="128.569406"><ele>1450.2</ele></trkpt>
      <trkpt lat="37.458771" lon="128.568927"><ele>1455.2</ele></trkpt>
      <trkpt lat="37.458877" lon="128.568705"><ele>1458.1</ele></trkpt>
      <trkpt lat="37.459458" lon="128.568340"><ele>1476.1</ele></trkpt>
      <trkpt lat="37.459812" lon="128.567908"><ele>1494.8</ele></trkpt>
      <trkpt lat="37.459903" lon="128.567863"><ele>1496.9</ele></trkpt>
      <trkpt lat="37.459911" lon="128.567645"><ele>1501.6</ele></trkpt>
      <trkpt lat="37.460006" lon="128.567346"><ele>1508.1</ele></trkpt>
      <trkpt lat="37.460097" lon="128.567291"><ele>1509.2</ele></trkpt>
      <trkpt lat="37.460233" lon="128.567069"><ele>1513.0</ele></trkpt>
      <trkpt lat="37.460226" lon="128.566864"><ele>1514.1</ele></trkpt>
      <trkpt lat="37.460325" lon="128.566667"><ele>1514.5</ele></trkpt>
      <trkpt lat="37.460271" lon="128.566477"><ele>1516.9</ele></trkpt>
      <trkpt lat="37.460321" lon="128.566247"><ele>1518.1</ele></trkpt>
      <trkpt lat="37.460299" lon="128.565973"><ele>1517.9</ele></trkpt>
      <trkpt lat="37.460393" lon="128.564915"><ele>1523.4</ele></trkpt>
      <trkpt lat="37.460567" lon="128.564612"><ele>1531.2</ele></trkpt>
      <trkpt lat="37.461044" lon="128.564065"><ele>1548.3</ele></trkpt>
      <trkpt lat="37.461315" lon="128.563512"><ele>1552.9</ele></trkpt>
    </trkseg>
  </trk>
</gpx>
