<?xml version="1.0" encoding="UTF-8"?>
<gpx version="1.1" creator="kr-100-mountains route-harvester"
     xmlns="http://www.topografix.com/GPX/1/1"
     xmlns:k100="https://github.com/jay-jang/kr-100-mountains/ns/1"
     xmlns:xsi="http://www.w3.org/2001/XMLSchema-instance"
     xsi:schemaLocation="http://www.topografix.com/GPX/1/1 http://www.topografix.com/GPX/1/1/gpx.xsd">
  <metadata>
    <name>구병산 · 서원리-백지미재-구병산 정상 (대안 2) (OSM 계산 경로)</name>
    <desc>실제 GPS 기록이 아닙니다. OpenStreetMap에 등록된 등산로 선형 위에서 계산한 경로이며, 현장 통제·훼손·출입 제한·계절 통제를 반영하지 않을 수 있습니다. 산행 전 공식 안내를 확인하세요.</desc>
    <time>2026-08-04T05:56:18.962Z</time>
    <link href="https://www.openstreetmap.org/copyright"><text>© OpenStreetMap contributors (ODbL 1.0)</text></link>
    <link href="https://registry.opendata.aws/terrain-tiles/"><text>Elevation: SRTM 1 arc-second (NASA/USGS) via AWS Terrain Tiles</text></link>
    <extensions>
      <k100:provenance>osm-routed</k100:provenance>
      <k100:not_a_recorded_track>true</k100:not_a_recorded_track>
      <k100:mountain_id>gubyeongsan</k100:mountain_id>
      <k100:mountain_name>구병산</k100:mountain_name>
      <k100:route_id>gubyeongsan-22e4a7ea</k100:route_id>
      <k100:route_index>3</k100:route_index>
      <k100:route_name>서원리-백지미재-구병산 정상</k100:route_name>
      <k100:variant>2</k100:variant>
      <k100:source>OpenStreetMap via Overpass API</k100:source>
      <k100:license>ODbL-1.0</k100:license>
      <k100:attribution>© OpenStreetMap contributors</k100:attribution>
      <k100:elevation_source>SRTM 1 arc-second (NASA/USGS) — AWS Terrain Tiles 배포본. 지형 DEM 추정 고도이며 실측 아님</k100:elevation_source>
      <k100:algorithm>dijkstra-grid-v1</k100:algorithm>
      <k100:osm_snapshot>2026-08-04</k100:osm_snapshot>
      <k100:snap_trailhead_m>21</k100:snap_trailhead_m>
      <k100:snap_summit_m>44</k100:snap_summit_m>
      <k100:validation_score>75</k100:validation_score>
      <k100:validation_status>review</k100:validation_status>
    </extensions>
  </metadata>
  <trk>
    <name>구병산 · 서원리-백지미재-구병산 정상 (대안 2) (OSM 계산 경로)</name>
    <desc>실제 GPS 기록이 아닙니다. OpenStreetMap에 등록된 등산로 선형 위에서 계산한 경로이며, 현장 통제·훼손·출입 제한·계절 통제를 반영하지 않을 수 있습니다. 산행 전 공식 안내를 확인하세요.</desc>
    <trkseg>
      <trkpt lat="36.481561" lon="127.816284"><ele>196.6</ele></trkpt>
      <trkpt lat="36.481812" lon="127.816246"><ele>198.5</ele></trkpt>
      <trkpt lat="36.482419" lon="127.815919"><ele>197.9</ele></trkpt>
      <trkpt lat="36.485069" lon="127.815452"><ele>197.0</ele></trkpt>
      <trkpt lat="36.485371" lon="127.815250"><ele>196.1</ele></trkpt>
      <trkpt lat="36.486063" lon="127.814652"><ele>193.0</ele></trkpt>
      <trkpt lat="36.486310" lon="127.814191"><ele>190.4</ele></trkpt>
      <trkpt lat="36.486404" lon="127.813838"><ele>186.9</ele></trkpt>
      <trkpt lat="36.486433" lon="127.813406"><ele>186.0</ele></trkpt>
      <trkpt lat="36.486412" lon="127.813148"><ele>186.6</ele></trkpt>
      <trkpt lat="36.486325" lon="127.812868"><ele>190.4</ele></trkpt>
      <trkpt lat="36.485914" lon="127.812043"><ele>192.9</ele></trkpt>
      <trkpt lat="36.484944" lon="127.810328"><ele>186.1</ele></trkpt>
      <trkpt lat="36.484637" lon="127.809681"><ele>189.6</ele></trkpt>
      <trkpt lat="36.484614" lon="127.809546"><ele>188.8</ele></trkpt>
      <trkpt lat="36.484659" lon="127.808092"><ele>183.0</ele></trkpt>
      <trkpt lat="36.484615" lon="127.807784"><ele>183.6</ele></trkpt>
      <trkpt lat="36.484785" lon="127.807730"><ele>184.0</ele></trkpt>
      <trkpt lat="36.484848" lon="127.807103"><ele>185.0</ele></trkpt>
      <trkpt lat="36.484951" lon="127.807091"><ele>185.3</ele></trkpt>
      <trkpt lat="36.485048" lon="127.806483"><ele>184.9</ele></trkpt>
      <trkpt lat="36.484980" lon="127.805704"><ele>182.5</ele></trkpt>
      <trkpt lat="36.484890" lon="127.805615"><ele>182.6</ele></trkpt>
      <trkpt lat="36.484566" lon="127.805481"><ele>181.4</ele></trkpt>
      <trkpt lat="36.484318" lon="127.805203"><ele>178.8</ele></trkpt>
      <trkpt lat="36.484315" lon="127.805086"><ele>178.9</ele></trkpt>
      <trkpt lat="36.484372" lon="127.805070"><ele>179.4</ele></trkpt>
      <trkpt lat="36.484377" lon="127.804612"><ele>178.3</ele></trkpt>
      <trkpt lat="36.484317" lon="127.804019"><ele>181.1</ele></trkpt>
      <trkpt lat="36.484189" lon="127.803691"><ele>181.5</ele></trkpt>
      <trkpt lat="36.483934" lon="127.803244"><ele>186.8</ele></trkpt>
      <trkpt lat="36.480253" lon="127.799399"><ele>176.1</ele></trkpt>
      <trkpt lat="36.479620" lon="127.798810"><ele>174.8</ele></trkpt>
      <trkpt lat="36.479361" lon="127.799432"><ele>170.0</ele></trkpt>
      <trkpt lat="36.479207" lon="127.799681"><ele>174.3</ele></trkpt>
      <trkpt lat="36.479003" lon="127.799786"><ele>176.5</ele></trkpt>
      <trkpt lat="36.478949" lon="127.799940"><ele>179.6</ele></trkpt>
      <trkpt lat="36.477731" lon="127.800827"><ele>180.5</ele></trkpt>
      <trkpt lat="36.477524" lon="127.800918"><ele>179.2</ele></trkpt>
      <trkpt lat="36.476752" lon="127.801052"><ele>179.4</ele></trkpt>
      <trkpt lat="36.476506" lon="127.801047"><ele>177.9</ele></trkpt>
      <trkpt lat="36.475958" lon="127.800516"><ele>167.8</ele></trkpt>
      <trkpt lat="36.475505" lon="127.800703"><ele>167.6</ele></trkpt>
      <trkpt lat="36.475354" lon="127.799947"><ele>169.6</ele></trkpt>
      <trkpt lat="36.475424" lon="127.799831"><ele>170.8</ele></trkpt>
      <trkpt lat="36.475287" lon="127.799586"><ele>170.6</ele></trkpt>
      <trkpt lat="36.475273" lon="127.799310"><ele>170.5</ele></trkpt>
      <trkpt lat="36.475874" lon="127.796427"><ele>169.0</ele></trkpt>
      <trkpt lat="36.475904" lon="127.795967"><ele>168.4</ele></trkpt>
      <trkpt lat="36.475851" lon="127.795702"><ele>167.3</ele></trkpt>
      <trkpt lat="36.475315" lon="127.794798"><ele>165.9</ele></trkpt>
      <trkpt lat="36.473451" lon="127.791989"><ele>163.9</ele></trkpt>
      <trkpt lat="36.472863" lon="127.791382"><ele>165.0</ele></trkpt>
      <trkpt lat="36.472427" lon="127.792302"><ele>163.1</ele></trkpt>
      <trkpt lat="36.472373" lon="127.792793"><ele>164.7</ele></trkpt>
      <trkpt lat="36.472271" lon="127.793084"><ele>167.3</ele></trkpt>
      <trkpt lat="36.472259" lon="127.793330"><ele>170.1</ele></trkpt>
      <trkpt lat="36.471977" lon="127.794029"><ele>172.1</ele></trkpt>
      <trkpt lat="36.471828" lon="127.794162"><ele>173.0</ele></trkpt>
      <trkpt lat="36.471638" lon="127.794524"><ele>174.1</ele></trkpt>
      <trkpt lat="36.471052" lon="127.795344"><ele>176.4</ele></trkpt>
      <trkpt lat="36.470422" lon="127.795943"><ele>178.0</ele></trkpt>
      <trkpt lat="36.470053" lon="127.796715"><ele>172.7</ele></trkpt>
      <trkpt lat="36.469963" lon="127.797170"><ele>174.5</ele></trkpt>
      <trkpt lat="36.469847" lon="127.797423"><ele>176.9</ele></trkpt>
      <trkpt lat="36.469531" lon="127.797888"><ele>175.3</ele></trkpt>
      <trkpt lat="36.469131" lon="127.798305"><ele>172.8</ele></trkpt>
      <trkpt lat="36.468764" lon="127.798324"><ele>172.0</ele></trkpt>
      <trkpt lat="36.468428" lon="127.798714"><ele>173.8</ele></trkpt>
      <trkpt lat="36.468283" lon="127.799023"><ele>173.6</ele></trkpt>
      <trkpt lat="36.468183" lon="127.799539"><ele>173.6</ele></trkpt>
      <trkpt lat="36.467855" lon="127.800307"><ele>174.0</ele></trkpt>
      <trkpt lat="36.467146" lon="127.801375"><ele>172.7</ele></trkpt>
      <trkpt lat="36.466862" lon="127.801638"><ele>173.8</ele></trkpt>
      <trkpt lat="36.466399" lon="127.802293"><ele>177.5</ele></trkpt>
      <trkpt lat="36.465861" lon="127.802487"><ele>175.3</ele></trkpt>
      <trkpt lat="36.465590" lon="127.802699"><ele>173.3</ele></trkpt>
      <trkpt lat="36.465453" lon="127.802897"><ele>171.4</ele></trkpt>
      <trkpt lat="36.465210" lon="127.803571"><ele>166.9</ele></trkpt>
      <trkpt lat="36.464792" lon="127.803900"><ele>165.3</ele></trkpt>
      <trkpt lat="36.464619" lon="127.804276"><ele>166.0</ele></trkpt>
      <trkpt lat="36.464306" lon="127.804433"><ele>165.5</ele></trkpt>
      <trkpt lat="36.464547" lon="127.804653"><ele>166.4</ele></trkpt>
      <trkpt lat="36.464621" lon="127.804843"><ele>166.9</ele></trkpt>
      <trkpt lat="36.464635" lon="127.805209"><ele>168.1</ele></trkpt>
      <trkpt lat="36.464832" lon="127.805993"><ele>170.8</ele></trkpt>
      <trkpt lat="36.464512" lon="127.805990"><ele>168.9</ele></trkpt>
      <trkpt lat="36.464289" lon="127.806310"><ele>167.6</ele></trkpt>
      <trkpt lat="36.464204" lon="127.806195"><ele>167.2</ele></trkpt>
      <trkpt lat="36.463797" lon="127.806171"><ele>165.4</ele></trkpt>
      <trkpt lat="36.463640" lon="127.806365"><ele>165.0</ele></trkpt>
      <trkpt lat="36.463289" lon="127.806616"><ele>170.9</ele></trkpt>
      <trkpt lat="36.462963" lon="127.806597"><ele>170.6</ele></trkpt>
      <trkpt lat="36.462437" lon="127.806763"><ele>172.0</ele></trkpt>
      <trkpt lat="36.461941" lon="127.806784"><ele>168.8</ele></trkpt>
      <trkpt lat="36.461778" lon="127.806929"><ele>168.2</ele></trkpt>
      <trkpt lat="36.461410" lon="127.808055"><ele>165.2</ele></trkpt>
      <trkpt lat="36.461484" lon="127.808527"><ele>165.5</ele></trkpt>
      <trkpt lat="36.461449" lon="127.809331"><ele>167.6</ele></trkpt>
      <trkpt lat="36.461372" lon="127.809685"><ele>168.7</ele></trkpt>
      <trkpt lat="36.461505" lon="127.810034"><ele>171.9</ele></trkpt>
      <trkpt lat="36.461359" lon="127.810511"><ele>173.1</ele></trkpt>
      <trkpt lat="36.461104" lon="127.810897"><ele>170.6</ele></trkpt>
      <trkpt lat="36.461048" lon="127.811225"><ele>173.0</ele></trkpt>
      <trkpt lat="36.460850" lon="127.811723"><ele>172.3</ele></trkpt>
      <trkpt lat="36.460655" lon="127.813520"><ele>188.7</ele></trkpt>
      <trkpt lat="36.460634" lon="127.815843"><ele>199.7</ele></trkpt>
      <trkpt lat="36.459480" lon="127.815863"><ele>184.9</ele></trkpt>
      <trkpt lat="36.459469" lon="127.815754"><ele>184.1</ele></trkpt>
      <trkpt lat="36.458604" lon="127.815737"><ele>176.7</ele></trkpt>
      <trkpt lat="36.458600" lon="127.816551"><ele>174.5</ele></trkpt>
      <trkpt lat="36.458425" lon="127.816856"><ele>173.4</ele></trkpt>
      <trkpt lat="36.458256" lon="127.816995"><ele>173.1</ele></trkpt>
      <trkpt lat="36.458312" lon="127.817519"><ele>176.0</ele></trkpt>
      <trkpt lat="36.458222" lon="127.818128"><ele>176.6</ele></trkpt>
      <trkpt lat="36.458330" lon="127.818423"><ele>176.7</ele></trkpt>
      <trkpt lat="36.458326" lon="127.818627"><ele>176.0</ele></trkpt>
      <trkpt lat="36.457830" lon="127.818533"><ele>174.2</ele></trkpt>
      <trkpt lat="36.457445" lon="127.818214"><ele>173.6</ele></trkpt>
      <trkpt lat="36.457146" lon="127.818619"><ele>175.0</ele></trkpt>
      <trkpt lat="36.457083" lon="127.818632"><ele>175.0</ele></trkpt>
      <trkpt lat="36.457152" lon="127.818879"><ele>175.0</ele></trkpt>
      <trkpt lat="36.457656" lon="127.819494"><ele>178.4</ele></trkpt>
      <trkpt lat="36.457143" lon="127.820264"><ele>189.0</ele></trkpt>
      <trkpt lat="36.456966" lon="127.820715"><ele>193.4</ele></trkpt>
      <trkpt lat="36.456811" lon="127.820904"><ele>193.6</ele></trkpt>
      <trkpt lat="36.456672" lon="127.821215"><ele>192.4</ele></trkpt>
      <trkpt lat="36.456257" lon="127.821565"><ele>190.3</ele></trkpt>
      <trkpt lat="36.455961" lon="127.821577"><ele>186.2</ele></trkpt>
      <trkpt lat="36.455489" lon="127.821750"><ele>183.8</ele></trkpt>
      <trkpt lat="36.455011" lon="127.821828"><ele>182.2</ele></trkpt>
      <trkpt lat="36.454904" lon="127.821812"><ele>181.5</ele></trkpt>
      <trkpt lat="36.454714" lon="127.821658"><ele>179.8</ele></trkpt>
      <trkpt lat="36.454557" lon="127.821685"><ele>177.8</ele></trkpt>
      <trkpt lat="36.454434" lon="127.821872"><ele>178.2</ele></trkpt>
      <trkpt lat="36.454432" lon="127.822859"><ele>184.8</ele></trkpt>
      <trkpt lat="36.454362" lon="127.823146"><ele>186.5</ele></trkpt>
      <trkpt lat="36.453684" lon="127.823747"><ele>184.9</ele></trkpt>
      <trkpt lat="36.453623" lon="127.824235"><ele>186.1</ele></trkpt>
      <trkpt lat="36.454429" lon="127.824629"><ele>191.3</ele></trkpt>
      <trkpt lat="36.454848" lon="127.825193"><ele>194.6</ele></trkpt>
      <trkpt lat="36.454831" lon="127.825428"><ele>196.5</ele></trkpt>
      <trkpt lat="36.454917" lon="127.825610"><ele>198.9</ele></trkpt>
      <trkpt lat="36.454982" lon="127.825648"><ele>199.6</ele></trkpt>
      <trkpt lat="36.455194" lon="127.825627"><ele>200.3</ele></trkpt>
      <trkpt lat="36.455238" lon="127.825751"><ele>202.0</ele></trkpt>
      <trkpt lat="36.455296" lon="127.826464"><ele>203.3</ele></trkpt>
      <trkpt lat="36.455197" lon="127.826774"><ele>200.2</ele></trkpt>
      <trkpt lat="36.454861" lon="127.826593"><ele>199.8</ele></trkpt>
      <trkpt lat="36.454727" lon="127.826609"><ele>198.7</ele></trkpt>
      <trkpt lat="36.453829" lon="127.826403"><ele>193.4</ele></trkpt>
      <trkpt lat="36.453553" lon="127.826617"><ele>191.0</ele></trkpt>
      <trkpt lat="36.453332" lon="127.827045"><ele>188.0</ele></trkpt>
      <trkpt lat="36.453107" lon="127.827262"><ele>188.0</ele></trkpt>
      <trkpt lat="36.453076" lon="127.827349"><ele>188.0</ele></trkpt>
      <trkpt lat="36.453204" lon="127.827797"><ele>189.0</ele></trkpt>
      <trkpt lat="36.453148" lon="127.828056"><ele>189.0</ele></trkpt>
      <trkpt lat="36.453834" lon="127.829183"><ele>192.1</ele></trkpt>
      <trkpt lat="36.453999" lon="127.829283"><ele>192.6</ele></trkpt>
      <trkpt lat="36.454547" lon="127.829377"><ele>194.5</ele></trkpt>
      <trkpt lat="36.454773" lon="127.829557"><ele>195.7</ele></trkpt>
      <trkpt lat="36.455273" lon="127.830151"><ele>197.4</ele></trkpt>
      <trkpt lat="36.455239" lon="127.830565"><ele>198.0</ele></trkpt>
      <trkpt lat="36.455377" lon="127.831963"><ele>210.9</ele></trkpt>
      <trkpt lat="36.455429" lon="127.834059"><ele>217.6</ele></trkpt>
      <trkpt lat="36.455373" lon="127.834913"><ele>211.2</ele></trkpt>
      <trkpt lat="36.455385" lon="127.835668"><ele>211.3</ele></trkpt>
      <trkpt lat="36.455081" lon="127.835974"><ele>208.1</ele></trkpt>
      <trkpt lat="36.454947" lon="127.836250"><ele>208.0</ele></trkpt>
      <trkpt lat="36.454786" lon="127.837047"><ele>206.4</ele></trkpt>
      <trkpt lat="36.454563" lon="127.837388"><ele>209.2</ele></trkpt>
      <trkpt lat="36.454361" lon="127.837811"><ele>216.2</ele></trkpt>
      <trkpt lat="36.454071" lon="127.838061"><ele>210.2</ele></trkpt>
      <trkpt lat="36.453817" lon="127.838651"><ele>207.2</ele></trkpt>
      <trkpt lat="36.453713" lon="127.839048"><ele>207.2</ele></trkpt>
      <trkpt lat="36.453709" lon="127.839290"><ele>207.1</ele></trkpt>
      <trkpt lat="36.453787" lon="127.839488"><ele>207.2</ele></trkpt>
      <trkpt lat="36.453744" lon="127.839778"><ele>206.5</ele></trkpt>
      <trkpt lat="36.453778" lon="127.840132"><ele>207.1</ele></trkpt>
      <trkpt lat="36.453752" lon="127.840196"><ele>207.2</ele></trkpt>
      <trkpt lat="36.453605" lon="127.840255"><ele>206.9</ele></trkpt>
      <trkpt lat="36.452009" lon="127.839681"><ele>200.7</ele></trkpt>
      <trkpt lat="36.451158" lon="127.839767"><ele>195.7</ele></trkpt>
      <trkpt lat="36.450740" lon="127.842428"><ele>189.8</ele></trkpt>
      <trkpt lat="36.450170" lon="127.842202"><ele>187.0</ele></trkpt>
      <trkpt lat="36.449251" lon="127.842358"><ele>186.0</ele></trkpt>
      <trkpt lat="36.448310" lon="127.842052"><ele>183.9</ele></trkpt>
      <trkpt lat="36.447892" lon="127.842041"><ele>183.0</ele></trkpt>
      <trkpt lat="36.447521" lon="127.841955"><ele>182.1</ele></trkpt>
      <trkpt lat="36.447503" lon="127.842095"><ele>182.5</ele></trkpt>
      <trkpt lat="36.447685" lon="127.842165"><ele>182.9</ele></trkpt>
      <trkpt lat="36.447676" lon="127.842406"><ele>183.0</ele></trkpt>
      <trkpt lat="36.447810" lon="127.843189"><ele>185.6</ele></trkpt>
      <trkpt lat="36.447033" lon="127.843281"><ele>181.6</ele></trkpt>
      <trkpt lat="36.447197" lon="127.845196"><ele>186.6</ele></trkpt>
      <trkpt lat="36.447246" lon="127.845279"><ele>187.1</ele></trkpt>
      <trkpt lat="36.447536" lon="127.845384"><ele>188.5</ele></trkpt>
      <trkpt lat="36.447714" lon="127.845594"><ele>190.0</ele></trkpt>
      <trkpt lat="36.447857" lon="127.845618"><ele>191.2</ele></trkpt>
      <trkpt lat="36.447961" lon="127.845709"><ele>192.4</ele></trkpt>
      <trkpt lat="36.448094" lon="127.845967"><ele>194.6</ele></trkpt>
      <trkpt lat="36.448409" lon="127.846913"><ele>207.9</ele></trkpt>
      <trkpt lat="36.448524" lon="127.847109"><ele>211.1</ele></trkpt>
      <trkpt lat="36.448808" lon="127.847273"><ele>217.1</ele></trkpt>
      <trkpt lat="36.448883" lon="127.847407"><ele>219.9</ele></trkpt>
      <trkpt lat="36.448901" lon="127.847522"><ele>221.6</ele></trkpt>
      <trkpt lat="36.448842" lon="127.847883"><ele>227.9</ele></trkpt>
      <trkpt lat="36.449026" lon="127.849113"><ele>252.3</ele></trkpt>
      <trkpt lat="36.449129" lon="127.849363"><ele>259.7</ele></trkpt>
      <trkpt lat="36.449235" lon="127.849457"><ele>264.2</ele></trkpt>
      <trkpt lat="36.449635" lon="127.850164"><ele>287.7</ele></trkpt>
      <trkpt lat="36.449582" lon="127.850321"><ele>286.4</ele></trkpt>
      <trkpt lat="36.449466" lon="127.850404"><ele>285.1</ele></trkpt>
      <trkpt lat="36.449139" lon="127.850851"><ele>289.0</ele></trkpt>
      <trkpt lat="36.449192" lon="127.850980"><ele>286.2</ele></trkpt>
      <trkpt lat="36.449185" lon="127.851330"><ele>282.2</ele></trkpt>
      <trkpt lat="36.449060" lon="127.851629"><ele>278.7</ele></trkpt>
      <trkpt lat="36.449098" lon="127.851764"><ele>278.5</ele></trkpt>
      <trkpt lat="36.449260" lon="127.851901"><ele>276.5</ele></trkpt>
      <trkpt lat="36.449293" lon="127.851987"><ele>275.0</ele></trkpt>
      <trkpt lat="36.449267" lon="127.852596"><ele>268.5</ele></trkpt>
      <trkpt lat="36.449375" lon="127.852959"><ele>257.9</ele></trkpt>
      <trkpt lat="36.449003" lon="127.853203"><ele>255.1</ele></trkpt>
      <trkpt lat="36.449043" lon="127.853316"><ele>250.6</ele></trkpt>
      <trkpt lat="36.449110" lon="127.853326"><ele>249.7</ele></trkpt>
      <trkpt lat="36.449179" lon="127.853435"><ele>244.8</ele></trkpt>
      <trkpt lat="36.449126" lon="127.853719"><ele>234.2</ele></trkpt>
      <trkpt lat="36.449507" lon="127.854106"><ele>218.1</ele></trkpt>
      <trkpt lat="36.449565" lon="127.854253"><ele>213.3</ele></trkpt>
      <trkpt lat="36.449687" lon="127.854285"><ele>211.3</ele></trkpt>
      <trkpt lat="36.449828" lon="127.854418"><ele>207.2</ele></trkpt>
      <trkpt lat="36.450011" lon="127.854414"><ele>206.4</ele></trkpt>
      <trkpt lat="36.450263" lon="127.854639"><ele>198.7</ele></trkpt>
      <trkpt lat="36.450459" lon="127.854721"><ele>191.8</ele></trkpt>
      <trkpt lat="36.450527" lon="127.854664"><ele>191.1</ele></trkpt>
      <trkpt lat="36.450657" lon="127.854363"><ele>194.6</ele></trkpt>
      <trkpt lat="36.450983" lon="127.854124"><ele>193.6</ele></trkpt>
      <trkpt lat="36.451053" lon="127.854021"><ele>194.0</ele></trkpt>
      <trkpt lat="36.451237" lon="127.854083"><ele>190.5</ele></trkpt>
      <trkpt lat="36.451258" lon="127.854305"><ele>187.5</ele></trkpt>
      <trkpt lat="36.451563" lon="127.854108"><ele>186.8</ele></trkpt>
      <trkpt lat="36.451620" lon="127.854107"><ele>186.2</ele></trkpt>
      <trkpt lat="36.451731" lon="127.854268"><ele>185.0</ele></trkpt>
      <trkpt lat="36.451796" lon="127.854472"><ele>185.5</ele></trkpt>
      <trkpt lat="36.451373" lon="127.855344"><ele>183.8</ele></trkpt>
      <trkpt lat="36.450979" lon="127.855565"><ele>181.1</ele></trkpt>
      <trkpt lat="36.450777" lon="127.855745"><ele>181.2</ele></trkpt>
      <trkpt lat="36.450785" lon="127.856489"><ele>181.6</ele></trkpt>
      <trkpt lat="36.450973" lon="127.856548"><ele>181.7</ele></trkpt>
      <trkpt lat="36.451482" lon="127.856875"><ele>181.5</ele></trkpt>
      <trkpt lat="36.452024" lon="127.856934"><ele>185.4</ele></trkpt>
      <trkpt lat="36.453178" lon="127.857277"><ele>192.0</ele></trkpt>
      <trkpt lat="36.453381" lon="127.857395"><ele>192.6</ele></trkpt>
      <trkpt lat="36.453484" lon="127.857601"><ele>193.5</ele></trkpt>
      <trkpt lat="36.453403" lon="127.857850"><ele>191.1</ele></trkpt>
      <trkpt lat="36.453590" lon="127.858380"><ele>195.8</ele></trkpt>
      <trkpt lat="36.453624" lon="127.858820"><ele>202.1</ele></trkpt>
      <trkpt lat="36.453588" lon="127.858991"><ele>204.3</ele></trkpt>
      <trkpt lat="36.453435" lon="127.859301"><ele>206.6</ele></trkpt>
      <trkpt lat="36.453088" lon="127.859702"><ele>207.1</ele></trkpt>
      <trkpt lat="36.453063" lon="127.859816"><ele>207.4</ele></trkpt>
      <trkpt lat="36.453147" lon="127.860112"><ele>209.3</ele></trkpt>
      <trkpt lat="36.453896" lon="127.860830"><ele>221.0</ele></trkpt>
      <trkpt lat="36.453899" lon="127.861109"><ele>223.1</ele></trkpt>
      <trkpt lat="36.454206" lon="127.860971"><ele>225.1</ele></trkpt>
      <trkpt lat="36.454455" lon="127.860923"><ele>224.4</ele></trkpt>
      <trkpt lat="36.454927" lon="127.861107"><ele>222.7</ele></trkpt>
      <trkpt lat="36.455416" lon="127.861094"><ele>225.2</ele></trkpt>
      <trkpt lat="36.455543" lon="127.861216"><ele>229.5</ele></trkpt>
      <trkpt lat="36.455842" lon="127.861204"><ele>232.8</ele></trkpt>
      <trkpt lat="36.456544" lon="127.861704"><ele>247.2</ele></trkpt>
      <trkpt lat="36.456851" lon="127.862081"><ele>254.8</ele></trkpt>
      <trkpt lat="36.456992" lon="127.862152"><ele>256.1</ele></trkpt>
      <trkpt lat="36.457234" lon="127.862385"><ele>258.2</ele></trkpt>
      <trkpt lat="36.457420" lon="127.862474"><ele>258.7</ele></trkpt>
      <trkpt lat="36.458227" lon="127.863126"><ele>284.0</ele></trkpt>
      <trkpt lat="36.458418" lon="127.863515"><ele>285.8</ele></trkpt>
      <trkpt lat="36.458684" lon="127.863778"><ele>292.1</ele></trkpt>
      <trkpt lat="36.458899" lon="127.863869"><ele>295.9</ele></trkpt>
      <trkpt lat="36.459358" lon="127.864247"><ele>313.6</ele></trkpt>
      <trkpt lat="36.459818" lon="127.864374"><ele>328.4</ele></trkpt>
      <trkpt lat="36.460247" lon="127.864260"><ele>343.0</ele></trkpt>
      <trkpt lat="36.460780" lon="127.864254"><ele>354.6</ele></trkpt>
      <trkpt lat="36.461026" lon="127.864182"><ele>361.0</ele></trkpt>
      <trkpt lat="36.461315" lon="127.864230"><ele>373.3</ele></trkpt>
      <trkpt lat="36.461843" lon="127.864502"><ele>393.2</ele></trkpt>
      <trkpt lat="36.462149" lon="127.864588"><ele>401.0</ele></trkpt>
      <trkpt lat="36.462298" lon="127.864617"><ele>404.5</ele></trkpt>
      <trkpt lat="36.462603" lon="127.864546"><ele>409.7</ele></trkpt>
      <trkpt lat="36.462837" lon="127.864730"><ele>418.5</ele></trkpt>
      <trkpt lat="36.463411" lon="127.864511"><ele>440.2</ele></trkpt>
      <trkpt lat="36.464016" lon="127.864183"><ele>469.9</ele></trkpt>
      <trkpt lat="36.464287" lon="127.864200"><ele>486.7</ele></trkpt>
      <trkpt lat="36.464460" lon="127.864096"><ele>496.3</ele></trkpt>
      <trkpt lat="36.464669" lon="127.864123"><ele>506.9</ele></trkpt>
      <trkpt lat="36.464762" lon="127.864031"><ele>510.5</ele></trkpt>
      <trkpt lat="36.464980" lon="127.863943"><ele>521.2</ele></trkpt>
      <trkpt lat="36.465163" lon="127.863970"><ele>530.9</ele></trkpt>
      <trkpt lat="36.465529" lon="127.863897"><ele>552.4</ele></trkpt>
      <trkpt lat="36.465723" lon="127.863966"><ele>564.8</ele></trkpt>
      <trkpt lat="36.465915" lon="127.863932"><ele>574.1</ele></trkpt>
      <trkpt lat="36.466084" lon="127.863829"><ele>581.1</ele></trkpt>
      <trkpt lat="36.466339" lon="127.863473"><ele>599.8</ele></trkpt>
      <trkpt lat="36.466455" lon="127.863405"><ele>606.8</ele></trkpt>
      <trkpt lat="36.466563" lon="127.863504"><ele>608.6</ele></trkpt>
      <trkpt lat="36.466875" lon="127.863628"><ele>626.7</ele></trkpt>
      <trkpt lat="36.467183" lon="127.863368"><ele>648.4</ele></trkpt>
      <trkpt lat="36.467353" lon="127.863399"><ele>658.3</ele></trkpt>
      <trkpt lat="36.467563" lon="127.863339"><ele>671.0</ele></trkpt>
      <trkpt lat="36.467705" lon="127.863201"><ele>683.7</ele></trkpt>
      <trkpt lat="36.468367" lon="127.862995"><ele>736.7</ele></trkpt>
      <trkpt lat="36.468900" lon="127.862729"><ele>785.6</ele></trkpt>
      <trkpt lat="36.469096" lon="127.862767"><ele>797.6</ele></trkpt>
      <trkpt lat="36.469254" lon="127.862648"><ele>810.0</ele></trkpt>
      <trkpt lat="36.469432" lon="127.862675"><ele>822.3</ele></trkpt>
      <trkpt lat="36.469725" lon="127.862553"><ele>837.4</ele></trkpt>
      <trkpt lat="36.469887" lon="127.862542"><ele>839.5</ele></trkpt>
      <trkpt lat="36.469922" lon="127.862722"><ele>840.3</ele></trkpt>
      <trkpt lat="36.469865" lon="127.862777"><ele>840.0</ele></trkpt>
      <trkpt lat="36.469920" lon="127.863248"><ele>843.9</ele></trkpt>
    </trkseg>
  </trk>
</gpx>
