<?xml version="1.0" encoding="UTF-8"?>
<gpx version="1.1" creator="kr-100-mountains route-harvester"
     xmlns="http://www.topografix.com/GPX/1/1"
     xmlns:k100="https://github.com/jay-jang/kr-100-mountains/ns/1"
     xmlns:xsi="http://www.w3.org/2001/XMLSchema-instance"
     xsi:schemaLocation="http://www.topografix.com/GPX/1/1 http://www.topografix.com/GPX/1/1/gpx.xsd">
  <metadata>
    <name>구병산 · 위성리(적암)-구병산 정상 코스 (OSM 계산 경로)</name>
    <desc>실제 GPS 기록이 아닙니다. OpenStreetMap에 등록된 등산로 선형 위에서 계산한 경로이며, 현장 통제·훼손·출입 제한·계절 통제를 반영하지 않을 수 있습니다. 산행 전 공식 안내를 확인하세요.</desc>
    <time>2026-08-04T05:56:18.849Z</time>
    <link href="https://www.openstreetmap.org/copyright"><text>© OpenStreetMap contributors (ODbL 1.0)</text></link>
    <link href="https://registry.opendata.aws/terrain-tiles/"><text>Elevation: SRTM 1 arc-second (NASA/USGS) via AWS Terrain Tiles</text></link>
    <extensions>
      <k100:provenance>osm-routed</k100:provenance>
      <k100:not_a_recorded_track>true</k100:not_a_recorded_track>
      <k100:mountain_id>gubyeongsan</k100:mountain_id>
      <k100:mountain_name>구병산</k100:mountain_name>
      <k100:route_id>gubyeongsan-a303050f</k100:route_id>
      <k100:route_index>1</k100:route_index>
      <k100:route_name>위성리(적암)-구병산 정상 코스</k100:route_name>
      <k100:variant>0</k100:variant>
      <k100:source>OpenStreetMap via Overpass API</k100:source>
      <k100:license>ODbL-1.0</k100:license>
      <k100:attribution>© OpenStreetMap contributors</k100:attribution>
      <k100:elevation_source>SRTM 1 arc-second (NASA/USGS) — AWS Terrain Tiles 배포본. 지형 DEM 추정 고도이며 실측 아님</k100:elevation_source>
      <k100:algorithm>dijkstra-grid-v1</k100:algorithm>
      <k100:osm_snapshot>2026-08-04</k100:osm_snapshot>
      <k100:snap_trailhead_m>149</k100:snap_trailhead_m>
      <k100:snap_summit_m>44</k100:snap_summit_m>
      <k100:validation_score>84</k100:validation_score>
      <k100:validation_status>accepted</k100:validation_status>
    </extensions>
  </metadata>
  <trk>
    <name>구병산 · 위성리(적암)-구병산 정상 코스 (OSM 계산 경로)</name>
    <desc>실제 GPS 기록이 아닙니다. OpenStreetMap에 등록된 등산로 선형 위에서 계산한 경로이며, 현장 통제·훼손·출입 제한·계절 통제를 반영하지 않을 수 있습니다. 산행 전 공식 안내를 확인하세요.</desc>
    <trkseg>
      <trkpt lat="36.432043" lon="127.885975"><ele>393.9</ele></trkpt>
      <trkpt lat="36.432373" lon="127.885390"><ele>404.3</ele></trkpt>
      <trkpt lat="36.433037" lon="127.885138"><ele>397.3</ele></trkpt>
      <trkpt lat="36.433359" lon="127.884950"><ele>389.4</ele></trkpt>
      <trkpt lat="36.433539" lon="127.884932"><ele>387.9</ele></trkpt>
      <trkpt lat="36.433822" lon="127.885008"><ele>384.8</ele></trkpt>
      <trkpt lat="36.433871" lon="127.884943"><ele>381.4</ele></trkpt>
      <trkpt lat="36.433840" lon="127.884862"><ele>379.3</ele></trkpt>
      <trkpt lat="36.433269" lon="127.884404"><ele>376.4</ele></trkpt>
      <trkpt lat="36.433192" lon="127.883844"><ele>372.6</ele></trkpt>
      <trkpt lat="36.433459" lon="127.883852"><ele>359.1</ele></trkpt>
      <trkpt lat="36.433585" lon="127.883997"><ele>356.0</ele></trkpt>
      <trkpt lat="36.433915" lon="127.884065"><ele>347.3</ele></trkpt>
      <trkpt lat="36.434306" lon="127.884053"><ele>336.9</ele></trkpt>
      <trkpt lat="36.434863" lon="127.883701"><ele>319.6</ele></trkpt>
      <trkpt lat="36.434809" lon="127.883622"><ele>320.2</ele></trkpt>
      <trkpt lat="36.434488" lon="127.883653"><ele>325.4</ele></trkpt>
      <trkpt lat="36.434460" lon="127.883577"><ele>324.1</ele></trkpt>
      <trkpt lat="36.435254" lon="127.882783"><ele>304.9</ele></trkpt>
      <trkpt lat="36.436076" lon="127.882793"><ele>293.3</ele></trkpt>
      <trkpt lat="36.436045" lon="127.883145"><ele>291.0</ele></trkpt>
      <trkpt lat="36.435882" lon="127.883532"><ele>285.9</ele></trkpt>
      <trkpt lat="36.435794" lon="127.884045"><ele>283.9</ele></trkpt>
      <trkpt lat="36.435867" lon="127.884732"><ele>276.7</ele></trkpt>
      <trkpt lat="36.436003" lon="127.884969"><ele>270.1</ele></trkpt>
      <trkpt lat="36.436232" lon="127.885019"><ele>263.2</ele></trkpt>
      <trkpt lat="36.436609" lon="127.884896"><ele>258.7</ele></trkpt>
      <trkpt lat="36.436918" lon="127.884884"><ele>257.0</ele></trkpt>
      <trkpt lat="36.437729" lon="127.885377"><ele>245.1</ele></trkpt>
      <trkpt lat="36.438644" lon="127.885720"><ele>233.1</ele></trkpt>
      <trkpt lat="36.438937" lon="127.885677"><ele>230.8</ele></trkpt>
      <trkpt lat="36.439352" lon="127.885785"><ele>234.0</ele></trkpt>
      <trkpt lat="36.439593" lon="127.886107"><ele>226.7</ele></trkpt>
      <trkpt lat="36.439904" lon="127.886235"><ele>226.5</ele></trkpt>
      <trkpt lat="36.440784" lon="127.886386"><ele>226.6</ele></trkpt>
      <trkpt lat="36.441181" lon="127.886664"><ele>218.8</ele></trkpt>
      <trkpt lat="36.441458" lon="127.886965"><ele>214.0</ele></trkpt>
      <trkpt lat="36.441699" lon="127.887373"><ele>213.5</ele></trkpt>
      <trkpt lat="36.442355" lon="127.888059"><ele>207.1</ele></trkpt>
      <trkpt lat="36.442649" lon="127.888467"><ele>204.7</ele></trkpt>
      <trkpt lat="36.442769" lon="127.888939"><ele>205.2</ele></trkpt>
      <trkpt lat="36.442908" lon="127.889239"><ele>204.6</ele></trkpt>
      <trkpt lat="36.443544" lon="127.889921"><ele>194.1</ele></trkpt>
      <trkpt lat="36.443976" lon="127.890264"><ele>192.7</ele></trkpt>
      <trkpt lat="36.444165" lon="127.890500"><ele>192.0</ele></trkpt>
      <trkpt lat="36.444235" lon="127.890736"><ele>191.8</ele></trkpt>
      <trkpt lat="36.444254" lon="127.891042"><ele>191.9</ele></trkpt>
      <trkpt lat="36.444375" lon="127.891214"><ele>192.0</ele></trkpt>
      <trkpt lat="36.444694" lon="127.891406"><ele>191.1</ele></trkpt>
      <trkpt lat="36.444934" lon="127.891631"><ele>191.0</ele></trkpt>
      <trkpt lat="36.445842" lon="127.889885"><ele>192.0</ele></trkpt>
      <trkpt lat="36.445972" lon="127.889314"><ele>190.5</ele></trkpt>
      <trkpt lat="36.446043" lon="127.888190"><ele>187.3</ele></trkpt>
      <trkpt lat="36.446280" lon="127.886846"><ele>184.9</ele></trkpt>
      <trkpt lat="36.446313" lon="127.886299"><ele>185.7</ele></trkpt>
      <trkpt lat="36.445931" lon="127.884859"><ele>182.8</ele></trkpt>
      <trkpt lat="36.445752" lon="127.884419"><ele>183.0</ele></trkpt>
      <trkpt lat="36.444451" lon="127.881970"><ele>182.0</ele></trkpt>
      <trkpt lat="36.443396" lon="127.880146"><ele>182.6</ele></trkpt>
      <trkpt lat="36.443091" lon="127.879379"><ele>180.5</ele></trkpt>
      <trkpt lat="36.442720" lon="127.878255"><ele>180.8</ele></trkpt>
      <trkpt lat="36.442074" lon="127.875774"><ele>179.2</ele></trkpt>
      <trkpt lat="36.441933" lon="127.874889"><ele>175.9</ele></trkpt>
      <trkpt lat="36.441896" lon="127.874205"><ele>176.6</ele></trkpt>
      <trkpt lat="36.442105" lon="127.873038"><ele>173.8</ele></trkpt>
      <trkpt lat="36.442149" lon="127.872158"><ele>174.5</ele></trkpt>
      <trkpt lat="36.442320" lon="127.870388"><ele>172.8</ele></trkpt>
      <trkpt lat="36.442412" lon="127.869857"><ele>170.5</ele></trkpt>
      <trkpt lat="36.442567" lon="127.869299"><ele>171.9</ele></trkpt>
      <trkpt lat="36.442963" lon="127.868382"><ele>173.6</ele></trkpt>
      <trkpt lat="36.444370" lon="127.866107"><ele>171.0</ele></trkpt>
      <trkpt lat="36.444789" lon="127.865249"><ele>169.1</ele></trkpt>
      <trkpt lat="36.446132" lon="127.865959"><ele>170.6</ele></trkpt>
      <trkpt lat="36.446647" lon="127.866126"><ele>172.9</ele></trkpt>
      <trkpt lat="36.447741" lon="127.866016"><ele>177.2</ele></trkpt>
      <trkpt lat="36.447999" lon="127.866067"><ele>177.8</ele></trkpt>
      <trkpt lat="36.448089" lon="127.866115"><ele>178.0</ele></trkpt>
      <trkpt lat="36.448265" lon="127.866413"><ele>177.7</ele></trkpt>
      <trkpt lat="36.448630" lon="127.867225"><ele>180.1</ele></trkpt>
      <trkpt lat="36.448770" lon="127.867439"><ele>180.9</ele></trkpt>
      <trkpt lat="36.449106" lon="127.867560"><ele>182.4</ele></trkpt>
      <trkpt lat="36.449380" lon="127.867727"><ele>183.7</ele></trkpt>
      <trkpt lat="36.449669" lon="127.867811"><ele>186.2</ele></trkpt>
      <trkpt lat="36.450211" lon="127.868119"><ele>187.5</ele></trkpt>
      <trkpt lat="36.450567" lon="127.868095"><ele>188.8</ele></trkpt>
      <trkpt lat="36.450725" lon="127.867835"><ele>188.9</ele></trkpt>
      <trkpt lat="36.450868" lon="127.867711"><ele>189.1</ele></trkpt>
      <trkpt lat="36.451305" lon="127.867676"><ele>191.1</ele></trkpt>
      <trkpt lat="36.451663" lon="127.867008"><ele>202.4</ele></trkpt>
      <trkpt lat="36.451810" lon="127.866874"><ele>205.0</ele></trkpt>
      <trkpt lat="36.451897" lon="127.866689"><ele>207.1</ele></trkpt>
      <trkpt lat="36.452089" lon="127.866494"><ele>207.5</ele></trkpt>
      <trkpt lat="36.452359" lon="127.866102"><ele>213.9</ele></trkpt>
      <trkpt lat="36.452347" lon="127.865946"><ele>213.1</ele></trkpt>
      <trkpt lat="36.452213" lon="127.865649"><ele>207.2</ele></trkpt>
      <trkpt lat="36.452336" lon="127.864948"><ele>202.2</ele></trkpt>
      <trkpt lat="36.452427" lon="127.864769"><ele>203.9</ele></trkpt>
      <trkpt lat="36.452401" lon="127.864444"><ele>201.6</ele></trkpt>
      <trkpt lat="36.452472" lon="127.864305"><ele>199.9</ele></trkpt>
      <trkpt lat="36.452669" lon="127.864138"><ele>198.9</ele></trkpt>
      <trkpt lat="36.452757" lon="127.863704"><ele>197.1</ele></trkpt>
      <trkpt lat="36.452876" lon="127.863452"><ele>200.0</ele></trkpt>
      <trkpt lat="36.453031" lon="127.863355"><ele>204.4</ele></trkpt>
      <trkpt lat="36.453292" lon="127.862725"><ele>206.4</ele></trkpt>
      <trkpt lat="36.453078" lon="127.862384"><ele>210.4</ele></trkpt>
      <trkpt lat="36.452800" lon="127.862176"><ele>211.5</ele></trkpt>
      <trkpt lat="36.452772" lon="127.862050"><ele>212.1</ele></trkpt>
      <trkpt lat="36.453007" lon="127.861947"><ele>216.3</ele></trkpt>
      <trkpt lat="36.453091" lon="127.861775"><ele>217.3</ele></trkpt>
      <trkpt lat="36.453357" lon="127.861735"><ele>219.2</ele></trkpt>
      <trkpt lat="36.453688" lon="127.861600"><ele>222.9</ele></trkpt>
      <trkpt lat="36.453847" lon="127.861425"><ele>224.5</ele></trkpt>
      <trkpt lat="36.453899" lon="127.861109"><ele>223.1</ele></trkpt>
      <trkpt lat="36.454391" lon="127.860924"><ele>224.6</ele></trkpt>
      <trkpt lat="36.454927" lon="127.861107"><ele>222.7</ele></trkpt>
      <trkpt lat="36.455416" lon="127.861094"><ele>225.2</ele></trkpt>
      <trkpt lat="36.455543" lon="127.861216"><ele>229.5</ele></trkpt>
      <trkpt lat="36.455842" lon="127.861204"><ele>232.8</ele></trkpt>
      <trkpt lat="36.455944" lon="127.861263"><ele>235.5</ele></trkpt>
      <trkpt lat="36.456544" lon="127.861704"><ele>247.2</ele></trkpt>
      <trkpt lat="36.456851" lon="127.862081"><ele>254.8</ele></trkpt>
      <trkpt lat="36.456992" lon="127.862152"><ele>256.1</ele></trkpt>
      <trkpt lat="36.457234" lon="127.862385"><ele>258.2</ele></trkpt>
      <trkpt lat="36.457420" lon="127.862474"><ele>258.7</ele></trkpt>
      <trkpt lat="36.458227" lon="127.863126"><ele>284.0</ele></trkpt>
      <trkpt lat="36.458418" lon="127.863515"><ele>285.8</ele></trkpt>
      <trkpt lat="36.458684" lon="127.863778"><ele>292.1</ele></trkpt>
      <trkpt lat="36.458899" lon="127.863869"><ele>295.9</ele></trkpt>
      <trkpt lat="36.459358" lon="127.864247"><ele>313.6</ele></trkpt>
      <trkpt lat="36.459818" lon="127.864374"><ele>328.4</ele></trkpt>
      <trkpt lat="36.460247" lon="127.864260"><ele>343.0</ele></trkpt>
      <trkpt lat="36.460780" lon="127.864254"><ele>354.6</ele></trkpt>
      <trkpt lat="36.461026" lon="127.864182"><ele>361.0</ele></trkpt>
      <trkpt lat="36.461315" lon="127.864230"><ele>373.3</ele></trkpt>
      <trkpt lat="36.461843" lon="127.864502"><ele>393.2</ele></trkpt>
      <trkpt lat="36.462149" lon="127.864588"><ele>401.0</ele></trkpt>
      <trkpt lat="36.462298" lon="127.864617"><ele>404.5</ele></trkpt>
      <trkpt lat="36.462603" lon="127.864546"><ele>409.7</ele></trkpt>
      <trkpt lat="36.462837" lon="127.864730"><ele>418.5</ele></trkpt>
      <trkpt lat="36.463411" lon="127.864511"><ele>440.2</ele></trkpt>
      <trkpt lat="36.464016" lon="127.864183"><ele>469.9</ele></trkpt>
      <trkpt lat="36.464287" lon="127.864200"><ele>486.7</ele></trkpt>
      <trkpt lat="36.464460" lon="127.864096"><ele>496.3</ele></trkpt>
      <trkpt lat="36.464669" lon="127.864123"><ele>506.9</ele></trkpt>
      <trkpt lat="36.464762" lon="127.864031"><ele>510.5</ele></trkpt>
      <trkpt lat="36.464980" lon="127.863943"><ele>521.2</ele></trkpt>
      <trkpt lat="36.465163" lon="127.863970"><ele>530.9</ele></trkpt>
      <trkpt lat="36.465529" lon="127.863897"><ele>552.4</ele></trkpt>
      <trkpt lat="36.465723" lon="127.863966"><ele>564.8</ele></trkpt>
      <trkpt lat="36.465915" lon="127.863932"><ele>574.1</ele></trkpt>
      <trkpt lat="36.466084" lon="127.863829"><ele>581.1</ele></trkpt>
      <trkpt lat="36.466339" lon="127.863473"><ele>599.8</ele></trkpt>
      <trkpt lat="36.466455" lon="127.863405"><ele>606.8</ele></trkpt>
      <trkpt lat="36.466563" lon="127.863504"><ele>608.6</ele></trkpt>
      <trkpt lat="36.466875" lon="127.863628"><ele>626.7</ele></trkpt>
      <trkpt lat="36.467183" lon="127.863368"><ele>648.4</ele></trkpt>
      <trkpt lat="36.467353" lon="127.863399"><ele>658.3</ele></trkpt>
      <trkpt lat="36.467563" lon="127.863339"><ele>671.0</ele></trkpt>
      <trkpt lat="36.467705" lon="127.863201"><ele>683.7</ele></trkpt>
      <trkpt lat="36.468367" lon="127.862995"><ele>736.7</ele></trkpt>
      <trkpt lat="36.468900" lon="127.862729"><ele>785.6</ele></trkpt>
      <trkpt lat="36.469096" lon="127.862767"><ele>797.6</ele></trkpt>
      <trkpt lat="36.469254" lon="127.862648"><ele>810.0</ele></trkpt>
      <trkpt lat="36.469432" lon="127.862675"><ele>822.3</ele></trkpt>
      <trkpt lat="36.469725" lon="127.862553"><ele>837.4</ele></trkpt>
      <trkpt lat="36.469887" lon="127.862542"><ele>839.5</ele></trkpt>
      <trkpt lat="36.469922" lon="127.862722"><ele>840.3</ele></trkpt>
      <trkpt lat="36.469865" lon="127.862777"><ele>840.0</ele></trkpt>
      <trkpt lat="36.469920" lon="127.863248"><ele>843.9</ele></trkpt>
    </trkseg>
  </trk>
</gpx>
