<?xml version="1.0" encoding="UTF-8"?>
<gpx version="1.1" creator="kr-100-mountains route-harvester"
     xmlns="http://www.topografix.com/GPX/1/1"
     xmlns:k100="https://github.com/jay-jang/kr-100-mountains/ns/1"
     xmlns:xsi="http://www.w3.org/2001/XMLSchema-instance"
     xsi:schemaLocation="http://www.topografix.com/GPX/1/1 http://www.topografix.com/GPX/1/1/gpx.xsd">
  <metadata>
    <name>구병산 · 위성리(적암)-구병산 정상 코스 (대안 1) (OSM 계산 경로)</name>
    <desc>실제 GPS 기록이 아닙니다. OpenStreetMap에 등록된 등산로 선형 위에서 계산한 경로이며, 현장 통제·훼손·출입 제한·계절 통제를 반영하지 않을 수 있습니다. 산행 전 공식 안내를 확인하세요.</desc>
    <time>2026-08-04T05:56:18.854Z</time>
    <link href="https://www.openstreetmap.org/copyright"><text>© OpenStreetMap contributors (ODbL 1.0)</text></link>
    <link href="https://registry.opendata.aws/terrain-tiles/"><text>Elevation: SRTM 1 arc-second (NASA/USGS) via AWS Terrain Tiles</text></link>
    <extensions>
      <k100:provenance>osm-routed</k100:provenance>
      <k100:not_a_recorded_track>true</k100:not_a_recorded_track>
      <k100:mountain_id>gubyeongsan</k100:mountain_id>
      <k100:mountain_name>구병산</k100:mountain_name>
      <k100:route_id>gubyeongsan-a303050f</k100:route_id>
      <k100:route_index>1</k100:route_index>
      <k100:route_name>위성리(적암)-구병산 정상 코스</k100:route_name>
      <k100:variant>1</k100:variant>
      <k100:source>OpenStreetMap via Overpass API</k100:source>
      <k100:license>ODbL-1.0</k100:license>
      <k100:attribution>© OpenStreetMap contributors</k100:attribution>
      <k100:elevation_source>SRTM 1 arc-second (NASA/USGS) — AWS Terrain Tiles 배포본. 지형 DEM 추정 고도이며 실측 아님</k100:elevation_source>
      <k100:algorithm>dijkstra-grid-v1</k100:algorithm>
      <k100:osm_snapshot>2026-08-04</k100:osm_snapshot>
      <k100:snap_trailhead_m>149</k100:snap_trailhead_m>
      <k100:snap_summit_m>44</k100:snap_summit_m>
      <k100:validation_score>75</k100:validation_score>
      <k100:validation_status>review</k100:validation_status>
    </extensions>
  </metadata>
  <trk>
    <name>구병산 · 위성리(적암)-구병산 정상 코스 (대안 1) (OSM 계산 경로)</name>
    <desc>실제 GPS 기록이 아닙니다. OpenStreetMap에 등록된 등산로 선형 위에서 계산한 경로이며, 현장 통제·훼손·출입 제한·계절 통제를 반영하지 않을 수 있습니다. 산행 전 공식 안내를 확인하세요.</desc>
    <trkseg>
      <trkpt lat="36.432043" lon="127.885975"><ele>393.9</ele></trkpt>
      <trkpt lat="36.432373" lon="127.885390"><ele>404.3</ele></trkpt>
      <trkpt lat="36.433037" lon="127.885138"><ele>397.3</ele></trkpt>
      <trkpt lat="36.433359" lon="127.884950"><ele>389.4</ele></trkpt>
      <trkpt lat="36.433539" lon="127.884932"><ele>387.9</ele></trkpt>
      <trkpt lat="36.433822" lon="127.885008"><ele>384.8</ele></trkpt>
      <trkpt lat="36.433871" lon="127.884943"><ele>381.4</ele></trkpt>
      <trkpt lat="36.433840" lon="127.884862"><ele>379.3</ele></trkpt>
      <trkpt lat="36.433269" lon="127.884404"><ele>376.4</ele></trkpt>
      <trkpt lat="36.433192" lon="127.883844"><ele>372.6</ele></trkpt>
      <trkpt lat="36.433261" lon="127.883270"><ele>362.2</ele></trkpt>
      <trkpt lat="36.433334" lon="127.883325"><ele>358.9</ele></trkpt>
      <trkpt lat="36.433380" lon="127.883638"><ele>359.4</ele></trkpt>
      <trkpt lat="36.433478" lon="127.883907"><ele>359.1</ele></trkpt>
      <trkpt lat="36.433585" lon="127.883997"><ele>356.0</ele></trkpt>
      <trkpt lat="36.434198" lon="127.884079"><ele>340.1</ele></trkpt>
      <trkpt lat="36.434511" lon="127.883958"><ele>330.5</ele></trkpt>
      <trkpt lat="36.434863" lon="127.883701"><ele>319.6</ele></trkpt>
      <trkpt lat="36.434809" lon="127.883622"><ele>320.2</ele></trkpt>
      <trkpt lat="36.434488" lon="127.883653"><ele>325.4</ele></trkpt>
      <trkpt lat="36.434460" lon="127.883577"><ele>324.1</ele></trkpt>
      <trkpt lat="36.435254" lon="127.882783"><ele>304.9</ele></trkpt>
      <trkpt lat="36.436076" lon="127.882793"><ele>293.3</ele></trkpt>
      <trkpt lat="36.435989" lon="127.882544"><ele>294.2</ele></trkpt>
      <trkpt lat="36.435624" lon="127.881904"><ele>294.1</ele></trkpt>
      <trkpt lat="36.435561" lon="127.881675"><ele>293.1</ele></trkpt>
      <trkpt lat="36.435574" lon="127.881226"><ele>293.3</ele></trkpt>
      <trkpt lat="36.435504" lon="127.880810"><ele>293.4</ele></trkpt>
      <trkpt lat="36.435397" lon="127.880598"><ele>291.3</ele></trkpt>
      <trkpt lat="36.434223" lon="127.879605"><ele>286.1</ele></trkpt>
      <trkpt lat="36.434056" lon="127.879414"><ele>283.8</ele></trkpt>
      <trkpt lat="36.433788" lon="127.878940"><ele>278.0</ele></trkpt>
      <trkpt lat="36.433380" lon="127.877007"><ele>277.8</ele></trkpt>
      <trkpt lat="36.433574" lon="127.876795"><ele>275.7</ele></trkpt>
      <trkpt lat="36.433852" lon="127.876259"><ele>272.7</ele></trkpt>
      <trkpt lat="36.434139" lon="127.876126"><ele>272.1</ele></trkpt>
      <trkpt lat="36.434306" lon="127.875897"><ele>272.7</ele></trkpt>
      <trkpt lat="36.434400" lon="127.875382"><ele>269.7</ele></trkpt>
      <trkpt lat="36.434639" lon="127.874981"><ele>267.9</ele></trkpt>
      <trkpt lat="36.434727" lon="127.874530"><ele>266.0</ele></trkpt>
      <trkpt lat="36.434840" lon="127.874380"><ele>265.7</ele></trkpt>
      <trkpt lat="36.435168" lon="127.874060"><ele>265.5</ele></trkpt>
      <trkpt lat="36.436123" lon="127.873318"><ele>261.9</ele></trkpt>
      <trkpt lat="36.436546" lon="127.872566"><ele>260.9</ele></trkpt>
      <trkpt lat="36.436989" lon="127.872302"><ele>257.4</ele></trkpt>
      <trkpt lat="36.437014" lon="127.872090"><ele>258.0</ele></trkpt>
      <trkpt lat="36.436976" lon="127.871951"><ele>258.8</ele></trkpt>
      <trkpt lat="36.436769" lon="127.871604"><ele>261.0</ele></trkpt>
      <trkpt lat="36.436617" lon="127.871110"><ele>260.4</ele></trkpt>
      <trkpt lat="36.436264" lon="127.870372"><ele>262.5</ele></trkpt>
      <trkpt lat="36.436220" lon="127.869822"><ele>261.7</ele></trkpt>
      <trkpt lat="36.436038" lon="127.869328"><ele>260.8</ele></trkpt>
      <trkpt lat="36.435949" lon="127.868707"><ele>261.0</ele></trkpt>
      <trkpt lat="36.436010" lon="127.867454"><ele>265.0</ele></trkpt>
      <trkpt lat="36.436211" lon="127.866763"><ele>260.5</ele></trkpt>
      <trkpt lat="36.436324" lon="127.866593"><ele>257.9</ele></trkpt>
      <trkpt lat="36.436574" lon="127.866365"><ele>257.3</ele></trkpt>
      <trkpt lat="36.436673" lon="127.865868"><ele>255.8</ele></trkpt>
      <trkpt lat="36.436653" lon="127.865619"><ele>254.8</ele></trkpt>
      <trkpt lat="36.436516" lon="127.865149"><ele>251.0</ele></trkpt>
      <trkpt lat="36.436590" lon="127.864762"><ele>248.4</ele></trkpt>
      <trkpt lat="36.436610" lon="127.864334"><ele>245.5</ele></trkpt>
      <trkpt lat="36.436402" lon="127.863366"><ele>244.9</ele></trkpt>
      <trkpt lat="36.436075" lon="127.862510"><ele>235.3</ele></trkpt>
      <trkpt lat="36.435827" lon="127.862160"><ele>228.3</ele></trkpt>
      <trkpt lat="36.435710" lon="127.861632"><ele>226.0</ele></trkpt>
      <trkpt lat="36.435383" lon="127.860830"><ele>217.8</ele></trkpt>
      <trkpt lat="36.435232" lon="127.860211"><ele>218.1</ele></trkpt>
      <trkpt lat="36.435205" lon="127.859961"><ele>216.5</ele></trkpt>
      <trkpt lat="36.435292" lon="127.859637"><ele>214.4</ele></trkpt>
      <trkpt lat="36.435329" lon="127.859139"><ele>206.6</ele></trkpt>
      <trkpt lat="36.435306" lon="127.858735"><ele>199.4</ele></trkpt>
      <trkpt lat="36.435486" lon="127.857917"><ele>194.8</ele></trkpt>
      <trkpt lat="36.435490" lon="127.857522"><ele>194.0</ele></trkpt>
      <trkpt lat="36.435697" lon="127.857002"><ele>193.4</ele></trkpt>
      <trkpt lat="36.436155" lon="127.856383"><ele>192.9</ele></trkpt>
      <trkpt lat="36.436285" lon="127.856054"><ele>189.5</ele></trkpt>
      <trkpt lat="36.436346" lon="127.855772"><ele>186.6</ele></trkpt>
      <trkpt lat="36.436295" lon="127.855331"><ele>182.8</ele></trkpt>
      <trkpt lat="36.436326" lon="127.855052"><ele>181.3</ele></trkpt>
      <trkpt lat="36.436396" lon="127.854878"><ele>179.7</ele></trkpt>
      <trkpt lat="36.437004" lon="127.854121"><ele>174.3</ele></trkpt>
      <trkpt lat="36.437369" lon="127.853772"><ele>173.8</ele></trkpt>
      <trkpt lat="36.437639" lon="127.853147"><ele>172.2</ele></trkpt>
      <trkpt lat="36.437941" lon="127.853029"><ele>170.3</ele></trkpt>
      <trkpt lat="36.438139" lon="127.852879"><ele>169.2</ele></trkpt>
      <trkpt lat="36.438463" lon="127.852224"><ele>168.0</ele></trkpt>
      <trkpt lat="36.438515" lon="127.851816"><ele>164.1</ele></trkpt>
      <trkpt lat="36.438662" lon="127.851387"><ele>161.2</ele></trkpt>
      <trkpt lat="36.438903" lon="127.851017"><ele>162.9</ele></trkpt>
      <trkpt lat="36.439667" lon="127.850159"><ele>160.4</ele></trkpt>
      <trkpt lat="36.440330" lon="127.848580"><ele>157.2</ele></trkpt>
      <trkpt lat="36.440168" lon="127.848517"><ele>157.4</ele></trkpt>
      <trkpt lat="36.439914" lon="127.848153"><ele>157.4</ele></trkpt>
      <trkpt lat="36.439750" lon="127.847815"><ele>156.2</ele></trkpt>
      <trkpt lat="36.439386" lon="127.846688"><ele>155.0</ele></trkpt>
      <trkpt lat="36.441853" lon="127.846420"><ele>162.0</ele></trkpt>
      <trkpt lat="36.441825" lon="127.846205"><ele>165.5</ele></trkpt>
      <trkpt lat="36.442217" lon="127.846157"><ele>166.0</ele></trkpt>
      <trkpt lat="36.442726" lon="127.845973"><ele>174.0</ele></trkpt>
      <trkpt lat="36.443045" lon="127.845786"><ele>178.9</ele></trkpt>
      <trkpt lat="36.443625" lon="127.845637"><ele>179.8</ele></trkpt>
      <trkpt lat="36.443974" lon="127.845393"><ele>179.1</ele></trkpt>
      <trkpt lat="36.444152" lon="127.845328"><ele>179.3</ele></trkpt>
      <trkpt lat="36.444511" lon="127.845458"><ele>181.3</ele></trkpt>
      <trkpt lat="36.444940" lon="127.845260"><ele>180.6</ele></trkpt>
      <trkpt lat="36.445225" lon="127.845196"><ele>180.4</ele></trkpt>
      <trkpt lat="36.445272" lon="127.845077"><ele>179.6</ele></trkpt>
      <trkpt lat="36.445143" lon="127.843495"><ele>178.3</ele></trkpt>
      <trkpt lat="36.447033" lon="127.843281"><ele>181.6</ele></trkpt>
      <trkpt lat="36.447197" lon="127.845196"><ele>186.6</ele></trkpt>
      <trkpt lat="36.447246" lon="127.845279"><ele>187.1</ele></trkpt>
      <trkpt lat="36.447536" lon="127.845384"><ele>188.5</ele></trkpt>
      <trkpt lat="36.447714" lon="127.845594"><ele>190.0</ele></trkpt>
      <trkpt lat="36.447857" lon="127.845618"><ele>191.2</ele></trkpt>
      <trkpt lat="36.447961" lon="127.845709"><ele>192.4</ele></trkpt>
      <trkpt lat="36.448094" lon="127.845967"><ele>194.6</ele></trkpt>
      <trkpt lat="36.448409" lon="127.846913"><ele>207.9</ele></trkpt>
      <trkpt lat="36.448524" lon="127.847109"><ele>211.1</ele></trkpt>
      <trkpt lat="36.448808" lon="127.847273"><ele>217.1</ele></trkpt>
      <trkpt lat="36.448883" lon="127.847407"><ele>219.9</ele></trkpt>
      <trkpt lat="36.448901" lon="127.847522"><ele>221.6</ele></trkpt>
      <trkpt lat="36.448842" lon="127.847883"><ele>227.9</ele></trkpt>
      <trkpt lat="36.449026" lon="127.849113"><ele>252.3</ele></trkpt>
      <trkpt lat="36.449129" lon="127.849363"><ele>259.7</ele></trkpt>
      <trkpt lat="36.449235" lon="127.849457"><ele>264.2</ele></trkpt>
      <trkpt lat="36.449635" lon="127.850164"><ele>287.7</ele></trkpt>
      <trkpt lat="36.449582" lon="127.850321"><ele>286.4</ele></trkpt>
      <trkpt lat="36.449466" lon="127.850404"><ele>285.1</ele></trkpt>
      <trkpt lat="36.449139" lon="127.850851"><ele>289.0</ele></trkpt>
      <trkpt lat="36.449192" lon="127.850980"><ele>286.2</ele></trkpt>
      <trkpt lat="36.449185" lon="127.851330"><ele>282.2</ele></trkpt>
      <trkpt lat="36.449060" lon="127.851629"><ele>278.7</ele></trkpt>
      <trkpt lat="36.449098" lon="127.851764"><ele>278.5</ele></trkpt>
      <trkpt lat="36.449260" lon="127.851901"><ele>276.5</ele></trkpt>
      <trkpt lat="36.449293" lon="127.851987"><ele>275.0</ele></trkpt>
      <trkpt lat="36.449267" lon="127.852596"><ele>268.5</ele></trkpt>
      <trkpt lat="36.449375" lon="127.852893"><ele>259.6</ele></trkpt>
      <trkpt lat="36.449332" lon="127.853014"><ele>257.5</ele></trkpt>
      <trkpt lat="36.449003" lon="127.853203"><ele>255.1</ele></trkpt>
      <trkpt lat="36.449043" lon="127.853316"><ele>250.6</ele></trkpt>
      <trkpt lat="36.449110" lon="127.853326"><ele>249.7</ele></trkpt>
      <trkpt lat="36.449179" lon="127.853435"><ele>244.8</ele></trkpt>
      <trkpt lat="36.449129" lon="127.853655"><ele>236.6</ele></trkpt>
      <trkpt lat="36.449153" lon="127.853789"><ele>231.1</ele></trkpt>
      <trkpt lat="36.449507" lon="127.854106"><ele>218.1</ele></trkpt>
      <trkpt lat="36.449565" lon="127.854253"><ele>213.3</ele></trkpt>
      <trkpt lat="36.449687" lon="127.854285"><ele>211.3</ele></trkpt>
      <trkpt lat="36.449828" lon="127.854418"><ele>207.2</ele></trkpt>
      <trkpt lat="36.450011" lon="127.854414"><ele>206.4</ele></trkpt>
      <trkpt lat="36.450385" lon="127.854704"><ele>194.3</ele></trkpt>
      <trkpt lat="36.450459" lon="127.854721"><ele>191.8</ele></trkpt>
      <trkpt lat="36.450527" lon="127.854664"><ele>191.1</ele></trkpt>
      <trkpt lat="36.450657" lon="127.854363"><ele>194.6</ele></trkpt>
      <trkpt lat="36.450983" lon="127.854124"><ele>193.6</ele></trkpt>
      <trkpt lat="36.451053" lon="127.854021"><ele>194.0</ele></trkpt>
      <trkpt lat="36.451237" lon="127.854083"><ele>190.5</ele></trkpt>
      <trkpt lat="36.451258" lon="127.854305"><ele>187.5</ele></trkpt>
      <trkpt lat="36.451620" lon="127.854107"><ele>186.2</ele></trkpt>
      <trkpt lat="36.451731" lon="127.854268"><ele>185.0</ele></trkpt>
      <trkpt lat="36.451796" lon="127.854472"><ele>185.5</ele></trkpt>
      <trkpt lat="36.451373" lon="127.855344"><ele>183.8</ele></trkpt>
      <trkpt lat="36.450979" lon="127.855565"><ele>181.1</ele></trkpt>
      <trkpt lat="36.450777" lon="127.855745"><ele>181.2</ele></trkpt>
      <trkpt lat="36.450785" lon="127.856489"><ele>181.6</ele></trkpt>
      <trkpt lat="36.449832" lon="127.856505"><ele>176.2</ele></trkpt>
      <trkpt lat="36.449655" lon="127.856639"><ele>176.2</ele></trkpt>
      <trkpt lat="36.447759" lon="127.857633"><ele>166.5</ele></trkpt>
      <trkpt lat="36.447578" lon="127.857186"><ele>167.3</ele></trkpt>
      <trkpt lat="36.446407" lon="127.857122"><ele>163.4</ele></trkpt>
      <trkpt lat="36.446398" lon="127.858205"><ele>164.5</ele></trkpt>
      <trkpt lat="36.446304" lon="127.859450"><ele>163.7</ele></trkpt>
      <trkpt lat="36.446101" lon="127.860754"><ele>164.0</ele></trkpt>
      <trkpt lat="36.447389" lon="127.861401"><ele>168.4</ele></trkpt>
      <trkpt lat="36.447547" lon="127.860897"><ele>170.0</ele></trkpt>
      <trkpt lat="36.447899" lon="127.861061"><ele>170.3</ele></trkpt>
      <trkpt lat="36.448154" lon="127.861265"><ele>169.3</ele></trkpt>
      <trkpt lat="36.449111" lon="127.862414"><ele>171.8</ele></trkpt>
      <trkpt lat="36.449139" lon="127.862585"><ele>172.2</ele></trkpt>
      <trkpt lat="36.449345" lon="127.863064"><ele>176.5</ele></trkpt>
      <trkpt lat="36.449333" lon="127.863591"><ele>174.3</ele></trkpt>
      <trkpt lat="36.449558" lon="127.864087"><ele>181.4</ele></trkpt>
      <trkpt lat="36.449678" lon="127.864476"><ele>184.6</ele></trkpt>
      <trkpt lat="36.449672" lon="127.865024"><ele>188.1</ele></trkpt>
      <trkpt lat="36.449592" lon="127.865823"><ele>188.5</ele></trkpt>
      <trkpt lat="36.450073" lon="127.866343"><ele>188.0</ele></trkpt>
      <trkpt lat="36.450375" lon="127.866552"><ele>189.6</ele></trkpt>
      <trkpt lat="36.450927" lon="127.867387"><ele>190.6</ele></trkpt>
      <trkpt lat="36.451024" lon="127.867694"><ele>189.4</ele></trkpt>
      <trkpt lat="36.451305" lon="127.867676"><ele>191.1</ele></trkpt>
      <trkpt lat="36.451451" lon="127.867851"><ele>191.2</ele></trkpt>
      <trkpt lat="36.451520" lon="127.867868"><ele>191.3</ele></trkpt>
      <trkpt lat="36.451975" lon="127.867848"><ele>193.2</ele></trkpt>
      <trkpt lat="36.452433" lon="127.867564"><ele>195.0</ele></trkpt>
      <trkpt lat="36.453051" lon="127.867463"><ele>198.7</ele></trkpt>
      <trkpt lat="36.454069" lon="127.868063"><ele>200.3</ele></trkpt>
      <trkpt lat="36.454213" lon="127.868194"><ele>201.8</ele></trkpt>
      <trkpt lat="36.454419" lon="127.868501"><ele>204.5</ele></trkpt>
      <trkpt lat="36.454557" lon="127.868588"><ele>205.5</ele></trkpt>
      <trkpt lat="36.454917" lon="127.869211"><ele>216.7</ele></trkpt>
      <trkpt lat="36.455181" lon="127.869140"><ele>212.4</ele></trkpt>
      <trkpt lat="36.455469" lon="127.869230"><ele>213.3</ele></trkpt>
      <trkpt lat="36.455698" lon="127.869428"><ele>215.4</ele></trkpt>
      <trkpt lat="36.455871" lon="127.869718"><ele>220.1</ele></trkpt>
      <trkpt lat="36.456159" lon="127.869835"><ele>223.3</ele></trkpt>
      <trkpt lat="36.456227" lon="127.869807"><ele>224.6</ele></trkpt>
      <trkpt lat="36.456652" lon="127.870023"><ele>235.6</ele></trkpt>
      <trkpt lat="36.456981" lon="127.870358"><ele>241.2</ele></trkpt>
      <trkpt lat="36.457107" lon="127.870582"><ele>241.1</ele></trkpt>
      <trkpt lat="36.457284" lon="127.871590"><ele>249.8</ele></trkpt>
      <trkpt lat="36.457289" lon="127.871856"><ele>252.4</ele></trkpt>
      <trkpt lat="36.457331" lon="127.872011"><ele>253.9</ele></trkpt>
      <trkpt lat="36.457413" lon="127.872101"><ele>254.6</ele></trkpt>
      <trkpt lat="36.457827" lon="127.872074"><ele>262.6</ele></trkpt>
      <trkpt lat="36.458763" lon="127.872142"><ele>287.9</ele></trkpt>
      <trkpt lat="36.459271" lon="127.872401"><ele>296.2</ele></trkpt>
      <trkpt lat="36.459450" lon="127.872432"><ele>298.4</ele></trkpt>
      <trkpt lat="36.459618" lon="127.872351"><ele>304.2</ele></trkpt>
      <trkpt lat="36.459798" lon="127.872384"><ele>310.4</ele></trkpt>
      <trkpt lat="36.459967" lon="127.872304"><ele>316.4</ele></trkpt>
      <trkpt lat="36.460490" lon="127.872321"><ele>338.0</ele></trkpt>
      <trkpt lat="36.460937" lon="127.871898"><ele>352.8</ele></trkpt>
      <trkpt lat="36.461394" lon="127.871604"><ele>370.9</ele></trkpt>
      <trkpt lat="36.461749" lon="127.871538"><ele>384.1</ele></trkpt>
      <trkpt lat="36.462241" lon="127.871592"><ele>400.7</ele></trkpt>
      <trkpt lat="36.462663" lon="127.871426"><ele>413.9</ele></trkpt>
      <trkpt lat="36.462927" lon="127.871516"><ele>425.7</ele></trkpt>
      <trkpt lat="36.463030" lon="127.871233"><ele>426.4</ele></trkpt>
      <trkpt lat="36.463284" lon="127.871037"><ele>437.3</ele></trkpt>
      <trkpt lat="36.463857" lon="127.871090"><ele>459.1</ele></trkpt>
      <trkpt lat="36.464016" lon="127.871154"><ele>466.3</ele></trkpt>
      <trkpt lat="36.464216" lon="127.871156"><ele>476.3</ele></trkpt>
      <trkpt lat="36.464355" lon="127.871085"><ele>484.9</ele></trkpt>
      <trkpt lat="36.464588" lon="127.871059"><ele>497.4</ele></trkpt>
      <trkpt lat="36.465709" lon="127.871157"><ele>557.8</ele></trkpt>
      <trkpt lat="36.465783" lon="127.870714"><ele>569.5</ele></trkpt>
      <trkpt lat="36.465963" lon="127.870719"><ele>582.7</ele></trkpt>
      <trkpt lat="36.466287" lon="127.870520"><ele>615.6</ele></trkpt>
      <trkpt lat="36.466641" lon="127.870442"><ele>646.2</ele></trkpt>
      <trkpt lat="36.466815" lon="127.870499"><ele>654.3</ele></trkpt>
      <trkpt lat="36.466993" lon="127.870458"><ele>666.0</ele></trkpt>
      <trkpt lat="36.467150" lon="127.870338"><ele>678.2</ele></trkpt>
      <trkpt lat="36.467121" lon="127.870183"><ele>681.7</ele></trkpt>
      <trkpt lat="36.467224" lon="127.870060"><ele>690.9</ele></trkpt>
      <trkpt lat="36.467569" lon="127.869934"><ele>715.8</ele></trkpt>
      <trkpt lat="36.468086" lon="127.869910"><ele>760.3</ele></trkpt>
      <trkpt lat="36.468499" lon="127.869764"><ele>787.9</ele></trkpt>
      <trkpt lat="36.468828" lon="127.869432"><ele>787.7</ele></trkpt>
      <trkpt lat="36.468927" lon="127.868913"><ele>765.4</ele></trkpt>
      <trkpt lat="36.468802" lon="127.868371"><ele>761.3</ele></trkpt>
      <trkpt lat="36.468665" lon="127.868084"><ele>767.7</ele></trkpt>
      <trkpt lat="36.468488" lon="127.867874"><ele>761.2</ele></trkpt>
      <trkpt lat="36.468512" lon="127.867560"><ele>756.0</ele></trkpt>
      <trkpt lat="36.468477" lon="127.867040"><ele>750.6</ele></trkpt>
      <trkpt lat="36.468643" lon="127.866319"><ele>752.8</ele></trkpt>
      <trkpt lat="36.468716" lon="127.866150"><ele>753.9</ele></trkpt>
      <trkpt lat="36.468883" lon="127.865967"><ele>762.4</ele></trkpt>
      <trkpt lat="36.468941" lon="127.865784"><ele>766.9</ele></trkpt>
      <trkpt lat="36.469302" lon="127.864171"><ele>814.3</ele></trkpt>
      <trkpt lat="36.469346" lon="127.864087"><ele>817.3</ele></trkpt>
      <trkpt lat="36.469682" lon="127.863864"><ele>833.7</ele></trkpt>
      <trkpt lat="36.469808" lon="127.863468"><ele>843.4</ele></trkpt>
      <trkpt lat="36.469969" lon="127.863479"><ele>845.2</ele></trkpt>
      <trkpt lat="36.469920" lon="127.863248"><ele>843.9</ele></trkpt>
    </trkseg>
  </trk>
</gpx>
