<?xml version="1.0" encoding="UTF-8"?>
<gpx version="1.1" creator="kr-100-mountains route-harvester"
     xmlns="http://www.topografix.com/GPX/1/1"
     xmlns:k100="https://github.com/jay-jang/kr-100-mountains/ns/1"
     xmlns:xsi="http://www.w3.org/2001/XMLSchema-instance"
     xsi:schemaLocation="http://www.topografix.com/GPX/1/1 http://www.topografix.com/GPX/1/1/gpx.xsd">
  <metadata>
    <name>구병산 · 서원리-백지미재-구병산 정상 (대안 1) (OSM 계산 경로)</name>
    <desc>실제 GPS 기록이 아닙니다. OpenStreetMap에 등록된 등산로 선형 위에서 계산한 경로이며, 현장 통제·훼손·출입 제한·계절 통제를 반영하지 않을 수 있습니다. 산행 전 공식 안내를 확인하세요.</desc>
    <time>2026-08-04T05:56:18.960Z</time>
    <link href="https://www.openstreetmap.org/copyright"><text>© OpenStreetMap contributors (ODbL 1.0)</text></link>
    <link href="https://registry.opendata.aws/terrain-tiles/"><text>Elevation: SRTM 1 arc-second (NASA/USGS) via AWS Terrain Tiles</text></link>
    <extensions>
      <k100:provenance>osm-routed</k100:provenance>
      <k100:not_a_recorded_track>true</k100:not_a_recorded_track>
      <k100:mountain_id>gubyeongsan</k100:mountain_id>
      <k100:mountain_name>구병산</k100:mountain_name>
      <k100:route_id>gubyeongsan-22e4a7ea</k100:route_id>
      <k100:route_index>3</k100:route_index>
      <k100:route_name>서원리-백지미재-구병산 정상</k100:route_name>
      <k100:variant>1</k100:variant>
      <k100:source>OpenStreetMap via Overpass API</k100:source>
      <k100:license>ODbL-1.0</k100:license>
      <k100:attribution>© OpenStreetMap contributors</k100:attribution>
      <k100:elevation_source>SRTM 1 arc-second (NASA/USGS) — AWS Terrain Tiles 배포본. 지형 DEM 추정 고도이며 실측 아님</k100:elevation_source>
      <k100:algorithm>dijkstra-grid-v1</k100:algorithm>
      <k100:osm_snapshot>2026-08-04</k100:osm_snapshot>
      <k100:snap_trailhead_m>21</k100:snap_trailhead_m>
      <k100:snap_summit_m>44</k100:snap_summit_m>
      <k100:validation_score>93</k100:validation_score>
      <k100:validation_status>accepted</k100:validation_status>
    </extensions>
  </metadata>
  <trk>
    <name>구병산 · 서원리-백지미재-구병산 정상 (대안 1) (OSM 계산 경로)</name>
    <desc>실제 GPS 기록이 아닙니다. OpenStreetMap에 등록된 등산로 선형 위에서 계산한 경로이며, 현장 통제·훼손·출입 제한·계절 통제를 반영하지 않을 수 있습니다. 산행 전 공식 안내를 확인하세요.</desc>
    <trkseg>
      <trkpt lat="36.481561" lon="127.816284"><ele>196.6</ele></trkpt>
      <trkpt lat="36.480880" lon="127.816308"><ele>195.0</ele></trkpt>
      <trkpt lat="36.480055" lon="127.816126"><ele>198.1</ele></trkpt>
      <trkpt lat="36.479821" lon="127.816156"><ele>198.9</ele></trkpt>
      <trkpt lat="36.479599" lon="127.816302"><ele>199.5</ele></trkpt>
      <trkpt lat="36.479455" lon="127.816517"><ele>198.6</ele></trkpt>
      <trkpt lat="36.479420" lon="127.816776"><ele>198.8</ele></trkpt>
      <trkpt lat="36.479473" lon="127.817240"><ele>200.2</ele></trkpt>
      <trkpt lat="36.479615" lon="127.817833"><ele>200.6</ele></trkpt>
      <trkpt lat="36.480867" lon="127.820080"><ele>208.1</ele></trkpt>
      <trkpt lat="36.481047" lon="127.820357"><ele>209.8</ele></trkpt>
      <trkpt lat="36.481647" lon="127.821064"><ele>212.8</ele></trkpt>
      <trkpt lat="36.481996" lon="127.821647"><ele>209.2</ele></trkpt>
      <trkpt lat="36.482290" lon="127.822382"><ele>209.2</ele></trkpt>
      <trkpt lat="36.482572" lon="127.823676"><ele>209.8</ele></trkpt>
      <trkpt lat="36.482823" lon="127.824304"><ele>208.2</ele></trkpt>
      <trkpt lat="36.483151" lon="127.824715"><ele>210.7</ele></trkpt>
      <trkpt lat="36.483478" lon="127.824974"><ele>214.5</ele></trkpt>
      <trkpt lat="36.484670" lon="127.825576"><ele>227.1</ele></trkpt>
      <trkpt lat="36.484880" lon="127.825780"><ele>227.8</ele></trkpt>
      <trkpt lat="36.485043" lon="127.826041"><ele>230.6</ele></trkpt>
      <trkpt lat="36.485135" lon="127.826231"><ele>233.2</ele></trkpt>
      <trkpt lat="36.485268" lon="127.826766"><ele>239.0</ele></trkpt>
      <trkpt lat="36.485277" lon="127.827095"><ele>244.7</ele></trkpt>
      <trkpt lat="36.485191" lon="127.828043"><ele>259.4</ele></trkpt>
      <trkpt lat="36.485317" lon="127.828547"><ele>267.5</ele></trkpt>
      <trkpt lat="36.485396" lon="127.828690"><ele>270.4</ele></trkpt>
      <trkpt lat="36.485576" lon="127.828929"><ele>276.3</ele></trkpt>
      <trkpt lat="36.485790" lon="127.829114"><ele>283.9</ele></trkpt>
      <trkpt lat="36.492778" lon="127.832544"><ele>300.0</ele></trkpt>
      <trkpt lat="36.492967" lon="127.832762"><ele>302.1</ele></trkpt>
      <trkpt lat="36.493048" lon="127.833334"><ele>296.0</ele></trkpt>
      <trkpt lat="36.493224" lon="127.833963"><ele>293.4</ele></trkpt>
      <trkpt lat="36.493296" lon="127.835049"><ele>282.4</ele></trkpt>
      <trkpt lat="36.493309" lon="127.835915"><ele>282.1</ele></trkpt>
      <trkpt lat="36.493207" lon="127.836771"><ele>272.8</ele></trkpt>
      <trkpt lat="36.493322" lon="127.837156"><ele>269.7</ele></trkpt>
      <trkpt lat="36.493267" lon="127.839106"><ele>261.9</ele></trkpt>
      <trkpt lat="36.493242" lon="127.839342"><ele>263.9</ele></trkpt>
      <trkpt lat="36.492877" lon="127.839939"><ele>267.6</ele></trkpt>
      <trkpt lat="36.492583" lon="127.841225"><ele>276.9</ele></trkpt>
      <trkpt lat="36.492580" lon="127.841438"><ele>277.4</ele></trkpt>
      <trkpt lat="36.492615" lon="127.841708"><ele>275.8</ele></trkpt>
      <trkpt lat="36.492845" lon="127.842240"><ele>272.8</ele></trkpt>
      <trkpt lat="36.492829" lon="127.842780"><ele>270.8</ele></trkpt>
      <trkpt lat="36.492886" lon="127.843052"><ele>274.3</ele></trkpt>
      <trkpt lat="36.493084" lon="127.845192"><ele>275.6</ele></trkpt>
      <trkpt lat="36.492914" lon="127.846201"><ele>271.6</ele></trkpt>
      <trkpt lat="36.492966" lon="127.846839"><ele>268.3</ele></trkpt>
      <trkpt lat="36.493071" lon="127.847151"><ele>268.1</ele></trkpt>
      <trkpt lat="36.493890" lon="127.848836"><ele>267.4</ele></trkpt>
      <trkpt lat="36.494250" lon="127.849179"><ele>269.8</ele></trkpt>
      <trkpt lat="36.494577" lon="127.849648"><ele>270.9</ele></trkpt>
      <trkpt lat="36.494882" lon="127.849763"><ele>270.2</ele></trkpt>
      <trkpt lat="36.495128" lon="127.849719"><ele>269.2</ele></trkpt>
      <trkpt lat="36.495438" lon="127.849508"><ele>269.8</ele></trkpt>
      <trkpt lat="36.495844" lon="127.849341"><ele>269.1</ele></trkpt>
      <trkpt lat="36.496357" lon="127.849611"><ele>264.5</ele></trkpt>
      <trkpt lat="36.497574" lon="127.851913"><ele>259.2</ele></trkpt>
      <trkpt lat="36.498006" lon="127.852536"><ele>260.4</ele></trkpt>
      <trkpt lat="36.498076" lon="127.852835"><ele>263.6</ele></trkpt>
      <trkpt lat="36.498340" lon="127.853024"><ele>266.6</ele></trkpt>
      <trkpt lat="36.498646" lon="127.853573"><ele>269.6</ele></trkpt>
      <trkpt lat="36.499677" lon="127.854901"><ele>272.3</ele></trkpt>
      <trkpt lat="36.500121" lon="127.855359"><ele>268.7</ele></trkpt>
      <trkpt lat="36.500439" lon="127.855568"><ele>269.5</ele></trkpt>
      <trkpt lat="36.500570" lon="127.856052"><ele>261.0</ele></trkpt>
      <trkpt lat="36.500510" lon="127.856943"><ele>268.6</ele></trkpt>
      <trkpt lat="36.498976" lon="127.856554"><ele>272.3</ele></trkpt>
      <trkpt lat="36.498815" lon="127.856575"><ele>273.7</ele></trkpt>
      <trkpt lat="36.498402" lon="127.856761"><ele>282.8</ele></trkpt>
      <trkpt lat="36.498215" lon="127.856758"><ele>285.6</ele></trkpt>
      <trkpt lat="36.498025" lon="127.856655"><ele>285.3</ele></trkpt>
      <trkpt lat="36.497614" lon="127.856241"><ele>278.5</ele></trkpt>
      <trkpt lat="36.496772" lon="127.855816"><ele>275.4</ele></trkpt>
      <trkpt lat="36.496181" lon="127.855633"><ele>279.3</ele></trkpt>
      <trkpt lat="36.495752" lon="127.855105"><ele>272.8</ele></trkpt>
      <trkpt lat="36.495562" lon="127.854969"><ele>275.7</ele></trkpt>
      <trkpt lat="36.495277" lon="127.854875"><ele>276.0</ele></trkpt>
      <trkpt lat="36.494459" lon="127.854414"><ele>275.7</ele></trkpt>
      <trkpt lat="36.494193" lon="127.854169"><ele>278.1</ele></trkpt>
      <trkpt lat="36.493820" lon="127.853685"><ele>280.3</ele></trkpt>
      <trkpt lat="36.493588" lon="127.853600"><ele>279.7</ele></trkpt>
      <trkpt lat="36.493441" lon="127.853662"><ele>277.6</ele></trkpt>
      <trkpt lat="36.493313" lon="127.853783"><ele>276.3</ele></trkpt>
      <trkpt lat="36.492985" lon="127.854535"><ele>271.8</ele></trkpt>
      <trkpt lat="36.492532" lon="127.855064"><ele>265.5</ele></trkpt>
      <trkpt lat="36.492395" lon="127.855403"><ele>267.0</ele></trkpt>
      <trkpt lat="36.492354" lon="127.856041"><ele>269.9</ele></trkpt>
      <trkpt lat="36.492442" lon="127.856908"><ele>270.0</ele></trkpt>
      <trkpt lat="36.492332" lon="127.858224"><ele>267.8</ele></trkpt>
      <trkpt lat="36.492244" lon="127.858640"><ele>269.0</ele></trkpt>
      <trkpt lat="36.491976" lon="127.858921"><ele>261.9</ele></trkpt>
      <trkpt lat="36.491438" lon="127.859263"><ele>259.4</ele></trkpt>
      <trkpt lat="36.491046" lon="127.859470"><ele>260.4</ele></trkpt>
      <trkpt lat="36.490093" lon="127.859809"><ele>271.2</ele></trkpt>
      <trkpt lat="36.489836" lon="127.860157"><ele>277.9</ele></trkpt>
      <trkpt lat="36.489763" lon="127.860328"><ele>280.6</ele></trkpt>
      <trkpt lat="36.489716" lon="127.861296"><ele>281.1</ele></trkpt>
      <trkpt lat="36.489425" lon="127.862687"><ele>283.0</ele></trkpt>
      <trkpt lat="36.489078" lon="127.863684"><ele>280.8</ele></trkpt>
      <trkpt lat="36.489139" lon="127.863849"><ele>279.4</ele></trkpt>
      <trkpt lat="36.489078" lon="127.863989"><ele>277.7</ele></trkpt>
      <trkpt lat="36.488697" lon="127.864212"><ele>277.7</ele></trkpt>
      <trkpt lat="36.488569" lon="127.864045"><ele>279.7</ele></trkpt>
      <trkpt lat="36.488410" lon="127.864053"><ele>281.1</ele></trkpt>
      <trkpt lat="36.488305" lon="127.864002"><ele>282.4</ele></trkpt>
      <trkpt lat="36.488236" lon="127.863746"><ele>284.7</ele></trkpt>
      <trkpt lat="36.488293" lon="127.863626"><ele>285.8</ele></trkpt>
      <trkpt lat="36.488269" lon="127.863493"><ele>286.8</ele></trkpt>
      <trkpt lat="36.488212" lon="127.863386"><ele>287.6</ele></trkpt>
      <trkpt lat="36.488000" lon="127.863278"><ele>288.8</ele></trkpt>
      <trkpt lat="36.486685" lon="127.864082"><ele>296.1</ele></trkpt>
      <trkpt lat="36.485369" lon="127.865698"><ele>310.9</ele></trkpt>
      <trkpt lat="36.485197" lon="127.865973"><ele>312.3</ele></trkpt>
      <trkpt lat="36.485013" lon="127.866543"><ele>315.4</ele></trkpt>
      <trkpt lat="36.484668" lon="127.867250"><ele>315.7</ele></trkpt>
      <trkpt lat="36.484438" lon="127.867530"><ele>315.3</ele></trkpt>
      <trkpt lat="36.483681" lon="127.868010"><ele>321.9</ele></trkpt>
      <trkpt lat="36.483456" lon="127.869341"><ele>325.9</ele></trkpt>
      <trkpt lat="36.483180" lon="127.869856"><ele>334.0</ele></trkpt>
      <trkpt lat="36.482871" lon="127.870079"><ele>339.4</ele></trkpt>
      <trkpt lat="36.482634" lon="127.870374"><ele>343.3</ele></trkpt>
      <trkpt lat="36.482259" lon="127.870460"><ele>349.4</ele></trkpt>
      <trkpt lat="36.481521" lon="127.870310"><ele>359.8</ele></trkpt>
      <trkpt lat="36.481116" lon="127.870412"><ele>365.9</ele></trkpt>
      <trkpt lat="36.480883" lon="127.870380"><ele>371.8</ele></trkpt>
      <trkpt lat="36.480702" lon="127.870455"><ele>375.1</ele></trkpt>
      <trkpt lat="36.480016" lon="127.870331"><ele>383.8</ele></trkpt>
      <trkpt lat="36.479727" lon="127.870369"><ele>386.6</ele></trkpt>
      <trkpt lat="36.479513" lon="127.870279"><ele>389.3</ele></trkpt>
      <trkpt lat="36.479079" lon="127.869735"><ele>397.2</ele></trkpt>
      <trkpt lat="36.478622" lon="127.868611"><ele>414.8</ele></trkpt>
      <trkpt lat="36.478426" lon="127.868617"><ele>417.6</ele></trkpt>
      <trkpt lat="36.478129" lon="127.868468"><ele>424.1</ele></trkpt>
      <trkpt lat="36.477952" lon="127.868352"><ele>429.3</ele></trkpt>
      <trkpt lat="36.477887" lon="127.868224"><ele>432.2</ele></trkpt>
      <trkpt lat="36.477249" lon="127.867983"><ele>460.8</ele></trkpt>
      <trkpt lat="36.476874" lon="127.867732"><ele>483.2</ele></trkpt>
      <trkpt lat="36.476619" lon="127.867695"><ele>493.7</ele></trkpt>
      <trkpt lat="36.476235" lon="127.867432"><ele>513.9</ele></trkpt>
      <trkpt lat="36.476034" lon="127.867397"><ele>525.4</ele></trkpt>
      <trkpt lat="36.475996" lon="127.867273"><ele>527.6</ele></trkpt>
      <trkpt lat="36.475729" lon="127.867255"><ele>545.0</ele></trkpt>
      <trkpt lat="36.475714" lon="127.867026"><ele>545.4</ele></trkpt>
      <trkpt lat="36.475563" lon="127.866896"><ele>556.5</ele></trkpt>
      <trkpt lat="36.474751" lon="127.866949"><ele>598.5</ele></trkpt>
      <trkpt lat="36.474186" lon="127.867055"><ele>615.6</ele></trkpt>
      <trkpt lat="36.473717" lon="127.866983"><ele>629.6</ele></trkpt>
      <trkpt lat="36.473595" lon="127.866799"><ele>638.8</ele></trkpt>
      <trkpt lat="36.472946" lon="127.866219"><ele>669.2</ele></trkpt>
      <trkpt lat="36.472952" lon="127.866123"><ele>673.5</ele></trkpt>
      <trkpt lat="36.472840" lon="127.865995"><ele>680.3</ele></trkpt>
      <trkpt lat="36.472167" lon="127.865761"><ele>703.3</ele></trkpt>
      <trkpt lat="36.471940" lon="127.865750"><ele>706.4</ele></trkpt>
      <trkpt lat="36.471500" lon="127.865859"><ele>716.3</ele></trkpt>
      <trkpt lat="36.471192" lon="127.865785"><ele>726.8</ele></trkpt>
      <trkpt lat="36.470824" lon="127.865828"><ele>731.2</ele></trkpt>
      <trkpt lat="36.470495" lon="127.865685"><ele>734.9</ele></trkpt>
      <trkpt lat="36.470244" lon="127.865476"><ele>742.8</ele></trkpt>
      <trkpt lat="36.470169" lon="127.865484"><ele>744.7</ele></trkpt>
      <trkpt lat="36.469855" lon="127.865710"><ele>747.3</ele></trkpt>
      <trkpt lat="36.469454" lon="127.865667"><ele>761.9</ele></trkpt>
      <trkpt lat="36.469256" lon="127.865576"><ele>771.1</ele></trkpt>
      <trkpt lat="36.469060" lon="127.865436"><ele>775.2</ele></trkpt>
      <trkpt lat="36.469042" lon="127.865322"><ele>777.7</ele></trkpt>
      <trkpt lat="36.469259" lon="127.864286"><ele>811.9</ele></trkpt>
      <trkpt lat="36.469346" lon="127.864087"><ele>817.3</ele></trkpt>
      <trkpt lat="36.469682" lon="127.863864"><ele>833.7</ele></trkpt>
      <trkpt lat="36.469808" lon="127.863468"><ele>843.4</ele></trkpt>
      <trkpt lat="36.469969" lon="127.863479"><ele>845.2</ele></trkpt>
      <trkpt lat="36.469920" lon="127.863248"><ele>843.9</ele></trkpt>
    </trkseg>
  </trk>
</gpx>
