<?xml version="1.0" encoding="UTF-8"?>
<gpx version="1.1" creator="kr-100-mountains route-harvester"
     xmlns="http://www.topografix.com/GPX/1/1"
     xmlns:k100="https://github.com/jay-jang/kr-100-mountains/ns/1"
     xmlns:xsi="http://www.w3.org/2001/XMLSchema-instance"
     xsi:schemaLocation="http://www.topografix.com/GPX/1/1 http://www.topografix.com/GPX/1/1/gpx.xsd">
  <metadata>
    <name>문수산 · 축서사 원점회귀 코스 (대안 1) (OSM 계산 경로)</name>
    <desc>실제 GPS 기록이 아닙니다. OpenStreetMap에 등록된 등산로 선형 위에서 계산한 경로이며, 현장 통제·훼손·출입 제한·계절 통제를 반영하지 않을 수 있습니다. 산행 전 공식 안내를 확인하세요.</desc>
    <time>2026-08-04T05:39:31.800Z</time>
    <link href="https://www.openstreetmap.org/copyright"><text>© OpenStreetMap contributors (ODbL 1.0)</text></link>
    <link href="https://registry.opendata.aws/terrain-tiles/"><text>Elevation: SRTM 1 arc-second (NASA/USGS) via AWS Terrain Tiles</text></link>
    <extensions>
      <k100:provenance>osm-routed</k100:provenance>
      <k100:not_a_recorded_track>true</k100:not_a_recorded_track>
      <k100:mountain_id>munsusan</k100:mountain_id>
      <k100:mountain_name>문수산</k100:mountain_name>
      <k100:route_id>munsusan-f2d147eb</k100:route_id>
      <k100:route_index>1</k100:route_index>
      <k100:route_name>축서사 원점회귀 코스</k100:route_name>
      <k100:variant>1</k100:variant>
      <k100:source>OpenStreetMap via Overpass API</k100:source>
      <k100:license>ODbL-1.0</k100:license>
      <k100:attribution>© OpenStreetMap contributors</k100:attribution>
      <k100:elevation_source>SRTM 1 arc-second (NASA/USGS) — AWS Terrain Tiles 배포본. 지형 DEM 추정 고도이며 실측 아님</k100:elevation_source>
      <k100:algorithm>dijkstra-grid-v1</k100:algorithm>
      <k100:osm_snapshot>2026-08-04</k100:osm_snapshot>
      <k100:snap_trailhead_m>33</k100:snap_trailhead_m>
      <k100:snap_summit_m>2</k100:snap_summit_m>
      <k100:validation_score>93</k100:validation_score>
      <k100:validation_status>accepted</k100:validation_status>
    </extensions>
  </metadata>
  <trk>
    <name>문수산 · 축서사 원점회귀 코스 (대안 1) (OSM 계산 경로)</name>
    <desc>실제 GPS 기록이 아닙니다. OpenStreetMap에 등록된 등산로 선형 위에서 계산한 경로이며, 현장 통제·훼손·출입 제한·계절 통제를 반영하지 않을 수 있습니다. 산행 전 공식 안내를 확인하세요.</desc>
    <trkseg>
      <trkpt lat="36.981296" lon="128.800283"><ele>704.2</ele></trkpt>
      <trkpt lat="36.980615" lon="128.800546"><ele>703.4</ele></trkpt>
      <trkpt lat="36.980502" lon="128.800707"><ele>705.7</ele></trkpt>
      <trkpt lat="36.980233" lon="128.800906"><ele>707.6</ele></trkpt>
      <trkpt lat="36.980155" lon="128.801018"><ele>710.1</ele></trkpt>
      <trkpt lat="36.980035" lon="128.800917"><ele>710.4</ele></trkpt>
      <trkpt lat="36.979968" lon="128.800772"><ele>712.2</ele></trkpt>
      <trkpt lat="36.979855" lon="128.800772"><ele>718.3</ele></trkpt>
      <trkpt lat="36.979737" lon="128.800653"><ele>725.5</ele></trkpt>
      <trkpt lat="36.979635" lon="128.800404"><ele>733.3</ele></trkpt>
      <trkpt lat="36.979683" lon="128.800245"><ele>730.2</ele></trkpt>
      <trkpt lat="36.979666" lon="128.800165"><ele>730.6</ele></trkpt>
      <trkpt lat="36.979548" lon="128.800082"><ele>736.8</ele></trkpt>
      <trkpt lat="36.979248" lon="128.800128"><ele>758.3</ele></trkpt>
      <trkpt lat="36.979038" lon="128.800232"><ele>772.6</ele></trkpt>
      <trkpt lat="36.978699" lon="128.800130"><ele>793.9</ele></trkpt>
      <trkpt lat="36.978547" lon="128.800002"><ele>802.7</ele></trkpt>
      <trkpt lat="36.978297" lon="128.800034"><ele>816.5</ele></trkpt>
      <trkpt lat="36.978109" lon="128.799997"><ele>822.2</ele></trkpt>
      <trkpt lat="36.977821" lon="128.800117"><ele>830.6</ele></trkpt>
      <trkpt lat="36.977660" lon="128.800266"><ele>836.5</ele></trkpt>
      <trkpt lat="36.977410" lon="128.800648"><ele>849.2</ele></trkpt>
      <trkpt lat="36.977410" lon="128.801101"><ele>861.0</ele></trkpt>
      <trkpt lat="36.976718" lon="128.801623"><ele>892.5</ele></trkpt>
      <trkpt lat="36.976613" lon="128.801814"><ele>899.3</ele></trkpt>
      <trkpt lat="36.976437" lon="128.801903"><ele>908.7</ele></trkpt>
      <trkpt lat="36.976368" lon="128.802072"><ele>915.0</ele></trkpt>
      <trkpt lat="36.976150" lon="128.802177"><ele>923.9</ele></trkpt>
      <trkpt lat="36.976070" lon="128.802308"><ele>929.5</ele></trkpt>
      <trkpt lat="36.975989" lon="128.802499"><ele>936.9</ele></trkpt>
      <trkpt lat="36.976002" lon="128.802756"><ele>945.0</ele></trkpt>
      <trkpt lat="36.975931" lon="128.803266"><ele>955.7</ele></trkpt>
      <trkpt lat="36.976084" lon="128.803696"><ele>956.4</ele></trkpt>
      <trkpt lat="36.976112" lon="128.803991"><ele>956.0</ele></trkpt>
      <trkpt lat="36.976113" lon="128.804244"><ele>956.5</ele></trkpt>
      <trkpt lat="36.975976" lon="128.805034"><ele>966.6</ele></trkpt>
      <trkpt lat="36.975981" lon="128.805771"><ele>963.6</ele></trkpt>
      <trkpt lat="36.976305" lon="128.806264"><ele>972.6</ele></trkpt>
      <trkpt lat="36.976548" lon="128.806511"><ele>985.2</ele></trkpt>
      <trkpt lat="36.976960" lon="128.807209"><ele>1019.6</ele></trkpt>
      <trkpt lat="36.976925" lon="128.807541"><ele>1026.1</ele></trkpt>
      <trkpt lat="36.976827" lon="128.807906"><ele>1029.8</ele></trkpt>
      <trkpt lat="36.976941" lon="128.808307"><ele>1044.1</ele></trkpt>
      <trkpt lat="36.977105" lon="128.808389"><ele>1051.2</ele></trkpt>
      <trkpt lat="36.977282" lon="128.808621"><ele>1061.9</ele></trkpt>
      <trkpt lat="36.977247" lon="128.809100"><ele>1088.5</ele></trkpt>
      <trkpt lat="36.977335" lon="128.809181"><ele>1091.9</ele></trkpt>
      <trkpt lat="36.977420" lon="128.809408"><ele>1095.3</ele></trkpt>
      <trkpt lat="36.977514" lon="128.809514"><ele>1093.9</ele></trkpt>
      <trkpt lat="36.977722" lon="128.809451"><ele>1089.4</ele></trkpt>
      <trkpt lat="36.978091" lon="128.809816"><ele>1085.4</ele></trkpt>
      <trkpt lat="36.978228" lon="128.810094"><ele>1085.6</ele></trkpt>
      <trkpt lat="36.978333" lon="128.810170"><ele>1085.8</ele></trkpt>
      <trkpt lat="36.978549" lon="128.810189"><ele>1091.8</ele></trkpt>
      <trkpt lat="36.978622" lon="128.810269"><ele>1095.5</ele></trkpt>
      <trkpt lat="36.978727" lon="128.810164"><ele>1098.6</ele></trkpt>
      <trkpt lat="36.978961" lon="128.810261"><ele>1112.5</ele></trkpt>
      <trkpt lat="36.979263" lon="128.810237"><ele>1122.1</ele></trkpt>
      <trkpt lat="36.979340" lon="128.810352"><ele>1126.2</ele></trkpt>
      <trkpt lat="36.979442" lon="128.810382"><ele>1129.8</ele></trkpt>
      <trkpt lat="36.979544" lon="128.810320"><ele>1132.4</ele></trkpt>
      <trkpt lat="36.979987" lon="128.810631"><ele>1145.7</ele></trkpt>
      <trkpt lat="36.980279" lon="128.810524"><ele>1144.7</ele></trkpt>
      <trkpt lat="36.980373" lon="128.810591"><ele>1152.9</ele></trkpt>
      <trkpt lat="36.980371" lon="128.810708"><ele>1158.9</ele></trkpt>
      <trkpt lat="36.980553" lon="128.810757"><ele>1168.3</ele></trkpt>
      <trkpt lat="36.980562" lon="128.810883"><ele>1173.3</ele></trkpt>
      <trkpt lat="36.980693" lon="128.810967"><ele>1179.1</ele></trkpt>
      <trkpt lat="36.980774" lon="128.810902"><ele>1180.4</ele></trkpt>
      <trkpt lat="36.980979" lon="128.811103"><ele>1189.0</ele></trkpt>
    </trkseg>
  </trk>
</gpx>
