<?xml version="1.0" encoding="UTF-8"?>
<gpx version="1.1" creator="kr-100-mountains route-harvester"
     xmlns="http://www.topografix.com/GPX/1/1"
     xmlns:k100="https://github.com/jay-jang/kr-100-mountains/ns/1"
     xmlns:xsi="http://www.w3.org/2001/XMLSchema-instance"
     xsi:schemaLocation="http://www.topografix.com/GPX/1/1 http://www.topografix.com/GPX/1/1/gpx.xsd">
  <metadata>
    <name>연화산 · 느재고개-연화산 종주 (대안 2) (OSM 계산 경로)</name>
    <desc>실제 GPS 기록이 아닙니다. OpenStreetMap에 등록된 등산로 선형 위에서 계산한 경로이며, 현장 통제·훼손·출입 제한·계절 통제를 반영하지 않을 수 있습니다. 산행 전 공식 안내를 확인하세요.</desc>
    <time>2026-08-04T05:47:21.677Z</time>
    <link href="https://www.openstreetmap.org/copyright"><text>© OpenStreetMap contributors (ODbL 1.0)</text></link>
    <link href="https://registry.opendata.aws/terrain-tiles/"><text>Elevation: SRTM 1 arc-second (NASA/USGS) via AWS Terrain Tiles</text></link>
    <extensions>
      <k100:provenance>osm-routed</k100:provenance>
      <k100:not_a_recorded_track>true</k100:not_a_recorded_track>
      <k100:mountain_id>yeonhwasan</k100:mountain_id>
      <k100:mountain_name>연화산</k100:mountain_name>
      <k100:route_id>yeonhwasan-1d2b35ec</k100:route_id>
      <k100:route_index>2</k100:route_index>
      <k100:route_name>느재고개-연화산 종주</k100:route_name>
      <k100:variant>2</k100:variant>
      <k100:source>OpenStreetMap via Overpass API</k100:source>
      <k100:license>ODbL-1.0</k100:license>
      <k100:attribution>© OpenStreetMap contributors</k100:attribution>
      <k100:elevation_source>SRTM 1 arc-second (NASA/USGS) — AWS Terrain Tiles 배포본. 지형 DEM 추정 고도이며 실측 아님</k100:elevation_source>
      <k100:algorithm>dijkstra-grid-v1</k100:algorithm>
      <k100:osm_snapshot>2026-08-04</k100:osm_snapshot>
      <k100:snap_trailhead_m>69</k100:snap_trailhead_m>
      <k100:snap_summit_m>106</k100:snap_summit_m>
      <k100:validation_score>82</k100:validation_score>
      <k100:validation_status>accepted</k100:validation_status>
    </extensions>
  </metadata>
  <trk>
    <name>연화산 · 느재고개-연화산 종주 (대안 2) (OSM 계산 경로)</name>
    <desc>실제 GPS 기록이 아닙니다. OpenStreetMap에 등록된 등산로 선형 위에서 계산한 경로이며, 현장 통제·훼손·출입 제한·계절 통제를 반영하지 않을 수 있습니다. 산행 전 공식 안내를 확인하세요.</desc>
    <trkseg>
      <trkpt lat="35.084531" lon="128.239497"><ele>393.2</ele></trkpt>
      <trkpt lat="35.084684" lon="128.239937"><ele>387.1</ele></trkpt>
      <trkpt lat="35.084998" lon="128.240353"><ele>371.2</ele></trkpt>
      <trkpt lat="35.085308" lon="128.241850"><ele>335.2</ele></trkpt>
      <trkpt lat="35.085617" lon="128.242148"><ele>328.2</ele></trkpt>
      <trkpt lat="35.086240" lon="128.242333"><ele>305.1</ele></trkpt>
      <trkpt lat="35.086524" lon="128.242593"><ele>300.6</ele></trkpt>
      <trkpt lat="35.086831" lon="128.243078"><ele>301.6</ele></trkpt>
      <trkpt lat="35.087055" lon="128.243304"><ele>294.0</ele></trkpt>
      <trkpt lat="35.087922" lon="128.243725"><ele>272.7</ele></trkpt>
      <trkpt lat="35.088644" lon="128.243926"><ele>262.2</ele></trkpt>
      <trkpt lat="35.089726" lon="128.244111"><ele>255.8</ele></trkpt>
      <trkpt lat="35.090209" lon="128.244108"><ele>258.3</ele></trkpt>
      <trkpt lat="35.090564" lon="128.244012"><ele>249.6</ele></trkpt>
      <trkpt lat="35.090674" lon="128.244033"><ele>246.0</ele></trkpt>
      <trkpt lat="35.091793" lon="128.244634"><ele>229.0</ele></trkpt>
      <trkpt lat="35.092225" lon="128.244956"><ele>224.1</ele></trkpt>
      <trkpt lat="35.092774" lon="128.245688"><ele>216.1</ele></trkpt>
      <trkpt lat="35.093257" lon="128.246037"><ele>216.4</ele></trkpt>
      <trkpt lat="35.093863" lon="128.246884"><ele>200.5</ele></trkpt>
      <trkpt lat="35.094308" lon="128.247241"><ele>194.7</ele></trkpt>
      <trkpt lat="35.094624" lon="128.247689"><ele>175.2</ele></trkpt>
      <trkpt lat="35.095684" lon="128.249626"><ele>133.8</ele></trkpt>
      <trkpt lat="35.096042" lon="128.249786"><ele>123.6</ele></trkpt>
      <trkpt lat="35.096777" lon="128.249950"><ele>106.1</ele></trkpt>
      <trkpt lat="35.097163" lon="128.249776"><ele>96.4</ele></trkpt>
      <trkpt lat="35.097464" lon="128.249760"><ele>90.2</ele></trkpt>
      <trkpt lat="35.097576" lon="128.249805"><ele>87.4</ele></trkpt>
      <trkpt lat="35.097771" lon="128.250092"><ele>82.2</ele></trkpt>
      <trkpt lat="35.097861" lon="128.250509"><ele>76.3</ele></trkpt>
      <trkpt lat="35.097549" lon="128.251034"><ele>76.8</ele></trkpt>
      <trkpt lat="35.097694" lon="128.251136"><ele>74.2</ele></trkpt>
      <trkpt lat="35.097658" lon="128.251508"><ele>74.7</ele></trkpt>
      <trkpt lat="35.097397" lon="128.251423"><ele>74.5</ele></trkpt>
      <trkpt lat="35.097286" lon="128.251448"><ele>73.9</ele></trkpt>
      <trkpt lat="35.096952" lon="128.251730"><ele>72.0</ele></trkpt>
      <trkpt lat="35.097065" lon="128.251862"><ele>72.0</ele></trkpt>
      <trkpt lat="35.097043" lon="128.252041"><ele>72.8</ele></trkpt>
      <trkpt lat="35.096591" lon="128.252973"><ele>73.0</ele></trkpt>
      <trkpt lat="35.096574" lon="128.253472"><ele>74.0</ele></trkpt>
      <trkpt lat="35.096464" lon="128.253627"><ele>74.6</ele></trkpt>
      <trkpt lat="35.096341" lon="128.253708"><ele>75.0</ele></trkpt>
      <trkpt lat="35.096284" lon="128.253686"><ele>76.0</ele></trkpt>
      <trkpt lat="35.096161" lon="128.254105"><ele>75.2</ele></trkpt>
      <trkpt lat="35.096034" lon="128.255070"><ele>77.0</ele></trkpt>
      <trkpt lat="35.096077" lon="128.255527"><ele>78.3</ele></trkpt>
      <trkpt lat="35.096002" lon="128.256011"><ele>78.6</ele></trkpt>
      <trkpt lat="35.095872" lon="128.256454"><ele>81.5</ele></trkpt>
      <trkpt lat="35.095634" lon="128.256906"><ele>80.7</ele></trkpt>
      <trkpt lat="35.095525" lon="128.257383"><ele>77.9</ele></trkpt>
      <trkpt lat="35.095252" lon="128.257804"><ele>82.4</ele></trkpt>
      <trkpt lat="35.095206" lon="128.257988"><ele>81.9</ele></trkpt>
      <trkpt lat="35.095163" lon="128.258487"><ele>80.0</ele></trkpt>
      <trkpt lat="35.094996" lon="128.259163"><ele>80.2</ele></trkpt>
      <trkpt lat="35.095030" lon="128.259844"><ele>79.7</ele></trkpt>
      <trkpt lat="35.094926" lon="128.259969"><ele>81.7</ele></trkpt>
      <trkpt lat="35.094620" lon="128.260153"><ele>85.3</ele></trkpt>
      <trkpt lat="35.094264" lon="128.261098"><ele>89.3</ele></trkpt>
      <trkpt lat="35.094206" lon="128.261463"><ele>86.1</ele></trkpt>
      <trkpt lat="35.093930" lon="128.261575"><ele>87.1</ele></trkpt>
      <trkpt lat="35.093859" lon="128.261651"><ele>85.7</ele></trkpt>
      <trkpt lat="35.093616" lon="128.262321"><ele>83.6</ele></trkpt>
      <trkpt lat="35.093494" lon="128.262341"><ele>84.2</ele></trkpt>
      <trkpt lat="35.093434" lon="128.262559"><ele>83.7</ele></trkpt>
      <trkpt lat="35.093559" lon="128.262882"><ele>80.4</ele></trkpt>
      <trkpt lat="35.093947" lon="128.263674"><ele>78.6</ele></trkpt>
      <trkpt lat="35.094128" lon="128.263949"><ele>78.1</ele></trkpt>
      <trkpt lat="35.092959" lon="128.264635"><ele>81.3</ele></trkpt>
      <trkpt lat="35.092802" lon="128.264786"><ele>79.9</ele></trkpt>
      <trkpt lat="35.093415" lon="128.266035"><ele>76.2</ele></trkpt>
      <trkpt lat="35.093932" lon="128.266394"><ele>78.2</ele></trkpt>
      <trkpt lat="35.093325" lon="128.267040"><ele>80.6</ele></trkpt>
      <trkpt lat="35.092742" lon="128.267551"><ele>80.6</ele></trkpt>
      <trkpt lat="35.092977" lon="128.268507"><ele>82.5</ele></trkpt>
      <trkpt lat="35.093017" lon="128.268788"><ele>83.9</ele></trkpt>
      <trkpt lat="35.092986" lon="128.269048"><ele>86.0</ele></trkpt>
      <trkpt lat="35.092508" lon="128.269169"><ele>83.1</ele></trkpt>
      <trkpt lat="35.090334" lon="128.269140"><ele>80.9</ele></trkpt>
      <trkpt lat="35.090019" lon="128.269314"><ele>83.4</ele></trkpt>
      <trkpt lat="35.089660" lon="128.268519"><ele>80.9</ele></trkpt>
      <trkpt lat="35.088933" lon="128.269316"><ele>81.4</ele></trkpt>
      <trkpt lat="35.088398" lon="128.269710"><ele>88.0</ele></trkpt>
      <trkpt lat="35.087123" lon="128.270260"><ele>88.9</ele></trkpt>
      <trkpt lat="35.086879" lon="128.270531"><ele>88.7</ele></trkpt>
      <trkpt lat="35.086543" lon="128.271993"><ele>95.8</ele></trkpt>
      <trkpt lat="35.086534" lon="128.272207"><ele>101.2</ele></trkpt>
      <trkpt lat="35.086202" lon="128.272494"><ele>98.3</ele></trkpt>
      <trkpt lat="35.086206" lon="128.272768"><ele>97.8</ele></trkpt>
      <trkpt lat="35.086073" lon="128.273365"><ele>97.4</ele></trkpt>
      <trkpt lat="35.085841" lon="128.273757"><ele>103.9</ele></trkpt>
      <trkpt lat="35.085046" lon="128.274634"><ele>96.6</ele></trkpt>
      <trkpt lat="35.084924" lon="128.274701"><ele>95.1</ele></trkpt>
      <trkpt lat="35.083956" lon="128.274624"><ele>100.1</ele></trkpt>
      <trkpt lat="35.083624" lon="128.274675"><ele>98.7</ele></trkpt>
      <trkpt lat="35.083183" lon="128.274857"><ele>101.8</ele></trkpt>
      <trkpt lat="35.082917" lon="128.274825"><ele>102.7</ele></trkpt>
      <trkpt lat="35.082665" lon="128.274648"><ele>98.1</ele></trkpt>
      <trkpt lat="35.082394" lon="128.274238"><ele>96.2</ele></trkpt>
      <trkpt lat="35.083620" lon="128.274017"><ele>104.3</ele></trkpt>
      <trkpt lat="35.083530" lon="128.273953"><ele>104.9</ele></trkpt>
      <trkpt lat="35.082928" lon="128.273884"><ele>100.4</ele></trkpt>
      <trkpt lat="35.082527" lon="128.273768"><ele>100.4</ele></trkpt>
      <trkpt lat="35.081895" lon="128.273567"><ele>105.9</ele></trkpt>
      <trkpt lat="35.081712" lon="128.273411"><ele>108.1</ele></trkpt>
      <trkpt lat="35.081374" lon="128.273256"><ele>116.8</ele></trkpt>
      <trkpt lat="35.080723" lon="128.273106"><ele>127.1</ele></trkpt>
      <trkpt lat="35.080331" lon="128.273208"><ele>123.6</ele></trkpt>
      <trkpt lat="35.080289" lon="128.273305"><ele>121.6</ele></trkpt>
      <trkpt lat="35.080291" lon="128.273505"><ele>117.8</ele></trkpt>
      <trkpt lat="35.079942" lon="128.273854"><ele>115.1</ele></trkpt>
      <trkpt lat="35.079635" lon="128.274280"><ele>112.5</ele></trkpt>
      <trkpt lat="35.079371" lon="128.274148"><ele>117.7</ele></trkpt>
      <trkpt lat="35.079212" lon="128.274219"><ele>118.0</ele></trkpt>
    </trkseg>
  </trk>
</gpx>
