<?xml version="1.0" encoding="UTF-8"?>
<gpx version="1.1" creator="kr-100-mountains route-harvester"
     xmlns="http://www.topografix.com/GPX/1/1"
     xmlns:k100="https://github.com/jay-jang/kr-100-mountains/ns/1"
     xmlns:xsi="http://www.w3.org/2001/XMLSchema-instance"
     xsi:schemaLocation="http://www.topografix.com/GPX/1/1 http://www.topografix.com/GPX/1/1/gpx.xsd">
  <metadata>
    <name>연화산 · 느재고개-연화산 종주 (OSM 계산 경로)</name>
    <desc>실제 GPS 기록이 아닙니다. OpenStreetMap에 등록된 등산로 선형 위에서 계산한 경로이며, 현장 통제·훼손·출입 제한·계절 통제를 반영하지 않을 수 있습니다. 산행 전 공식 안내를 확인하세요.</desc>
    <time>2026-08-04T05:47:21.676Z</time>
    <link href="https://www.openstreetmap.org/copyright"><text>© OpenStreetMap contributors (ODbL 1.0)</text></link>
    <link href="https://registry.opendata.aws/terrain-tiles/"><text>Elevation: SRTM 1 arc-second (NASA/USGS) via AWS Terrain Tiles</text></link>
    <extensions>
      <k100:provenance>osm-routed</k100:provenance>
      <k100:not_a_recorded_track>true</k100:not_a_recorded_track>
      <k100:mountain_id>yeonhwasan</k100:mountain_id>
      <k100:mountain_name>연화산</k100:mountain_name>
      <k100:route_id>yeonhwasan-1d2b35ec</k100:route_id>
      <k100:route_index>2</k100:route_index>
      <k100:route_name>느재고개-연화산 종주</k100:route_name>
      <k100:variant>0</k100:variant>
      <k100:source>OpenStreetMap via Overpass API</k100:source>
      <k100:license>ODbL-1.0</k100:license>
      <k100:attribution>© OpenStreetMap contributors</k100:attribution>
      <k100:elevation_source>SRTM 1 arc-second (NASA/USGS) — AWS Terrain Tiles 배포본. 지형 DEM 추정 고도이며 실측 아님</k100:elevation_source>
      <k100:algorithm>dijkstra-grid-v1</k100:algorithm>
      <k100:osm_snapshot>2026-08-04</k100:osm_snapshot>
      <k100:snap_trailhead_m>69</k100:snap_trailhead_m>
      <k100:snap_summit_m>106</k100:snap_summit_m>
      <k100:validation_score>89</k100:validation_score>
      <k100:validation_status>accepted</k100:validation_status>
    </extensions>
  </metadata>
  <trk>
    <name>연화산 · 느재고개-연화산 종주 (OSM 계산 경로)</name>
    <desc>실제 GPS 기록이 아닙니다. OpenStreetMap에 등록된 등산로 선형 위에서 계산한 경로이며, 현장 통제·훼손·출입 제한·계절 통제를 반영하지 않을 수 있습니다. 산행 전 공식 안내를 확인하세요.</desc>
    <trkseg>
      <trkpt lat="35.084531" lon="128.239497"><ele>393.2</ele></trkpt>
      <trkpt lat="35.084399" lon="128.239350"><ele>397.6</ele></trkpt>
      <trkpt lat="35.084217" lon="128.239245"><ele>403.2</ele></trkpt>
      <trkpt lat="35.083719" lon="128.239066"><ele>420.4</ele></trkpt>
      <trkpt lat="35.083097" lon="128.238891"><ele>450.2</ele></trkpt>
      <trkpt lat="35.082573" lon="128.238840"><ele>469.6</ele></trkpt>
      <trkpt lat="35.082320" lon="128.238866"><ele>473.6</ele></trkpt>
      <trkpt lat="35.082338" lon="128.238975"><ele>472.8</ele></trkpt>
      <trkpt lat="35.082182" lon="128.239460"><ele>459.4</ele></trkpt>
      <trkpt lat="35.082112" lon="128.239862"><ele>447.1</ele></trkpt>
      <trkpt lat="35.081998" lon="128.240018"><ele>441.0</ele></trkpt>
      <trkpt lat="35.081826" lon="128.240085"><ele>434.4</ele></trkpt>
      <trkpt lat="35.081306" lon="128.240495"><ele>412.2</ele></trkpt>
      <trkpt lat="35.080992" lon="128.240654"><ele>405.5</ele></trkpt>
      <trkpt lat="35.080828" lon="128.240882"><ele>406.0</ele></trkpt>
      <trkpt lat="35.080374" lon="128.241187"><ele>408.1</ele></trkpt>
      <trkpt lat="35.080106" lon="128.241273"><ele>405.6</ele></trkpt>
      <trkpt lat="35.079735" lon="128.241523"><ele>408.8</ele></trkpt>
      <trkpt lat="35.079265" lon="128.242080"><ele>411.1</ele></trkpt>
      <trkpt lat="35.079186" lon="128.242496"><ele>407.0</ele></trkpt>
      <trkpt lat="35.078712" lon="128.243687"><ele>398.9</ele></trkpt>
      <trkpt lat="35.078633" lon="128.244009"><ele>400.5</ele></trkpt>
      <trkpt lat="35.078631" lon="128.244261"><ele>399.8</ele></trkpt>
      <trkpt lat="35.078780" lon="128.244556"><ele>401.8</ele></trkpt>
      <trkpt lat="35.078767" lon="128.244781"><ele>397.9</ele></trkpt>
      <trkpt lat="35.078881" lon="128.245559"><ele>371.7</ele></trkpt>
      <trkpt lat="35.079065" lon="128.246284"><ele>367.3</ele></trkpt>
      <trkpt lat="35.078909" lon="128.246941"><ele>362.6</ele></trkpt>
      <trkpt lat="35.078354" lon="128.248220"><ele>358.9</ele></trkpt>
      <trkpt lat="35.078207" lon="128.248826"><ele>370.1</ele></trkpt>
      <trkpt lat="35.078185" lon="128.249427"><ele>378.1</ele></trkpt>
      <trkpt lat="35.078385" lon="128.250519"><ele>393.2</ele></trkpt>
      <trkpt lat="35.078431" lon="128.251189"><ele>403.4</ele></trkpt>
      <trkpt lat="35.078198" lon="128.252488"><ele>414.9</ele></trkpt>
      <trkpt lat="35.078242" lon="128.253075"><ele>414.3</ele></trkpt>
      <trkpt lat="35.078560" lon="128.254322"><ele>456.3</ele></trkpt>
      <trkpt lat="35.078749" lon="128.254848"><ele>473.0</ele></trkpt>
      <trkpt lat="35.079287" lon="128.255294"><ele>456.3</ele></trkpt>
      <trkpt lat="35.079379" lon="128.255603"><ele>444.8</ele></trkpt>
      <trkpt lat="35.079509" lon="128.255631"><ele>440.6</ele></trkpt>
      <trkpt lat="35.079534" lon="128.255748"><ele>435.3</ele></trkpt>
      <trkpt lat="35.079715" lon="128.255808"><ele>427.1</ele></trkpt>
      <trkpt lat="35.079895" lon="128.256018"><ele>411.6</ele></trkpt>
      <trkpt lat="35.079956" lon="128.256327"><ele>401.1</ele></trkpt>
      <trkpt lat="35.080125" lon="128.256431"><ele>389.9</ele></trkpt>
      <trkpt lat="35.080141" lon="128.256545"><ele>384.2</ele></trkpt>
      <trkpt lat="35.080238" lon="128.256702"><ele>373.1</ele></trkpt>
      <trkpt lat="35.080410" lon="128.256889"><ele>364.7</ele></trkpt>
      <trkpt lat="35.080049" lon="128.257291"><ele>361.4</ele></trkpt>
      <trkpt lat="35.080044" lon="128.257570"><ele>349.4</ele></trkpt>
      <trkpt lat="35.080194" lon="128.258300"><ele>322.6</ele></trkpt>
      <trkpt lat="35.080312" lon="128.258493"><ele>315.7</ele></trkpt>
      <trkpt lat="35.080303" lon="128.258563"><ele>313.8</ele></trkpt>
      <trkpt lat="35.080647" lon="128.259303"><ele>279.6</ele></trkpt>
      <trkpt lat="35.080752" lon="128.259640"><ele>263.9</ele></trkpt>
      <trkpt lat="35.080664" lon="128.260079"><ele>253.8</ele></trkpt>
      <trkpt lat="35.080720" lon="128.260376"><ele>245.0</ele></trkpt>
      <trkpt lat="35.080514" lon="128.260714"><ele>244.3</ele></trkpt>
      <trkpt lat="35.080523" lon="128.260800"><ele>242.4</ele></trkpt>
      <trkpt lat="35.080966" lon="128.260950"><ele>229.4</ele></trkpt>
      <trkpt lat="35.081168" lon="128.260864"><ele>227.6</ele></trkpt>
      <trkpt lat="35.081313" lon="128.260864"><ele>221.5</ele></trkpt>
      <trkpt lat="35.081357" lon="128.261020"><ele>216.1</ele></trkpt>
      <trkpt lat="35.081269" lon="128.261154"><ele>215.4</ele></trkpt>
      <trkpt lat="35.081093" lon="128.261272"><ele>217.8</ele></trkpt>
      <trkpt lat="35.080979" lon="128.261669"><ele>208.3</ele></trkpt>
      <trkpt lat="35.080733" lon="128.261932"><ele>207.2</ele></trkpt>
      <trkpt lat="35.080709" lon="128.262361"><ele>197.3</ele></trkpt>
      <trkpt lat="35.080593" lon="128.262436"><ele>198.1</ele></trkpt>
      <trkpt lat="35.080426" lon="128.262665"><ele>199.0</ele></trkpt>
      <trkpt lat="35.080596" lon="128.262951"><ele>200.9</ele></trkpt>
      <trkpt lat="35.080517" lon="128.263009"><ele>202.8</ele></trkpt>
      <trkpt lat="35.080071" lon="128.262967"><ele>210.5</ele></trkpt>
      <trkpt lat="35.079909" lon="128.263042"><ele>216.7</ele></trkpt>
      <trkpt lat="35.079651" lon="128.263055"><ele>224.0</ele></trkpt>
      <trkpt lat="35.079448" lon="128.263363"><ele>233.5</ele></trkpt>
      <trkpt lat="35.079550" lon="128.263724"><ele>237.9</ele></trkpt>
      <trkpt lat="35.079501" lon="128.263846"><ele>241.2</ele></trkpt>
      <trkpt lat="35.079638" lon="128.264010"><ele>243.3</ele></trkpt>
      <trkpt lat="35.079687" lon="128.264220"><ele>248.6</ele></trkpt>
      <trkpt lat="35.079022" lon="128.264368"><ele>268.2</ele></trkpt>
      <trkpt lat="35.078784" lon="128.264552"><ele>277.8</ele></trkpt>
      <trkpt lat="35.078761" lon="128.264650"><ele>279.2</ele></trkpt>
      <trkpt lat="35.078661" lon="128.264693"><ele>281.1</ele></trkpt>
      <trkpt lat="35.078498" lon="128.264958"><ele>290.5</ele></trkpt>
      <trkpt lat="35.078355" lon="128.265063"><ele>295.5</ele></trkpt>
      <trkpt lat="35.078192" lon="128.265580"><ele>303.8</ele></trkpt>
      <trkpt lat="35.078161" lon="128.265988"><ele>308.0</ele></trkpt>
      <trkpt lat="35.078063" lon="128.266433"><ele>308.2</ele></trkpt>
      <trkpt lat="35.078110" lon="128.266454"><ele>308.8</ele></trkpt>
      <trkpt lat="35.078007" lon="128.266813"><ele>306.0</ele></trkpt>
      <trkpt lat="35.077928" lon="128.267639"><ele>286.1</ele></trkpt>
      <trkpt lat="35.078113" lon="128.268144"><ele>270.2</ele></trkpt>
      <trkpt lat="35.078209" lon="128.268246"><ele>269.5</ele></trkpt>
      <trkpt lat="35.078205" lon="128.268514"><ele>259.8</ele></trkpt>
      <trkpt lat="35.078376" lon="128.268830"><ele>248.0</ele></trkpt>
      <trkpt lat="35.078464" lon="128.269104"><ele>241.8</ele></trkpt>
      <trkpt lat="35.078587" lon="128.269839"><ele>226.5</ele></trkpt>
      <trkpt lat="35.078872" lon="128.270434"><ele>211.8</ele></trkpt>
      <trkpt lat="35.078898" lon="128.270590"><ele>205.6</ele></trkpt>
      <trkpt lat="35.079034" lon="128.270799"><ele>201.0</ele></trkpt>
      <trkpt lat="35.078995" lon="128.271040"><ele>197.0</ele></trkpt>
      <trkpt lat="35.079175" lon="128.271378"><ele>187.1</ele></trkpt>
      <trkpt lat="35.079408" lon="128.271384"><ele>183.6</ele></trkpt>
      <trkpt lat="35.079623" lon="128.271260"><ele>182.5</ele></trkpt>
      <trkpt lat="35.079965" lon="128.271384"><ele>171.9</ele></trkpt>
      <trkpt lat="35.080031" lon="128.271453"><ele>168.7</ele></trkpt>
      <trkpt lat="35.080088" lon="128.271845"><ele>156.2</ele></trkpt>
      <trkpt lat="35.080194" lon="128.272043"><ele>149.9</ele></trkpt>
      <trkpt lat="35.079923" lon="128.272485"><ele>142.0</ele></trkpt>
      <trkpt lat="35.079738" lon="128.272677"><ele>140.6</ele></trkpt>
      <trkpt lat="35.079341" lon="128.273543"><ele>126.4</ele></trkpt>
      <trkpt lat="35.079446" lon="128.273667"><ele>124.0</ele></trkpt>
      <trkpt lat="35.079343" lon="128.274001"><ele>119.5</ele></trkpt>
      <trkpt lat="35.079371" lon="128.274148"><ele>117.7</ele></trkpt>
      <trkpt lat="35.079212" lon="128.274219"><ele>118.0</ele></trkpt>
    </trkseg>
  </trk>
</gpx>
