<?xml version="1.0" encoding="UTF-8"?>
<gpx version="1.1" creator="kr-100-mountains route-harvester"
     xmlns="http://www.topografix.com/GPX/1/1"
     xmlns:k100="https://github.com/jay-jang/kr-100-mountains/ns/1"
     xmlns:xsi="http://www.w3.org/2001/XMLSchema-instance"
     xsi:schemaLocation="http://www.topografix.com/GPX/1/1 http://www.topografix.com/GPX/1/1/gpx.xsd">
  <metadata>
    <name>연화산 · 느재고개-연화산 종주 (대안 1) (OSM 계산 경로)</name>
    <desc>실제 GPS 기록이 아닙니다. OpenStreetMap에 등록된 등산로 선형 위에서 계산한 경로이며, 현장 통제·훼손·출입 제한·계절 통제를 반영하지 않을 수 있습니다. 산행 전 공식 안내를 확인하세요.</desc>
    <time>2026-08-04T05:47:21.677Z</time>
    <link href="https://www.openstreetmap.org/copyright"><text>© OpenStreetMap contributors (ODbL 1.0)</text></link>
    <link href="https://registry.opendata.aws/terrain-tiles/"><text>Elevation: SRTM 1 arc-second (NASA/USGS) via AWS Terrain Tiles</text></link>
    <extensions>
      <k100:provenance>osm-routed</k100:provenance>
      <k100:not_a_recorded_track>true</k100:not_a_recorded_track>
      <k100:mountain_id>yeonhwasan</k100:mountain_id>
      <k100:mountain_name>연화산</k100:mountain_name>
      <k100:route_id>yeonhwasan-1d2b35ec</k100:route_id>
      <k100:route_index>2</k100:route_index>
      <k100:route_name>느재고개-연화산 종주</k100:route_name>
      <k100:variant>1</k100:variant>
      <k100:source>OpenStreetMap via Overpass API</k100:source>
      <k100:license>ODbL-1.0</k100:license>
      <k100:attribution>© OpenStreetMap contributors</k100:attribution>
      <k100:elevation_source>SRTM 1 arc-second (NASA/USGS) — AWS Terrain Tiles 배포본. 지형 DEM 추정 고도이며 실측 아님</k100:elevation_source>
      <k100:algorithm>dijkstra-grid-v1</k100:algorithm>
      <k100:osm_snapshot>2026-08-04</k100:osm_snapshot>
      <k100:snap_trailhead_m>69</k100:snap_trailhead_m>
      <k100:snap_summit_m>106</k100:snap_summit_m>
      <k100:validation_score>82</k100:validation_score>
      <k100:validation_status>accepted</k100:validation_status>
    </extensions>
  </metadata>
  <trk>
    <name>연화산 · 느재고개-연화산 종주 (대안 1) (OSM 계산 경로)</name>
    <desc>실제 GPS 기록이 아닙니다. OpenStreetMap에 등록된 등산로 선형 위에서 계산한 경로이며, 현장 통제·훼손·출입 제한·계절 통제를 반영하지 않을 수 있습니다. 산행 전 공식 안내를 확인하세요.</desc>
    <trkseg>
      <trkpt lat="35.084531" lon="128.239497"><ele>393.2</ele></trkpt>
      <trkpt lat="35.084399" lon="128.239350"><ele>397.6</ele></trkpt>
      <trkpt lat="35.084217" lon="128.239245"><ele>403.2</ele></trkpt>
      <trkpt lat="35.083719" lon="128.239066"><ele>420.4</ele></trkpt>
      <trkpt lat="35.083097" lon="128.238891"><ele>450.2</ele></trkpt>
      <trkpt lat="35.082573" lon="128.238840"><ele>469.6</ele></trkpt>
      <trkpt lat="35.082320" lon="128.238866"><ele>473.6</ele></trkpt>
      <trkpt lat="35.082104" lon="128.238374"><ele>462.6</ele></trkpt>
      <trkpt lat="35.081822" lon="128.237507"><ele>458.9</ele></trkpt>
      <trkpt lat="35.081701" lon="128.237314"><ele>463.3</ele></trkpt>
      <trkpt lat="35.081667" lon="128.237138"><ele>466.9</ele></trkpt>
      <trkpt lat="35.081780" lon="128.237046"><ele>465.9</ele></trkpt>
      <trkpt lat="35.081791" lon="128.236957"><ele>466.6</ele></trkpt>
      <trkpt lat="35.081764" lon="128.236742"><ele>464.3</ele></trkpt>
      <trkpt lat="35.081642" lon="128.236544"><ele>459.7</ele></trkpt>
      <trkpt lat="35.081135" lon="128.236622"><ele>453.6</ele></trkpt>
      <trkpt lat="35.080733" lon="128.236555"><ele>433.9</ele></trkpt>
      <trkpt lat="35.080244" lon="128.236550"><ele>411.2</ele></trkpt>
      <trkpt lat="35.079491" lon="128.236324"><ele>399.1</ele></trkpt>
      <trkpt lat="35.079195" lon="128.236359"><ele>392.9</ele></trkpt>
      <trkpt lat="35.079134" lon="128.236492"><ele>389.7</ele></trkpt>
      <trkpt lat="35.079054" lon="128.236548"><ele>386.9</ele></trkpt>
      <trkpt lat="35.079074" lon="128.236617"><ele>386.4</ele></trkpt>
      <trkpt lat="35.078959" lon="128.236671"><ele>382.6</ele></trkpt>
      <trkpt lat="35.078955" lon="128.236790"><ele>376.4</ele></trkpt>
      <trkpt lat="35.078806" lon="128.236868"><ele>366.8</ele></trkpt>
      <trkpt lat="35.078747" lon="128.237073"><ele>356.1</ele></trkpt>
      <trkpt lat="35.078655" lon="128.237180"><ele>350.1</ele></trkpt>
      <trkpt lat="35.078499" lon="128.237601"><ele>327.6</ele></trkpt>
      <trkpt lat="35.078660" lon="128.237703"><ele>331.9</ele></trkpt>
      <trkpt lat="35.078788" lon="128.237883"><ele>327.4</ele></trkpt>
      <trkpt lat="35.078734" lon="128.238089"><ele>316.6</ele></trkpt>
      <trkpt lat="35.078598" lon="128.238197"><ele>307.4</ele></trkpt>
      <trkpt lat="35.078576" lon="128.238285"><ele>302.9</ele></trkpt>
      <trkpt lat="35.078231" lon="128.238516"><ele>286.6</ele></trkpt>
      <trkpt lat="35.078001" lon="128.238543"><ele>279.7</ele></trkpt>
      <trkpt lat="35.077693" lon="128.238325"><ele>276.7</ele></trkpt>
      <trkpt lat="35.077689" lon="128.238647"><ele>262.3</ele></trkpt>
      <trkpt lat="35.077814" lon="128.238728"><ele>265.1</ele></trkpt>
      <trkpt lat="35.077875" lon="128.238886"><ele>261.0</ele></trkpt>
      <trkpt lat="35.077735" lon="128.238972"><ele>253.0</ele></trkpt>
      <trkpt lat="35.077684" lon="128.238950"><ele>250.8</ele></trkpt>
      <trkpt lat="35.077700" lon="128.239197"><ele>248.3</ele></trkpt>
      <trkpt lat="35.077546" lon="128.239231"><ele>238.8</ele></trkpt>
      <trkpt lat="35.077423" lon="128.239320"><ele>229.3</ele></trkpt>
      <trkpt lat="35.077415" lon="128.239398"><ele>226.7</ele></trkpt>
      <trkpt lat="35.077320" lon="128.239457"><ele>220.2</ele></trkpt>
      <trkpt lat="35.076846" lon="128.239535"><ele>201.7</ele></trkpt>
      <trkpt lat="35.076155" lon="128.239372"><ele>168.4</ele></trkpt>
      <trkpt lat="35.075756" lon="128.239508"><ele>152.7</ele></trkpt>
      <trkpt lat="35.075457" lon="128.239449"><ele>142.5</ele></trkpt>
      <trkpt lat="35.075223" lon="128.239264"><ele>136.0</ele></trkpt>
      <trkpt lat="35.075125" lon="128.239251"><ele>134.6</ele></trkpt>
      <trkpt lat="35.075051" lon="128.239302"><ele>134.1</ele></trkpt>
      <trkpt lat="35.075012" lon="128.239456"><ele>135.3</ele></trkpt>
      <trkpt lat="35.074818" lon="128.239318"><ele>136.6</ele></trkpt>
      <trkpt lat="35.074717" lon="128.239720"><ele>142.1</ele></trkpt>
      <trkpt lat="35.074691" lon="128.240297"><ele>145.0</ele></trkpt>
      <trkpt lat="35.074428" lon="128.240478"><ele>153.1</ele></trkpt>
      <trkpt lat="35.074346" lon="128.242327"><ele>170.9</ele></trkpt>
      <trkpt lat="35.074232" lon="128.243650"><ele>179.5</ele></trkpt>
      <trkpt lat="35.074436" lon="128.245165"><ele>186.1</ele></trkpt>
      <trkpt lat="35.074858" lon="128.246431"><ele>193.1</ele></trkpt>
      <trkpt lat="35.074843" lon="128.247315"><ele>199.5</ele></trkpt>
      <trkpt lat="35.074737" lon="128.248124"><ele>207.7</ele></trkpt>
      <trkpt lat="35.075070" lon="128.248632"><ele>206.3</ele></trkpt>
      <trkpt lat="35.075087" lon="128.248908"><ele>203.7</ele></trkpt>
      <trkpt lat="35.074888" lon="128.249167"><ele>209.9</ele></trkpt>
      <trkpt lat="35.074372" lon="128.250099"><ele>218.6</ele></trkpt>
      <trkpt lat="35.074177" lon="128.250319"><ele>223.5</ele></trkpt>
      <trkpt lat="35.074229" lon="128.250559"><ele>221.2</ele></trkpt>
      <trkpt lat="35.074211" lon="128.250756"><ele>222.1</ele></trkpt>
      <trkpt lat="35.074182" lon="128.250921"><ele>224.0</ele></trkpt>
      <trkpt lat="35.074094" lon="128.251075"><ele>227.4</ele></trkpt>
      <trkpt lat="35.073456" lon="128.251437"><ele>234.0</ele></trkpt>
      <trkpt lat="35.073326" lon="128.251681"><ele>237.2</ele></trkpt>
      <trkpt lat="35.071857" lon="128.255786"><ele>273.6</ele></trkpt>
      <trkpt lat="35.071828" lon="128.255964"><ele>276.0</ele></trkpt>
      <trkpt lat="35.071806" lon="128.256203"><ele>280.3</ele></trkpt>
      <trkpt lat="35.071863" lon="128.256405"><ele>283.0</ele></trkpt>
      <trkpt lat="35.072397" lon="128.257184"><ele>286.9</ele></trkpt>
      <trkpt lat="35.072768" lon="128.258084"><ele>294.0</ele></trkpt>
      <trkpt lat="35.072975" lon="128.258237"><ele>300.6</ele></trkpt>
      <trkpt lat="35.073719" lon="128.258281"><ele>314.4</ele></trkpt>
      <trkpt lat="35.073802" lon="128.258395"><ele>315.9</ele></trkpt>
      <trkpt lat="35.073167" lon="128.258944"><ele>317.8</ele></trkpt>
      <trkpt lat="35.073044" lon="128.259110"><ele>321.6</ele></trkpt>
      <trkpt lat="35.073158" lon="128.259370"><ele>324.7</ele></trkpt>
      <trkpt lat="35.073174" lon="128.260113"><ele>327.8</ele></trkpt>
      <trkpt lat="35.073542" lon="128.260864"><ele>322.4</ele></trkpt>
      <trkpt lat="35.073613" lon="128.261239"><ele>324.9</ele></trkpt>
      <trkpt lat="35.073657" lon="128.261934"><ele>327.3</ele></trkpt>
      <trkpt lat="35.073757" lon="128.262232"><ele>327.8</ele></trkpt>
      <trkpt lat="35.073705" lon="128.264488"><ele>350.9</ele></trkpt>
      <trkpt lat="35.073929" lon="128.265215"><ele>357.7</ele></trkpt>
      <trkpt lat="35.073969" lon="128.265760"><ele>360.2</ele></trkpt>
      <trkpt lat="35.074412" lon="128.265952"><ele>368.1</ele></trkpt>
      <trkpt lat="35.074542" lon="128.266076"><ele>373.5</ele></trkpt>
      <trkpt lat="35.074614" lon="128.266628"><ele>383.7</ele></trkpt>
      <trkpt lat="35.074732" lon="128.266740"><ele>389.6</ele></trkpt>
      <trkpt lat="35.074948" lon="128.266533"><ele>394.9</ele></trkpt>
      <trkpt lat="35.075040" lon="128.266494"><ele>395.7</ele></trkpt>
      <trkpt lat="35.075129" lon="128.266530"><ele>398.6</ele></trkpt>
      <trkpt lat="35.075205" lon="128.266633"><ele>404.5</ele></trkpt>
      <trkpt lat="35.075206" lon="128.266789"><ele>406.3</ele></trkpt>
      <trkpt lat="35.075522" lon="128.267048"><ele>410.5</ele></trkpt>
      <trkpt lat="35.075656" lon="128.267018"><ele>409.3</ele></trkpt>
      <trkpt lat="35.075724" lon="128.267098"><ele>408.4</ele></trkpt>
      <trkpt lat="35.075757" lon="128.267245"><ele>408.5</ele></trkpt>
      <trkpt lat="35.075724" lon="128.267667"><ele>400.2</ele></trkpt>
      <trkpt lat="35.075795" lon="128.267765"><ele>399.7</ele></trkpt>
      <trkpt lat="35.075753" lon="128.268127"><ele>389.4</ele></trkpt>
      <trkpt lat="35.075773" lon="128.268363"><ele>381.4</ele></trkpt>
      <trkpt lat="35.075472" lon="128.269270"><ele>358.4</ele></trkpt>
      <trkpt lat="35.075614" lon="128.269456"><ele>354.5</ele></trkpt>
      <trkpt lat="35.075522" lon="128.269839"><ele>342.4</ele></trkpt>
      <trkpt lat="35.075430" lon="128.270659"><ele>320.7</ele></trkpt>
      <trkpt lat="35.075435" lon="128.270901"><ele>315.4</ele></trkpt>
      <trkpt lat="35.075601" lon="128.271400"><ele>305.7</ele></trkpt>
      <trkpt lat="35.075575" lon="128.272457"><ele>288.7</ele></trkpt>
      <trkpt lat="35.075799" lon="128.273884"><ele>262.3</ele></trkpt>
      <trkpt lat="35.075887" lon="128.274050"><ele>259.0</ele></trkpt>
      <trkpt lat="35.076409" lon="128.274613"><ele>231.1</ele></trkpt>
      <trkpt lat="35.077169" lon="128.275235"><ele>211.7</ele></trkpt>
      <trkpt lat="35.077336" lon="128.275439"><ele>207.0</ele></trkpt>
      <trkpt lat="35.077595" lon="128.276179"><ele>192.1</ele></trkpt>
      <trkpt lat="35.078218" lon="128.276297"><ele>171.1</ele></trkpt>
      <trkpt lat="35.078780" lon="128.276528"><ele>140.9</ele></trkpt>
      <trkpt lat="35.079397" lon="128.276362"><ele>109.7</ele></trkpt>
      <trkpt lat="35.079261" lon="128.275785"><ele>111.1</ele></trkpt>
      <trkpt lat="35.079267" lon="128.275361"><ele>110.5</ele></trkpt>
      <trkpt lat="35.079359" lon="128.275064"><ele>107.2</ele></trkpt>
      <trkpt lat="35.079357" lon="128.274736"><ele>108.8</ele></trkpt>
      <trkpt lat="35.079212" lon="128.274219"><ele>118.0</ele></trkpt>
    </trkseg>
  </trk>
</gpx>
