<?xml version="1.0" encoding="UTF-8"?>
<gpx version="1.1" creator="kr-100-mountains route-harvester"
     xmlns="http://www.topografix.com/GPX/1/1"
     xmlns:k100="https://github.com/jay-jang/kr-100-mountains/ns/1"
     xmlns:xsi="http://www.w3.org/2001/XMLSchema-instance"
     xsi:schemaLocation="http://www.topografix.com/GPX/1/1 http://www.topografix.com/GPX/1/1/gpx.xsd">
  <metadata>
    <name>연화산 · 옥천사 원점회귀 코스 (OSM 계산 경로)</name>
    <desc>실제 GPS 기록이 아닙니다. OpenStreetMap에 등록된 등산로 선형 위에서 계산한 경로이며, 현장 통제·훼손·출입 제한·계절 통제를 반영하지 않을 수 있습니다. 산행 전 공식 안내를 확인하세요.</desc>
    <time>2026-08-04T05:47:21.661Z</time>
    <link href="https://www.openstreetmap.org/copyright"><text>© OpenStreetMap contributors (ODbL 1.0)</text></link>
    <link href="https://registry.opendata.aws/terrain-tiles/"><text>Elevation: SRTM 1 arc-second (NASA/USGS) via AWS Terrain Tiles</text></link>
    <extensions>
      <k100:provenance>osm-routed</k100:provenance>
      <k100:not_a_recorded_track>true</k100:not_a_recorded_track>
      <k100:mountain_id>yeonhwasan</k100:mountain_id>
      <k100:mountain_name>연화산</k100:mountain_name>
      <k100:route_id>yeonhwasan-802bf449</k100:route_id>
      <k100:route_index>1</k100:route_index>
      <k100:route_name>옥천사 원점회귀 코스</k100:route_name>
      <k100:variant>0</k100:variant>
      <k100:source>OpenStreetMap via Overpass API</k100:source>
      <k100:license>ODbL-1.0</k100:license>
      <k100:attribution>© OpenStreetMap contributors</k100:attribution>
      <k100:elevation_source>SRTM 1 arc-second (NASA/USGS) — AWS Terrain Tiles 배포본. 지형 DEM 추정 고도이며 실측 아님</k100:elevation_source>
      <k100:algorithm>dijkstra-grid-v1</k100:algorithm>
      <k100:osm_snapshot>2026-08-04</k100:osm_snapshot>
      <k100:snap_trailhead_m>126</k100:snap_trailhead_m>
      <k100:snap_summit_m>106</k100:snap_summit_m>
      <k100:validation_score>89</k100:validation_score>
      <k100:validation_status>accepted</k100:validation_status>
    </extensions>
  </metadata>
  <trk>
    <name>연화산 · 옥천사 원점회귀 코스 (OSM 계산 경로)</name>
    <desc>실제 GPS 기록이 아닙니다. OpenStreetMap에 등록된 등산로 선형 위에서 계산한 경로이며, 현장 통제·훼손·출입 제한·계절 통제를 반영하지 않을 수 있습니다. 산행 전 공식 안내를 확인하세요.</desc>
    <trkseg>
      <trkpt lat="35.087461" lon="128.258002"><ele>269.0</ele></trkpt>
      <trkpt lat="35.087420" lon="128.258205"><ele>266.4</ele></trkpt>
      <trkpt lat="35.087563" lon="128.258607"><ele>252.1</ele></trkpt>
      <trkpt lat="35.087881" lon="128.258973"><ele>235.3</ele></trkpt>
      <trkpt lat="35.087979" lon="128.259021"><ele>232.3</ele></trkpt>
      <trkpt lat="35.088077" lon="128.258850"><ele>231.3</ele></trkpt>
      <trkpt lat="35.088314" lon="128.258644"><ele>215.0</ele></trkpt>
      <trkpt lat="35.088824" lon="128.258631"><ele>185.4</ele></trkpt>
      <trkpt lat="35.089001" lon="128.258579"><ele>180.0</ele></trkpt>
      <trkpt lat="35.089458" lon="128.258262"><ele>174.0</ele></trkpt>
      <trkpt lat="35.089583" lon="128.258329"><ele>174.1</ele></trkpt>
      <trkpt lat="35.089534" lon="128.259052"><ele>155.9</ele></trkpt>
      <trkpt lat="35.089600" lon="128.259404"><ele>147.1</ele></trkpt>
      <trkpt lat="35.089587" lon="128.259876"><ele>141.2</ele></trkpt>
      <trkpt lat="35.089508" lon="128.260102"><ele>136.0</ele></trkpt>
      <trkpt lat="35.089535" lon="128.260370"><ele>129.0</ele></trkpt>
      <trkpt lat="35.089472" lon="128.260744"><ele>119.4</ele></trkpt>
      <trkpt lat="35.089546" lon="128.260886"><ele>117.1</ele></trkpt>
      <trkpt lat="35.089547" lon="128.261204"><ele>111.2</ele></trkpt>
      <trkpt lat="35.089743" lon="128.261718"><ele>99.1</ele></trkpt>
      <trkpt lat="35.089796" lon="128.262063"><ele>103.4</ele></trkpt>
      <trkpt lat="35.090121" lon="128.262213"><ele>103.0</ele></trkpt>
      <trkpt lat="35.090404" lon="128.262479"><ele>109.8</ele></trkpt>
      <trkpt lat="35.090628" lon="128.262559"><ele>109.8</ele></trkpt>
      <trkpt lat="35.090786" lon="128.262693"><ele>110.6</ele></trkpt>
      <trkpt lat="35.090978" lon="128.262912"><ele>112.4</ele></trkpt>
      <trkpt lat="35.091005" lon="128.263061"><ele>116.5</ele></trkpt>
      <trkpt lat="35.090961" lon="128.263160"><ele>120.3</ele></trkpt>
      <trkpt lat="35.090874" lon="128.263253"><ele>125.5</ele></trkpt>
      <trkpt lat="35.090380" lon="128.263303"><ele>146.0</ele></trkpt>
      <trkpt lat="35.089810" lon="128.263539"><ele>167.3</ele></trkpt>
      <trkpt lat="35.089535" lon="128.263862"><ele>188.4</ele></trkpt>
      <trkpt lat="35.089387" lon="128.263925"><ele>192.8</ele></trkpt>
      <trkpt lat="35.089203" lon="128.264184"><ele>200.8</ele></trkpt>
      <trkpt lat="35.088791" lon="128.264485"><ele>210.3</ele></trkpt>
      <trkpt lat="35.088764" lon="128.264593"><ele>213.9</ele></trkpt>
      <trkpt lat="35.088595" lon="128.264705"><ele>219.8</ele></trkpt>
      <trkpt lat="35.088466" lon="128.264904"><ele>228.4</ele></trkpt>
      <trkpt lat="35.088256" lon="128.264983"><ele>233.2</ele></trkpt>
      <trkpt lat="35.087930" lon="128.265016"><ele>232.0</ele></trkpt>
      <trkpt lat="35.087472" lon="128.265339"><ele>232.6</ele></trkpt>
      <trkpt lat="35.087265" lon="128.265423"><ele>235.6</ele></trkpt>
      <trkpt lat="35.086770" lon="128.265438"><ele>247.2</ele></trkpt>
      <trkpt lat="35.086422" lon="128.265515"><ele>253.5</ele></trkpt>
      <trkpt lat="35.085988" lon="128.265453"><ele>266.3</ele></trkpt>
      <trkpt lat="35.085530" lon="128.265638"><ele>281.0</ele></trkpt>
      <trkpt lat="35.085128" lon="128.266068"><ele>307.9</ele></trkpt>
      <trkpt lat="35.084645" lon="128.266122"><ele>328.4</ele></trkpt>
      <trkpt lat="35.083918" lon="128.266091"><ele>355.4</ele></trkpt>
      <trkpt lat="35.083720" lon="128.266223"><ele>351.9</ele></trkpt>
      <trkpt lat="35.083099" lon="128.266488"><ele>346.2</ele></trkpt>
      <trkpt lat="35.082584" lon="128.266943"><ele>356.5</ele></trkpt>
      <trkpt lat="35.081897" lon="128.267382"><ele>370.1</ele></trkpt>
      <trkpt lat="35.081598" lon="128.267424"><ele>367.7</ele></trkpt>
      <trkpt lat="35.081144" lon="128.267355"><ele>361.2</ele></trkpt>
      <trkpt lat="35.079998" lon="128.267361"><ele>374.0</ele></trkpt>
      <trkpt lat="35.079932" lon="128.267288"><ele>372.9</ele></trkpt>
      <trkpt lat="35.079509" lon="128.267156"><ele>367.2</ele></trkpt>
      <trkpt lat="35.079443" lon="128.266950"><ele>364.0</ele></trkpt>
      <trkpt lat="35.079272" lon="128.266745"><ele>356.6</ele></trkpt>
      <trkpt lat="35.079177" lon="128.266727"><ele>353.9</ele></trkpt>
      <trkpt lat="35.079037" lon="128.266848"><ele>348.3</ele></trkpt>
      <trkpt lat="35.078725" lon="128.266709"><ele>331.3</ele></trkpt>
      <trkpt lat="35.078609" lon="128.266592"><ele>322.2</ele></trkpt>
      <trkpt lat="35.078110" lon="128.266454"><ele>308.8</ele></trkpt>
      <trkpt lat="35.078007" lon="128.266813"><ele>306.0</ele></trkpt>
      <trkpt lat="35.077928" lon="128.267639"><ele>286.1</ele></trkpt>
      <trkpt lat="35.078113" lon="128.268144"><ele>270.2</ele></trkpt>
      <trkpt lat="35.078209" lon="128.268246"><ele>269.5</ele></trkpt>
      <trkpt lat="35.078205" lon="128.268514"><ele>259.8</ele></trkpt>
      <trkpt lat="35.078376" lon="128.268830"><ele>248.0</ele></trkpt>
      <trkpt lat="35.078464" lon="128.269104"><ele>241.8</ele></trkpt>
      <trkpt lat="35.078587" lon="128.269839"><ele>226.5</ele></trkpt>
      <trkpt lat="35.078872" lon="128.270434"><ele>211.8</ele></trkpt>
      <trkpt lat="35.078898" lon="128.270590"><ele>205.6</ele></trkpt>
      <trkpt lat="35.079034" lon="128.270799"><ele>201.0</ele></trkpt>
      <trkpt lat="35.078995" lon="128.271040"><ele>197.0</ele></trkpt>
      <trkpt lat="35.079175" lon="128.271378"><ele>187.1</ele></trkpt>
      <trkpt lat="35.079408" lon="128.271384"><ele>183.6</ele></trkpt>
      <trkpt lat="35.079623" lon="128.271260"><ele>182.5</ele></trkpt>
      <trkpt lat="35.079965" lon="128.271384"><ele>171.9</ele></trkpt>
      <trkpt lat="35.080031" lon="128.271453"><ele>168.7</ele></trkpt>
      <trkpt lat="35.080088" lon="128.271845"><ele>156.2</ele></trkpt>
      <trkpt lat="35.080194" lon="128.272043"><ele>149.9</ele></trkpt>
      <trkpt lat="35.079923" lon="128.272485"><ele>142.0</ele></trkpt>
      <trkpt lat="35.079738" lon="128.272677"><ele>140.6</ele></trkpt>
      <trkpt lat="35.079341" lon="128.273543"><ele>126.4</ele></trkpt>
      <trkpt lat="35.079446" lon="128.273667"><ele>124.0</ele></trkpt>
      <trkpt lat="35.079343" lon="128.274001"><ele>119.5</ele></trkpt>
      <trkpt lat="35.079371" lon="128.274148"><ele>117.7</ele></trkpt>
      <trkpt lat="35.079212" lon="128.274219"><ele>118.0</ele></trkpt>
    </trkseg>
  </trk>
</gpx>
