<?xml version="1.0" encoding="UTF-8"?>
<gpx version="1.1" creator="kr-100-mountains route-harvester"
     xmlns="http://www.topografix.com/GPX/1/1"
     xmlns:k100="https://github.com/jay-jang/kr-100-mountains/ns/1"
     xmlns:xsi="http://www.w3.org/2001/XMLSchema-instance"
     xsi:schemaLocation="http://www.topografix.com/GPX/1/1 http://www.topografix.com/GPX/1/1/gpx.xsd">
  <metadata>
    <name>마니산 · 계단로(단군로) 코스 (대안 1) (OSM 계산 경로)</name>
    <desc>실제 GPS 기록이 아닙니다. OpenStreetMap에 등록된 등산로 선형 위에서 계산한 경로이며, 현장 통제·훼손·출입 제한·계절 통제를 반영하지 않을 수 있습니다. 산행 전 공식 안내를 확인하세요.</desc>
    <time>2026-08-04T05:19:23.505Z</time>
    <link href="https://www.openstreetmap.org/copyright"><text>© OpenStreetMap contributors (ODbL 1.0)</text></link>
    <link href="https://registry.opendata.aws/terrain-tiles/"><text>Elevation: SRTM 1 arc-second (NASA/USGS) via AWS Terrain Tiles</text></link>
    <extensions>
      <k100:provenance>osm-routed</k100:provenance>
      <k100:not_a_recorded_track>true</k100:not_a_recorded_track>
      <k100:mountain_id>manisan</k100:mountain_id>
      <k100:mountain_name>마니산</k100:mountain_name>
      <k100:route_id>manisan-87eb9027</k100:route_id>
      <k100:route_index>1</k100:route_index>
      <k100:route_name>계단로(단군로) 코스</k100:route_name>
      <k100:variant>1</k100:variant>
      <k100:source>OpenStreetMap via Overpass API</k100:source>
      <k100:license>ODbL-1.0</k100:license>
      <k100:attribution>© OpenStreetMap contributors</k100:attribution>
      <k100:elevation_source>SRTM 1 arc-second (NASA/USGS) — AWS Terrain Tiles 배포본. 지형 DEM 추정 고도이며 실측 아님</k100:elevation_source>
      <k100:algorithm>dijkstra-grid-v1</k100:algorithm>
      <k100:osm_snapshot>2026-08-04</k100:osm_snapshot>
      <k100:snap_trailhead_m>12</k100:snap_trailhead_m>
      <k100:snap_summit_m>121</k100:snap_summit_m>
      <k100:validation_score>82</k100:validation_score>
      <k100:validation_status>accepted</k100:validation_status>
    </extensions>
  </metadata>
  <trk>
    <name>마니산 · 계단로(단군로) 코스 (대안 1) (OSM 계산 경로)</name>
    <desc>실제 GPS 기록이 아닙니다. OpenStreetMap에 등록된 등산로 선형 위에서 계산한 경로이며, 현장 통제·훼손·출입 제한·계절 통제를 반영하지 않을 수 있습니다. 산행 전 공식 안내를 확인하세요.</desc>
    <trkseg>
      <trkpt lat="37.632561" lon="126.423896"><ele>29.6</ele></trkpt>
      <trkpt lat="37.632236" lon="126.424046"><ele>34.3</ele></trkpt>
      <trkpt lat="37.631484" lon="126.424257"><ele>44.8</ele></trkpt>
      <trkpt lat="37.631367" lon="126.424211"><ele>45.1</ele></trkpt>
      <trkpt lat="37.631095" lon="126.423938"><ele>44.8</ele></trkpt>
      <trkpt lat="37.630890" lon="126.423954"><ele>46.9</ele></trkpt>
      <trkpt lat="37.630896" lon="126.424347"><ele>54.5</ele></trkpt>
      <trkpt lat="37.630696" lon="126.424621"><ele>62.0</ele></trkpt>
      <trkpt lat="37.630282" lon="126.424997"><ele>72.9</ele></trkpt>
      <trkpt lat="37.629494" lon="126.425361"><ele>80.8</ele></trkpt>
      <trkpt lat="37.629060" lon="126.425294"><ele>88.3</ele></trkpt>
      <trkpt lat="37.628518" lon="126.425895"><ele>98.3</ele></trkpt>
      <trkpt lat="37.628289" lon="126.426080"><ele>103.8</ele></trkpt>
      <trkpt lat="37.628028" lon="126.426118"><ele>113.4</ele></trkpt>
      <trkpt lat="37.627339" lon="126.425960"><ele>129.8</ele></trkpt>
      <trkpt lat="37.626930" lon="126.426182"><ele>134.8</ele></trkpt>
      <trkpt lat="37.626348" lon="126.426625"><ele>137.4</ele></trkpt>
      <trkpt lat="37.626061" lon="126.426708"><ele>137.2</ele></trkpt>
      <trkpt lat="37.624637" lon="126.426536"><ele>134.8</ele></trkpt>
      <trkpt lat="37.624227" lon="126.426635"><ele>141.5</ele></trkpt>
      <trkpt lat="37.624134" lon="126.426560"><ele>142.2</ele></trkpt>
      <trkpt lat="37.624060" lon="126.426401"><ele>141.1</ele></trkpt>
      <trkpt lat="37.624144" lon="126.426117"><ele>134.6</ele></trkpt>
      <trkpt lat="37.623444" lon="126.425884"><ele>147.1</ele></trkpt>
      <trkpt lat="37.623248" lon="126.425981"><ele>151.0</ele></trkpt>
      <trkpt lat="37.623159" lon="126.425836"><ele>152.8</ele></trkpt>
      <trkpt lat="37.623053" lon="126.425777"><ele>155.5</ele></trkpt>
      <trkpt lat="37.622708" lon="126.425874"><ele>163.5</ele></trkpt>
      <trkpt lat="37.622330" lon="126.425772"><ele>168.4</ele></trkpt>
      <trkpt lat="37.622003" lon="126.425874"><ele>176.2</ele></trkpt>
      <trkpt lat="37.621910" lon="126.426002"><ele>180.7</ele></trkpt>
      <trkpt lat="37.621085" lon="126.426083"><ele>193.6</ele></trkpt>
      <trkpt lat="37.620779" lon="126.426271"><ele>207.1</ele></trkpt>
      <trkpt lat="37.620269" lon="126.426410"><ele>214.6</ele></trkpt>
      <trkpt lat="37.620159" lon="126.426340"><ele>216.8</ele></trkpt>
      <trkpt lat="37.619925" lon="126.426496"><ele>223.2</ele></trkpt>
      <trkpt lat="37.619636" lon="126.426335"><ele>230.4</ele></trkpt>
      <trkpt lat="37.619411" lon="126.426367"><ele>237.3</ele></trkpt>
      <trkpt lat="37.619152" lon="126.426222"><ele>246.6</ele></trkpt>
      <trkpt lat="37.619029" lon="126.426367"><ele>254.1</ele></trkpt>
      <trkpt lat="37.618791" lon="126.426855"><ele>268.2</ele></trkpt>
      <trkpt lat="37.618659" lon="126.426957"><ele>275.5</ele></trkpt>
      <trkpt lat="37.618281" lon="126.426936"><ele>295.6</ele></trkpt>
      <trkpt lat="37.617822" lon="126.427123"><ele>321.6</ele></trkpt>
      <trkpt lat="37.617384" lon="126.427129"><ele>350.2</ele></trkpt>
      <trkpt lat="37.617168" lon="126.427311"><ele>364.8</ele></trkpt>
      <trkpt lat="37.616811" lon="126.427386"><ele>375.5</ele></trkpt>
      <trkpt lat="37.616628" lon="126.427499"><ele>387.0</ele></trkpt>
      <trkpt lat="37.616420" lon="126.427547"><ele>405.0</ele></trkpt>
      <trkpt lat="37.616309" lon="126.427649"><ele>413.2</ele></trkpt>
      <trkpt lat="37.615836" lon="126.427738"><ele>427.4</ele></trkpt>
      <trkpt lat="37.615707" lon="126.427899"><ele>428.2</ele></trkpt>
      <trkpt lat="37.615683" lon="126.427999"><ele>429.5</ele></trkpt>
      <trkpt lat="37.615726" lon="126.428323"><ele>433.1</ele></trkpt>
      <trkpt lat="37.615626" lon="126.428870"><ele>434.5</ele></trkpt>
      <trkpt lat="37.615670" lon="126.429243"><ele>442.8</ele></trkpt>
      <trkpt lat="37.615906" lon="126.429621"><ele>450.2</ele></trkpt>
      <trkpt lat="37.615707" lon="126.429894"><ele>458.9</ele></trkpt>
      <trkpt lat="37.615621" lon="126.430224"><ele>457.0</ele></trkpt>
      <trkpt lat="37.615639" lon="126.430573"><ele>452.8</ele></trkpt>
      <trkpt lat="37.615503" lon="126.430838"><ele>450.4</ele></trkpt>
      <trkpt lat="37.615504" lon="126.430941"><ele>449.4</ele></trkpt>
      <trkpt lat="37.615249" lon="126.430991"><ele>445.8</ele></trkpt>
      <trkpt lat="37.615160" lon="126.431085"><ele>440.9</ele></trkpt>
      <trkpt lat="37.614816" lon="126.431676"><ele>423.5</ele></trkpt>
      <trkpt lat="37.614520" lon="126.432020"><ele>410.5</ele></trkpt>
      <trkpt lat="37.614267" lon="126.432558"><ele>402.8</ele></trkpt>
      <trkpt lat="37.613719" lon="126.433102"><ele>395.5</ele></trkpt>
      <trkpt lat="37.613419" lon="126.433649"><ele>402.0</ele></trkpt>
      <trkpt lat="37.613399" lon="126.433880"><ele>400.5</ele></trkpt>
      <trkpt lat="37.613430" lon="126.434060"><ele>400.3</ele></trkpt>
      <trkpt lat="37.613288" lon="126.434606"><ele>408.3</ele></trkpt>
      <trkpt lat="37.613228" lon="126.435085"><ele>415.2</ele></trkpt>
      <trkpt lat="37.612945" lon="126.435626"><ele>438.5</ele></trkpt>
      <trkpt lat="37.612771" lon="126.436113"><ele>450.5</ele></trkpt>
      <trkpt lat="37.612735" lon="126.436573"><ele>452.9</ele></trkpt>
      <trkpt lat="37.612427" lon="126.437191"><ele>442.8</ele></trkpt>
      <trkpt lat="37.612282" lon="126.437736"><ele>440.1</ele></trkpt>
      <trkpt lat="37.612349" lon="126.437962"><ele>437.0</ele></trkpt>
      <trkpt lat="37.612338" lon="126.438181"><ele>430.7</ele></trkpt>
      <trkpt lat="37.612126" lon="126.438400"><ele>421.8</ele></trkpt>
      <trkpt lat="37.611930" lon="126.438521"><ele>416.9</ele></trkpt>
      <trkpt lat="37.611391" lon="126.438644"><ele>410.5</ele></trkpt>
      <trkpt lat="37.610939" lon="126.439000"><ele>396.1</ele></trkpt>
      <trkpt lat="37.610623" lon="126.439542"><ele>388.0</ele></trkpt>
    </trkseg>
  </trk>
</gpx>
