<?xml version="1.0" encoding="UTF-8"?>
<gpx version="1.1" creator="kr-100-mountains route-harvester"
     xmlns="http://www.topografix.com/GPX/1/1"
     xmlns:k100="https://github.com/jay-jang/kr-100-mountains/ns/1"
     xmlns:xsi="http://www.w3.org/2001/XMLSchema-instance"
     xsi:schemaLocation="http://www.topografix.com/GPX/1/1 http://www.topografix.com/GPX/1/1/gpx.xsd">
  <metadata>
    <name>마니산 · 함허동천-능선로-참성단 (대안 1) (OSM 계산 경로)</name>
    <desc>실제 GPS 기록이 아닙니다. OpenStreetMap에 등록된 등산로 선형 위에서 계산한 경로이며, 현장 통제·훼손·출입 제한·계절 통제를 반영하지 않을 수 있습니다. 산행 전 공식 안내를 확인하세요.</desc>
    <time>2026-08-04T05:19:23.637Z</time>
    <link href="https://www.openstreetmap.org/copyright"><text>© OpenStreetMap contributors (ODbL 1.0)</text></link>
    <link href="https://registry.opendata.aws/terrain-tiles/"><text>Elevation: SRTM 1 arc-second (NASA/USGS) via AWS Terrain Tiles</text></link>
    <extensions>
      <k100:provenance>osm-routed</k100:provenance>
      <k100:not_a_recorded_track>true</k100:not_a_recorded_track>
      <k100:mountain_id>manisan</k100:mountain_id>
      <k100:mountain_name>마니산</k100:mountain_name>
      <k100:route_id>manisan-2a5d632e</k100:route_id>
      <k100:route_index>4</k100:route_index>
      <k100:route_name>함허동천-능선로-참성단</k100:route_name>
      <k100:variant>1</k100:variant>
      <k100:source>OpenStreetMap via Overpass API</k100:source>
      <k100:license>ODbL-1.0</k100:license>
      <k100:attribution>© OpenStreetMap contributors</k100:attribution>
      <k100:elevation_source>SRTM 1 arc-second (NASA/USGS) — AWS Terrain Tiles 배포본. 지형 DEM 추정 고도이며 실측 아님</k100:elevation_source>
      <k100:algorithm>dijkstra-grid-v1</k100:algorithm>
      <k100:osm_snapshot>2026-08-04</k100:osm_snapshot>
      <k100:snap_trailhead_m>5</k100:snap_trailhead_m>
      <k100:snap_summit_m>121</k100:snap_summit_m>
      <k100:validation_score>82</k100:validation_score>
      <k100:validation_status>accepted</k100:validation_status>
    </extensions>
  </metadata>
  <trk>
    <name>마니산 · 함허동천-능선로-참성단 (대안 1) (OSM 계산 경로)</name>
    <desc>실제 GPS 기록이 아닙니다. OpenStreetMap에 등록된 등산로 선형 위에서 계산한 경로이며, 현장 통제·훼손·출입 제한·계절 통제를 반영하지 않을 수 있습니다. 산행 전 공식 안내를 확인하세요.</desc>
    <trkseg>
      <trkpt lat="37.610809" lon="126.454352"><ele>27.2</ele></trkpt>
      <trkpt lat="37.610699" lon="126.454391"><ele>26.2</ele></trkpt>
      <trkpt lat="37.610883" lon="126.454320"><ele>27.8</ele></trkpt>
      <trkpt lat="37.610926" lon="126.454254"><ele>28.3</ele></trkpt>
      <trkpt lat="37.611010" lon="126.453995"><ele>30.7</ele></trkpt>
      <trkpt lat="37.611052" lon="126.453569"><ele>36.5</ele></trkpt>
      <trkpt lat="37.611168" lon="126.453321"><ele>38.9</ele></trkpt>
      <trkpt lat="37.611393" lon="126.453106"><ele>40.5</ele></trkpt>
      <trkpt lat="37.611633" lon="126.452997"><ele>42.5</ele></trkpt>
      <trkpt lat="37.611841" lon="126.452682"><ele>47.1</ele></trkpt>
      <trkpt lat="37.611792" lon="126.452380"><ele>51.5</ele></trkpt>
      <trkpt lat="37.611902" lon="126.452171"><ele>56.4</ele></trkpt>
      <trkpt lat="37.611848" lon="126.452068"><ele>57.8</ele></trkpt>
      <trkpt lat="37.611746" lon="126.452076"><ele>57.1</ele></trkpt>
      <trkpt lat="37.611658" lon="126.451917"><ele>60.6</ele></trkpt>
      <trkpt lat="37.611734" lon="126.451653"><ele>67.2</ele></trkpt>
      <trkpt lat="37.611705" lon="126.451501"><ele>69.6</ele></trkpt>
      <trkpt lat="37.611838" lon="126.451288"><ele>75.0</ele></trkpt>
      <trkpt lat="37.611801" lon="126.451179"><ele>76.6</ele></trkpt>
      <trkpt lat="37.611821" lon="126.451075"><ele>78.5</ele></trkpt>
      <trkpt lat="37.612281" lon="126.450654"><ele>89.2</ele></trkpt>
      <trkpt lat="37.612572" lon="126.449859"><ele>102.9</ele></trkpt>
      <trkpt lat="37.612811" lon="126.449588"><ele>113.5</ele></trkpt>
      <trkpt lat="37.613120" lon="126.449014"><ele>125.6</ele></trkpt>
      <trkpt lat="37.613272" lon="126.448872"><ele>131.1</ele></trkpt>
      <trkpt lat="37.613645" lon="126.448717"><ele>141.4</ele></trkpt>
      <trkpt lat="37.614010" lon="126.448404"><ele>154.4</ele></trkpt>
      <trkpt lat="37.614372" lon="126.447830"><ele>170.9</ele></trkpt>
      <trkpt lat="37.614420" lon="126.447545"><ele>178.3</ele></trkpt>
      <trkpt lat="37.614490" lon="126.447473"><ele>180.5</ele></trkpt>
      <trkpt lat="37.614514" lon="126.447134"><ele>184.5</ele></trkpt>
      <trkpt lat="37.614639" lon="126.446918"><ele>186.6</ele></trkpt>
      <trkpt lat="37.614795" lon="126.446825"><ele>187.7</ele></trkpt>
      <trkpt lat="37.614792" lon="126.446714"><ele>187.4</ele></trkpt>
      <trkpt lat="37.615018" lon="126.446471"><ele>188.2</ele></trkpt>
      <trkpt lat="37.615083" lon="126.446191"><ele>191.0</ele></trkpt>
      <trkpt lat="37.615227" lon="126.445974"><ele>197.7</ele></trkpt>
      <trkpt lat="37.615233" lon="126.445753"><ele>203.3</ele></trkpt>
      <trkpt lat="37.615294" lon="126.445699"><ele>206.8</ele></trkpt>
      <trkpt lat="37.615312" lon="126.445572"><ele>211.4</ele></trkpt>
      <trkpt lat="37.615488" lon="126.445309"><ele>225.3</ele></trkpt>
      <trkpt lat="37.615646" lon="126.445177"><ele>228.5</ele></trkpt>
      <trkpt lat="37.615608" lon="126.444990"><ele>232.1</ele></trkpt>
      <trkpt lat="37.615406" lon="126.444656"><ele>242.5</ele></trkpt>
      <trkpt lat="37.615387" lon="126.443942"><ele>259.4</ele></trkpt>
      <trkpt lat="37.614647" lon="126.443205"><ele>256.9</ele></trkpt>
      <trkpt lat="37.614507" lon="126.442951"><ele>257.3</ele></trkpt>
      <trkpt lat="37.614363" lon="126.442440"><ele>263.9</ele></trkpt>
      <trkpt lat="37.614152" lon="126.442306"><ele>271.2</ele></trkpt>
      <trkpt lat="37.613741" lon="126.441622"><ele>290.8</ele></trkpt>
      <trkpt lat="37.613577" lon="126.440784"><ele>315.9</ele></trkpt>
      <trkpt lat="37.613717" lon="126.440022"><ele>338.2</ele></trkpt>
      <trkpt lat="37.613379" lon="126.439655"><ele>352.2</ele></trkpt>
      <trkpt lat="37.613292" lon="126.439431"><ele>360.0</ele></trkpt>
      <trkpt lat="37.613151" lon="126.439320"><ele>362.4</ele></trkpt>
      <trkpt lat="37.613077" lon="126.439080"><ele>370.7</ele></trkpt>
      <trkpt lat="37.612941" lon="126.438985"><ele>377.8</ele></trkpt>
      <trkpt lat="37.612854" lon="126.438789"><ele>390.6</ele></trkpt>
      <trkpt lat="37.612529" lon="126.438430"><ele>418.9</ele></trkpt>
      <trkpt lat="37.612439" lon="126.438390"><ele>422.0</ele></trkpt>
      <trkpt lat="37.612338" lon="126.438181"><ele>430.7</ele></trkpt>
      <trkpt lat="37.612126" lon="126.438400"><ele>421.8</ele></trkpt>
      <trkpt lat="37.611930" lon="126.438521"><ele>416.9</ele></trkpt>
      <trkpt lat="37.611391" lon="126.438644"><ele>410.5</ele></trkpt>
      <trkpt lat="37.610939" lon="126.439000"><ele>396.1</ele></trkpt>
      <trkpt lat="37.610623" lon="126.439542"><ele>388.0</ele></trkpt>
    </trkseg>
  </trk>
</gpx>
