<?xml version="1.0" encoding="UTF-8"?>
<gpx version="1.1" creator="kr-100-mountains route-harvester"
     xmlns="http://www.topografix.com/GPX/1/1"
     xmlns:k100="https://github.com/jay-jang/kr-100-mountains/ns/1"
     xmlns:xsi="http://www.w3.org/2001/XMLSchema-instance"
     xsi:schemaLocation="http://www.topografix.com/GPX/1/1 http://www.topografix.com/GPX/1/1/gpx.xsd">
  <metadata>
    <name>마니산 · 계단로(단군로) 코스 (OSM 계산 경로)</name>
    <desc>실제 GPS 기록이 아닙니다. OpenStreetMap에 등록된 등산로 선형 위에서 계산한 경로이며, 현장 통제·훼손·출입 제한·계절 통제를 반영하지 않을 수 있습니다. 산행 전 공식 안내를 확인하세요.</desc>
    <time>2026-08-04T05:19:23.504Z</time>
    <link href="https://www.openstreetmap.org/copyright"><text>© OpenStreetMap contributors (ODbL 1.0)</text></link>
    <link href="https://registry.opendata.aws/terrain-tiles/"><text>Elevation: SRTM 1 arc-second (NASA/USGS) via AWS Terrain Tiles</text></link>
    <extensions>
      <k100:provenance>osm-routed</k100:provenance>
      <k100:not_a_recorded_track>true</k100:not_a_recorded_track>
      <k100:mountain_id>manisan</k100:mountain_id>
      <k100:mountain_name>마니산</k100:mountain_name>
      <k100:route_id>manisan-87eb9027</k100:route_id>
      <k100:route_index>1</k100:route_index>
      <k100:route_name>계단로(단군로) 코스</k100:route_name>
      <k100:variant>0</k100:variant>
      <k100:source>OpenStreetMap via Overpass API</k100:source>
      <k100:license>ODbL-1.0</k100:license>
      <k100:attribution>© OpenStreetMap contributors</k100:attribution>
      <k100:elevation_source>SRTM 1 arc-second (NASA/USGS) — AWS Terrain Tiles 배포본. 지형 DEM 추정 고도이며 실측 아님</k100:elevation_source>
      <k100:algorithm>dijkstra-grid-v1</k100:algorithm>
      <k100:osm_snapshot>2026-08-04</k100:osm_snapshot>
      <k100:snap_trailhead_m>12</k100:snap_trailhead_m>
      <k100:snap_summit_m>121</k100:snap_summit_m>
      <k100:validation_score>89</k100:validation_score>
      <k100:validation_status>accepted</k100:validation_status>
    </extensions>
  </metadata>
  <trk>
    <name>마니산 · 계단로(단군로) 코스 (OSM 계산 경로)</name>
    <desc>실제 GPS 기록이 아닙니다. OpenStreetMap에 등록된 등산로 선형 위에서 계산한 경로이며, 현장 통제·훼손·출입 제한·계절 통제를 반영하지 않을 수 있습니다. 산행 전 공식 안내를 확인하세요.</desc>
    <trkseg>
      <trkpt lat="37.632561" lon="126.423896"><ele>29.6</ele></trkpt>
      <trkpt lat="37.631551" lon="126.424253"><ele>44.2</ele></trkpt>
      <trkpt lat="37.631367" lon="126.424211"><ele>45.1</ele></trkpt>
      <trkpt lat="37.631095" lon="126.423938"><ele>44.8</ele></trkpt>
      <trkpt lat="37.630579" lon="126.423997"><ele>49.8</ele></trkpt>
      <trkpt lat="37.630250" lon="126.423840"><ele>48.5</ele></trkpt>
      <trkpt lat="37.629489" lon="126.424061"><ele>57.8</ele></trkpt>
      <trkpt lat="37.628811" lon="126.424124"><ele>65.8</ele></trkpt>
      <trkpt lat="37.628443" lon="126.424216"><ele>69.7</ele></trkpt>
      <trkpt lat="37.627279" lon="126.424265"><ele>85.7</ele></trkpt>
      <trkpt lat="37.626959" lon="126.424429"><ele>90.8</ele></trkpt>
      <trkpt lat="37.626549" lon="126.424908"><ele>97.9</ele></trkpt>
      <trkpt lat="37.625845" lon="126.425206"><ele>110.8</ele></trkpt>
      <trkpt lat="37.625698" lon="126.425556"><ele>112.5</ele></trkpt>
      <trkpt lat="37.624998" lon="126.425881"><ele>121.7</ele></trkpt>
      <trkpt lat="37.624144" lon="126.426117"><ele>134.6</ele></trkpt>
      <trkpt lat="37.624060" lon="126.426401"><ele>141.1</ele></trkpt>
      <trkpt lat="37.624008" lon="126.426433"><ele>142.7</ele></trkpt>
      <trkpt lat="37.623939" lon="126.426619"><ele>147.8</ele></trkpt>
      <trkpt lat="37.623724" lon="126.426637"><ele>152.4</ele></trkpt>
      <trkpt lat="37.623630" lon="126.426549"><ele>152.5</ele></trkpt>
      <trkpt lat="37.623624" lon="126.426616"><ele>153.9</ele></trkpt>
      <trkpt lat="37.623421" lon="126.426695"><ele>158.1</ele></trkpt>
      <trkpt lat="37.622980" lon="126.427324"><ele>176.2</ele></trkpt>
      <trkpt lat="37.622799" lon="126.427480"><ele>183.1</ele></trkpt>
      <trkpt lat="37.622637" lon="126.427493"><ele>188.5</ele></trkpt>
      <trkpt lat="37.622367" lon="126.427386"><ele>197.1</ele></trkpt>
      <trkpt lat="37.622240" lon="126.427430"><ele>202.3</ele></trkpt>
      <trkpt lat="37.621974" lon="126.427414"><ele>211.3</ele></trkpt>
      <trkpt lat="37.621536" lon="126.427280"><ele>222.3</ele></trkpt>
      <trkpt lat="37.621375" lon="126.427405"><ele>227.1</ele></trkpt>
      <trkpt lat="37.621077" lon="126.427479"><ele>237.3</ele></trkpt>
      <trkpt lat="37.620968" lon="126.427459"><ele>238.8</ele></trkpt>
      <trkpt lat="37.620767" lon="126.427559"><ele>243.1</ele></trkpt>
      <trkpt lat="37.620670" lon="126.427728"><ele>246.5</ele></trkpt>
      <trkpt lat="37.620408" lon="126.427829"><ele>255.4</ele></trkpt>
      <trkpt lat="37.620165" lon="126.428043"><ele>266.9</ele></trkpt>
      <trkpt lat="37.620058" lon="126.428072"><ele>270.5</ele></trkpt>
      <trkpt lat="37.619519" lon="126.428831"><ele>296.1</ele></trkpt>
      <trkpt lat="37.619400" lon="126.428890"><ele>299.5</ele></trkpt>
      <trkpt lat="37.619240" lon="126.428843"><ele>300.4</ele></trkpt>
      <trkpt lat="37.619145" lon="126.428909"><ele>302.6</ele></trkpt>
      <trkpt lat="37.618675" lon="126.428922"><ele>318.3</ele></trkpt>
      <trkpt lat="37.618284" lon="126.429171"><ele>347.5</ele></trkpt>
      <trkpt lat="37.617950" lon="126.429540"><ele>360.3</ele></trkpt>
      <trkpt lat="37.617681" lon="126.429599"><ele>365.6</ele></trkpt>
      <trkpt lat="37.617248" lon="126.429550"><ele>383.6</ele></trkpt>
      <trkpt lat="37.616723" lon="126.429664"><ele>403.6</ele></trkpt>
      <trkpt lat="37.616392" lon="126.429644"><ele>422.0</ele></trkpt>
      <trkpt lat="37.616215" lon="126.429551"><ele>431.4</ele></trkpt>
      <trkpt lat="37.615929" lon="126.429596"><ele>448.2</ele></trkpt>
      <trkpt lat="37.615707" lon="126.429894"><ele>458.9</ele></trkpt>
      <trkpt lat="37.615621" lon="126.430224"><ele>457.0</ele></trkpt>
      <trkpt lat="37.615639" lon="126.430573"><ele>452.8</ele></trkpt>
      <trkpt lat="37.615503" lon="126.430838"><ele>450.4</ele></trkpt>
      <trkpt lat="37.615504" lon="126.430941"><ele>449.4</ele></trkpt>
      <trkpt lat="37.615249" lon="126.430991"><ele>445.8</ele></trkpt>
      <trkpt lat="37.615160" lon="126.431085"><ele>440.9</ele></trkpt>
      <trkpt lat="37.614816" lon="126.431676"><ele>423.5</ele></trkpt>
      <trkpt lat="37.614520" lon="126.432020"><ele>410.5</ele></trkpt>
      <trkpt lat="37.614267" lon="126.432558"><ele>402.8</ele></trkpt>
      <trkpt lat="37.613719" lon="126.433102"><ele>395.5</ele></trkpt>
      <trkpt lat="37.613419" lon="126.433649"><ele>402.0</ele></trkpt>
      <trkpt lat="37.613399" lon="126.433880"><ele>400.5</ele></trkpt>
      <trkpt lat="37.613430" lon="126.434060"><ele>400.3</ele></trkpt>
      <trkpt lat="37.613288" lon="126.434606"><ele>408.3</ele></trkpt>
      <trkpt lat="37.613228" lon="126.435085"><ele>415.2</ele></trkpt>
      <trkpt lat="37.612945" lon="126.435626"><ele>438.5</ele></trkpt>
      <trkpt lat="37.612771" lon="126.436113"><ele>450.5</ele></trkpt>
      <trkpt lat="37.612735" lon="126.436573"><ele>452.9</ele></trkpt>
      <trkpt lat="37.612427" lon="126.437191"><ele>442.8</ele></trkpt>
      <trkpt lat="37.612282" lon="126.437736"><ele>440.1</ele></trkpt>
      <trkpt lat="37.612349" lon="126.437962"><ele>437.0</ele></trkpt>
      <trkpt lat="37.612338" lon="126.438181"><ele>430.7</ele></trkpt>
      <trkpt lat="37.612126" lon="126.438400"><ele>421.8</ele></trkpt>
      <trkpt lat="37.611930" lon="126.438521"><ele>416.9</ele></trkpt>
      <trkpt lat="37.611391" lon="126.438644"><ele>410.5</ele></trkpt>
      <trkpt lat="37.610939" lon="126.439000"><ele>396.1</ele></trkpt>
      <trkpt lat="37.610623" lon="126.439542"><ele>388.0</ele></trkpt>
    </trkseg>
  </trk>
</gpx>
