<?xml version="1.0" encoding="UTF-8"?>
<gpx version="1.1" creator="kr-100-mountains route-harvester"
     xmlns="http://www.topografix.com/GPX/1/1"
     xmlns:k100="https://github.com/jay-jang/kr-100-mountains/ns/1"
     xmlns:xsi="http://www.w3.org/2001/XMLSchema-instance"
     xsi:schemaLocation="http://www.topografix.com/GPX/1/1 http://www.topografix.com/GPX/1/1/gpx.xsd">
  <metadata>
    <name>마니산 · 함허동천-능선로-참성단 (OSM 계산 경로)</name>
    <desc>실제 GPS 기록이 아닙니다. OpenStreetMap에 등록된 등산로 선형 위에서 계산한 경로이며, 현장 통제·훼손·출입 제한·계절 통제를 반영하지 않을 수 있습니다. 산행 전 공식 안내를 확인하세요.</desc>
    <time>2026-08-04T05:19:23.636Z</time>
    <link href="https://www.openstreetmap.org/copyright"><text>© OpenStreetMap contributors (ODbL 1.0)</text></link>
    <link href="https://registry.opendata.aws/terrain-tiles/"><text>Elevation: SRTM 1 arc-second (NASA/USGS) via AWS Terrain Tiles</text></link>
    <extensions>
      <k100:provenance>osm-routed</k100:provenance>
      <k100:not_a_recorded_track>true</k100:not_a_recorded_track>
      <k100:mountain_id>manisan</k100:mountain_id>
      <k100:mountain_name>마니산</k100:mountain_name>
      <k100:route_id>manisan-2a5d632e</k100:route_id>
      <k100:route_index>4</k100:route_index>
      <k100:route_name>함허동천-능선로-참성단</k100:route_name>
      <k100:variant>0</k100:variant>
      <k100:source>OpenStreetMap via Overpass API</k100:source>
      <k100:license>ODbL-1.0</k100:license>
      <k100:attribution>© OpenStreetMap contributors</k100:attribution>
      <k100:elevation_source>SRTM 1 arc-second (NASA/USGS) — AWS Terrain Tiles 배포본. 지형 DEM 추정 고도이며 실측 아님</k100:elevation_source>
      <k100:algorithm>dijkstra-grid-v1</k100:algorithm>
      <k100:osm_snapshot>2026-08-04</k100:osm_snapshot>
      <k100:snap_trailhead_m>5</k100:snap_trailhead_m>
      <k100:snap_summit_m>121</k100:snap_summit_m>
      <k100:validation_score>82</k100:validation_score>
      <k100:validation_status>accepted</k100:validation_status>
    </extensions>
  </metadata>
  <trk>
    <name>마니산 · 함허동천-능선로-참성단 (OSM 계산 경로)</name>
    <desc>실제 GPS 기록이 아닙니다. OpenStreetMap에 등록된 등산로 선형 위에서 계산한 경로이며, 현장 통제·훼손·출입 제한·계절 통제를 반영하지 않을 수 있습니다. 산행 전 공식 안내를 확인하세요.</desc>
    <trkseg>
      <trkpt lat="37.610809" lon="126.454352"><ele>27.2</ele></trkpt>
      <trkpt lat="37.610883" lon="126.454320"><ele>27.8</ele></trkpt>
      <trkpt lat="37.610979" lon="126.454117"><ele>29.5</ele></trkpt>
      <trkpt lat="37.611052" lon="126.453569"><ele>36.5</ele></trkpt>
      <trkpt lat="37.611224" lon="126.453238"><ele>39.4</ele></trkpt>
      <trkpt lat="37.611203" lon="126.452416"><ele>48.4</ele></trkpt>
      <trkpt lat="37.611009" lon="126.451721"><ele>57.7</ele></trkpt>
      <trkpt lat="37.611040" lon="126.451341"><ele>61.4</ele></trkpt>
      <trkpt lat="37.612419" lon="126.448703"><ele>100.2</ele></trkpt>
      <trkpt lat="37.612796" lon="126.447351"><ele>118.2</ele></trkpt>
      <trkpt lat="37.612909" lon="126.446697"><ele>125.3</ele></trkpt>
      <trkpt lat="37.612953" lon="126.445827"><ele>143.4</ele></trkpt>
      <trkpt lat="37.612504" lon="126.444271"><ele>184.6</ele></trkpt>
      <trkpt lat="37.612350" lon="126.444022"><ele>189.4</ele></trkpt>
      <trkpt lat="37.612145" lon="126.443949"><ele>192.8</ele></trkpt>
      <trkpt lat="37.612032" lon="126.443609"><ele>199.5</ele></trkpt>
      <trkpt lat="37.611944" lon="126.443562"><ele>201.7</ele></trkpt>
      <trkpt lat="37.611808" lon="126.443589"><ele>206.7</ele></trkpt>
      <trkpt lat="37.610836" lon="126.443452"><ele>242.3</ele></trkpt>
      <trkpt lat="37.610451" lon="126.443613"><ele>256.3</ele></trkpt>
      <trkpt lat="37.609680" lon="126.443462"><ele>285.0</ele></trkpt>
      <trkpt lat="37.609671" lon="126.442987"><ele>298.8</ele></trkpt>
      <trkpt lat="37.609457" lon="126.442112"><ele>324.2</ele></trkpt>
      <trkpt lat="37.609680" lon="126.441068"><ele>348.0</ele></trkpt>
      <trkpt lat="37.609684" lon="126.440865"><ele>354.0</ele></trkpt>
      <trkpt lat="37.609877" lon="126.440231"><ele>368.2</ele></trkpt>
      <trkpt lat="37.610116" lon="126.439986"><ele>370.8</ele></trkpt>
      <trkpt lat="37.610393" lon="126.439831"><ele>374.3</ele></trkpt>
      <trkpt lat="37.610623" lon="126.439542"><ele>388.0</ele></trkpt>
    </trkseg>
  </trk>
</gpx>
