<?xml version="1.0" encoding="UTF-8"?>
<gpx version="1.1" creator="kr-100-mountains route-harvester"
     xmlns="http://www.topografix.com/GPX/1/1"
     xmlns:k100="https://github.com/jay-jang/kr-100-mountains/ns/1"
     xmlns:xsi="http://www.w3.org/2001/XMLSchema-instance"
     xsi:schemaLocation="http://www.topografix.com/GPX/1/1 http://www.topografix.com/GPX/1/1/gpx.xsd">
  <metadata>
    <name>마니산 · 함허동천-능선로-참성단 (대안 2) (OSM 계산 경로)</name>
    <desc>실제 GPS 기록이 아닙니다. OpenStreetMap에 등록된 등산로 선형 위에서 계산한 경로이며, 현장 통제·훼손·출입 제한·계절 통제를 반영하지 않을 수 있습니다. 산행 전 공식 안내를 확인하세요.</desc>
    <time>2026-08-04T05:19:23.637Z</time>
    <link href="https://www.openstreetmap.org/copyright"><text>© OpenStreetMap contributors (ODbL 1.0)</text></link>
    <link href="https://registry.opendata.aws/terrain-tiles/"><text>Elevation: SRTM 1 arc-second (NASA/USGS) via AWS Terrain Tiles</text></link>
    <extensions>
      <k100:provenance>osm-routed</k100:provenance>
      <k100:not_a_recorded_track>true</k100:not_a_recorded_track>
      <k100:mountain_id>manisan</k100:mountain_id>
      <k100:mountain_name>마니산</k100:mountain_name>
      <k100:route_id>manisan-2a5d632e</k100:route_id>
      <k100:route_index>4</k100:route_index>
      <k100:route_name>함허동천-능선로-참성단</k100:route_name>
      <k100:variant>2</k100:variant>
      <k100:source>OpenStreetMap via Overpass API</k100:source>
      <k100:license>ODbL-1.0</k100:license>
      <k100:attribution>© OpenStreetMap contributors</k100:attribution>
      <k100:elevation_source>SRTM 1 arc-second (NASA/USGS) — AWS Terrain Tiles 배포본. 지형 DEM 추정 고도이며 실측 아님</k100:elevation_source>
      <k100:algorithm>dijkstra-grid-v1</k100:algorithm>
      <k100:osm_snapshot>2026-08-04</k100:osm_snapshot>
      <k100:snap_trailhead_m>5</k100:snap_trailhead_m>
      <k100:snap_summit_m>121</k100:snap_summit_m>
      <k100:validation_score>73</k100:validation_score>
      <k100:validation_status>review</k100:validation_status>
    </extensions>
  </metadata>
  <trk>
    <name>마니산 · 함허동천-능선로-참성단 (대안 2) (OSM 계산 경로)</name>
    <desc>실제 GPS 기록이 아닙니다. OpenStreetMap에 등록된 등산로 선형 위에서 계산한 경로이며, 현장 통제·훼손·출입 제한·계절 통제를 반영하지 않을 수 있습니다. 산행 전 공식 안내를 확인하세요.</desc>
    <trkseg>
      <trkpt lat="37.610809" lon="126.454352"><ele>27.2</ele></trkpt>
      <trkpt lat="37.610883" lon="126.454320"><ele>27.8</ele></trkpt>
      <trkpt lat="37.610979" lon="126.454117"><ele>29.5</ele></trkpt>
      <trkpt lat="37.610911" lon="126.454107"><ele>29.1</ele></trkpt>
      <trkpt lat="37.610768" lon="126.454249"><ele>27.2</ele></trkpt>
      <trkpt lat="37.610456" lon="126.454053"><ele>26.3</ele></trkpt>
      <trkpt lat="37.610521" lon="126.453908"><ele>27.6</ele></trkpt>
      <trkpt lat="37.610490" lon="126.453779"><ele>29.8</ele></trkpt>
      <trkpt lat="37.610407" lon="126.453538"><ele>34.1</ele></trkpt>
      <trkpt lat="37.610305" lon="126.453431"><ele>35.3</ele></trkpt>
      <trkpt lat="37.610050" lon="126.453270"><ele>38.9</ele></trkpt>
      <trkpt lat="37.609523" lon="126.453055"><ele>45.4</ele></trkpt>
      <trkpt lat="37.609276" lon="126.452862"><ele>50.2</ele></trkpt>
      <trkpt lat="37.609038" lon="126.452755"><ele>52.6</ele></trkpt>
      <trkpt lat="37.608741" lon="126.452390"><ele>62.3</ele></trkpt>
      <trkpt lat="37.608486" lon="126.452229"><ele>66.3</ele></trkpt>
      <trkpt lat="37.608223" lon="126.451961"><ele>73.4</ele></trkpt>
      <trkpt lat="37.607509" lon="126.450974"><ele>98.5</ele></trkpt>
      <trkpt lat="37.607262" lon="126.450233"><ele>105.2</ele></trkpt>
      <trkpt lat="37.607194" lon="126.449869"><ele>110.5</ele></trkpt>
      <trkpt lat="37.607109" lon="126.449697"><ele>113.5</ele></trkpt>
      <trkpt lat="37.606973" lon="126.449665"><ele>113.9</ele></trkpt>
      <trkpt lat="37.606880" lon="126.449450"><ele>117.2</ele></trkpt>
      <trkpt lat="37.606514" lon="126.449139"><ele>123.3</ele></trkpt>
      <trkpt lat="37.605908" lon="126.448859"><ele>132.0</ele></trkpt>
      <trkpt lat="37.606016" lon="126.447718"><ele>144.3</ele></trkpt>
      <trkpt lat="37.606210" lon="126.446717"><ele>153.4</ele></trkpt>
      <trkpt lat="37.606295" lon="126.446463"><ele>156.1</ele></trkpt>
      <trkpt lat="37.606414" lon="126.446298"><ele>158.0</ele></trkpt>
      <trkpt lat="37.606766" lon="126.446046"><ele>164.0</ele></trkpt>
      <trkpt lat="37.606833" lon="126.445779"><ele>168.7</ele></trkpt>
      <trkpt lat="37.607249" lon="126.445558"><ele>177.7</ele></trkpt>
      <trkpt lat="37.607584" lon="126.445481"><ele>188.7</ele></trkpt>
      <trkpt lat="37.607565" lon="126.445310"><ele>191.7</ele></trkpt>
      <trkpt lat="37.607385" lon="126.445025"><ele>191.5</ele></trkpt>
      <trkpt lat="37.607354" lon="126.444537"><ele>194.6</ele></trkpt>
      <trkpt lat="37.607285" lon="126.444336"><ele>193.8</ele></trkpt>
      <trkpt lat="37.607318" lon="126.444166"><ele>194.7</ele></trkpt>
      <trkpt lat="37.607460" lon="126.443983"><ele>197.5</ele></trkpt>
      <trkpt lat="37.608100" lon="126.443833"><ele>217.0</ele></trkpt>
      <trkpt lat="37.608345" lon="126.443824"><ele>228.1</ele></trkpt>
      <trkpt lat="37.608643" lon="126.443604"><ele>243.5</ele></trkpt>
      <trkpt lat="37.608652" lon="126.443487"><ele>246.2</ele></trkpt>
      <trkpt lat="37.608738" lon="126.443322"><ele>252.5</ele></trkpt>
      <trkpt lat="37.608723" lon="126.443120"><ele>259.3</ele></trkpt>
      <trkpt lat="37.608824" lon="126.443074"><ele>266.0</ele></trkpt>
      <trkpt lat="37.609060" lon="126.442709"><ele>294.8</ele></trkpt>
      <trkpt lat="37.609085" lon="126.442238"><ele>311.6</ele></trkpt>
      <trkpt lat="37.609314" lon="126.441993"><ele>324.0</ele></trkpt>
      <trkpt lat="37.609314" lon="126.441923"><ele>325.6</ele></trkpt>
      <trkpt lat="37.609495" lon="126.441847"><ele>330.9</ele></trkpt>
      <trkpt lat="37.609549" lon="126.441722"><ele>333.6</ele></trkpt>
      <trkpt lat="37.609680" lon="126.441068"><ele>348.0</ele></trkpt>
      <trkpt lat="37.609684" lon="126.440865"><ele>354.0</ele></trkpt>
      <trkpt lat="37.609877" lon="126.440231"><ele>368.2</ele></trkpt>
      <trkpt lat="37.610116" lon="126.439986"><ele>370.8</ele></trkpt>
      <trkpt lat="37.610393" lon="126.439831"><ele>374.3</ele></trkpt>
      <trkpt lat="37.610623" lon="126.439542"><ele>388.0</ele></trkpt>
    </trkseg>
  </trk>
</gpx>
