<?xml version="1.0" encoding="UTF-8"?>
<gpx version="1.1" creator="kr-100-mountains route-harvester"
     xmlns="http://www.topografix.com/GPX/1/1"
     xmlns:k100="https://github.com/jay-jang/kr-100-mountains/ns/1"
     xmlns:xsi="http://www.w3.org/2001/XMLSchema-instance"
     xsi:schemaLocation="http://www.topografix.com/GPX/1/1 http://www.topografix.com/GPX/1/1/gpx.xsd">
  <metadata>
    <name>성인봉 · 나리분지-성인봉 코스 (OSM 계산 경로)</name>
    <desc>실제 GPS 기록이 아닙니다. OpenStreetMap에 등록된 등산로 선형 위에서 계산한 경로이며, 현장 통제·훼손·출입 제한·계절 통제를 반영하지 않을 수 있습니다. 산행 전 공식 안내를 확인하세요.</desc>
    <time>2026-08-04T05:56:12.152Z</time>
    <link href="https://www.openstreetmap.org/copyright"><text>© OpenStreetMap contributors (ODbL 1.0)</text></link>
    <link href="https://registry.opendata.aws/terrain-tiles/"><text>Elevation: SRTM 1 arc-second (NASA/USGS) via AWS Terrain Tiles</text></link>
    <extensions>
      <k100:provenance>osm-routed</k100:provenance>
      <k100:not_a_recorded_track>true</k100:not_a_recorded_track>
      <k100:mountain_id>seonginbong</k100:mountain_id>
      <k100:mountain_name>성인봉</k100:mountain_name>
      <k100:route_id>seonginbong-11df4d95</k100:route_id>
      <k100:route_index>2</k100:route_index>
      <k100:route_name>나리분지-성인봉 코스</k100:route_name>
      <k100:variant>0</k100:variant>
      <k100:source>OpenStreetMap via Overpass API</k100:source>
      <k100:license>ODbL-1.0</k100:license>
      <k100:attribution>© OpenStreetMap contributors</k100:attribution>
      <k100:elevation_source>SRTM 1 arc-second (NASA/USGS) — AWS Terrain Tiles 배포본. 지형 DEM 추정 고도이며 실측 아님</k100:elevation_source>
      <k100:algorithm>dijkstra-grid-v1</k100:algorithm>
      <k100:osm_snapshot>2026-08-04</k100:osm_snapshot>
      <k100:snap_trailhead_m>68</k100:snap_trailhead_m>
      <k100:snap_summit_m>375</k100:snap_summit_m>
      <k100:validation_score>72</k100:validation_score>
      <k100:validation_status>review</k100:validation_status>
    </extensions>
  </metadata>
  <trk>
    <name>성인봉 · 나리분지-성인봉 코스 (OSM 계산 경로)</name>
    <desc>실제 GPS 기록이 아닙니다. OpenStreetMap에 등록된 등산로 선형 위에서 계산한 경로이며, 현장 통제·훼손·출입 제한·계절 통제를 반영하지 않을 수 있습니다. 산행 전 공식 안내를 확인하세요.</desc>
    <trkseg>
      <trkpt lat="37.512728" lon="130.866747"><ele>435.1</ele></trkpt>
      <trkpt lat="37.512520" lon="130.866614"><ele>436.2</ele></trkpt>
      <trkpt lat="37.511689" lon="130.865684"><ele>442.9</ele></trkpt>
      <trkpt lat="37.511219" lon="130.865056"><ele>444.4</ele></trkpt>
      <trkpt lat="37.510928" lon="130.864467"><ele>440.8</ele></trkpt>
      <trkpt lat="37.510600" lon="130.864018"><ele>441.5</ele></trkpt>
      <trkpt lat="37.510487" lon="130.863590"><ele>440.5</ele></trkpt>
      <trkpt lat="37.510485" lon="130.863298"><ele>440.7</ele></trkpt>
      <trkpt lat="37.510596" lon="130.861898"><ele>446.7</ele></trkpt>
      <trkpt lat="37.510717" lon="130.861149"><ele>443.1</ele></trkpt>
      <trkpt lat="37.510668" lon="130.860094"><ele>443.6</ele></trkpt>
      <trkpt lat="37.510502" lon="130.859724"><ele>445.0</ele></trkpt>
      <trkpt lat="37.510015" lon="130.859620"><ele>445.6</ele></trkpt>
      <trkpt lat="37.509918" lon="130.859548"><ele>445.4</ele></trkpt>
      <trkpt lat="37.509338" lon="130.859610"><ele>447.5</ele></trkpt>
      <trkpt lat="37.508914" lon="130.859546"><ele>449.9</ele></trkpt>
      <trkpt lat="37.506760" lon="130.859906"><ele>465.7</ele></trkpt>
      <trkpt lat="37.506145" lon="130.859880"><ele>466.6</ele></trkpt>
      <trkpt lat="37.505903" lon="130.859923"><ele>477.3</ele></trkpt>
      <trkpt lat="37.505762" lon="130.859903"><ele>482.6</ele></trkpt>
      <trkpt lat="37.505462" lon="130.859693"><ele>484.5</ele></trkpt>
      <trkpt lat="37.505326" lon="130.859714"><ele>484.8</ele></trkpt>
      <trkpt lat="37.504816" lon="130.860152"><ele>496.3</ele></trkpt>
      <trkpt lat="37.504567" lon="130.860298"><ele>497.2</ele></trkpt>
      <trkpt lat="37.504355" lon="130.860336"><ele>496.6</ele></trkpt>
      <trkpt lat="37.504032" lon="130.860633"><ele>501.7</ele></trkpt>
      <trkpt lat="37.503654" lon="130.860850"><ele>508.0</ele></trkpt>
      <trkpt lat="37.503192" lon="130.860993"><ele>520.9</ele></trkpt>
      <trkpt lat="37.503070" lon="130.861110"><ele>526.6</ele></trkpt>
      <trkpt lat="37.503117" lon="130.861278"><ele>525.8</ele></trkpt>
      <trkpt lat="37.502832" lon="130.861484"><ele>531.7</ele></trkpt>
      <trkpt lat="37.502660" lon="130.861491"><ele>536.0</ele></trkpt>
      <trkpt lat="37.501955" lon="130.861325"><ele>563.5</ele></trkpt>
      <trkpt lat="37.501315" lon="130.861424"><ele>594.2</ele></trkpt>
      <trkpt lat="37.500919" lon="130.861280"><ele>612.5</ele></trkpt>
      <trkpt lat="37.500831" lon="130.860975"><ele>619.6</ele></trkpt>
      <trkpt lat="37.500746" lon="130.861048"><ele>624.3</ele></trkpt>
      <trkpt lat="37.500644" lon="130.861031"><ele>632.4</ele></trkpt>
      <trkpt lat="37.500609" lon="130.860796"><ele>640.0</ele></trkpt>
      <trkpt lat="37.500337" lon="130.860487"><ele>664.8</ele></trkpt>
      <trkpt lat="37.500251" lon="130.860270"><ele>674.8</ele></trkpt>
      <trkpt lat="37.500177" lon="130.859842"><ele>702.5</ele></trkpt>
      <trkpt lat="37.500344" lon="130.859544"><ele>709.7</ele></trkpt>
      <trkpt lat="37.500249" lon="130.859353"><ele>719.1</ele></trkpt>
      <trkpt lat="37.499944" lon="130.859321"><ele>724.1</ele></trkpt>
      <trkpt lat="37.499744" lon="130.859206"><ele>729.1</ele></trkpt>
      <trkpt lat="37.499215" lon="130.859069"><ele>733.7</ele></trkpt>
      <trkpt lat="37.499136" lon="130.859172"><ele>731.9</ele></trkpt>
      <trkpt lat="37.498934" lon="130.860005"><ele>727.9</ele></trkpt>
      <trkpt lat="37.498790" lon="130.861022"><ele>732.3</ele></trkpt>
      <trkpt lat="37.498574" lon="130.861751"><ele>745.5</ele></trkpt>
      <trkpt lat="37.498525" lon="130.862068"><ele>752.2</ele></trkpt>
      <trkpt lat="37.498361" lon="130.862312"><ele>760.8</ele></trkpt>
      <trkpt lat="37.498244" lon="130.862905"><ele>783.0</ele></trkpt>
      <trkpt lat="37.498216" lon="130.863302"><ele>796.9</ele></trkpt>
      <trkpt lat="37.498019" lon="130.863559"><ele>805.5</ele></trkpt>
      <trkpt lat="37.497646" lon="130.863881"><ele>824.0</ele></trkpt>
      <trkpt lat="37.497532" lon="130.864292"><ele>841.2</ele></trkpt>
      <trkpt lat="37.497302" lon="130.864503"><ele>847.8</ele></trkpt>
      <trkpt lat="37.497301" lon="130.864625"><ele>851.6</ele></trkpt>
      <trkpt lat="37.497253" lon="130.864707"><ele>853.8</ele></trkpt>
      <trkpt lat="37.497126" lon="130.864786"><ele>856.6</ele></trkpt>
      <trkpt lat="37.497005" lon="130.864778"><ele>856.8</ele></trkpt>
      <trkpt lat="37.497107" lon="130.865463"><ele>885.2</ele></trkpt>
      <trkpt lat="37.497086" lon="130.865675"><ele>895.1</ele></trkpt>
      <trkpt lat="37.497301" lon="130.866225"><ele>925.4</ele></trkpt>
      <trkpt lat="37.497344" lon="130.866733"><ele>943.4</ele></trkpt>
      <trkpt lat="37.497559" lon="130.867067"><ele>957.1</ele></trkpt>
      <trkpt lat="37.497883" lon="130.867224"><ele>962.3</ele></trkpt>
      <trkpt lat="37.497881" lon="130.867330"><ele>963.1</ele></trkpt>
      <trkpt lat="37.497777" lon="130.867428"><ele>965.2</ele></trkpt>
      <trkpt lat="37.497790" lon="130.867666"><ele>961.1</ele></trkpt>
      <trkpt lat="37.497861" lon="130.867961"><ele>953.8</ele></trkpt>
      <trkpt lat="37.498002" lon="130.868113"><ele>950.2</ele></trkpt>
      <trkpt lat="37.498065" lon="130.868266"><ele>949.0</ele></trkpt>
      <trkpt lat="37.498195" lon="130.868406"><ele>945.3</ele></trkpt>
      <trkpt lat="37.498474" lon="130.868556"><ele>940.1</ele></trkpt>
      <trkpt lat="37.499148" lon="130.869395"><ele>928.2</ele></trkpt>
      <trkpt lat="37.499891" lon="130.869999"><ele>942.6</ele></trkpt>
      <trkpt lat="37.500474" lon="130.869892"><ele>927.3</ele></trkpt>
      <trkpt lat="37.500659" lon="130.869908"><ele>921.1</ele></trkpt>
      <trkpt lat="37.501113" lon="130.870058"><ele>911.8</ele></trkpt>
      <trkpt lat="37.501268" lon="130.870160"><ele>910.5</ele></trkpt>
      <trkpt lat="37.501491" lon="130.870203"><ele>906.4</ele></trkpt>
      <trkpt lat="37.501732" lon="130.870334"><ele>902.0</ele></trkpt>
      <trkpt lat="37.502123" lon="130.870358"><ele>898.6</ele></trkpt>
      <trkpt lat="37.502394" lon="130.870235"><ele>895.2</ele></trkpt>
      <trkpt lat="37.502536" lon="130.870240"><ele>892.3</ele></trkpt>
    </trkseg>
  </trk>
</gpx>
