<?xml version="1.0" encoding="UTF-8"?>
<gpx version="1.1" creator="kr-100-mountains route-harvester"
     xmlns="http://www.topografix.com/GPX/1/1"
     xmlns:k100="https://github.com/jay-jang/kr-100-mountains/ns/1"
     xmlns:xsi="http://www.w3.org/2001/XMLSchema-instance"
     xsi:schemaLocation="http://www.topografix.com/GPX/1/1 http://www.topografix.com/GPX/1/1/gpx.xsd">
  <metadata>
    <name>성인봉 · 도동-대원사-성인봉 코스 (OSM 계산 경로)</name>
    <desc>실제 GPS 기록이 아닙니다. OpenStreetMap에 등록된 등산로 선형 위에서 계산한 경로이며, 현장 통제·훼손·출입 제한·계절 통제를 반영하지 않을 수 있습니다. 산행 전 공식 안내를 확인하세요.</desc>
    <time>2026-08-04T05:56:12.120Z</time>
    <link href="https://www.openstreetmap.org/copyright"><text>© OpenStreetMap contributors (ODbL 1.0)</text></link>
    <link href="https://registry.opendata.aws/terrain-tiles/"><text>Elevation: SRTM 1 arc-second (NASA/USGS) via AWS Terrain Tiles</text></link>
    <extensions>
      <k100:provenance>osm-routed</k100:provenance>
      <k100:not_a_recorded_track>true</k100:not_a_recorded_track>
      <k100:mountain_id>seonginbong</k100:mountain_id>
      <k100:mountain_name>성인봉</k100:mountain_name>
      <k100:route_id>seonginbong-1390a718</k100:route_id>
      <k100:route_index>1</k100:route_index>
      <k100:route_name>도동-대원사-성인봉 코스</k100:route_name>
      <k100:variant>0</k100:variant>
      <k100:source>OpenStreetMap via Overpass API</k100:source>
      <k100:license>ODbL-1.0</k100:license>
      <k100:attribution>© OpenStreetMap contributors</k100:attribution>
      <k100:elevation_source>SRTM 1 arc-second (NASA/USGS) — AWS Terrain Tiles 배포본. 지형 DEM 추정 고도이며 실측 아님</k100:elevation_source>
      <k100:algorithm>dijkstra-grid-v1</k100:algorithm>
      <k100:osm_snapshot>2026-08-04</k100:osm_snapshot>
      <k100:snap_trailhead_m>50</k100:snap_trailhead_m>
      <k100:snap_summit_m>375</k100:snap_summit_m>
      <k100:validation_score>65</k100:validation_score>
      <k100:validation_status>review</k100:validation_status>
    </extensions>
  </metadata>
  <trk>
    <name>성인봉 · 도동-대원사-성인봉 코스 (OSM 계산 경로)</name>
    <desc>실제 GPS 기록이 아닙니다. OpenStreetMap에 등록된 등산로 선형 위에서 계산한 경로이며, 현장 통제·훼손·출입 제한·계절 통제를 반영하지 않을 수 있습니다. 산행 전 공식 안내를 확인하세요.</desc>
    <trkseg>
      <trkpt lat="37.491975" lon="130.885856"><ele>564.7</ele></trkpt>
      <trkpt lat="37.492221" lon="130.885415"><ele>565.2</ele></trkpt>
      <trkpt lat="37.492151" lon="130.885234"><ele>581.3</ele></trkpt>
      <trkpt lat="37.492279" lon="130.884778"><ele>588.7</ele></trkpt>
      <trkpt lat="37.492398" lon="130.884601"><ele>580.1</ele></trkpt>
      <trkpt lat="37.492415" lon="130.884437"><ele>583.3</ele></trkpt>
      <trkpt lat="37.492479" lon="130.884432"><ele>576.6</ele></trkpt>
      <trkpt lat="37.492615" lon="130.883745"><ele>582.1</ele></trkpt>
      <trkpt lat="37.492601" lon="130.883576"><ele>588.7</ele></trkpt>
      <trkpt lat="37.492837" lon="130.882973"><ele>585.9</ele></trkpt>
      <trkpt lat="37.492905" lon="130.882581"><ele>590.4</ele></trkpt>
      <trkpt lat="37.493107" lon="130.882270"><ele>590.2</ele></trkpt>
      <trkpt lat="37.493115" lon="130.882106"><ele>593.5</ele></trkpt>
      <trkpt lat="37.493060" lon="130.882010"><ele>596.7</ele></trkpt>
      <trkpt lat="37.493238" lon="130.881973"><ele>593.4</ele></trkpt>
      <trkpt lat="37.493477" lon="130.881729"><ele>602.3</ele></trkpt>
      <trkpt lat="37.493516" lon="130.881516"><ele>613.8</ele></trkpt>
      <trkpt lat="37.493689" lon="130.881169"><ele>627.6</ele></trkpt>
      <trkpt lat="37.493696" lon="130.881071"><ele>630.7</ele></trkpt>
      <trkpt lat="37.493841" lon="130.881031"><ele>630.8</ele></trkpt>
      <trkpt lat="37.494216" lon="130.881261"><ele>618.0</ele></trkpt>
      <trkpt lat="37.494361" lon="130.881269"><ele>617.8</ele></trkpt>
      <trkpt lat="37.494420" lon="130.881051"><ele>626.4</ele></trkpt>
      <trkpt lat="37.494289" lon="130.880923"><ele>632.2</ele></trkpt>
      <trkpt lat="37.494344" lon="130.880843"><ele>635.3</ele></trkpt>
      <trkpt lat="37.494335" lon="130.880711"><ele>641.9</ele></trkpt>
      <trkpt lat="37.494247" lon="130.880602"><ele>648.5</ele></trkpt>
      <trkpt lat="37.494314" lon="130.880521"><ele>651.3</ele></trkpt>
      <trkpt lat="37.494304" lon="130.880459"><ele>653.8</ele></trkpt>
      <trkpt lat="37.494222" lon="130.880430"><ele>655.9</ele></trkpt>
      <trkpt lat="37.494174" lon="130.880316"><ele>660.6</ele></trkpt>
      <trkpt lat="37.494273" lon="130.880106"><ele>670.2</ele></trkpt>
      <trkpt lat="37.494226" lon="130.879996"><ele>677.0</ele></trkpt>
      <trkpt lat="37.494265" lon="130.879875"><ele>684.5</ele></trkpt>
      <trkpt lat="37.494193" lon="130.879788"><ele>691.4</ele></trkpt>
      <trkpt lat="37.494165" lon="130.879644"><ele>702.8</ele></trkpt>
      <trkpt lat="37.494079" lon="130.879691"><ele>700.2</ele></trkpt>
      <trkpt lat="37.493961" lon="130.879279"><ele>729.5</ele></trkpt>
      <trkpt lat="37.494065" lon="130.879099"><ele>733.2</ele></trkpt>
      <trkpt lat="37.494078" lon="130.878886"><ele>735.3</ele></trkpt>
      <trkpt lat="37.494335" lon="130.878451"><ele>749.2</ele></trkpt>
      <trkpt lat="37.494602" lon="130.878151"><ele>756.9</ele></trkpt>
      <trkpt lat="37.494784" lon="130.877775"><ele>762.2</ele></trkpt>
      <trkpt lat="37.494875" lon="130.877716"><ele>759.3</ele></trkpt>
      <trkpt lat="37.495200" lon="130.876794"><ele>768.7</ele></trkpt>
      <trkpt lat="37.495152" lon="130.876582"><ele>781.8</ele></trkpt>
      <trkpt lat="37.495161" lon="130.876358"><ele>788.3</ele></trkpt>
      <trkpt lat="37.495106" lon="130.876246"><ele>795.0</ele></trkpt>
      <trkpt lat="37.495228" lon="130.875964"><ele>793.4</ele></trkpt>
      <trkpt lat="37.495146" lon="130.875849"><ele>800.8</ele></trkpt>
      <trkpt lat="37.495190" lon="130.875672"><ele>801.8</ele></trkpt>
      <trkpt lat="37.495140" lon="130.875504"><ele>808.9</ele></trkpt>
      <trkpt lat="37.495069" lon="130.875457"><ele>814.7</ele></trkpt>
      <trkpt lat="37.494962" lon="130.875025"><ele>823.2</ele></trkpt>
      <trkpt lat="37.494794" lon="130.874740"><ele>840.3</ele></trkpt>
      <trkpt lat="37.494780" lon="130.874264"><ele>854.3</ele></trkpt>
      <trkpt lat="37.494734" lon="130.874021"><ele>856.4</ele></trkpt>
      <trkpt lat="37.494672" lon="130.873928"><ele>853.9</ele></trkpt>
      <trkpt lat="37.494756" lon="130.873658"><ele>859.8</ele></trkpt>
      <trkpt lat="37.494781" lon="130.873278"><ele>866.4</ele></trkpt>
      <trkpt lat="37.494941" lon="130.872878"><ele>867.6</ele></trkpt>
      <trkpt lat="37.494961" lon="130.872578"><ele>862.2</ele></trkpt>
      <trkpt lat="37.495156" lon="130.872413"><ele>860.0</ele></trkpt>
      <trkpt lat="37.495198" lon="130.872316"><ele>858.3</ele></trkpt>
      <trkpt lat="37.495436" lon="130.872189"><ele>855.7</ele></trkpt>
      <trkpt lat="37.495481" lon="130.871938"><ele>849.4</ele></trkpt>
      <trkpt lat="37.495667" lon="130.871742"><ele>847.9</ele></trkpt>
      <trkpt lat="37.495744" lon="130.871514"><ele>847.9</ele></trkpt>
      <trkpt lat="37.496007" lon="130.871271"><ele>858.4</ele></trkpt>
      <trkpt lat="37.496045" lon="130.871146"><ele>865.2</ele></trkpt>
      <trkpt lat="37.496013" lon="130.870838"><ele>872.1</ele></trkpt>
      <trkpt lat="37.496059" lon="130.870752"><ele>874.8</ele></trkpt>
      <trkpt lat="37.496336" lon="130.870468"><ele>885.6</ele></trkpt>
      <trkpt lat="37.496512" lon="130.870145"><ele>890.7</ele></trkpt>
      <trkpt lat="37.496601" lon="130.870101"><ele>891.1</ele></trkpt>
      <trkpt lat="37.496644" lon="130.869948"><ele>891.6</ele></trkpt>
      <trkpt lat="37.496904" lon="130.869745"><ele>898.3</ele></trkpt>
      <trkpt lat="37.497082" lon="130.869366"><ele>908.4</ele></trkpt>
      <trkpt lat="37.497276" lon="130.869092"><ele>921.1</ele></trkpt>
      <trkpt lat="37.497340" lon="130.868887"><ele>927.0</ele></trkpt>
      <trkpt lat="37.497529" lon="130.868616"><ele>935.3</ele></trkpt>
      <trkpt lat="37.497533" lon="130.868367"><ele>941.0</ele></trkpt>
      <trkpt lat="37.497663" lon="130.867985"><ele>951.5</ele></trkpt>
      <trkpt lat="37.497677" lon="130.867785"><ele>955.7</ele></trkpt>
      <trkpt lat="37.497790" lon="130.867666"><ele>961.1</ele></trkpt>
      <trkpt lat="37.497861" lon="130.867961"><ele>953.8</ele></trkpt>
      <trkpt lat="37.498002" lon="130.868113"><ele>950.2</ele></trkpt>
      <trkpt lat="37.498065" lon="130.868266"><ele>949.0</ele></trkpt>
      <trkpt lat="37.498195" lon="130.868406"><ele>945.3</ele></trkpt>
      <trkpt lat="37.498474" lon="130.868556"><ele>940.1</ele></trkpt>
      <trkpt lat="37.499148" lon="130.869395"><ele>928.2</ele></trkpt>
      <trkpt lat="37.499891" lon="130.869999"><ele>942.6</ele></trkpt>
      <trkpt lat="37.500474" lon="130.869892"><ele>927.3</ele></trkpt>
      <trkpt lat="37.500659" lon="130.869908"><ele>921.1</ele></trkpt>
      <trkpt lat="37.501113" lon="130.870058"><ele>911.8</ele></trkpt>
      <trkpt lat="37.501268" lon="130.870160"><ele>910.5</ele></trkpt>
      <trkpt lat="37.501491" lon="130.870203"><ele>906.4</ele></trkpt>
      <trkpt lat="37.501732" lon="130.870334"><ele>902.0</ele></trkpt>
      <trkpt lat="37.502123" lon="130.870358"><ele>898.6</ele></trkpt>
      <trkpt lat="37.502394" lon="130.870235"><ele>895.2</ele></trkpt>
      <trkpt lat="37.502536" lon="130.870240"><ele>892.3</ele></trkpt>
    </trkseg>
  </trk>
</gpx>
