<?xml version="1.0" encoding="UTF-8"?>
<gpx version="1.1" creator="kr-100-mountains route-harvester"
     xmlns="http://www.topografix.com/GPX/1/1"
     xmlns:k100="https://github.com/jay-jang/kr-100-mountains/ns/1"
     xmlns:xsi="http://www.w3.org/2001/XMLSchema-instance"
     xsi:schemaLocation="http://www.topografix.com/GPX/1/1 http://www.topografix.com/GPX/1/1/gpx.xsd">
  <metadata>
    <name>대둔산 · 케이블카-금강구름다리-삼선계단-마천대 (OSM 계산 경로)</name>
    <desc>실제 GPS 기록이 아닙니다. OpenStreetMap에 등록된 등산로 선형 위에서 계산한 경로이며, 현장 통제·훼손·출입 제한·계절 통제를 반영하지 않을 수 있습니다. 산행 전 공식 안내를 확인하세요.</desc>
    <time>2026-08-04T05:55:28.337Z</time>
    <link href="https://www.openstreetmap.org/copyright"><text>© OpenStreetMap contributors (ODbL 1.0)</text></link>
    <link href="https://registry.opendata.aws/terrain-tiles/"><text>Elevation: SRTM 1 arc-second (NASA/USGS) via AWS Terrain Tiles</text></link>
    <extensions>
      <k100:provenance>osm-routed</k100:provenance>
      <k100:not_a_recorded_track>true</k100:not_a_recorded_track>
      <k100:mountain_id>daedunsan</k100:mountain_id>
      <k100:mountain_name>대둔산</k100:mountain_name>
      <k100:route_id>daedunsan-d012d140</k100:route_id>
      <k100:route_index>1</k100:route_index>
      <k100:route_name>케이블카-금강구름다리-삼선계단-마천대</k100:route_name>
      <k100:variant>0</k100:variant>
      <k100:source>OpenStreetMap via Overpass API</k100:source>
      <k100:license>ODbL-1.0</k100:license>
      <k100:attribution>© OpenStreetMap contributors</k100:attribution>
      <k100:elevation_source>SRTM 1 arc-second (NASA/USGS) — AWS Terrain Tiles 배포본. 지형 DEM 추정 고도이며 실측 아님</k100:elevation_source>
      <k100:algorithm>dijkstra-grid-v1</k100:algorithm>
      <k100:osm_snapshot>2026-08-04</k100:osm_snapshot>
      <k100:snap_trailhead_m>39</k100:snap_trailhead_m>
      <k100:snap_summit_m>156</k100:snap_summit_m>
      <k100:validation_score>89</k100:validation_score>
      <k100:validation_status>accepted</k100:validation_status>
    </extensions>
  </metadata>
  <trk>
    <name>대둔산 · 케이블카-금강구름다리-삼선계단-마천대 (OSM 계산 경로)</name>
    <desc>실제 GPS 기록이 아닙니다. OpenStreetMap에 등록된 등산로 선형 위에서 계산한 경로이며, 현장 통제·훼손·출입 제한·계절 통제를 반영하지 않을 수 있습니다. 산행 전 공식 안내를 확인하세요.</desc>
    <trkseg>
      <trkpt lat="36.122663" lon="127.324824"><ele>630.0</ele></trkpt>
      <trkpt lat="36.122518" lon="127.324803"><ele>624.2</ele></trkpt>
      <trkpt lat="36.122526" lon="127.324485"><ele>637.5</ele></trkpt>
      <trkpt lat="36.122489" lon="127.324399"><ele>636.4</ele></trkpt>
      <trkpt lat="36.122496" lon="127.324290"><ele>635.9</ele></trkpt>
      <trkpt lat="36.122725" lon="127.323735"><ele>645.3</ele></trkpt>
      <trkpt lat="36.122799" lon="127.323684"><ele>651.5</ele></trkpt>
      <trkpt lat="36.122880" lon="127.323707"><ele>658.0</ele></trkpt>
      <trkpt lat="36.123137" lon="127.323526"><ele>682.0</ele></trkpt>
      <trkpt lat="36.123279" lon="127.323306"><ele>697.0</ele></trkpt>
      <trkpt lat="36.123314" lon="127.323313"><ele>700.2</ele></trkpt>
      <trkpt lat="36.123330" lon="127.323217"><ele>701.3</ele></trkpt>
      <trkpt lat="36.123376" lon="127.323239"><ele>704.7</ele></trkpt>
      <trkpt lat="36.123445" lon="127.323111"><ele>708.9</ele></trkpt>
      <trkpt lat="36.123603" lon="127.323050"><ele>719.4</ele></trkpt>
      <trkpt lat="36.123604" lon="127.322971"><ele>718.9</ele></trkpt>
      <trkpt lat="36.123729" lon="127.322928"><ele>729.1</ele></trkpt>
      <trkpt lat="36.123874" lon="127.322786"><ele>738.1</ele></trkpt>
      <trkpt lat="36.123918" lon="127.322649"><ele>740.5</ele></trkpt>
      <trkpt lat="36.123854" lon="127.322498"><ele>734.8</ele></trkpt>
      <trkpt lat="36.124026" lon="127.322136"><ele>754.1</ele></trkpt>
      <trkpt lat="36.124330" lon="127.321685"><ele>783.5</ele></trkpt>
      <trkpt lat="36.124468" lon="127.321633"><ele>795.8</ele></trkpt>
      <trkpt lat="36.124546" lon="127.321428"><ele>804.1</ele></trkpt>
      <trkpt lat="36.124946" lon="127.321214"><ele>826.3</ele></trkpt>
      <trkpt lat="36.125119" lon="127.321222"><ele>831.0</ele></trkpt>
      <trkpt lat="36.125351" lon="127.321133"><ele>832.7</ele></trkpt>
      <trkpt lat="36.125844" lon="127.321165"><ele>818.2</ele></trkpt>
      <trkpt lat="36.126003" lon="127.321251"><ele>810.8</ele></trkpt>
      <trkpt lat="36.126252" lon="127.321506"><ele>803.5</ele></trkpt>
      <trkpt lat="36.126564" lon="127.321442"><ele>789.3</ele></trkpt>
      <trkpt lat="36.126685" lon="127.321476"><ele>787.8</ele></trkpt>
      <trkpt lat="36.126792" lon="127.321275"><ele>775.8</ele></trkpt>
      <trkpt lat="36.127862" lon="127.320615"><ele>725.1</ele></trkpt>
      <trkpt lat="36.128315" lon="127.320152"><ele>705.5</ele></trkpt>
      <trkpt lat="36.128436" lon="127.320104"><ele>705.0</ele></trkpt>
      <trkpt lat="36.128235" lon="127.319377"><ele>687.7</ele></trkpt>
      <trkpt lat="36.128315" lon="127.319143"><ele>680.7</ele></trkpt>
      <trkpt lat="36.128365" lon="127.318674"><ele>669.6</ele></trkpt>
      <trkpt lat="36.128265" lon="127.318385"><ele>661.5</ele></trkpt>
      <trkpt lat="36.128330" lon="127.317879"><ele>646.7</ele></trkpt>
      <trkpt lat="36.128424" lon="127.317436"><ele>635.4</ele></trkpt>
      <trkpt lat="36.128549" lon="127.317331"><ele>631.9</ele></trkpt>
      <trkpt lat="36.128549" lon="127.317121"><ele>626.6</ele></trkpt>
      <trkpt lat="36.129081" lon="127.316117"><ele>592.2</ele></trkpt>
      <trkpt lat="36.129390" lon="127.315328"><ele>579.6</ele></trkpt>
      <trkpt lat="36.129241" lon="127.314774"><ele>568.6</ele></trkpt>
      <trkpt lat="36.129256" lon="127.314490"><ele>564.6</ele></trkpt>
      <trkpt lat="36.129186" lon="127.314194"><ele>557.5</ele></trkpt>
      <trkpt lat="36.128997" lon="127.314016"><ele>551.7</ele></trkpt>
      <trkpt lat="36.128997" lon="127.313332"><ele>540.5</ele></trkpt>
      <trkpt lat="36.128842" lon="127.312672"><ele>516.3</ele></trkpt>
      <trkpt lat="36.128890" lon="127.311994"><ele>499.3</ele></trkpt>
      <trkpt lat="36.129037" lon="127.311639"><ele>492.4</ele></trkpt>
      <trkpt lat="36.129182" lon="127.311703"><ele>493.4</ele></trkpt>
      <trkpt lat="36.129282" lon="127.311634"><ele>495.2</ele></trkpt>
      <trkpt lat="36.129562" lon="127.311613"><ele>509.2</ele></trkpt>
      <trkpt lat="36.129575" lon="127.311526"><ele>504.6</ele></trkpt>
      <trkpt lat="36.129480" lon="127.311351"><ele>490.5</ele></trkpt>
      <trkpt lat="36.129539" lon="127.311212"><ele>488.0</ele></trkpt>
      <trkpt lat="36.129673" lon="127.311083"><ele>486.9</ele></trkpt>
      <trkpt lat="36.129805" lon="127.311029"><ele>490.2</ele></trkpt>
      <trkpt lat="36.130181" lon="127.311126"><ele>508.2</ele></trkpt>
      <trkpt lat="36.130316" lon="127.311034"><ele>508.3</ele></trkpt>
      <trkpt lat="36.130509" lon="127.310685"><ele>500.5</ele></trkpt>
      <trkpt lat="36.130656" lon="127.310555"><ele>498.5</ele></trkpt>
      <trkpt lat="36.130912" lon="127.310550"><ele>505.3</ele></trkpt>
      <trkpt lat="36.131067" lon="127.310418"><ele>505.3</ele></trkpt>
      <trkpt lat="36.131076" lon="127.310239"><ele>498.4</ele></trkpt>
      <trkpt lat="36.131402" lon="127.309901"><ele>489.6</ele></trkpt>
      <trkpt lat="36.131479" lon="127.309879"><ele>487.9</ele></trkpt>
      <trkpt lat="36.131583" lon="127.309962"><ele>489.3</ele></trkpt>
      <trkpt lat="36.131661" lon="127.310251"><ele>495.5</ele></trkpt>
      <trkpt lat="36.131785" lon="127.310418"><ele>490.1</ele></trkpt>
      <trkpt lat="36.131996" lon="127.310480"><ele>478.4</ele></trkpt>
      <trkpt lat="36.132353" lon="127.310412"><ele>467.3</ele></trkpt>
      <trkpt lat="36.132570" lon="127.310289"><ele>456.4</ele></trkpt>
      <trkpt lat="36.133152" lon="127.309337"><ele>401.8</ele></trkpt>
      <trkpt lat="36.133276" lon="127.309257"><ele>397.4</ele></trkpt>
      <trkpt lat="36.133382" lon="127.309094"><ele>389.2</ele></trkpt>
      <trkpt lat="36.133542" lon="127.308965"><ele>381.8</ele></trkpt>
      <trkpt lat="36.133859" lon="127.308991"><ele>379.4</ele></trkpt>
      <trkpt lat="36.134048" lon="127.308833"><ele>370.9</ele></trkpt>
      <trkpt lat="36.134243" lon="127.308760"><ele>369.8</ele></trkpt>
      <trkpt lat="36.134372" lon="127.308519"><ele>363.3</ele></trkpt>
      <trkpt lat="36.134307" lon="127.308336"><ele>354.2</ele></trkpt>
      <trkpt lat="36.134488" lon="127.307612"><ele>337.2</ele></trkpt>
      <trkpt lat="36.134743" lon="127.307237"><ele>328.3</ele></trkpt>
      <trkpt lat="36.135001" lon="127.307075"><ele>324.9</ele></trkpt>
    </trkseg>
  </trk>
</gpx>
