<?xml version="1.0" encoding="UTF-8"?>
<gpx version="1.1" creator="kr-100-mountains route-harvester"
     xmlns="http://www.topografix.com/GPX/1/1"
     xmlns:k100="https://github.com/jay-jang/kr-100-mountains/ns/1"
     xmlns:xsi="http://www.w3.org/2001/XMLSchema-instance"
     xsi:schemaLocation="http://www.topografix.com/GPX/1/1 http://www.topografix.com/GPX/1/1/gpx.xsd">
  <metadata>
    <name>도봉산 · 원도봉탐방지원센터-망월사-포대능선-신선대 (대안 1) (OSM 계산 경로)</name>
    <desc>실제 GPS 기록이 아닙니다. OpenStreetMap에 등록된 등산로 선형 위에서 계산한 경로이며, 현장 통제·훼손·출입 제한·계절 통제를 반영하지 않을 수 있습니다. 산행 전 공식 안내를 확인하세요.</desc>
    <time>2026-08-04T05:14:28.753Z</time>
    <link href="https://www.openstreetmap.org/copyright"><text>© OpenStreetMap contributors (ODbL 1.0)</text></link>
    <link href="https://registry.opendata.aws/terrain-tiles/"><text>Elevation: SRTM 1 arc-second (NASA/USGS) via AWS Terrain Tiles</text></link>
    <extensions>
      <k100:provenance>osm-routed</k100:provenance>
      <k100:not_a_recorded_track>true</k100:not_a_recorded_track>
      <k100:mountain_id>dobongsan</k100:mountain_id>
      <k100:mountain_name>도봉산</k100:mountain_name>
      <k100:route_id>dobongsan-e5f61366</k100:route_id>
      <k100:route_index>4</k100:route_index>
      <k100:route_name>원도봉탐방지원센터-망월사-포대능선-신선대</k100:route_name>
      <k100:variant>1</k100:variant>
      <k100:source>OpenStreetMap via Overpass API</k100:source>
      <k100:license>ODbL-1.0</k100:license>
      <k100:attribution>© OpenStreetMap contributors</k100:attribution>
      <k100:elevation_source>SRTM 1 arc-second (NASA/USGS) — AWS Terrain Tiles 배포본. 지형 DEM 추정 고도이며 실측 아님</k100:elevation_source>
      <k100:algorithm>dijkstra-grid-v1</k100:algorithm>
      <k100:osm_snapshot>2026-08-04</k100:osm_snapshot>
      <k100:snap_trailhead_m>1</k100:snap_trailhead_m>
      <k100:snap_summit_m>18</k100:snap_summit_m>
      <k100:validation_score>100</k100:validation_score>
      <k100:validation_status>accepted</k100:validation_status>
    </extensions>
  </metadata>
  <trk>
    <name>도봉산 · 원도봉탐방지원센터-망월사-포대능선-신선대 (대안 1) (OSM 계산 경로)</name>
    <desc>실제 GPS 기록이 아닙니다. OpenStreetMap에 등록된 등산로 선형 위에서 계산한 경로이며, 현장 통제·훼손·출입 제한·계절 통제를 반영하지 않을 수 있습니다. 산행 전 공식 안내를 확인하세요.</desc>
    <trkseg>
      <trkpt lat="37.710111" lon="127.044817"><ele>53.8</ele></trkpt>
      <trkpt lat="37.710464" lon="127.044861"><ele>51.5</ele></trkpt>
      <trkpt lat="37.710407" lon="127.045752"><ele>49.7</ele></trkpt>
      <trkpt lat="37.710348" lon="127.045885"><ele>49.5</ele></trkpt>
      <trkpt lat="37.709655" lon="127.045848"><ele>50.4</ele></trkpt>
      <trkpt lat="37.709650" lon="127.045978"><ele>49.3</ele></trkpt>
      <trkpt lat="37.709279" lon="127.045974"><ele>50.2</ele></trkpt>
      <trkpt lat="37.709243" lon="127.046702"><ele>43.2</ele></trkpt>
      <trkpt lat="37.709206" lon="127.046805"><ele>43.1</ele></trkpt>
      <trkpt lat="37.709084" lon="127.046901"><ele>43.3</ele></trkpt>
      <trkpt lat="37.708471" lon="127.047109"><ele>45.2</ele></trkpt>
      <trkpt lat="37.708197" lon="127.046313"><ele>49.9</ele></trkpt>
      <trkpt lat="37.707589" lon="127.045333"><ele>45.8</ele></trkpt>
      <trkpt lat="37.706483" lon="127.045289"><ele>42.7</ele></trkpt>
      <trkpt lat="37.706457" lon="127.044931"><ele>42.7</ele></trkpt>
      <trkpt lat="37.706626" lon="127.044474"><ele>46.6</ele></trkpt>
      <trkpt lat="37.706594" lon="127.043618"><ele>54.0</ele></trkpt>
      <trkpt lat="37.706801" lon="127.043273"><ele>55.1</ele></trkpt>
      <trkpt lat="37.707146" lon="127.042243"><ele>61.8</ele></trkpt>
      <trkpt lat="37.707277" lon="127.041721"><ele>64.6</ele></trkpt>
      <trkpt lat="37.707539" lon="127.041445"><ele>69.5</ele></trkpt>
      <trkpt lat="37.707525" lon="127.040956"><ele>71.1</ele></trkpt>
      <trkpt lat="37.707452" lon="127.040492"><ele>76.6</ele></trkpt>
      <trkpt lat="37.707539" lon="127.039756"><ele>84.1</ele></trkpt>
      <trkpt lat="37.707374" lon="127.039087"><ele>84.1</ele></trkpt>
      <trkpt lat="37.707227" lon="127.037507"><ele>100.0</ele></trkpt>
      <trkpt lat="37.706870" lon="127.036368"><ele>114.7</ele></trkpt>
      <trkpt lat="37.706649" lon="127.036112"><ele>117.9</ele></trkpt>
      <trkpt lat="37.706449" lon="127.036099"><ele>117.4</ele></trkpt>
      <trkpt lat="37.706183" lon="127.035816"><ele>118.4</ele></trkpt>
      <trkpt lat="37.706104" lon="127.035662"><ele>120.1</ele></trkpt>
      <trkpt lat="37.706083" lon="127.035370"><ele>125.2</ele></trkpt>
      <trkpt lat="37.705975" lon="127.034998"><ele>129.5</ele></trkpt>
      <trkpt lat="37.706098" lon="127.034831"><ele>131.2</ele></trkpt>
      <trkpt lat="37.706162" lon="127.034586"><ele>133.2</ele></trkpt>
      <trkpt lat="37.706090" lon="127.034481"><ele>133.1</ele></trkpt>
      <trkpt lat="37.706050" lon="127.034258"><ele>136.2</ele></trkpt>
      <trkpt lat="37.705991" lon="127.034161"><ele>138.1</ele></trkpt>
      <trkpt lat="37.705817" lon="127.034081"><ele>142.0</ele></trkpt>
      <trkpt lat="37.705666" lon="127.033888"><ele>150.6</ele></trkpt>
      <trkpt lat="37.705634" lon="127.033745"><ele>155.3</ele></trkpt>
      <trkpt lat="37.705410" lon="127.033715"><ele>159.6</ele></trkpt>
      <trkpt lat="37.705359" lon="127.033652"><ele>161.4</ele></trkpt>
      <trkpt lat="37.705290" lon="127.033754"><ele>161.7</ele></trkpt>
      <trkpt lat="37.705030" lon="127.033852"><ele>167.3</ele></trkpt>
      <trkpt lat="37.704724" lon="127.033630"><ele>176.2</ele></trkpt>
      <trkpt lat="37.704454" lon="127.032900"><ele>179.7</ele></trkpt>
      <trkpt lat="37.704414" lon="127.032595"><ele>180.6</ele></trkpt>
      <trkpt lat="37.704315" lon="127.032335"><ele>185.9</ele></trkpt>
      <trkpt lat="37.704381" lon="127.032124"><ele>188.6</ele></trkpt>
      <trkpt lat="37.704197" lon="127.031767"><ele>195.2</ele></trkpt>
      <trkpt lat="37.704168" lon="127.031562"><ele>198.7</ele></trkpt>
      <trkpt lat="37.704063" lon="127.031442"><ele>203.3</ele></trkpt>
      <trkpt lat="37.704101" lon="127.031209"><ele>209.2</ele></trkpt>
      <trkpt lat="37.703994" lon="127.031090"><ele>212.6</ele></trkpt>
      <trkpt lat="37.703965" lon="127.030859"><ele>218.7</ele></trkpt>
      <trkpt lat="37.703880" lon="127.030768"><ele>220.5</ele></trkpt>
      <trkpt lat="37.703898" lon="127.030682"><ele>223.7</ele></trkpt>
      <trkpt lat="37.703850" lon="127.030567"><ele>227.6</ele></trkpt>
      <trkpt lat="37.703662" lon="127.030444"><ele>230.0</ele></trkpt>
      <trkpt lat="37.703535" lon="127.030523"><ele>230.2</ele></trkpt>
      <trkpt lat="37.703455" lon="127.030491"><ele>232.2</ele></trkpt>
      <trkpt lat="37.703435" lon="127.030381"><ele>233.0</ele></trkpt>
      <trkpt lat="37.703196" lon="127.030128"><ele>240.9</ele></trkpt>
      <trkpt lat="37.703149" lon="127.028828"><ele>261.0</ele></trkpt>
      <trkpt lat="37.703326" lon="127.028815"><ele>259.7</ele></trkpt>
      <trkpt lat="37.703384" lon="127.028887"><ele>258.9</ele></trkpt>
      <trkpt lat="37.703465" lon="127.028886"><ele>260.4</ele></trkpt>
      <trkpt lat="37.703599" lon="127.028803"><ele>263.7</ele></trkpt>
      <trkpt lat="37.703872" lon="127.028414"><ele>268.5</ele></trkpt>
      <trkpt lat="37.703923" lon="127.028268"><ele>269.7</ele></trkpt>
      <trkpt lat="37.703959" lon="127.027846"><ele>271.6</ele></trkpt>
      <trkpt lat="37.703679" lon="127.026847"><ele>294.8</ele></trkpt>
      <trkpt lat="37.703599" lon="127.026733"><ele>298.3</ele></trkpt>
      <trkpt lat="37.703449" lon="127.026718"><ele>297.7</ele></trkpt>
      <trkpt lat="37.703376" lon="127.026555"><ele>302.8</ele></trkpt>
      <trkpt lat="37.703307" lon="127.026532"><ele>303.8</ele></trkpt>
      <trkpt lat="37.703227" lon="127.026626"><ele>302.0</ele></trkpt>
      <trkpt lat="37.703062" lon="127.026465"><ele>309.3</ele></trkpt>
      <trkpt lat="37.703029" lon="127.026497"><ele>309.1</ele></trkpt>
      <trkpt lat="37.702934" lon="127.025967"><ele>322.0</ele></trkpt>
      <trkpt lat="37.702810" lon="127.025814"><ele>324.9</ele></trkpt>
      <trkpt lat="37.702725" lon="127.025466"><ele>334.5</ele></trkpt>
      <trkpt lat="37.702709" lon="127.025280"><ele>339.9</ele></trkpt>
      <trkpt lat="37.702754" lon="127.025155"><ele>344.3</ele></trkpt>
      <trkpt lat="37.702699" lon="127.024907"><ele>350.5</ele></trkpt>
      <trkpt lat="37.702776" lon="127.024258"><ele>365.7</ele></trkpt>
      <trkpt lat="37.702740" lon="127.024104"><ele>368.9</ele></trkpt>
      <trkpt lat="37.702779" lon="127.023804"><ele>374.3</ele></trkpt>
      <trkpt lat="37.702826" lon="127.023617"><ele>378.8</ele></trkpt>
      <trkpt lat="37.702971" lon="127.023510"><ele>386.3</ele></trkpt>
      <trkpt lat="37.703036" lon="127.023155"><ele>393.5</ele></trkpt>
      <trkpt lat="37.703103" lon="127.023101"><ele>396.9</ele></trkpt>
      <trkpt lat="37.703149" lon="127.022933"><ele>401.9</ele></trkpt>
      <trkpt lat="37.702947" lon="127.022413"><ele>409.8</ele></trkpt>
      <trkpt lat="37.702870" lon="127.021048"><ele>440.9</ele></trkpt>
      <trkpt lat="37.702779" lon="127.020809"><ele>444.9</ele></trkpt>
      <trkpt lat="37.702811" lon="127.020388"><ele>460.5</ele></trkpt>
      <trkpt lat="37.702892" lon="127.020190"><ele>467.1</ele></trkpt>
      <trkpt lat="37.702811" lon="127.020002"><ele>470.3</ele></trkpt>
      <trkpt lat="37.702764" lon="127.019691"><ele>478.6</ele></trkpt>
      <trkpt lat="37.702741" lon="127.019345"><ele>492.2</ele></trkpt>
      <trkpt lat="37.702775" lon="127.019009"><ele>500.7</ele></trkpt>
      <trkpt lat="37.702675" lon="127.018500"><ele>518.6</ele></trkpt>
      <trkpt lat="37.702784" lon="127.018122"><ele>534.1</ele></trkpt>
      <trkpt lat="37.703062" lon="127.017607"><ele>562.7</ele></trkpt>
      <trkpt lat="37.703089" lon="127.016800"><ele>597.5</ele></trkpt>
      <trkpt lat="37.702963" lon="127.016203"><ele>626.2</ele></trkpt>
      <trkpt lat="37.702716" lon="127.015556"><ele>650.4</ele></trkpt>
      <trkpt lat="37.702630" lon="127.015564"><ele>651.0</ele></trkpt>
      <trkpt lat="37.702482" lon="127.015285"><ele>646.9</ele></trkpt>
      <trkpt lat="37.702083" lon="127.015233"><ele>643.8</ele></trkpt>
      <trkpt lat="37.701670" lon="127.014854"><ele>633.6</ele></trkpt>
      <trkpt lat="37.701473" lon="127.014835"><ele>637.1</ele></trkpt>
      <trkpt lat="37.701278" lon="127.014935"><ele>647.1</ele></trkpt>
      <trkpt lat="37.700821" lon="127.014872"><ele>661.2</ele></trkpt>
      <trkpt lat="37.700424" lon="127.015098"><ele>680.9</ele></trkpt>
      <trkpt lat="37.700355" lon="127.015006"><ele>681.1</ele></trkpt>
      <trkpt lat="37.700066" lon="127.014965"><ele>686.2</ele></trkpt>
      <trkpt lat="37.699867" lon="127.015079"><ele>691.0</ele></trkpt>
      <trkpt lat="37.699615" lon="127.014965"><ele>691.8</ele></trkpt>
      <trkpt lat="37.699142" lon="127.014997"><ele>702.2</ele></trkpt>
      <trkpt lat="37.699124" lon="127.014960"><ele>701.1</ele></trkpt>
      <trkpt lat="37.698965" lon="127.015238"><ele>705.3</ele></trkpt>
      <trkpt lat="37.698616" lon="127.015391"><ele>711.6</ele></trkpt>
    </trkseg>
  </trk>
</gpx>
