<?xml version="1.0" encoding="UTF-8"?>
<gpx version="1.1" creator="kr-100-mountains route-harvester"
     xmlns="http://www.topografix.com/GPX/1/1"
     xmlns:k100="https://github.com/jay-jang/kr-100-mountains/ns/1"
     xmlns:xsi="http://www.w3.org/2001/XMLSchema-instance"
     xsi:schemaLocation="http://www.topografix.com/GPX/1/1 http://www.topografix.com/GPX/1/1/gpx.xsd">
  <metadata>
    <name>도봉산 · 도봉탐방지원센터-신선대 코스 (대안 2) (OSM 계산 경로)</name>
    <desc>실제 GPS 기록이 아닙니다. OpenStreetMap에 등록된 등산로 선형 위에서 계산한 경로이며, 현장 통제·훼손·출입 제한·계절 통제를 반영하지 않을 수 있습니다. 산행 전 공식 안내를 확인하세요.</desc>
    <time>2026-08-04T05:14:28.381Z</time>
    <link href="https://www.openstreetmap.org/copyright"><text>© OpenStreetMap contributors (ODbL 1.0)</text></link>
    <link href="https://registry.opendata.aws/terrain-tiles/"><text>Elevation: SRTM 1 arc-second (NASA/USGS) via AWS Terrain Tiles</text></link>
    <extensions>
      <k100:provenance>osm-routed</k100:provenance>
      <k100:not_a_recorded_track>true</k100:not_a_recorded_track>
      <k100:mountain_id>dobongsan</k100:mountain_id>
      <k100:mountain_name>도봉산</k100:mountain_name>
      <k100:route_id>dobongsan-0cad9277</k100:route_id>
      <k100:route_index>1</k100:route_index>
      <k100:route_name>도봉탐방지원센터-신선대 코스</k100:route_name>
      <k100:variant>2</k100:variant>
      <k100:source>OpenStreetMap via Overpass API</k100:source>
      <k100:license>ODbL-1.0</k100:license>
      <k100:attribution>© OpenStreetMap contributors</k100:attribution>
      <k100:elevation_source>SRTM 1 arc-second (NASA/USGS) — AWS Terrain Tiles 배포본. 지형 DEM 추정 고도이며 실측 아님</k100:elevation_source>
      <k100:algorithm>dijkstra-grid-v1</k100:algorithm>
      <k100:osm_snapshot>2026-08-04</k100:osm_snapshot>
      <k100:snap_trailhead_m>4</k100:snap_trailhead_m>
      <k100:snap_summit_m>18</k100:snap_summit_m>
      <k100:validation_score>100</k100:validation_score>
      <k100:validation_status>accepted</k100:validation_status>
    </extensions>
  </metadata>
  <trk>
    <name>도봉산 · 도봉탐방지원센터-신선대 코스 (대안 2) (OSM 계산 경로)</name>
    <desc>실제 GPS 기록이 아닙니다. OpenStreetMap에 등록된 등산로 선형 위에서 계산한 경로이며, 현장 통제·훼손·출입 제한·계절 통제를 반영하지 않을 수 있습니다. 산행 전 공식 안내를 확인하세요.</desc>
    <trkseg>
      <trkpt lat="37.686197" lon="127.036121"><ele>71.1</ele></trkpt>
      <trkpt lat="37.686338" lon="127.035807"><ele>71.1</ele></trkpt>
      <trkpt lat="37.686178" lon="127.035505"><ele>70.8</ele></trkpt>
      <trkpt lat="37.686140" lon="127.035315"><ele>70.9</ele></trkpt>
      <trkpt lat="37.686127" lon="127.034784"><ele>75.9</ele></trkpt>
      <trkpt lat="37.686036" lon="127.034081"><ele>84.7</ele></trkpt>
      <trkpt lat="37.685703" lon="127.033216"><ele>95.5</ele></trkpt>
      <trkpt lat="37.685375" lon="127.032858"><ele>99.6</ele></trkpt>
      <trkpt lat="37.685215" lon="127.032453"><ele>105.0</ele></trkpt>
      <trkpt lat="37.685087" lon="127.031021"><ele>122.5</ele></trkpt>
      <trkpt lat="37.685167" lon="127.030312"><ele>127.9</ele></trkpt>
      <trkpt lat="37.685110" lon="127.030141"><ele>129.6</ele></trkpt>
      <trkpt lat="37.684916" lon="127.029950"><ele>132.0</ele></trkpt>
      <trkpt lat="37.684888" lon="127.029823"><ele>134.4</ele></trkpt>
      <trkpt lat="37.684983" lon="127.029590"><ele>138.1</ele></trkpt>
      <trkpt lat="37.685116" lon="127.029445"><ele>141.2</ele></trkpt>
      <trkpt lat="37.685175" lon="127.029301"><ele>142.8</ele></trkpt>
      <trkpt lat="37.685308" lon="127.029203"><ele>143.2</ele></trkpt>
      <trkpt lat="37.685592" lon="127.029196"><ele>145.5</ele></trkpt>
      <trkpt lat="37.685756" lon="127.029086"><ele>148.5</ele></trkpt>
      <trkpt lat="37.686293" lon="127.029009"><ele>150.1</ele></trkpt>
      <trkpt lat="37.686539" lon="127.028912"><ele>147.3</ele></trkpt>
      <trkpt lat="37.686794" lon="127.028947"><ele>142.3</ele></trkpt>
      <trkpt lat="37.686949" lon="127.028826"><ele>143.5</ele></trkpt>
      <trkpt lat="37.687081" lon="127.028906"><ele>140.1</ele></trkpt>
      <trkpt lat="37.687235" lon="127.028887"><ele>138.8</ele></trkpt>
      <trkpt lat="37.687521" lon="127.028708"><ele>135.8</ele></trkpt>
      <trkpt lat="37.687655" lon="127.028302"><ele>139.6</ele></trkpt>
      <trkpt lat="37.687661" lon="127.028128"><ele>141.6</ele></trkpt>
      <trkpt lat="37.687842" lon="127.027956"><ele>140.4</ele></trkpt>
      <trkpt lat="37.687852" lon="127.027717"><ele>141.6</ele></trkpt>
      <trkpt lat="37.687970" lon="127.027525"><ele>140.3</ele></trkpt>
      <trkpt lat="37.687938" lon="127.027275"><ele>142.0</ele></trkpt>
      <trkpt lat="37.687637" lon="127.026893"><ele>148.9</ele></trkpt>
      <trkpt lat="37.687592" lon="127.026741"><ele>150.6</ele></trkpt>
      <trkpt lat="37.687457" lon="127.026615"><ele>153.1</ele></trkpt>
      <trkpt lat="37.687921" lon="127.025664"><ele>168.7</ele></trkpt>
      <trkpt lat="37.688104" lon="127.025422"><ele>178.4</ele></trkpt>
      <trkpt lat="37.688148" lon="127.025007"><ele>188.2</ele></trkpt>
      <trkpt lat="37.688040" lon="127.024822"><ele>189.2</ele></trkpt>
      <trkpt lat="37.688061" lon="127.024511"><ele>193.4</ele></trkpt>
      <trkpt lat="37.688414" lon="127.024076"><ele>199.7</ele></trkpt>
      <trkpt lat="37.688545" lon="127.023786"><ele>202.3</ele></trkpt>
      <trkpt lat="37.688552" lon="127.023595"><ele>203.2</ele></trkpt>
      <trkpt lat="37.688795" lon="127.023368"><ele>208.0</ele></trkpt>
      <trkpt lat="37.688970" lon="127.023057"><ele>209.8</ele></trkpt>
      <trkpt lat="37.689063" lon="127.022809"><ele>214.4</ele></trkpt>
      <trkpt lat="37.689091" lon="127.022550"><ele>220.5</ele></trkpt>
      <trkpt lat="37.688931" lon="127.022005"><ele>223.9</ele></trkpt>
      <trkpt lat="37.688924" lon="127.021629"><ele>226.7</ele></trkpt>
      <trkpt lat="37.688973" lon="127.021400"><ele>230.9</ele></trkpt>
      <trkpt lat="37.688768" lon="127.020822"><ele>247.8</ele></trkpt>
      <trkpt lat="37.688780" lon="127.020439"><ele>250.9</ele></trkpt>
      <trkpt lat="37.688848" lon="127.020287"><ele>250.1</ele></trkpt>
      <trkpt lat="37.688833" lon="127.019961"><ele>250.3</ele></trkpt>
      <trkpt lat="37.688754" lon="127.019794"><ele>251.4</ele></trkpt>
      <trkpt lat="37.688923" lon="127.019261"><ele>261.7</ele></trkpt>
      <trkpt lat="37.688834" lon="127.019202"><ele>260.9</ele></trkpt>
      <trkpt lat="37.688766" lon="127.019060"><ele>262.6</ele></trkpt>
      <trkpt lat="37.688794" lon="127.018594"><ele>275.0</ele></trkpt>
      <trkpt lat="37.688886" lon="127.018329"><ele>280.0</ele></trkpt>
      <trkpt lat="37.688796" lon="127.018198"><ele>281.0</ele></trkpt>
      <trkpt lat="37.688755" lon="127.017757"><ele>283.7</ele></trkpt>
      <trkpt lat="37.689093" lon="127.017671"><ele>284.7</ele></trkpt>
      <trkpt lat="37.689831" lon="127.017199"><ele>309.8</ele></trkpt>
      <trkpt lat="37.690540" lon="127.016904"><ele>336.3</ele></trkpt>
      <trkpt lat="37.690668" lon="127.016764"><ele>341.6</ele></trkpt>
      <trkpt lat="37.691007" lon="127.016727"><ele>344.1</ele></trkpt>
      <trkpt lat="37.691198" lon="127.016813"><ele>344.6</ele></trkpt>
      <trkpt lat="37.691721" lon="127.016319"><ele>361.3</ele></trkpt>
      <trkpt lat="37.692103" lon="127.016190"><ele>371.2</ele></trkpt>
      <trkpt lat="37.692306" lon="127.016287"><ele>372.6</ele></trkpt>
      <trkpt lat="37.692468" lon="127.016560"><ele>371.0</ele></trkpt>
      <trkpt lat="37.692637" lon="127.016716"><ele>375.0</ele></trkpt>
      <trkpt lat="37.692773" lon="127.016748"><ele>379.8</ele></trkpt>
      <trkpt lat="37.693261" lon="127.016190"><ele>395.1</ele></trkpt>
      <trkpt lat="37.693295" lon="127.015992"><ele>399.4</ele></trkpt>
      <trkpt lat="37.693444" lon="127.015783"><ele>409.6</ele></trkpt>
      <trkpt lat="37.693665" lon="127.015616"><ele>418.8</ele></trkpt>
      <trkpt lat="37.693958" lon="127.015037"><ele>434.6</ele></trkpt>
      <trkpt lat="37.694306" lon="127.014876"><ele>443.7</ele></trkpt>
      <trkpt lat="37.694666" lon="127.014597"><ele>460.7</ele></trkpt>
      <trkpt lat="37.694870" lon="127.014329"><ele>473.3</ele></trkpt>
      <trkpt lat="37.695036" lon="127.014211"><ele>479.9</ele></trkpt>
      <trkpt lat="37.695475" lon="127.013983"><ele>497.1</ele></trkpt>
      <trkpt lat="37.695668" lon="127.014007"><ele>504.8</ele></trkpt>
      <trkpt lat="37.695860" lon="127.013963"><ele>514.7</ele></trkpt>
      <trkpt lat="37.696137" lon="127.013605"><ele>537.5</ele></trkpt>
      <trkpt lat="37.696180" lon="127.013476"><ele>543.7</ele></trkpt>
      <trkpt lat="37.696352" lon="127.013299"><ele>557.1</ele></trkpt>
      <trkpt lat="37.696445" lon="127.013275"><ele>561.6</ele></trkpt>
      <trkpt lat="37.696742" lon="127.012916"><ele>577.9</ele></trkpt>
      <trkpt lat="37.696900" lon="127.012921"><ele>583.0</ele></trkpt>
      <trkpt lat="37.696952" lon="127.012771"><ele>585.5</ele></trkpt>
      <trkpt lat="37.697122" lon="127.012585"><ele>594.5</ele></trkpt>
      <trkpt lat="37.697233" lon="127.012629"><ele>599.0</ele></trkpt>
      <trkpt lat="37.697658" lon="127.012474"><ele>621.2</ele></trkpt>
      <trkpt lat="37.697732" lon="127.012588"><ele>624.0</ele></trkpt>
      <trkpt lat="37.698036" lon="127.012638"><ele>640.4</ele></trkpt>
      <trkpt lat="37.698128" lon="127.012717"><ele>643.9</ele></trkpt>
      <trkpt lat="37.698289" lon="127.012749"><ele>650.0</ele></trkpt>
      <trkpt lat="37.698193" lon="127.013135"><ele>654.9</ele></trkpt>
      <trkpt lat="37.698325" lon="127.013375"><ele>668.0</ele></trkpt>
      <trkpt lat="37.698319" lon="127.013477"><ele>671.1</ele></trkpt>
      <trkpt lat="37.698769" lon="127.014045"><ele>677.5</ele></trkpt>
      <trkpt lat="37.698766" lon="127.014252"><ele>684.5</ele></trkpt>
      <trkpt lat="37.698860" lon="127.014400"><ele>687.2</ele></trkpt>
      <trkpt lat="37.698816" lon="127.014495"><ele>692.2</ele></trkpt>
      <trkpt lat="37.698876" lon="127.014667"><ele>696.3</ele></trkpt>
      <trkpt lat="37.698958" lon="127.014748"><ele>697.2</ele></trkpt>
      <trkpt lat="37.698942" lon="127.014792"><ele>698.8</ele></trkpt>
      <trkpt lat="37.699029" lon="127.014824"><ele>698.1</ele></trkpt>
      <trkpt lat="37.699124" lon="127.014960"><ele>701.1</ele></trkpt>
      <trkpt lat="37.698965" lon="127.015238"><ele>705.3</ele></trkpt>
      <trkpt lat="37.698616" lon="127.015391"><ele>711.6</ele></trkpt>
    </trkseg>
  </trk>
</gpx>
