<?xml version="1.0" encoding="UTF-8"?>
<gpx version="1.1" creator="kr-100-mountains route-harvester"
     xmlns="http://www.topografix.com/GPX/1/1"
     xmlns:k100="https://github.com/jay-jang/kr-100-mountains/ns/1"
     xmlns:xsi="http://www.w3.org/2001/XMLSchema-instance"
     xsi:schemaLocation="http://www.topografix.com/GPX/1/1 http://www.topografix.com/GPX/1/1/gpx.xsd">
  <metadata>
    <name>도봉산 · 도봉탐방지원센터-신선대 코스 (OSM 계산 경로)</name>
    <desc>실제 GPS 기록이 아닙니다. OpenStreetMap에 등록된 등산로 선형 위에서 계산한 경로이며, 현장 통제·훼손·출입 제한·계절 통제를 반영하지 않을 수 있습니다. 산행 전 공식 안내를 확인하세요.</desc>
    <time>2026-08-04T05:14:28.379Z</time>
    <link href="https://www.openstreetmap.org/copyright"><text>© OpenStreetMap contributors (ODbL 1.0)</text></link>
    <link href="https://registry.opendata.aws/terrain-tiles/"><text>Elevation: SRTM 1 arc-second (NASA/USGS) via AWS Terrain Tiles</text></link>
    <extensions>
      <k100:provenance>osm-routed</k100:provenance>
      <k100:not_a_recorded_track>true</k100:not_a_recorded_track>
      <k100:mountain_id>dobongsan</k100:mountain_id>
      <k100:mountain_name>도봉산</k100:mountain_name>
      <k100:route_id>dobongsan-0cad9277</k100:route_id>
      <k100:route_index>1</k100:route_index>
      <k100:route_name>도봉탐방지원센터-신선대 코스</k100:route_name>
      <k100:variant>0</k100:variant>
      <k100:source>OpenStreetMap via Overpass API</k100:source>
      <k100:license>ODbL-1.0</k100:license>
      <k100:attribution>© OpenStreetMap contributors</k100:attribution>
      <k100:elevation_source>SRTM 1 arc-second (NASA/USGS) — AWS Terrain Tiles 배포본. 지형 DEM 추정 고도이며 실측 아님</k100:elevation_source>
      <k100:algorithm>dijkstra-grid-v1</k100:algorithm>
      <k100:osm_snapshot>2026-08-04</k100:osm_snapshot>
      <k100:snap_trailhead_m>4</k100:snap_trailhead_m>
      <k100:snap_summit_m>18</k100:snap_summit_m>
      <k100:validation_score>93</k100:validation_score>
      <k100:validation_status>accepted</k100:validation_status>
    </extensions>
  </metadata>
  <trk>
    <name>도봉산 · 도봉탐방지원센터-신선대 코스 (OSM 계산 경로)</name>
    <desc>실제 GPS 기록이 아닙니다. OpenStreetMap에 등록된 등산로 선형 위에서 계산한 경로이며, 현장 통제·훼손·출입 제한·계절 통제를 반영하지 않을 수 있습니다. 산행 전 공식 안내를 확인하세요.</desc>
    <trkseg>
      <trkpt lat="37.686197" lon="127.036121"><ele>71.1</ele></trkpt>
      <trkpt lat="37.686338" lon="127.035807"><ele>71.1</ele></trkpt>
      <trkpt lat="37.686572" lon="127.035537"><ele>71.3</ele></trkpt>
      <trkpt lat="37.686767" lon="127.035404"><ele>73.4</ele></trkpt>
      <trkpt lat="37.687340" lon="127.035263"><ele>80.6</ele></trkpt>
      <trkpt lat="37.687616" lon="127.035095"><ele>82.5</ele></trkpt>
      <trkpt lat="37.687887" lon="127.035098"><ele>84.6</ele></trkpt>
      <trkpt lat="37.687911" lon="127.034952"><ele>83.7</ele></trkpt>
      <trkpt lat="37.687783" lon="127.034068"><ele>87.0</ele></trkpt>
      <trkpt lat="37.687838" lon="127.033840"><ele>92.5</ele></trkpt>
      <trkpt lat="37.687931" lon="127.032849"><ele>97.7</ele></trkpt>
      <trkpt lat="37.688113" lon="127.032595"><ele>98.2</ele></trkpt>
      <trkpt lat="37.688086" lon="127.032262"><ele>99.3</ele></trkpt>
      <trkpt lat="37.688181" lon="127.031922"><ele>101.2</ele></trkpt>
      <trkpt lat="37.688179" lon="127.031778"><ele>102.2</ele></trkpt>
      <trkpt lat="37.687565" lon="127.029545"><ele>121.8</ele></trkpt>
      <trkpt lat="37.687842" lon="127.028828"><ele>129.1</ele></trkpt>
      <trkpt lat="37.687917" lon="127.028194"><ele>138.0</ele></trkpt>
      <trkpt lat="37.688289" lon="127.027749"><ele>139.9</ele></trkpt>
      <trkpt lat="37.688498" lon="127.027696"><ele>142.7</ele></trkpt>
      <trkpt lat="37.688757" lon="127.027226"><ele>148.2</ele></trkpt>
      <trkpt lat="37.688588" lon="127.027032"><ele>146.1</ele></trkpt>
      <trkpt lat="37.688541" lon="127.026823"><ele>149.7</ele></trkpt>
      <trkpt lat="37.688511" lon="127.026468"><ele>158.2</ele></trkpt>
      <trkpt lat="37.688545" lon="127.026072"><ele>165.0</ele></trkpt>
      <trkpt lat="37.688647" lon="127.025621"><ele>172.2</ele></trkpt>
      <trkpt lat="37.688643" lon="127.025353"><ele>179.2</ele></trkpt>
      <trkpt lat="37.688560" lon="127.025266"><ele>182.8</ele></trkpt>
      <trkpt lat="37.688426" lon="127.024478"><ele>198.0</ele></trkpt>
      <trkpt lat="37.689225" lon="127.023529"><ele>217.0</ele></trkpt>
      <trkpt lat="37.689573" lon="127.023314"><ele>223.6</ele></trkpt>
      <trkpt lat="37.690065" lon="127.023218"><ele>235.2</ele></trkpt>
      <trkpt lat="37.690171" lon="127.023153"><ele>237.9</ele></trkpt>
      <trkpt lat="37.690303" lon="127.022703"><ele>255.5</ele></trkpt>
      <trkpt lat="37.690574" lon="127.022273"><ele>270.9</ele></trkpt>
      <trkpt lat="37.690585" lon="127.021995"><ele>276.6</ele></trkpt>
      <trkpt lat="37.690859" lon="127.021592"><ele>289.6</ele></trkpt>
      <trkpt lat="37.690859" lon="127.021313"><ele>298.8</ele></trkpt>
      <trkpt lat="37.690774" lon="127.020852"><ele>308.8</ele></trkpt>
      <trkpt lat="37.690808" lon="127.020766"><ele>310.9</ele></trkpt>
      <trkpt lat="37.690929" lon="127.020678"><ele>314.8</ele></trkpt>
      <trkpt lat="37.690969" lon="127.020525"><ele>318.4</ele></trkpt>
      <trkpt lat="37.691237" lon="127.020224"><ele>333.4</ele></trkpt>
      <trkpt lat="37.691315" lon="127.020018"><ele>339.8</ele></trkpt>
      <trkpt lat="37.692080" lon="127.019723"><ele>357.4</ele></trkpt>
      <trkpt lat="37.692342" lon="127.019742"><ele>364.0</ele></trkpt>
      <trkpt lat="37.692584" lon="127.019571"><ele>370.1</ele></trkpt>
      <trkpt lat="37.692799" lon="127.019129"><ele>386.2</ele></trkpt>
      <trkpt lat="37.693054" lon="127.018802"><ele>395.6</ele></trkpt>
      <trkpt lat="37.693087" lon="127.018247"><ele>404.7</ele></trkpt>
      <trkpt lat="37.693147" lon="127.018103"><ele>407.7</ele></trkpt>
      <trkpt lat="37.693463" lon="127.017941"><ele>415.2</ele></trkpt>
      <trkpt lat="37.693760" lon="127.017861"><ele>423.4</ele></trkpt>
      <trkpt lat="37.693857" lon="127.017699"><ele>429.6</ele></trkpt>
      <trkpt lat="37.693909" lon="127.017285"><ele>436.6</ele></trkpt>
      <trkpt lat="37.694271" lon="127.016987"><ele>448.7</ele></trkpt>
      <trkpt lat="37.694697" lon="127.017162"><ele>465.6</ele></trkpt>
      <trkpt lat="37.694912" lon="127.017102"><ele>472.2</ele></trkpt>
      <trkpt lat="37.695141" lon="127.017143"><ele>478.0</ele></trkpt>
      <trkpt lat="37.695190" lon="127.017212"><ele>478.8</ele></trkpt>
      <trkpt lat="37.695307" lon="127.017173"><ele>481.9</ele></trkpt>
      <trkpt lat="37.695541" lon="127.016932"><ele>492.5</ele></trkpt>
      <trkpt lat="37.695812" lon="127.016856"><ele>508.7</ele></trkpt>
      <trkpt lat="37.695780" lon="127.016761"><ele>507.8</ele></trkpt>
      <trkpt lat="37.695851" lon="127.016752"><ele>512.3</ele></trkpt>
      <trkpt lat="37.695833" lon="127.016670"><ele>512.0</ele></trkpt>
      <trkpt lat="37.696052" lon="127.016628"><ele>526.9</ele></trkpt>
      <trkpt lat="37.696207" lon="127.016490"><ele>533.8</ele></trkpt>
      <trkpt lat="37.696532" lon="127.016421"><ele>563.3</ele></trkpt>
      <trkpt lat="37.696754" lon="127.016264"><ele>580.2</ele></trkpt>
      <trkpt lat="37.697043" lon="127.016407"><ele>610.9</ele></trkpt>
      <trkpt lat="37.697094" lon="127.016359"><ele>610.3</ele></trkpt>
      <trkpt lat="37.697142" lon="127.016167"><ele>603.3</ele></trkpt>
      <trkpt lat="37.697256" lon="127.016201"><ele>612.6</ele></trkpt>
      <trkpt lat="37.697402" lon="127.016092"><ele>621.7</ele></trkpt>
      <trkpt lat="37.697433" lon="127.016009"><ele>623.3</ele></trkpt>
      <trkpt lat="37.697635" lon="127.016156"><ele>640.2</ele></trkpt>
      <trkpt lat="37.697687" lon="127.016143"><ele>644.3</ele></trkpt>
      <trkpt lat="37.697883" lon="127.015854"><ele>652.1</ele></trkpt>
      <trkpt lat="37.698380" lon="127.015568"><ele>695.4</ele></trkpt>
      <trkpt lat="37.698504" lon="127.015394"><ele>706.6</ele></trkpt>
      <trkpt lat="37.698616" lon="127.015391"><ele>711.6</ele></trkpt>
    </trkseg>
  </trk>
</gpx>
