<?xml version="1.0" encoding="UTF-8"?>
<gpx version="1.1" creator="kr-100-mountains route-harvester"
     xmlns="http://www.topografix.com/GPX/1/1"
     xmlns:k100="https://github.com/jay-jang/kr-100-mountains/ns/1"
     xmlns:xsi="http://www.w3.org/2001/XMLSchema-instance"
     xsi:schemaLocation="http://www.topografix.com/GPX/1/1 http://www.topografix.com/GPX/1/1/gpx.xsd">
  <metadata>
    <name>도봉산 · 송추분소-여성봉-오봉 (대안 1) (OSM 계산 경로)</name>
    <desc>실제 GPS 기록이 아닙니다. OpenStreetMap에 등록된 등산로 선형 위에서 계산한 경로이며, 현장 통제·훼손·출입 제한·계절 통제를 반영하지 않을 수 있습니다. 산행 전 공식 안내를 확인하세요.</desc>
    <time>2026-08-04T05:14:28.567Z</time>
    <link href="https://www.openstreetmap.org/copyright"><text>© OpenStreetMap contributors (ODbL 1.0)</text></link>
    <link href="https://registry.opendata.aws/terrain-tiles/"><text>Elevation: SRTM 1 arc-second (NASA/USGS) via AWS Terrain Tiles</text></link>
    <extensions>
      <k100:provenance>osm-routed</k100:provenance>
      <k100:not_a_recorded_track>true</k100:not_a_recorded_track>
      <k100:mountain_id>dobongsan</k100:mountain_id>
      <k100:mountain_name>도봉산</k100:mountain_name>
      <k100:route_id>dobongsan-6009d4ed</k100:route_id>
      <k100:route_index>3</k100:route_index>
      <k100:route_name>송추분소-여성봉-오봉</k100:route_name>
      <k100:variant>1</k100:variant>
      <k100:source>OpenStreetMap via Overpass API</k100:source>
      <k100:license>ODbL-1.0</k100:license>
      <k100:attribution>© OpenStreetMap contributors</k100:attribution>
      <k100:elevation_source>SRTM 1 arc-second (NASA/USGS) — AWS Terrain Tiles 배포본. 지형 DEM 추정 고도이며 실측 아님</k100:elevation_source>
      <k100:algorithm>dijkstra-grid-v1</k100:algorithm>
      <k100:osm_snapshot>2026-08-04</k100:osm_snapshot>
      <k100:snap_trailhead_m>30</k100:snap_trailhead_m>
      <k100:snap_summit_m>18</k100:snap_summit_m>
      <k100:validation_score>75</k100:validation_score>
      <k100:validation_status>review</k100:validation_status>
    </extensions>
  </metadata>
  <trk>
    <name>도봉산 · 송추분소-여성봉-오봉 (대안 1) (OSM 계산 경로)</name>
    <desc>실제 GPS 기록이 아닙니다. OpenStreetMap에 등록된 등산로 선형 위에서 계산한 경로이며, 현장 통제·훼손·출입 제한·계절 통제를 반영하지 않을 수 있습니다. 산행 전 공식 안내를 확인하세요.</desc>
    <trkseg>
      <trkpt lat="37.711479" lon="126.989101"><ele>166.8</ele></trkpt>
      <trkpt lat="37.711505" lon="126.988584"><ele>165.4</ele></trkpt>
      <trkpt lat="37.711465" lon="126.988374"><ele>164.2</ele></trkpt>
      <trkpt lat="37.711320" lon="126.987920"><ele>162.1</ele></trkpt>
      <trkpt lat="37.710844" lon="126.986982"><ele>153.2</ele></trkpt>
      <trkpt lat="37.710831" lon="126.986736"><ele>152.2</ele></trkpt>
      <trkpt lat="37.710911" lon="126.986637"><ele>152.0</ele></trkpt>
      <trkpt lat="37.711294" lon="126.986511"><ele>151.7</ele></trkpt>
      <trkpt lat="37.711528" lon="126.986301"><ele>149.9</ele></trkpt>
      <trkpt lat="37.712147" lon="126.985334"><ele>143.3</ele></trkpt>
      <trkpt lat="37.712216" lon="126.985158"><ele>141.6</ele></trkpt>
      <trkpt lat="37.712272" lon="126.984647"><ele>140.5</ele></trkpt>
      <trkpt lat="37.712378" lon="126.984381"><ele>140.6</ele></trkpt>
      <trkpt lat="37.713969" lon="126.982737"><ele>132.5</ele></trkpt>
      <trkpt lat="37.713926" lon="126.983073"><ele>133.7</ele></trkpt>
      <trkpt lat="37.714113" lon="126.983286"><ele>139.6</ele></trkpt>
      <trkpt lat="37.714139" lon="126.983379"><ele>141.7</ele></trkpt>
      <trkpt lat="37.714204" lon="126.983412"><ele>143.2</ele></trkpt>
      <trkpt lat="37.714264" lon="126.983339"><ele>142.5</ele></trkpt>
      <trkpt lat="37.714372" lon="126.983395"><ele>145.3</ele></trkpt>
      <trkpt lat="37.714426" lon="126.983345"><ele>145.0</ele></trkpt>
      <trkpt lat="37.714672" lon="126.983689"><ele>156.0</ele></trkpt>
      <trkpt lat="37.714689" lon="126.983913"><ele>161.4</ele></trkpt>
      <trkpt lat="37.714787" lon="126.984123"><ele>166.7</ele></trkpt>
      <trkpt lat="37.714879" lon="126.984626"><ele>176.1</ele></trkpt>
      <trkpt lat="37.714884" lon="126.984723"><ele>178.0</ele></trkpt>
      <trkpt lat="37.714722" lon="126.984878"><ele>180.8</ele></trkpt>
      <trkpt lat="37.714734" lon="126.984934"><ele>181.9</ele></trkpt>
      <trkpt lat="37.714881" lon="126.985056"><ele>185.3</ele></trkpt>
      <trkpt lat="37.714951" lon="126.985370"><ele>193.1</ele></trkpt>
      <trkpt lat="37.715464" lon="126.985983"><ele>209.3</ele></trkpt>
      <trkpt lat="37.715484" lon="126.986221"><ele>215.6</ele></trkpt>
      <trkpt lat="37.715536" lon="126.986312"><ele>218.2</ele></trkpt>
      <trkpt lat="37.715454" lon="126.986431"><ele>220.7</ele></trkpt>
      <trkpt lat="37.715453" lon="126.987001"><ele>233.6</ele></trkpt>
      <trkpt lat="37.715395" lon="126.987133"><ele>237.5</ele></trkpt>
      <trkpt lat="37.715080" lon="126.987410"><ele>250.6</ele></trkpt>
      <trkpt lat="37.714903" lon="126.987684"><ele>263.9</ele></trkpt>
      <trkpt lat="37.714898" lon="126.987758"><ele>267.7</ele></trkpt>
      <trkpt lat="37.714718" lon="126.987973"><ele>279.8</ele></trkpt>
      <trkpt lat="37.714735" lon="126.988108"><ele>285.2</ele></trkpt>
      <trkpt lat="37.714693" lon="126.988226"><ele>288.9</ele></trkpt>
      <trkpt lat="37.714747" lon="126.988348"><ele>291.6</ele></trkpt>
      <trkpt lat="37.714599" lon="126.988720"><ele>297.1</ele></trkpt>
      <trkpt lat="37.714566" lon="126.988927"><ele>298.7</ele></trkpt>
      <trkpt lat="37.714626" lon="126.989238"><ele>300.6</ele></trkpt>
      <trkpt lat="37.714736" lon="126.989449"><ele>302.6</ele></trkpt>
      <trkpt lat="37.714740" lon="126.989560"><ele>302.8</ele></trkpt>
      <trkpt lat="37.714680" lon="126.989615"><ele>303.2</ele></trkpt>
      <trkpt lat="37.714635" lon="126.989875"><ele>301.1</ele></trkpt>
      <trkpt lat="37.714711" lon="126.990063"><ele>299.4</ele></trkpt>
      <trkpt lat="37.714687" lon="126.990322"><ele>293.5</ele></trkpt>
      <trkpt lat="37.714773" lon="126.990733"><ele>288.1</ele></trkpt>
      <trkpt lat="37.714655" lon="126.991088"><ele>287.0</ele></trkpt>
      <trkpt lat="37.714573" lon="126.991181"><ele>285.6</ele></trkpt>
      <trkpt lat="37.714498" lon="126.991544"><ele>282.6</ele></trkpt>
      <trkpt lat="37.714350" lon="126.991836"><ele>280.5</ele></trkpt>
      <trkpt lat="37.714344" lon="126.991962"><ele>280.6</ele></trkpt>
      <trkpt lat="37.714495" lon="126.992215"><ele>281.5</ele></trkpt>
      <trkpt lat="37.714469" lon="126.992567"><ele>281.4</ele></trkpt>
      <trkpt lat="37.714506" lon="126.993229"><ele>288.7</ele></trkpt>
      <trkpt lat="37.714598" lon="126.993420"><ele>290.2</ele></trkpt>
      <trkpt lat="37.714621" lon="126.993688"><ele>290.3</ele></trkpt>
      <trkpt lat="37.714901" lon="126.994018"><ele>289.3</ele></trkpt>
      <trkpt lat="37.714977" lon="126.994299"><ele>291.9</ele></trkpt>
      <trkpt lat="37.715175" lon="126.994666"><ele>295.1</ele></trkpt>
      <trkpt lat="37.715237" lon="126.995268"><ele>309.9</ele></trkpt>
      <trkpt lat="37.714930" lon="126.995688"><ele>319.7</ele></trkpt>
      <trkpt lat="37.714913" lon="126.995863"><ele>323.3</ele></trkpt>
      <trkpt lat="37.714965" lon="126.996115"><ele>325.4</ele></trkpt>
      <trkpt lat="37.714754" lon="126.996165"><ele>327.8</ele></trkpt>
      <trkpt lat="37.714652" lon="126.996246"><ele>327.1</ele></trkpt>
      <trkpt lat="37.714538" lon="126.996602"><ele>327.8</ele></trkpt>
      <trkpt lat="37.714527" lon="126.996822"><ele>329.0</ele></trkpt>
      <trkpt lat="37.714618" lon="126.997044"><ele>331.2</ele></trkpt>
      <trkpt lat="37.714559" lon="126.998402"><ele>348.0</ele></trkpt>
      <trkpt lat="37.714319" lon="126.998702"><ele>350.5</ele></trkpt>
      <trkpt lat="37.714263" lon="126.998694"><ele>350.9</ele></trkpt>
      <trkpt lat="37.713792" lon="126.999034"><ele>360.4</ele></trkpt>
      <trkpt lat="37.713725" lon="126.999180"><ele>362.2</ele></trkpt>
      <trkpt lat="37.713724" lon="126.999847"><ele>375.9</ele></trkpt>
      <trkpt lat="37.713772" lon="127.000229"><ele>378.2</ele></trkpt>
      <trkpt lat="37.713693" lon="127.000301"><ele>374.8</ele></trkpt>
      <trkpt lat="37.713655" lon="127.001130"><ele>385.5</ele></trkpt>
      <trkpt lat="37.713716" lon="127.001365"><ele>388.2</ele></trkpt>
      <trkpt lat="37.713797" lon="127.001409"><ele>391.5</ele></trkpt>
      <trkpt lat="37.713812" lon="127.001489"><ele>393.8</ele></trkpt>
      <trkpt lat="37.714042" lon="127.001741"><ele>401.6</ele></trkpt>
      <trkpt lat="37.714023" lon="127.001935"><ele>405.7</ele></trkpt>
      <trkpt lat="37.714090" lon="127.002310"><ele>418.3</ele></trkpt>
      <trkpt lat="37.714067" lon="127.002516"><ele>422.6</ele></trkpt>
      <trkpt lat="37.714162" lon="127.002573"><ele>427.1</ele></trkpt>
      <trkpt lat="37.714369" lon="127.003137"><ele>435.6</ele></trkpt>
      <trkpt lat="37.714349" lon="127.004047"><ele>448.5</ele></trkpt>
      <trkpt lat="37.714202" lon="127.004373"><ele>454.9</ele></trkpt>
      <trkpt lat="37.714205" lon="127.004848"><ele>451.8</ele></trkpt>
      <trkpt lat="37.714639" lon="127.005585"><ele>451.4</ele></trkpt>
      <trkpt lat="37.714932" lon="127.005923"><ele>453.8</ele></trkpt>
      <trkpt lat="37.715214" lon="127.006548"><ele>464.4</ele></trkpt>
      <trkpt lat="37.714994" lon="127.007362"><ele>474.4</ele></trkpt>
      <trkpt lat="37.715157" lon="127.007838"><ele>485.0</ele></trkpt>
      <trkpt lat="37.715077" lon="127.008224"><ele>488.1</ele></trkpt>
      <trkpt lat="37.715138" lon="127.008433"><ele>488.3</ele></trkpt>
      <trkpt lat="37.715089" lon="127.008627"><ele>485.6</ele></trkpt>
      <trkpt lat="37.715394" lon="127.008948"><ele>486.4</ele></trkpt>
      <trkpt lat="37.715531" lon="127.009356"><ele>487.5</ele></trkpt>
      <trkpt lat="37.715739" lon="127.009361"><ele>485.7</ele></trkpt>
      <trkpt lat="37.715790" lon="127.009485"><ele>485.5</ele></trkpt>
      <trkpt lat="37.715792" lon="127.010991"><ele>476.5</ele></trkpt>
      <trkpt lat="37.715904" lon="127.011228"><ele>474.9</ele></trkpt>
      <trkpt lat="37.716245" lon="127.011491"><ele>476.5</ele></trkpt>
      <trkpt lat="37.716612" lon="127.012653"><ele>492.7</ele></trkpt>
      <trkpt lat="37.716878" lon="127.013130"><ele>489.4</ele></trkpt>
      <trkpt lat="37.716595" lon="127.012921"><ele>491.9</ele></trkpt>
      <trkpt lat="37.716378" lon="127.012842"><ele>491.8</ele></trkpt>
      <trkpt lat="37.716073" lon="127.012916"><ele>488.4</ele></trkpt>
      <trkpt lat="37.715855" lon="127.012725"><ele>486.0</ele></trkpt>
      <trkpt lat="37.715565" lon="127.013127"><ele>478.0</ele></trkpt>
      <trkpt lat="37.715453" lon="127.013132"><ele>474.5</ele></trkpt>
      <trkpt lat="37.715392" lon="127.013021"><ele>473.4</ele></trkpt>
      <trkpt lat="37.715271" lon="127.012989"><ele>469.4</ele></trkpt>
      <trkpt lat="37.715130" lon="127.013033"><ele>466.2</ele></trkpt>
      <trkpt lat="37.714969" lon="127.013189"><ele>461.1</ele></trkpt>
      <trkpt lat="37.714816" lon="127.013143"><ele>459.4</ele></trkpt>
      <trkpt lat="37.714548" lon="127.013165"><ele>452.3</ele></trkpt>
      <trkpt lat="37.714488" lon="127.013276"><ele>450.2</ele></trkpt>
      <trkpt lat="37.713965" lon="127.013592"><ele>446.2</ele></trkpt>
      <trkpt lat="37.713944" lon="127.013661"><ele>447.0</ele></trkpt>
      <trkpt lat="37.713817" lon="127.013742"><ele>451.1</ele></trkpt>
      <trkpt lat="37.713401" lon="127.014210"><ele>471.7</ele></trkpt>
      <trkpt lat="37.713211" lon="127.014331"><ele>476.3</ele></trkpt>
      <trkpt lat="37.712819" lon="127.014876"><ele>484.4</ele></trkpt>
      <trkpt lat="37.712555" lon="127.015015"><ele>486.8</ele></trkpt>
      <trkpt lat="37.712435" lon="127.015194"><ele>490.1</ele></trkpt>
      <trkpt lat="37.712202" lon="127.015358"><ele>494.7</ele></trkpt>
      <trkpt lat="37.711822" lon="127.016062"><ele>518.1</ele></trkpt>
      <trkpt lat="37.711643" lon="127.016132"><ele>526.3</ele></trkpt>
      <trkpt lat="37.711354" lon="127.016594"><ele>545.4</ele></trkpt>
      <trkpt lat="37.711184" lon="127.016723"><ele>550.1</ele></trkpt>
      <trkpt lat="37.710848" lon="127.016697"><ele>563.4</ele></trkpt>
      <trkpt lat="37.710523" lon="127.016943"><ele>576.3</ele></trkpt>
      <trkpt lat="37.710078" lon="127.017358"><ele>582.7</ele></trkpt>
      <trkpt lat="37.709581" lon="127.018036"><ele>580.8</ele></trkpt>
      <trkpt lat="37.709330" lon="127.018479"><ele>589.7</ele></trkpt>
      <trkpt lat="37.709133" lon="127.018593"><ele>597.9</ele></trkpt>
      <trkpt lat="37.708910" lon="127.018893"><ele>605.3</ele></trkpt>
      <trkpt lat="37.708576" lon="127.019126"><ele>619.8</ele></trkpt>
      <trkpt lat="37.708370" lon="127.019464"><ele>628.2</ele></trkpt>
      <trkpt lat="37.708194" lon="127.019532"><ele>629.1</ele></trkpt>
      <trkpt lat="37.707924" lon="127.019478"><ele>629.0</ele></trkpt>
      <trkpt lat="37.707732" lon="127.019314"><ele>624.2</ele></trkpt>
      <trkpt lat="37.707604" lon="127.019278"><ele>620.8</ele></trkpt>
      <trkpt lat="37.707363" lon="127.019331"><ele>618.4</ele></trkpt>
      <trkpt lat="37.707170" lon="127.019468"><ele>616.5</ele></trkpt>
      <trkpt lat="37.706990" lon="127.019248"><ele>613.9</ele></trkpt>
      <trkpt lat="37.706831" lon="127.019246"><ele>612.9</ele></trkpt>
      <trkpt lat="37.706559" lon="127.019109"><ele>611.6</ele></trkpt>
      <trkpt lat="37.706187" lon="127.018761"><ele>614.7</ele></trkpt>
      <trkpt lat="37.705931" lon="127.018765"><ele>621.0</ele></trkpt>
      <trkpt lat="37.705679" lon="127.018582"><ele>622.6</ele></trkpt>
      <trkpt lat="37.705430" lon="127.018211"><ele>624.7</ele></trkpt>
      <trkpt lat="37.705486" lon="127.018171"><ele>626.6</ele></trkpt>
      <trkpt lat="37.705392" lon="127.017993"><ele>627.6</ele></trkpt>
      <trkpt lat="37.705438" lon="127.017728"><ele>629.6</ele></trkpt>
      <trkpt lat="37.704633" lon="127.017127"><ele>624.5</ele></trkpt>
      <trkpt lat="37.704518" lon="127.016804"><ele>632.6</ele></trkpt>
      <trkpt lat="37.704359" lon="127.016560"><ele>635.7</ele></trkpt>
      <trkpt lat="37.704150" lon="127.016513"><ele>635.6</ele></trkpt>
      <trkpt lat="37.704004" lon="127.016299"><ele>633.2</ele></trkpt>
      <trkpt lat="37.703825" lon="127.016176"><ele>633.2</ele></trkpt>
      <trkpt lat="37.703650" lon="127.015907"><ele>639.4</ele></trkpt>
      <trkpt lat="37.703399" lon="127.015807"><ele>642.8</ele></trkpt>
      <trkpt lat="37.703341" lon="127.015659"><ele>643.6</ele></trkpt>
      <trkpt lat="37.703128" lon="127.015455"><ele>645.6</ele></trkpt>
      <trkpt lat="37.702630" lon="127.015564"><ele>651.0</ele></trkpt>
      <trkpt lat="37.702482" lon="127.015285"><ele>646.9</ele></trkpt>
      <trkpt lat="37.702083" lon="127.015233"><ele>643.8</ele></trkpt>
      <trkpt lat="37.701670" lon="127.014854"><ele>633.6</ele></trkpt>
      <trkpt lat="37.701473" lon="127.014835"><ele>637.1</ele></trkpt>
      <trkpt lat="37.701278" lon="127.014935"><ele>647.1</ele></trkpt>
      <trkpt lat="37.700821" lon="127.014872"><ele>661.2</ele></trkpt>
      <trkpt lat="37.700424" lon="127.015098"><ele>680.9</ele></trkpt>
      <trkpt lat="37.700355" lon="127.015006"><ele>681.1</ele></trkpt>
      <trkpt lat="37.700066" lon="127.014965"><ele>686.2</ele></trkpt>
      <trkpt lat="37.699867" lon="127.015079"><ele>691.0</ele></trkpt>
      <trkpt lat="37.699615" lon="127.014965"><ele>691.8</ele></trkpt>
      <trkpt lat="37.699232" lon="127.014967"><ele>699.7</ele></trkpt>
      <trkpt lat="37.699095" lon="127.015029"><ele>702.6</ele></trkpt>
      <trkpt lat="37.698965" lon="127.015238"><ele>705.3</ele></trkpt>
      <trkpt lat="37.698616" lon="127.015391"><ele>711.6</ele></trkpt>
    </trkseg>
  </trk>
</gpx>
