<?xml version="1.0" encoding="UTF-8"?>
<gpx version="1.1" creator="kr-100-mountains route-harvester"
     xmlns="http://www.topografix.com/GPX/1/1"
     xmlns:k100="https://github.com/jay-jang/kr-100-mountains/ns/1"
     xmlns:xsi="http://www.w3.org/2001/XMLSchema-instance"
     xsi:schemaLocation="http://www.topografix.com/GPX/1/1 http://www.topografix.com/GPX/1/1/gpx.xsd">
  <metadata>
    <name>도봉산 · 원도봉탐방지원센터-망월사-포대능선-신선대 (대안 2) (OSM 계산 경로)</name>
    <desc>실제 GPS 기록이 아닙니다. OpenStreetMap에 등록된 등산로 선형 위에서 계산한 경로이며, 현장 통제·훼손·출입 제한·계절 통제를 반영하지 않을 수 있습니다. 산행 전 공식 안내를 확인하세요.</desc>
    <time>2026-08-04T05:14:28.754Z</time>
    <link href="https://www.openstreetmap.org/copyright"><text>© OpenStreetMap contributors (ODbL 1.0)</text></link>
    <link href="https://registry.opendata.aws/terrain-tiles/"><text>Elevation: SRTM 1 arc-second (NASA/USGS) via AWS Terrain Tiles</text></link>
    <extensions>
      <k100:provenance>osm-routed</k100:provenance>
      <k100:not_a_recorded_track>true</k100:not_a_recorded_track>
      <k100:mountain_id>dobongsan</k100:mountain_id>
      <k100:mountain_name>도봉산</k100:mountain_name>
      <k100:route_id>dobongsan-e5f61366</k100:route_id>
      <k100:route_index>4</k100:route_index>
      <k100:route_name>원도봉탐방지원센터-망월사-포대능선-신선대</k100:route_name>
      <k100:variant>2</k100:variant>
      <k100:source>OpenStreetMap via Overpass API</k100:source>
      <k100:license>ODbL-1.0</k100:license>
      <k100:attribution>© OpenStreetMap contributors</k100:attribution>
      <k100:elevation_source>SRTM 1 arc-second (NASA/USGS) — AWS Terrain Tiles 배포본. 지형 DEM 추정 고도이며 실측 아님</k100:elevation_source>
      <k100:algorithm>dijkstra-grid-v1</k100:algorithm>
      <k100:osm_snapshot>2026-08-04</k100:osm_snapshot>
      <k100:snap_trailhead_m>1</k100:snap_trailhead_m>
      <k100:snap_summit_m>18</k100:snap_summit_m>
      <k100:validation_score>100</k100:validation_score>
      <k100:validation_status>accepted</k100:validation_status>
    </extensions>
  </metadata>
  <trk>
    <name>도봉산 · 원도봉탐방지원센터-망월사-포대능선-신선대 (대안 2) (OSM 계산 경로)</name>
    <desc>실제 GPS 기록이 아닙니다. OpenStreetMap에 등록된 등산로 선형 위에서 계산한 경로이며, 현장 통제·훼손·출입 제한·계절 통제를 반영하지 않을 수 있습니다. 산행 전 공식 안내를 확인하세요.</desc>
    <trkseg>
      <trkpt lat="37.710111" lon="127.044817"><ele>53.8</ele></trkpt>
      <trkpt lat="37.710188" lon="127.044859"><ele>53.4</ele></trkpt>
      <trkpt lat="37.710456" lon="127.044847"><ele>51.7</ele></trkpt>
      <trkpt lat="37.710467" lon="127.045100"><ele>50.3</ele></trkpt>
      <trkpt lat="37.710562" lon="127.045159"><ele>50.0</ele></trkpt>
      <trkpt lat="37.710501" lon="127.045730"><ele>49.5</ele></trkpt>
      <trkpt lat="37.710407" lon="127.045752"><ele>49.7</ele></trkpt>
      <trkpt lat="37.710464" lon="127.045893"><ele>49.3</ele></trkpt>
      <trkpt lat="37.710430" lon="127.046437"><ele>47.6</ele></trkpt>
      <trkpt lat="37.710568" lon="127.046637"><ele>46.1</ele></trkpt>
      <trkpt lat="37.710473" lon="127.046879"><ele>43.1</ele></trkpt>
      <trkpt lat="37.710489" lon="127.047111"><ele>42.2</ele></trkpt>
      <trkpt lat="37.710490" lon="127.047037"><ele>42.2</ele></trkpt>
      <trkpt lat="37.711098" lon="127.045782"><ele>40.9</ele></trkpt>
      <trkpt lat="37.711175" lon="127.045328"><ele>45.2</ele></trkpt>
      <trkpt lat="37.711410" lon="127.045237"><ele>43.9</ele></trkpt>
      <trkpt lat="37.711492" lon="127.045139"><ele>43.6</ele></trkpt>
      <trkpt lat="37.711492" lon="127.044972"><ele>43.5</ele></trkpt>
      <trkpt lat="37.711794" lon="127.044779"><ele>42.7</ele></trkpt>
      <trkpt lat="37.711822" lon="127.044687"><ele>42.5</ele></trkpt>
      <trkpt lat="37.711729" lon="127.044389"><ele>42.1</ele></trkpt>
      <trkpt lat="37.711868" lon="127.044330"><ele>42.6</ele></trkpt>
      <trkpt lat="37.711914" lon="127.044414"><ele>42.2</ele></trkpt>
      <trkpt lat="37.711983" lon="127.044398"><ele>42.6</ele></trkpt>
      <trkpt lat="37.712136" lon="127.044092"><ele>44.5</ele></trkpt>
      <trkpt lat="37.712359" lon="127.043884"><ele>45.0</ele></trkpt>
      <trkpt lat="37.712781" lon="127.043897"><ele>43.0</ele></trkpt>
      <trkpt lat="37.712753" lon="127.043319"><ele>45.0</ele></trkpt>
      <trkpt lat="37.712806" lon="127.042934"><ele>45.1</ele></trkpt>
      <trkpt lat="37.713179" lon="127.042049"><ele>48.6</ele></trkpt>
      <trkpt lat="37.713272" lon="127.041683"><ele>51.0</ele></trkpt>
      <trkpt lat="37.713077" lon="127.040694"><ele>61.0</ele></trkpt>
      <trkpt lat="37.713132" lon="127.040487"><ele>61.8</ele></trkpt>
      <trkpt lat="37.713314" lon="127.040367"><ele>61.7</ele></trkpt>
      <trkpt lat="37.713451" lon="127.039680"><ele>67.3</ele></trkpt>
      <trkpt lat="37.713481" lon="127.039269"><ele>69.0</ele></trkpt>
      <trkpt lat="37.713251" lon="127.038257"><ele>76.1</ele></trkpt>
      <trkpt lat="37.713178" lon="127.037426"><ele>79.1</ele></trkpt>
      <trkpt lat="37.712868" lon="127.037063"><ele>83.6</ele></trkpt>
      <trkpt lat="37.712277" lon="127.036832"><ele>90.5</ele></trkpt>
      <trkpt lat="37.711704" lon="127.036360"><ele>99.3</ele></trkpt>
      <trkpt lat="37.711432" lon="127.035314"><ele>109.9</ele></trkpt>
      <trkpt lat="37.711599" lon="127.035127"><ele>112.8</ele></trkpt>
      <trkpt lat="37.711716" lon="127.034896"><ele>116.4</ele></trkpt>
      <trkpt lat="37.711778" lon="127.034331"><ele>124.5</ele></trkpt>
      <trkpt lat="37.711795" lon="127.033416"><ele>144.2</ele></trkpt>
      <trkpt lat="37.711919" lon="127.032903"><ele>165.6</ele></trkpt>
      <trkpt lat="37.711648" lon="127.032050"><ele>183.0</ele></trkpt>
      <trkpt lat="37.711697" lon="127.031583"><ele>193.5</ele></trkpt>
      <trkpt lat="37.711663" lon="127.031398"><ele>200.6</ele></trkpt>
      <trkpt lat="37.711581" lon="127.031262"><ele>202.8</ele></trkpt>
      <trkpt lat="37.711629" lon="127.030785"><ele>217.5</ele></trkpt>
      <trkpt lat="37.711484" lon="127.030360"><ele>225.0</ele></trkpt>
      <trkpt lat="37.711446" lon="127.029913"><ele>235.3</ele></trkpt>
      <trkpt lat="37.711124" lon="127.029269"><ele>254.9</ele></trkpt>
      <trkpt lat="37.711044" lon="127.028637"><ele>278.7</ele></trkpt>
      <trkpt lat="37.711090" lon="127.028400"><ele>288.8</ele></trkpt>
      <trkpt lat="37.711213" lon="127.028268"><ele>291.1</ele></trkpt>
      <trkpt lat="37.711169" lon="127.027981"><ele>302.6</ele></trkpt>
      <trkpt lat="37.710967" lon="127.027657"><ele>315.4</ele></trkpt>
      <trkpt lat="37.710716" lon="127.027518"><ele>322.2</ele></trkpt>
      <trkpt lat="37.710706" lon="127.027258"><ele>329.4</ele></trkpt>
      <trkpt lat="37.710616" lon="127.027205"><ele>331.9</ele></trkpt>
      <trkpt lat="37.710507" lon="127.026892"><ele>343.2</ele></trkpt>
      <trkpt lat="37.710600" lon="127.026588"><ele>354.1</ele></trkpt>
      <trkpt lat="37.710568" lon="127.026376"><ele>365.1</ele></trkpt>
      <trkpt lat="37.710474" lon="127.026181"><ele>375.7</ele></trkpt>
      <trkpt lat="37.710320" lon="127.026035"><ele>384.5</ele></trkpt>
      <trkpt lat="37.710227" lon="127.026039"><ele>384.4</ele></trkpt>
      <trkpt lat="37.710147" lon="127.025770"><ele>390.4</ele></trkpt>
      <trkpt lat="37.710452" lon="127.025388"><ele>412.4</ele></trkpt>
      <trkpt lat="37.710462" lon="127.025209"><ele>421.3</ele></trkpt>
      <trkpt lat="37.710391" lon="127.024542"><ele>438.2</ele></trkpt>
      <trkpt lat="37.710204" lon="127.024315"><ele>447.4</ele></trkpt>
      <trkpt lat="37.710442" lon="127.024059"><ele>457.8</ele></trkpt>
      <trkpt lat="37.710648" lon="127.023933"><ele>462.0</ele></trkpt>
      <trkpt lat="37.710677" lon="127.023766"><ele>464.5</ele></trkpt>
      <trkpt lat="37.710201" lon="127.023277"><ele>483.0</ele></trkpt>
      <trkpt lat="37.710131" lon="127.022918"><ele>493.7</ele></trkpt>
      <trkpt lat="37.710224" lon="127.022652"><ele>501.2</ele></trkpt>
      <trkpt lat="37.710185" lon="127.022559"><ele>503.5</ele></trkpt>
      <trkpt lat="37.710098" lon="127.022510"><ele>506.9</ele></trkpt>
      <trkpt lat="37.710031" lon="127.022229"><ele>516.5</ele></trkpt>
      <trkpt lat="37.709740" lon="127.022076"><ele>532.6</ele></trkpt>
      <trkpt lat="37.709799" lon="127.021920"><ele>537.0</ele></trkpt>
      <trkpt lat="37.709796" lon="127.021770"><ele>542.3</ele></trkpt>
      <trkpt lat="37.709610" lon="127.021521"><ele>553.3</ele></trkpt>
      <trkpt lat="37.709510" lon="127.021168"><ele>558.0</ele></trkpt>
      <trkpt lat="37.709251" lon="127.020994"><ele>564.6</ele></trkpt>
      <trkpt lat="37.709151" lon="127.020839"><ele>569.2</ele></trkpt>
      <trkpt lat="37.708995" lon="127.020371"><ele>584.0</ele></trkpt>
      <trkpt lat="37.708904" lon="127.020257"><ele>590.8</ele></trkpt>
      <trkpt lat="37.708858" lon="127.020065"><ele>596.6</ele></trkpt>
      <trkpt lat="37.708696" lon="127.020084"><ele>601.1</ele></trkpt>
      <trkpt lat="37.708596" lon="127.020001"><ele>607.1</ele></trkpt>
      <trkpt lat="37.708446" lon="127.019743"><ele>620.3</ele></trkpt>
      <trkpt lat="37.708370" lon="127.019464"><ele>628.2</ele></trkpt>
      <trkpt lat="37.708194" lon="127.019532"><ele>629.1</ele></trkpt>
      <trkpt lat="37.707924" lon="127.019478"><ele>629.0</ele></trkpt>
      <trkpt lat="37.707732" lon="127.019314"><ele>624.2</ele></trkpt>
      <trkpt lat="37.707604" lon="127.019278"><ele>620.8</ele></trkpt>
      <trkpt lat="37.707363" lon="127.019331"><ele>618.4</ele></trkpt>
      <trkpt lat="37.707170" lon="127.019468"><ele>616.5</ele></trkpt>
      <trkpt lat="37.706990" lon="127.019248"><ele>613.9</ele></trkpt>
      <trkpt lat="37.706831" lon="127.019246"><ele>612.9</ele></trkpt>
      <trkpt lat="37.706559" lon="127.019109"><ele>611.6</ele></trkpt>
      <trkpt lat="37.706187" lon="127.018761"><ele>614.7</ele></trkpt>
      <trkpt lat="37.705931" lon="127.018765"><ele>621.0</ele></trkpt>
      <trkpt lat="37.705679" lon="127.018582"><ele>622.6</ele></trkpt>
      <trkpt lat="37.705430" lon="127.018211"><ele>624.7</ele></trkpt>
      <trkpt lat="37.705486" lon="127.018171"><ele>626.6</ele></trkpt>
      <trkpt lat="37.705392" lon="127.017993"><ele>627.6</ele></trkpt>
      <trkpt lat="37.705438" lon="127.017728"><ele>629.6</ele></trkpt>
      <trkpt lat="37.704633" lon="127.017127"><ele>624.5</ele></trkpt>
      <trkpt lat="37.704518" lon="127.016804"><ele>632.6</ele></trkpt>
      <trkpt lat="37.704359" lon="127.016560"><ele>635.7</ele></trkpt>
      <trkpt lat="37.704150" lon="127.016513"><ele>635.6</ele></trkpt>
      <trkpt lat="37.704004" lon="127.016299"><ele>633.2</ele></trkpt>
      <trkpt lat="37.703825" lon="127.016176"><ele>633.2</ele></trkpt>
      <trkpt lat="37.703650" lon="127.015907"><ele>639.4</ele></trkpt>
      <trkpt lat="37.703399" lon="127.015807"><ele>642.8</ele></trkpt>
      <trkpt lat="37.703341" lon="127.015659"><ele>643.6</ele></trkpt>
      <trkpt lat="37.703128" lon="127.015455"><ele>645.6</ele></trkpt>
      <trkpt lat="37.702495" lon="127.015567"><ele>652.1</ele></trkpt>
      <trkpt lat="37.701711" lon="127.015892"><ele>663.3</ele></trkpt>
      <trkpt lat="37.701356" lon="127.015776"><ele>677.6</ele></trkpt>
      <trkpt lat="37.701124" lon="127.015451"><ele>673.3</ele></trkpt>
      <trkpt lat="37.700945" lon="127.015380"><ele>673.6</ele></trkpt>
      <trkpt lat="37.700687" lon="127.015415"><ele>679.9</ele></trkpt>
      <trkpt lat="37.700582" lon="127.015333"><ele>681.5</ele></trkpt>
      <trkpt lat="37.700494" lon="127.015131"><ele>679.4</ele></trkpt>
      <trkpt lat="37.700355" lon="127.015006"><ele>681.1</ele></trkpt>
      <trkpt lat="37.700066" lon="127.014965"><ele>686.2</ele></trkpt>
      <trkpt lat="37.699867" lon="127.015079"><ele>691.0</ele></trkpt>
      <trkpt lat="37.699615" lon="127.014965"><ele>691.8</ele></trkpt>
      <trkpt lat="37.699232" lon="127.014967"><ele>699.7</ele></trkpt>
      <trkpt lat="37.699095" lon="127.015029"><ele>702.6</ele></trkpt>
      <trkpt lat="37.698965" lon="127.015238"><ele>705.3</ele></trkpt>
      <trkpt lat="37.698616" lon="127.015391"><ele>711.6</ele></trkpt>
    </trkseg>
  </trk>
</gpx>
