<?xml version="1.0" encoding="UTF-8"?>
<gpx version="1.1" creator="kr-100-mountains route-harvester"
     xmlns="http://www.topografix.com/GPX/1/1"
     xmlns:k100="https://github.com/jay-jang/kr-100-mountains/ns/1"
     xmlns:xsi="http://www.w3.org/2001/XMLSchema-instance"
     xsi:schemaLocation="http://www.topografix.com/GPX/1/1 http://www.topografix.com/GPX/1/1/gpx.xsd">
  <metadata>
    <name>도봉산 · 오봉 코스 (대안 1) (OSM 계산 경로)</name>
    <desc>실제 GPS 기록이 아닙니다. OpenStreetMap에 등록된 등산로 선형 위에서 계산한 경로이며, 현장 통제·훼손·출입 제한·계절 통제를 반영하지 않을 수 있습니다. 산행 전 공식 안내를 확인하세요.</desc>
    <time>2026-08-04T05:14:28.515Z</time>
    <link href="https://www.openstreetmap.org/copyright"><text>© OpenStreetMap contributors (ODbL 1.0)</text></link>
    <link href="https://registry.opendata.aws/terrain-tiles/"><text>Elevation: SRTM 1 arc-second (NASA/USGS) via AWS Terrain Tiles</text></link>
    <extensions>
      <k100:provenance>osm-routed</k100:provenance>
      <k100:not_a_recorded_track>true</k100:not_a_recorded_track>
      <k100:mountain_id>dobongsan</k100:mountain_id>
      <k100:mountain_name>도봉산</k100:mountain_name>
      <k100:route_id>dobongsan-08a9eaf2</k100:route_id>
      <k100:route_index>2</k100:route_index>
      <k100:route_name>오봉 코스</k100:route_name>
      <k100:variant>1</k100:variant>
      <k100:source>OpenStreetMap via Overpass API</k100:source>
      <k100:license>ODbL-1.0</k100:license>
      <k100:attribution>© OpenStreetMap contributors</k100:attribution>
      <k100:elevation_source>SRTM 1 arc-second (NASA/USGS) — AWS Terrain Tiles 배포본. 지형 DEM 추정 고도이며 실측 아님</k100:elevation_source>
      <k100:algorithm>dijkstra-grid-v1</k100:algorithm>
      <k100:osm_snapshot>2026-08-04</k100:osm_snapshot>
      <k100:snap_trailhead_m>25</k100:snap_trailhead_m>
      <k100:snap_summit_m>18</k100:snap_summit_m>
      <k100:validation_score>93</k100:validation_score>
      <k100:validation_status>accepted</k100:validation_status>
    </extensions>
  </metadata>
  <trk>
    <name>도봉산 · 오봉 코스 (대안 1) (OSM 계산 경로)</name>
    <desc>실제 GPS 기록이 아닙니다. OpenStreetMap에 등록된 등산로 선형 위에서 계산한 경로이며, 현장 통제·훼손·출입 제한·계절 통제를 반영하지 않을 수 있습니다. 산행 전 공식 안내를 확인하세요.</desc>
    <trkseg>
      <trkpt lat="37.687455" lon="127.040963"><ele>52.6</ele></trkpt>
      <trkpt lat="37.687451" lon="127.040908"><ele>52.4</ele></trkpt>
      <trkpt lat="37.687265" lon="127.040973"><ele>53.3</ele></trkpt>
      <trkpt lat="37.687307" lon="127.041281"><ele>54.1</ele></trkpt>
      <trkpt lat="37.687465" lon="127.041535"><ele>53.7</ele></trkpt>
      <trkpt lat="37.687512" lon="127.042078"><ele>53.5</ele></trkpt>
      <trkpt lat="37.688987" lon="127.042351"><ele>49.9</ele></trkpt>
      <trkpt lat="37.689340" lon="127.041830"><ele>41.7</ele></trkpt>
      <trkpt lat="37.690926" lon="127.042215"><ele>40.7</ele></trkpt>
      <trkpt lat="37.690927" lon="127.041949"><ele>41.0</ele></trkpt>
      <trkpt lat="37.690835" lon="127.041747"><ele>40.0</ele></trkpt>
      <trkpt lat="37.691023" lon="127.041121"><ele>41.1</ele></trkpt>
      <trkpt lat="37.691350" lon="127.039563"><ele>55.3</ele></trkpt>
      <trkpt lat="37.691160" lon="127.039495"><ele>60.7</ele></trkpt>
      <trkpt lat="37.691052" lon="127.039285"><ele>67.8</ele></trkpt>
      <trkpt lat="37.691172" lon="127.038958"><ele>72.5</ele></trkpt>
      <trkpt lat="37.691334" lon="127.038817"><ele>72.9</ele></trkpt>
      <trkpt lat="37.691410" lon="127.038227"><ele>84.0</ele></trkpt>
      <trkpt lat="37.691465" lon="127.038123"><ele>84.9</ele></trkpt>
      <trkpt lat="37.691523" lon="127.038039"><ele>85.8</ele></trkpt>
      <trkpt lat="37.691881" lon="127.037946"><ele>85.0</ele></trkpt>
      <trkpt lat="37.691932" lon="127.037857"><ele>86.4</ele></trkpt>
      <trkpt lat="37.692011" lon="127.037627"><ele>90.0</ele></trkpt>
      <trkpt lat="37.691968" lon="127.037526"><ele>91.6</ele></trkpt>
      <trkpt lat="37.691988" lon="127.037409"><ele>93.2</ele></trkpt>
      <trkpt lat="37.692058" lon="127.037322"><ele>94.1</ele></trkpt>
      <trkpt lat="37.691970" lon="127.037102"><ele>97.2</ele></trkpt>
      <trkpt lat="37.692003" lon="127.036988"><ele>98.5</ele></trkpt>
      <trkpt lat="37.692267" lon="127.036615"><ele>102.4</ele></trkpt>
      <trkpt lat="37.692515" lon="127.036436"><ele>105.0</ele></trkpt>
      <trkpt lat="37.692366" lon="127.036113"><ele>106.0</ele></trkpt>
      <trkpt lat="37.692484" lon="127.035936"><ele>105.4</ele></trkpt>
      <trkpt lat="37.692520" lon="127.035644"><ele>103.3</ele></trkpt>
      <trkpt lat="37.692458" lon="127.035350"><ele>104.0</ele></trkpt>
      <trkpt lat="37.692254" lon="127.034871"><ele>107.0</ele></trkpt>
      <trkpt lat="37.692192" lon="127.034343"><ele>120.1</ele></trkpt>
      <trkpt lat="37.691998" lon="127.033978"><ele>133.8</ele></trkpt>
      <trkpt lat="37.691868" lon="127.033332"><ele>149.6</ele></trkpt>
      <trkpt lat="37.692090" lon="127.032811"><ele>164.1</ele></trkpt>
      <trkpt lat="37.692502" lon="127.032293"><ele>161.7</ele></trkpt>
      <trkpt lat="37.692659" lon="127.032293"><ele>160.6</ele></trkpt>
      <trkpt lat="37.692737" lon="127.032232"><ele>159.4</ele></trkpt>
      <trkpt lat="37.692785" lon="127.032007"><ele>158.8</ele></trkpt>
      <trkpt lat="37.692708" lon="127.031597"><ele>157.0</ele></trkpt>
      <trkpt lat="37.692817" lon="127.031367"><ele>157.0</ele></trkpt>
      <trkpt lat="37.693013" lon="127.031100"><ele>157.1</ele></trkpt>
      <trkpt lat="37.693342" lon="127.031083"><ele>162.5</ele></trkpt>
      <trkpt lat="37.694251" lon="127.029381"><ele>204.3</ele></trkpt>
      <trkpt lat="37.694450" lon="127.029108"><ele>212.3</ele></trkpt>
      <trkpt lat="37.695388" lon="127.027922"><ele>253.0</ele></trkpt>
      <trkpt lat="37.695948" lon="127.027595"><ele>273.5</ele></trkpt>
      <trkpt lat="37.696292" lon="127.027225"><ele>288.9</ele></trkpt>
      <trkpt lat="37.696381" lon="127.026989"><ele>298.4</ele></trkpt>
      <trkpt lat="37.696403" lon="127.026318"><ele>322.3</ele></trkpt>
      <trkpt lat="37.696702" lon="127.025165"><ele>368.4</ele></trkpt>
      <trkpt lat="37.696810" lon="127.024924"><ele>377.6</ele></trkpt>
      <trkpt lat="37.696776" lon="127.024763"><ele>384.5</ele></trkpt>
      <trkpt lat="37.696863" lon="127.024476"><ele>400.9</ele></trkpt>
      <trkpt lat="37.697075" lon="127.024325"><ele>410.7</ele></trkpt>
      <trkpt lat="37.697366" lon="127.024347"><ele>415.4</ele></trkpt>
      <trkpt lat="37.697678" lon="127.024476"><ele>413.2</ele></trkpt>
      <trkpt lat="37.697844" lon="127.024446"><ele>416.6</ele></trkpt>
      <trkpt lat="37.698287" lon="127.024189"><ele>434.9</ele></trkpt>
      <trkpt lat="37.698682" lon="127.023891"><ele>444.5</ele></trkpt>
      <trkpt lat="37.698712" lon="127.023668"><ele>449.1</ele></trkpt>
      <trkpt lat="37.698797" lon="127.023539"><ele>453.6</ele></trkpt>
      <trkpt lat="37.698754" lon="127.023250"><ele>463.8</ele></trkpt>
      <trkpt lat="37.698850" lon="127.022976"><ele>475.3</ele></trkpt>
      <trkpt lat="37.699679" lon="127.022605"><ele>498.5</ele></trkpt>
      <trkpt lat="37.699827" lon="127.022617"><ele>497.2</ele></trkpt>
      <trkpt lat="37.699832" lon="127.022260"><ele>502.4</ele></trkpt>
      <trkpt lat="37.699983" lon="127.021833"><ele>513.4</ele></trkpt>
      <trkpt lat="37.699946" lon="127.021703"><ele>517.6</ele></trkpt>
      <trkpt lat="37.700010" lon="127.021537"><ele>522.8</ele></trkpt>
      <trkpt lat="37.699993" lon="127.021252"><ele>524.7</ele></trkpt>
      <trkpt lat="37.700026" lon="127.021110"><ele>524.6</ele></trkpt>
      <trkpt lat="37.700186" lon="127.021080"><ele>527.7</ele></trkpt>
      <trkpt lat="37.700323" lon="127.020858"><ele>527.5</ele></trkpt>
      <trkpt lat="37.700354" lon="127.020725"><ele>528.5</ele></trkpt>
      <trkpt lat="37.700308" lon="127.020616"><ele>529.2</ele></trkpt>
      <trkpt lat="37.700444" lon="127.020326"><ele>532.4</ele></trkpt>
      <trkpt lat="37.700606" lon="127.020197"><ele>536.7</ele></trkpt>
      <trkpt lat="37.700758" lon="127.019942"><ele>541.4</ele></trkpt>
      <trkpt lat="37.701180" lon="127.019570"><ele>551.8</ele></trkpt>
      <trkpt lat="37.701170" lon="127.019436"><ele>552.2</ele></trkpt>
      <trkpt lat="37.701248" lon="127.019331"><ele>552.7</ele></trkpt>
      <trkpt lat="37.701354" lon="127.018927"><ele>559.3</ele></trkpt>
      <trkpt lat="37.701381" lon="127.018603"><ele>571.1</ele></trkpt>
      <trkpt lat="37.701320" lon="127.018454"><ele>576.3</ele></trkpt>
      <trkpt lat="37.701404" lon="127.018268"><ele>586.5</ele></trkpt>
      <trkpt lat="37.701360" lon="127.018196"><ele>590.5</ele></trkpt>
      <trkpt lat="37.701431" lon="127.018115"><ele>592.5</ele></trkpt>
      <trkpt lat="37.701333" lon="127.017872"><ele>612.5</ele></trkpt>
      <trkpt lat="37.701377" lon="127.017631"><ele>618.5</ele></trkpt>
      <trkpt lat="37.701226" lon="127.017540"><ele>620.8</ele></trkpt>
      <trkpt lat="37.701080" lon="127.017666"><ele>618.1</ele></trkpt>
      <trkpt lat="37.701140" lon="127.017373"><ele>631.7</ele></trkpt>
      <trkpt lat="37.701002" lon="127.017023"><ele>653.2</ele></trkpt>
      <trkpt lat="37.701001" lon="127.016877"><ele>659.8</ele></trkpt>
      <trkpt lat="37.701218" lon="127.016257"><ele>678.9</ele></trkpt>
      <trkpt lat="37.701154" lon="127.016139"><ele>683.4</ele></trkpt>
      <trkpt lat="37.701016" lon="127.016043"><ele>684.4</ele></trkpt>
      <trkpt lat="37.701062" lon="127.015801"><ele>687.2</ele></trkpt>
      <trkpt lat="37.700888" lon="127.015741"><ele>684.7</ele></trkpt>
      <trkpt lat="37.700811" lon="127.015778"><ele>685.1</ele></trkpt>
      <trkpt lat="37.700527" lon="127.015756"><ele>684.4</ele></trkpt>
      <trkpt lat="37.700322" lon="127.015568"><ele>692.1</ele></trkpt>
      <trkpt lat="37.700245" lon="127.015647"><ele>691.8</ele></trkpt>
      <trkpt lat="37.700188" lon="127.015628"><ele>693.1</ele></trkpt>
      <trkpt lat="37.700257" lon="127.015543"><ele>694.2</ele></trkpt>
      <trkpt lat="37.700078" lon="127.015321"><ele>694.8</ele></trkpt>
      <trkpt lat="37.699743" lon="127.015102"><ele>692.1</ele></trkpt>
      <trkpt lat="37.699633" lon="127.015103"><ele>693.2</ele></trkpt>
      <trkpt lat="37.699594" lon="127.014978"><ele>692.7</ele></trkpt>
      <trkpt lat="37.699142" lon="127.014997"><ele>702.2</ele></trkpt>
      <trkpt lat="37.698965" lon="127.015238"><ele>705.3</ele></trkpt>
      <trkpt lat="37.698616" lon="127.015391"><ele>711.6</ele></trkpt>
    </trkseg>
  </trk>
</gpx>
