<?xml version="1.0" encoding="UTF-8"?>
<gpx version="1.1" creator="kr-100-mountains route-harvester"
     xmlns="http://www.topografix.com/GPX/1/1"
     xmlns:k100="https://github.com/jay-jang/kr-100-mountains/ns/1"
     xmlns:xsi="http://www.w3.org/2001/XMLSchema-instance"
     xsi:schemaLocation="http://www.topografix.com/GPX/1/1 http://www.topografix.com/GPX/1/1/gpx.xsd">
  <metadata>
    <name>무학산 · 만날고개-대곡산-무학산 종주 (대안 1) (OSM 계산 경로)</name>
    <desc>실제 GPS 기록이 아닙니다. OpenStreetMap에 등록된 등산로 선형 위에서 계산한 경로이며, 현장 통제·훼손·출입 제한·계절 통제를 반영하지 않을 수 있습니다. 산행 전 공식 안내를 확인하세요.</desc>
    <time>2026-08-04T05:46:39.390Z</time>
    <link href="https://www.openstreetmap.org/copyright"><text>© OpenStreetMap contributors (ODbL 1.0)</text></link>
    <link href="https://registry.opendata.aws/terrain-tiles/"><text>Elevation: SRTM 1 arc-second (NASA/USGS) via AWS Terrain Tiles</text></link>
    <extensions>
      <k100:provenance>osm-routed</k100:provenance>
      <k100:not_a_recorded_track>true</k100:not_a_recorded_track>
      <k100:mountain_id>muhaksan</k100:mountain_id>
      <k100:mountain_name>무학산</k100:mountain_name>
      <k100:route_id>muhaksan-1c555906</k100:route_id>
      <k100:route_index>2</k100:route_index>
      <k100:route_name>만날고개-대곡산-무학산 종주</k100:route_name>
      <k100:variant>1</k100:variant>
      <k100:source>OpenStreetMap via Overpass API</k100:source>
      <k100:license>ODbL-1.0</k100:license>
      <k100:attribution>© OpenStreetMap contributors</k100:attribution>
      <k100:elevation_source>SRTM 1 arc-second (NASA/USGS) — AWS Terrain Tiles 배포본. 지형 DEM 추정 고도이며 실측 아님</k100:elevation_source>
      <k100:algorithm>dijkstra-grid-v1</k100:algorithm>
      <k100:osm_snapshot>2026-08-04</k100:osm_snapshot>
      <k100:snap_trailhead_m>7</k100:snap_trailhead_m>
      <k100:snap_summit_m>35</k100:snap_summit_m>
      <k100:validation_score>93</k100:validation_score>
      <k100:validation_status>accepted</k100:validation_status>
    </extensions>
  </metadata>
  <trk>
    <name>무학산 · 만날고개-대곡산-무학산 종주 (대안 1) (OSM 계산 경로)</name>
    <desc>실제 GPS 기록이 아닙니다. OpenStreetMap에 등록된 등산로 선형 위에서 계산한 경로이며, 현장 통제·훼손·출입 제한·계절 통제를 반영하지 않을 수 있습니다. 산행 전 공식 안내를 확인하세요.</desc>
    <trkseg>
      <trkpt lat="35.178673" lon="128.554819"><ele>55.1</ele></trkpt>
      <trkpt lat="35.178731" lon="128.554838"><ele>54.2</ele></trkpt>
      <trkpt lat="35.178776" lon="128.554789"><ele>54.0</ele></trkpt>
      <trkpt lat="35.178717" lon="128.554558"><ele>58.1</ele></trkpt>
      <trkpt lat="35.178483" lon="128.554721"><ele>57.0</ele></trkpt>
      <trkpt lat="35.178485" lon="128.555505"><ele>49.8</ele></trkpt>
      <trkpt lat="35.177437" lon="128.555770"><ele>45.3</ele></trkpt>
      <trkpt lat="35.176739" lon="128.556492"><ele>41.6</ele></trkpt>
      <trkpt lat="35.176762" lon="128.556538"><ele>40.6</ele></trkpt>
      <trkpt lat="35.177574" lon="128.556417"><ele>29.9</ele></trkpt>
      <trkpt lat="35.178096" lon="128.556440"><ele>25.7</ele></trkpt>
      <trkpt lat="35.178897" lon="128.556167"><ele>26.6</ele></trkpt>
      <trkpt lat="35.179446" lon="128.556213"><ele>22.8</ele></trkpt>
      <trkpt lat="35.179817" lon="128.556400"><ele>14.5</ele></trkpt>
      <trkpt lat="35.179941" lon="128.556610"><ele>12.9</ele></trkpt>
      <trkpt lat="35.180087" lon="128.557106"><ele>10.7</ele></trkpt>
      <trkpt lat="35.180726" lon="128.557387"><ele>9.2</ele></trkpt>
      <trkpt lat="35.181388" lon="128.557803"><ele>7.8</ele></trkpt>
      <trkpt lat="35.181672" lon="128.558468"><ele>7.0</ele></trkpt>
      <trkpt lat="35.182439" lon="128.558565"><ele>10.8</ele></trkpt>
      <trkpt lat="35.183184" lon="128.558284"><ele>19.4</ele></trkpt>
      <trkpt lat="35.184117" lon="128.558688"><ele>23.6</ele></trkpt>
      <trkpt lat="35.185159" lon="128.558332"><ele>21.0</ele></trkpt>
      <trkpt lat="35.185933" lon="128.558252"><ele>20.8</ele></trkpt>
      <trkpt lat="35.187854" lon="128.559209"><ele>25.2</ele></trkpt>
      <trkpt lat="35.189757" lon="128.560325"><ele>18.0</ele></trkpt>
      <trkpt lat="35.190954" lon="128.559137"><ele>46.8</ele></trkpt>
      <trkpt lat="35.191523" lon="128.559597"><ele>47.1</ele></trkpt>
      <trkpt lat="35.191795" lon="128.559328"><ele>54.1</ele></trkpt>
      <trkpt lat="35.191944" lon="128.559281"><ele>57.7</ele></trkpt>
      <trkpt lat="35.195436" lon="128.559370"><ele>76.9</ele></trkpt>
      <trkpt lat="35.196796" lon="128.558867"><ele>69.1</ele></trkpt>
      <trkpt lat="35.198821" lon="128.558497"><ele>81.4</ele></trkpt>
      <trkpt lat="35.198810" lon="128.558190"><ele>82.2</ele></trkpt>
      <trkpt lat="35.198852" lon="128.558018"><ele>83.6</ele></trkpt>
      <trkpt lat="35.199312" lon="128.557384"><ele>91.5</ele></trkpt>
      <trkpt lat="35.199552" lon="128.556434"><ele>101.1</ele></trkpt>
      <trkpt lat="35.198849" lon="128.556103"><ele>110.0</ele></trkpt>
      <trkpt lat="35.198715" lon="128.556006"><ele>110.1</ele></trkpt>
      <trkpt lat="35.198636" lon="128.555808"><ele>109.2</ele></trkpt>
      <trkpt lat="35.198511" lon="128.555121"><ele>120.0</ele></trkpt>
      <trkpt lat="35.198549" lon="128.554823"><ele>125.8</ele></trkpt>
      <trkpt lat="35.198671" lon="128.554416"><ele>134.0</ele></trkpt>
      <trkpt lat="35.198674" lon="128.554016"><ele>139.2</ele></trkpt>
      <trkpt lat="35.198492" lon="128.553641"><ele>144.9</ele></trkpt>
      <trkpt lat="35.198439" lon="128.553418"><ele>146.3</ele></trkpt>
      <trkpt lat="35.198419" lon="128.552820"><ele>151.4</ele></trkpt>
      <trkpt lat="35.198634" lon="128.552230"><ele>166.1</ele></trkpt>
      <trkpt lat="35.198535" lon="128.551543"><ele>174.8</ele></trkpt>
      <trkpt lat="35.198582" lon="128.551331"><ele>179.7</ele></trkpt>
      <trkpt lat="35.198543" lon="128.551189"><ele>180.0</ele></trkpt>
      <trkpt lat="35.198588" lon="128.551125"><ele>182.1</ele></trkpt>
      <trkpt lat="35.198631" lon="128.550715"><ele>187.3</ele></trkpt>
      <trkpt lat="35.198752" lon="128.550564"><ele>189.9</ele></trkpt>
      <trkpt lat="35.198813" lon="128.550355"><ele>195.2</ele></trkpt>
      <trkpt lat="35.198846" lon="128.550122"><ele>201.2</ele></trkpt>
      <trkpt lat="35.198785" lon="128.549773"><ele>206.6</ele></trkpt>
      <trkpt lat="35.198817" lon="128.549517"><ele>213.9</ele></trkpt>
      <trkpt lat="35.198977" lon="128.549356"><ele>218.6</ele></trkpt>
      <trkpt lat="35.199157" lon="128.548731"><ele>232.4</ele></trkpt>
      <trkpt lat="35.199199" lon="128.547632"><ele>254.7</ele></trkpt>
      <trkpt lat="35.199118" lon="128.546455"><ele>273.5</ele></trkpt>
      <trkpt lat="35.199160" lon="128.545622"><ele>289.0</ele></trkpt>
      <trkpt lat="35.199237" lon="128.545056"><ele>300.5</ele></trkpt>
      <trkpt lat="35.199454" lon="128.544357"><ele>317.7</ele></trkpt>
      <trkpt lat="35.199691" lon="128.543955"><ele>333.7</ele></trkpt>
      <trkpt lat="35.199804" lon="128.543065"><ele>350.8</ele></trkpt>
      <trkpt lat="35.200177" lon="128.542147"><ele>380.1</ele></trkpt>
      <trkpt lat="35.200315" lon="128.541297"><ele>418.8</ele></trkpt>
      <trkpt lat="35.200315" lon="128.541157"><ele>425.1</ele></trkpt>
      <trkpt lat="35.200199" lon="128.540962"><ele>431.4</ele></trkpt>
      <trkpt lat="35.200115" lon="128.540366"><ele>452.4</ele></trkpt>
      <trkpt lat="35.200122" lon="128.540050"><ele>466.9</ele></trkpt>
      <trkpt lat="35.200234" lon="128.539728"><ele>481.8</ele></trkpt>
      <trkpt lat="35.200484" lon="128.539256"><ele>507.1</ele></trkpt>
      <trkpt lat="35.200815" lon="128.539116"><ele>515.8</ele></trkpt>
      <trkpt lat="35.200911" lon="128.538741"><ele>534.3</ele></trkpt>
      <trkpt lat="35.201391" lon="128.538342"><ele>558.1</ele></trkpt>
      <trkpt lat="35.201583" lon="128.538363"><ele>564.0</ele></trkpt>
      <trkpt lat="35.201939" lon="128.538273"><ele>571.0</ele></trkpt>
      <trkpt lat="35.203192" lon="128.537699"><ele>587.1</ele></trkpt>
      <trkpt lat="35.203704" lon="128.537539"><ele>598.5</ele></trkpt>
      <trkpt lat="35.204001" lon="128.537483"><ele>609.2</ele></trkpt>
      <trkpt lat="35.204480" lon="128.537510"><ele>624.5</ele></trkpt>
      <trkpt lat="35.204600" lon="128.537440"><ele>628.2</ele></trkpt>
      <trkpt lat="35.204550" lon="128.537075"><ele>624.9</ele></trkpt>
      <trkpt lat="35.204644" lon="128.536871"><ele>629.5</ele></trkpt>
      <trkpt lat="35.204830" lon="128.536810"><ele>639.7</ele></trkpt>
      <trkpt lat="35.205008" lon="128.536877"><ele>647.8</ele></trkpt>
      <trkpt lat="35.205328" lon="128.536783"><ele>662.3</ele></trkpt>
      <trkpt lat="35.205426" lon="128.536279"><ele>678.1</ele></trkpt>
      <trkpt lat="35.205626" lon="128.535807"><ele>697.0</ele></trkpt>
      <trkpt lat="35.205400" lon="128.535533"><ele>687.6</ele></trkpt>
      <trkpt lat="35.205132" lon="128.535431"><ele>681.4</ele></trkpt>
      <trkpt lat="35.204760" lon="128.535061"><ele>674.7</ele></trkpt>
      <trkpt lat="35.204462" lon="128.533940"><ele>621.3</ele></trkpt>
      <trkpt lat="35.204344" lon="128.533720"><ele>611.1</ele></trkpt>
      <trkpt lat="35.204107" lon="128.533462"><ele>596.5</ele></trkpt>
      <trkpt lat="35.203708" lon="128.532411"><ele>560.1</ele></trkpt>
      <trkpt lat="35.203353" lon="128.531998"><ele>538.6</ele></trkpt>
      <trkpt lat="35.203068" lon="128.531397"><ele>524.9</ele></trkpt>
      <trkpt lat="35.202858" lon="128.531123"><ele>517.2</ele></trkpt>
      <trkpt lat="35.202761" lon="128.530855"><ele>513.6</ele></trkpt>
      <trkpt lat="35.201928" lon="128.529959"><ele>478.7</ele></trkpt>
      <trkpt lat="35.201525" lon="128.529986"><ele>465.0</ele></trkpt>
      <trkpt lat="35.201236" lon="128.530206"><ele>453.5</ele></trkpt>
      <trkpt lat="35.200824" lon="128.530308"><ele>434.3</ele></trkpt>
      <trkpt lat="35.200578" lon="128.530464"><ele>418.3</ele></trkpt>
      <trkpt lat="35.199759" lon="128.530587"><ele>388.2</ele></trkpt>
      <trkpt lat="35.199281" lon="128.530909"><ele>355.6</ele></trkpt>
      <trkpt lat="35.198834" lon="128.531005"><ele>325.4</ele></trkpt>
      <trkpt lat="35.198364" lon="128.530946"><ele>306.9</ele></trkpt>
      <trkpt lat="35.197957" lon="128.531189"><ele>294.4</ele></trkpt>
      <trkpt lat="35.198390" lon="128.531843"><ele>297.2</ele></trkpt>
      <trkpt lat="35.198505" lon="128.533053"><ele>309.8</ele></trkpt>
      <trkpt lat="35.198380" lon="128.533397"><ele>311.2</ele></trkpt>
      <trkpt lat="35.197843" lon="128.533921"><ele>318.5</ele></trkpt>
      <trkpt lat="35.197477" lon="128.534126"><ele>323.5</ele></trkpt>
      <trkpt lat="35.197380" lon="128.534326"><ele>327.6</ele></trkpt>
      <trkpt lat="35.197255" lon="128.534436"><ele>328.4</ele></trkpt>
      <trkpt lat="35.197023" lon="128.534491"><ele>322.4</ele></trkpt>
      <trkpt lat="35.196233" lon="128.534506"><ele>314.8</ele></trkpt>
      <trkpt lat="35.196060" lon="128.534616"><ele>317.6</ele></trkpt>
    </trkseg>
  </trk>
</gpx>
