<?xml version="1.0" encoding="UTF-8"?>
<gpx version="1.1" creator="kr-100-mountains route-harvester"
     xmlns="http://www.topografix.com/GPX/1/1"
     xmlns:k100="https://github.com/jay-jang/kr-100-mountains/ns/1"
     xmlns:xsi="http://www.w3.org/2001/XMLSchema-instance"
     xsi:schemaLocation="http://www.topografix.com/GPX/1/1 http://www.topografix.com/GPX/1/1/gpx.xsd">
  <metadata>
    <name>무학산 · 서원곡-서마지기-정상 코스 (대안 2) (OSM 계산 경로)</name>
    <desc>실제 GPS 기록이 아닙니다. OpenStreetMap에 등록된 등산로 선형 위에서 계산한 경로이며, 현장 통제·훼손·출입 제한·계절 통제를 반영하지 않을 수 있습니다. 산행 전 공식 안내를 확인하세요.</desc>
    <time>2026-08-04T05:46:39.305Z</time>
    <link href="https://www.openstreetmap.org/copyright"><text>© OpenStreetMap contributors (ODbL 1.0)</text></link>
    <link href="https://registry.opendata.aws/terrain-tiles/"><text>Elevation: SRTM 1 arc-second (NASA/USGS) via AWS Terrain Tiles</text></link>
    <extensions>
      <k100:provenance>osm-routed</k100:provenance>
      <k100:not_a_recorded_track>true</k100:not_a_recorded_track>
      <k100:mountain_id>muhaksan</k100:mountain_id>
      <k100:mountain_name>무학산</k100:mountain_name>
      <k100:route_id>muhaksan-f5cf5c1c</k100:route_id>
      <k100:route_index>1</k100:route_index>
      <k100:route_name>서원곡-서마지기-정상 코스</k100:route_name>
      <k100:variant>2</k100:variant>
      <k100:source>OpenStreetMap via Overpass API</k100:source>
      <k100:license>ODbL-1.0</k100:license>
      <k100:attribution>© OpenStreetMap contributors</k100:attribution>
      <k100:elevation_source>SRTM 1 arc-second (NASA/USGS) — AWS Terrain Tiles 배포본. 지형 DEM 추정 고도이며 실측 아님</k100:elevation_source>
      <k100:algorithm>dijkstra-grid-v1</k100:algorithm>
      <k100:osm_snapshot>2026-08-04</k100:osm_snapshot>
      <k100:snap_trailhead_m>12</k100:snap_trailhead_m>
      <k100:snap_summit_m>35</k100:snap_summit_m>
      <k100:validation_score>100</k100:validation_score>
      <k100:validation_status>accepted</k100:validation_status>
    </extensions>
  </metadata>
  <trk>
    <name>무학산 · 서원곡-서마지기-정상 코스 (대안 2) (OSM 계산 경로)</name>
    <desc>실제 GPS 기록이 아닙니다. OpenStreetMap에 등록된 등산로 선형 위에서 계산한 경로이며, 현장 통제·훼손·출입 제한·계절 통제를 반영하지 않을 수 있습니다. 산행 전 공식 안내를 확인하세요.</desc>
    <trkseg>
      <trkpt lat="35.207217" lon="128.558715"><ele>147.2</ele></trkpt>
      <trkpt lat="35.207529" lon="128.558448"><ele>160.8</ele></trkpt>
      <trkpt lat="35.208073" lon="128.558208"><ele>165.1</ele></trkpt>
      <trkpt lat="35.207767" lon="128.557971"><ele>172.8</ele></trkpt>
      <trkpt lat="35.207535" lon="128.557714"><ele>190.7</ele></trkpt>
      <trkpt lat="35.207576" lon="128.557650"><ele>191.2</ele></trkpt>
      <trkpt lat="35.207540" lon="128.557453"><ele>195.8</ele></trkpt>
      <trkpt lat="35.207440" lon="128.557445"><ele>198.7</ele></trkpt>
      <trkpt lat="35.207459" lon="128.557388"><ele>198.6</ele></trkpt>
      <trkpt lat="35.207324" lon="128.557316"><ele>203.6</ele></trkpt>
      <trkpt lat="35.207384" lon="128.557114"><ele>205.9</ele></trkpt>
      <trkpt lat="35.207260" lon="128.557069"><ele>213.7</ele></trkpt>
      <trkpt lat="35.207304" lon="128.556991"><ele>214.3</ele></trkpt>
      <trkpt lat="35.207174" lon="128.556934"><ele>222.9</ele></trkpt>
      <trkpt lat="35.207137" lon="128.556830"><ele>227.6</ele></trkpt>
      <trkpt lat="35.206960" lon="128.556784"><ele>235.2</ele></trkpt>
      <trkpt lat="35.206936" lon="128.556718"><ele>238.1</ele></trkpt>
      <trkpt lat="35.206969" lon="128.556563"><ele>246.4</ele></trkpt>
      <trkpt lat="35.206857" lon="128.556551"><ele>250.2</ele></trkpt>
      <trkpt lat="35.206873" lon="128.556227"><ele>276.4</ele></trkpt>
      <trkpt lat="35.206773" lon="128.556048"><ele>292.0</ele></trkpt>
      <trkpt lat="35.206246" lon="128.555659"><ele>309.6</ele></trkpt>
      <trkpt lat="35.206252" lon="128.555459"><ele>318.5</ele></trkpt>
      <trkpt lat="35.206100" lon="128.554946"><ele>326.9</ele></trkpt>
      <trkpt lat="35.206065" lon="128.554600"><ele>334.8</ele></trkpt>
      <trkpt lat="35.205926" lon="128.554397"><ele>340.2</ele></trkpt>
      <trkpt lat="35.205796" lon="128.554325"><ele>340.4</ele></trkpt>
      <trkpt lat="35.205433" lon="128.553458"><ele>351.5</ele></trkpt>
      <trkpt lat="35.205406" lon="128.553315"><ele>358.8</ele></trkpt>
      <trkpt lat="35.205673" lon="128.552928"><ele>358.2</ele></trkpt>
      <trkpt lat="35.205666" lon="128.552740"><ele>360.2</ele></trkpt>
      <trkpt lat="35.205514" lon="128.552613"><ele>363.4</ele></trkpt>
      <trkpt lat="35.205577" lon="128.552158"><ele>360.2</ele></trkpt>
      <trkpt lat="35.205685" lon="128.551944"><ele>355.5</ele></trkpt>
      <trkpt lat="35.205747" lon="128.551644"><ele>352.6</ele></trkpt>
      <trkpt lat="35.205846" lon="128.551537"><ele>349.2</ele></trkpt>
      <trkpt lat="35.205880" lon="128.551402"><ele>346.2</ele></trkpt>
      <trkpt lat="35.205697" lon="128.551243"><ele>345.0</ele></trkpt>
      <trkpt lat="35.205460" lon="128.550571"><ele>327.8</ele></trkpt>
      <trkpt lat="35.205384" lon="128.549978"><ele>322.3</ele></trkpt>
      <trkpt lat="35.205404" lon="128.549853"><ele>326.7</ele></trkpt>
      <trkpt lat="35.205347" lon="128.549682"><ele>333.0</ele></trkpt>
      <trkpt lat="35.205382" lon="128.549574"><ele>338.1</ele></trkpt>
      <trkpt lat="35.205263" lon="128.549319"><ele>353.9</ele></trkpt>
      <trkpt lat="35.205318" lon="128.549173"><ele>362.8</ele></trkpt>
      <trkpt lat="35.205196" lon="128.549009"><ele>372.4</ele></trkpt>
      <trkpt lat="35.205230" lon="128.548829"><ele>380.1</ele></trkpt>
      <trkpt lat="35.205159" lon="128.548503"><ele>388.2</ele></trkpt>
      <trkpt lat="35.205238" lon="128.548113"><ele>409.2</ele></trkpt>
      <trkpt lat="35.205185" lon="128.547968"><ele>415.9</ele></trkpt>
      <trkpt lat="35.205207" lon="128.547793"><ele>424.3</ele></trkpt>
      <trkpt lat="35.205137" lon="128.547485"><ele>430.5</ele></trkpt>
      <trkpt lat="35.205186" lon="128.547321"><ele>437.6</ele></trkpt>
      <trkpt lat="35.205177" lon="128.547163"><ele>443.4</ele></trkpt>
      <trkpt lat="35.205044" lon="128.546693"><ele>466.0</ele></trkpt>
      <trkpt lat="35.204966" lon="128.546651"><ele>468.1</ele></trkpt>
      <trkpt lat="35.204858" lon="128.546018"><ele>458.4</ele></trkpt>
      <trkpt lat="35.204609" lon="128.545634"><ele>451.6</ele></trkpt>
      <trkpt lat="35.204353" lon="128.544442"><ele>459.5</ele></trkpt>
      <trkpt lat="35.204374" lon="128.544136"><ele>473.8</ele></trkpt>
      <trkpt lat="35.204285" lon="128.544070"><ele>478.0</ele></trkpt>
      <trkpt lat="35.204352" lon="128.543915"><ele>486.2</ele></trkpt>
      <trkpt lat="35.204324" lon="128.543765"><ele>491.6</ele></trkpt>
      <trkpt lat="35.204408" lon="128.543522"><ele>502.5</ele></trkpt>
      <trkpt lat="35.204418" lon="128.543295"><ele>512.0</ele></trkpt>
      <trkpt lat="35.204503" lon="128.543078"><ele>524.5</ele></trkpt>
      <trkpt lat="35.204512" lon="128.542879"><ele>529.2</ele></trkpt>
      <trkpt lat="35.204379" lon="128.542948"><ele>524.4</ele></trkpt>
      <trkpt lat="35.204282" lon="128.542595"><ele>527.0</ele></trkpt>
      <trkpt lat="35.204131" lon="128.542295"><ele>524.7</ele></trkpt>
      <trkpt lat="35.203947" lon="128.541624"><ele>531.7</ele></trkpt>
      <trkpt lat="35.203638" lon="128.540881"><ele>546.3</ele></trkpt>
      <trkpt lat="35.203761" lon="128.540074"><ele>593.7</ele></trkpt>
      <trkpt lat="35.203653" lon="128.539548"><ele>610.2</ele></trkpt>
      <trkpt lat="35.203346" lon="128.539342"><ele>610.1</ele></trkpt>
      <trkpt lat="35.203210" lon="128.539068"><ele>611.0</ele></trkpt>
      <trkpt lat="35.203118" lon="128.538703"><ele>617.0</ele></trkpt>
      <trkpt lat="35.202905" lon="128.538731"><ele>608.1</ele></trkpt>
      <trkpt lat="35.202640" lon="128.538597"><ele>598.3</ele></trkpt>
      <trkpt lat="35.202127" lon="128.538578"><ele>580.3</ele></trkpt>
      <trkpt lat="35.201583" lon="128.538363"><ele>564.0</ele></trkpt>
      <trkpt lat="35.201939" lon="128.538273"><ele>571.0</ele></trkpt>
      <trkpt lat="35.203192" lon="128.537699"><ele>587.1</ele></trkpt>
      <trkpt lat="35.203704" lon="128.537539"><ele>598.5</ele></trkpt>
      <trkpt lat="35.204001" lon="128.537483"><ele>609.2</ele></trkpt>
      <trkpt lat="35.204480" lon="128.537510"><ele>624.5</ele></trkpt>
      <trkpt lat="35.204600" lon="128.537440"><ele>628.2</ele></trkpt>
      <trkpt lat="35.204550" lon="128.537075"><ele>624.9</ele></trkpt>
      <trkpt lat="35.204644" lon="128.536871"><ele>629.5</ele></trkpt>
      <trkpt lat="35.204830" lon="128.536810"><ele>639.7</ele></trkpt>
      <trkpt lat="35.205008" lon="128.536877"><ele>647.8</ele></trkpt>
      <trkpt lat="35.205328" lon="128.536783"><ele>662.3</ele></trkpt>
      <trkpt lat="35.205426" lon="128.536279"><ele>678.1</ele></trkpt>
      <trkpt lat="35.205626" lon="128.535807"><ele>697.0</ele></trkpt>
      <trkpt lat="35.205400" lon="128.535533"><ele>687.6</ele></trkpt>
      <trkpt lat="35.205132" lon="128.535431"><ele>681.4</ele></trkpt>
      <trkpt lat="35.204760" lon="128.535061"><ele>674.7</ele></trkpt>
      <trkpt lat="35.204462" lon="128.533940"><ele>621.3</ele></trkpt>
      <trkpt lat="35.204344" lon="128.533720"><ele>611.1</ele></trkpt>
      <trkpt lat="35.204107" lon="128.533462"><ele>596.5</ele></trkpt>
      <trkpt lat="35.203708" lon="128.532411"><ele>560.1</ele></trkpt>
      <trkpt lat="35.203353" lon="128.531998"><ele>538.6</ele></trkpt>
      <trkpt lat="35.203068" lon="128.531397"><ele>524.9</ele></trkpt>
      <trkpt lat="35.202858" lon="128.531123"><ele>517.2</ele></trkpt>
      <trkpt lat="35.202761" lon="128.530855"><ele>513.6</ele></trkpt>
      <trkpt lat="35.201928" lon="128.529959"><ele>478.7</ele></trkpt>
      <trkpt lat="35.201525" lon="128.529986"><ele>465.0</ele></trkpt>
      <trkpt lat="35.201236" lon="128.530206"><ele>453.5</ele></trkpt>
      <trkpt lat="35.200824" lon="128.530308"><ele>434.3</ele></trkpt>
      <trkpt lat="35.200578" lon="128.530464"><ele>418.3</ele></trkpt>
      <trkpt lat="35.199759" lon="128.530587"><ele>388.2</ele></trkpt>
      <trkpt lat="35.199281" lon="128.530909"><ele>355.6</ele></trkpt>
      <trkpt lat="35.198834" lon="128.531005"><ele>325.4</ele></trkpt>
      <trkpt lat="35.198364" lon="128.530946"><ele>306.9</ele></trkpt>
      <trkpt lat="35.197957" lon="128.531189"><ele>294.4</ele></trkpt>
      <trkpt lat="35.198390" lon="128.531843"><ele>297.2</ele></trkpt>
      <trkpt lat="35.198505" lon="128.533053"><ele>309.8</ele></trkpt>
      <trkpt lat="35.198380" lon="128.533397"><ele>311.2</ele></trkpt>
      <trkpt lat="35.197843" lon="128.533921"><ele>318.5</ele></trkpt>
      <trkpt lat="35.197477" lon="128.534126"><ele>323.5</ele></trkpt>
      <trkpt lat="35.197380" lon="128.534326"><ele>327.6</ele></trkpt>
      <trkpt lat="35.197255" lon="128.534436"><ele>328.4</ele></trkpt>
      <trkpt lat="35.197023" lon="128.534491"><ele>322.4</ele></trkpt>
      <trkpt lat="35.196233" lon="128.534506"><ele>314.8</ele></trkpt>
      <trkpt lat="35.196060" lon="128.534616"><ele>317.6</ele></trkpt>
    </trkseg>
  </trk>
</gpx>
