<?xml version="1.0" encoding="UTF-8"?>
<gpx version="1.1" creator="kr-100-mountains route-harvester"
     xmlns="http://www.topografix.com/GPX/1/1"
     xmlns:k100="https://github.com/jay-jang/kr-100-mountains/ns/1"
     xmlns:xsi="http://www.w3.org/2001/XMLSchema-instance"
     xsi:schemaLocation="http://www.topografix.com/GPX/1/1 http://www.topografix.com/GPX/1/1/gpx.xsd">
  <metadata>
    <name>설악산 · 소공원-천불동-대청봉 코스 (대안 2) (OSM 계산 경로)</name>
    <desc>실제 GPS 기록이 아닙니다. OpenStreetMap에 등록된 등산로 선형 위에서 계산한 경로이며, 현장 통제·훼손·출입 제한·계절 통제를 반영하지 않을 수 있습니다. 산행 전 공식 안내를 확인하세요.</desc>
    <time>2026-08-04T05:19:38.059Z</time>
    <link href="https://www.openstreetmap.org/copyright"><text>© OpenStreetMap contributors (ODbL 1.0)</text></link>
    <link href="https://registry.opendata.aws/terrain-tiles/"><text>Elevation: SRTM 1 arc-second (NASA/USGS) via AWS Terrain Tiles</text></link>
    <extensions>
      <k100:provenance>osm-routed</k100:provenance>
      <k100:not_a_recorded_track>true</k100:not_a_recorded_track>
      <k100:mountain_id>seolaksan</k100:mountain_id>
      <k100:mountain_name>설악산</k100:mountain_name>
      <k100:route_id>seolaksan-5cc18c94</k100:route_id>
      <k100:route_index>2</k100:route_index>
      <k100:route_name>소공원-천불동-대청봉 코스</k100:route_name>
      <k100:variant>2</k100:variant>
      <k100:source>OpenStreetMap via Overpass API</k100:source>
      <k100:license>ODbL-1.0</k100:license>
      <k100:attribution>© OpenStreetMap contributors</k100:attribution>
      <k100:elevation_source>SRTM 1 arc-second (NASA/USGS) — AWS Terrain Tiles 배포본. 지형 DEM 추정 고도이며 실측 아님</k100:elevation_source>
      <k100:algorithm>dijkstra-grid-v1</k100:algorithm>
      <k100:osm_snapshot>2026-08-04</k100:osm_snapshot>
      <k100:snap_trailhead_m>556</k100:snap_trailhead_m>
      <k100:snap_summit_m>40</k100:snap_summit_m>
      <k100:validation_score>86</k100:validation_score>
      <k100:validation_status>accepted</k100:validation_status>
    </extensions>
  </metadata>
  <trk>
    <name>설악산 · 소공원-천불동-대청봉 코스 (대안 2) (OSM 계산 경로)</name>
    <desc>실제 GPS 기록이 아닙니다. OpenStreetMap에 등록된 등산로 선형 위에서 계산한 경로이며, 현장 통제·훼손·출입 제한·계절 통제를 반영하지 않을 수 있습니다. 산행 전 공식 안내를 확인하세요.</desc>
    <trkseg>
      <trkpt lat="38.172985" lon="128.484094"><ele>220.3</ele></trkpt>
      <trkpt lat="38.173021" lon="128.484562"><ele>219.0</ele></trkpt>
      <trkpt lat="38.173107" lon="128.484851"><ele>215.5</ele></trkpt>
      <trkpt lat="38.173017" lon="128.485114"><ele>214.8</ele></trkpt>
      <trkpt lat="38.173065" lon="128.486438"><ele>208.3</ele></trkpt>
      <trkpt lat="38.172972" lon="128.486772"><ele>207.1</ele></trkpt>
      <trkpt lat="38.172773" lon="128.487008"><ele>209.8</ele></trkpt>
      <trkpt lat="38.172737" lon="128.487144"><ele>209.4</ele></trkpt>
      <trkpt lat="38.172628" lon="128.487215"><ele>209.6</ele></trkpt>
      <trkpt lat="38.172182" lon="128.488081"><ele>205.0</ele></trkpt>
      <trkpt lat="38.172186" lon="128.488219"><ele>205.0</ele></trkpt>
      <trkpt lat="38.172125" lon="128.488358"><ele>204.9</ele></trkpt>
      <trkpt lat="38.171911" lon="128.488672"><ele>204.1</ele></trkpt>
      <trkpt lat="38.171848" lon="128.488923"><ele>204.3</ele></trkpt>
      <trkpt lat="38.171666" lon="128.489164"><ele>205.0</ele></trkpt>
      <trkpt lat="38.171620" lon="128.489504"><ele>204.8</ele></trkpt>
      <trkpt lat="38.171445" lon="128.489691"><ele>205.4</ele></trkpt>
      <trkpt lat="38.171210" lon="128.490309"><ele>199.9</ele></trkpt>
      <trkpt lat="38.170928" lon="128.490860"><ele>204.2</ele></trkpt>
      <trkpt lat="38.170778" lon="128.492025"><ele>202.3</ele></trkpt>
      <trkpt lat="38.170547" lon="128.492939"><ele>208.2</ele></trkpt>
      <trkpt lat="38.170667" lon="128.493660"><ele>200.4</ele></trkpt>
      <trkpt lat="38.170658" lon="128.493832"><ele>200.0</ele></trkpt>
      <trkpt lat="38.170325" lon="128.494602"><ele>203.0</ele></trkpt>
      <trkpt lat="38.170251" lon="128.495203"><ele>202.9</ele></trkpt>
      <trkpt lat="38.169812" lon="128.496490"><ele>192.4</ele></trkpt>
      <trkpt lat="38.169185" lon="128.497651"><ele>192.5</ele></trkpt>
      <trkpt lat="38.168888" lon="128.498344"><ele>190.0</ele></trkpt>
      <trkpt lat="38.168821" lon="128.499082"><ele>190.4</ele></trkpt>
      <trkpt lat="38.168500" lon="128.500172"><ele>191.3</ele></trkpt>
      <trkpt lat="38.168479" lon="128.500335"><ele>190.1</ele></trkpt>
      <trkpt lat="38.168562" lon="128.500775"><ele>183.7</ele></trkpt>
      <trkpt lat="38.168165" lon="128.501746"><ele>185.0</ele></trkpt>
      <trkpt lat="38.168085" lon="128.502298"><ele>181.4</ele></trkpt>
      <trkpt lat="38.167754" lon="128.502372"><ele>184.0</ele></trkpt>
      <trkpt lat="38.167267" lon="128.502127"><ele>190.7</ele></trkpt>
      <trkpt lat="38.166491" lon="128.502256"><ele>204.4</ele></trkpt>
      <trkpt lat="38.166305" lon="128.501931"><ele>212.3</ele></trkpt>
      <trkpt lat="38.165978" lon="128.501909"><ele>213.2</ele></trkpt>
      <trkpt lat="38.165893" lon="128.501823"><ele>213.9</ele></trkpt>
      <trkpt lat="38.165578" lon="128.501327"><ele>223.3</ele></trkpt>
      <trkpt lat="38.165393" lon="128.501099"><ele>237.5</ele></trkpt>
      <trkpt lat="38.165311" lon="128.501065"><ele>238.4</ele></trkpt>
      <trkpt lat="38.165245" lon="128.500932"><ele>247.6</ele></trkpt>
      <trkpt lat="38.164934" lon="128.500924"><ele>262.9</ele></trkpt>
      <trkpt lat="38.164547" lon="128.501136"><ele>279.6</ele></trkpt>
      <trkpt lat="38.164412" lon="128.501051"><ele>287.0</ele></trkpt>
      <trkpt lat="38.164250" lon="128.501083"><ele>295.8</ele></trkpt>
      <trkpt lat="38.163875" lon="128.501350"><ele>302.6</ele></trkpt>
      <trkpt lat="38.163730" lon="128.501638"><ele>300.6</ele></trkpt>
      <trkpt lat="38.163531" lon="128.501606"><ele>297.1</ele></trkpt>
      <trkpt lat="38.163464" lon="128.501744"><ele>295.6</ele></trkpt>
      <trkpt lat="38.163154" lon="128.502041"><ele>295.7</ele></trkpt>
      <trkpt lat="38.162810" lon="128.502119"><ele>299.8</ele></trkpt>
      <trkpt lat="38.162716" lon="128.502191"><ele>300.6</ele></trkpt>
      <trkpt lat="38.162646" lon="128.502351"><ele>303.2</ele></trkpt>
      <trkpt lat="38.162461" lon="128.502349"><ele>309.0</ele></trkpt>
      <trkpt lat="38.162245" lon="128.502154"><ele>317.9</ele></trkpt>
      <trkpt lat="38.162155" lon="128.502176"><ele>321.5</ele></trkpt>
      <trkpt lat="38.161820" lon="128.501769"><ele>324.8</ele></trkpt>
      <trkpt lat="38.161613" lon="128.501425"><ele>323.2</ele></trkpt>
      <trkpt lat="38.161450" lon="128.501359"><ele>324.9</ele></trkpt>
      <trkpt lat="38.161224" lon="128.501107"><ele>334.2</ele></trkpt>
      <trkpt lat="38.161124" lon="128.500772"><ele>341.3</ele></trkpt>
      <trkpt lat="38.161049" lon="128.500700"><ele>343.2</ele></trkpt>
      <trkpt lat="38.161087" lon="128.500564"><ele>343.2</ele></trkpt>
      <trkpt lat="38.160993" lon="128.500400"><ele>346.9</ele></trkpt>
      <trkpt lat="38.160801" lon="128.500129"><ele>351.3</ele></trkpt>
      <trkpt lat="38.160690" lon="128.500071"><ele>352.4</ele></trkpt>
      <trkpt lat="38.160659" lon="128.499958"><ele>356.0</ele></trkpt>
      <trkpt lat="38.160268" lon="128.499603"><ele>362.1</ele></trkpt>
      <trkpt lat="38.160114" lon="128.499530"><ele>361.4</ele></trkpt>
      <trkpt lat="38.159916" lon="128.499311"><ele>361.0</ele></trkpt>
      <trkpt lat="38.159798" lon="128.498952"><ele>365.2</ele></trkpt>
      <trkpt lat="38.159737" lon="128.498878"><ele>365.2</ele></trkpt>
      <trkpt lat="38.159521" lon="128.498781"><ele>369.4</ele></trkpt>
      <trkpt lat="38.159465" lon="128.498804"><ele>368.6</ele></trkpt>
      <trkpt lat="38.159272" lon="128.498545"><ele>380.3</ele></trkpt>
      <trkpt lat="38.158878" lon="128.498210"><ele>394.6</ele></trkpt>
      <trkpt lat="38.158731" lon="128.497977"><ele>398.6</ele></trkpt>
      <trkpt lat="38.158748" lon="128.497875"><ele>398.7</ele></trkpt>
      <trkpt lat="38.158638" lon="128.497428"><ele>404.6</ele></trkpt>
      <trkpt lat="38.158571" lon="128.497444"><ele>404.0</ele></trkpt>
      <trkpt lat="38.158453" lon="128.497026"><ele>418.5</ele></trkpt>
      <trkpt lat="38.158222" lon="128.496692"><ele>425.9</ele></trkpt>
      <trkpt lat="38.157908" lon="128.496552"><ele>437.0</ele></trkpt>
      <trkpt lat="38.157522" lon="128.496571"><ele>435.0</ele></trkpt>
      <trkpt lat="38.157121" lon="128.496439"><ele>447.3</ele></trkpt>
      <trkpt lat="38.157083" lon="128.496240"><ele>444.6</ele></trkpt>
      <trkpt lat="38.156837" lon="128.495779"><ele>448.7</ele></trkpt>
      <trkpt lat="38.156720" lon="128.495589"><ele>453.3</ele></trkpt>
      <trkpt lat="38.156522" lon="128.495394"><ele>466.0</ele></trkpt>
      <trkpt lat="38.156241" lon="128.495324"><ele>490.7</ele></trkpt>
      <trkpt lat="38.156048" lon="128.495425"><ele>506.6</ele></trkpt>
      <trkpt lat="38.155931" lon="128.495427"><ele>512.6</ele></trkpt>
      <trkpt lat="38.155731" lon="128.495606"><ele>518.1</ele></trkpt>
      <trkpt lat="38.155585" lon="128.495493"><ele>525.7</ele></trkpt>
      <trkpt lat="38.155288" lon="128.495447"><ele>543.3</ele></trkpt>
      <trkpt lat="38.155083" lon="128.495300"><ele>554.4</ele></trkpt>
      <trkpt lat="38.155098" lon="128.495163"><ele>560.2</ele></trkpt>
      <trkpt lat="38.154980" lon="128.495201"><ele>564.6</ele></trkpt>
      <trkpt lat="38.155064" lon="128.495010"><ele>570.8</ele></trkpt>
      <trkpt lat="38.154946" lon="128.494935"><ele>595.4</ele></trkpt>
      <trkpt lat="38.154837" lon="128.495005"><ele>604.7</ele></trkpt>
      <trkpt lat="38.154721" lon="128.494841"><ele>641.9</ele></trkpt>
      <trkpt lat="38.154676" lon="128.494643"><ele>672.9</ele></trkpt>
      <trkpt lat="38.154767" lon="128.494610"><ele>661.9</ele></trkpt>
      <trkpt lat="38.155020" lon="128.494664"><ele>624.4</ele></trkpt>
      <trkpt lat="38.155098" lon="128.494779"><ele>599.9</ele></trkpt>
      <trkpt lat="38.155332" lon="128.494796"><ele>572.4</ele></trkpt>
      <trkpt lat="38.155471" lon="128.494702"><ele>568.4</ele></trkpt>
      <trkpt lat="38.154897" lon="128.493986"><ele>684.0</ele></trkpt>
      <trkpt lat="38.154792" lon="128.494057"><ele>698.5</ele></trkpt>
      <trkpt lat="38.154725" lon="128.494007"><ele>708.4</ele></trkpt>
      <trkpt lat="38.154749" lon="128.493688"><ele>719.6</ele></trkpt>
      <trkpt lat="38.154094" lon="128.493201"><ele>794.3</ele></trkpt>
      <trkpt lat="38.153906" lon="128.492988"><ele>827.4</ele></trkpt>
      <trkpt lat="38.153748" lon="128.492923"><ele>848.8</ele></trkpt>
      <trkpt lat="38.153602" lon="128.493055"><ele>857.3</ele></trkpt>
      <trkpt lat="38.153476" lon="128.493040"><ele>875.1</ele></trkpt>
      <trkpt lat="38.153400" lon="128.492899"><ele>890.6</ele></trkpt>
      <trkpt lat="38.153294" lon="128.493047"><ele>896.2</ele></trkpt>
      <trkpt lat="38.153261" lon="128.493146"><ele>894.5</ele></trkpt>
      <trkpt lat="38.153284" lon="128.493224"><ele>890.5</ele></trkpt>
      <trkpt lat="38.153216" lon="128.493262"><ele>892.8</ele></trkpt>
      <trkpt lat="38.153109" lon="128.493133"><ele>902.7</ele></trkpt>
      <trkpt lat="38.152997" lon="128.492408"><ele>925.4</ele></trkpt>
      <trkpt lat="38.153196" lon="128.491759"><ele>941.3</ele></trkpt>
      <trkpt lat="38.153141" lon="128.491638"><ele>947.0</ele></trkpt>
      <trkpt lat="38.152828" lon="128.491391"><ele>949.8</ele></trkpt>
      <trkpt lat="38.152590" lon="128.491126"><ele>950.0</ele></trkpt>
      <trkpt lat="38.152546" lon="128.490984"><ele>955.2</ele></trkpt>
      <trkpt lat="38.152556" lon="128.490765"><ele>965.4</ele></trkpt>
      <trkpt lat="38.152675" lon="128.490491"><ele>979.8</ele></trkpt>
      <trkpt lat="38.152910" lon="128.490323"><ele>987.9</ele></trkpt>
      <trkpt lat="38.152954" lon="128.489606"><ele>1021.8</ele></trkpt>
      <trkpt lat="38.152657" lon="128.489194"><ele>1033.6</ele></trkpt>
      <trkpt lat="38.152240" lon="128.488930"><ele>1035.2</ele></trkpt>
      <trkpt lat="38.152213" lon="128.488814"><ele>1032.2</ele></trkpt>
      <trkpt lat="38.152023" lon="128.488758"><ele>1028.8</ele></trkpt>
      <trkpt lat="38.151902" lon="128.488634"><ele>1026.2</ele></trkpt>
      <trkpt lat="38.151583" lon="128.488559"><ele>1030.5</ele></trkpt>
      <trkpt lat="38.151431" lon="128.488421"><ele>1030.7</ele></trkpt>
      <trkpt lat="38.150987" lon="128.488359"><ele>1041.1</ele></trkpt>
      <trkpt lat="38.150709" lon="128.488407"><ele>1049.0</ele></trkpt>
      <trkpt lat="38.150563" lon="128.488179"><ele>1044.7</ele></trkpt>
      <trkpt lat="38.150062" lon="128.487851"><ele>1060.2</ele></trkpt>
      <trkpt lat="38.149813" lon="128.487876"><ele>1068.1</ele></trkpt>
      <trkpt lat="38.149707" lon="128.488015"><ele>1075.5</ele></trkpt>
      <trkpt lat="38.149270" lon="128.488243"><ele>1072.8</ele></trkpt>
      <trkpt lat="38.149235" lon="128.488345"><ele>1073.6</ele></trkpt>
      <trkpt lat="38.148608" lon="128.488654"><ele>1069.1</ele></trkpt>
      <trkpt lat="38.148429" lon="128.488876"><ele>1068.6</ele></trkpt>
      <trkpt lat="38.147996" lon="128.489176"><ele>1067.1</ele></trkpt>
      <trkpt lat="38.147914" lon="128.489192"><ele>1065.9</ele></trkpt>
      <trkpt lat="38.147683" lon="128.489101"><ele>1063.6</ele></trkpt>
      <trkpt lat="38.147372" lon="128.489096"><ele>1068.6</ele></trkpt>
      <trkpt lat="38.147045" lon="128.489327"><ele>1079.6</ele></trkpt>
      <trkpt lat="38.146640" lon="128.489450"><ele>1083.4</ele></trkpt>
      <trkpt lat="38.146330" lon="128.489286"><ele>1087.1</ele></trkpt>
      <trkpt lat="38.146235" lon="128.489340"><ele>1090.2</ele></trkpt>
      <trkpt lat="38.145562" lon="128.489214"><ele>1106.7</ele></trkpt>
      <trkpt lat="38.145420" lon="128.489312"><ele>1105.8</ele></trkpt>
      <trkpt lat="38.145218" lon="128.489343"><ele>1103.6</ele></trkpt>
      <trkpt lat="38.144793" lon="128.490021"><ele>1118.6</ele></trkpt>
      <trkpt lat="38.144718" lon="128.490433"><ele>1131.9</ele></trkpt>
      <trkpt lat="38.144575" lon="128.490528"><ele>1133.6</ele></trkpt>
      <trkpt lat="38.144524" lon="128.490645"><ele>1136.4</ele></trkpt>
      <trkpt lat="38.144400" lon="128.490639"><ele>1136.6</ele></trkpt>
      <trkpt lat="38.144337" lon="128.490784"><ele>1141.0</ele></trkpt>
      <trkpt lat="38.144120" lon="128.490972"><ele>1144.8</ele></trkpt>
      <trkpt lat="38.143828" lon="128.491046"><ele>1146.8</ele></trkpt>
      <trkpt lat="38.143532" lon="128.491333"><ele>1156.2</ele></trkpt>
      <trkpt lat="38.143386" lon="128.491387"><ele>1160.0</ele></trkpt>
      <trkpt lat="38.143268" lon="128.491366"><ele>1161.9</ele></trkpt>
      <trkpt lat="38.143107" lon="128.491529"><ele>1170.5</ele></trkpt>
      <trkpt lat="38.142963" lon="128.491525"><ele>1177.7</ele></trkpt>
      <trkpt lat="38.142908" lon="128.491607"><ele>1184.3</ele></trkpt>
      <trkpt lat="38.142834" lon="128.491620"><ele>1189.6</ele></trkpt>
      <trkpt lat="38.142741" lon="128.491869"><ele>1203.4</ele></trkpt>
      <trkpt lat="38.142565" lon="128.491849"><ele>1211.7</ele></trkpt>
      <trkpt lat="38.142254" lon="128.491559"><ele>1217.8</ele></trkpt>
      <trkpt lat="38.141984" lon="128.491571"><ele>1219.0</ele></trkpt>
      <trkpt lat="38.141918" lon="128.491455"><ele>1217.6</ele></trkpt>
      <trkpt lat="38.141640" lon="128.491454"><ele>1217.0</ele></trkpt>
      <trkpt lat="38.141434" lon="128.491290"><ele>1217.5</ele></trkpt>
      <trkpt lat="38.141305" lon="128.491273"><ele>1218.1</ele></trkpt>
      <trkpt lat="38.141203" lon="128.491108"><ele>1218.0</ele></trkpt>
      <trkpt lat="38.140777" lon="128.490928"><ele>1221.0</ele></trkpt>
      <trkpt lat="38.140961" lon="128.490268"><ele>1195.6</ele></trkpt>
      <trkpt lat="38.140810" lon="128.490096"><ele>1188.5</ele></trkpt>
      <trkpt lat="38.140877" lon="128.489699"><ele>1161.8</ele></trkpt>
      <trkpt lat="38.140590" lon="128.489302"><ele>1144.7</ele></trkpt>
      <trkpt lat="38.140362" lon="128.488691"><ele>1115.0</ele></trkpt>
      <trkpt lat="38.140210" lon="128.487264"><ele>1067.4</ele></trkpt>
      <trkpt lat="38.140244" lon="128.486760"><ele>1050.7</ele></trkpt>
      <trkpt lat="38.140379" lon="128.486545"><ele>1042.5</ele></trkpt>
      <trkpt lat="38.140658" lon="128.486373"><ele>1031.8</ele></trkpt>
      <trkpt lat="38.140784" lon="128.486234"><ele>1024.0</ele></trkpt>
      <trkpt lat="38.140776" lon="128.485998"><ele>1014.4</ele></trkpt>
      <trkpt lat="38.140666" lon="128.485580"><ele>989.1</ele></trkpt>
      <trkpt lat="38.140810" lon="128.485118"><ele>960.9</ele></trkpt>
      <trkpt lat="38.141645" lon="128.483992"><ele>909.4</ele></trkpt>
      <trkpt lat="38.141603" lon="128.483176"><ele>878.9</ele></trkpt>
      <trkpt lat="38.141434" lon="128.482972"><ele>868.7</ele></trkpt>
      <trkpt lat="38.141232" lon="128.482833"><ele>860.9</ele></trkpt>
      <trkpt lat="38.141181" lon="128.482661"><ele>854.6</ele></trkpt>
      <trkpt lat="38.141333" lon="128.482329"><ele>840.8</ele></trkpt>
      <trkpt lat="38.141282" lon="128.482157"><ele>839.1</ele></trkpt>
      <trkpt lat="38.141405" lon="128.481624"><ele>832.4</ele></trkpt>
      <trkpt lat="38.141255" lon="128.481578"><ele>843.0</ele></trkpt>
      <trkpt lat="38.141195" lon="128.481694"><ele>845.5</ele></trkpt>
      <trkpt lat="38.141092" lon="128.481755"><ele>853.0</ele></trkpt>
      <trkpt lat="38.141122" lon="128.481865"><ele>851.5</ele></trkpt>
      <trkpt lat="38.141074" lon="128.482043"><ele>854.5</ele></trkpt>
      <trkpt lat="38.141137" lon="128.482110"><ele>849.8</ele></trkpt>
      <trkpt lat="38.141076" lon="128.482204"><ele>853.6</ele></trkpt>
      <trkpt lat="38.140954" lon="128.482177"><ele>862.1</ele></trkpt>
      <trkpt lat="38.140778" lon="128.482231"><ele>869.5</ele></trkpt>
      <trkpt lat="38.140668" lon="128.482331"><ele>867.1</ele></trkpt>
      <trkpt lat="38.140553" lon="128.482334"><ele>865.2</ele></trkpt>
      <trkpt lat="38.140215" lon="128.482661"><ele>881.7</ele></trkpt>
      <trkpt lat="38.140075" lon="128.482722"><ele>888.5</ele></trkpt>
      <trkpt lat="38.139910" lon="128.482959"><ele>899.2</ele></trkpt>
      <trkpt lat="38.139347" lon="128.483114"><ele>929.3</ele></trkpt>
      <trkpt lat="38.139160" lon="128.483044"><ele>946.4</ele></trkpt>
      <trkpt lat="38.138809" lon="128.483014"><ele>979.1</ele></trkpt>
      <trkpt lat="38.138720" lon="128.482856"><ele>983.7</ele></trkpt>
      <trkpt lat="38.138739" lon="128.482761"><ele>983.5</ele></trkpt>
      <trkpt lat="38.138596" lon="128.482781"><ele>989.5</ele></trkpt>
      <trkpt lat="38.138324" lon="128.482662"><ele>1001.7</ele></trkpt>
      <trkpt lat="38.138259" lon="128.482542"><ele>1007.6</ele></trkpt>
      <trkpt lat="38.138244" lon="128.482332"><ele>1012.4</ele></trkpt>
      <trkpt lat="38.138143" lon="128.482177"><ele>1020.5</ele></trkpt>
      <trkpt lat="38.138045" lon="128.482125"><ele>1025.8</ele></trkpt>
      <trkpt lat="38.138073" lon="128.481842"><ele>1024.6</ele></trkpt>
      <trkpt lat="38.138335" lon="128.481339"><ele>1007.0</ele></trkpt>
      <trkpt lat="38.138699" lon="128.481017"><ele>994.5</ele></trkpt>
      <trkpt lat="38.139067" lon="128.480559"><ele>987.7</ele></trkpt>
      <trkpt lat="38.139351" lon="128.480542"><ele>985.1</ele></trkpt>
      <trkpt lat="38.139567" lon="128.480459"><ele>983.7</ele></trkpt>
      <trkpt lat="38.140103" lon="128.479975"><ele>974.2</ele></trkpt>
      <trkpt lat="38.140059" lon="128.479861"><ele>973.9</ele></trkpt>
      <trkpt lat="38.140110" lon="128.479358"><ele>968.6</ele></trkpt>
      <trkpt lat="38.139996" lon="128.479287"><ele>965.7</ele></trkpt>
      <trkpt lat="38.139785" lon="128.479429"><ele>964.6</ele></trkpt>
      <trkpt lat="38.139641" lon="128.479320"><ele>958.4</ele></trkpt>
      <trkpt lat="38.139235" lon="128.478786"><ele>920.3</ele></trkpt>
      <trkpt lat="38.139165" lon="128.478668"><ele>914.0</ele></trkpt>
      <trkpt lat="38.139163" lon="128.478547"><ele>906.3</ele></trkpt>
      <trkpt lat="38.139260" lon="128.478187"><ele>877.7</ele></trkpt>
      <trkpt lat="38.139249" lon="128.477726"><ele>849.4</ele></trkpt>
      <trkpt lat="38.139395" lon="128.477505"><ele>846.1</ele></trkpt>
      <trkpt lat="38.139418" lon="128.477033"><ele>831.5</ele></trkpt>
      <trkpt lat="38.139715" lon="128.476422"><ele>792.0</ele></trkpt>
      <trkpt lat="38.139836" lon="128.476068"><ele>765.6</ele></trkpt>
      <trkpt lat="38.140045" lon="128.474840"><ele>706.2</ele></trkpt>
      <trkpt lat="38.139799" lon="128.474455"><ele>701.4</ele></trkpt>
      <trkpt lat="38.139624" lon="128.474711"><ele>719.2</ele></trkpt>
      <trkpt lat="38.139577" lon="128.474869"><ele>720.1</ele></trkpt>
      <trkpt lat="38.138723" lon="128.474856"><ele>752.1</ele></trkpt>
      <trkpt lat="38.138718" lon="128.474634"><ele>761.9</ele></trkpt>
      <trkpt lat="38.138281" lon="128.474694"><ele>757.1</ele></trkpt>
      <trkpt lat="38.138044" lon="128.474487"><ele>759.7</ele></trkpt>
      <trkpt lat="38.137901" lon="128.474157"><ele>766.7</ele></trkpt>
      <trkpt lat="38.137820" lon="128.474089"><ele>768.9</ele></trkpt>
      <trkpt lat="38.137527" lon="128.473935"><ele>763.8</ele></trkpt>
      <trkpt lat="38.137215" lon="128.473917"><ele>761.5</ele></trkpt>
      <trkpt lat="38.136628" lon="128.473726"><ele>772.9</ele></trkpt>
      <trkpt lat="38.136129" lon="128.473374"><ele>785.9</ele></trkpt>
      <trkpt lat="38.135763" lon="128.473239"><ele>795.2</ele></trkpt>
      <trkpt lat="38.135489" lon="128.472914"><ele>809.5</ele></trkpt>
      <trkpt lat="38.134803" lon="128.472528"><ele>815.9</ele></trkpt>
      <trkpt lat="38.134607" lon="128.471978"><ele>825.8</ele></trkpt>
      <trkpt lat="38.134420" lon="128.471717"><ele>828.3</ele></trkpt>
      <trkpt lat="38.134407" lon="128.471348"><ele>837.8</ele></trkpt>
      <trkpt lat="38.134303" lon="128.471136"><ele>841.1</ele></trkpt>
      <trkpt lat="38.133898" lon="128.470758"><ele>851.9</ele></trkpt>
      <trkpt lat="38.133747" lon="128.470394"><ele>858.6</ele></trkpt>
      <trkpt lat="38.133714" lon="128.470135"><ele>861.6</ele></trkpt>
      <trkpt lat="38.133620" lon="128.469914"><ele>864.4</ele></trkpt>
      <trkpt lat="38.133708" lon="128.469748"><ele>870.8</ele></trkpt>
      <trkpt lat="38.133739" lon="128.469481"><ele>877.8</ele></trkpt>
      <trkpt lat="38.133977" lon="128.468808"><ele>890.6</ele></trkpt>
      <trkpt lat="38.134043" lon="128.468338"><ele>897.0</ele></trkpt>
      <trkpt lat="38.134097" lon="128.468293"><ele>900.5</ele></trkpt>
      <trkpt lat="38.134103" lon="128.468051"><ele>908.6</ele></trkpt>
      <trkpt lat="38.134173" lon="128.467944"><ele>914.9</ele></trkpt>
      <trkpt lat="38.134119" lon="128.467598"><ele>922.2</ele></trkpt>
      <trkpt lat="38.134378" lon="128.467333"><ele>946.6</ele></trkpt>
      <trkpt lat="38.134534" lon="128.467076"><ele>964.8</ele></trkpt>
      <trkpt lat="38.134519" lon="128.466732"><ele>975.9</ele></trkpt>
      <trkpt lat="38.134572" lon="128.466541"><ele>987.4</ele></trkpt>
      <trkpt lat="38.134630" lon="128.466481"><ele>992.5</ele></trkpt>
      <trkpt lat="38.134681" lon="128.466149"><ele>1007.9</ele></trkpt>
      <trkpt lat="38.134794" lon="128.465942"><ele>1019.6</ele></trkpt>
      <trkpt lat="38.134786" lon="128.465803"><ele>1024.5</ele></trkpt>
      <trkpt lat="38.135001" lon="128.465346"><ele>1045.3</ele></trkpt>
      <trkpt lat="38.134964" lon="128.464917"><ele>1059.9</ele></trkpt>
      <trkpt lat="38.135044" lon="128.464644"><ele>1067.0</ele></trkpt>
      <trkpt lat="38.134972" lon="128.464474"><ele>1066.4</ele></trkpt>
      <trkpt lat="38.134828" lon="128.464404"><ele>1064.1</ele></trkpt>
      <trkpt lat="38.134479" lon="128.464406"><ele>1061.1</ele></trkpt>
      <trkpt lat="38.134210" lon="128.464530"><ele>1062.7</ele></trkpt>
      <trkpt lat="38.133352" lon="128.464640"><ele>1064.4</ele></trkpt>
      <trkpt lat="38.133202" lon="128.464731"><ele>1067.0</ele></trkpt>
      <trkpt lat="38.132994" lon="128.464606"><ele>1068.0</ele></trkpt>
      <trkpt lat="38.132700" lon="128.464700"><ele>1071.8</ele></trkpt>
      <trkpt lat="38.132649" lon="128.464410"><ele>1072.8</ele></trkpt>
      <trkpt lat="38.132378" lon="128.464039"><ele>1091.4</ele></trkpt>
      <trkpt lat="38.132295" lon="128.463701"><ele>1109.9</ele></trkpt>
      <trkpt lat="38.132278" lon="128.463365"><ele>1126.5</ele></trkpt>
      <trkpt lat="38.132176" lon="128.463189"><ele>1135.7</ele></trkpt>
      <trkpt lat="38.132015" lon="128.463141"><ele>1141.3</ele></trkpt>
      <trkpt lat="38.131806" lon="128.462972"><ele>1151.4</ele></trkpt>
      <trkpt lat="38.131739" lon="128.462858"><ele>1158.0</ele></trkpt>
      <trkpt lat="38.131676" lon="128.462592"><ele>1169.8</ele></trkpt>
      <trkpt lat="38.131434" lon="128.462265"><ele>1183.0</ele></trkpt>
      <trkpt lat="38.131438" lon="128.461933"><ele>1189.7</ele></trkpt>
      <trkpt lat="38.131085" lon="128.461751"><ele>1206.7</ele></trkpt>
      <trkpt lat="38.130975" lon="128.461617"><ele>1212.2</ele></trkpt>
      <trkpt lat="38.130764" lon="128.461485"><ele>1220.6</ele></trkpt>
      <trkpt lat="38.130516" lon="128.461512"><ele>1227.8</ele></trkpt>
      <trkpt lat="38.130060" lon="128.461389"><ele>1242.0</ele></trkpt>
      <trkpt lat="38.129916" lon="128.461260"><ele>1249.7</ele></trkpt>
      <trkpt lat="38.129699" lon="128.460925"><ele>1264.9</ele></trkpt>
      <trkpt lat="38.129625" lon="128.460872"><ele>1269.3</ele></trkpt>
      <trkpt lat="38.129351" lon="128.460844"><ele>1283.4</ele></trkpt>
      <trkpt lat="38.129084" lon="128.460495"><ele>1302.7</ele></trkpt>
      <trkpt lat="38.129033" lon="128.460300"><ele>1307.8</ele></trkpt>
      <trkpt lat="38.128710" lon="128.460043"><ele>1327.8</ele></trkpt>
      <trkpt lat="38.128159" lon="128.459745"><ele>1355.3</ele></trkpt>
      <trkpt lat="38.127941" lon="128.459398"><ele>1373.6</ele></trkpt>
      <trkpt lat="38.127874" lon="128.459199"><ele>1381.8</ele></trkpt>
      <trkpt lat="38.127692" lon="128.459045"><ele>1395.7</ele></trkpt>
      <trkpt lat="38.127528" lon="128.458778"><ele>1416.0</ele></trkpt>
      <trkpt lat="38.127283" lon="128.458585"><ele>1434.1</ele></trkpt>
      <trkpt lat="38.127145" lon="128.458576"><ele>1439.1</ele></trkpt>
      <trkpt lat="38.126990" lon="128.458429"><ele>1448.8</ele></trkpt>
      <trkpt lat="38.126792" lon="128.458126"><ele>1465.9</ele></trkpt>
      <trkpt lat="38.126573" lon="128.457947"><ele>1481.7</ele></trkpt>
      <trkpt lat="38.126451" lon="128.457589"><ele>1498.4</ele></trkpt>
      <trkpt lat="38.126361" lon="128.457535"><ele>1504.3</ele></trkpt>
      <trkpt lat="38.126230" lon="128.457295"><ele>1519.9</ele></trkpt>
      <trkpt lat="38.125541" lon="128.456712"><ele>1558.9</ele></trkpt>
      <trkpt lat="38.124925" lon="128.456553"><ele>1565.4</ele></trkpt>
      <trkpt lat="38.124628" lon="128.456742"><ele>1565.5</ele></trkpt>
      <trkpt lat="38.124095" lon="128.456956"><ele>1577.0</ele></trkpt>
      <trkpt lat="38.123879" lon="128.457145"><ele>1577.0</ele></trkpt>
      <trkpt lat="38.123595" lon="128.457282"><ele>1590.3</ele></trkpt>
      <trkpt lat="38.123480" lon="128.457257"><ele>1595.7</ele></trkpt>
      <trkpt lat="38.123332" lon="128.457377"><ele>1603.7</ele></trkpt>
      <trkpt lat="38.123237" lon="128.457360"><ele>1605.0</ele></trkpt>
      <trkpt lat="38.123163" lon="128.457446"><ele>1608.1</ele></trkpt>
      <trkpt lat="38.123001" lon="128.457480"><ele>1612.8</ele></trkpt>
      <trkpt lat="38.122923" lon="128.457572"><ele>1615.2</ele></trkpt>
      <trkpt lat="38.122742" lon="128.457614"><ele>1620.2</ele></trkpt>
      <trkpt lat="38.122728" lon="128.457682"><ele>1620.9</ele></trkpt>
      <trkpt lat="38.122279" lon="128.458124"><ele>1635.0</ele></trkpt>
      <trkpt lat="38.121955" lon="128.458613"><ele>1635.3</ele></trkpt>
      <trkpt lat="38.121840" lon="128.458982"><ele>1620.9</ele></trkpt>
      <trkpt lat="38.121732" lon="128.459154"><ele>1615.5</ele></trkpt>
      <trkpt lat="38.121405" lon="128.459484"><ele>1608.0</ele></trkpt>
      <trkpt lat="38.121365" lon="128.460180"><ele>1595.5</ele></trkpt>
      <trkpt lat="38.121230" lon="128.460772"><ele>1589.9</ele></trkpt>
      <trkpt lat="38.120861" lon="128.461743"><ele>1600.5</ele></trkpt>
      <trkpt lat="38.120604" lon="128.462226"><ele>1603.8</ele></trkpt>
      <trkpt lat="38.120481" lon="128.462322"><ele>1606.5</ele></trkpt>
      <trkpt lat="38.120415" lon="128.462673"><ele>1611.1</ele></trkpt>
      <trkpt lat="38.120266" lon="128.462999"><ele>1620.6</ele></trkpt>
      <trkpt lat="38.119929" lon="128.463179"><ele>1635.8</ele></trkpt>
      <trkpt lat="38.119829" lon="128.463288"><ele>1640.8</ele></trkpt>
      <trkpt lat="38.119800" lon="128.463471"><ele>1645.9</ele></trkpt>
      <trkpt lat="38.119841" lon="128.463763"><ele>1649.3</ele></trkpt>
      <trkpt lat="38.119638" lon="128.463952"><ele>1659.7</ele></trkpt>
      <trkpt lat="38.119588" lon="128.464187"><ele>1665.5</ele></trkpt>
      <trkpt lat="38.119443" lon="128.464329"><ele>1673.9</ele></trkpt>
      <trkpt lat="38.119530" lon="128.464484"><ele>1675.6</ele></trkpt>
      <trkpt lat="38.119503" lon="128.464827"><ele>1685.2</ele></trkpt>
      <trkpt lat="38.119304" lon="128.465217"><ele>1697.5</ele></trkpt>
    </trkseg>
  </trk>
</gpx>
