<?xml version="1.0" encoding="UTF-8"?>
<gpx version="1.1" creator="kr-100-mountains route-harvester"
     xmlns="http://www.topografix.com/GPX/1/1"
     xmlns:k100="https://github.com/jay-jang/kr-100-mountains/ns/1"
     xmlns:xsi="http://www.w3.org/2001/XMLSchema-instance"
     xsi:schemaLocation="http://www.topografix.com/GPX/1/1 http://www.topografix.com/GPX/1/1/gpx.xsd">
  <metadata>
    <name>설악산 · 한계령-대청봉 코스 (OSM 계산 경로)</name>
    <desc>실제 GPS 기록이 아닙니다. OpenStreetMap에 등록된 등산로 선형 위에서 계산한 경로이며, 현장 통제·훼손·출입 제한·계절 통제를 반영하지 않을 수 있습니다. 산행 전 공식 안내를 확인하세요.</desc>
    <time>2026-08-04T05:19:38.082Z</time>
    <link href="https://www.openstreetmap.org/copyright"><text>© OpenStreetMap contributors (ODbL 1.0)</text></link>
    <link href="https://registry.opendata.aws/terrain-tiles/"><text>Elevation: SRTM 1 arc-second (NASA/USGS) via AWS Terrain Tiles</text></link>
    <extensions>
      <k100:provenance>osm-routed</k100:provenance>
      <k100:not_a_recorded_track>true</k100:not_a_recorded_track>
      <k100:mountain_id>seolaksan</k100:mountain_id>
      <k100:mountain_name>설악산</k100:mountain_name>
      <k100:route_id>seolaksan-9be3b586</k100:route_id>
      <k100:route_index>3</k100:route_index>
      <k100:route_name>한계령-대청봉 코스</k100:route_name>
      <k100:variant>0</k100:variant>
      <k100:source>OpenStreetMap via Overpass API</k100:source>
      <k100:license>ODbL-1.0</k100:license>
      <k100:attribution>© OpenStreetMap contributors</k100:attribution>
      <k100:elevation_source>SRTM 1 arc-second (NASA/USGS) — AWS Terrain Tiles 배포본. 지형 DEM 추정 고도이며 실측 아님</k100:elevation_source>
      <k100:algorithm>dijkstra-grid-v1</k100:algorithm>
      <k100:osm_snapshot>2026-08-04</k100:osm_snapshot>
      <k100:snap_trailhead_m>201</k100:snap_trailhead_m>
      <k100:snap_summit_m>40</k100:snap_summit_m>
      <k100:validation_score>94</k100:validation_score>
      <k100:validation_status>accepted</k100:validation_status>
    </extensions>
  </metadata>
  <trk>
    <name>설악산 · 한계령-대청봉 코스 (OSM 계산 경로)</name>
    <desc>실제 GPS 기록이 아닙니다. OpenStreetMap에 등록된 등산로 선형 위에서 계산한 경로이며, 현장 통제·훼손·출입 제한·계절 통제를 반영하지 않을 수 있습니다. 산행 전 공식 안내를 확인하세요.</desc>
    <trkseg>
      <trkpt lat="38.100098" lon="128.394218"><ele>817.5</ele></trkpt>
      <trkpt lat="38.100053" lon="128.394356"><ele>817.5</ele></trkpt>
      <trkpt lat="38.099967" lon="128.394416"><ele>815.8</ele></trkpt>
      <trkpt lat="38.099624" lon="128.394342"><ele>806.8</ele></trkpt>
      <trkpt lat="38.099501" lon="128.394479"><ele>805.7</ele></trkpt>
      <trkpt lat="38.099416" lon="128.395237"><ele>818.5</ele></trkpt>
      <trkpt lat="38.099295" lon="128.395634"><ele>821.4</ele></trkpt>
      <trkpt lat="38.099004" lon="128.396249"><ele>823.1</ele></trkpt>
      <trkpt lat="38.098869" lon="128.397101"><ele>831.4</ele></trkpt>
      <trkpt lat="38.099202" lon="128.399461"><ele>853.1</ele></trkpt>
      <trkpt lat="38.099433" lon="128.400277"><ele>861.7</ele></trkpt>
      <trkpt lat="38.099448" lon="128.400919"><ele>862.4</ele></trkpt>
      <trkpt lat="38.099494" lon="128.401051"><ele>864.1</ele></trkpt>
      <trkpt lat="38.100020" lon="128.401807"><ele>878.9</ele></trkpt>
      <trkpt lat="38.100071" lon="128.401908"><ele>881.0</ele></trkpt>
      <trkpt lat="38.100066" lon="128.402079"><ele>880.5</ele></trkpt>
      <trkpt lat="38.100318" lon="128.402047"><ele>890.0</ele></trkpt>
      <trkpt lat="38.100424" lon="128.402246"><ele>892.8</ele></trkpt>
      <trkpt lat="38.100531" lon="128.402241"><ele>898.6</ele></trkpt>
      <trkpt lat="38.100555" lon="128.402399"><ele>898.7</ele></trkpt>
      <trkpt lat="38.100692" lon="128.402420"><ele>904.6</ele></trkpt>
      <trkpt lat="38.100800" lon="128.402568"><ele>908.6</ele></trkpt>
      <trkpt lat="38.100937" lon="128.402608"><ele>912.1</ele></trkpt>
      <trkpt lat="38.100975" lon="128.402734"><ele>912.6</ele></trkpt>
      <trkpt lat="38.101127" lon="128.402806"><ele>915.6</ele></trkpt>
      <trkpt lat="38.101187" lon="128.403016"><ele>917.6</ele></trkpt>
      <trkpt lat="38.101272" lon="128.403010"><ele>919.6</ele></trkpt>
      <trkpt lat="38.101326" lon="128.402919"><ele>921.3</ele></trkpt>
      <trkpt lat="38.101557" lon="128.403091"><ele>927.4</ele></trkpt>
      <trkpt lat="38.101658" lon="128.403088"><ele>930.6</ele></trkpt>
      <trkpt lat="38.101973" lon="128.403515"><ele>935.9</ele></trkpt>
      <trkpt lat="38.102070" lon="128.403509"><ele>936.5</ele></trkpt>
      <trkpt lat="38.102222" lon="128.403601"><ele>938.0</ele></trkpt>
      <trkpt lat="38.102289" lon="128.403566"><ele>939.4</ele></trkpt>
      <trkpt lat="38.102469" lon="128.403611"><ele>943.3</ele></trkpt>
      <trkpt lat="38.102851" lon="128.403491"><ele>955.0</ele></trkpt>
      <trkpt lat="38.103090" lon="128.403228"><ele>959.4</ele></trkpt>
      <trkpt lat="38.103195" lon="128.403233"><ele>961.4</ele></trkpt>
      <trkpt lat="38.103394" lon="128.403378"><ele>964.9</ele></trkpt>
      <trkpt lat="38.103672" lon="128.403713"><ele>977.9</ele></trkpt>
      <trkpt lat="38.103752" lon="128.403944"><ele>979.3</ele></trkpt>
      <trkpt lat="38.104331" lon="128.404019"><ele>989.2</ele></trkpt>
      <trkpt lat="38.104808" lon="128.404272"><ele>997.2</ele></trkpt>
      <trkpt lat="38.105001" lon="128.404246"><ele>1001.4</ele></trkpt>
      <trkpt lat="38.105152" lon="128.404292"><ele>1004.1</ele></trkpt>
      <trkpt lat="38.105314" lon="128.404201"><ele>1003.9</ele></trkpt>
      <trkpt lat="38.105451" lon="128.404078"><ele>1005.1</ele></trkpt>
      <trkpt lat="38.105553" lon="128.403748"><ele>1011.1</ele></trkpt>
      <trkpt lat="38.105873" lon="128.403718"><ele>1018.0</ele></trkpt>
      <trkpt lat="38.106296" lon="128.403244"><ele>1036.7</ele></trkpt>
      <trkpt lat="38.106813" lon="128.402949"><ele>1049.4</ele></trkpt>
      <trkpt lat="38.106963" lon="128.403016"><ele>1048.1</ele></trkpt>
      <trkpt lat="38.106969" lon="128.403203"><ele>1048.0</ele></trkpt>
      <trkpt lat="38.107490" lon="128.403292"><ele>1065.4</ele></trkpt>
      <trkpt lat="38.107629" lon="128.403279"><ele>1070.2</ele></trkpt>
      <trkpt lat="38.107897" lon="128.403021"><ele>1076.6</ele></trkpt>
      <trkpt lat="38.108087" lon="128.403072"><ele>1082.7</ele></trkpt>
      <trkpt lat="38.108218" lon="128.403220"><ele>1089.3</ele></trkpt>
      <trkpt lat="38.108374" lon="128.403230"><ele>1096.5</ele></trkpt>
      <trkpt lat="38.108400" lon="128.403394"><ele>1098.4</ele></trkpt>
      <trkpt lat="38.108604" lon="128.403509"><ele>1104.0</ele></trkpt>
      <trkpt lat="38.108695" lon="128.403724"><ele>1108.4</ele></trkpt>
      <trkpt lat="38.108818" lon="128.403780"><ele>1111.9</ele></trkpt>
      <trkpt lat="38.109198" lon="128.403772"><ele>1121.9</ele></trkpt>
      <trkpt lat="38.109347" lon="128.403702"><ele>1125.7</ele></trkpt>
      <trkpt lat="38.109406" lon="128.403844"><ele>1125.0</ele></trkpt>
      <trkpt lat="38.109571" lon="128.403954"><ele>1132.7</ele></trkpt>
      <trkpt lat="38.109674" lon="128.404169"><ele>1139.2</ele></trkpt>
      <trkpt lat="38.109634" lon="128.404520"><ele>1144.7</ele></trkpt>
      <trkpt lat="38.109685" lon="128.404695"><ele>1148.3</ele></trkpt>
      <trkpt lat="38.109795" lon="128.404706"><ele>1149.8</ele></trkpt>
      <trkpt lat="38.109938" lon="128.404987"><ele>1161.9</ele></trkpt>
      <trkpt lat="38.110029" lon="128.405057"><ele>1168.0</ele></trkpt>
      <trkpt lat="38.110063" lon="128.405215"><ele>1175.7</ele></trkpt>
      <trkpt lat="38.110016" lon="128.405422"><ele>1179.3</ele></trkpt>
      <trkpt lat="38.109805" lon="128.405615"><ele>1182.4</ele></trkpt>
      <trkpt lat="38.109835" lon="128.405888"><ele>1187.4</ele></trkpt>
      <trkpt lat="38.109786" lon="128.405961"><ele>1189.3</ele></trkpt>
      <trkpt lat="38.109970" lon="128.406154"><ele>1192.8</ele></trkpt>
      <trkpt lat="38.109896" lon="128.406237"><ele>1196.3</ele></trkpt>
      <trkpt lat="38.109970" lon="128.406385"><ele>1201.1</ele></trkpt>
      <trkpt lat="38.109909" lon="128.406642"><ele>1210.7</ele></trkpt>
      <trkpt lat="38.110324" lon="128.407055"><ele>1223.3</ele></trkpt>
      <trkpt lat="38.110327" lon="128.407305"><ele>1230.1</ele></trkpt>
      <trkpt lat="38.110481" lon="128.407522"><ele>1238.7</ele></trkpt>
      <trkpt lat="38.110474" lon="128.407661"><ele>1245.1</ele></trkpt>
      <trkpt lat="38.110829" lon="128.407940"><ele>1259.9</ele></trkpt>
      <trkpt lat="38.110846" lon="128.408018"><ele>1262.7</ele></trkpt>
      <trkpt lat="38.111363" lon="128.408605"><ele>1286.2</ele></trkpt>
      <trkpt lat="38.111865" lon="128.409394"><ele>1320.8</ele></trkpt>
      <trkpt lat="38.112080" lon="128.409576"><ele>1335.0</ele></trkpt>
      <trkpt lat="38.112341" lon="128.409937"><ele>1347.2</ele></trkpt>
      <trkpt lat="38.112222" lon="128.409968"><ele>1346.3</ele></trkpt>
      <trkpt lat="38.111980" lon="128.410372"><ele>1356.2</ele></trkpt>
      <trkpt lat="38.111812" lon="128.411269"><ele>1360.1</ele></trkpt>
      <trkpt lat="38.111879" lon="128.411406"><ele>1358.0</ele></trkpt>
      <trkpt lat="38.111860" lon="128.411697"><ele>1351.7</ele></trkpt>
      <trkpt lat="38.111632" lon="128.412739"><ele>1346.0</ele></trkpt>
      <trkpt lat="38.111690" lon="128.413055"><ele>1347.6</ele></trkpt>
      <trkpt lat="38.111660" lon="128.413176"><ele>1349.2</ele></trkpt>
      <trkpt lat="38.111711" lon="128.413274"><ele>1349.6</ele></trkpt>
      <trkpt lat="38.111557" lon="128.413578"><ele>1346.4</ele></trkpt>
      <trkpt lat="38.111413" lon="128.414241"><ele>1333.6</ele></trkpt>
      <trkpt lat="38.111084" lon="128.414911"><ele>1332.3</ele></trkpt>
      <trkpt lat="38.111055" lon="128.415818"><ele>1330.3</ele></trkpt>
      <trkpt lat="38.111253" lon="128.416555"><ele>1316.9</ele></trkpt>
      <trkpt lat="38.111278" lon="128.416865"><ele>1316.8</ele></trkpt>
      <trkpt lat="38.111143" lon="128.417371"><ele>1316.4</ele></trkpt>
      <trkpt lat="38.111259" lon="128.417929"><ele>1338.8</ele></trkpt>
      <trkpt lat="38.111396" lon="128.418051"><ele>1345.8</ele></trkpt>
      <trkpt lat="38.111268" lon="128.418264"><ele>1350.0</ele></trkpt>
      <trkpt lat="38.111143" lon="128.418350"><ele>1349.7</ele></trkpt>
      <trkpt lat="38.110934" lon="128.418616"><ele>1357.1</ele></trkpt>
      <trkpt lat="38.110765" lon="128.419088"><ele>1370.7</ele></trkpt>
      <trkpt lat="38.110658" lon="128.419222"><ele>1367.3</ele></trkpt>
      <trkpt lat="38.110657" lon="128.420075"><ele>1386.3</ele></trkpt>
      <trkpt lat="38.110400" lon="128.420976"><ele>1378.9</ele></trkpt>
      <trkpt lat="38.110144" lon="128.421422"><ele>1374.6</ele></trkpt>
      <trkpt lat="38.110185" lon="128.421571"><ele>1378.1</ele></trkpt>
      <trkpt lat="38.110278" lon="128.421657"><ele>1383.9</ele></trkpt>
      <trkpt lat="38.110213" lon="128.422180"><ele>1382.6</ele></trkpt>
      <trkpt lat="38.110221" lon="128.422526"><ele>1381.1</ele></trkpt>
      <trkpt lat="38.110145" lon="128.422810"><ele>1379.2</ele></trkpt>
      <trkpt lat="38.110151" lon="128.423214"><ele>1381.2</ele></trkpt>
      <trkpt lat="38.109987" lon="128.423425"><ele>1382.8</ele></trkpt>
      <trkpt lat="38.109921" lon="128.423680"><ele>1384.5</ele></trkpt>
      <trkpt lat="38.109848" lon="128.424487"><ele>1397.5</ele></trkpt>
      <trkpt lat="38.109881" lon="128.424718"><ele>1404.2</ele></trkpt>
      <trkpt lat="38.109822" lon="128.424986"><ele>1411.4</ele></trkpt>
      <trkpt lat="38.109858" lon="128.425637"><ele>1424.0</ele></trkpt>
      <trkpt lat="38.109983" lon="128.425949"><ele>1430.3</ele></trkpt>
      <trkpt lat="38.109948" lon="128.426033"><ele>1429.8</ele></trkpt>
      <trkpt lat="38.109766" lon="128.426186"><ele>1430.3</ele></trkpt>
      <trkpt lat="38.109681" lon="128.426410"><ele>1433.8</ele></trkpt>
      <trkpt lat="38.109708" lon="128.426619"><ele>1438.1</ele></trkpt>
      <trkpt lat="38.109651" lon="128.426735"><ele>1439.4</ele></trkpt>
      <trkpt lat="38.109442" lon="128.426877"><ele>1441.2</ele></trkpt>
      <trkpt lat="38.109276" lon="128.427359"><ele>1441.3</ele></trkpt>
      <trkpt lat="38.109383" lon="128.428220"><ele>1438.3</ele></trkpt>
      <trkpt lat="38.109504" lon="128.428545"><ele>1441.0</ele></trkpt>
      <trkpt lat="38.109674" lon="128.429629"><ele>1437.9</ele></trkpt>
      <trkpt lat="38.109554" lon="128.429712"><ele>1435.4</ele></trkpt>
      <trkpt lat="38.109685" lon="128.430003"><ele>1433.4</ele></trkpt>
      <trkpt lat="38.109915" lon="128.430154"><ele>1426.6</ele></trkpt>
      <trkpt lat="38.110022" lon="128.430426"><ele>1423.2</ele></trkpt>
      <trkpt lat="38.110236" lon="128.431554"><ele>1418.6</ele></trkpt>
      <trkpt lat="38.110400" lon="128.431877"><ele>1410.3</ele></trkpt>
      <trkpt lat="38.110522" lon="128.432495"><ele>1395.8</ele></trkpt>
      <trkpt lat="38.110449" lon="128.433220"><ele>1394.4</ele></trkpt>
      <trkpt lat="38.110514" lon="128.433743"><ele>1393.1</ele></trkpt>
      <trkpt lat="38.110704" lon="128.434254"><ele>1391.3</ele></trkpt>
      <trkpt lat="38.111720" lon="128.436176"><ele>1423.8</ele></trkpt>
      <trkpt lat="38.111766" lon="128.436323"><ele>1427.2</ele></trkpt>
      <trkpt lat="38.111745" lon="128.436423"><ele>1428.5</ele></trkpt>
      <trkpt lat="38.111974" lon="128.436673"><ele>1436.7</ele></trkpt>
      <trkpt lat="38.111956" lon="128.437131"><ele>1447.2</ele></trkpt>
      <trkpt lat="38.112047" lon="128.437416"><ele>1453.9</ele></trkpt>
      <trkpt lat="38.112420" lon="128.437601"><ele>1461.2</ele></trkpt>
      <trkpt lat="38.113000" lon="128.438108"><ele>1459.2</ele></trkpt>
      <trkpt lat="38.113142" lon="128.438580"><ele>1454.7</ele></trkpt>
      <trkpt lat="38.113419" lon="128.439035"><ele>1451.1</ele></trkpt>
      <trkpt lat="38.113872" lon="128.439584"><ele>1449.3</ele></trkpt>
      <trkpt lat="38.114594" lon="128.440331"><ele>1454.8</ele></trkpt>
      <trkpt lat="38.114952" lon="128.441129"><ele>1455.7</ele></trkpt>
      <trkpt lat="38.115303" lon="128.442494"><ele>1449.9</ele></trkpt>
      <trkpt lat="38.115425" lon="128.443515"><ele>1440.5</ele></trkpt>
      <trkpt lat="38.115985" lon="128.445335"><ele>1459.2</ele></trkpt>
      <trkpt lat="38.116194" lon="128.446691"><ele>1474.1</ele></trkpt>
      <trkpt lat="38.116059" lon="128.447326"><ele>1482.7</ele></trkpt>
      <trkpt lat="38.116181" lon="128.448150"><ele>1494.2</ele></trkpt>
      <trkpt lat="38.116073" lon="128.448811"><ele>1514.3</ele></trkpt>
      <trkpt lat="38.115958" lon="128.449231"><ele>1530.2</ele></trkpt>
      <trkpt lat="38.115756" lon="128.449532"><ele>1541.8</ele></trkpt>
      <trkpt lat="38.115722" lon="128.450219"><ele>1566.2</ele></trkpt>
      <trkpt lat="38.115823" lon="128.450648"><ele>1581.3</ele></trkpt>
      <trkpt lat="38.116552" lon="128.451626"><ele>1589.2</ele></trkpt>
      <trkpt lat="38.116886" lon="128.452357"><ele>1594.7</ele></trkpt>
      <trkpt lat="38.117160" lon="128.453137"><ele>1592.0</ele></trkpt>
      <trkpt lat="38.118143" lon="128.453785"><ele>1583.4</ele></trkpt>
      <trkpt lat="38.118505" lon="128.453885"><ele>1583.1</ele></trkpt>
      <trkpt lat="38.118622" lon="128.454007"><ele>1583.1</ele></trkpt>
      <trkpt lat="38.118702" lon="128.454195"><ele>1585.0</ele></trkpt>
      <trkpt lat="38.118820" lon="128.454246"><ele>1585.4</ele></trkpt>
      <trkpt lat="38.119333" lon="128.454801"><ele>1593.8</ele></trkpt>
      <trkpt lat="38.119511" lon="128.454879"><ele>1597.4</ele></trkpt>
      <trkpt lat="38.119627" lon="128.455072"><ele>1603.2</ele></trkpt>
      <trkpt lat="38.119844" lon="128.455260"><ele>1608.4</ele></trkpt>
      <trkpt lat="38.119941" lon="128.455496"><ele>1610.4</ele></trkpt>
      <trkpt lat="38.120239" lon="128.455901"><ele>1617.6</ele></trkpt>
      <trkpt lat="38.120412" lon="128.456204"><ele>1624.3</ele></trkpt>
      <trkpt lat="38.120473" lon="128.456488"><ele>1628.8</ele></trkpt>
      <trkpt lat="38.120703" lon="128.456802"><ele>1637.6</ele></trkpt>
      <trkpt lat="38.120801" lon="128.457074"><ele>1645.4</ele></trkpt>
      <trkpt lat="38.120772" lon="128.457253"><ele>1647.1</ele></trkpt>
      <trkpt lat="38.120836" lon="128.457485"><ele>1650.9</ele></trkpt>
      <trkpt lat="38.120862" lon="128.458099"><ele>1643.0</ele></trkpt>
      <trkpt lat="38.120989" lon="128.458501"><ele>1631.8</ele></trkpt>
      <trkpt lat="38.121381" lon="128.459240"><ele>1613.4</ele></trkpt>
      <trkpt lat="38.121416" lon="128.459632"><ele>1605.0</ele></trkpt>
      <trkpt lat="38.121365" lon="128.460180"><ele>1595.5</ele></trkpt>
      <trkpt lat="38.121144" lon="128.461042"><ele>1590.7</ele></trkpt>
      <trkpt lat="38.120861" lon="128.461743"><ele>1600.5</ele></trkpt>
      <trkpt lat="38.120604" lon="128.462226"><ele>1603.8</ele></trkpt>
      <trkpt lat="38.120481" lon="128.462322"><ele>1606.5</ele></trkpt>
      <trkpt lat="38.120415" lon="128.462673"><ele>1611.1</ele></trkpt>
      <trkpt lat="38.120266" lon="128.462999"><ele>1620.6</ele></trkpt>
      <trkpt lat="38.119929" lon="128.463179"><ele>1635.8</ele></trkpt>
      <trkpt lat="38.119829" lon="128.463288"><ele>1640.8</ele></trkpt>
      <trkpt lat="38.119800" lon="128.463471"><ele>1645.9</ele></trkpt>
      <trkpt lat="38.119841" lon="128.463763"><ele>1649.3</ele></trkpt>
      <trkpt lat="38.119638" lon="128.463952"><ele>1659.7</ele></trkpt>
      <trkpt lat="38.119588" lon="128.464187"><ele>1665.5</ele></trkpt>
      <trkpt lat="38.119443" lon="128.464329"><ele>1673.9</ele></trkpt>
      <trkpt lat="38.119530" lon="128.464484"><ele>1675.6</ele></trkpt>
      <trkpt lat="38.119503" lon="128.464827"><ele>1685.2</ele></trkpt>
      <trkpt lat="38.119304" lon="128.465217"><ele>1697.5</ele></trkpt>
    </trkseg>
  </trk>
</gpx>
