<?xml version="1.0" encoding="UTF-8"?>
<gpx version="1.1" creator="kr-100-mountains route-harvester"
     xmlns="http://www.topografix.com/GPX/1/1"
     xmlns:k100="https://github.com/jay-jang/kr-100-mountains/ns/1"
     xmlns:xsi="http://www.w3.org/2001/XMLSchema-instance"
     xsi:schemaLocation="http://www.topografix.com/GPX/1/1 http://www.topografix.com/GPX/1/1/gpx.xsd">
  <metadata>
    <name>백암산 · 백양사-백학봉-상왕봉 코스 (OSM 계산 경로)</name>
    <desc>실제 GPS 기록이 아닙니다. OpenStreetMap에 등록된 등산로 선형 위에서 계산한 경로이며, 현장 통제·훼손·출입 제한·계절 통제를 반영하지 않을 수 있습니다. 산행 전 공식 안내를 확인하세요.</desc>
    <time>2026-08-04T05:35:26.570Z</time>
    <link href="https://www.openstreetmap.org/copyright"><text>© OpenStreetMap contributors (ODbL 1.0)</text></link>
    <link href="https://registry.opendata.aws/terrain-tiles/"><text>Elevation: SRTM 1 arc-second (NASA/USGS) via AWS Terrain Tiles</text></link>
    <extensions>
      <k100:provenance>osm-routed</k100:provenance>
      <k100:not_a_recorded_track>true</k100:not_a_recorded_track>
      <k100:mountain_id>baekamsan</k100:mountain_id>
      <k100:mountain_name>백암산</k100:mountain_name>
      <k100:route_id>baekamsan-0eb6ab45</k100:route_id>
      <k100:route_index>1</k100:route_index>
      <k100:route_name>백양사-백학봉-상왕봉 코스</k100:route_name>
      <k100:variant>0</k100:variant>
      <k100:source>OpenStreetMap via Overpass API</k100:source>
      <k100:license>ODbL-1.0</k100:license>
      <k100:attribution>© OpenStreetMap contributors</k100:attribution>
      <k100:elevation_source>SRTM 1 arc-second (NASA/USGS) — AWS Terrain Tiles 배포본. 지형 DEM 추정 고도이며 실측 아님</k100:elevation_source>
      <k100:algorithm>dijkstra-grid-v1</k100:algorithm>
      <k100:osm_snapshot>2026-08-04</k100:osm_snapshot>
      <k100:snap_trailhead_m>327</k100:snap_trailhead_m>
      <k100:snap_summit_m>464</k100:snap_summit_m>
      <k100:validation_score>59</k100:validation_score>
      <k100:validation_status>review</k100:validation_status>
    </extensions>
  </metadata>
  <trk>
    <name>백암산 · 백양사-백학봉-상왕봉 코스 (OSM 계산 경로)</name>
    <desc>실제 GPS 기록이 아닙니다. OpenStreetMap에 등록된 등산로 선형 위에서 계산한 경로이며, 현장 통제·훼손·출입 제한·계절 통제를 반영하지 않을 수 있습니다. 산행 전 공식 안내를 확인하세요.</desc>
    <trkseg>
      <trkpt lat="35.424955" lon="126.868159"><ele>412.6</ele></trkpt>
      <trkpt lat="35.425117" lon="126.867934"><ele>412.8</ele></trkpt>
      <trkpt lat="35.425690" lon="126.867569"><ele>421.3</ele></trkpt>
      <trkpt lat="35.426026" lon="126.867419"><ele>425.0</ele></trkpt>
      <trkpt lat="35.426455" lon="126.867387"><ele>430.7</ele></trkpt>
      <trkpt lat="35.427089" lon="126.866968"><ele>431.6</ele></trkpt>
      <trkpt lat="35.427390" lon="126.866931"><ele>427.6</ele></trkpt>
      <trkpt lat="35.428028" lon="126.867027"><ele>406.5</ele></trkpt>
      <trkpt lat="35.428435" lon="126.866947"><ele>395.1</ele></trkpt>
      <trkpt lat="35.428881" lon="126.866711"><ele>383.4</ele></trkpt>
      <trkpt lat="35.429475" lon="126.866587"><ele>384.0</ele></trkpt>
      <trkpt lat="35.429807" lon="126.866362"><ele>380.0</ele></trkpt>
      <trkpt lat="35.430087" lon="126.866314"><ele>374.5</ele></trkpt>
      <trkpt lat="35.430314" lon="126.866383"><ele>373.9</ele></trkpt>
      <trkpt lat="35.430966" lon="126.866786"><ele>386.5</ele></trkpt>
      <trkpt lat="35.431460" lon="126.866856"><ele>393.3</ele></trkpt>
      <trkpt lat="35.431792" lon="126.866743"><ele>400.7</ele></trkpt>
      <trkpt lat="35.432229" lon="126.866432"><ele>417.3</ele></trkpt>
      <trkpt lat="35.432963" lon="126.865670"><ele>478.3</ele></trkpt>
      <trkpt lat="35.433269" lon="126.865633"><ele>503.4</ele></trkpt>
      <trkpt lat="35.434078" lon="126.865906"><ele>541.8</ele></trkpt>
      <trkpt lat="35.434183" lon="126.865858"><ele>547.7</ele></trkpt>
      <trkpt lat="35.434257" lon="126.865724"><ele>557.6</ele></trkpt>
      <trkpt lat="35.434244" lon="126.865563"><ele>564.8</ele></trkpt>
      <trkpt lat="35.434362" lon="126.865397"><ele>576.5</ele></trkpt>
      <trkpt lat="35.435092" lon="126.864721"><ele>620.6</ele></trkpt>
      <trkpt lat="35.435446" lon="126.864581"><ele>624.6</ele></trkpt>
      <trkpt lat="35.435900" lon="126.863803"><ele>614.6</ele></trkpt>
      <trkpt lat="35.436639" lon="126.863406"><ele>624.5</ele></trkpt>
      <trkpt lat="35.436818" lon="126.863390"><ele>629.8</ele></trkpt>
      <trkpt lat="35.437067" lon="126.863449"><ele>632.6</ele></trkpt>
      <trkpt lat="35.437225" lon="126.863358"><ele>638.0</ele></trkpt>
      <trkpt lat="35.437426" lon="126.863036"><ele>647.1</ele></trkpt>
      <trkpt lat="35.437417" lon="126.862237"><ele>643.9</ele></trkpt>
      <trkpt lat="35.437574" lon="126.862006"><ele>644.7</ele></trkpt>
      <trkpt lat="35.437858" lon="126.861963"><ele>652.5</ele></trkpt>
      <trkpt lat="35.438081" lon="126.861979"><ele>650.9</ele></trkpt>
      <trkpt lat="35.439279" lon="126.863208"><ele>612.0</ele></trkpt>
      <trkpt lat="35.439537" lon="126.863256"><ele>604.7</ele></trkpt>
      <trkpt lat="35.439755" lon="126.862988"><ele>594.7</ele></trkpt>
      <trkpt lat="35.439882" lon="126.862929"><ele>588.8</ele></trkpt>
      <trkpt lat="35.440669" lon="126.862966"><ele>561.0</ele></trkpt>
      <trkpt lat="35.441154" lon="126.862929"><ele>554.5</ele></trkpt>
      <trkpt lat="35.441460" lon="126.863015"><ele>546.8</ele></trkpt>
      <trkpt lat="35.442605" lon="126.863701"><ele>534.3</ele></trkpt>
      <trkpt lat="35.442771" lon="126.863615"><ele>534.9</ele></trkpt>
      <trkpt lat="35.442906" lon="126.863444"><ele>531.2</ele></trkpt>
      <trkpt lat="35.443051" lon="126.863422"><ele>531.0</ele></trkpt>
      <trkpt lat="35.443846" lon="126.862972"><ele>523.4</ele></trkpt>
      <trkpt lat="35.444043" lon="126.862966"><ele>519.9</ele></trkpt>
      <trkpt lat="35.444816" lon="126.863396"><ele>520.6</ele></trkpt>
      <trkpt lat="35.444978" lon="126.863621"><ele>527.3</ele></trkpt>
      <trkpt lat="35.445651" lon="126.864061"><ele>529.3</ele></trkpt>
      <trkpt lat="35.445826" lon="126.864270"><ele>532.0</ele></trkpt>
      <trkpt lat="35.446110" lon="126.865005"><ele>536.9</ele></trkpt>
      <trkpt lat="35.446337" lon="126.865203"><ele>534.1</ele></trkpt>
      <trkpt lat="35.446757" lon="126.865364"><ele>519.1</ele></trkpt>
      <trkpt lat="35.447294" lon="126.865761"><ele>511.1</ele></trkpt>
      <trkpt lat="35.448330" lon="126.865863"><ele>514.9</ele></trkpt>
      <trkpt lat="35.448540" lon="126.865987"><ele>514.9</ele></trkpt>
      <trkpt lat="35.449510" lon="126.866791"><ele>538.2</ele></trkpt>
      <trkpt lat="35.449731" lon="126.866855"><ele>544.7</ele></trkpt>
      <trkpt lat="35.450049" lon="126.866805"><ele>549.0</ele></trkpt>
      <trkpt lat="35.450044" lon="126.866499"><ele>550.9</ele></trkpt>
      <trkpt lat="35.450122" lon="126.866349"><ele>553.9</ele></trkpt>
      <trkpt lat="35.450367" lon="126.866193"><ele>562.5</ele></trkpt>
      <trkpt lat="35.450813" lon="126.866058"><ele>582.0</ele></trkpt>
      <trkpt lat="35.451347" lon="126.866064"><ele>604.0</ele></trkpt>
      <trkpt lat="35.451571" lon="126.865716"><ele>613.0</ele></trkpt>
      <trkpt lat="35.451888" lon="126.865641"><ele>620.8</ele></trkpt>
      <trkpt lat="35.452037" lon="126.865551"><ele>625.3</ele></trkpt>
      <trkpt lat="35.452666" lon="126.864860"><ele>648.4</ele></trkpt>
      <trkpt lat="35.452805" lon="126.864632"><ele>652.6</ele></trkpt>
      <trkpt lat="35.453027" lon="126.864551"><ele>652.5</ele></trkpt>
      <trkpt lat="35.453520" lon="126.864640"><ele>654.8</ele></trkpt>
      <trkpt lat="35.454200" lon="126.864959"><ele>662.2</ele></trkpt>
      <trkpt lat="35.454531" lon="126.865090"><ele>671.4</ele></trkpt>
      <trkpt lat="35.454654" lon="126.865091"><ele>674.4</ele></trkpt>
      <trkpt lat="35.455563" lon="126.864588"><ele>694.1</ele></trkpt>
      <trkpt lat="35.455687" lon="126.864444"><ele>699.3</ele></trkpt>
      <trkpt lat="35.455979" lon="126.864321"><ele>703.1</ele></trkpt>
      <trkpt lat="35.456162" lon="126.864101"><ele>703.5</ele></trkpt>
      <trkpt lat="35.456676" lon="126.863759"><ele>706.0</ele></trkpt>
      <trkpt lat="35.456756" lon="126.863749"><ele>706.0</ele></trkpt>
      <trkpt lat="35.457063" lon="126.863457"><ele>708.3</ele></trkpt>
      <trkpt lat="35.457334" lon="126.863379"><ele>708.4</ele></trkpt>
      <trkpt lat="35.457595" lon="126.863695"><ele>694.6</ele></trkpt>
      <trkpt lat="35.457664" lon="126.864002"><ele>682.8</ele></trkpt>
      <trkpt lat="35.457843" lon="126.864341"><ele>666.4</ele></trkpt>
      <trkpt lat="35.457966" lon="126.864372"><ele>661.9</ele></trkpt>
      <trkpt lat="35.459034" lon="126.865410"><ele>651.0</ele></trkpt>
      <trkpt lat="35.459210" lon="126.865707"><ele>656.4</ele></trkpt>
      <trkpt lat="35.459466" lon="126.865949"><ele>664.4</ele></trkpt>
      <trkpt lat="35.459484" lon="126.866209"><ele>668.7</ele></trkpt>
      <trkpt lat="35.459531" lon="126.866298"><ele>669.8</ele></trkpt>
      <trkpt lat="35.459593" lon="126.866315"><ele>670.8</ele></trkpt>
      <trkpt lat="35.459744" lon="126.866506"><ele>674.9</ele></trkpt>
      <trkpt lat="35.459853" lon="126.866504"><ele>675.3</ele></trkpt>
      <trkpt lat="35.460159" lon="126.866966"><ele>684.6</ele></trkpt>
      <trkpt lat="35.460467" lon="126.867217"><ele>686.8</ele></trkpt>
      <trkpt lat="35.460582" lon="126.867779"><ele>700.6</ele></trkpt>
      <trkpt lat="35.460766" lon="126.868156"><ele>712.1</ele></trkpt>
      <trkpt lat="35.461139" lon="126.868342"><ele>720.9</ele></trkpt>
      <trkpt lat="35.461262" lon="126.868498"><ele>721.1</ele></trkpt>
      <trkpt lat="35.461261" lon="126.868653"><ele>721.2</ele></trkpt>
      <trkpt lat="35.461324" lon="126.868714"><ele>721.0</ele></trkpt>
      <trkpt lat="35.461403" lon="126.868702"><ele>721.0</ele></trkpt>
      <trkpt lat="35.461622" lon="126.868540"><ele>716.0</ele></trkpt>
      <trkpt lat="35.461826" lon="126.868047"><ele>693.6</ele></trkpt>
      <trkpt lat="35.461915" lon="126.868002"><ele>687.5</ele></trkpt>
      <trkpt lat="35.461926" lon="126.867861"><ele>679.8</ele></trkpt>
      <trkpt lat="35.462118" lon="126.867691"><ele>667.3</ele></trkpt>
      <trkpt lat="35.462287" lon="126.867683"><ele>664.1</ele></trkpt>
      <trkpt lat="35.462656" lon="126.867475"><ele>657.0</ele></trkpt>
      <trkpt lat="35.462838" lon="126.867288"><ele>654.7</ele></trkpt>
      <trkpt lat="35.463150" lon="126.866622"><ele>649.4</ele></trkpt>
      <trkpt lat="35.463293" lon="126.866427"><ele>649.4</ele></trkpt>
      <trkpt lat="35.463486" lon="126.865785"><ele>641.2</ele></trkpt>
      <trkpt lat="35.463714" lon="126.865456"><ele>642.4</ele></trkpt>
      <trkpt lat="35.463821" lon="126.864992"><ele>644.0</ele></trkpt>
      <trkpt lat="35.463964" lon="126.864830"><ele>638.6</ele></trkpt>
      <trkpt lat="35.464751" lon="126.864340"><ele>630.3</ele></trkpt>
      <trkpt lat="35.464939" lon="126.864319"><ele>631.2</ele></trkpt>
      <trkpt lat="35.465208" lon="126.864395"><ele>631.2</ele></trkpt>
      <trkpt lat="35.465423" lon="126.864392"><ele>629.4</ele></trkpt>
      <trkpt lat="35.466277" lon="126.864090"><ele>609.0</ele></trkpt>
      <trkpt lat="35.466568" lon="126.864117"><ele>609.2</ele></trkpt>
      <trkpt lat="35.466726" lon="126.864186"><ele>609.5</ele></trkpt>
      <trkpt lat="35.467333" lon="126.864069"><ele>608.0</ele></trkpt>
      <trkpt lat="35.467836" lon="126.864098"><ele>613.5</ele></trkpt>
      <trkpt lat="35.468531" lon="126.863911"><ele>622.0</ele></trkpt>
      <trkpt lat="35.469001" lon="126.863895"><ele>627.0</ele></trkpt>
      <trkpt lat="35.469550" lon="126.862956"><ele>631.3</ele></trkpt>
      <trkpt lat="35.469665" lon="126.862843"><ele>631.5</ele></trkpt>
      <trkpt lat="35.470001" lon="126.862811"><ele>631.3</ele></trkpt>
      <trkpt lat="35.470535" lon="126.862607"><ele>631.1</ele></trkpt>
      <trkpt lat="35.470923" lon="126.862038"><ele>627.3</ele></trkpt>
      <trkpt lat="35.471165" lon="126.861835"><ele>624.8</ele></trkpt>
      <trkpt lat="35.471508" lon="126.861690"><ele>620.2</ele></trkpt>
      <trkpt lat="35.472110" lon="126.861767"><ele>604.6</ele></trkpt>
      <trkpt lat="35.472530" lon="126.861714"><ele>595.2</ele></trkpt>
      <trkpt lat="35.472991" lon="126.861389"><ele>581.6</ele></trkpt>
      <trkpt lat="35.473334" lon="126.861033"><ele>564.3</ele></trkpt>
      <trkpt lat="35.474019" lon="126.860737"><ele>550.7</ele></trkpt>
      <trkpt lat="35.474191" lon="126.860719"><ele>547.7</ele></trkpt>
      <trkpt lat="35.474678" lon="126.860849"><ele>536.8</ele></trkpt>
      <trkpt lat="35.475318" lon="126.861255"><ele>522.0</ele></trkpt>
      <trkpt lat="35.475550" lon="126.861250"><ele>522.5</ele></trkpt>
      <trkpt lat="35.475948" lon="126.861376"><ele>525.9</ele></trkpt>
      <trkpt lat="35.476188" lon="126.861364"><ele>522.5</ele></trkpt>
      <trkpt lat="35.476479" lon="126.861462"><ele>516.8</ele></trkpt>
      <trkpt lat="35.476698" lon="126.861591"><ele>515.0</ele></trkpt>
      <trkpt lat="35.476731" lon="126.861676"><ele>516.0</ele></trkpt>
      <trkpt lat="35.476936" lon="126.861598"><ele>513.8</ele></trkpt>
      <trkpt lat="35.477163" lon="126.861690"><ele>516.4</ele></trkpt>
      <trkpt lat="35.477264" lon="126.861676"><ele>516.3</ele></trkpt>
      <trkpt lat="35.477453" lon="126.861510"><ele>511.8</ele></trkpt>
      <trkpt lat="35.477766" lon="126.860987"><ele>504.8</ele></trkpt>
      <trkpt lat="35.477731" lon="126.860735"><ele>503.1</ele></trkpt>
      <trkpt lat="35.477807" lon="126.860306"><ele>502.5</ele></trkpt>
      <trkpt lat="35.477744" lon="126.860231"><ele>498.7</ele></trkpt>
      <trkpt lat="35.477701" lon="126.859801"><ele>489.9</ele></trkpt>
      <trkpt lat="35.477927" lon="126.859419"><ele>495.0</ele></trkpt>
      <trkpt lat="35.478001" lon="126.859378"><ele>497.5</ele></trkpt>
      <trkpt lat="35.478006" lon="126.859201"><ele>494.5</ele></trkpt>
      <trkpt lat="35.477930" lon="126.859032"><ele>488.3</ele></trkpt>
      <trkpt lat="35.477929" lon="126.858710"><ele>482.9</ele></trkpt>
      <trkpt lat="35.477818" lon="126.858034"><ele>473.1</ele></trkpt>
      <trkpt lat="35.477717" lon="126.857816"><ele>470.1</ele></trkpt>
      <trkpt lat="35.477709" lon="126.857575"><ele>468.7</ele></trkpt>
      <trkpt lat="35.477451" lon="126.857213"><ele>459.5</ele></trkpt>
      <trkpt lat="35.477403" lon="126.856926"><ele>456.6</ele></trkpt>
      <trkpt lat="35.477423" lon="126.856758"><ele>455.6</ele></trkpt>
    </trkseg>
  </trk>
</gpx>
