<?xml version="1.0" encoding="UTF-8"?>
<gpx version="1.1" creator="kr-100-mountains route-harvester"
     xmlns="http://www.topografix.com/GPX/1/1"
     xmlns:k100="https://github.com/jay-jang/kr-100-mountains/ns/1"
     xmlns:xsi="http://www.w3.org/2001/XMLSchema-instance"
     xsi:schemaLocation="http://www.topografix.com/GPX/1/1 http://www.topografix.com/GPX/1/1/gpx.xsd">
  <metadata>
    <name>서리산 · 축령산자연휴양림-철쭉동산-서리산 정상 코스 (OSM 계산 경로)</name>
    <desc>실제 GPS 기록이 아닙니다. OpenStreetMap에 등록된 등산로 선형 위에서 계산한 경로이며, 현장 통제·훼손·출입 제한·계절 통제를 반영하지 않을 수 있습니다. 산행 전 공식 안내를 확인하세요.</desc>
    <time>2026-08-04T05:14:14.313Z</time>
    <link href="https://www.openstreetmap.org/copyright"><text>© OpenStreetMap contributors (ODbL 1.0)</text></link>
    <link href="https://registry.opendata.aws/terrain-tiles/"><text>Elevation: SRTM 1 arc-second (NASA/USGS) via AWS Terrain Tiles</text></link>
    <extensions>
      <k100:provenance>osm-routed</k100:provenance>
      <k100:not_a_recorded_track>true</k100:not_a_recorded_track>
      <k100:mountain_id>seorisan</k100:mountain_id>
      <k100:mountain_name>서리산</k100:mountain_name>
      <k100:route_id>seorisan-c5773961</k100:route_id>
      <k100:route_index>1</k100:route_index>
      <k100:route_name>축령산자연휴양림-철쭉동산-서리산 정상 코스</k100:route_name>
      <k100:variant>0</k100:variant>
      <k100:source>OpenStreetMap via Overpass API</k100:source>
      <k100:license>ODbL-1.0</k100:license>
      <k100:attribution>© OpenStreetMap contributors</k100:attribution>
      <k100:elevation_source>SRTM 1 arc-second (NASA/USGS) — AWS Terrain Tiles 배포본. 지형 DEM 추정 고도이며 실측 아님</k100:elevation_source>
      <k100:algorithm>dijkstra-grid-v1</k100:algorithm>
      <k100:osm_snapshot>2026-08-04</k100:osm_snapshot>
      <k100:snap_trailhead_m>32</k100:snap_trailhead_m>
      <k100:snap_summit_m>30</k100:snap_summit_m>
      <k100:validation_score>75</k100:validation_score>
      <k100:validation_status>review</k100:validation_status>
    </extensions>
  </metadata>
  <trk>
    <name>서리산 · 축령산자연휴양림-철쭉동산-서리산 정상 코스 (OSM 계산 경로)</name>
    <desc>실제 GPS 기록이 아닙니다. OpenStreetMap에 등록된 등산로 선형 위에서 계산한 경로이며, 현장 통제·훼손·출입 제한·계절 통제를 반영하지 않을 수 있습니다. 산행 전 공식 안내를 확인하세요.</desc>
    <trkseg>
      <trkpt lat="37.753471" lon="127.315943"><ele>438.9</ele></trkpt>
      <trkpt lat="37.753675" lon="127.315664"><ele>424.7</ele></trkpt>
      <trkpt lat="37.753760" lon="127.315267"><ele>404.7</ele></trkpt>
      <trkpt lat="37.754031" lon="127.314999"><ele>390.9</ele></trkpt>
      <trkpt lat="37.754159" lon="127.314526"><ele>375.4</ele></trkpt>
      <trkpt lat="37.753614" lon="127.314270"><ele>374.9</ele></trkpt>
      <trkpt lat="37.753403" lon="127.313717"><ele>364.0</ele></trkpt>
      <trkpt lat="37.753203" lon="127.313614"><ele>367.3</ele></trkpt>
      <trkpt lat="37.753200" lon="127.313546"><ele>365.8</ele></trkpt>
      <trkpt lat="37.753699" lon="127.313350"><ele>350.5</ele></trkpt>
      <trkpt lat="37.753887" lon="127.313630"><ele>354.6</ele></trkpt>
      <trkpt lat="37.753935" lon="127.313631"><ele>354.0</ele></trkpt>
      <trkpt lat="37.753952" lon="127.313464"><ele>348.6</ele></trkpt>
      <trkpt lat="37.753859" lon="127.313143"><ele>339.9</ele></trkpt>
    </trkseg>
  </trk>
</gpx>
