<?xml version="1.0" encoding="UTF-8"?>
<gpx version="1.1" creator="kr-100-mountains route-harvester"
     xmlns="http://www.topografix.com/GPX/1/1"
     xmlns:k100="https://github.com/jay-jang/kr-100-mountains/ns/1"
     xmlns:xsi="http://www.w3.org/2001/XMLSchema-instance"
     xsi:schemaLocation="http://www.topografix.com/GPX/1/1 http://www.topografix.com/GPX/1/1/gpx.xsd">
  <metadata>
    <name>남산 · 삼릉계-금오봉 코스 (대안 2) (OSM 계산 경로)</name>
    <desc>실제 GPS 기록이 아닙니다. OpenStreetMap에 등록된 등산로 선형 위에서 계산한 경로이며, 현장 통제·훼손·출입 제한·계절 통제를 반영하지 않을 수 있습니다. 산행 전 공식 안내를 확인하세요.</desc>
    <time>2026-08-04T05:47:27.162Z</time>
    <link href="https://www.openstreetmap.org/copyright"><text>© OpenStreetMap contributors (ODbL 1.0)</text></link>
    <link href="https://registry.opendata.aws/terrain-tiles/"><text>Elevation: SRTM 1 arc-second (NASA/USGS) via AWS Terrain Tiles</text></link>
    <extensions>
      <k100:provenance>osm-routed</k100:provenance>
      <k100:not_a_recorded_track>true</k100:not_a_recorded_track>
      <k100:mountain_id>namsan-gyeongju</k100:mountain_id>
      <k100:mountain_name>남산(경주)</k100:mountain_name>
      <k100:route_id>namsan-gyeongju-64d11bc9</k100:route_id>
      <k100:route_index>1</k100:route_index>
      <k100:route_name>삼릉계-금오봉 코스</k100:route_name>
      <k100:variant>2</k100:variant>
      <k100:source>OpenStreetMap via Overpass API</k100:source>
      <k100:license>ODbL-1.0</k100:license>
      <k100:attribution>© OpenStreetMap contributors</k100:attribution>
      <k100:elevation_source>SRTM 1 arc-second (NASA/USGS) — AWS Terrain Tiles 배포본. 지형 DEM 추정 고도이며 실측 아님</k100:elevation_source>
      <k100:algorithm>dijkstra-grid-v1</k100:algorithm>
      <k100:osm_snapshot>2026-08-04</k100:osm_snapshot>
      <k100:snap_trailhead_m>41</k100:snap_trailhead_m>
      <k100:snap_summit_m>19</k100:snap_summit_m>
      <k100:validation_score>93</k100:validation_score>
      <k100:validation_status>accepted</k100:validation_status>
    </extensions>
  </metadata>
  <trk>
    <name>남산 · 삼릉계-금오봉 코스 (대안 2) (OSM 계산 경로)</name>
    <desc>실제 GPS 기록이 아닙니다. OpenStreetMap에 등록된 등산로 선형 위에서 계산한 경로이며, 현장 통제·훼손·출입 제한·계절 통제를 반영하지 않을 수 있습니다. 산행 전 공식 안내를 확인하세요.</desc>
    <trkseg>
      <trkpt lat="35.802816" lon="129.207936"><ele>46.1</ele></trkpt>
      <trkpt lat="35.802886" lon="129.207923"><ele>45.8</ele></trkpt>
      <trkpt lat="35.803654" lon="129.208712"><ele>45.7</ele></trkpt>
      <trkpt lat="35.803650" lon="129.208930"><ele>45.9</ele></trkpt>
      <trkpt lat="35.799011" lon="129.207106"><ele>49.4</ele></trkpt>
      <trkpt lat="35.798938" lon="129.207165"><ele>50.3</ele></trkpt>
      <trkpt lat="35.798401" lon="129.206922"><ele>53.4</ele></trkpt>
      <trkpt lat="35.798427" lon="129.207207"><ele>55.2</ele></trkpt>
      <trkpt lat="35.798366" lon="129.207475"><ele>58.5</ele></trkpt>
      <trkpt lat="35.798082" lon="129.207786"><ele>61.2</ele></trkpt>
      <trkpt lat="35.797829" lon="129.208205"><ele>66.7</ele></trkpt>
      <trkpt lat="35.797130" lon="129.208560"><ele>69.7</ele></trkpt>
      <trkpt lat="35.796722" lon="129.208668"><ele>68.6</ele></trkpt>
      <trkpt lat="35.796535" lon="129.208545"><ele>66.8</ele></trkpt>
      <trkpt lat="35.796377" lon="129.208146"><ele>64.3</ele></trkpt>
      <trkpt lat="35.796216" lon="129.208041"><ele>64.1</ele></trkpt>
      <trkpt lat="35.795891" lon="129.208031"><ele>66.5</ele></trkpt>
      <trkpt lat="35.795300" lon="129.207919"><ele>65.7</ele></trkpt>
      <trkpt lat="35.795389" lon="129.207764"><ele>65.1</ele></trkpt>
      <trkpt lat="35.795421" lon="129.207546"><ele>63.0</ele></trkpt>
      <trkpt lat="35.795300" lon="129.206929"><ele>57.2</ele></trkpt>
      <trkpt lat="35.795260" lon="129.205938"><ele>55.2</ele></trkpt>
      <trkpt lat="35.794297" lon="129.205675"><ele>49.4</ele></trkpt>
      <trkpt lat="35.794291" lon="129.205591"><ele>49.1</ele></trkpt>
      <trkpt lat="35.792750" lon="129.205287"><ele>47.4</ele></trkpt>
      <trkpt lat="35.791694" lon="129.205205"><ele>50.2</ele></trkpt>
      <trkpt lat="35.791085" lon="129.204438"><ele>44.1</ele></trkpt>
      <trkpt lat="35.790666" lon="129.204054"><ele>45.6</ele></trkpt>
      <trkpt lat="35.790536" lon="129.203754"><ele>44.2</ele></trkpt>
      <trkpt lat="35.789959" lon="129.203457"><ele>46.7</ele></trkpt>
      <trkpt lat="35.789374" lon="129.203355"><ele>48.1</ele></trkpt>
      <trkpt lat="35.789248" lon="129.203196"><ele>47.5</ele></trkpt>
      <trkpt lat="35.789050" lon="129.203127"><ele>46.8</ele></trkpt>
      <trkpt lat="35.788817" lon="129.202545"><ele>43.3</ele></trkpt>
      <trkpt lat="35.788675" lon="129.202405"><ele>42.7</ele></trkpt>
      <trkpt lat="35.787664" lon="129.202075"><ele>45.7</ele></trkpt>
      <trkpt lat="35.787412" lon="129.202047"><ele>45.7</ele></trkpt>
      <trkpt lat="35.787353" lon="129.201992"><ele>45.7</ele></trkpt>
      <trkpt lat="35.787247" lon="129.202229"><ele>44.1</ele></trkpt>
      <trkpt lat="35.787069" lon="129.202291"><ele>44.4</ele></trkpt>
      <trkpt lat="35.786647" lon="129.202161"><ele>44.8</ele></trkpt>
      <trkpt lat="35.785868" lon="129.202041"><ele>47.0</ele></trkpt>
      <trkpt lat="35.782855" lon="129.201367"><ele>47.7</ele></trkpt>
      <trkpt lat="35.782773" lon="129.201789"><ele>49.9</ele></trkpt>
      <trkpt lat="35.778654" lon="129.200919"><ele>50.0</ele></trkpt>
      <trkpt lat="35.777396" lon="129.200711"><ele>49.7</ele></trkpt>
      <trkpt lat="35.775754" lon="129.200586"><ele>50.3</ele></trkpt>
      <trkpt lat="35.775358" lon="129.201064"><ele>49.2</ele></trkpt>
      <trkpt lat="35.774487" lon="129.202421"><ele>51.0</ele></trkpt>
      <trkpt lat="35.774466" lon="129.202544"><ele>51.6</ele></trkpt>
      <trkpt lat="35.774772" lon="129.203158"><ele>54.0</ele></trkpt>
      <trkpt lat="35.775288" lon="129.204627"><ele>55.7</ele></trkpt>
      <trkpt lat="35.775252" lon="129.204956"><ele>56.8</ele></trkpt>
      <trkpt lat="35.775264" lon="129.205906"><ele>59.2</ele></trkpt>
      <trkpt lat="35.775050" lon="129.206593"><ele>60.6</ele></trkpt>
      <trkpt lat="35.774516" lon="129.206457"><ele>61.2</ele></trkpt>
      <trkpt lat="35.774169" lon="129.206184"><ele>59.5</ele></trkpt>
      <trkpt lat="35.773957" lon="129.206335"><ele>61.2</ele></trkpt>
      <trkpt lat="35.773894" lon="129.206442"><ele>63.1</ele></trkpt>
      <trkpt lat="35.773712" lon="129.206965"><ele>72.8</ele></trkpt>
      <trkpt lat="35.773653" lon="129.207283"><ele>76.5</ele></trkpt>
      <trkpt lat="35.773334" lon="129.207573"><ele>81.8</ele></trkpt>
      <trkpt lat="35.773100" lon="129.207886"><ele>88.3</ele></trkpt>
      <trkpt lat="35.772725" lon="129.208161"><ele>96.6</ele></trkpt>
      <trkpt lat="35.772370" lon="129.208700"><ele>99.6</ele></trkpt>
      <trkpt lat="35.772325" lon="129.208940"><ele>103.9</ele></trkpt>
      <trkpt lat="35.772176" lon="129.209127"><ele>107.3</ele></trkpt>
      <trkpt lat="35.771941" lon="129.209269"><ele>110.9</ele></trkpt>
      <trkpt lat="35.771807" lon="129.209274"><ele>109.4</ele></trkpt>
      <trkpt lat="35.771587" lon="129.209468"><ele>112.2</ele></trkpt>
      <trkpt lat="35.771145" lon="129.209633"><ele>116.3</ele></trkpt>
      <trkpt lat="35.770977" lon="129.209892"><ele>125.0</ele></trkpt>
      <trkpt lat="35.770801" lon="129.209936"><ele>129.2</ele></trkpt>
      <trkpt lat="35.770715" lon="129.209893"><ele>130.8</ele></trkpt>
      <trkpt lat="35.770513" lon="129.210086"><ele>141.1</ele></trkpt>
      <trkpt lat="35.769831" lon="129.210387"><ele>164.5</ele></trkpt>
      <trkpt lat="35.769536" lon="129.210646"><ele>179.5</ele></trkpt>
      <trkpt lat="35.769235" lon="129.210629"><ele>191.1</ele></trkpt>
      <trkpt lat="35.769317" lon="129.210288"><ele>187.6</ele></trkpt>
      <trkpt lat="35.769307" lon="129.210085"><ele>185.5</ele></trkpt>
      <trkpt lat="35.769011" lon="129.210102"><ele>191.6</ele></trkpt>
      <trkpt lat="35.768357" lon="129.210820"><ele>215.1</ele></trkpt>
      <trkpt lat="35.768310" lon="129.210931"><ele>219.0</ele></trkpt>
      <trkpt lat="35.768200" lon="129.210959"><ele>221.2</ele></trkpt>
      <trkpt lat="35.768034" lon="129.211085"><ele>228.5</ele></trkpt>
      <trkpt lat="35.768010" lon="129.211165"><ele>231.4</ele></trkpt>
      <trkpt lat="35.767853" lon="129.211228"><ele>230.8</ele></trkpt>
      <trkpt lat="35.767824" lon="129.211311"><ele>232.8</ele></trkpt>
      <trkpt lat="35.767880" lon="129.211365"><ele>235.8</ele></trkpt>
      <trkpt lat="35.767943" lon="129.211587"><ele>245.0</ele></trkpt>
      <trkpt lat="35.767890" lon="129.211717"><ele>249.2</ele></trkpt>
      <trkpt lat="35.767979" lon="129.212221"><ele>270.0</ele></trkpt>
      <trkpt lat="35.767894" lon="129.212287"><ele>272.6</ele></trkpt>
      <trkpt lat="35.767869" lon="129.212521"><ele>282.5</ele></trkpt>
      <trkpt lat="35.767669" lon="129.212968"><ele>297.5</ele></trkpt>
      <trkpt lat="35.767631" lon="129.213453"><ele>308.5</ele></trkpt>
      <trkpt lat="35.767680" lon="129.213603"><ele>312.4</ele></trkpt>
      <trkpt lat="35.767756" lon="129.213646"><ele>314.0</ele></trkpt>
      <trkpt lat="35.767768" lon="129.213798"><ele>315.8</ele></trkpt>
      <trkpt lat="35.767860" lon="129.213850"><ele>318.7</ele></trkpt>
      <trkpt lat="35.767926" lon="129.213967"><ele>322.8</ele></trkpt>
      <trkpt lat="35.768045" lon="129.214297"><ele>333.1</ele></trkpt>
      <trkpt lat="35.768135" lon="129.214918"><ele>350.4</ele></trkpt>
      <trkpt lat="35.768109" lon="129.215124"><ele>356.0</ele></trkpt>
      <trkpt lat="35.768167" lon="129.215272"><ele>358.3</ele></trkpt>
      <trkpt lat="35.768139" lon="129.215462"><ele>360.9</ele></trkpt>
      <trkpt lat="35.768248" lon="129.215588"><ele>362.3</ele></trkpt>
      <trkpt lat="35.768272" lon="129.215689"><ele>363.5</ele></trkpt>
      <trkpt lat="35.768269" lon="129.216168"><ele>362.6</ele></trkpt>
      <trkpt lat="35.768175" lon="129.216844"><ele>353.4</ele></trkpt>
      <trkpt lat="35.768144" lon="129.217995"><ele>345.1</ele></trkpt>
      <trkpt lat="35.768207" lon="129.218359"><ele>341.4</ele></trkpt>
      <trkpt lat="35.768180" lon="129.219223"><ele>331.0</ele></trkpt>
      <trkpt lat="35.768251" lon="129.219482"><ele>331.3</ele></trkpt>
      <trkpt lat="35.768226" lon="129.219686"><ele>329.9</ele></trkpt>
      <trkpt lat="35.768262" lon="129.219772"><ele>330.3</ele></trkpt>
      <trkpt lat="35.768703" lon="129.219433"><ele>329.1</ele></trkpt>
    </trkseg>
  </trk>
</gpx>
