<?xml version="1.0" encoding="UTF-8"?>
<gpx version="1.1" creator="kr-100-mountains route-harvester"
     xmlns="http://www.topografix.com/GPX/1/1"
     xmlns:k100="https://github.com/jay-jang/kr-100-mountains/ns/1"
     xmlns:xsi="http://www.w3.org/2001/XMLSchema-instance"
     xsi:schemaLocation="http://www.topografix.com/GPX/1/1 http://www.topografix.com/GPX/1/1/gpx.xsd">
  <metadata>
    <name>남산 · 용장골-고위봉 코스 (OSM 계산 경로)</name>
    <desc>실제 GPS 기록이 아닙니다. OpenStreetMap에 등록된 등산로 선형 위에서 계산한 경로이며, 현장 통제·훼손·출입 제한·계절 통제를 반영하지 않을 수 있습니다. 산행 전 공식 안내를 확인하세요.</desc>
    <time>2026-08-04T05:47:27.176Z</time>
    <link href="https://www.openstreetmap.org/copyright"><text>© OpenStreetMap contributors (ODbL 1.0)</text></link>
    <link href="https://registry.opendata.aws/terrain-tiles/"><text>Elevation: SRTM 1 arc-second (NASA/USGS) via AWS Terrain Tiles</text></link>
    <extensions>
      <k100:provenance>osm-routed</k100:provenance>
      <k100:not_a_recorded_track>true</k100:not_a_recorded_track>
      <k100:mountain_id>namsan-gyeongju</k100:mountain_id>
      <k100:mountain_name>남산(경주)</k100:mountain_name>
      <k100:route_id>namsan-gyeongju-9042bad4</k100:route_id>
      <k100:route_index>2</k100:route_index>
      <k100:route_name>용장골-고위봉 코스</k100:route_name>
      <k100:variant>0</k100:variant>
      <k100:source>OpenStreetMap via Overpass API</k100:source>
      <k100:license>ODbL-1.0</k100:license>
      <k100:attribution>© OpenStreetMap contributors</k100:attribution>
      <k100:elevation_source>SRTM 1 arc-second (NASA/USGS) — AWS Terrain Tiles 배포본. 지형 DEM 추정 고도이며 실측 아님</k100:elevation_source>
      <k100:algorithm>dijkstra-grid-v1</k100:algorithm>
      <k100:osm_snapshot>2026-08-04</k100:osm_snapshot>
      <k100:snap_trailhead_m>42</k100:snap_trailhead_m>
      <k100:snap_summit_m>19</k100:snap_summit_m>
      <k100:validation_score>84</k100:validation_score>
      <k100:validation_status>accepted</k100:validation_status>
    </extensions>
  </metadata>
  <trk>
    <name>남산 · 용장골-고위봉 코스 (OSM 계산 경로)</name>
    <desc>실제 GPS 기록이 아닙니다. OpenStreetMap에 등록된 등산로 선형 위에서 계산한 경로이며, 현장 통제·훼손·출입 제한·계절 통제를 반영하지 않을 수 있습니다. 산행 전 공식 안내를 확인하세요.</desc>
    <trkseg>
      <trkpt lat="35.776032" lon="129.206631"><ele>64.9</ele></trkpt>
      <trkpt lat="35.776009" lon="129.206874"><ele>65.7</ele></trkpt>
      <trkpt lat="35.776115" lon="129.206957"><ele>66.0</ele></trkpt>
      <trkpt lat="35.776118" lon="129.207043"><ele>66.0</ele></trkpt>
      <trkpt lat="35.776047" lon="129.207306"><ele>66.0</ele></trkpt>
      <trkpt lat="35.775882" lon="129.207562"><ele>66.3</ele></trkpt>
      <trkpt lat="35.775820" lon="129.207447"><ele>66.0</ele></trkpt>
      <trkpt lat="35.775215" lon="129.207322"><ele>62.9</ele></trkpt>
      <trkpt lat="35.774992" lon="129.207204"><ele>62.0</ele></trkpt>
      <trkpt lat="35.774906" lon="129.207707"><ele>62.7</ele></trkpt>
      <trkpt lat="35.774927" lon="129.207892"><ele>63.3</ele></trkpt>
      <trkpt lat="35.774814" lon="129.207975"><ele>63.5</ele></trkpt>
      <trkpt lat="35.774790" lon="129.208470"><ele>66.4</ele></trkpt>
      <trkpt lat="35.774996" lon="129.208840"><ele>69.5</ele></trkpt>
      <trkpt lat="35.775102" lon="129.209571"><ele>76.8</ele></trkpt>
      <trkpt lat="35.774945" lon="129.209663"><ele>78.4</ele></trkpt>
      <trkpt lat="35.774529" lon="129.209722"><ele>78.3</ele></trkpt>
      <trkpt lat="35.774361" lon="129.209900"><ele>78.5</ele></trkpt>
      <trkpt lat="35.774252" lon="129.210258"><ele>81.0</ele></trkpt>
      <trkpt lat="35.774083" lon="129.211065"><ele>93.1</ele></trkpt>
      <trkpt lat="35.774090" lon="129.211771"><ele>98.6</ele></trkpt>
      <trkpt lat="35.774291" lon="129.212368"><ele>100.2</ele></trkpt>
      <trkpt lat="35.774393" lon="129.213367"><ele>104.2</ele></trkpt>
      <trkpt lat="35.774159" lon="129.213759"><ele>113.9</ele></trkpt>
      <trkpt lat="35.774032" lon="129.214133"><ele>122.5</ele></trkpt>
      <trkpt lat="35.774177" lon="129.214580"><ele>121.8</ele></trkpt>
      <trkpt lat="35.774063" lon="129.214949"><ele>125.0</ele></trkpt>
      <trkpt lat="35.773809" lon="129.215254"><ele>130.3</ele></trkpt>
      <trkpt lat="35.773325" lon="129.215584"><ele>143.2</ele></trkpt>
      <trkpt lat="35.773082" lon="129.215689"><ele>148.5</ele></trkpt>
      <trkpt lat="35.772812" lon="129.215925"><ele>156.0</ele></trkpt>
      <trkpt lat="35.772759" lon="129.216096"><ele>157.7</ele></trkpt>
      <trkpt lat="35.772438" lon="129.216311"><ele>170.5</ele></trkpt>
      <trkpt lat="35.772411" lon="129.216525"><ele>173.0</ele></trkpt>
      <trkpt lat="35.772298" lon="129.216751"><ele>179.1</ele></trkpt>
      <trkpt lat="35.772098" lon="129.216922"><ele>186.5</ele></trkpt>
      <trkpt lat="35.771959" lon="129.217276"><ele>192.6</ele></trkpt>
      <trkpt lat="35.771741" lon="129.217566"><ele>198.5</ele></trkpt>
      <trkpt lat="35.771541" lon="129.217727"><ele>201.6</ele></trkpt>
      <trkpt lat="35.771462" lon="129.217931"><ele>202.8</ele></trkpt>
      <trkpt lat="35.771149" lon="129.218253"><ele>211.9</ele></trkpt>
      <trkpt lat="35.770905" lon="129.218371"><ele>223.2</ele></trkpt>
      <trkpt lat="35.770679" lon="129.218564"><ele>236.6</ele></trkpt>
      <trkpt lat="35.770314" lon="129.218596"><ele>248.8</ele></trkpt>
      <trkpt lat="35.769704" lon="129.218982"><ele>272.5</ele></trkpt>
      <trkpt lat="35.769539" lon="129.218961"><ele>279.3</ele></trkpt>
      <trkpt lat="35.769199" lon="129.219079"><ele>298.7</ele></trkpt>
      <trkpt lat="35.768808" lon="129.219283"><ele>325.8</ele></trkpt>
      <trkpt lat="35.768703" lon="129.219433"><ele>329.1</ele></trkpt>
    </trkseg>
  </trk>
</gpx>
