<?xml version="1.0" encoding="UTF-8"?>
<gpx version="1.1" creator="kr-100-mountains route-harvester"
     xmlns="http://www.topografix.com/GPX/1/1"
     xmlns:k100="https://github.com/jay-jang/kr-100-mountains/ns/1"
     xmlns:xsi="http://www.w3.org/2001/XMLSchema-instance"
     xsi:schemaLocation="http://www.topografix.com/GPX/1/1 http://www.topografix.com/GPX/1/1/gpx.xsd">
  <metadata>
    <name>남산 · 용장골-고위봉 코스 (대안 2) (OSM 계산 경로)</name>
    <desc>실제 GPS 기록이 아닙니다. OpenStreetMap에 등록된 등산로 선형 위에서 계산한 경로이며, 현장 통제·훼손·출입 제한·계절 통제를 반영하지 않을 수 있습니다. 산행 전 공식 안내를 확인하세요.</desc>
    <time>2026-08-04T05:47:27.178Z</time>
    <link href="https://www.openstreetmap.org/copyright"><text>© OpenStreetMap contributors (ODbL 1.0)</text></link>
    <link href="https://registry.opendata.aws/terrain-tiles/"><text>Elevation: SRTM 1 arc-second (NASA/USGS) via AWS Terrain Tiles</text></link>
    <extensions>
      <k100:provenance>osm-routed</k100:provenance>
      <k100:not_a_recorded_track>true</k100:not_a_recorded_track>
      <k100:mountain_id>namsan-gyeongju</k100:mountain_id>
      <k100:mountain_name>남산(경주)</k100:mountain_name>
      <k100:route_id>namsan-gyeongju-9042bad4</k100:route_id>
      <k100:route_index>2</k100:route_index>
      <k100:route_name>용장골-고위봉 코스</k100:route_name>
      <k100:variant>2</k100:variant>
      <k100:source>OpenStreetMap via Overpass API</k100:source>
      <k100:license>ODbL-1.0</k100:license>
      <k100:attribution>© OpenStreetMap contributors</k100:attribution>
      <k100:elevation_source>SRTM 1 arc-second (NASA/USGS) — AWS Terrain Tiles 배포본. 지형 DEM 추정 고도이며 실측 아님</k100:elevation_source>
      <k100:algorithm>dijkstra-grid-v1</k100:algorithm>
      <k100:osm_snapshot>2026-08-04</k100:osm_snapshot>
      <k100:snap_trailhead_m>42</k100:snap_trailhead_m>
      <k100:snap_summit_m>19</k100:snap_summit_m>
      <k100:validation_score>100</k100:validation_score>
      <k100:validation_status>accepted</k100:validation_status>
    </extensions>
  </metadata>
  <trk>
    <name>남산 · 용장골-고위봉 코스 (대안 2) (OSM 계산 경로)</name>
    <desc>실제 GPS 기록이 아닙니다. OpenStreetMap에 등록된 등산로 선형 위에서 계산한 경로이며, 현장 통제·훼손·출입 제한·계절 통제를 반영하지 않을 수 있습니다. 산행 전 공식 안내를 확인하세요.</desc>
    <trkseg>
      <trkpt lat="35.776032" lon="129.206631"><ele>64.9</ele></trkpt>
      <trkpt lat="35.776009" lon="129.206874"><ele>65.7</ele></trkpt>
      <trkpt lat="35.776115" lon="129.206957"><ele>66.0</ele></trkpt>
      <trkpt lat="35.776118" lon="129.207043"><ele>66.0</ele></trkpt>
      <trkpt lat="35.776047" lon="129.207306"><ele>66.0</ele></trkpt>
      <trkpt lat="35.775882" lon="129.207562"><ele>66.3</ele></trkpt>
      <trkpt lat="35.776127" lon="129.207847"><ele>68.5</ele></trkpt>
      <trkpt lat="35.775596" lon="129.208918"><ele>70.9</ele></trkpt>
      <trkpt lat="35.775591" lon="129.209361"><ele>75.5</ele></trkpt>
      <trkpt lat="35.775633" lon="129.209641"><ele>82.1</ele></trkpt>
      <trkpt lat="35.775486" lon="129.209758"><ele>82.8</ele></trkpt>
      <trkpt lat="35.775288" lon="129.210217"><ele>94.0</ele></trkpt>
      <trkpt lat="35.774977" lon="129.210481"><ele>90.3</ele></trkpt>
      <trkpt lat="35.774786" lon="129.210970"><ele>88.9</ele></trkpt>
      <trkpt lat="35.774826" lon="129.211398"><ele>95.0</ele></trkpt>
      <trkpt lat="35.774746" lon="129.211722"><ele>94.3</ele></trkpt>
      <trkpt lat="35.774797" lon="129.212032"><ele>98.4</ele></trkpt>
      <trkpt lat="35.774763" lon="129.212213"><ele>98.9</ele></trkpt>
      <trkpt lat="35.774855" lon="129.212384"><ele>101.6</ele></trkpt>
      <trkpt lat="35.774868" lon="129.212842"><ele>103.6</ele></trkpt>
      <trkpt lat="35.774949" lon="129.213185"><ele>106.7</ele></trkpt>
      <trkpt lat="35.774957" lon="129.213629"><ele>107.7</ele></trkpt>
      <trkpt lat="35.774894" lon="129.214080"><ele>113.0</ele></trkpt>
      <trkpt lat="35.774920" lon="129.214186"><ele>115.2</ele></trkpt>
      <trkpt lat="35.774831" lon="129.214540"><ele>118.0</ele></trkpt>
      <trkpt lat="35.774749" lon="129.214691"><ele>116.7</ele></trkpt>
      <trkpt lat="35.774633" lon="129.215350"><ele>123.2</ele></trkpt>
      <trkpt lat="35.774679" lon="129.215475"><ele>124.9</ele></trkpt>
      <trkpt lat="35.774546" lon="129.215533"><ele>125.1</ele></trkpt>
      <trkpt lat="35.774415" lon="129.215468"><ele>124.1</ele></trkpt>
      <trkpt lat="35.774357" lon="129.215545"><ele>125.8</ele></trkpt>
      <trkpt lat="35.774409" lon="129.215672"><ele>127.8</ele></trkpt>
      <trkpt lat="35.774361" lon="129.215771"><ele>130.3</ele></trkpt>
      <trkpt lat="35.774378" lon="129.215897"><ele>132.5</ele></trkpt>
      <trkpt lat="35.774296" lon="129.216017"><ele>135.1</ele></trkpt>
      <trkpt lat="35.774343" lon="129.216309"><ele>141.1</ele></trkpt>
      <trkpt lat="35.774185" lon="129.216499"><ele>148.4</ele></trkpt>
      <trkpt lat="35.774125" lon="129.216732"><ele>157.3</ele></trkpt>
      <trkpt lat="35.774148" lon="129.216960"><ele>166.7</ele></trkpt>
      <trkpt lat="35.774047" lon="129.217152"><ele>174.7</ele></trkpt>
      <trkpt lat="35.774100" lon="129.217246"><ele>178.4</ele></trkpt>
      <trkpt lat="35.774043" lon="129.217304"><ele>181.6</ele></trkpt>
      <trkpt lat="35.774015" lon="129.217482"><ele>191.3</ele></trkpt>
      <trkpt lat="35.774125" lon="129.217755"><ele>204.7</ele></trkpt>
      <trkpt lat="35.774098" lon="129.217946"><ele>214.9</ele></trkpt>
      <trkpt lat="35.773961" lon="129.218183"><ele>225.3</ele></trkpt>
      <trkpt lat="35.774018" lon="129.218292"><ele>229.0</ele></trkpt>
      <trkpt lat="35.773961" lon="129.218417"><ele>233.6</ele></trkpt>
      <trkpt lat="35.773969" lon="129.218620"><ele>240.5</ele></trkpt>
      <trkpt lat="35.773936" lon="129.218677"><ele>242.8</ele></trkpt>
      <trkpt lat="35.773988" lon="129.218739"><ele>244.2</ele></trkpt>
      <trkpt lat="35.773938" lon="129.218827"><ele>248.0</ele></trkpt>
      <trkpt lat="35.773975" lon="129.218889"><ele>249.5</ele></trkpt>
      <trkpt lat="35.773914" lon="129.219207"><ele>261.9</ele></trkpt>
      <trkpt lat="35.773944" lon="129.219641"><ele>271.7</ele></trkpt>
      <trkpt lat="35.773801" lon="129.219826"><ele>275.4</ele></trkpt>
      <trkpt lat="35.773532" lon="129.219992"><ele>282.4</ele></trkpt>
      <trkpt lat="35.773420" lon="129.220202"><ele>289.3</ele></trkpt>
      <trkpt lat="35.773176" lon="129.220242"><ele>294.4</ele></trkpt>
      <trkpt lat="35.772702" lon="129.220711"><ele>305.8</ele></trkpt>
      <trkpt lat="35.772340" lon="129.220878"><ele>318.1</ele></trkpt>
      <trkpt lat="35.772154" lon="129.220862"><ele>321.7</ele></trkpt>
      <trkpt lat="35.772027" lon="129.221200"><ele>324.6</ele></trkpt>
      <trkpt lat="35.772041" lon="129.221454"><ele>329.0</ele></trkpt>
      <trkpt lat="35.772117" lon="129.221516"><ele>330.8</ele></trkpt>
      <trkpt lat="35.772126" lon="129.221605"><ele>333.1</ele></trkpt>
      <trkpt lat="35.772038" lon="129.221892"><ele>342.7</ele></trkpt>
      <trkpt lat="35.772037" lon="129.222195"><ele>352.8</ele></trkpt>
      <trkpt lat="35.771995" lon="129.222251"><ele>354.7</ele></trkpt>
      <trkpt lat="35.772058" lon="129.222334"><ele>354.5</ele></trkpt>
      <trkpt lat="35.772049" lon="129.222409"><ele>355.6</ele></trkpt>
      <trkpt lat="35.771900" lon="129.222484"><ele>359.5</ele></trkpt>
      <trkpt lat="35.771764" lon="129.222420"><ele>357.4</ele></trkpt>
      <trkpt lat="35.771658" lon="129.222476"><ele>358.2</ele></trkpt>
      <trkpt lat="35.771540" lon="129.222433"><ele>355.0</ele></trkpt>
      <trkpt lat="35.770518" lon="129.222726"><ele>352.4</ele></trkpt>
      <trkpt lat="35.770347" lon="129.222734"><ele>355.8</ele></trkpt>
      <trkpt lat="35.770202" lon="129.222948"><ele>362.6</ele></trkpt>
      <trkpt lat="35.770100" lon="129.223206"><ele>368.9</ele></trkpt>
      <trkpt lat="35.769938" lon="129.223356"><ele>372.8</ele></trkpt>
      <trkpt lat="35.769939" lon="129.223453"><ele>375.8</ele></trkpt>
      <trkpt lat="35.769832" lon="129.223466"><ele>375.3</ele></trkpt>
      <trkpt lat="35.769956" lon="129.223796"><ele>386.4</ele></trkpt>
      <trkpt lat="35.769799" lon="129.223890"><ele>389.7</ele></trkpt>
      <trkpt lat="35.769754" lon="129.224155"><ele>396.2</ele></trkpt>
      <trkpt lat="35.769633" lon="129.224180"><ele>399.1</ele></trkpt>
      <trkpt lat="35.769594" lon="129.224450"><ele>403.1</ele></trkpt>
      <trkpt lat="35.769538" lon="129.224558"><ele>405.2</ele></trkpt>
      <trkpt lat="35.769351" lon="129.224740"><ele>414.0</ele></trkpt>
      <trkpt lat="35.768974" lon="129.224745"><ele>427.0</ele></trkpt>
      <trkpt lat="35.768920" lon="129.224826"><ele>432.2</ele></trkpt>
      <trkpt lat="35.768829" lon="129.224823"><ele>436.3</ele></trkpt>
      <trkpt lat="35.768768" lon="129.224893"><ele>441.6</ele></trkpt>
      <trkpt lat="35.768685" lon="129.224842"><ele>443.4</ele></trkpt>
      <trkpt lat="35.768637" lon="129.224987"><ele>451.3</ele></trkpt>
      <trkpt lat="35.768577" lon="129.224973"><ele>453.1</ele></trkpt>
      <trkpt lat="35.768542" lon="129.225091"><ele>456.6</ele></trkpt>
      <trkpt lat="35.768479" lon="129.225115"><ele>459.8</ele></trkpt>
      <trkpt lat="35.768450" lon="129.225266"><ele>464.1</ele></trkpt>
      <trkpt lat="35.768372" lon="129.225264"><ele>468.4</ele></trkpt>
      <trkpt lat="35.767988" lon="129.225502"><ele>481.2</ele></trkpt>
      <trkpt lat="35.767534" lon="129.225296"><ele>485.0</ele></trkpt>
      <trkpt lat="35.767485" lon="129.224979"><ele>480.7</ele></trkpt>
      <trkpt lat="35.767444" lon="129.224945"><ele>478.1</ele></trkpt>
      <trkpt lat="35.767692" lon="129.224208"><ele>443.2</ele></trkpt>
      <trkpt lat="35.767656" lon="129.224122"><ele>439.8</ele></trkpt>
      <trkpt lat="35.767693" lon="129.224049"><ele>437.0</ele></trkpt>
      <trkpt lat="35.767676" lon="129.223918"><ele>431.8</ele></trkpt>
      <trkpt lat="35.767724" lon="129.223880"><ele>430.4</ele></trkpt>
      <trkpt lat="35.767683" lon="129.223777"><ele>425.0</ele></trkpt>
      <trkpt lat="35.767815" lon="129.223718"><ele>423.2</ele></trkpt>
      <trkpt lat="35.767848" lon="129.223592"><ele>417.6</ele></trkpt>
      <trkpt lat="35.767782" lon="129.223587"><ele>417.5</ele></trkpt>
      <trkpt lat="35.767765" lon="129.223500"><ele>411.9</ele></trkpt>
      <trkpt lat="35.767870" lon="129.223536"><ele>414.1</ele></trkpt>
      <trkpt lat="35.767855" lon="129.223469"><ele>410.1</ele></trkpt>
      <trkpt lat="35.767918" lon="129.223302"><ele>400.5</ele></trkpt>
      <trkpt lat="35.767888" lon="129.223135"><ele>392.4</ele></trkpt>
      <trkpt lat="35.767926" lon="129.222809"><ele>382.8</ele></trkpt>
      <trkpt lat="35.768233" lon="129.222577"><ele>374.9</ele></trkpt>
      <trkpt lat="35.768362" lon="129.222225"><ele>369.8</ele></trkpt>
      <trkpt lat="35.768448" lon="129.221778"><ele>366.5</ele></trkpt>
      <trkpt lat="35.768609" lon="129.221501"><ele>364.6</ele></trkpt>
      <trkpt lat="35.768743" lon="129.221150"><ele>358.4</ele></trkpt>
      <trkpt lat="35.768808" lon="129.221096"><ele>357.8</ele></trkpt>
      <trkpt lat="35.768807" lon="129.220914"><ele>355.9</ele></trkpt>
      <trkpt lat="35.768718" lon="129.220794"><ele>354.1</ele></trkpt>
      <trkpt lat="35.768705" lon="129.220702"><ele>352.0</ele></trkpt>
      <trkpt lat="35.768610" lon="129.220652"><ele>351.1</ele></trkpt>
      <trkpt lat="35.768474" lon="129.220357"><ele>340.4</ele></trkpt>
      <trkpt lat="35.768459" lon="129.220232"><ele>337.4</ele></trkpt>
      <trkpt lat="35.768341" lon="129.220074"><ele>332.3</ele></trkpt>
      <trkpt lat="35.768352" lon="129.219933"><ele>331.6</ele></trkpt>
      <trkpt lat="35.768262" lon="129.219772"><ele>330.3</ele></trkpt>
      <trkpt lat="35.768703" lon="129.219433"><ele>329.1</ele></trkpt>
    </trkseg>
  </trk>
</gpx>
