<?xml version="1.0" encoding="UTF-8"?>
<gpx version="1.1" creator="kr-100-mountains route-harvester"
     xmlns="http://www.topografix.com/GPX/1/1"
     xmlns:k100="https://github.com/jay-jang/kr-100-mountains/ns/1"
     xmlns:xsi="http://www.w3.org/2001/XMLSchema-instance"
     xsi:schemaLocation="http://www.topografix.com/GPX/1/1 http://www.topografix.com/GPX/1/1/gpx.xsd">
  <metadata>
    <name>남산 · 용장골-고위봉 코스 (대안 1) (OSM 계산 경로)</name>
    <desc>실제 GPS 기록이 아닙니다. OpenStreetMap에 등록된 등산로 선형 위에서 계산한 경로이며, 현장 통제·훼손·출입 제한·계절 통제를 반영하지 않을 수 있습니다. 산행 전 공식 안내를 확인하세요.</desc>
    <time>2026-08-04T05:47:27.177Z</time>
    <link href="https://www.openstreetmap.org/copyright"><text>© OpenStreetMap contributors (ODbL 1.0)</text></link>
    <link href="https://registry.opendata.aws/terrain-tiles/"><text>Elevation: SRTM 1 arc-second (NASA/USGS) via AWS Terrain Tiles</text></link>
    <extensions>
      <k100:provenance>osm-routed</k100:provenance>
      <k100:not_a_recorded_track>true</k100:not_a_recorded_track>
      <k100:mountain_id>namsan-gyeongju</k100:mountain_id>
      <k100:mountain_name>남산(경주)</k100:mountain_name>
      <k100:route_id>namsan-gyeongju-9042bad4</k100:route_id>
      <k100:route_index>2</k100:route_index>
      <k100:route_name>용장골-고위봉 코스</k100:route_name>
      <k100:variant>1</k100:variant>
      <k100:source>OpenStreetMap via Overpass API</k100:source>
      <k100:license>ODbL-1.0</k100:license>
      <k100:attribution>© OpenStreetMap contributors</k100:attribution>
      <k100:elevation_source>SRTM 1 arc-second (NASA/USGS) — AWS Terrain Tiles 배포본. 지형 DEM 추정 고도이며 실측 아님</k100:elevation_source>
      <k100:algorithm>dijkstra-grid-v1</k100:algorithm>
      <k100:osm_snapshot>2026-08-04</k100:osm_snapshot>
      <k100:snap_trailhead_m>42</k100:snap_trailhead_m>
      <k100:snap_summit_m>19</k100:snap_summit_m>
      <k100:validation_score>93</k100:validation_score>
      <k100:validation_status>accepted</k100:validation_status>
    </extensions>
  </metadata>
  <trk>
    <name>남산 · 용장골-고위봉 코스 (대안 1) (OSM 계산 경로)</name>
    <desc>실제 GPS 기록이 아닙니다. OpenStreetMap에 등록된 등산로 선형 위에서 계산한 경로이며, 현장 통제·훼손·출입 제한·계절 통제를 반영하지 않을 수 있습니다. 산행 전 공식 안내를 확인하세요.</desc>
    <trkseg>
      <trkpt lat="35.776032" lon="129.206631"><ele>64.9</ele></trkpt>
      <trkpt lat="35.776386" lon="129.206112"><ele>63.0</ele></trkpt>
      <trkpt lat="35.775520" lon="129.205887"><ele>61.8</ele></trkpt>
      <trkpt lat="35.775264" lon="129.205906"><ele>59.2</ele></trkpt>
      <trkpt lat="35.775050" lon="129.206593"><ele>60.6</ele></trkpt>
      <trkpt lat="35.774516" lon="129.206457"><ele>61.2</ele></trkpt>
      <trkpt lat="35.774169" lon="129.206184"><ele>59.5</ele></trkpt>
      <trkpt lat="35.773957" lon="129.206335"><ele>61.2</ele></trkpt>
      <trkpt lat="35.773894" lon="129.206442"><ele>63.1</ele></trkpt>
      <trkpt lat="35.773712" lon="129.206965"><ele>72.8</ele></trkpt>
      <trkpt lat="35.773653" lon="129.207283"><ele>76.5</ele></trkpt>
      <trkpt lat="35.773334" lon="129.207573"><ele>81.8</ele></trkpt>
      <trkpt lat="35.773100" lon="129.207886"><ele>88.3</ele></trkpt>
      <trkpt lat="35.772725" lon="129.208161"><ele>96.6</ele></trkpt>
      <trkpt lat="35.772370" lon="129.208700"><ele>99.6</ele></trkpt>
      <trkpt lat="35.772325" lon="129.208940"><ele>103.9</ele></trkpt>
      <trkpt lat="35.772176" lon="129.209127"><ele>107.3</ele></trkpt>
      <trkpt lat="35.771941" lon="129.209269"><ele>110.9</ele></trkpt>
      <trkpt lat="35.771807" lon="129.209274"><ele>109.4</ele></trkpt>
      <trkpt lat="35.771587" lon="129.209468"><ele>112.2</ele></trkpt>
      <trkpt lat="35.771145" lon="129.209633"><ele>116.3</ele></trkpt>
      <trkpt lat="35.770977" lon="129.209892"><ele>125.0</ele></trkpt>
      <trkpt lat="35.770801" lon="129.209936"><ele>129.2</ele></trkpt>
      <trkpt lat="35.770715" lon="129.209893"><ele>130.8</ele></trkpt>
      <trkpt lat="35.770513" lon="129.210086"><ele>141.1</ele></trkpt>
      <trkpt lat="35.769831" lon="129.210387"><ele>164.5</ele></trkpt>
      <trkpt lat="35.769536" lon="129.210646"><ele>179.5</ele></trkpt>
      <trkpt lat="35.769235" lon="129.210629"><ele>191.1</ele></trkpt>
      <trkpt lat="35.769317" lon="129.210288"><ele>187.6</ele></trkpt>
      <trkpt lat="35.769307" lon="129.210085"><ele>185.5</ele></trkpt>
      <trkpt lat="35.769011" lon="129.210102"><ele>191.6</ele></trkpt>
      <trkpt lat="35.768357" lon="129.210820"><ele>215.1</ele></trkpt>
      <trkpt lat="35.768310" lon="129.210931"><ele>219.0</ele></trkpt>
      <trkpt lat="35.768200" lon="129.210959"><ele>221.2</ele></trkpt>
      <trkpt lat="35.768034" lon="129.211085"><ele>228.5</ele></trkpt>
      <trkpt lat="35.768010" lon="129.211165"><ele>231.4</ele></trkpt>
      <trkpt lat="35.767853" lon="129.211228"><ele>230.8</ele></trkpt>
      <trkpt lat="35.767824" lon="129.211311"><ele>232.8</ele></trkpt>
      <trkpt lat="35.767880" lon="129.211365"><ele>235.8</ele></trkpt>
      <trkpt lat="35.767943" lon="129.211587"><ele>245.0</ele></trkpt>
      <trkpt lat="35.767890" lon="129.211717"><ele>249.2</ele></trkpt>
      <trkpt lat="35.767979" lon="129.212221"><ele>270.0</ele></trkpt>
      <trkpt lat="35.767894" lon="129.212287"><ele>272.6</ele></trkpt>
      <trkpt lat="35.767869" lon="129.212521"><ele>282.5</ele></trkpt>
      <trkpt lat="35.767669" lon="129.212968"><ele>297.5</ele></trkpt>
      <trkpt lat="35.767631" lon="129.213453"><ele>308.5</ele></trkpt>
      <trkpt lat="35.767680" lon="129.213603"><ele>312.4</ele></trkpt>
      <trkpt lat="35.767756" lon="129.213646"><ele>314.0</ele></trkpt>
      <trkpt lat="35.767768" lon="129.213798"><ele>315.8</ele></trkpt>
      <trkpt lat="35.767860" lon="129.213850"><ele>318.7</ele></trkpt>
      <trkpt lat="35.767926" lon="129.213967"><ele>322.8</ele></trkpt>
      <trkpt lat="35.768045" lon="129.214297"><ele>333.1</ele></trkpt>
      <trkpt lat="35.768135" lon="129.214918"><ele>350.4</ele></trkpt>
      <trkpt lat="35.768109" lon="129.215124"><ele>356.0</ele></trkpt>
      <trkpt lat="35.768167" lon="129.215272"><ele>358.3</ele></trkpt>
      <trkpt lat="35.768139" lon="129.215462"><ele>360.9</ele></trkpt>
      <trkpt lat="35.768248" lon="129.215588"><ele>362.3</ele></trkpt>
      <trkpt lat="35.768272" lon="129.215689"><ele>363.5</ele></trkpt>
      <trkpt lat="35.768269" lon="129.216168"><ele>362.6</ele></trkpt>
      <trkpt lat="35.768175" lon="129.216844"><ele>353.4</ele></trkpt>
      <trkpt lat="35.768144" lon="129.217995"><ele>345.1</ele></trkpt>
      <trkpt lat="35.768207" lon="129.218359"><ele>341.4</ele></trkpt>
      <trkpt lat="35.768180" lon="129.219223"><ele>331.0</ele></trkpt>
      <trkpt lat="35.768251" lon="129.219482"><ele>331.3</ele></trkpt>
      <trkpt lat="35.768226" lon="129.219686"><ele>329.9</ele></trkpt>
      <trkpt lat="35.768262" lon="129.219772"><ele>330.3</ele></trkpt>
      <trkpt lat="35.768703" lon="129.219433"><ele>329.1</ele></trkpt>
    </trkseg>
  </trk>
</gpx>
