<?xml version="1.0" encoding="UTF-8"?>
<gpx version="1.1" creator="kr-100-mountains route-harvester"
     xmlns="http://www.topografix.com/GPX/1/1"
     xmlns:k100="https://github.com/jay-jang/kr-100-mountains/ns/1"
     xmlns:xsi="http://www.w3.org/2001/XMLSchema-instance"
     xsi:schemaLocation="http://www.topografix.com/GPX/1/1 http://www.topografix.com/GPX/1/1/gpx.xsd">
  <metadata>
    <name>신불산 · 공룡능선(칼바위) 코스 (OSM 계산 경로)</name>
    <desc>실제 GPS 기록이 아닙니다. OpenStreetMap에 등록된 등산로 선형 위에서 계산한 경로이며, 현장 통제·훼손·출입 제한·계절 통제를 반영하지 않을 수 있습니다. 산행 전 공식 안내를 확인하세요.</desc>
    <time>2026-08-04T05:40:29.069Z</time>
    <link href="https://www.openstreetmap.org/copyright"><text>© OpenStreetMap contributors (ODbL 1.0)</text></link>
    <link href="https://registry.opendata.aws/terrain-tiles/"><text>Elevation: SRTM 1 arc-second (NASA/USGS) via AWS Terrain Tiles</text></link>
    <extensions>
      <k100:provenance>osm-routed</k100:provenance>
      <k100:not_a_recorded_track>true</k100:not_a_recorded_track>
      <k100:mountain_id>sinbulsan</k100:mountain_id>
      <k100:mountain_name>신불산</k100:mountain_name>
      <k100:route_id>sinbulsan-b0559750</k100:route_id>
      <k100:route_index>3</k100:route_index>
      <k100:route_name>공룡능선(칼바위) 코스</k100:route_name>
      <k100:variant>0</k100:variant>
      <k100:source>OpenStreetMap via Overpass API</k100:source>
      <k100:license>ODbL-1.0</k100:license>
      <k100:attribution>© OpenStreetMap contributors</k100:attribution>
      <k100:elevation_source>SRTM 1 arc-second (NASA/USGS) — AWS Terrain Tiles 배포본. 지형 DEM 추정 고도이며 실측 아님</k100:elevation_source>
      <k100:algorithm>dijkstra-grid-v1</k100:algorithm>
      <k100:osm_snapshot>2026-08-04</k100:osm_snapshot>
      <k100:snap_trailhead_m>67</k100:snap_trailhead_m>
      <k100:snap_summit_m>56</k100:snap_summit_m>
      <k100:validation_score>93</k100:validation_score>
      <k100:validation_status>accepted</k100:validation_status>
    </extensions>
  </metadata>
  <trk>
    <name>신불산 · 공룡능선(칼바위) 코스 (OSM 계산 경로)</name>
    <desc>실제 GPS 기록이 아닙니다. OpenStreetMap에 등록된 등산로 선형 위에서 계산한 경로이며, 현장 통제·훼손·출입 제한·계절 통제를 반영하지 않을 수 있습니다. 산행 전 공식 안내를 확인하세요.</desc>
    <trkseg>
      <trkpt lat="35.522301" lon="129.022552"><ele>498.5</ele></trkpt>
      <trkpt lat="35.522242" lon="129.022386"><ele>491.8</ele></trkpt>
      <trkpt lat="35.522218" lon="129.021801"><ele>469.7</ele></trkpt>
      <trkpt lat="35.522224" lon="129.021590"><ele>463.3</ele></trkpt>
      <trkpt lat="35.522307" lon="129.021302"><ele>457.0</ele></trkpt>
      <trkpt lat="35.522198" lon="129.020808"><ele>452.2</ele></trkpt>
      <trkpt lat="35.522214" lon="129.020423"><ele>451.8</ele></trkpt>
      <trkpt lat="35.521932" lon="129.019599"><ele>435.2</ele></trkpt>
      <trkpt lat="35.522116" lon="129.019347"><ele>426.8</ele></trkpt>
      <trkpt lat="35.522274" lon="129.019245"><ele>418.3</ele></trkpt>
      <trkpt lat="35.522261" lon="129.019181"><ele>415.2</ele></trkpt>
      <trkpt lat="35.522457" lon="129.019097"><ele>401.9</ele></trkpt>
      <trkpt lat="35.522487" lon="129.019006"><ele>395.8</ele></trkpt>
      <trkpt lat="35.522600" lon="129.018984"><ele>391.4</ele></trkpt>
      <trkpt lat="35.522636" lon="129.018899"><ele>386.5</ele></trkpt>
      <trkpt lat="35.522757" lon="129.018856"><ele>382.1</ele></trkpt>
      <trkpt lat="35.522784" lon="129.018746"><ele>377.0</ele></trkpt>
      <trkpt lat="35.522889" lon="129.018738"><ele>371.0</ele></trkpt>
      <trkpt lat="35.522987" lon="129.018846"><ele>370.5</ele></trkpt>
      <trkpt lat="35.523210" lon="129.018947"><ele>361.0</ele></trkpt>
      <trkpt lat="35.523303" lon="129.018909"><ele>353.0</ele></trkpt>
      <trkpt lat="35.523441" lon="129.018935"><ele>345.4</ele></trkpt>
      <trkpt lat="35.523436" lon="129.018789"><ele>340.5</ele></trkpt>
      <trkpt lat="35.523536" lon="129.018741"><ele>332.8</ele></trkpt>
      <trkpt lat="35.523502" lon="129.018652"><ele>332.0</ele></trkpt>
      <trkpt lat="35.523592" lon="129.018602"><ele>324.9</ele></trkpt>
      <trkpt lat="35.523805" lon="129.018864"><ele>322.7</ele></trkpt>
      <trkpt lat="35.524155" lon="129.019088"><ele>317.9</ele></trkpt>
      <trkpt lat="35.524222" lon="129.019197"><ele>319.3</ele></trkpt>
      <trkpt lat="35.524272" lon="129.020099"><ele>323.0</ele></trkpt>
      <trkpt lat="35.524251" lon="129.020730"><ele>331.3</ele></trkpt>
      <trkpt lat="35.524345" lon="129.020932"><ele>329.5</ele></trkpt>
      <trkpt lat="35.524576" lon="129.021192"><ele>328.5</ele></trkpt>
      <trkpt lat="35.524761" lon="129.021692"><ele>332.7</ele></trkpt>
      <trkpt lat="35.525646" lon="129.023261"><ele>333.2</ele></trkpt>
      <trkpt lat="35.525760" lon="129.023550"><ele>335.0</ele></trkpt>
      <trkpt lat="35.525770" lon="129.024028"><ele>339.2</ele></trkpt>
      <trkpt lat="35.525928" lon="129.024270"><ele>340.9</ele></trkpt>
      <trkpt lat="35.525942" lon="129.024491"><ele>347.3</ele></trkpt>
      <trkpt lat="35.525993" lon="129.024589"><ele>349.4</ele></trkpt>
      <trkpt lat="35.526524" lon="129.025300"><ele>361.3</ele></trkpt>
      <trkpt lat="35.526909" lon="129.025964"><ele>367.4</ele></trkpt>
      <trkpt lat="35.527250" lon="129.026231"><ele>368.1</ele></trkpt>
      <trkpt lat="35.527673" lon="129.026173"><ele>369.9</ele></trkpt>
      <trkpt lat="35.527721" lon="129.026603"><ele>382.0</ele></trkpt>
      <trkpt lat="35.527944" lon="129.026989"><ele>398.5</ele></trkpt>
      <trkpt lat="35.528152" lon="129.027588"><ele>428.8</ele></trkpt>
      <trkpt lat="35.528582" lon="129.027494"><ele>448.2</ele></trkpt>
      <trkpt lat="35.528826" lon="129.027681"><ele>471.2</ele></trkpt>
      <trkpt lat="35.528961" lon="129.027904"><ele>488.3</ele></trkpt>
      <trkpt lat="35.529138" lon="129.027971"><ele>499.9</ele></trkpt>
      <trkpt lat="35.529556" lon="129.027940"><ele>520.9</ele></trkpt>
      <trkpt lat="35.529648" lon="129.028023"><ele>529.3</ele></trkpt>
      <trkpt lat="35.529632" lon="129.028443"><ele>544.3</ele></trkpt>
      <trkpt lat="35.530024" lon="129.028614"><ele>562.4</ele></trkpt>
      <trkpt lat="35.530074" lon="129.028702"><ele>566.2</ele></trkpt>
      <trkpt lat="35.529986" lon="129.028893"><ele>569.8</ele></trkpt>
      <trkpt lat="35.530146" lon="129.029189"><ele>590.9</ele></trkpt>
      <trkpt lat="35.530268" lon="129.029303"><ele>602.4</ele></trkpt>
      <trkpt lat="35.530311" lon="129.029624"><ele>615.0</ele></trkpt>
      <trkpt lat="35.530408" lon="129.029919"><ele>626.7</ele></trkpt>
      <trkpt lat="35.530496" lon="129.029976"><ele>630.7</ele></trkpt>
      <trkpt lat="35.530665" lon="129.030381"><ele>648.7</ele></trkpt>
      <trkpt lat="35.530821" lon="129.031619"><ele>709.3</ele></trkpt>
      <trkpt lat="35.530770" lon="129.031899"><ele>723.6</ele></trkpt>
      <trkpt lat="35.530808" lon="129.032241"><ele>741.9</ele></trkpt>
      <trkpt lat="35.530893" lon="129.032376"><ele>748.2</ele></trkpt>
      <trkpt lat="35.530888" lon="129.032583"><ele>757.7</ele></trkpt>
      <trkpt lat="35.531133" lon="129.032956"><ele>779.0</ele></trkpt>
      <trkpt lat="35.531285" lon="129.033677"><ele>796.4</ele></trkpt>
      <trkpt lat="35.531449" lon="129.034086"><ele>805.9</ele></trkpt>
      <trkpt lat="35.532141" lon="129.034723"><ele>821.9</ele></trkpt>
      <trkpt lat="35.532293" lon="129.035008"><ele>824.2</ele></trkpt>
      <trkpt lat="35.532364" lon="129.034998"><ele>824.5</ele></trkpt>
      <trkpt lat="35.532613" lon="129.035309"><ele>836.2</ele></trkpt>
      <trkpt lat="35.532638" lon="129.035470"><ele>843.4</ele></trkpt>
      <trkpt lat="35.532710" lon="129.035480"><ele>846.8</ele></trkpt>
      <trkpt lat="35.532807" lon="129.035713"><ele>856.8</ele></trkpt>
      <trkpt lat="35.533059" lon="129.036103"><ele>860.9</ele></trkpt>
      <trkpt lat="35.533514" lon="129.036465"><ele>856.6</ele></trkpt>
      <trkpt lat="35.533577" lon="129.036621"><ele>858.9</ele></trkpt>
      <trkpt lat="35.533767" lon="129.036823"><ele>858.7</ele></trkpt>
      <trkpt lat="35.533793" lon="129.036984"><ele>860.1</ele></trkpt>
      <trkpt lat="35.534065" lon="129.037218"><ele>856.7</ele></trkpt>
      <trkpt lat="35.533949" lon="129.037268"><ele>857.3</ele></trkpt>
      <trkpt lat="35.533845" lon="129.037537"><ele>852.3</ele></trkpt>
      <trkpt lat="35.534079" lon="129.037626"><ele>860.3</ele></trkpt>
      <trkpt lat="35.534303" lon="129.037880"><ele>868.1</ele></trkpt>
      <trkpt lat="35.534438" lon="129.037922"><ele>871.0</ele></trkpt>
      <trkpt lat="35.534741" lon="129.038746"><ele>893.5</ele></trkpt>
      <trkpt lat="35.534832" lon="129.038836"><ele>896.8</ele></trkpt>
      <trkpt lat="35.534885" lon="129.039010"><ele>900.6</ele></trkpt>
      <trkpt lat="35.535398" lon="129.039374"><ele>905.1</ele></trkpt>
      <trkpt lat="35.535505" lon="129.039501"><ele>905.5</ele></trkpt>
      <trkpt lat="35.535799" lon="129.040092"><ele>914.4</ele></trkpt>
      <trkpt lat="35.536264" lon="129.040567"><ele>929.8</ele></trkpt>
      <trkpt lat="35.536389" lon="129.040794"><ele>936.1</ele></trkpt>
      <trkpt lat="35.536552" lon="129.040951"><ele>941.1</ele></trkpt>
      <trkpt lat="35.536726" lon="129.041391"><ele>953.0</ele></trkpt>
      <trkpt lat="35.537244" lon="129.041880"><ele>965.8</ele></trkpt>
      <trkpt lat="35.537359" lon="129.042076"><ele>970.8</ele></trkpt>
      <trkpt lat="35.537774" lon="129.042342"><ele>990.1</ele></trkpt>
      <trkpt lat="35.538275" lon="129.042973"><ele>1016.8</ele></trkpt>
      <trkpt lat="35.538678" lon="129.043316"><ele>1038.4</ele></trkpt>
      <trkpt lat="35.538962" lon="129.043417"><ele>1049.0</ele></trkpt>
      <trkpt lat="35.539299" lon="129.043831"><ele>1068.5</ele></trkpt>
      <trkpt lat="35.539511" lon="129.043928"><ele>1074.7</ele></trkpt>
      <trkpt lat="35.539593" lon="129.044651"><ele>1091.0</ele></trkpt>
      <trkpt lat="35.539669" lon="129.044910"><ele>1100.3</ele></trkpt>
      <trkpt lat="35.539778" lon="129.045037"><ele>1106.2</ele></trkpt>
      <trkpt lat="35.539826" lon="129.045253"><ele>1114.1</ele></trkpt>
      <trkpt lat="35.539778" lon="129.045485"><ele>1120.5</ele></trkpt>
      <trkpt lat="35.540036" lon="129.045907"><ele>1130.2</ele></trkpt>
      <trkpt lat="35.540136" lon="129.046857"><ele>1143.4</ele></trkpt>
      <trkpt lat="35.540003" lon="129.047126"><ele>1146.0</ele></trkpt>
      <trkpt lat="35.539734" lon="129.047373"><ele>1146.1</ele></trkpt>
      <trkpt lat="35.539761" lon="129.047781"><ele>1148.9</ele></trkpt>
      <trkpt lat="35.539957" lon="129.048117"><ele>1151.0</ele></trkpt>
      <trkpt lat="35.540119" lon="129.048757"><ele>1150.0</ele></trkpt>
      <trkpt lat="35.539989" lon="129.049250"><ele>1141.3</ele></trkpt>
      <trkpt lat="35.539989" lon="129.049473"><ele>1136.0</ele></trkpt>
      <trkpt lat="35.539867" lon="129.049892"><ele>1134.8</ele></trkpt>
      <trkpt lat="35.539890" lon="129.050235"><ele>1133.8</ele></trkpt>
      <trkpt lat="35.539840" lon="129.050589"><ele>1134.2</ele></trkpt>
      <trkpt lat="35.539764" lon="129.050771"><ele>1137.5</ele></trkpt>
      <trkpt lat="35.539629" lon="129.052365"><ele>1135.2</ele></trkpt>
      <trkpt lat="35.539535" lon="129.052800"><ele>1140.6</ele></trkpt>
      <trkpt lat="35.539514" lon="129.053229"><ele>1144.6</ele></trkpt>
      <trkpt lat="35.539324" lon="129.054056"><ele>1142.7</ele></trkpt>
      <trkpt lat="35.539067" lon="129.054387"><ele>1142.6</ele></trkpt>
      <trkpt lat="35.539021" lon="129.054838"><ele>1136.8</ele></trkpt>
      <trkpt lat="35.539085" lon="129.055350"><ele>1125.1</ele></trkpt>
      <trkpt lat="35.539271" lon="129.055785"><ele>1112.7</ele></trkpt>
      <trkpt lat="35.539241" lon="129.055950"><ele>1111.4</ele></trkpt>
      <trkpt lat="35.539444" lon="129.056297"><ele>1104.3</ele></trkpt>
      <trkpt lat="35.539653" lon="129.056446"><ele>1098.0</ele></trkpt>
    </trkseg>
  </trk>
</gpx>
