<?xml version="1.0" encoding="UTF-8"?>
<gpx version="1.1" creator="kr-100-mountains route-harvester"
     xmlns="http://www.topografix.com/GPX/1/1"
     xmlns:k100="https://github.com/jay-jang/kr-100-mountains/ns/1"
     xmlns:xsi="http://www.w3.org/2001/XMLSchema-instance"
     xsi:schemaLocation="http://www.topografix.com/GPX/1/1 http://www.topografix.com/GPX/1/1/gpx.xsd">
  <metadata>
    <name>신불산 · 공룡능선(칼바위) 코스 (대안 1) (OSM 계산 경로)</name>
    <desc>실제 GPS 기록이 아닙니다. OpenStreetMap에 등록된 등산로 선형 위에서 계산한 경로이며, 현장 통제·훼손·출입 제한·계절 통제를 반영하지 않을 수 있습니다. 산행 전 공식 안내를 확인하세요.</desc>
    <time>2026-08-04T05:40:29.070Z</time>
    <link href="https://www.openstreetmap.org/copyright"><text>© OpenStreetMap contributors (ODbL 1.0)</text></link>
    <link href="https://registry.opendata.aws/terrain-tiles/"><text>Elevation: SRTM 1 arc-second (NASA/USGS) via AWS Terrain Tiles</text></link>
    <extensions>
      <k100:provenance>osm-routed</k100:provenance>
      <k100:not_a_recorded_track>true</k100:not_a_recorded_track>
      <k100:mountain_id>sinbulsan</k100:mountain_id>
      <k100:mountain_name>신불산</k100:mountain_name>
      <k100:route_id>sinbulsan-b0559750</k100:route_id>
      <k100:route_index>3</k100:route_index>
      <k100:route_name>공룡능선(칼바위) 코스</k100:route_name>
      <k100:variant>1</k100:variant>
      <k100:source>OpenStreetMap via Overpass API</k100:source>
      <k100:license>ODbL-1.0</k100:license>
      <k100:attribution>© OpenStreetMap contributors</k100:attribution>
      <k100:elevation_source>SRTM 1 arc-second (NASA/USGS) — AWS Terrain Tiles 배포본. 지형 DEM 추정 고도이며 실측 아님</k100:elevation_source>
      <k100:algorithm>dijkstra-grid-v1</k100:algorithm>
      <k100:osm_snapshot>2026-08-04</k100:osm_snapshot>
      <k100:snap_trailhead_m>67</k100:snap_trailhead_m>
      <k100:snap_summit_m>56</k100:snap_summit_m>
      <k100:validation_score>93</k100:validation_score>
      <k100:validation_status>accepted</k100:validation_status>
    </extensions>
  </metadata>
  <trk>
    <name>신불산 · 공룡능선(칼바위) 코스 (대안 1) (OSM 계산 경로)</name>
    <desc>실제 GPS 기록이 아닙니다. OpenStreetMap에 등록된 등산로 선형 위에서 계산한 경로이며, 현장 통제·훼손·출입 제한·계절 통제를 반영하지 않을 수 있습니다. 산행 전 공식 안내를 확인하세요.</desc>
    <trkseg>
      <trkpt lat="35.522301" lon="129.022552"><ele>498.5</ele></trkpt>
      <trkpt lat="35.522354" lon="129.022817"><ele>509.1</ele></trkpt>
      <trkpt lat="35.522313" lon="129.023221"><ele>518.7</ele></trkpt>
      <trkpt lat="35.522456" lon="129.023915"><ele>547.3</ele></trkpt>
      <trkpt lat="35.522451" lon="129.024202"><ele>552.1</ele></trkpt>
      <trkpt lat="35.522554" lon="129.024325"><ele>558.8</ele></trkpt>
      <trkpt lat="35.522557" lon="129.024587"><ele>568.0</ele></trkpt>
      <trkpt lat="35.522660" lon="129.024927"><ele>581.2</ele></trkpt>
      <trkpt lat="35.522657" lon="129.025046"><ele>585.8</ele></trkpt>
      <trkpt lat="35.522721" lon="129.025132"><ele>590.0</ele></trkpt>
      <trkpt lat="35.522717" lon="129.025378"><ele>599.0</ele></trkpt>
      <trkpt lat="35.522828" lon="129.025765"><ele>605.2</ele></trkpt>
      <trkpt lat="35.522701" lon="129.026098"><ele>610.7</ele></trkpt>
      <trkpt lat="35.522707" lon="129.026299"><ele>611.3</ele></trkpt>
      <trkpt lat="35.522619" lon="129.026669"><ele>615.2</ele></trkpt>
      <trkpt lat="35.522683" lon="129.026967"><ele>619.5</ele></trkpt>
      <trkpt lat="35.522632" lon="129.028202"><ele>636.5</ele></trkpt>
      <trkpt lat="35.522649" lon="129.029205"><ele>655.6</ele></trkpt>
      <trkpt lat="35.522734" lon="129.029503"><ele>669.4</ele></trkpt>
      <trkpt lat="35.522717" lon="129.029829"><ele>682.6</ele></trkpt>
      <trkpt lat="35.522776" lon="129.030088"><ele>694.1</ele></trkpt>
      <trkpt lat="35.522674" lon="129.030478"><ele>712.3</ele></trkpt>
      <trkpt lat="35.522574" lon="129.030612"><ele>718.6</ele></trkpt>
      <trkpt lat="35.522468" lon="129.030918"><ele>730.2</ele></trkpt>
      <trkpt lat="35.522769" lon="129.031796"><ele>739.5</ele></trkpt>
      <trkpt lat="35.522783" lon="129.032090"><ele>737.8</ele></trkpt>
      <trkpt lat="35.522600" lon="129.032520"><ele>739.9</ele></trkpt>
      <trkpt lat="35.522412" lon="129.033281"><ele>749.8</ele></trkpt>
      <trkpt lat="35.522268" lon="129.033602"><ele>762.8</ele></trkpt>
      <trkpt lat="35.522114" lon="129.034176"><ele>777.5</ele></trkpt>
      <trkpt lat="35.522083" lon="129.035149"><ele>799.2</ele></trkpt>
      <trkpt lat="35.522125" lon="129.035305"><ele>803.1</ele></trkpt>
      <trkpt lat="35.522428" lon="129.035874"><ele>816.2</ele></trkpt>
      <trkpt lat="35.522368" lon="129.036778"><ele>814.0</ele></trkpt>
      <trkpt lat="35.522416" lon="129.037524"><ele>814.9</ele></trkpt>
      <trkpt lat="35.522521" lon="129.038103"><ele>813.3</ele></trkpt>
      <trkpt lat="35.522648" lon="129.038345"><ele>812.0</ele></trkpt>
      <trkpt lat="35.522808" lon="129.039082"><ele>825.2</ele></trkpt>
      <trkpt lat="35.522901" lon="129.039276"><ele>831.4</ele></trkpt>
      <trkpt lat="35.522974" lon="129.039292"><ele>833.6</ele></trkpt>
      <trkpt lat="35.522996" lon="129.039367"><ele>836.2</ele></trkpt>
      <trkpt lat="35.523093" lon="129.039434"><ele>839.8</ele></trkpt>
      <trkpt lat="35.523400" lon="129.040406"><ele>858.0</ele></trkpt>
      <trkpt lat="35.523682" lon="129.040700"><ele>865.0</ele></trkpt>
      <trkpt lat="35.523773" lon="129.040892"><ele>866.5</ele></trkpt>
      <trkpt lat="35.523761" lon="129.041079"><ele>869.2</ele></trkpt>
      <trkpt lat="35.523878" lon="129.041407"><ele>875.1</ele></trkpt>
      <trkpt lat="35.523869" lon="129.041539"><ele>877.7</ele></trkpt>
      <trkpt lat="35.523917" lon="129.041554"><ele>877.9</ele></trkpt>
      <trkpt lat="35.523946" lon="129.041742"><ele>881.2</ele></trkpt>
      <trkpt lat="35.524047" lon="129.041932"><ele>885.2</ele></trkpt>
      <trkpt lat="35.524045" lon="129.042092"><ele>888.8</ele></trkpt>
      <trkpt lat="35.524142" lon="129.042320"><ele>894.8</ele></trkpt>
      <trkpt lat="35.524124" lon="129.042548"><ele>899.4</ele></trkpt>
      <trkpt lat="35.524328" lon="129.043200"><ele>910.0</ele></trkpt>
      <trkpt lat="35.524583" lon="129.043569"><ele>917.7</ele></trkpt>
      <trkpt lat="35.524728" lon="129.043731"><ele>919.6</ele></trkpt>
      <trkpt lat="35.524835" lon="129.043769"><ele>919.8</ele></trkpt>
      <trkpt lat="35.525171" lon="129.044214"><ele>919.1</ele></trkpt>
      <trkpt lat="35.525169" lon="129.044365"><ele>919.3</ele></trkpt>
      <trkpt lat="35.525306" lon="129.044634"><ele>919.7</ele></trkpt>
      <trkpt lat="35.525321" lon="129.044952"><ele>918.2</ele></trkpt>
      <trkpt lat="35.525441" lon="129.045129"><ele>917.7</ele></trkpt>
      <trkpt lat="35.525613" lon="129.045580"><ele>920.5</ele></trkpt>
      <trkpt lat="35.525687" lon="129.045640"><ele>920.2</ele></trkpt>
      <trkpt lat="35.525721" lon="129.045807"><ele>921.4</ele></trkpt>
      <trkpt lat="35.525952" lon="129.046179"><ele>922.9</ele></trkpt>
      <trkpt lat="35.526044" lon="129.046511"><ele>923.9</ele></trkpt>
      <trkpt lat="35.525328" lon="129.047115"><ele>920.1</ele></trkpt>
      <trkpt lat="35.525156" lon="129.047087"><ele>919.6</ele></trkpt>
      <trkpt lat="35.525070" lon="129.047157"><ele>919.6</ele></trkpt>
      <trkpt lat="35.525075" lon="129.047371"><ele>920.2</ele></trkpt>
      <trkpt lat="35.524958" lon="129.047683"><ele>921.7</ele></trkpt>
      <trkpt lat="35.524838" lon="129.047778"><ele>923.9</ele></trkpt>
      <trkpt lat="35.524661" lon="129.048052"><ele>928.3</ele></trkpt>
      <trkpt lat="35.524438" lon="129.048170"><ele>934.4</ele></trkpt>
      <trkpt lat="35.524206" lon="129.048189"><ele>939.2</ele></trkpt>
      <trkpt lat="35.524105" lon="129.048318"><ele>940.5</ele></trkpt>
      <trkpt lat="35.523978" lon="129.048340"><ele>941.4</ele></trkpt>
      <trkpt lat="35.523523" lon="129.048874"><ele>953.4</ele></trkpt>
      <trkpt lat="35.523485" lon="129.048969"><ele>954.9</ele></trkpt>
      <trkpt lat="35.523579" lon="129.049111"><ele>954.8</ele></trkpt>
      <trkpt lat="35.523522" lon="129.049245"><ele>956.2</ele></trkpt>
      <trkpt lat="35.524206" lon="129.049900"><ele>954.5</ele></trkpt>
      <trkpt lat="35.525168" lon="129.051264"><ele>979.3</ele></trkpt>
      <trkpt lat="35.525704" lon="129.051786"><ele>1000.5</ele></trkpt>
      <trkpt lat="35.525865" lon="129.051993"><ele>1006.1</ele></trkpt>
      <trkpt lat="35.526099" lon="129.052518"><ele>1014.9</ele></trkpt>
      <trkpt lat="35.526266" lon="129.052672"><ele>1015.9</ele></trkpt>
      <trkpt lat="35.526427" lon="129.052741"><ele>1017.1</ele></trkpt>
      <trkpt lat="35.527408" lon="129.053615"><ele>1009.6</ele></trkpt>
      <trkpt lat="35.527612" lon="129.054290"><ele>1008.0</ele></trkpt>
      <trkpt lat="35.528054" lon="129.055031"><ele>1007.0</ele></trkpt>
      <trkpt lat="35.528156" lon="129.055280"><ele>1007.0</ele></trkpt>
      <trkpt lat="35.528370" lon="129.055503"><ele>1007.4</ele></trkpt>
      <trkpt lat="35.528683" lon="129.055624"><ele>1004.7</ele></trkpt>
      <trkpt lat="35.529008" lon="129.055941"><ele>1006.8</ele></trkpt>
      <trkpt lat="35.529216" lon="129.056020"><ele>1009.3</ele></trkpt>
      <trkpt lat="35.529441" lon="129.056309"><ele>1014.4</ele></trkpt>
      <trkpt lat="35.529927" lon="129.056686"><ele>1021.6</ele></trkpt>
      <trkpt lat="35.530734" lon="129.056673"><ele>1033.6</ele></trkpt>
      <trkpt lat="35.530892" lon="129.056847"><ele>1033.9</ele></trkpt>
      <trkpt lat="35.531140" lon="129.056971"><ele>1034.5</ele></trkpt>
      <trkpt lat="35.531433" lon="129.056995"><ele>1032.7</ele></trkpt>
      <trkpt lat="35.531528" lon="129.057064"><ele>1032.2</ele></trkpt>
      <trkpt lat="35.531663" lon="129.057040"><ele>1031.4</ele></trkpt>
      <trkpt lat="35.531892" lon="129.057123"><ele>1030.5</ele></trkpt>
      <trkpt lat="35.532084" lon="129.057064"><ele>1029.9</ele></trkpt>
      <trkpt lat="35.532220" lon="129.057145"><ele>1030.4</ele></trkpt>
      <trkpt lat="35.532795" lon="129.056925"><ele>1029.3</ele></trkpt>
      <trkpt lat="35.533220" lon="129.056541"><ele>1013.7</ele></trkpt>
      <trkpt lat="35.533692" lon="129.056297"><ele>1007.2</ele></trkpt>
      <trkpt lat="35.534252" lon="129.056096"><ele>1002.6</ele></trkpt>
      <trkpt lat="35.534738" lon="129.055793"><ele>1014.3</ele></trkpt>
      <trkpt lat="35.535773" lon="129.055309"><ele>1042.9</ele></trkpt>
      <trkpt lat="35.535847" lon="129.055173"><ele>1046.8</ele></trkpt>
      <trkpt lat="35.536513" lon="129.054794"><ele>1068.4</ele></trkpt>
      <trkpt lat="35.537299" lon="129.054606"><ele>1088.8</ele></trkpt>
      <trkpt lat="35.537390" lon="129.054444"><ele>1092.4</ele></trkpt>
      <trkpt lat="35.537559" lon="129.054463"><ele>1098.0</ele></trkpt>
      <trkpt lat="35.537681" lon="129.054369"><ele>1102.1</ele></trkpt>
      <trkpt lat="35.537788" lon="129.054378"><ele>1105.9</ele></trkpt>
      <trkpt lat="35.538042" lon="129.054248"><ele>1115.1</ele></trkpt>
      <trkpt lat="35.538193" lon="129.054258"><ele>1120.6</ele></trkpt>
      <trkpt lat="35.538392" lon="129.054404"><ele>1128.6</ele></trkpt>
      <trkpt lat="35.538566" lon="129.054452"><ele>1134.4</ele></trkpt>
      <trkpt lat="35.538677" lon="129.054462"><ele>1137.2</ele></trkpt>
      <trkpt lat="35.538753" lon="129.054372"><ele>1138.8</ele></trkpt>
      <trkpt lat="35.539067" lon="129.054387"><ele>1142.6</ele></trkpt>
      <trkpt lat="35.539026" lon="129.055043"><ele>1132.8</ele></trkpt>
      <trkpt lat="35.539089" lon="129.055212"><ele>1128.7</ele></trkpt>
      <trkpt lat="35.539085" lon="129.055350"><ele>1125.1</ele></trkpt>
      <trkpt lat="35.539271" lon="129.055785"><ele>1112.7</ele></trkpt>
      <trkpt lat="35.539241" lon="129.055950"><ele>1111.4</ele></trkpt>
      <trkpt lat="35.539444" lon="129.056297"><ele>1104.3</ele></trkpt>
      <trkpt lat="35.539653" lon="129.056446"><ele>1098.0</ele></trkpt>
    </trkseg>
  </trk>
</gpx>
