<?xml version="1.0" encoding="UTF-8"?>
<gpx version="1.1" creator="kr-100-mountains route-harvester"
     xmlns="http://www.topografix.com/GPX/1/1"
     xmlns:k100="https://github.com/jay-jang/kr-100-mountains/ns/1"
     xmlns:xsi="http://www.w3.org/2001/XMLSchema-instance"
     xsi:schemaLocation="http://www.topografix.com/GPX/1/1 http://www.topografix.com/GPX/1/1/gpx.xsd">
  <metadata>
    <name>대야산 · 괴산 청천 방면 코스 (대안 1) (OSM 계산 경로)</name>
    <desc>실제 GPS 기록이 아닙니다. OpenStreetMap에 등록된 등산로 선형 위에서 계산한 경로이며, 현장 통제·훼손·출입 제한·계절 통제를 반영하지 않을 수 있습니다. 산행 전 공식 안내를 확인하세요.</desc>
    <time>2026-08-04T05:44:30.154Z</time>
    <link href="https://www.openstreetmap.org/copyright"><text>© OpenStreetMap contributors (ODbL 1.0)</text></link>
    <link href="https://registry.opendata.aws/terrain-tiles/"><text>Elevation: SRTM 1 arc-second (NASA/USGS) via AWS Terrain Tiles</text></link>
    <extensions>
      <k100:provenance>osm-routed</k100:provenance>
      <k100:not_a_recorded_track>true</k100:not_a_recorded_track>
      <k100:mountain_id>daeyasan</k100:mountain_id>
      <k100:mountain_name>대야산</k100:mountain_name>
      <k100:route_id>daeyasan-60c33573</k100:route_id>
      <k100:route_index>2</k100:route_index>
      <k100:route_name>괴산 청천 방면 코스</k100:route_name>
      <k100:variant>1</k100:variant>
      <k100:source>OpenStreetMap via Overpass API</k100:source>
      <k100:license>ODbL-1.0</k100:license>
      <k100:attribution>© OpenStreetMap contributors</k100:attribution>
      <k100:elevation_source>SRTM 1 arc-second (NASA/USGS) — AWS Terrain Tiles 배포본. 지형 DEM 추정 고도이며 실측 아님</k100:elevation_source>
      <k100:algorithm>dijkstra-grid-v1</k100:algorithm>
      <k100:osm_snapshot>2026-08-04</k100:osm_snapshot>
      <k100:snap_trailhead_m>455</k100:snap_trailhead_m>
      <k100:snap_summit_m>134</k100:snap_summit_m>
      <k100:validation_score>58</k100:validation_score>
      <k100:validation_status>review</k100:validation_status>
    </extensions>
  </metadata>
  <trk>
    <name>대야산 · 괴산 청천 방면 코스 (대안 1) (OSM 계산 경로)</name>
    <desc>실제 GPS 기록이 아닙니다. OpenStreetMap에 등록된 등산로 선형 위에서 계산한 경로이며, 현장 통제·훼손·출입 제한·계절 통제를 반영하지 않을 수 있습니다. 산행 전 공식 안내를 확인하세요.</desc>
    <trkseg>
      <trkpt lat="36.672343" lon="127.901181"><ele>433.5</ele></trkpt>
      <trkpt lat="36.672300" lon="127.900730"><ele>423.0</ele></trkpt>
      <trkpt lat="36.672085" lon="127.900618"><ele>414.3</ele></trkpt>
      <trkpt lat="36.671977" lon="127.900055"><ele>399.8</ele></trkpt>
      <trkpt lat="36.671667" lon="127.899953"><ele>389.0</ele></trkpt>
      <trkpt lat="36.670669" lon="127.900237"><ele>359.8</ele></trkpt>
      <trkpt lat="36.670639" lon="127.900071"><ele>356.1</ele></trkpt>
      <trkpt lat="36.670733" lon="127.899743"><ele>352.3</ele></trkpt>
      <trkpt lat="36.670919" lon="127.899540"><ele>352.0</ele></trkpt>
      <trkpt lat="36.670867" lon="127.899137"><ele>342.0</ele></trkpt>
      <trkpt lat="36.670557" lon="127.899159"><ele>335.0</ele></trkpt>
      <trkpt lat="36.670445" lon="127.898982"><ele>334.1</ele></trkpt>
      <trkpt lat="36.670355" lon="127.897979"><ele>328.9</ele></trkpt>
      <trkpt lat="36.670174" lon="127.897555"><ele>324.6</ele></trkpt>
      <trkpt lat="36.669684" lon="127.896729"><ele>319.8</ele></trkpt>
      <trkpt lat="36.669352" lon="127.896283"><ele>316.2</ele></trkpt>
      <trkpt lat="36.669051" lon="127.896187"><ele>312.5</ele></trkpt>
      <trkpt lat="36.668750" lon="127.895897"><ele>307.5</ele></trkpt>
      <trkpt lat="36.668358" lon="127.895393"><ele>302.3</ele></trkpt>
      <trkpt lat="36.667519" lon="127.894749"><ele>294.3</ele></trkpt>
      <trkpt lat="36.667235" lon="127.894459"><ele>287.6</ele></trkpt>
      <trkpt lat="36.666930" lon="127.893853"><ele>286.7</ele></trkpt>
      <trkpt lat="36.666229" lon="127.893585"><ele>280.3</ele></trkpt>
      <trkpt lat="36.666104" lon="127.893628"><ele>279.1</ele></trkpt>
      <trkpt lat="36.665506" lon="127.893311"><ele>279.6</ele></trkpt>
      <trkpt lat="36.665424" lon="127.893070"><ele>277.6</ele></trkpt>
      <trkpt lat="36.664916" lon="127.892518"><ele>282.7</ele></trkpt>
      <trkpt lat="36.664972" lon="127.891772"><ele>268.4</ele></trkpt>
      <trkpt lat="36.664869" lon="127.891380"><ele>266.8</ele></trkpt>
      <trkpt lat="36.664185" lon="127.890613"><ele>260.5</ele></trkpt>
      <trkpt lat="36.663023" lon="127.890329"><ele>254.9</ele></trkpt>
      <trkpt lat="36.662967" lon="127.890216"><ele>254.8</ele></trkpt>
      <trkpt lat="36.662373" lon="127.890039"><ele>250.1</ele></trkpt>
      <trkpt lat="36.661771" lon="127.890479"><ele>249.4</ele></trkpt>
      <trkpt lat="36.661317" lon="127.890640"><ele>247.2</ele></trkpt>
      <trkpt lat="36.661058" lon="127.890514"><ele>246.8</ele></trkpt>
      <trkpt lat="36.660716" lon="127.890184"><ele>245.7</ele></trkpt>
      <trkpt lat="36.660483" lon="127.889731"><ele>243.8</ele></trkpt>
      <trkpt lat="36.660392" lon="127.889163"><ele>242.4</ele></trkpt>
      <trkpt lat="36.660067" lon="127.889616"><ele>245.7</ele></trkpt>
      <trkpt lat="36.660313" lon="127.890408"><ele>246.4</ele></trkpt>
      <trkpt lat="36.660103" lon="127.890640"><ele>248.3</ele></trkpt>
      <trkpt lat="36.660013" lon="127.890953"><ele>251.7</ele></trkpt>
      <trkpt lat="36.659857" lon="127.891162"><ele>254.5</ele></trkpt>
      <trkpt lat="36.659851" lon="127.891618"><ele>255.0</ele></trkpt>
      <trkpt lat="36.659521" lon="127.893173"><ele>258.9</ele></trkpt>
      <trkpt lat="36.659546" lon="127.894062"><ele>261.9</ele></trkpt>
      <trkpt lat="36.659893" lon="127.894629"><ele>259.5</ele></trkpt>
      <trkpt lat="36.659804" lon="127.894871"><ele>261.7</ele></trkpt>
      <trkpt lat="36.659746" lon="127.894912"><ele>262.4</ele></trkpt>
      <trkpt lat="36.659798" lon="127.895451"><ele>263.0</ele></trkpt>
      <trkpt lat="36.659778" lon="127.895890"><ele>263.1</ele></trkpt>
      <trkpt lat="36.659574" lon="127.896408"><ele>264.5</ele></trkpt>
      <trkpt lat="36.659585" lon="127.896888"><ele>261.5</ele></trkpt>
      <trkpt lat="36.659342" lon="127.897899"><ele>262.5</ele></trkpt>
      <trkpt lat="36.659225" lon="127.898208"><ele>263.8</ele></trkpt>
      <trkpt lat="36.659010" lon="127.898465"><ele>264.6</ele></trkpt>
      <trkpt lat="36.658782" lon="127.898675"><ele>265.5</ele></trkpt>
      <trkpt lat="36.658229" lon="127.898819"><ele>269.4</ele></trkpt>
      <trkpt lat="36.658031" lon="127.899023"><ele>271.0</ele></trkpt>
      <trkpt lat="36.657970" lon="127.899174"><ele>272.0</ele></trkpt>
      <trkpt lat="36.657888" lon="127.900319"><ele>281.7</ele></trkpt>
      <trkpt lat="36.658019" lon="127.900972"><ele>284.2</ele></trkpt>
      <trkpt lat="36.657950" lon="127.901203"><ele>284.9</ele></trkpt>
      <trkpt lat="36.657918" lon="127.901757"><ele>287.7</ele></trkpt>
      <trkpt lat="36.657763" lon="127.902208"><ele>287.1</ele></trkpt>
      <trkpt lat="36.657532" lon="127.902532"><ele>290.2</ele></trkpt>
      <trkpt lat="36.657362" lon="127.902910"><ele>292.0</ele></trkpt>
      <trkpt lat="36.656284" lon="127.903916"><ele>304.5</ele></trkpt>
      <trkpt lat="36.655791" lon="127.904691"><ele>305.7</ele></trkpt>
      <trkpt lat="36.655036" lon="127.906255"><ele>316.4</ele></trkpt>
      <trkpt lat="36.654644" lon="127.906692"><ele>326.2</ele></trkpt>
      <trkpt lat="36.654459" lon="127.907006"><ele>326.3</ele></trkpt>
      <trkpt lat="36.654356" lon="127.907778"><ele>328.4</ele></trkpt>
      <trkpt lat="36.654459" lon="127.908328"><ele>328.4</ele></trkpt>
      <trkpt lat="36.654685" lon="127.908854"><ele>329.9</ele></trkpt>
      <trkpt lat="36.654829" lon="127.909795"><ele>336.7</ele></trkpt>
      <trkpt lat="36.654761" lon="127.910246"><ele>337.1</ele></trkpt>
      <trkpt lat="36.654322" lon="127.911351"><ele>345.0</ele></trkpt>
      <trkpt lat="36.654356" lon="127.911715"><ele>349.6</ele></trkpt>
      <trkpt lat="36.654296" lon="127.912048"><ele>350.5</ele></trkpt>
      <trkpt lat="36.654081" lon="127.912413"><ele>347.7</ele></trkpt>
      <trkpt lat="36.653840" lon="127.913282"><ele>356.8</ele></trkpt>
      <trkpt lat="36.653667" lon="127.914612"><ele>367.6</ele></trkpt>
      <trkpt lat="36.653607" lon="127.915701"><ele>383.0</ele></trkpt>
      <trkpt lat="36.653502" lon="127.915951"><ele>385.0</ele></trkpt>
      <trkpt lat="36.652703" lon="127.916973"><ele>399.8</ele></trkpt>
      <trkpt lat="36.652049" lon="127.917595"><ele>402.1</ele></trkpt>
      <trkpt lat="36.651257" lon="127.918614"><ele>407.1</ele></trkpt>
      <trkpt lat="36.651171" lon="127.919097"><ele>407.7</ele></trkpt>
      <trkpt lat="36.651051" lon="127.919258"><ele>408.6</ele></trkpt>
      <trkpt lat="36.650741" lon="127.919322"><ele>409.0</ele></trkpt>
      <trkpt lat="36.650199" lon="127.919547"><ele>419.5</ele></trkpt>
      <trkpt lat="36.649854" lon="127.919923"><ele>429.6</ele></trkpt>
      <trkpt lat="36.649398" lon="127.920009"><ele>435.5</ele></trkpt>
      <trkpt lat="36.648813" lon="127.920417"><ele>450.3</ele></trkpt>
      <trkpt lat="36.648468" lon="127.921103"><ele>456.6</ele></trkpt>
      <trkpt lat="36.648193" lon="127.922144"><ele>461.1</ele></trkpt>
      <trkpt lat="36.648331" lon="127.922895"><ele>468.5</ele></trkpt>
      <trkpt lat="36.648275" lon="127.923287"><ele>473.2</ele></trkpt>
      <trkpt lat="36.648085" lon="127.923343"><ele>476.6</ele></trkpt>
      <trkpt lat="36.647935" lon="127.923635"><ele>479.8</ele></trkpt>
      <trkpt lat="36.647780" lon="127.924472"><ele>488.3</ele></trkpt>
      <trkpt lat="36.647513" lon="127.924901"><ele>492.7</ele></trkpt>
      <trkpt lat="36.647461" lon="127.925137"><ele>496.0</ele></trkpt>
      <trkpt lat="36.646928" lon="127.925856"><ele>506.1</ele></trkpt>
      <trkpt lat="36.646824" lon="127.926199"><ele>507.6</ele></trkpt>
      <trkpt lat="36.646609" lon="127.926511"><ele>508.3</ele></trkpt>
      <trkpt lat="36.646437" lon="127.927487"><ele>517.6</ele></trkpt>
      <trkpt lat="36.646351" lon="127.927718"><ele>520.0</ele></trkpt>
      <trkpt lat="36.646222" lon="127.927852"><ele>520.8</ele></trkpt>
      <trkpt lat="36.646050" lon="127.928442"><ele>527.6</ele></trkpt>
      <trkpt lat="36.645856" lon="127.929346"><ele>540.3</ele></trkpt>
      <trkpt lat="36.645817" lon="127.929729"><ele>541.6</ele></trkpt>
      <trkpt lat="36.645929" lon="127.929944"><ele>544.0</ele></trkpt>
      <trkpt lat="36.645886" lon="127.930405"><ele>548.8</ele></trkpt>
      <trkpt lat="36.646006" lon="127.930952"><ele>556.4</ele></trkpt>
      <trkpt lat="36.645929" lon="127.931918"><ele>570.4</ele></trkpt>
      <trkpt lat="36.645748" lon="127.932497"><ele>579.9</ele></trkpt>
      <trkpt lat="36.645592" lon="127.932680"><ele>583.9</ele></trkpt>
      <trkpt lat="36.645371" lon="127.932456"><ele>582.0</ele></trkpt>
      <trkpt lat="36.645271" lon="127.932508"><ele>584.4</ele></trkpt>
      <trkpt lat="36.644956" lon="127.932959"><ele>605.2</ele></trkpt>
      <trkpt lat="36.644707" lon="127.932926"><ele>611.0</ele></trkpt>
      <trkpt lat="36.644053" lon="127.933452"><ele>628.3</ele></trkpt>
      <trkpt lat="36.643971" lon="127.934268"><ele>646.2</ele></trkpt>
      <trkpt lat="36.643691" lon="127.934718"><ele>656.0</ele></trkpt>
      <trkpt lat="36.643590" lon="127.935027"><ele>663.2</ele></trkpt>
      <trkpt lat="36.643562" lon="127.935378"><ele>673.7</ele></trkpt>
      <trkpt lat="36.643616" lon="127.935641"><ele>677.4</ele></trkpt>
      <trkpt lat="36.643710" lon="127.935809"><ele>680.4</ele></trkpt>
      <trkpt lat="36.643799" lon="127.935713"><ele>682.0</ele></trkpt>
      <trkpt lat="36.643926" lon="127.935676"><ele>684.6</ele></trkpt>
      <trkpt lat="36.644204" lon="127.935696"><ele>689.6</ele></trkpt>
      <trkpt lat="36.644509" lon="127.936094"><ele>695.3</ele></trkpt>
      <trkpt lat="36.644995" lon="127.936588"><ele>709.2</ele></trkpt>
      <trkpt lat="36.645156" lon="127.936899"><ele>709.9</ele></trkpt>
      <trkpt lat="36.645335" lon="127.937432"><ele>708.1</ele></trkpt>
      <trkpt lat="36.645686" lon="127.938133"><ele>712.8</ele></trkpt>
      <trkpt lat="36.645888" lon="127.938382"><ele>720.9</ele></trkpt>
      <trkpt lat="36.645992" lon="127.938783"><ele>722.3</ele></trkpt>
      <trkpt lat="36.646098" lon="127.938909"><ele>726.8</ele></trkpt>
      <trkpt lat="36.646136" lon="127.939049"><ele>730.8</ele></trkpt>
      <trkpt lat="36.646400" lon="127.939311"><ele>746.2</ele></trkpt>
      <trkpt lat="36.647107" lon="127.939259"><ele>754.9</ele></trkpt>
      <trkpt lat="36.647444" lon="127.939299"><ele>762.7</ele></trkpt>
      <trkpt lat="36.647599" lon="127.939181"><ele>769.4</ele></trkpt>
      <trkpt lat="36.648405" lon="127.939069"><ele>790.5</ele></trkpt>
      <trkpt lat="36.648902" lon="127.939211"><ele>811.4</ele></trkpt>
      <trkpt lat="36.649030" lon="127.939129"><ele>818.3</ele></trkpt>
      <trkpt lat="36.649097" lon="127.938862"><ele>818.9</ele></trkpt>
      <trkpt lat="36.649449" lon="127.939190"><ele>845.0</ele></trkpt>
      <trkpt lat="36.649792" lon="127.939348"><ele>859.0</ele></trkpt>
      <trkpt lat="36.649996" lon="127.939339"><ele>867.7</ele></trkpt>
      <trkpt lat="36.650053" lon="127.939571"><ele>869.4</ele></trkpt>
      <trkpt lat="36.649978" lon="127.940211"><ele>863.0</ele></trkpt>
      <trkpt lat="36.649918" lon="127.940393"><ele>855.0</ele></trkpt>
      <trkpt lat="36.649962" lon="127.940637"><ele>847.8</ele></trkpt>
      <trkpt lat="36.650116" lon="127.940860"><ele>840.6</ele></trkpt>
      <trkpt lat="36.650210" lon="127.940856"><ele>841.9</ele></trkpt>
      <trkpt lat="36.650331" lon="127.940960"><ele>841.4</ele></trkpt>
      <trkpt lat="36.650492" lon="127.940999"><ele>840.6</ele></trkpt>
      <trkpt lat="36.650662" lon="127.941015"><ele>837.8</ele></trkpt>
      <trkpt lat="36.650910" lon="127.940761"><ele>831.2</ele></trkpt>
      <trkpt lat="36.651195" lon="127.940800"><ele>822.7</ele></trkpt>
      <trkpt lat="36.651463" lon="127.940679"><ele>815.9</ele></trkpt>
      <trkpt lat="36.651530" lon="127.940721"><ele>814.0</ele></trkpt>
      <trkpt lat="36.651881" lon="127.940711"><ele>804.7</ele></trkpt>
      <trkpt lat="36.652002" lon="127.940856"><ele>796.7</ele></trkpt>
      <trkpt lat="36.652316" lon="127.940878"><ele>785.4</ele></trkpt>
      <trkpt lat="36.652405" lon="127.940831"><ele>782.5</ele></trkpt>
      <trkpt lat="36.652801" lon="127.941004"><ele>772.0</ele></trkpt>
      <trkpt lat="36.653019" lon="127.941031"><ele>768.6</ele></trkpt>
      <trkpt lat="36.653421" lon="127.941303"><ele>760.3</ele></trkpt>
      <trkpt lat="36.653613" lon="127.941269"><ele>754.9</ele></trkpt>
      <trkpt lat="36.654165" lon="127.941370"><ele>736.1</ele></trkpt>
      <trkpt lat="36.654545" lon="127.941260"><ele>723.6</ele></trkpt>
      <trkpt lat="36.655061" lon="127.940832"><ele>710.1</ele></trkpt>
      <trkpt lat="36.655175" lon="127.940824"><ele>708.6</ele></trkpt>
      <trkpt lat="36.655401" lon="127.940669"><ele>705.5</ele></trkpt>
      <trkpt lat="36.655591" lon="127.940703"><ele>700.0</ele></trkpt>
      <trkpt lat="36.656686" lon="127.941268"><ele>676.4</ele></trkpt>
      <trkpt lat="36.657299" lon="127.940914"><ele>663.8</ele></trkpt>
      <trkpt lat="36.657562" lon="127.941021"><ele>649.4</ele></trkpt>
      <trkpt lat="36.657739" lon="127.940988"><ele>643.9</ele></trkpt>
      <trkpt lat="36.658002" lon="127.941382"><ele>620.4</ele></trkpt>
      <trkpt lat="36.658155" lon="127.941451"><ele>615.4</ele></trkpt>
      <trkpt lat="36.658091" lon="127.941921"><ele>605.6</ele></trkpt>
      <trkpt lat="36.658135" lon="127.942018"><ele>604.0</ele></trkpt>
      <trkpt lat="36.658369" lon="127.942172"><ele>595.9</ele></trkpt>
      <trkpt lat="36.658446" lon="127.942333"><ele>591.2</ele></trkpt>
      <trkpt lat="36.658689" lon="127.942550"><ele>581.5</ele></trkpt>
      <trkpt lat="36.658894" lon="127.942644"><ele>576.8</ele></trkpt>
      <trkpt lat="36.659360" lon="127.943268"><ele>546.6</ele></trkpt>
      <trkpt lat="36.659627" lon="127.943305"><ele>537.6</ele></trkpt>
      <trkpt lat="36.659886" lon="127.943848"><ele>523.4</ele></trkpt>
      <trkpt lat="36.660067" lon="127.944395"><ele>508.6</ele></trkpt>
      <trkpt lat="36.660207" lon="127.944602"><ele>502.7</ele></trkpt>
      <trkpt lat="36.661031" lon="127.944932"><ele>485.0</ele></trkpt>
      <trkpt lat="36.661624" lon="127.945487"><ele>481.5</ele></trkpt>
      <trkpt lat="36.662107" lon="127.945308"><ele>469.0</ele></trkpt>
      <trkpt lat="36.662294" lon="127.945353"><ele>465.1</ele></trkpt>
      <trkpt lat="36.662435" lon="127.945462"><ele>464.3</ele></trkpt>
      <trkpt lat="36.662840" lon="127.945992"><ele>450.8</ele></trkpt>
      <trkpt lat="36.663334" lon="127.945955"><ele>437.3</ele></trkpt>
      <trkpt lat="36.663619" lon="127.945750"><ele>434.0</ele></trkpt>
      <trkpt lat="36.663752" lon="127.945823"><ele>433.7</ele></trkpt>
      <trkpt lat="36.664279" lon="127.945851"><ele>439.2</ele></trkpt>
      <trkpt lat="36.664658" lon="127.946247"><ele>425.6</ele></trkpt>
      <trkpt lat="36.664901" lon="127.946351"><ele>424.7</ele></trkpt>
      <trkpt lat="36.665037" lon="127.946493"><ele>424.3</ele></trkpt>
      <trkpt lat="36.665819" lon="127.946633"><ele>419.9</ele></trkpt>
      <trkpt lat="36.666016" lon="127.946799"><ele>415.3</ele></trkpt>
      <trkpt lat="36.666158" lon="127.947072"><ele>409.3</ele></trkpt>
      <trkpt lat="36.666484" lon="127.947267"><ele>404.3</ele></trkpt>
      <trkpt lat="36.666683" lon="127.947063"><ele>408.6</ele></trkpt>
      <trkpt lat="36.666700" lon="127.946737"><ele>414.9</ele></trkpt>
      <trkpt lat="36.666778" lon="127.946385"><ele>420.2</ele></trkpt>
      <trkpt lat="36.666916" lon="127.946081"><ele>420.0</ele></trkpt>
      <trkpt lat="36.666933" lon="127.945879"><ele>422.7</ele></trkpt>
      <trkpt lat="36.667086" lon="127.945786"><ele>426.8</ele></trkpt>
      <trkpt lat="36.667172" lon="127.945623"><ele>429.6</ele></trkpt>
      <trkpt lat="36.667228" lon="127.945337"><ele>431.7</ele></trkpt>
      <trkpt lat="36.667482" lon="127.945037"><ele>438.8</ele></trkpt>
      <trkpt lat="36.667554" lon="127.944786"><ele>443.1</ele></trkpt>
      <trkpt lat="36.667538" lon="127.944614"><ele>443.8</ele></trkpt>
      <trkpt lat="36.667595" lon="127.944225"><ele>447.3</ele></trkpt>
      <trkpt lat="36.667524" lon="127.944118"><ele>448.6</ele></trkpt>
      <trkpt lat="36.667491" lon="127.943699"><ele>454.4</ele></trkpt>
      <trkpt lat="36.667597" lon="127.943634"><ele>453.3</ele></trkpt>
      <trkpt lat="36.667651" lon="127.943527"><ele>453.9</ele></trkpt>
      <trkpt lat="36.667815" lon="127.943568"><ele>452.1</ele></trkpt>
      <trkpt lat="36.667918" lon="127.943502"><ele>454.1</ele></trkpt>
      <trkpt lat="36.668028" lon="127.943544"><ele>454.5</ele></trkpt>
      <trkpt lat="36.668102" lon="127.943463"><ele>456.7</ele></trkpt>
      <trkpt lat="36.668379" lon="127.942772"><ele>468.7</ele></trkpt>
      <trkpt lat="36.668360" lon="127.942635"><ele>470.0</ele></trkpt>
      <trkpt lat="36.668679" lon="127.941791"><ele>482.6</ele></trkpt>
      <trkpt lat="36.668701" lon="127.941564"><ele>482.5</ele></trkpt>
      <trkpt lat="36.668787" lon="127.941311"><ele>485.4</ele></trkpt>
      <trkpt lat="36.668974" lon="127.941236"><ele>491.4</ele></trkpt>
      <trkpt lat="36.669049" lon="127.941002"><ele>495.1</ele></trkpt>
      <trkpt lat="36.669041" lon="127.940788"><ele>494.7</ele></trkpt>
      <trkpt lat="36.669197" lon="127.940479"><ele>496.6</ele></trkpt>
      <trkpt lat="36.669383" lon="127.940482"><ele>501.4</ele></trkpt>
      <trkpt lat="36.670130" lon="127.939999"><ele>517.7</ele></trkpt>
      <trkpt lat="36.670485" lon="127.939892"><ele>529.5</ele></trkpt>
      <trkpt lat="36.670657" lon="127.939510"><ele>533.1</ele></trkpt>
      <trkpt lat="36.670947" lon="127.939510"><ele>538.7</ele></trkpt>
      <trkpt lat="36.671387" lon="127.939161"><ele>541.0</ele></trkpt>
      <trkpt lat="36.672140" lon="127.938049"><ele>567.3</ele></trkpt>
      <trkpt lat="36.672177" lon="127.937781"><ele>569.1</ele></trkpt>
      <trkpt lat="36.672403" lon="127.937487"><ele>575.3</ele></trkpt>
      <trkpt lat="36.672861" lon="127.937336"><ele>575.9</ele></trkpt>
      <trkpt lat="36.672765" lon="127.936773"><ele>584.2</ele></trkpt>
      <trkpt lat="36.672765" lon="127.936545"><ele>587.4</ele></trkpt>
      <trkpt lat="36.672661" lon="127.936306"><ele>591.3</ele></trkpt>
      <trkpt lat="36.672682" lon="127.936147"><ele>594.8</ele></trkpt>
      <trkpt lat="36.672644" lon="127.935947"><ele>601.2</ele></trkpt>
      <trkpt lat="36.672775" lon="127.935351"><ele>625.3</ele></trkpt>
      <trkpt lat="36.673130" lon="127.934813"><ele>645.8</ele></trkpt>
      <trkpt lat="36.672925" lon="127.934223"><ele>669.6</ele></trkpt>
      <trkpt lat="36.672278" lon="127.933331"><ele>697.2</ele></trkpt>
      <trkpt lat="36.672177" lon="127.932855"><ele>704.7</ele></trkpt>
      <trkpt lat="36.672113" lon="127.932736"><ele>705.5</ele></trkpt>
      <trkpt lat="36.672014" lon="127.932674"><ele>706.5</ele></trkpt>
      <trkpt lat="36.671710" lon="127.931925"><ele>722.7</ele></trkpt>
    </trkseg>
  </trk>
</gpx>
