<?xml version="1.0" encoding="UTF-8"?>
<gpx version="1.1" creator="kr-100-mountains route-harvester"
     xmlns="http://www.topografix.com/GPX/1/1"
     xmlns:k100="https://github.com/jay-jang/kr-100-mountains/ns/1"
     xmlns:xsi="http://www.w3.org/2001/XMLSchema-instance"
     xsi:schemaLocation="http://www.topografix.com/GPX/1/1 http://www.topografix.com/GPX/1/1/gpx.xsd">
  <metadata>
    <name>대야산 · 괴산 청천 방면 코스 (대안 2) (OSM 계산 경로)</name>
    <desc>실제 GPS 기록이 아닙니다. OpenStreetMap에 등록된 등산로 선형 위에서 계산한 경로이며, 현장 통제·훼손·출입 제한·계절 통제를 반영하지 않을 수 있습니다. 산행 전 공식 안내를 확인하세요.</desc>
    <time>2026-08-04T05:44:30.155Z</time>
    <link href="https://www.openstreetmap.org/copyright"><text>© OpenStreetMap contributors (ODbL 1.0)</text></link>
    <link href="https://registry.opendata.aws/terrain-tiles/"><text>Elevation: SRTM 1 arc-second (NASA/USGS) via AWS Terrain Tiles</text></link>
    <extensions>
      <k100:provenance>osm-routed</k100:provenance>
      <k100:not_a_recorded_track>true</k100:not_a_recorded_track>
      <k100:mountain_id>daeyasan</k100:mountain_id>
      <k100:mountain_name>대야산</k100:mountain_name>
      <k100:route_id>daeyasan-60c33573</k100:route_id>
      <k100:route_index>2</k100:route_index>
      <k100:route_name>괴산 청천 방면 코스</k100:route_name>
      <k100:variant>2</k100:variant>
      <k100:source>OpenStreetMap via Overpass API</k100:source>
      <k100:license>ODbL-1.0</k100:license>
      <k100:attribution>© OpenStreetMap contributors</k100:attribution>
      <k100:elevation_source>SRTM 1 arc-second (NASA/USGS) — AWS Terrain Tiles 배포본. 지형 DEM 추정 고도이며 실측 아님</k100:elevation_source>
      <k100:algorithm>dijkstra-grid-v1</k100:algorithm>
      <k100:osm_snapshot>2026-08-04</k100:osm_snapshot>
      <k100:snap_trailhead_m>455</k100:snap_trailhead_m>
      <k100:snap_summit_m>134</k100:snap_summit_m>
      <k100:validation_score>76</k100:validation_score>
      <k100:validation_status>accepted</k100:validation_status>
    </extensions>
  </metadata>
  <trk>
    <name>대야산 · 괴산 청천 방면 코스 (대안 2) (OSM 계산 경로)</name>
    <desc>실제 GPS 기록이 아닙니다. OpenStreetMap에 등록된 등산로 선형 위에서 계산한 경로이며, 현장 통제·훼손·출입 제한·계절 통제를 반영하지 않을 수 있습니다. 산행 전 공식 안내를 확인하세요.</desc>
    <trkseg>
      <trkpt lat="36.672343" lon="127.901181"><ele>433.5</ele></trkpt>
      <trkpt lat="36.672300" lon="127.900730"><ele>423.0</ele></trkpt>
      <trkpt lat="36.672085" lon="127.900618"><ele>414.3</ele></trkpt>
      <trkpt lat="36.671977" lon="127.900055"><ele>399.8</ele></trkpt>
      <trkpt lat="36.671667" lon="127.899953"><ele>389.0</ele></trkpt>
      <trkpt lat="36.670669" lon="127.900237"><ele>359.8</ele></trkpt>
      <trkpt lat="36.670639" lon="127.900071"><ele>356.1</ele></trkpt>
      <trkpt lat="36.670733" lon="127.899743"><ele>352.3</ele></trkpt>
      <trkpt lat="36.670919" lon="127.899540"><ele>352.0</ele></trkpt>
      <trkpt lat="36.670867" lon="127.899137"><ele>342.0</ele></trkpt>
      <trkpt lat="36.670557" lon="127.899159"><ele>335.0</ele></trkpt>
      <trkpt lat="36.670445" lon="127.898982"><ele>334.1</ele></trkpt>
      <trkpt lat="36.670355" lon="127.897979"><ele>328.9</ele></trkpt>
      <trkpt lat="36.670174" lon="127.897555"><ele>324.6</ele></trkpt>
      <trkpt lat="36.669684" lon="127.896729"><ele>319.8</ele></trkpt>
      <trkpt lat="36.669352" lon="127.896283"><ele>316.2</ele></trkpt>
      <trkpt lat="36.669051" lon="127.896187"><ele>312.5</ele></trkpt>
      <trkpt lat="36.668750" lon="127.895897"><ele>307.5</ele></trkpt>
      <trkpt lat="36.668358" lon="127.895393"><ele>302.3</ele></trkpt>
      <trkpt lat="36.667519" lon="127.894749"><ele>294.3</ele></trkpt>
      <trkpt lat="36.667235" lon="127.894459"><ele>287.6</ele></trkpt>
      <trkpt lat="36.666930" lon="127.893853"><ele>286.7</ele></trkpt>
      <trkpt lat="36.666229" lon="127.893585"><ele>280.3</ele></trkpt>
      <trkpt lat="36.666104" lon="127.893628"><ele>279.1</ele></trkpt>
      <trkpt lat="36.665506" lon="127.893311"><ele>279.6</ele></trkpt>
      <trkpt lat="36.665424" lon="127.893070"><ele>277.6</ele></trkpt>
      <trkpt lat="36.664916" lon="127.892518"><ele>282.7</ele></trkpt>
      <trkpt lat="36.664972" lon="127.891772"><ele>268.4</ele></trkpt>
      <trkpt lat="36.664869" lon="127.891380"><ele>266.8</ele></trkpt>
      <trkpt lat="36.664185" lon="127.890613"><ele>260.5</ele></trkpt>
      <trkpt lat="36.663023" lon="127.890329"><ele>254.9</ele></trkpt>
      <trkpt lat="36.662967" lon="127.890216"><ele>254.8</ele></trkpt>
      <trkpt lat="36.662373" lon="127.890039"><ele>250.1</ele></trkpt>
      <trkpt lat="36.661771" lon="127.890479"><ele>249.4</ele></trkpt>
      <trkpt lat="36.661317" lon="127.890640"><ele>247.2</ele></trkpt>
      <trkpt lat="36.661500" lon="127.891524"><ele>249.9</ele></trkpt>
      <trkpt lat="36.661670" lon="127.891726"><ele>251.1</ele></trkpt>
      <trkpt lat="36.661485" lon="127.891958"><ele>250.3</ele></trkpt>
      <trkpt lat="36.661373" lon="127.892216"><ele>250.0</ele></trkpt>
      <trkpt lat="36.661153" lon="127.892476"><ele>250.0</ele></trkpt>
      <trkpt lat="36.660998" lon="127.892811"><ele>250.9</ele></trkpt>
      <trkpt lat="36.660921" lon="127.893192"><ele>252.2</ele></trkpt>
      <trkpt lat="36.660394" lon="127.893208"><ele>256.2</ele></trkpt>
      <trkpt lat="36.660402" lon="127.893755"><ele>256.6</ele></trkpt>
      <trkpt lat="36.660282" lon="127.894801"><ele>257.5</ele></trkpt>
      <trkpt lat="36.659746" lon="127.894912"><ele>262.4</ele></trkpt>
      <trkpt lat="36.659798" lon="127.895451"><ele>263.0</ele></trkpt>
      <trkpt lat="36.659778" lon="127.895890"><ele>263.1</ele></trkpt>
      <trkpt lat="36.659574" lon="127.896408"><ele>264.5</ele></trkpt>
      <trkpt lat="36.659583" lon="127.896771"><ele>262.6</ele></trkpt>
      <trkpt lat="36.659893" lon="127.896677"><ele>261.7</ele></trkpt>
      <trkpt lat="36.660175" lon="127.896692"><ele>259.6</ele></trkpt>
      <trkpt lat="36.660421" lon="127.896632"><ele>257.4</ele></trkpt>
      <trkpt lat="36.660662" lon="127.896879"><ele>257.0</ele></trkpt>
      <trkpt lat="36.660617" lon="127.897061"><ele>256.9</ele></trkpt>
      <trkpt lat="36.660635" lon="127.897444"><ele>259.3</ele></trkpt>
      <trkpt lat="36.660314" lon="127.897803"><ele>260.7</ele></trkpt>
      <trkpt lat="36.660032" lon="127.898329"><ele>265.5</ele></trkpt>
      <trkpt lat="36.659869" lon="127.898442"><ele>264.7</ele></trkpt>
      <trkpt lat="36.659524" lon="127.899055"><ele>268.2</ele></trkpt>
      <trkpt lat="36.659425" lon="127.899861"><ele>268.2</ele></trkpt>
      <trkpt lat="36.659950" lon="127.901158"><ele>277.2</ele></trkpt>
      <trkpt lat="36.660161" lon="127.902526"><ele>285.2</ele></trkpt>
      <trkpt lat="36.660140" lon="127.902996"><ele>284.6</ele></trkpt>
      <trkpt lat="36.660501" lon="127.903444"><ele>287.5</ele></trkpt>
      <trkpt lat="36.660716" lon="127.903867"><ele>291.8</ele></trkpt>
      <trkpt lat="36.660718" lon="127.904109"><ele>295.2</ele></trkpt>
      <trkpt lat="36.660243" lon="127.905364"><ele>302.6</ele></trkpt>
      <trkpt lat="36.659808" lon="127.906110"><ele>308.5</ele></trkpt>
      <trkpt lat="36.659692" lon="127.906432"><ele>313.3</ele></trkpt>
      <trkpt lat="36.659653" lon="127.906672"><ele>317.1</ele></trkpt>
      <trkpt lat="36.659761" lon="127.907129"><ele>324.1</ele></trkpt>
      <trkpt lat="36.659774" lon="127.907671"><ele>329.0</ele></trkpt>
      <trkpt lat="36.659889" lon="127.908055"><ele>335.0</ele></trkpt>
      <trkpt lat="36.660338" lon="127.908411"><ele>347.4</ele></trkpt>
      <trkpt lat="36.660605" lon="127.908411"><ele>353.9</ele></trkpt>
      <trkpt lat="36.660932" lon="127.908239"><ele>364.9</ele></trkpt>
      <trkpt lat="36.661130" lon="127.908250"><ele>371.4</ele></trkpt>
      <trkpt lat="36.661405" lon="127.908143"><ele>383.4</ele></trkpt>
      <trkpt lat="36.661973" lon="127.908207"><ele>410.0</ele></trkpt>
      <trkpt lat="36.662507" lon="127.908025"><ele>433.3</ele></trkpt>
      <trkpt lat="36.662773" lon="127.908153"><ele>446.2</ele></trkpt>
      <trkpt lat="36.662989" lon="127.908465"><ele>460.6</ele></trkpt>
      <trkpt lat="36.663884" lon="127.908583"><ele>503.5</ele></trkpt>
      <trkpt lat="36.664168" lon="127.908883"><ele>524.7</ele></trkpt>
      <trkpt lat="36.664753" lon="127.909323"><ele>562.9</ele></trkpt>
      <trkpt lat="36.664985" lon="127.909613"><ele>576.5</ele></trkpt>
      <trkpt lat="36.665054" lon="127.909945"><ele>583.7</ele></trkpt>
      <trkpt lat="36.665467" lon="127.910063"><ele>593.3</ele></trkpt>
      <trkpt lat="36.666001" lon="127.910106"><ele>601.5</ele></trkpt>
      <trkpt lat="36.666767" lon="127.910471"><ele>612.1</ele></trkpt>
      <trkpt lat="36.667059" lon="127.910439"><ele>611.1</ele></trkpt>
      <trkpt lat="36.667386" lon="127.910685"><ele>613.0</ele></trkpt>
      <trkpt lat="36.667636" lon="127.910975"><ele>614.4</ele></trkpt>
      <trkpt lat="36.667894" lon="127.911630"><ele>615.3</ele></trkpt>
      <trkpt lat="36.667946" lon="127.911930"><ele>617.3</ele></trkpt>
      <trkpt lat="36.667640" lon="127.912847"><ele>629.2</ele></trkpt>
      <trkpt lat="36.667623" lon="127.913185"><ele>640.7</ele></trkpt>
      <trkpt lat="36.667687" lon="127.913749"><ele>660.5</ele></trkpt>
      <trkpt lat="36.667610" lon="127.914044"><ele>664.1</ele></trkpt>
      <trkpt lat="36.667653" lon="127.914923"><ele>679.3</ele></trkpt>
      <trkpt lat="36.667614" lon="127.915213"><ele>683.5</ele></trkpt>
      <trkpt lat="36.667739" lon="127.916093"><ele>711.4</ele></trkpt>
      <trkpt lat="36.667687" lon="127.916683"><ele>733.8</ele></trkpt>
      <trkpt lat="36.667748" lon="127.916812"><ele>745.5</ele></trkpt>
      <trkpt lat="36.667920" lon="127.916822"><ele>748.5</ele></trkpt>
      <trkpt lat="36.668101" lon="127.916940"><ele>759.2</ele></trkpt>
      <trkpt lat="36.668200" lon="127.917069"><ele>775.0</ele></trkpt>
      <trkpt lat="36.668214" lon="127.917294"><ele>793.7</ele></trkpt>
      <trkpt lat="36.668143" lon="127.917525"><ele>813.1</ele></trkpt>
      <trkpt lat="36.668064" lon="127.917592"><ele>819.4</ele></trkpt>
      <trkpt lat="36.667797" lon="127.917587"><ele>813.2</ele></trkpt>
      <trkpt lat="36.667694" lon="127.917697"><ele>817.0</ele></trkpt>
      <trkpt lat="36.667296" lon="127.918335"><ele>818.1</ele></trkpt>
      <trkpt lat="36.667605" lon="127.918433"><ele>822.4</ele></trkpt>
      <trkpt lat="36.667791" lon="127.918287"><ele>831.8</ele></trkpt>
      <trkpt lat="36.668052" lon="127.918335"><ele>823.0</ele></trkpt>
      <trkpt lat="36.668197" lon="127.918531"><ele>809.2</ele></trkpt>
      <trkpt lat="36.668184" lon="127.918805"><ele>796.4</ele></trkpt>
      <trkpt lat="36.668346" lon="127.918984"><ele>792.7</ele></trkpt>
      <trkpt lat="36.668324" lon="127.919316"><ele>792.4</ele></trkpt>
      <trkpt lat="36.668730" lon="127.920359"><ele>815.1</ele></trkpt>
      <trkpt lat="36.668828" lon="127.921103"><ele>799.5</ele></trkpt>
      <trkpt lat="36.668939" lon="127.921465"><ele>792.2</ele></trkpt>
      <trkpt lat="36.668733" lon="127.921752"><ele>784.6</ele></trkpt>
      <trkpt lat="36.668645" lon="127.922069"><ele>778.4</ele></trkpt>
      <trkpt lat="36.669142" lon="127.923614"><ele>783.2</ele></trkpt>
      <trkpt lat="36.669356" lon="127.924049"><ele>789.4</ele></trkpt>
      <trkpt lat="36.669424" lon="127.924319"><ele>795.8</ele></trkpt>
      <trkpt lat="36.669318" lon="127.925159"><ele>812.5</ele></trkpt>
      <trkpt lat="36.669142" lon="127.925669"><ele>813.8</ele></trkpt>
      <trkpt lat="36.669279" lon="127.926064"><ele>823.0</ele></trkpt>
      <trkpt lat="36.669026" lon="127.926773"><ele>841.7</ele></trkpt>
      <trkpt lat="36.668805" lon="127.927077"><ele>853.8</ele></trkpt>
      <trkpt lat="36.668707" lon="127.927337"><ele>865.3</ele></trkpt>
      <trkpt lat="36.668841" lon="127.927578"><ele>878.1</ele></trkpt>
      <trkpt lat="36.668850" lon="127.927878"><ele>883.7</ele></trkpt>
      <trkpt lat="36.668439" lon="127.928382"><ele>893.2</ele></trkpt>
      <trkpt lat="36.668465" lon="127.928874"><ele>900.8</ele></trkpt>
      <trkpt lat="36.668320" lon="127.929037"><ele>899.2</ele></trkpt>
      <trkpt lat="36.668510" lon="127.929208"><ele>900.1</ele></trkpt>
      <trkpt lat="36.668855" lon="127.929268"><ele>900.2</ele></trkpt>
      <trkpt lat="36.668971" lon="127.929449"><ele>902.8</ele></trkpt>
      <trkpt lat="36.669117" lon="127.929387"><ele>903.0</ele></trkpt>
      <trkpt lat="36.669154" lon="127.929476"><ele>905.3</ele></trkpt>
      <trkpt lat="36.669628" lon="127.929679"><ele>895.2</ele></trkpt>
      <trkpt lat="36.669701" lon="127.929826"><ele>890.4</ele></trkpt>
      <trkpt lat="36.670172" lon="127.930077"><ele>847.5</ele></trkpt>
      <trkpt lat="36.670242" lon="127.929992"><ele>840.5</ele></trkpt>
      <trkpt lat="36.670381" lon="127.930091"><ele>828.6</ele></trkpt>
      <trkpt lat="36.670463" lon="127.930078"><ele>821.5</ele></trkpt>
      <trkpt lat="36.670625" lon="127.930157"><ele>808.3</ele></trkpt>
      <trkpt lat="36.670624" lon="127.930368"><ele>806.2</ele></trkpt>
      <trkpt lat="36.671041" lon="127.930982"><ele>760.2</ele></trkpt>
      <trkpt lat="36.671221" lon="127.931117"><ele>750.9</ele></trkpt>
      <trkpt lat="36.671528" lon="127.931177"><ele>741.3</ele></trkpt>
      <trkpt lat="36.671650" lon="127.931352"><ele>736.8</ele></trkpt>
      <trkpt lat="36.671605" lon="127.931476"><ele>736.1</ele></trkpt>
      <trkpt lat="36.671702" lon="127.931604"><ele>732.2</ele></trkpt>
      <trkpt lat="36.671710" lon="127.931925"><ele>722.7</ele></trkpt>
    </trkseg>
  </trk>
</gpx>
