<?xml version="1.0" encoding="UTF-8"?>
<gpx version="1.1" creator="kr-100-mountains route-harvester"
     xmlns="http://www.topografix.com/GPX/1/1"
     xmlns:k100="https://github.com/jay-jang/kr-100-mountains/ns/1"
     xmlns:xsi="http://www.w3.org/2001/XMLSchema-instance"
     xsi:schemaLocation="http://www.topografix.com/GPX/1/1 http://www.topografix.com/GPX/1/1/gpx.xsd">
  <metadata>
    <name>덕룡산 · 소석문-동봉·서봉-수양리 종주 (OSM 계산 경로)</name>
    <desc>실제 GPS 기록이 아닙니다. OpenStreetMap에 등록된 등산로 선형 위에서 계산한 경로이며, 현장 통제·훼손·출입 제한·계절 통제를 반영하지 않을 수 있습니다. 산행 전 공식 안내를 확인하세요.</desc>
    <time>2026-08-04T05:38:13.252Z</time>
    <link href="https://www.openstreetmap.org/copyright"><text>© OpenStreetMap contributors (ODbL 1.0)</text></link>
    <link href="https://registry.opendata.aws/terrain-tiles/"><text>Elevation: SRTM 1 arc-second (NASA/USGS) via AWS Terrain Tiles</text></link>
    <extensions>
      <k100:provenance>osm-routed</k100:provenance>
      <k100:not_a_recorded_track>true</k100:not_a_recorded_track>
      <k100:mountain_id>deokryongsan-gangjin</k100:mountain_id>
      <k100:mountain_name>덕룡산(강진)</k100:mountain_name>
      <k100:route_id>deokryongsan-gangjin-8c3769df</k100:route_id>
      <k100:route_index>1</k100:route_index>
      <k100:route_name>소석문-동봉·서봉-수양리 종주</k100:route_name>
      <k100:variant>0</k100:variant>
      <k100:source>OpenStreetMap via Overpass API</k100:source>
      <k100:license>ODbL-1.0</k100:license>
      <k100:attribution>© OpenStreetMap contributors</k100:attribution>
      <k100:elevation_source>SRTM 1 arc-second (NASA/USGS) — AWS Terrain Tiles 배포본. 지형 DEM 추정 고도이며 실측 아님</k100:elevation_source>
      <k100:algorithm>dijkstra-grid-v1</k100:algorithm>
      <k100:osm_snapshot>2026-08-04</k100:osm_snapshot>
      <k100:snap_trailhead_m>37</k100:snap_trailhead_m>
      <k100:snap_summit_m>405</k100:snap_summit_m>
      <k100:validation_score>65</k100:validation_score>
      <k100:validation_status>review</k100:validation_status>
    </extensions>
  </metadata>
  <trk>
    <name>덕룡산 · 소석문-동봉·서봉-수양리 종주 (OSM 계산 경로)</name>
    <desc>실제 GPS 기록이 아닙니다. OpenStreetMap에 등록된 등산로 선형 위에서 계산한 경로이며, 현장 통제·훼손·출입 제한·계절 통제를 반영하지 않을 수 있습니다. 산행 전 공식 안내를 확인하세요.</desc>
    <trkseg>
      <trkpt lat="34.581107" lon="126.705229"><ele>191.4</ele></trkpt>
      <trkpt lat="34.581076" lon="126.705003"><ele>184.1</ele></trkpt>
      <trkpt lat="34.581096" lon="126.704424"><ele>163.3</ele></trkpt>
      <trkpt lat="34.581198" lon="126.704095"><ele>153.2</ele></trkpt>
      <trkpt lat="34.581099" lon="126.703317"><ele>128.4</ele></trkpt>
      <trkpt lat="34.580966" lon="126.703029"><ele>120.9</ele></trkpt>
      <trkpt lat="34.580725" lon="126.702808"><ele>116.0</ele></trkpt>
      <trkpt lat="34.580555" lon="126.702277"><ele>108.0</ele></trkpt>
      <trkpt lat="34.580228" lon="126.702027"><ele>101.0</ele></trkpt>
      <trkpt lat="34.580042" lon="126.702008"><ele>101.5</ele></trkpt>
      <trkpt lat="34.579655" lon="126.701701"><ele>96.8</ele></trkpt>
      <trkpt lat="34.578826" lon="126.701496"><ele>99.4</ele></trkpt>
      <trkpt lat="34.577853" lon="126.701634"><ele>113.5</ele></trkpt>
      <trkpt lat="34.577633" lon="126.701837"><ele>108.9</ele></trkpt>
      <trkpt lat="34.577586" lon="126.702059"><ele>106.7</ele></trkpt>
      <trkpt lat="34.577408" lon="126.702170"><ele>104.7</ele></trkpt>
      <trkpt lat="34.577227" lon="126.702114"><ele>103.3</ele></trkpt>
      <trkpt lat="34.576948" lon="126.702154"><ele>102.3</ele></trkpt>
      <trkpt lat="34.576856" lon="126.702122"><ele>102.7</ele></trkpt>
      <trkpt lat="34.576669" lon="126.701871"><ele>105.4</ele></trkpt>
      <trkpt lat="34.576316" lon="126.701684"><ele>104.3</ele></trkpt>
      <trkpt lat="34.576136" lon="126.701755"><ele>102.9</ele></trkpt>
      <trkpt lat="34.576029" lon="126.701935"><ele>102.4</ele></trkpt>
      <trkpt lat="34.575940" lon="126.701961"><ele>101.1</ele></trkpt>
      <trkpt lat="34.575908" lon="126.702085"><ele>102.1</ele></trkpt>
      <trkpt lat="34.575727" lon="126.702342"><ele>104.8</ele></trkpt>
      <trkpt lat="34.575595" lon="126.702912"><ele>112.2</ele></trkpt>
      <trkpt lat="34.575659" lon="126.703264"><ele>113.7</ele></trkpt>
      <trkpt lat="34.575448" lon="126.703472"><ele>106.1</ele></trkpt>
      <trkpt lat="34.575182" lon="126.703617"><ele>100.2</ele></trkpt>
      <trkpt lat="34.574979" lon="126.703863"><ele>95.6</ele></trkpt>
      <trkpt lat="34.574639" lon="126.704024"><ele>87.7</ele></trkpt>
      <trkpt lat="34.574582" lon="126.704243"><ele>85.2</ele></trkpt>
      <trkpt lat="34.574435" lon="126.704526"><ele>79.2</ele></trkpt>
      <trkpt lat="34.574268" lon="126.704702"><ele>77.9</ele></trkpt>
      <trkpt lat="34.574418" lon="126.705884"><ele>66.5</ele></trkpt>
      <trkpt lat="34.574488" lon="126.705641"><ele>67.1</ele></trkpt>
      <trkpt lat="34.574158" lon="126.705585"><ele>67.9</ele></trkpt>
      <trkpt lat="34.573982" lon="126.705680"><ele>69.6</ele></trkpt>
      <trkpt lat="34.573219" lon="126.706441"><ele>67.9</ele></trkpt>
      <trkpt lat="34.571728" lon="126.707569"><ele>57.8</ele></trkpt>
      <trkpt lat="34.570714" lon="126.706732"><ele>64.3</ele></trkpt>
      <trkpt lat="34.570052" lon="126.706308"><ele>63.9</ele></trkpt>
      <trkpt lat="34.569837" lon="126.706104"><ele>62.1</ele></trkpt>
      <trkpt lat="34.569479" lon="126.705055"><ele>62.2</ele></trkpt>
      <trkpt lat="34.569147" lon="126.704945"><ele>62.4</ele></trkpt>
      <trkpt lat="34.568826" lon="126.705008"><ele>65.6</ele></trkpt>
      <trkpt lat="34.568630" lon="126.704990"><ele>67.8</ele></trkpt>
      <trkpt lat="34.568551" lon="126.704865"><ele>68.4</ele></trkpt>
      <trkpt lat="34.568402" lon="126.704796"><ele>68.9</ele></trkpt>
      <trkpt lat="34.567526" lon="126.704877"><ele>64.5</ele></trkpt>
      <trkpt lat="34.567503" lon="126.704602"><ele>67.2</ele></trkpt>
      <trkpt lat="34.567458" lon="126.704553"><ele>67.7</ele></trkpt>
      <trkpt lat="34.567238" lon="126.704519"><ele>66.3</ele></trkpt>
      <trkpt lat="34.567094" lon="126.704378"><ele>66.9</ele></trkpt>
      <trkpt lat="34.566821" lon="126.703884"><ele>69.6</ele></trkpt>
      <trkpt lat="34.566668" lon="126.703729"><ele>70.7</ele></trkpt>
      <trkpt lat="34.566446" lon="126.703771"><ele>70.2</ele></trkpt>
      <trkpt lat="34.566380" lon="126.703827"><ele>69.2</ele></trkpt>
      <trkpt lat="34.566325" lon="126.704010"><ele>67.5</ele></trkpt>
      <trkpt lat="34.566187" lon="126.704087"><ele>67.5</ele></trkpt>
      <trkpt lat="34.565984" lon="126.704105"><ele>68.5</ele></trkpt>
      <trkpt lat="34.565859" lon="126.704183"><ele>68.8</ele></trkpt>
      <trkpt lat="34.565840" lon="126.704117"><ele>69.3</ele></trkpt>
    </trkseg>
  </trk>
</gpx>
