<?xml version="1.0" encoding="UTF-8"?>
<gpx version="1.1" creator="kr-100-mountains route-harvester"
     xmlns="http://www.topografix.com/GPX/1/1"
     xmlns:k100="https://github.com/jay-jang/kr-100-mountains/ns/1"
     xmlns:xsi="http://www.w3.org/2001/XMLSchema-instance"
     xsi:schemaLocation="http://www.topografix.com/GPX/1/1 http://www.topografix.com/GPX/1/1/gpx.xsd">
  <metadata>
    <name>북한산 · 우이동-백운대 코스 (대안 2) (OSM 계산 경로)</name>
    <desc>실제 GPS 기록이 아닙니다. OpenStreetMap에 등록된 등산로 선형 위에서 계산한 경로이며, 현장 통제·훼손·출입 제한·계절 통제를 반영하지 않을 수 있습니다. 산행 전 공식 안내를 확인하세요.</desc>
    <time>2026-08-04T05:14:10.816Z</time>
    <link href="https://www.openstreetmap.org/copyright"><text>© OpenStreetMap contributors (ODbL 1.0)</text></link>
    <link href="https://registry.opendata.aws/terrain-tiles/"><text>Elevation: SRTM 1 arc-second (NASA/USGS) via AWS Terrain Tiles</text></link>
    <extensions>
      <k100:provenance>osm-routed</k100:provenance>
      <k100:not_a_recorded_track>true</k100:not_a_recorded_track>
      <k100:mountain_id>bukhansan</k100:mountain_id>
      <k100:mountain_name>북한산</k100:mountain_name>
      <k100:route_id>bukhansan-eb5aeff8</k100:route_id>
      <k100:route_index>2</k100:route_index>
      <k100:route_name>우이동-백운대 코스</k100:route_name>
      <k100:variant>2</k100:variant>
      <k100:source>OpenStreetMap via Overpass API</k100:source>
      <k100:license>ODbL-1.0</k100:license>
      <k100:attribution>© OpenStreetMap contributors</k100:attribution>
      <k100:elevation_source>SRTM 1 arc-second (NASA/USGS) — AWS Terrain Tiles 배포본. 지형 DEM 추정 고도이며 실측 아님</k100:elevation_source>
      <k100:algorithm>dijkstra-grid-v1</k100:algorithm>
      <k100:osm_snapshot>2026-08-04</k100:osm_snapshot>
      <k100:snap_trailhead_m>23</k100:snap_trailhead_m>
      <k100:snap_summit_m>140</k100:snap_summit_m>
      <k100:validation_score>89</k100:validation_score>
      <k100:validation_status>accepted</k100:validation_status>
    </extensions>
  </metadata>
  <trk>
    <name>북한산 · 우이동-백운대 코스 (대안 2) (OSM 계산 경로)</name>
    <desc>실제 GPS 기록이 아닙니다. OpenStreetMap에 등록된 등산로 선형 위에서 계산한 경로이며, 현장 통제·훼손·출입 제한·계절 통제를 반영하지 않을 수 있습니다. 산행 전 공식 안내를 확인하세요.</desc>
    <trkseg>
      <trkpt lat="37.662618" lon="127.013050"><ele>66.2</ele></trkpt>
      <trkpt lat="37.662633" lon="127.013130"><ele>65.9</ele></trkpt>
      <trkpt lat="37.661109" lon="127.013582"><ele>63.3</ele></trkpt>
      <trkpt lat="37.661186" lon="127.013270"><ele>66.8</ele></trkpt>
      <trkpt lat="37.661189" lon="127.012568"><ele>72.9</ele></trkpt>
      <trkpt lat="37.661307" lon="127.011919"><ele>77.7</ele></trkpt>
      <trkpt lat="37.661193" lon="127.011308"><ele>80.7</ele></trkpt>
      <trkpt lat="37.661295" lon="127.010578"><ele>83.5</ele></trkpt>
      <trkpt lat="37.661015" lon="127.008856"><ele>94.7</ele></trkpt>
      <trkpt lat="37.661070" lon="127.008103"><ele>93.6</ele></trkpt>
      <trkpt lat="37.661252" lon="127.007619"><ele>92.8</ele></trkpt>
      <trkpt lat="37.660945" lon="127.006914"><ele>95.2</ele></trkpt>
      <trkpt lat="37.660651" lon="127.005947"><ele>104.7</ele></trkpt>
      <trkpt lat="37.660468" lon="127.005608"><ele>107.4</ele></trkpt>
      <trkpt lat="37.659416" lon="127.004474"><ele>117.3</ele></trkpt>
      <trkpt lat="37.658954" lon="127.004231"><ele>121.1</ele></trkpt>
      <trkpt lat="37.658843" lon="127.003955"><ele>121.7</ele></trkpt>
      <trkpt lat="37.658879" lon="127.003906"><ele>121.1</ele></trkpt>
      <trkpt lat="37.659023" lon="127.003908"><ele>121.4</ele></trkpt>
      <trkpt lat="37.659280" lon="127.003804"><ele>123.2</ele></trkpt>
      <trkpt lat="37.659380" lon="127.003461"><ele>125.2</ele></trkpt>
      <trkpt lat="37.659333" lon="127.003383"><ele>126.0</ele></trkpt>
      <trkpt lat="37.659108" lon="127.003294"><ele>127.3</ele></trkpt>
      <trkpt lat="37.658742" lon="127.002571"><ele>133.9</ele></trkpt>
      <trkpt lat="37.658554" lon="127.002709"><ele>128.4</ele></trkpt>
      <trkpt lat="37.658527" lon="127.003160"><ele>122.9</ele></trkpt>
      <trkpt lat="37.658366" lon="127.003158"><ele>124.1</ele></trkpt>
      <trkpt lat="37.658382" lon="127.002972"><ele>124.6</ele></trkpt>
      <trkpt lat="37.658339" lon="127.002836"><ele>125.6</ele></trkpt>
      <trkpt lat="37.658008" lon="127.002113"><ele>135.3</ele></trkpt>
      <trkpt lat="37.658048" lon="127.001975"><ele>137.4</ele></trkpt>
      <trkpt lat="37.657977" lon="127.001641"><ele>145.8</ele></trkpt>
      <trkpt lat="37.657623" lon="127.000961"><ele>160.2</ele></trkpt>
      <trkpt lat="37.656713" lon="127.000537"><ele>166.1</ele></trkpt>
      <trkpt lat="37.656452" lon="127.000250"><ele>172.6</ele></trkpt>
      <trkpt lat="37.656194" lon="126.999752"><ele>182.2</ele></trkpt>
      <trkpt lat="37.656004" lon="126.998858"><ele>188.0</ele></trkpt>
      <trkpt lat="37.656087" lon="126.997719"><ele>201.4</ele></trkpt>
      <trkpt lat="37.656063" lon="126.997313"><ele>205.7</ele></trkpt>
      <trkpt lat="37.655906" lon="126.996730"><ele>212.6</ele></trkpt>
      <trkpt lat="37.655661" lon="126.996232"><ele>218.2</ele></trkpt>
      <trkpt lat="37.655417" lon="126.995295"><ele>230.7</ele></trkpt>
      <trkpt lat="37.655666" lon="126.994110"><ele>250.8</ele></trkpt>
      <trkpt lat="37.655968" lon="126.993204"><ele>262.3</ele></trkpt>
      <trkpt lat="37.656044" lon="126.993100"><ele>264.4</ele></trkpt>
      <trkpt lat="37.656723" lon="126.992662"><ele>281.2</ele></trkpt>
      <trkpt lat="37.657338" lon="126.991849"><ele>299.9</ele></trkpt>
      <trkpt lat="37.658203" lon="126.991179"><ele>314.1</ele></trkpt>
      <trkpt lat="37.658289" lon="126.990927"><ele>321.4</ele></trkpt>
      <trkpt lat="37.658425" lon="126.990929"><ele>324.8</ele></trkpt>
      <trkpt lat="37.658999" lon="126.990020"><ele>345.6</ele></trkpt>
      <trkpt lat="37.659120" lon="126.989904"><ele>352.0</ele></trkpt>
      <trkpt lat="37.659366" lon="126.989852"><ele>362.0</ele></trkpt>
      <trkpt lat="37.659422" lon="126.989743"><ele>365.0</ele></trkpt>
      <trkpt lat="37.659505" lon="126.989724"><ele>367.7</ele></trkpt>
      <trkpt lat="37.659681" lon="126.989388"><ele>374.6</ele></trkpt>
      <trkpt lat="37.659849" lon="126.989365"><ele>383.4</ele></trkpt>
      <trkpt lat="37.660079" lon="126.988667"><ele>399.8</ele></trkpt>
      <trkpt lat="37.660357" lon="126.988145"><ele>421.4</ele></trkpt>
      <trkpt lat="37.660334" lon="126.987578"><ele>449.4</ele></trkpt>
      <trkpt lat="37.660227" lon="126.987405"><ele>454.9</ele></trkpt>
      <trkpt lat="37.660087" lon="126.987311"><ele>454.9</ele></trkpt>
      <trkpt lat="37.659971" lon="126.987103"><ele>460.4</ele></trkpt>
    </trkseg>
  </trk>
</gpx>
