<?xml version="1.0" encoding="UTF-8"?>
<gpx version="1.1" creator="kr-100-mountains route-harvester"
     xmlns="http://www.topografix.com/GPX/1/1"
     xmlns:k100="https://github.com/jay-jang/kr-100-mountains/ns/1"
     xmlns:xsi="http://www.w3.org/2001/XMLSchema-instance"
     xsi:schemaLocation="http://www.topografix.com/GPX/1/1 http://www.topografix.com/GPX/1/1/gpx.xsd">
  <metadata>
    <name>북한산 · 백운대탐방지원센터-하루재-백운대피소-백운대 (대안 2) (OSM 계산 경로)</name>
    <desc>실제 GPS 기록이 아닙니다. OpenStreetMap에 등록된 등산로 선형 위에서 계산한 경로이며, 현장 통제·훼손·출입 제한·계절 통제를 반영하지 않을 수 있습니다. 산행 전 공식 안내를 확인하세요.</desc>
    <time>2026-08-04T05:14:10.832Z</time>
    <link href="https://www.openstreetmap.org/copyright"><text>© OpenStreetMap contributors (ODbL 1.0)</text></link>
    <link href="https://registry.opendata.aws/terrain-tiles/"><text>Elevation: SRTM 1 arc-second (NASA/USGS) via AWS Terrain Tiles</text></link>
    <extensions>
      <k100:provenance>osm-routed</k100:provenance>
      <k100:not_a_recorded_track>true</k100:not_a_recorded_track>
      <k100:mountain_id>bukhansan</k100:mountain_id>
      <k100:mountain_name>북한산</k100:mountain_name>
      <k100:route_id>bukhansan-7f83fcde</k100:route_id>
      <k100:route_index>3</k100:route_index>
      <k100:route_name>백운대탐방지원센터-하루재-백운대피소-백운대</k100:route_name>
      <k100:variant>2</k100:variant>
      <k100:source>OpenStreetMap via Overpass API</k100:source>
      <k100:license>ODbL-1.0</k100:license>
      <k100:attribution>© OpenStreetMap contributors</k100:attribution>
      <k100:elevation_source>SRTM 1 arc-second (NASA/USGS) — AWS Terrain Tiles 배포본. 지형 DEM 추정 고도이며 실측 아님</k100:elevation_source>
      <k100:algorithm>dijkstra-grid-v1</k100:algorithm>
      <k100:osm_snapshot>2026-08-04</k100:osm_snapshot>
      <k100:snap_trailhead_m>27</k100:snap_trailhead_m>
      <k100:snap_summit_m>140</k100:snap_summit_m>
      <k100:validation_score>73</k100:validation_score>
      <k100:validation_status>review</k100:validation_status>
    </extensions>
  </metadata>
  <trk>
    <name>북한산 · 백운대탐방지원센터-하루재-백운대피소-백운대 (대안 2) (OSM 계산 경로)</name>
    <desc>실제 GPS 기록이 아닙니다. OpenStreetMap에 등록된 등산로 선형 위에서 계산한 경로이며, 현장 통제·훼손·출입 제한·계절 통제를 반영하지 않을 수 있습니다. 산행 전 공식 안내를 확인하세요.</desc>
    <trkseg>
      <trkpt lat="37.660624" lon="126.996235"><ele>303.5</ele></trkpt>
      <trkpt lat="37.660335" lon="126.996562"><ele>286.6</ele></trkpt>
      <trkpt lat="37.660212" lon="126.996846"><ele>273.1</ele></trkpt>
      <trkpt lat="37.660208" lon="126.997286"><ele>255.9</ele></trkpt>
      <trkpt lat="37.660386" lon="126.997586"><ele>248.4</ele></trkpt>
      <trkpt lat="37.660382" lon="126.997855"><ele>240.5</ele></trkpt>
      <trkpt lat="37.660047" lon="126.998321"><ele>226.8</ele></trkpt>
      <trkpt lat="37.659855" lon="126.998901"><ele>210.7</ele></trkpt>
      <trkpt lat="37.659677" lon="126.999201"><ele>202.7</ele></trkpt>
      <trkpt lat="37.659664" lon="126.999850"><ele>186.3</ele></trkpt>
      <trkpt lat="37.659316" lon="127.000403"><ele>173.4</ele></trkpt>
      <trkpt lat="37.659388" lon="127.000473"><ele>174.8</ele></trkpt>
      <trkpt lat="37.659418" lon="127.000644"><ele>173.4</ele></trkpt>
      <trkpt lat="37.659320" lon="127.000886"><ele>166.8</ele></trkpt>
      <trkpt lat="37.659371" lon="127.001454"><ele>159.6</ele></trkpt>
      <trkpt lat="37.659227" lon="127.001728"><ele>152.4</ele></trkpt>
      <trkpt lat="37.659223" lon="127.002087"><ele>144.6</ele></trkpt>
      <trkpt lat="37.659057" lon="127.002103"><ele>142.2</ele></trkpt>
      <trkpt lat="37.658972" lon="127.002243"><ele>139.8</ele></trkpt>
      <trkpt lat="37.658764" lon="127.002280"><ele>136.5</ele></trkpt>
      <trkpt lat="37.658742" lon="127.002571"><ele>133.9</ele></trkpt>
      <trkpt lat="37.658554" lon="127.002709"><ele>128.4</ele></trkpt>
      <trkpt lat="37.658527" lon="127.003160"><ele>122.9</ele></trkpt>
      <trkpt lat="37.658366" lon="127.003158"><ele>124.1</ele></trkpt>
      <trkpt lat="37.658382" lon="127.002972"><ele>124.6</ele></trkpt>
      <trkpt lat="37.658339" lon="127.002836"><ele>125.6</ele></trkpt>
      <trkpt lat="37.658008" lon="127.002113"><ele>135.3</ele></trkpt>
      <trkpt lat="37.658048" lon="127.001975"><ele>137.4</ele></trkpt>
      <trkpt lat="37.657977" lon="127.001641"><ele>145.8</ele></trkpt>
      <trkpt lat="37.657623" lon="127.000961"><ele>160.2</ele></trkpt>
      <trkpt lat="37.656713" lon="127.000537"><ele>166.1</ele></trkpt>
      <trkpt lat="37.656452" lon="127.000250"><ele>172.6</ele></trkpt>
      <trkpt lat="37.656194" lon="126.999752"><ele>182.2</ele></trkpt>
      <trkpt lat="37.656004" lon="126.998858"><ele>188.0</ele></trkpt>
      <trkpt lat="37.656087" lon="126.997719"><ele>201.4</ele></trkpt>
      <trkpt lat="37.656063" lon="126.997313"><ele>205.7</ele></trkpt>
      <trkpt lat="37.655906" lon="126.996730"><ele>212.6</ele></trkpt>
      <trkpt lat="37.655619" lon="126.996101"><ele>218.8</ele></trkpt>
      <trkpt lat="37.655428" lon="126.995392"><ele>228.8</ele></trkpt>
      <trkpt lat="37.655419" lon="126.995151"><ele>233.1</ele></trkpt>
      <trkpt lat="37.655566" lon="126.994677"><ele>241.5</ele></trkpt>
      <trkpt lat="37.655666" lon="126.994110"><ele>250.8</ele></trkpt>
      <trkpt lat="37.655968" lon="126.993204"><ele>262.3</ele></trkpt>
      <trkpt lat="37.656044" lon="126.993100"><ele>264.4</ele></trkpt>
      <trkpt lat="37.656723" lon="126.992662"><ele>281.2</ele></trkpt>
      <trkpt lat="37.657338" lon="126.991849"><ele>299.9</ele></trkpt>
      <trkpt lat="37.658203" lon="126.991179"><ele>314.1</ele></trkpt>
      <trkpt lat="37.658289" lon="126.990927"><ele>321.4</ele></trkpt>
      <trkpt lat="37.658425" lon="126.990929"><ele>324.8</ele></trkpt>
      <trkpt lat="37.658999" lon="126.990020"><ele>345.6</ele></trkpt>
      <trkpt lat="37.659120" lon="126.989904"><ele>352.0</ele></trkpt>
      <trkpt lat="37.659366" lon="126.989852"><ele>362.0</ele></trkpt>
      <trkpt lat="37.659422" lon="126.989743"><ele>365.0</ele></trkpt>
      <trkpt lat="37.659505" lon="126.989724"><ele>367.7</ele></trkpt>
      <trkpt lat="37.659681" lon="126.989388"><ele>374.6</ele></trkpt>
      <trkpt lat="37.659849" lon="126.989365"><ele>383.4</ele></trkpt>
      <trkpt lat="37.660079" lon="126.988667"><ele>399.8</ele></trkpt>
      <trkpt lat="37.660357" lon="126.988145"><ele>421.4</ele></trkpt>
      <trkpt lat="37.660334" lon="126.987578"><ele>449.4</ele></trkpt>
      <trkpt lat="37.660227" lon="126.987405"><ele>454.9</ele></trkpt>
      <trkpt lat="37.660087" lon="126.987311"><ele>454.9</ele></trkpt>
      <trkpt lat="37.659971" lon="126.987103"><ele>460.4</ele></trkpt>
    </trkseg>
  </trk>
</gpx>
