<?xml version="1.0" encoding="UTF-8"?>
<gpx version="1.1" creator="kr-100-mountains route-harvester"
     xmlns="http://www.topografix.com/GPX/1/1"
     xmlns:k100="https://github.com/jay-jang/kr-100-mountains/ns/1"
     xmlns:xsi="http://www.w3.org/2001/XMLSchema-instance"
     xsi:schemaLocation="http://www.topografix.com/GPX/1/1 http://www.topografix.com/GPX/1/1/gpx.xsd">
  <metadata>
    <name>북한산 · 북한산성 코스 (OSM 계산 경로)</name>
    <desc>실제 GPS 기록이 아닙니다. OpenStreetMap에 등록된 등산로 선형 위에서 계산한 경로이며, 현장 통제·훼손·출입 제한·계절 통제를 반영하지 않을 수 있습니다. 산행 전 공식 안내를 확인하세요.</desc>
    <time>2026-08-04T05:14:10.677Z</time>
    <link href="https://www.openstreetmap.org/copyright"><text>© OpenStreetMap contributors (ODbL 1.0)</text></link>
    <link href="https://registry.opendata.aws/terrain-tiles/"><text>Elevation: SRTM 1 arc-second (NASA/USGS) via AWS Terrain Tiles</text></link>
    <extensions>
      <k100:provenance>osm-routed</k100:provenance>
      <k100:not_a_recorded_track>true</k100:not_a_recorded_track>
      <k100:mountain_id>bukhansan</k100:mountain_id>
      <k100:mountain_name>북한산</k100:mountain_name>
      <k100:route_id>bukhansan-d0f886b8</k100:route_id>
      <k100:route_index>1</k100:route_index>
      <k100:route_name>북한산성 코스</k100:route_name>
      <k100:variant>0</k100:variant>
      <k100:source>OpenStreetMap via Overpass API</k100:source>
      <k100:license>ODbL-1.0</k100:license>
      <k100:attribution>© OpenStreetMap contributors</k100:attribution>
      <k100:elevation_source>SRTM 1 arc-second (NASA/USGS) — AWS Terrain Tiles 배포본. 지형 DEM 추정 고도이며 실측 아님</k100:elevation_source>
      <k100:algorithm>dijkstra-grid-v1</k100:algorithm>
      <k100:osm_snapshot>2026-08-04</k100:osm_snapshot>
      <k100:snap_trailhead_m>23</k100:snap_trailhead_m>
      <k100:snap_summit_m>140</k100:snap_summit_m>
      <k100:validation_score>89</k100:validation_score>
      <k100:validation_status>accepted</k100:validation_status>
    </extensions>
  </metadata>
  <trk>
    <name>북한산 · 북한산성 코스 (OSM 계산 경로)</name>
    <desc>실제 GPS 기록이 아닙니다. OpenStreetMap에 등록된 등산로 선형 위에서 계산한 경로이며, 현장 통제·훼손·출입 제한·계절 통제를 반영하지 않을 수 있습니다. 산행 전 공식 안내를 확인하세요.</desc>
    <trkseg>
      <trkpt lat="37.651002" lon="126.951082"><ele>144.7</ele></trkpt>
      <trkpt lat="37.650656" lon="126.951594"><ele>154.7</ele></trkpt>
      <trkpt lat="37.650409" lon="126.952135"><ele>166.1</ele></trkpt>
      <trkpt lat="37.650332" lon="126.953162"><ele>187.2</ele></trkpt>
      <trkpt lat="37.650207" lon="126.953523"><ele>196.5</ele></trkpt>
      <trkpt lat="37.650238" lon="126.953688"><ele>200.3</ele></trkpt>
      <trkpt lat="37.650207" lon="126.953810"><ele>205.2</ele></trkpt>
      <trkpt lat="37.650106" lon="126.953927"><ele>212.5</ele></trkpt>
      <trkpt lat="37.650093" lon="126.954049"><ele>215.4</ele></trkpt>
      <trkpt lat="37.650300" lon="126.954057"><ele>207.6</ele></trkpt>
      <trkpt lat="37.650841" lon="126.953896"><ele>182.8</ele></trkpt>
      <trkpt lat="37.650909" lon="126.953621"><ele>173.5</ele></trkpt>
      <trkpt lat="37.651135" lon="126.953530"><ele>165.1</ele></trkpt>
      <trkpt lat="37.651291" lon="126.953276"><ele>161.1</ele></trkpt>
      <trkpt lat="37.651311" lon="126.953114"><ele>158.1</ele></trkpt>
      <trkpt lat="37.651370" lon="126.953030"><ele>155.8</ele></trkpt>
      <trkpt lat="37.651491" lon="126.953009"><ele>152.7</ele></trkpt>
      <trkpt lat="37.651511" lon="126.953113"><ele>154.0</ele></trkpt>
      <trkpt lat="37.651994" lon="126.953420"><ele>139.9</ele></trkpt>
      <trkpt lat="37.652233" lon="126.953885"><ele>137.8</ele></trkpt>
      <trkpt lat="37.652478" lon="126.953798"><ele>133.9</ele></trkpt>
      <trkpt lat="37.652666" lon="126.953875"><ele>134.1</ele></trkpt>
      <trkpt lat="37.652715" lon="126.954435"><ele>141.6</ele></trkpt>
      <trkpt lat="37.652858" lon="126.954910"><ele>143.6</ele></trkpt>
      <trkpt lat="37.652855" lon="126.955064"><ele>145.6</ele></trkpt>
      <trkpt lat="37.652671" lon="126.955587"><ele>158.1</ele></trkpt>
      <trkpt lat="37.652659" lon="126.955768"><ele>160.6</ele></trkpt>
      <trkpt lat="37.652724" lon="126.955912"><ele>160.9</ele></trkpt>
      <trkpt lat="37.652932" lon="126.956050"><ele>160.7</ele></trkpt>
      <trkpt lat="37.653436" lon="126.955833"><ele>157.0</ele></trkpt>
      <trkpt lat="37.653624" lon="126.956007"><ele>160.0</ele></trkpt>
      <trkpt lat="37.653585" lon="126.956360"><ele>166.5</ele></trkpt>
      <trkpt lat="37.653837" lon="126.956916"><ele>176.5</ele></trkpt>
      <trkpt lat="37.653867" lon="126.957325"><ele>181.3</ele></trkpt>
      <trkpt lat="37.654041" lon="126.957854"><ele>179.3</ele></trkpt>
      <trkpt lat="37.653688" lon="126.958159"><ele>187.1</ele></trkpt>
      <trkpt lat="37.653454" lon="126.958446"><ele>194.3</ele></trkpt>
      <trkpt lat="37.653425" lon="126.958570"><ele>196.1</ele></trkpt>
      <trkpt lat="37.653461" lon="126.958681"><ele>195.4</ele></trkpt>
      <trkpt lat="37.653593" lon="126.958719"><ele>190.8</ele></trkpt>
      <trkpt lat="37.653879" lon="126.958669"><ele>179.8</ele></trkpt>
      <trkpt lat="37.653962" lon="126.958804"><ele>178.2</ele></trkpt>
      <trkpt lat="37.653954" lon="126.958900"><ele>178.8</ele></trkpt>
      <trkpt lat="37.653740" lon="126.959684"><ele>179.3</ele></trkpt>
      <trkpt lat="37.653623" lon="126.959970"><ele>180.9</ele></trkpt>
      <trkpt lat="37.653389" lon="126.960234"><ele>183.4</ele></trkpt>
      <trkpt lat="37.653014" lon="126.960825"><ele>192.5</ele></trkpt>
      <trkpt lat="37.652932" lon="126.961046"><ele>196.2</ele></trkpt>
      <trkpt lat="37.652875" lon="126.961718"><ele>192.2</ele></trkpt>
      <trkpt lat="37.652508" lon="126.962167"><ele>194.9</ele></trkpt>
      <trkpt lat="37.652340" lon="126.962456"><ele>197.6</ele></trkpt>
      <trkpt lat="37.652397" lon="126.962691"><ele>197.2</ele></trkpt>
      <trkpt lat="37.652475" lon="126.962786"><ele>196.5</ele></trkpt>
      <trkpt lat="37.652705" lon="126.962736"><ele>197.7</ele></trkpt>
      <trkpt lat="37.653041" lon="126.962460"><ele>192.5</ele></trkpt>
      <trkpt lat="37.653088" lon="126.962455"><ele>192.4</ele></trkpt>
      <trkpt lat="37.653149" lon="126.962542"><ele>194.7</ele></trkpt>
      <trkpt lat="37.653258" lon="126.962959"><ele>210.7</ele></trkpt>
      <trkpt lat="37.653164" lon="126.963388"><ele>227.5</ele></trkpt>
      <trkpt lat="37.653234" lon="126.963581"><ele>233.4</ele></trkpt>
      <trkpt lat="37.653286" lon="126.964068"><ele>241.8</ele></trkpt>
      <trkpt lat="37.653512" lon="126.964708"><ele>251.4</ele></trkpt>
      <trkpt lat="37.653741" lon="126.965035"><ele>255.5</ele></trkpt>
      <trkpt lat="37.653802" lon="126.965305"><ele>259.4</ele></trkpt>
      <trkpt lat="37.653932" lon="126.965451"><ele>259.5</ele></trkpt>
      <trkpt lat="37.653979" lon="126.965589"><ele>261.7</ele></trkpt>
      <trkpt lat="37.654005" lon="126.966324"><ele>284.7</ele></trkpt>
      <trkpt lat="37.654054" lon="126.966512"><ele>288.8</ele></trkpt>
      <trkpt lat="37.654310" lon="126.967105"><ele>293.2</ele></trkpt>
      <trkpt lat="37.654473" lon="126.967354"><ele>295.9</ele></trkpt>
      <trkpt lat="37.654583" lon="126.967861"><ele>309.4</ele></trkpt>
      <trkpt lat="37.654616" lon="126.968174"><ele>317.1</ele></trkpt>
      <trkpt lat="37.654581" lon="126.968648"><ele>329.1</ele></trkpt>
      <trkpt lat="37.654655" lon="126.968946"><ele>332.1</ele></trkpt>
      <trkpt lat="37.654959" lon="126.969424"><ele>330.9</ele></trkpt>
      <trkpt lat="37.655217" lon="126.969653"><ele>338.2</ele></trkpt>
      <trkpt lat="37.655326" lon="126.969945"><ele>346.5</ele></trkpt>
      <trkpt lat="37.655581" lon="126.970332"><ele>357.8</ele></trkpt>
      <trkpt lat="37.655569" lon="126.971197"><ele>375.3</ele></trkpt>
      <trkpt lat="37.655647" lon="126.971598"><ele>385.9</ele></trkpt>
      <trkpt lat="37.655605" lon="126.971820"><ele>388.3</ele></trkpt>
      <trkpt lat="37.655729" lon="126.972003"><ele>396.8</ele></trkpt>
      <trkpt lat="37.655723" lon="126.972509"><ele>403.1</ele></trkpt>
      <trkpt lat="37.656099" lon="126.972901"><ele>428.2</ele></trkpt>
      <trkpt lat="37.656158" lon="126.973060"><ele>435.0</ele></trkpt>
      <trkpt lat="37.656024" lon="126.973179"><ele>435.0</ele></trkpt>
      <trkpt lat="37.656001" lon="126.973425"><ele>441.4</ele></trkpt>
      <trkpt lat="37.656027" lon="126.973687"><ele>447.8</ele></trkpt>
      <trkpt lat="37.655977" lon="126.973889"><ele>448.8</ele></trkpt>
      <trkpt lat="37.656064" lon="126.974491"><ele>474.0</ele></trkpt>
      <trkpt lat="37.656047" lon="126.975034"><ele>489.6</ele></trkpt>
      <trkpt lat="37.656260" lon="126.975554"><ele>515.4</ele></trkpt>
      <trkpt lat="37.656391" lon="126.975716"><ele>523.5</ele></trkpt>
      <trkpt lat="37.656888" lon="126.976035"><ele>551.2</ele></trkpt>
      <trkpt lat="37.656877" lon="126.976269"><ele>553.8</ele></trkpt>
      <trkpt lat="37.656722" lon="126.976681"><ele>564.8</ele></trkpt>
      <trkpt lat="37.656859" lon="126.977595"><ele>634.5</ele></trkpt>
      <trkpt lat="37.657084" lon="126.977956"><ele>664.9</ele></trkpt>
      <trkpt lat="37.657136" lon="126.978415"><ele>672.8</ele></trkpt>
      <trkpt lat="37.657380" lon="126.978779"><ele>684.6</ele></trkpt>
      <trkpt lat="37.657612" lon="126.979349"><ele>709.3</ele></trkpt>
      <trkpt lat="37.657612" lon="126.979442"><ele>711.0</ele></trkpt>
      <trkpt lat="37.657691" lon="126.979583"><ele>711.8</ele></trkpt>
      <trkpt lat="37.657832" lon="126.979671"><ele>711.1</ele></trkpt>
      <trkpt lat="37.657880" lon="126.979805"><ele>707.6</ele></trkpt>
      <trkpt lat="37.657885" lon="126.980096"><ele>698.2</ele></trkpt>
      <trkpt lat="37.658064" lon="126.980317"><ele>692.0</ele></trkpt>
      <trkpt lat="37.658141" lon="126.980695"><ele>677.2</ele></trkpt>
      <trkpt lat="37.658339" lon="126.980848"><ele>666.4</ele></trkpt>
      <trkpt lat="37.658351" lon="126.980974"><ele>661.2</ele></trkpt>
      <trkpt lat="37.658451" lon="126.981044"><ele>659.8</ele></trkpt>
      <trkpt lat="37.658439" lon="126.981165"><ele>655.1</ele></trkpt>
      <trkpt lat="37.658558" lon="126.981276"><ele>653.2</ele></trkpt>
      <trkpt lat="37.658549" lon="126.981397"><ele>648.8</ele></trkpt>
      <trkpt lat="37.658354" lon="126.981574"><ele>638.9</ele></trkpt>
      <trkpt lat="37.658308" lon="126.981959"><ele>628.7</ele></trkpt>
      <trkpt lat="37.658339" lon="126.982108"><ele>624.5</ele></trkpt>
      <trkpt lat="37.658471" lon="126.982355"><ele>618.6</ele></trkpt>
      <trkpt lat="37.658591" lon="126.982775"><ele>604.1</ele></trkpt>
      <trkpt lat="37.658712" lon="126.982933"><ele>596.1</ele></trkpt>
      <trkpt lat="37.658855" lon="126.983013"><ele>589.8</ele></trkpt>
      <trkpt lat="37.658937" lon="126.983183"><ele>582.5</ele></trkpt>
      <trkpt lat="37.659096" lon="126.983765"><ele>569.2</ele></trkpt>
      <trkpt lat="37.659483" lon="126.984637"><ele>533.2</ele></trkpt>
      <trkpt lat="37.659499" lon="126.984800"><ele>531.6</ele></trkpt>
      <trkpt lat="37.659602" lon="126.984840"><ele>528.4</ele></trkpt>
      <trkpt lat="37.659876" lon="126.985382"><ele>519.7</ele></trkpt>
      <trkpt lat="37.659881" lon="126.985708"><ele>518.3</ele></trkpt>
      <trkpt lat="37.660013" lon="126.986085"><ele>511.9</ele></trkpt>
      <trkpt lat="37.660051" lon="126.986585"><ele>488.3</ele></trkpt>
      <trkpt lat="37.659971" lon="126.987103"><ele>460.4</ele></trkpt>
    </trkseg>
  </trk>
</gpx>
