<?xml version="1.0" encoding="UTF-8"?>
<gpx version="1.1" creator="kr-100-mountains route-harvester"
     xmlns="http://www.topografix.com/GPX/1/1"
     xmlns:k100="https://github.com/jay-jang/kr-100-mountains/ns/1"
     xmlns:xsi="http://www.w3.org/2001/XMLSchema-instance"
     xsi:schemaLocation="http://www.topografix.com/GPX/1/1 http://www.topografix.com/GPX/1/1/gpx.xsd">
  <metadata>
    <name>가지산 · 석남터널-중봉-가지산 정상 (OSM 계산 경로)</name>
    <desc>실제 GPS 기록이 아닙니다. OpenStreetMap에 등록된 등산로 선형 위에서 계산한 경로이며, 현장 통제·훼손·출입 제한·계절 통제를 반영하지 않을 수 있습니다. 산행 전 공식 안내를 확인하세요.</desc>
    <time>2026-08-04T05:39:21.447Z</time>
    <link href="https://www.openstreetmap.org/copyright"><text>© OpenStreetMap contributors (ODbL 1.0)</text></link>
    <link href="https://registry.opendata.aws/terrain-tiles/"><text>Elevation: SRTM 1 arc-second (NASA/USGS) via AWS Terrain Tiles</text></link>
    <extensions>
      <k100:provenance>osm-routed</k100:provenance>
      <k100:not_a_recorded_track>true</k100:not_a_recorded_track>
      <k100:mountain_id>gajisan</k100:mountain_id>
      <k100:mountain_name>가지산</k100:mountain_name>
      <k100:route_id>gajisan-7cfac49b</k100:route_id>
      <k100:route_index>3</k100:route_index>
      <k100:route_name>석남터널-중봉-가지산 정상</k100:route_name>
      <k100:variant>0</k100:variant>
      <k100:source>OpenStreetMap via Overpass API</k100:source>
      <k100:license>ODbL-1.0</k100:license>
      <k100:attribution>© OpenStreetMap contributors</k100:attribution>
      <k100:elevation_source>SRTM 1 arc-second (NASA/USGS) — AWS Terrain Tiles 배포본. 지형 DEM 추정 고도이며 실측 아님</k100:elevation_source>
      <k100:algorithm>dijkstra-grid-v1</k100:algorithm>
      <k100:osm_snapshot>2026-08-04</k100:osm_snapshot>
      <k100:snap_trailhead_m>96</k100:snap_trailhead_m>
      <k100:snap_summit_m>3</k100:snap_summit_m>
      <k100:validation_score>75</k100:validation_score>
      <k100:validation_status>review</k100:validation_status>
    </extensions>
  </metadata>
  <trk>
    <name>가지산 · 석남터널-중봉-가지산 정상 (OSM 계산 경로)</name>
    <desc>실제 GPS 기록이 아닙니다. OpenStreetMap에 등록된 등산로 선형 위에서 계산한 경로이며, 현장 통제·훼손·출입 제한·계절 통제를 반영하지 않을 수 있습니다. 산행 전 공식 안내를 확인하세요.</desc>
    <trkseg>
      <trkpt lat="35.576930" lon="128.976378"><ele>375.4</ele></trkpt>
      <trkpt lat="35.577266" lon="128.976563"><ele>367.0</ele></trkpt>
      <trkpt lat="35.577900" lon="128.976432"><ele>353.8</ele></trkpt>
      <trkpt lat="35.578400" lon="128.976030"><ele>342.3</ele></trkpt>
      <trkpt lat="35.578838" lon="128.975895"><ele>331.9</ele></trkpt>
      <trkpt lat="35.579278" lon="128.976180"><ele>319.6</ele></trkpt>
      <trkpt lat="35.579256" lon="128.976886"><ele>312.3</ele></trkpt>
      <trkpt lat="35.579423" lon="128.976917"><ele>307.7</ele></trkpt>
      <trkpt lat="35.579693" lon="128.976566"><ele>300.9</ele></trkpt>
      <trkpt lat="35.579786" lon="128.976540"><ele>297.7</ele></trkpt>
      <trkpt lat="35.579873" lon="128.976618"><ele>294.4</ele></trkpt>
      <trkpt lat="35.579935" lon="128.976736"><ele>292.1</ele></trkpt>
      <trkpt lat="35.579939" lon="128.977515"><ele>289.1</ele></trkpt>
      <trkpt lat="35.579978" lon="128.977556"><ele>286.7</ele></trkpt>
      <trkpt lat="35.580156" lon="128.977377"><ele>282.5</ele></trkpt>
      <trkpt lat="35.580504" lon="128.977385"><ele>274.0</ele></trkpt>
      <trkpt lat="35.580813" lon="128.977287"><ele>274.1</ele></trkpt>
      <trkpt lat="35.580945" lon="128.977692"><ele>278.4</ele></trkpt>
      <trkpt lat="35.580904" lon="128.978536"><ele>284.7</ele></trkpt>
      <trkpt lat="35.580991" lon="128.978923"><ele>289.2</ele></trkpt>
      <trkpt lat="35.581004" lon="128.979220"><ele>291.4</ele></trkpt>
      <trkpt lat="35.580899" lon="128.979580"><ele>290.0</ele></trkpt>
      <trkpt lat="35.580375" lon="128.980713"><ele>292.7</ele></trkpt>
      <trkpt lat="35.580233" lon="128.981236"><ele>292.9</ele></trkpt>
      <trkpt lat="35.580157" lon="128.982180"><ele>291.8</ele></trkpt>
      <trkpt lat="35.580146" lon="128.984082"><ele>295.1</ele></trkpt>
      <trkpt lat="35.580081" lon="128.984354"><ele>295.4</ele></trkpt>
      <trkpt lat="35.580131" lon="128.984931"><ele>296.6</ele></trkpt>
      <trkpt lat="35.580270" lon="128.985205"><ele>299.6</ele></trkpt>
      <trkpt lat="35.580859" lon="128.985779"><ele>309.5</ele></trkpt>
      <trkpt lat="35.581471" lon="128.986552"><ele>314.7</ele></trkpt>
      <trkpt lat="35.581764" lon="128.986723"><ele>316.4</ele></trkpt>
      <trkpt lat="35.582235" lon="128.986886"><ele>322.2</ele></trkpt>
      <trkpt lat="35.582672" lon="128.987435"><ele>334.8</ele></trkpt>
      <trkpt lat="35.582677" lon="128.987844"><ele>330.3</ele></trkpt>
      <trkpt lat="35.583167" lon="128.988487"><ele>341.1</ele></trkpt>
      <trkpt lat="35.583280" lon="128.988986"><ele>340.7</ele></trkpt>
      <trkpt lat="35.583264" lon="128.989589"><ele>337.4</ele></trkpt>
      <trkpt lat="35.583103" lon="128.990048"><ele>333.8</ele></trkpt>
      <trkpt lat="35.583117" lon="128.990185"><ele>335.0</ele></trkpt>
      <trkpt lat="35.583382" lon="128.990763"><ele>335.9</ele></trkpt>
      <trkpt lat="35.583858" lon="128.991358"><ele>341.4</ele></trkpt>
      <trkpt lat="35.584003" lon="128.991704"><ele>339.6</ele></trkpt>
      <trkpt lat="35.584261" lon="128.993454"><ele>337.3</ele></trkpt>
      <trkpt lat="35.584325" lon="128.993643"><ele>337.2</ele></trkpt>
      <trkpt lat="35.584532" lon="128.993965"><ele>339.1</ele></trkpt>
      <trkpt lat="35.585102" lon="128.994369"><ele>347.4</ele></trkpt>
      <trkpt lat="35.585519" lon="128.994926"><ele>351.6</ele></trkpt>
      <trkpt lat="35.585835" lon="128.995597"><ele>352.6</ele></trkpt>
      <trkpt lat="35.585768" lon="128.995686"><ele>350.4</ele></trkpt>
      <trkpt lat="35.585860" lon="128.995930"><ele>350.5</ele></trkpt>
      <trkpt lat="35.586305" lon="128.996784"><ele>351.3</ele></trkpt>
      <trkpt lat="35.586452" lon="128.996852"><ele>352.1</ele></trkpt>
      <trkpt lat="35.586665" lon="128.996845"><ele>356.1</ele></trkpt>
      <trkpt lat="35.586713" lon="128.996705"><ele>360.3</ele></trkpt>
      <trkpt lat="35.586848" lon="128.996615"><ele>366.2</ele></trkpt>
      <trkpt lat="35.587032" lon="128.996540"><ele>372.1</ele></trkpt>
      <trkpt lat="35.587485" lon="128.996484"><ele>376.5</ele></trkpt>
      <trkpt lat="35.587754" lon="128.996261"><ele>385.2</ele></trkpt>
      <trkpt lat="35.588273" lon="128.996086"><ele>390.2</ele></trkpt>
      <trkpt lat="35.588700" lon="128.995644"><ele>402.7</ele></trkpt>
      <trkpt lat="35.588872" lon="128.995528"><ele>405.0</ele></trkpt>
      <trkpt lat="35.589394" lon="128.995360"><ele>414.2</ele></trkpt>
      <trkpt lat="35.589865" lon="128.995493"><ele>414.7</ele></trkpt>
      <trkpt lat="35.590274" lon="128.995292"><ele>421.6</ele></trkpt>
      <trkpt lat="35.590462" lon="128.995288"><ele>422.5</ele></trkpt>
      <trkpt lat="35.590975" lon="128.994974"><ele>433.5</ele></trkpt>
      <trkpt lat="35.591265" lon="128.994675"><ele>446.0</ele></trkpt>
      <trkpt lat="35.591912" lon="128.994785"><ele>443.6</ele></trkpt>
      <trkpt lat="35.592006" lon="128.994834"><ele>443.1</ele></trkpt>
      <trkpt lat="35.592061" lon="128.995014"><ele>440.7</ele></trkpt>
      <trkpt lat="35.593345" lon="128.994747"><ele>453.3</ele></trkpt>
      <trkpt lat="35.593790" lon="128.994835"><ele>462.3</ele></trkpt>
      <trkpt lat="35.593988" lon="128.994692"><ele>460.6</ele></trkpt>
      <trkpt lat="35.594244" lon="128.994631"><ele>462.8</ele></trkpt>
      <trkpt lat="35.594650" lon="128.994696"><ele>467.2</ele></trkpt>
      <trkpt lat="35.594743" lon="128.994589"><ele>468.5</ele></trkpt>
      <trkpt lat="35.594916" lon="128.994543"><ele>472.0</ele></trkpt>
      <trkpt lat="35.594968" lon="128.994620"><ele>474.3</ele></trkpt>
      <trkpt lat="35.595192" lon="128.994483"><ele>476.3</ele></trkpt>
      <trkpt lat="35.595498" lon="128.994129"><ele>480.7</ele></trkpt>
      <trkpt lat="35.595743" lon="128.994047"><ele>485.6</ele></trkpt>
      <trkpt lat="35.596055" lon="128.994129"><ele>489.6</ele></trkpt>
      <trkpt lat="35.596933" lon="128.993939"><ele>506.7</ele></trkpt>
      <trkpt lat="35.597301" lon="128.994074"><ele>509.2</ele></trkpt>
      <trkpt lat="35.597743" lon="128.994121"><ele>510.2</ele></trkpt>
      <trkpt lat="35.597932" lon="128.994071"><ele>515.1</ele></trkpt>
      <trkpt lat="35.598334" lon="128.994326"><ele>519.9</ele></trkpt>
      <trkpt lat="35.598921" lon="128.994352"><ele>533.2</ele></trkpt>
      <trkpt lat="35.599204" lon="128.994636"><ele>537.0</ele></trkpt>
      <trkpt lat="35.599220" lon="128.994901"><ele>533.3</ele></trkpt>
      <trkpt lat="35.599296" lon="128.995143"><ele>533.8</ele></trkpt>
      <trkpt lat="35.600412" lon="128.995767"><ele>549.8</ele></trkpt>
      <trkpt lat="35.600760" lon="128.996071"><ele>550.5</ele></trkpt>
      <trkpt lat="35.601062" lon="128.996159"><ele>555.4</ele></trkpt>
      <trkpt lat="35.601098" lon="128.996256"><ele>553.6</ele></trkpt>
      <trkpt lat="35.601483" lon="128.996495"><ele>561.4</ele></trkpt>
      <trkpt lat="35.601814" lon="128.996916"><ele>564.2</ele></trkpt>
      <trkpt lat="35.601987" lon="128.996947"><ele>565.1</ele></trkpt>
      <trkpt lat="35.602283" lon="128.996889"><ele>573.9</ele></trkpt>
      <trkpt lat="35.603189" lon="128.997043"><ele>589.4</ele></trkpt>
      <trkpt lat="35.603444" lon="128.997023"><ele>598.6</ele></trkpt>
      <trkpt lat="35.604422" lon="128.997356"><ele>614.9</ele></trkpt>
      <trkpt lat="35.605134" lon="128.997162"><ele>633.6</ele></trkpt>
      <trkpt lat="35.605189" lon="128.996881"><ele>644.4</ele></trkpt>
      <trkpt lat="35.605288" lon="128.996813"><ele>648.4</ele></trkpt>
      <trkpt lat="35.605551" lon="128.997200"><ele>643.4</ele></trkpt>
      <trkpt lat="35.605657" lon="128.997286"><ele>644.7</ele></trkpt>
      <trkpt lat="35.606108" lon="128.997448"><ele>650.8</ele></trkpt>
      <trkpt lat="35.606271" lon="128.997732"><ele>650.3</ele></trkpt>
      <trkpt lat="35.606554" lon="128.997881"><ele>657.8</ele></trkpt>
      <trkpt lat="35.606551" lon="128.997992"><ele>657.3</ele></trkpt>
      <trkpt lat="35.606719" lon="128.998431"><ele>666.1</ele></trkpt>
      <trkpt lat="35.606835" lon="128.998521"><ele>672.3</ele></trkpt>
      <trkpt lat="35.606861" lon="128.998615"><ele>675.0</ele></trkpt>
      <trkpt lat="35.606963" lon="128.998555"><ele>676.9</ele></trkpt>
      <trkpt lat="35.607005" lon="128.998638"><ele>679.2</ele></trkpt>
      <trkpt lat="35.608290" lon="128.999758"><ele>710.5</ele></trkpt>
      <trkpt lat="35.608402" lon="128.999793"><ele>714.4</ele></trkpt>
      <trkpt lat="35.608610" lon="128.999969"><ele>718.7</ele></trkpt>
      <trkpt lat="35.608701" lon="128.999959"><ele>724.0</ele></trkpt>
      <trkpt lat="35.608935" lon="129.000299"><ele>730.5</ele></trkpt>
      <trkpt lat="35.609359" lon="129.000740"><ele>749.2</ele></trkpt>
      <trkpt lat="35.609341" lon="129.000794"><ele>748.6</ele></trkpt>
      <trkpt lat="35.609414" lon="129.000977"><ele>752.5</ele></trkpt>
      <trkpt lat="35.609517" lon="129.001066"><ele>755.0</ele></trkpt>
      <trkpt lat="35.609935" lon="129.001055"><ele>763.1</ele></trkpt>
      <trkpt lat="35.610315" lon="129.001362"><ele>772.1</ele></trkpt>
      <trkpt lat="35.610579" lon="129.001418"><ele>780.9</ele></trkpt>
      <trkpt lat="35.610925" lon="129.001658"><ele>798.0</ele></trkpt>
      <trkpt lat="35.610999" lon="129.001776"><ele>800.7</ele></trkpt>
      <trkpt lat="35.611250" lon="129.001966"><ele>807.2</ele></trkpt>
      <trkpt lat="35.611865" lon="129.002051"><ele>827.0</ele></trkpt>
      <trkpt lat="35.612142" lon="129.002268"><ele>838.4</ele></trkpt>
      <trkpt lat="35.612392" lon="129.002262"><ele>844.0</ele></trkpt>
      <trkpt lat="35.612551" lon="129.002444"><ele>850.2</ele></trkpt>
      <trkpt lat="35.612891" lon="129.002414"><ele>857.9</ele></trkpt>
      <trkpt lat="35.613259" lon="129.002672"><ele>872.5</ele></trkpt>
      <trkpt lat="35.613403" lon="129.002672"><ele>876.6</ele></trkpt>
      <trkpt lat="35.613573" lon="129.002894"><ele>884.6</ele></trkpt>
      <trkpt lat="35.613667" lon="129.002956"><ele>888.6</ele></trkpt>
      <trkpt lat="35.613780" lon="129.002924"><ele>890.8</ele></trkpt>
      <trkpt lat="35.613950" lon="129.003147"><ele>901.6</ele></trkpt>
      <trkpt lat="35.614299" lon="129.003345"><ele>914.5</ele></trkpt>
      <trkpt lat="35.614637" lon="129.003348"><ele>922.9</ele></trkpt>
      <trkpt lat="35.614731" lon="129.003297"><ele>924.8</ele></trkpt>
      <trkpt lat="35.614816" lon="129.003364"><ele>929.3</ele></trkpt>
      <trkpt lat="35.615047" lon="129.003275"><ele>935.5</ele></trkpt>
      <trkpt lat="35.615353" lon="129.003372"><ele>950.6</ele></trkpt>
      <trkpt lat="35.615585" lon="129.003361"><ele>959.2</ele></trkpt>
      <trkpt lat="35.616048" lon="129.003546"><ele>981.9</ele></trkpt>
      <trkpt lat="35.616335" lon="129.003749"><ele>998.1</ele></trkpt>
      <trkpt lat="35.616943" lon="129.003993"><ele>1023.1</ele></trkpt>
      <trkpt lat="35.616987" lon="129.004041"><ele>1025.8</ele></trkpt>
      <trkpt lat="35.617034" lon="129.004343"><ele>1036.1</ele></trkpt>
      <trkpt lat="35.617218" lon="129.004513"><ele>1050.1</ele></trkpt>
      <trkpt lat="35.617362" lon="129.004566"><ele>1059.8</ele></trkpt>
      <trkpt lat="35.617525" lon="129.004835"><ele>1073.6</ele></trkpt>
      <trkpt lat="35.617639" lon="129.004881"><ele>1078.5</ele></trkpt>
      <trkpt lat="35.617675" lon="129.004956"><ele>1080.8</ele></trkpt>
      <trkpt lat="35.617882" lon="129.004989"><ele>1089.7</ele></trkpt>
      <trkpt lat="35.618052" lon="129.005316"><ele>1104.0</ele></trkpt>
      <trkpt lat="35.618160" lon="129.005302"><ele>1107.1</ele></trkpt>
      <trkpt lat="35.618339" lon="129.005494"><ele>1110.6</ele></trkpt>
      <trkpt lat="35.618633" lon="129.005019"><ele>1120.9</ele></trkpt>
      <trkpt lat="35.618821" lon="129.004927"><ele>1125.4</ele></trkpt>
      <trkpt lat="35.619283" lon="129.004546"><ele>1154.8</ele></trkpt>
      <trkpt lat="35.619460" lon="129.004228"><ele>1171.4</ele></trkpt>
      <trkpt lat="35.619596" lon="129.003824"><ele>1184.6</ele></trkpt>
      <trkpt lat="35.619820" lon="129.003714"><ele>1195.9</ele></trkpt>
      <trkpt lat="35.620178" lon="129.003282"><ele>1219.0</ele></trkpt>
      <trkpt lat="35.620276" lon="129.002905"><ele>1224.4</ele></trkpt>
    </trkseg>
  </trk>
</gpx>
