<?xml version="1.0" encoding="UTF-8"?>
<gpx version="1.1" creator="kr-100-mountains route-harvester"
     xmlns="http://www.topografix.com/GPX/1/1"
     xmlns:k100="https://github.com/jay-jang/kr-100-mountains/ns/1"
     xmlns:xsi="http://www.w3.org/2001/XMLSchema-instance"
     xsi:schemaLocation="http://www.topografix.com/GPX/1/1 http://www.topografix.com/GPX/1/1/gpx.xsd">
  <metadata>
    <name>가지산 · 석남사-가지산 정상 코스 (대안 1) (OSM 계산 경로)</name>
    <desc>실제 GPS 기록이 아닙니다. OpenStreetMap에 등록된 등산로 선형 위에서 계산한 경로이며, 현장 통제·훼손·출입 제한·계절 통제를 반영하지 않을 수 있습니다. 산행 전 공식 안내를 확인하세요.</desc>
    <time>2026-08-04T05:39:21.174Z</time>
    <link href="https://www.openstreetmap.org/copyright"><text>© OpenStreetMap contributors (ODbL 1.0)</text></link>
    <link href="https://registry.opendata.aws/terrain-tiles/"><text>Elevation: SRTM 1 arc-second (NASA/USGS) via AWS Terrain Tiles</text></link>
    <extensions>
      <k100:provenance>osm-routed</k100:provenance>
      <k100:not_a_recorded_track>true</k100:not_a_recorded_track>
      <k100:mountain_id>gajisan</k100:mountain_id>
      <k100:mountain_name>가지산</k100:mountain_name>
      <k100:route_id>gajisan-0d0d9a9a</k100:route_id>
      <k100:route_index>1</k100:route_index>
      <k100:route_name>석남사-가지산 정상 코스</k100:route_name>
      <k100:variant>1</k100:variant>
      <k100:source>OpenStreetMap via Overpass API</k100:source>
      <k100:license>ODbL-1.0</k100:license>
      <k100:attribution>© OpenStreetMap contributors</k100:attribution>
      <k100:elevation_source>SRTM 1 arc-second (NASA/USGS) — AWS Terrain Tiles 배포본. 지형 DEM 추정 고도이며 실측 아님</k100:elevation_source>
      <k100:algorithm>dijkstra-grid-v1</k100:algorithm>
      <k100:osm_snapshot>2026-08-04</k100:osm_snapshot>
      <k100:snap_trailhead_m>23</k100:snap_trailhead_m>
      <k100:snap_summit_m>3</k100:snap_summit_m>
      <k100:validation_score>93</k100:validation_score>
      <k100:validation_status>accepted</k100:validation_status>
    </extensions>
  </metadata>
  <trk>
    <name>가지산 · 석남사-가지산 정상 코스 (대안 1) (OSM 계산 경로)</name>
    <desc>실제 GPS 기록이 아닙니다. OpenStreetMap에 등록된 등산로 선형 위에서 계산한 경로이며, 현장 통제·훼손·출입 제한·계절 통제를 반영하지 않을 수 있습니다. 산행 전 공식 안내를 확인하세요.</desc>
    <trkseg>
      <trkpt lat="35.581507" lon="129.036875"><ele>873.2</ele></trkpt>
      <trkpt lat="35.581733" lon="129.036886"><ele>867.3</ele></trkpt>
      <trkpt lat="35.582132" lon="129.037028"><ele>858.2</ele></trkpt>
      <trkpt lat="35.582484" lon="129.037238"><ele>853.3</ele></trkpt>
      <trkpt lat="35.582724" lon="129.037474"><ele>849.2</ele></trkpt>
      <trkpt lat="35.583418" lon="129.037897"><ele>844.6</ele></trkpt>
      <trkpt lat="35.583734" lon="129.037830"><ele>837.9</ele></trkpt>
      <trkpt lat="35.584195" lon="129.037626"><ele>818.9</ele></trkpt>
      <trkpt lat="35.584528" lon="129.037774"><ele>815.2</ele></trkpt>
      <trkpt lat="35.584667" lon="129.037774"><ele>810.7</ele></trkpt>
      <trkpt lat="35.584971" lon="129.037940"><ele>802.4</ele></trkpt>
      <trkpt lat="35.585446" lon="129.038037"><ele>790.0</ele></trkpt>
      <trkpt lat="35.585677" lon="129.038158"><ele>782.7</ele></trkpt>
      <trkpt lat="35.585998" lon="129.038015"><ele>774.1</ele></trkpt>
      <trkpt lat="35.586180" lon="129.038026"><ele>769.8</ele></trkpt>
      <trkpt lat="35.586273" lon="129.037913"><ele>765.6</ele></trkpt>
      <trkpt lat="35.586596" lon="129.037868"><ele>764.8</ele></trkpt>
      <trkpt lat="35.586869" lon="129.037730"><ele>766.0</ele></trkpt>
      <trkpt lat="35.587040" lon="129.037844"><ele>770.7</ele></trkpt>
      <trkpt lat="35.587244" lon="129.037793"><ele>771.1</ele></trkpt>
      <trkpt lat="35.587734" lon="129.038053"><ele>773.7</ele></trkpt>
      <trkpt lat="35.587871" lon="129.038034"><ele>774.6</ele></trkpt>
      <trkpt lat="35.587991" lon="129.038136"><ele>775.7</ele></trkpt>
      <trkpt lat="35.588282" lon="129.038249"><ele>777.2</ele></trkpt>
      <trkpt lat="35.588465" lon="129.038217"><ele>775.3</ele></trkpt>
      <trkpt lat="35.588827" lon="129.038520"><ele>775.6</ele></trkpt>
      <trkpt lat="35.588936" lon="129.038533"><ele>776.3</ele></trkpt>
      <trkpt lat="35.589043" lon="129.038619"><ele>778.1</ele></trkpt>
      <trkpt lat="35.589369" lon="129.038672"><ele>779.5</ele></trkpt>
      <trkpt lat="35.589555" lon="129.038824"><ele>780.4</ele></trkpt>
      <trkpt lat="35.589633" lon="129.038808"><ele>779.6</ele></trkpt>
      <trkpt lat="35.589750" lon="129.038924"><ele>779.4</ele></trkpt>
      <trkpt lat="35.590355" lon="129.039166"><ele>776.4</ele></trkpt>
      <trkpt lat="35.590868" lon="129.039445"><ele>777.0</ele></trkpt>
      <trkpt lat="35.591115" lon="129.039718"><ele>780.9</ele></trkpt>
      <trkpt lat="35.591336" lon="129.039788"><ele>783.5</ele></trkpt>
      <trkpt lat="35.591547" lon="129.040055"><ele>790.7</ele></trkpt>
      <trkpt lat="35.591682" lon="129.040132"><ele>793.0</ele></trkpt>
      <trkpt lat="35.592385" lon="129.041378"><ele>803.0</ele></trkpt>
      <trkpt lat="35.592553" lon="129.041574"><ele>804.3</ele></trkpt>
      <trkpt lat="35.592687" lon="129.041972"><ele>807.4</ele></trkpt>
      <trkpt lat="35.592811" lon="129.042159"><ele>807.8</ele></trkpt>
      <trkpt lat="35.592920" lon="129.042704"><ele>801.5</ele></trkpt>
      <trkpt lat="35.593547" lon="129.042326"><ele>771.1</ele></trkpt>
      <trkpt lat="35.593843" lon="129.042304"><ele>753.7</ele></trkpt>
      <trkpt lat="35.593979" lon="129.042159"><ele>744.9</ele></trkpt>
      <trkpt lat="35.594187" lon="129.042111"><ele>732.2</ele></trkpt>
      <trkpt lat="35.594550" lon="129.042208"><ele>719.9</ele></trkpt>
      <trkpt lat="35.595354" lon="129.042164"><ele>693.7</ele></trkpt>
      <trkpt lat="35.596701" lon="129.042218"><ele>653.6</ele></trkpt>
      <trkpt lat="35.597003" lon="129.042304"><ele>641.8</ele></trkpt>
      <trkpt lat="35.597596" lon="129.042604"><ele>617.0</ele></trkpt>
      <trkpt lat="35.598092" lon="129.042486"><ele>586.1</ele></trkpt>
      <trkpt lat="35.598503" lon="129.042577"><ele>559.6</ele></trkpt>
      <trkpt lat="35.598573" lon="129.042701"><ele>556.6</ele></trkpt>
      <trkpt lat="35.599689" lon="129.042626"><ele>522.8</ele></trkpt>
      <trkpt lat="35.599916" lon="129.042797"><ele>521.1</ele></trkpt>
      <trkpt lat="35.600178" lon="129.043248"><ele>510.0</ele></trkpt>
      <trkpt lat="35.600632" lon="129.043441"><ele>492.9</ele></trkpt>
      <trkpt lat="35.601016" lon="129.043763"><ele>481.7</ele></trkpt>
      <trkpt lat="35.601260" lon="129.043827"><ele>470.8</ele></trkpt>
      <trkpt lat="35.601487" lon="129.044042"><ele>463.3</ele></trkpt>
      <trkpt lat="35.601958" lon="129.044042"><ele>447.8</ele></trkpt>
      <trkpt lat="35.602935" lon="129.044771"><ele>439.0</ele></trkpt>
      <trkpt lat="35.603284" lon="129.044857"><ele>434.7</ele></trkpt>
      <trkpt lat="35.603545" lon="129.045051"><ele>430.8</ele></trkpt>
      <trkpt lat="35.603772" lon="129.045458"><ele>429.4</ele></trkpt>
      <trkpt lat="35.604086" lon="129.045887"><ele>432.6</ele></trkpt>
      <trkpt lat="35.604131" lon="129.045767"><ele>432.6</ele></trkpt>
      <trkpt lat="35.604421" lon="129.045464"><ele>423.1</ele></trkpt>
      <trkpt lat="35.604445" lon="129.045330"><ele>420.7</ele></trkpt>
      <trkpt lat="35.604635" lon="129.045051"><ele>413.2</ele></trkpt>
      <trkpt lat="35.604650" lon="129.044930"><ele>410.7</ele></trkpt>
      <trkpt lat="35.604798" lon="129.044761"><ele>403.9</ele></trkpt>
      <trkpt lat="35.604746" lon="129.044686"><ele>403.9</ele></trkpt>
      <trkpt lat="35.604768" lon="129.044576"><ele>401.9</ele></trkpt>
      <trkpt lat="35.604855" lon="129.044485"><ele>399.1</ele></trkpt>
      <trkpt lat="35.604938" lon="129.044010"><ele>389.7</ele></trkpt>
      <trkpt lat="35.605036" lon="129.043803"><ele>381.8</ele></trkpt>
      <trkpt lat="35.605080" lon="129.043262"><ele>363.1</ele></trkpt>
      <trkpt lat="35.605184" lon="129.043162"><ele>358.4</ele></trkpt>
      <trkpt lat="35.605272" lon="129.043195"><ele>358.1</ele></trkpt>
      <trkpt lat="35.605577" lon="129.043146"><ele>346.5</ele></trkpt>
      <trkpt lat="35.605782" lon="129.043050"><ele>336.7</ele></trkpt>
      <trkpt lat="35.605815" lon="129.042964"><ele>333.0</ele></trkpt>
      <trkpt lat="35.605917" lon="129.043010"><ele>330.7</ele></trkpt>
      <trkpt lat="35.606087" lon="129.042838"><ele>319.6</ele></trkpt>
      <trkpt lat="35.606146" lon="129.042969"><ele>321.3</ele></trkpt>
      <trkpt lat="35.606144" lon="129.043235"><ele>327.2</ele></trkpt>
      <trkpt lat="35.606224" lon="129.043200"><ele>323.9</ele></trkpt>
      <trkpt lat="35.606316" lon="129.042977"><ele>315.6</ele></trkpt>
      <trkpt lat="35.606316" lon="129.042876"><ele>312.9</ele></trkpt>
      <trkpt lat="35.606429" lon="129.042747"><ele>306.2</ele></trkpt>
      <trkpt lat="35.606421" lon="129.042629"><ele>303.0</ele></trkpt>
      <trkpt lat="35.606504" lon="129.042551"><ele>299.0</ele></trkpt>
      <trkpt lat="35.606658" lon="129.042221"><ele>288.2</ele></trkpt>
      <trkpt lat="35.606772" lon="129.042157"><ele>285.3</ele></trkpt>
      <trkpt lat="35.606741" lon="129.042020"><ele>285.1</ele></trkpt>
      <trkpt lat="35.606813" lon="129.041913"><ele>283.7</ele></trkpt>
      <trkpt lat="35.606968" lon="129.041854"><ele>282.1</ele></trkpt>
      <trkpt lat="35.607271" lon="129.041942"><ele>277.2</ele></trkpt>
      <trkpt lat="35.607437" lon="129.042095"><ele>276.1</ele></trkpt>
      <trkpt lat="35.607587" lon="129.042401"><ele>275.3</ele></trkpt>
      <trkpt lat="35.607867" lon="129.042336"><ele>275.4</ele></trkpt>
      <trkpt lat="35.608359" lon="129.042543"><ele>271.8</ele></trkpt>
      <trkpt lat="35.608710" lon="129.042613"><ele>267.8</ele></trkpt>
      <trkpt lat="35.609064" lon="129.042937"><ele>265.0</ele></trkpt>
      <trkpt lat="35.609294" lon="129.043034"><ele>265.2</ele></trkpt>
      <trkpt lat="35.610338" lon="129.043277"><ele>267.8</ele></trkpt>
      <trkpt lat="35.610636" lon="129.042583"><ele>274.1</ele></trkpt>
      <trkpt lat="35.612555" lon="129.043892"><ele>269.6</ele></trkpt>
      <trkpt lat="35.612644" lon="129.043758"><ele>271.5</ele></trkpt>
      <trkpt lat="35.612682" lon="129.042898"><ele>284.4</ele></trkpt>
      <trkpt lat="35.612999" lon="129.041982"><ele>294.6</ele></trkpt>
      <trkpt lat="35.613271" lon="129.041719"><ele>295.7</ele></trkpt>
      <trkpt lat="35.613410" lon="129.041433"><ele>297.7</ele></trkpt>
      <trkpt lat="35.615624" lon="129.041325"><ele>290.7</ele></trkpt>
      <trkpt lat="35.616120" lon="129.041110"><ele>289.9</ele></trkpt>
      <trkpt lat="35.616610" lon="129.040750"><ele>289.2</ele></trkpt>
      <trkpt lat="35.616900" lon="129.040350"><ele>284.3</ele></trkpt>
      <trkpt lat="35.617220" lon="129.039720"><ele>278.1</ele></trkpt>
      <trkpt lat="35.617514" lon="129.039266"><ele>279.5</ele></trkpt>
      <trkpt lat="35.617616" lon="129.039202"><ele>279.7</ele></trkpt>
      <trkpt lat="35.617821" lon="129.039200"><ele>278.4</ele></trkpt>
      <trkpt lat="35.618018" lon="129.039323"><ele>276.4</ele></trkpt>
      <trkpt lat="35.618045" lon="129.039386"><ele>275.6</ele></trkpt>
      <trkpt lat="35.618947" lon="129.036945"><ele>296.4</ele></trkpt>
      <trkpt lat="35.620479" lon="129.033997"><ele>312.3</ele></trkpt>
      <trkpt lat="35.620716" lon="129.033077"><ele>322.5</ele></trkpt>
      <trkpt lat="35.620614" lon="129.032525"><ele>330.0</ele></trkpt>
      <trkpt lat="35.620625" lon="129.031937"><ele>329.3</ele></trkpt>
      <trkpt lat="35.620650" lon="129.031702"><ele>331.0</ele></trkpt>
      <trkpt lat="35.620710" lon="129.031596"><ele>330.8</ele></trkpt>
      <trkpt lat="35.620803" lon="129.031558"><ele>329.4</ele></trkpt>
      <trkpt lat="35.620837" lon="129.031365"><ele>330.3</ele></trkpt>
      <trkpt lat="35.620735" lon="129.030863"><ele>335.6</ele></trkpt>
      <trkpt lat="35.620763" lon="129.030455"><ele>340.9</ele></trkpt>
      <trkpt lat="35.620532" lon="129.029603"><ele>348.5</ele></trkpt>
      <trkpt lat="35.620706" lon="129.028691"><ele>354.9</ele></trkpt>
      <trkpt lat="35.620706" lon="129.027977"><ele>367.2</ele></trkpt>
      <trkpt lat="35.620617" lon="129.027414"><ele>375.3</ele></trkpt>
      <trkpt lat="35.620633" lon="129.027166"><ele>380.6</ele></trkpt>
      <trkpt lat="35.620794" lon="129.026059"><ele>393.3</ele></trkpt>
      <trkpt lat="35.620811" lon="129.025595"><ele>398.9</ele></trkpt>
      <trkpt lat="35.620897" lon="129.025118"><ele>406.8</ele></trkpt>
      <trkpt lat="35.620964" lon="129.024997"><ele>410.7</ele></trkpt>
      <trkpt lat="35.620895" lon="129.024807"><ele>411.8</ele></trkpt>
      <trkpt lat="35.620895" lon="129.024005"><ele>422.5</ele></trkpt>
      <trkpt lat="35.620846" lon="129.023479"><ele>426.5</ele></trkpt>
      <trkpt lat="35.620950" lon="129.023114"><ele>430.6</ele></trkpt>
      <trkpt lat="35.621094" lon="129.022850"><ele>439.1</ele></trkpt>
      <trkpt lat="35.621005" lon="129.022763"><ele>436.0</ele></trkpt>
      <trkpt lat="35.620789" lon="129.022219"><ele>442.5</ele></trkpt>
      <trkpt lat="35.620789" lon="129.021762"><ele>455.6</ele></trkpt>
      <trkpt lat="35.620874" lon="129.021584"><ele>463.5</ele></trkpt>
      <trkpt lat="35.620931" lon="129.021148"><ele>475.2</ele></trkpt>
      <trkpt lat="35.620983" lon="129.021088"><ele>478.2</ele></trkpt>
      <trkpt lat="35.621150" lon="129.021217"><ele>481.0</ele></trkpt>
      <trkpt lat="35.621241" lon="129.021218"><ele>482.4</ele></trkpt>
      <trkpt lat="35.621203" lon="129.020982"><ele>486.5</ele></trkpt>
      <trkpt lat="35.621256" lon="129.020837"><ele>490.6</ele></trkpt>
      <trkpt lat="35.621434" lon="129.020656"><ele>499.5</ele></trkpt>
      <trkpt lat="35.621532" lon="129.020647"><ele>502.7</ele></trkpt>
      <trkpt lat="35.621701" lon="129.020529"><ele>511.1</ele></trkpt>
      <trkpt lat="35.621729" lon="129.020412"><ele>515.1</ele></trkpt>
      <trkpt lat="35.621789" lon="129.020360"><ele>517.2</ele></trkpt>
      <trkpt lat="35.621810" lon="129.019858"><ele>530.5</ele></trkpt>
      <trkpt lat="35.622092" lon="129.019754"><ele>542.0</ele></trkpt>
      <trkpt lat="35.622271" lon="129.019583"><ele>551.9</ele></trkpt>
      <trkpt lat="35.622516" lon="129.019011"><ele>572.4</ele></trkpt>
      <trkpt lat="35.622808" lon="129.018909"><ele>588.8</ele></trkpt>
      <trkpt lat="35.622925" lon="129.018795"><ele>597.8</ele></trkpt>
      <trkpt lat="35.623050" lon="129.018450"><ele>616.6</ele></trkpt>
      <trkpt lat="35.623615" lon="129.017525"><ele>665.8</ele></trkpt>
      <trkpt lat="35.624130" lon="129.016532"><ele>710.2</ele></trkpt>
      <trkpt lat="35.624437" lon="129.016111"><ele>734.5</ele></trkpt>
      <trkpt lat="35.624559" lon="129.015829"><ele>745.0</ele></trkpt>
      <trkpt lat="35.624796" lon="129.015713"><ele>756.4</ele></trkpt>
      <trkpt lat="35.624923" lon="129.015513"><ele>762.5</ele></trkpt>
      <trkpt lat="35.625164" lon="129.015375"><ele>770.6</ele></trkpt>
      <trkpt lat="35.625249" lon="129.015196"><ele>776.9</ele></trkpt>
      <trkpt lat="35.625329" lon="129.015194"><ele>780.3</ele></trkpt>
      <trkpt lat="35.625704" lon="129.014880"><ele>810.8</ele></trkpt>
      <trkpt lat="35.625795" lon="129.014773"><ele>819.7</ele></trkpt>
      <trkpt lat="35.625922" lon="129.014471"><ele>831.6</ele></trkpt>
      <trkpt lat="35.626531" lon="129.013921"><ele>856.8</ele></trkpt>
      <trkpt lat="35.626815" lon="129.013749"><ele>874.0</ele></trkpt>
      <trkpt lat="35.627191" lon="129.013268"><ele>909.0</ele></trkpt>
      <trkpt lat="35.627472" lon="129.013139"><ele>926.6</ele></trkpt>
      <trkpt lat="35.627740" lon="129.012915"><ele>947.4</ele></trkpt>
      <trkpt lat="35.628032" lon="129.013029"><ele>968.2</ele></trkpt>
      <trkpt lat="35.628088" lon="129.013010"><ele>972.1</ele></trkpt>
      <trkpt lat="35.628210" lon="129.012702"><ele>981.4</ele></trkpt>
      <trkpt lat="35.628672" lon="129.012573"><ele>1008.7</ele></trkpt>
      <trkpt lat="35.628765" lon="129.012532"><ele>1012.8</ele></trkpt>
      <trkpt lat="35.628827" lon="129.012435"><ele>1016.1</ele></trkpt>
      <trkpt lat="35.629080" lon="129.012418"><ele>1019.8</ele></trkpt>
      <trkpt lat="35.629209" lon="129.011704"><ele>1028.3</ele></trkpt>
      <trkpt lat="35.629082" lon="129.011346"><ele>1031.1</ele></trkpt>
      <trkpt lat="35.629363" lon="129.011095"><ele>1037.6</ele></trkpt>
      <trkpt lat="35.629355" lon="129.010999"><ele>1040.2</ele></trkpt>
      <trkpt lat="35.629463" lon="129.010796"><ele>1043.1</ele></trkpt>
      <trkpt lat="35.629324" lon="129.010619"><ele>1052.3</ele></trkpt>
      <trkpt lat="35.629416" lon="129.010315"><ele>1060.4</ele></trkpt>
      <trkpt lat="35.629363" lon="129.009893"><ele>1069.2</ele></trkpt>
      <trkpt lat="35.629307" lon="129.009757"><ele>1071.7</ele></trkpt>
      <trkpt lat="35.629314" lon="129.009484"><ele>1064.1</ele></trkpt>
      <trkpt lat="35.629261" lon="129.009343"><ele>1063.7</ele></trkpt>
      <trkpt lat="35.629104" lon="129.009174"><ele>1065.7</ele></trkpt>
      <trkpt lat="35.628604" lon="129.008931"><ele>1070.4</ele></trkpt>
      <trkpt lat="35.628541" lon="129.008962"><ele>1071.8</ele></trkpt>
      <trkpt lat="35.628350" lon="129.008910"><ele>1072.8</ele></trkpt>
      <trkpt lat="35.628165" lon="129.008772"><ele>1071.3</ele></trkpt>
      <trkpt lat="35.627957" lon="129.008506"><ele>1073.0</ele></trkpt>
      <trkpt lat="35.627585" lon="129.008196"><ele>1075.1</ele></trkpt>
      <trkpt lat="35.627530" lon="129.008079"><ele>1077.2</ele></trkpt>
      <trkpt lat="35.627470" lon="129.008069"><ele>1077.9</ele></trkpt>
      <trkpt lat="35.627137" lon="129.007597"><ele>1096.0</ele></trkpt>
      <trkpt lat="35.627009" lon="129.007525"><ele>1101.5</ele></trkpt>
      <trkpt lat="35.626821" lon="129.007218"><ele>1107.5</ele></trkpt>
      <trkpt lat="35.626651" lon="129.007110"><ele>1104.8</ele></trkpt>
      <trkpt lat="35.626368" lon="129.007084"><ele>1102.4</ele></trkpt>
      <trkpt lat="35.626081" lon="129.006930"><ele>1102.9</ele></trkpt>
      <trkpt lat="35.626004" lon="129.006830"><ele>1101.1</ele></trkpt>
      <trkpt lat="35.625419" lon="129.006832"><ele>1100.8</ele></trkpt>
      <trkpt lat="35.625252" lon="129.006742"><ele>1103.3</ele></trkpt>
      <trkpt lat="35.624935" lon="129.006425"><ele>1116.6</ele></trkpt>
      <trkpt lat="35.624762" lon="129.006423"><ele>1121.3</ele></trkpt>
      <trkpt lat="35.624462" lon="129.006136"><ele>1125.6</ele></trkpt>
      <trkpt lat="35.623811" lon="129.005805"><ele>1126.0</ele></trkpt>
      <trkpt lat="35.623410" lon="129.005074"><ele>1127.9</ele></trkpt>
      <trkpt lat="35.623358" lon="129.005118"><ele>1130.0</ele></trkpt>
      <trkpt lat="35.623281" lon="129.005028"><ele>1130.5</ele></trkpt>
      <trkpt lat="35.623244" lon="129.005101"><ele>1132.0</ele></trkpt>
      <trkpt lat="35.622977" lon="129.005046"><ele>1136.7</ele></trkpt>
      <trkpt lat="35.622516" lon="129.004836"><ele>1152.0</ele></trkpt>
      <trkpt lat="35.622372" lon="129.004741"><ele>1156.4</ele></trkpt>
      <trkpt lat="35.622168" lon="129.004503"><ele>1158.9</ele></trkpt>
      <trkpt lat="35.621965" lon="129.004385"><ele>1161.6</ele></trkpt>
      <trkpt lat="35.621621" lon="129.004263"><ele>1168.4</ele></trkpt>
      <trkpt lat="35.621409" lon="129.004247"><ele>1175.5</ele></trkpt>
      <trkpt lat="35.621137" lon="129.004113"><ele>1186.2</ele></trkpt>
      <trkpt lat="35.621019" lon="129.003878"><ele>1193.7</ele></trkpt>
      <trkpt lat="35.620819" lon="129.003748"><ele>1201.7</ele></trkpt>
      <trkpt lat="35.620728" lon="129.003525"><ele>1208.1</ele></trkpt>
      <trkpt lat="35.620497" lon="129.003229"><ele>1218.8</ele></trkpt>
      <trkpt lat="35.620415" lon="129.003200"><ele>1220.2</ele></trkpt>
      <trkpt lat="35.620276" lon="129.002905"><ele>1224.4</ele></trkpt>
    </trkseg>
  </trk>
</gpx>
