<?xml version="1.0" encoding="UTF-8"?>
<gpx version="1.1" creator="kr-100-mountains route-harvester"
     xmlns="http://www.topografix.com/GPX/1/1"
     xmlns:k100="https://github.com/jay-jang/kr-100-mountains/ns/1"
     xmlns:xsi="http://www.w3.org/2001/XMLSchema-instance"
     xsi:schemaLocation="http://www.topografix.com/GPX/1/1 http://www.topografix.com/GPX/1/1/gpx.xsd">
  <metadata>
    <name>가지산 · 석남사-가지산 정상 코스 (OSM 계산 경로)</name>
    <desc>실제 GPS 기록이 아닙니다. OpenStreetMap에 등록된 등산로 선형 위에서 계산한 경로이며, 현장 통제·훼손·출입 제한·계절 통제를 반영하지 않을 수 있습니다. 산행 전 공식 안내를 확인하세요.</desc>
    <time>2026-08-04T05:39:21.171Z</time>
    <link href="https://www.openstreetmap.org/copyright"><text>© OpenStreetMap contributors (ODbL 1.0)</text></link>
    <link href="https://registry.opendata.aws/terrain-tiles/"><text>Elevation: SRTM 1 arc-second (NASA/USGS) via AWS Terrain Tiles</text></link>
    <extensions>
      <k100:provenance>osm-routed</k100:provenance>
      <k100:not_a_recorded_track>true</k100:not_a_recorded_track>
      <k100:mountain_id>gajisan</k100:mountain_id>
      <k100:mountain_name>가지산</k100:mountain_name>
      <k100:route_id>gajisan-0d0d9a9a</k100:route_id>
      <k100:route_index>1</k100:route_index>
      <k100:route_name>석남사-가지산 정상 코스</k100:route_name>
      <k100:variant>0</k100:variant>
      <k100:source>OpenStreetMap via Overpass API</k100:source>
      <k100:license>ODbL-1.0</k100:license>
      <k100:attribution>© OpenStreetMap contributors</k100:attribution>
      <k100:elevation_source>SRTM 1 arc-second (NASA/USGS) — AWS Terrain Tiles 배포본. 지형 DEM 추정 고도이며 실측 아님</k100:elevation_source>
      <k100:algorithm>dijkstra-grid-v1</k100:algorithm>
      <k100:osm_snapshot>2026-08-04</k100:osm_snapshot>
      <k100:snap_trailhead_m>23</k100:snap_trailhead_m>
      <k100:snap_summit_m>3</k100:snap_summit_m>
      <k100:validation_score>100</k100:validation_score>
      <k100:validation_status>accepted</k100:validation_status>
    </extensions>
  </metadata>
  <trk>
    <name>가지산 · 석남사-가지산 정상 코스 (OSM 계산 경로)</name>
    <desc>실제 GPS 기록이 아닙니다. OpenStreetMap에 등록된 등산로 선형 위에서 계산한 경로이며, 현장 통제·훼손·출입 제한·계절 통제를 반영하지 않을 수 있습니다. 산행 전 공식 안내를 확인하세요.</desc>
    <trkseg>
      <trkpt lat="35.581507" lon="129.036875"><ele>873.2</ele></trkpt>
      <trkpt lat="35.580931" lon="129.036639"><ele>887.1</ele></trkpt>
      <trkpt lat="35.580636" lon="129.036706"><ele>895.0</ele></trkpt>
      <trkpt lat="35.580265" lon="129.036470"><ele>908.5</ele></trkpt>
      <trkpt lat="35.580208" lon="129.036484"><ele>908.8</ele></trkpt>
      <trkpt lat="35.579909" lon="129.036234"><ele>909.8</ele></trkpt>
      <trkpt lat="35.579451" lon="129.036100"><ele>908.8</ele></trkpt>
      <trkpt lat="35.579245" lon="129.036148"><ele>907.6</ele></trkpt>
      <trkpt lat="35.578738" lon="129.035998"><ele>906.7</ele></trkpt>
      <trkpt lat="35.578633" lon="129.036022"><ele>906.7</ele></trkpt>
      <trkpt lat="35.577326" lon="129.035554"><ele>926.2</ele></trkpt>
      <trkpt lat="35.577045" lon="129.035535"><ele>926.1</ele></trkpt>
      <trkpt lat="35.577187" lon="129.035303"><ele>922.7</ele></trkpt>
      <trkpt lat="35.577228" lon="129.034601"><ele>910.3</ele></trkpt>
      <trkpt lat="35.577131" lon="129.034254"><ele>901.7</ele></trkpt>
      <trkpt lat="35.577181" lon="129.033612"><ele>883.6</ele></trkpt>
      <trkpt lat="35.576683" lon="129.032857"><ele>856.5</ele></trkpt>
      <trkpt lat="35.576516" lon="129.032801"><ele>852.8</ele></trkpt>
      <trkpt lat="35.576458" lon="129.032721"><ele>849.9</ele></trkpt>
      <trkpt lat="35.576469" lon="129.032577"><ele>846.7</ele></trkpt>
      <trkpt lat="35.576572" lon="129.032332"><ele>838.9</ele></trkpt>
      <trkpt lat="35.576877" lon="129.032132"><ele>831.9</ele></trkpt>
      <trkpt lat="35.577281" lon="129.031694"><ele>816.4</ele></trkpt>
      <trkpt lat="35.577626" lon="129.031434"><ele>805.4</ele></trkpt>
      <trkpt lat="35.578019" lon="129.031185"><ele>788.5</ele></trkpt>
      <trkpt lat="35.578399" lon="129.031054"><ele>776.2</ele></trkpt>
      <trkpt lat="35.578555" lon="129.030947"><ele>771.9</ele></trkpt>
      <trkpt lat="35.578708" lon="129.030924"><ele>768.2</ele></trkpt>
      <trkpt lat="35.578916" lon="129.031025"><ele>766.5</ele></trkpt>
      <trkpt lat="35.579228" lon="129.030810"><ele>748.0</ele></trkpt>
      <trkpt lat="35.579473" lon="129.030364"><ele>734.4</ele></trkpt>
      <trkpt lat="35.579554" lon="129.030177"><ele>727.6</ele></trkpt>
      <trkpt lat="35.579569" lon="129.029950"><ele>720.0</ele></trkpt>
      <trkpt lat="35.579777" lon="129.029600"><ele>710.1</ele></trkpt>
      <trkpt lat="35.579865" lon="129.029355"><ele>702.8</ele></trkpt>
      <trkpt lat="35.579921" lon="129.028594"><ele>690.3</ele></trkpt>
      <trkpt lat="35.580080" lon="129.028355"><ele>685.1</ele></trkpt>
      <trkpt lat="35.580073" lon="129.028269"><ele>684.2</ele></trkpt>
      <trkpt lat="35.580204" lon="129.028037"><ele>681.3</ele></trkpt>
      <trkpt lat="35.581144" lon="129.026812"><ele>688.1</ele></trkpt>
      <trkpt lat="35.581542" lon="129.026650"><ele>699.1</ele></trkpt>
      <trkpt lat="35.581806" lon="129.026676"><ele>705.3</ele></trkpt>
      <trkpt lat="35.581903" lon="129.026637"><ele>708.5</ele></trkpt>
      <trkpt lat="35.582049" lon="129.026481"><ele>714.1</ele></trkpt>
      <trkpt lat="35.582057" lon="129.026372"><ele>716.7</ele></trkpt>
      <trkpt lat="35.582134" lon="129.026273"><ele>719.8</ele></trkpt>
      <trkpt lat="35.582219" lon="129.026237"><ele>722.1</ele></trkpt>
      <trkpt lat="35.582276" lon="129.026007"><ele>727.2</ele></trkpt>
      <trkpt lat="35.582526" lon="129.025686"><ele>739.4</ele></trkpt>
      <trkpt lat="35.582822" lon="129.025411"><ele>751.9</ele></trkpt>
      <trkpt lat="35.583026" lon="129.025338"><ele>759.7</ele></trkpt>
      <trkpt lat="35.583270" lon="129.025072"><ele>775.1</ele></trkpt>
      <trkpt lat="35.583631" lon="129.024815"><ele>791.9</ele></trkpt>
      <trkpt lat="35.583867" lon="129.024580"><ele>803.5</ele></trkpt>
      <trkpt lat="35.583862" lon="129.024518"><ele>805.1</ele></trkpt>
      <trkpt lat="35.583928" lon="129.024515"><ele>807.0</ele></trkpt>
      <trkpt lat="35.584056" lon="129.024311"><ele>818.0</ele></trkpt>
      <trkpt lat="35.584114" lon="129.024018"><ele>830.0</ele></trkpt>
      <trkpt lat="35.584170" lon="129.024015"><ele>831.5</ele></trkpt>
      <trkpt lat="35.584267" lon="129.023770"><ele>841.2</ele></trkpt>
      <trkpt lat="35.584456" lon="129.023497"><ele>853.1</ele></trkpt>
      <trkpt lat="35.584521" lon="129.022789"><ele>877.6</ele></trkpt>
      <trkpt lat="35.584739" lon="129.022613"><ele>884.2</ele></trkpt>
      <trkpt lat="35.584789" lon="129.022396"><ele>886.8</ele></trkpt>
      <trkpt lat="35.584750" lon="129.022148"><ele>891.7</ele></trkpt>
      <trkpt lat="35.584631" lon="129.021982"><ele>897.1</ele></trkpt>
      <trkpt lat="35.584496" lon="129.021536"><ele>911.3</ele></trkpt>
      <trkpt lat="35.584079" lon="129.020851"><ele>924.8</ele></trkpt>
      <trkpt lat="35.584079" lon="129.020291"><ele>938.8</ele></trkpt>
      <trkpt lat="35.584167" lon="129.020074"><ele>946.1</ele></trkpt>
      <trkpt lat="35.584317" lon="129.019913"><ele>944.3</ele></trkpt>
      <trkpt lat="35.584709" lon="129.020253"><ele>930.5</ele></trkpt>
      <trkpt lat="35.584944" lon="129.020105"><ele>922.9</ele></trkpt>
      <trkpt lat="35.585542" lon="129.019858"><ele>897.0</ele></trkpt>
      <trkpt lat="35.586332" lon="129.020043"><ele>869.0</ele></trkpt>
      <trkpt lat="35.586705" lon="129.020070"><ele>851.1</ele></trkpt>
      <trkpt lat="35.586793" lon="129.020010"><ele>849.2</ele></trkpt>
      <trkpt lat="35.587073" lon="129.019991"><ele>842.6</ele></trkpt>
      <trkpt lat="35.587365" lon="129.020050"><ele>838.2</ele></trkpt>
      <trkpt lat="35.587653" lon="129.020238"><ele>835.5</ele></trkpt>
      <trkpt lat="35.588039" lon="129.020373"><ele>832.7</ele></trkpt>
      <trkpt lat="35.588334" lon="129.020581"><ele>830.1</ele></trkpt>
      <trkpt lat="35.588550" lon="129.020900"><ele>825.4</ele></trkpt>
      <trkpt lat="35.588582" lon="129.021032"><ele>824.9</ele></trkpt>
      <trkpt lat="35.589126" lon="129.021383"><ele>809.0</ele></trkpt>
      <trkpt lat="35.589392" lon="129.021649"><ele>801.5</ele></trkpt>
      <trkpt lat="35.589461" lon="129.021820"><ele>800.3</ele></trkpt>
      <trkpt lat="35.589830" lon="129.022308"><ele>800.4</ele></trkpt>
      <trkpt lat="35.590030" lon="129.022482"><ele>806.5</ele></trkpt>
      <trkpt lat="35.590135" lon="129.022672"><ele>809.1</ele></trkpt>
      <trkpt lat="35.590370" lon="129.022787"><ele>811.6</ele></trkpt>
      <trkpt lat="35.590810" lon="129.023196"><ele>807.7</ele></trkpt>
      <trkpt lat="35.591044" lon="129.023317"><ele>803.1</ele></trkpt>
      <trkpt lat="35.591316" lon="129.023356"><ele>798.1</ele></trkpt>
      <trkpt lat="35.591958" lon="129.023611"><ele>802.8</ele></trkpt>
      <trkpt lat="35.592404" lon="129.023635"><ele>793.1</ele></trkpt>
      <trkpt lat="35.592698" lon="129.023549"><ele>788.2</ele></trkpt>
      <trkpt lat="35.593011" lon="129.023529"><ele>785.7</ele></trkpt>
      <trkpt lat="35.593357" lon="129.023596"><ele>788.3</ele></trkpt>
      <trkpt lat="35.594059" lon="129.023905"><ele>775.1</ele></trkpt>
      <trkpt lat="35.594446" lon="129.023949"><ele>769.1</ele></trkpt>
      <trkpt lat="35.594735" lon="129.024053"><ele>765.8</ele></trkpt>
      <trkpt lat="35.595306" lon="129.024074"><ele>768.6</ele></trkpt>
      <trkpt lat="35.596747" lon="129.024396"><ele>792.7</ele></trkpt>
      <trkpt lat="35.596993" lon="129.024575"><ele>796.0</ele></trkpt>
      <trkpt lat="35.597511" lon="129.024807"><ele>792.9</ele></trkpt>
      <trkpt lat="35.597870" lon="129.024890"><ele>792.0</ele></trkpt>
      <trkpt lat="35.598558" lon="129.025234"><ele>798.6</ele></trkpt>
      <trkpt lat="35.599367" lon="129.025543"><ele>793.0</ele></trkpt>
      <trkpt lat="35.599514" lon="129.025655"><ele>789.2</ele></trkpt>
      <trkpt lat="35.599908" lon="129.025810"><ele>789.3</ele></trkpt>
      <trkpt lat="35.600707" lon="129.025959"><ele>787.9</ele></trkpt>
      <trkpt lat="35.601197" lon="129.025801"><ele>789.8</ele></trkpt>
      <trkpt lat="35.601748" lon="129.025790"><ele>792.0</ele></trkpt>
      <trkpt lat="35.602127" lon="129.025620"><ele>801.7</ele></trkpt>
      <trkpt lat="35.602275" lon="129.025467"><ele>804.2</ele></trkpt>
      <trkpt lat="35.602460" lon="129.025370"><ele>805.2</ele></trkpt>
      <trkpt lat="35.603178" lon="129.023850"><ele>819.8</ele></trkpt>
      <trkpt lat="35.603749" lon="129.023452"><ele>814.5</ele></trkpt>
      <trkpt lat="35.604960" lon="129.023397"><ele>797.3</ele></trkpt>
      <trkpt lat="35.606283" lon="129.023113"><ele>788.5</ele></trkpt>
      <trkpt lat="35.606773" lon="129.023137"><ele>783.4</ele></trkpt>
      <trkpt lat="35.606932" lon="129.023074"><ele>780.9</ele></trkpt>
      <trkpt lat="35.607178" lon="129.023140"><ele>773.3</ele></trkpt>
      <trkpt lat="35.607285" lon="129.023088"><ele>771.7</ele></trkpt>
      <trkpt lat="35.607849" lon="129.023064"><ele>768.9</ele></trkpt>
      <trkpt lat="35.608034" lon="129.023002"><ele>768.4</ele></trkpt>
      <trkpt lat="35.608541" lon="129.022993"><ele>766.7</ele></trkpt>
      <trkpt lat="35.608718" lon="129.021805"><ele>742.8</ele></trkpt>
      <trkpt lat="35.608534" lon="129.021325"><ele>721.4</ele></trkpt>
      <trkpt lat="35.608481" lon="129.020606"><ele>692.2</ele></trkpt>
      <trkpt lat="35.608396" lon="129.020460"><ele>685.4</ele></trkpt>
      <trkpt lat="35.608344" lon="129.020149"><ele>672.3</ele></trkpt>
      <trkpt lat="35.608379" lon="129.019980"><ele>664.6</ele></trkpt>
      <trkpt lat="35.608455" lon="129.019865"><ele>658.5</ele></trkpt>
      <trkpt lat="35.608695" lon="129.019816"><ele>653.5</ele></trkpt>
      <trkpt lat="35.608924" lon="129.019657"><ele>650.9</ele></trkpt>
      <trkpt lat="35.609000" lon="129.019500"><ele>649.6</ele></trkpt>
      <trkpt lat="35.609187" lon="129.019394"><ele>653.5</ele></trkpt>
      <trkpt lat="35.609406" lon="129.019039"><ele>673.5</ele></trkpt>
      <trkpt lat="35.610086" lon="129.018223"><ele>727.1</ele></trkpt>
      <trkpt lat="35.610339" lon="129.018006"><ele>745.1</ele></trkpt>
      <trkpt lat="35.610430" lon="129.017855"><ele>753.3</ele></trkpt>
      <trkpt lat="35.610619" lon="129.017759"><ele>763.5</ele></trkpt>
      <trkpt lat="35.610765" lon="129.017582"><ele>773.1</ele></trkpt>
      <trkpt lat="35.610915" lon="129.017086"><ele>791.8</ele></trkpt>
      <trkpt lat="35.611177" lon="129.016874"><ele>801.3</ele></trkpt>
      <trkpt lat="35.612195" lon="129.016292"><ele>851.9</ele></trkpt>
      <trkpt lat="35.612529" lon="129.016292"><ele>867.3</ele></trkpt>
      <trkpt lat="35.612742" lon="129.016153"><ele>877.5</ele></trkpt>
      <trkpt lat="35.613309" lon="129.015117"><ele>895.8</ele></trkpt>
      <trkpt lat="35.614365" lon="129.013943"><ele>931.2</ele></trkpt>
      <trkpt lat="35.614635" lon="129.013701"><ele>941.2</ele></trkpt>
      <trkpt lat="35.614919" lon="129.013269"><ele>953.4</ele></trkpt>
      <trkpt lat="35.615150" lon="129.013079"><ele>964.0</ele></trkpt>
      <trkpt lat="35.615499" lon="129.012438"><ele>977.4</ele></trkpt>
      <trkpt lat="35.615473" lon="129.012167"><ele>981.6</ele></trkpt>
      <trkpt lat="35.615572" lon="129.011940"><ele>991.0</ele></trkpt>
      <trkpt lat="35.615610" lon="129.011627"><ele>998.1</ele></trkpt>
      <trkpt lat="35.615686" lon="129.011506"><ele>1002.7</ele></trkpt>
      <trkpt lat="35.615798" lon="129.010806"><ele>1024.5</ele></trkpt>
      <trkpt lat="35.615813" lon="129.010194"><ele>1038.7</ele></trkpt>
      <trkpt lat="35.615721" lon="129.008612"><ele>1097.9</ele></trkpt>
      <trkpt lat="35.615501" lon="129.007877"><ele>1126.4</ele></trkpt>
      <trkpt lat="35.615785" lon="129.007816"><ele>1136.2</ele></trkpt>
      <trkpt lat="35.615913" lon="129.007627"><ele>1143.6</ele></trkpt>
      <trkpt lat="35.615905" lon="129.007461"><ele>1148.9</ele></trkpt>
      <trkpt lat="35.615993" lon="129.007368"><ele>1149.4</ele></trkpt>
      <trkpt lat="35.615988" lon="129.007297"><ele>1150.6</ele></trkpt>
      <trkpt lat="35.616154" lon="129.007251"><ele>1148.5</ele></trkpt>
      <trkpt lat="35.616185" lon="129.007179"><ele>1148.0</ele></trkpt>
      <trkpt lat="35.616579" lon="129.007014"><ele>1140.5</ele></trkpt>
      <trkpt lat="35.616653" lon="129.006936"><ele>1139.2</ele></trkpt>
      <trkpt lat="35.617007" lon="129.006821"><ele>1127.7</ele></trkpt>
      <trkpt lat="35.617905" lon="129.006162"><ele>1118.6</ele></trkpt>
      <trkpt lat="35.618157" lon="129.005872"><ele>1112.4</ele></trkpt>
      <trkpt lat="35.618633" lon="129.005019"><ele>1120.9</ele></trkpt>
      <trkpt lat="35.618821" lon="129.004927"><ele>1125.4</ele></trkpt>
      <trkpt lat="35.619283" lon="129.004546"><ele>1154.8</ele></trkpt>
      <trkpt lat="35.619460" lon="129.004228"><ele>1171.4</ele></trkpt>
      <trkpt lat="35.619596" lon="129.003824"><ele>1184.6</ele></trkpt>
      <trkpt lat="35.619820" lon="129.003714"><ele>1195.9</ele></trkpt>
      <trkpt lat="35.620178" lon="129.003282"><ele>1219.0</ele></trkpt>
      <trkpt lat="35.620276" lon="129.002905"><ele>1224.4</ele></trkpt>
    </trkseg>
  </trk>
</gpx>
