<?xml version="1.0" encoding="UTF-8"?>
<gpx version="1.1" creator="kr-100-mountains route-harvester"
     xmlns="http://www.topografix.com/GPX/1/1"
     xmlns:k100="https://github.com/jay-jang/kr-100-mountains/ns/1"
     xmlns:xsi="http://www.w3.org/2001/XMLSchema-instance"
     xsi:schemaLocation="http://www.topografix.com/GPX/1/1 http://www.topografix.com/GPX/1/1/gpx.xsd">
  <metadata>
    <name>감악산 · 범륜사-정상 코스 (대안 2) (OSM 계산 경로)</name>
    <desc>실제 GPS 기록이 아닙니다. OpenStreetMap에 등록된 등산로 선형 위에서 계산한 경로이며, 현장 통제·훼손·출입 제한·계절 통제를 반영하지 않을 수 있습니다. 산행 전 공식 안내를 확인하세요.</desc>
    <time>2026-08-04T05:14:33.931Z</time>
    <link href="https://www.openstreetmap.org/copyright"><text>© OpenStreetMap contributors (ODbL 1.0)</text></link>
    <link href="https://registry.opendata.aws/terrain-tiles/"><text>Elevation: SRTM 1 arc-second (NASA/USGS) via AWS Terrain Tiles</text></link>
    <extensions>
      <k100:provenance>osm-routed</k100:provenance>
      <k100:not_a_recorded_track>true</k100:not_a_recorded_track>
      <k100:mountain_id>gamaksan-paju</k100:mountain_id>
      <k100:mountain_name>감악산(파주)</k100:mountain_name>
      <k100:route_id>gamaksan-paju-39607941</k100:route_id>
      <k100:route_index>1</k100:route_index>
      <k100:route_name>범륜사-정상 코스</k100:route_name>
      <k100:variant>2</k100:variant>
      <k100:source>OpenStreetMap via Overpass API</k100:source>
      <k100:license>ODbL-1.0</k100:license>
      <k100:attribution>© OpenStreetMap contributors</k100:attribution>
      <k100:elevation_source>SRTM 1 arc-second (NASA/USGS) — AWS Terrain Tiles 배포본. 지형 DEM 추정 고도이며 실측 아님</k100:elevation_source>
      <k100:algorithm>dijkstra-grid-v1</k100:algorithm>
      <k100:osm_snapshot>2026-08-04</k100:osm_snapshot>
      <k100:snap_trailhead_m>34</k100:snap_trailhead_m>
      <k100:snap_summit_m>100</k100:snap_summit_m>
      <k100:validation_score>82</k100:validation_score>
      <k100:validation_status>accepted</k100:validation_status>
    </extensions>
  </metadata>
  <trk>
    <name>감악산 · 범륜사-정상 코스 (대안 2) (OSM 계산 경로)</name>
    <desc>실제 GPS 기록이 아닙니다. OpenStreetMap에 등록된 등산로 선형 위에서 계산한 경로이며, 현장 통제·훼손·출입 제한·계절 통제를 반영하지 않을 수 있습니다. 산행 전 공식 안내를 확인하세요.</desc>
    <trkseg>
      <trkpt lat="37.939370" lon="126.943397"><ele>107.4</ele></trkpt>
      <trkpt lat="37.939446" lon="126.942908"><ele>107.6</ele></trkpt>
      <trkpt lat="37.939556" lon="126.942585"><ele>107.3</ele></trkpt>
      <trkpt lat="37.939689" lon="126.942370"><ele>106.5</ele></trkpt>
      <trkpt lat="37.939842" lon="126.942268"><ele>107.3</ele></trkpt>
      <trkpt lat="37.940180" lon="126.942238"><ele>107.5</ele></trkpt>
      <trkpt lat="37.941257" lon="126.942355"><ele>105.4</ele></trkpt>
      <trkpt lat="37.942743" lon="126.942760"><ele>100.1</ele></trkpt>
      <trkpt lat="37.943173" lon="126.942812"><ele>102.0</ele></trkpt>
      <trkpt lat="37.943327" lon="126.942777"><ele>102.0</ele></trkpt>
      <trkpt lat="37.943184" lon="126.943420"><ele>100.7</ele></trkpt>
      <trkpt lat="37.943347" lon="126.944750"><ele>118.6</ele></trkpt>
      <trkpt lat="37.943519" lon="126.945375"><ele>126.2</ele></trkpt>
      <trkpt lat="37.943861" lon="126.945807"><ele>125.4</ele></trkpt>
      <trkpt lat="37.943949" lon="126.946008"><ele>128.6</ele></trkpt>
      <trkpt lat="37.944352" lon="126.946217"><ele>132.9</ele></trkpt>
      <trkpt lat="37.944452" lon="126.946376"><ele>132.2</ele></trkpt>
      <trkpt lat="37.944478" lon="126.946553"><ele>135.6</ele></trkpt>
      <trkpt lat="37.944715" lon="126.946768"><ele>139.9</ele></trkpt>
      <trkpt lat="37.945932" lon="126.947473"><ele>165.1</ele></trkpt>
      <trkpt lat="37.946162" lon="126.947756"><ele>170.1</ele></trkpt>
      <trkpt lat="37.946284" lon="126.948185"><ele>178.4</ele></trkpt>
      <trkpt lat="37.946436" lon="126.948172"><ele>176.0</ele></trkpt>
      <trkpt lat="37.946614" lon="126.947807"><ele>176.5</ele></trkpt>
      <trkpt lat="37.946711" lon="126.947859"><ele>178.8</ele></trkpt>
      <trkpt lat="37.946758" lon="126.947999"><ele>178.9</ele></trkpt>
      <trkpt lat="37.946852" lon="126.948024"><ele>181.1</ele></trkpt>
      <trkpt lat="37.947038" lon="126.947929"><ele>188.0</ele></trkpt>
      <trkpt lat="37.947110" lon="126.947961"><ele>189.9</ele></trkpt>
      <trkpt lat="37.947098" lon="126.948471"><ele>193.3</ele></trkpt>
      <trkpt lat="37.947135" lon="126.948658"><ele>198.8</ele></trkpt>
      <trkpt lat="37.947247" lon="126.948803"><ele>204.0</ele></trkpt>
      <trkpt lat="37.947530" lon="126.949013"><ele>210.5</ele></trkpt>
      <trkpt lat="37.947769" lon="126.949327"><ele>220.0</ele></trkpt>
      <trkpt lat="37.947923" lon="126.949422"><ele>224.6</ele></trkpt>
      <trkpt lat="37.948529" lon="126.949538"><ele>235.7</ele></trkpt>
      <trkpt lat="37.948769" lon="126.949350"><ele>236.4</ele></trkpt>
      <trkpt lat="37.948706" lon="126.949573"><ele>236.7</ele></trkpt>
      <trkpt lat="37.948713" lon="126.949843"><ele>241.3</ele></trkpt>
      <trkpt lat="37.948668" lon="126.949945"><ele>245.3</ele></trkpt>
      <trkpt lat="37.948368" lon="126.950088"><ele>252.9</ele></trkpt>
      <trkpt lat="37.948188" lon="126.950372"><ele>260.3</ele></trkpt>
      <trkpt lat="37.948194" lon="126.950569"><ele>265.3</ele></trkpt>
      <trkpt lat="37.948307" lon="126.950746"><ele>270.0</ele></trkpt>
      <trkpt lat="37.948162" lon="126.951155"><ele>282.2</ele></trkpt>
      <trkpt lat="37.948172" lon="126.951431"><ele>292.0</ele></trkpt>
      <trkpt lat="37.948209" lon="126.951485"><ele>293.5</ele></trkpt>
      <trkpt lat="37.948153" lon="126.951612"><ele>298.1</ele></trkpt>
      <trkpt lat="37.948175" lon="126.951741"><ele>301.4</ele></trkpt>
      <trkpt lat="37.948118" lon="126.951910"><ele>306.5</ele></trkpt>
      <trkpt lat="37.948139" lon="126.951954"><ele>307.2</ele></trkpt>
      <trkpt lat="37.948095" lon="126.951953"><ele>308.3</ele></trkpt>
      <trkpt lat="37.948091" lon="126.952171"><ele>314.6</ele></trkpt>
      <trkpt lat="37.948004" lon="126.952316"><ele>321.1</ele></trkpt>
      <trkpt lat="37.948023" lon="126.952413"><ele>324.4</ele></trkpt>
      <trkpt lat="37.947849" lon="126.952659"><ele>332.6</ele></trkpt>
      <trkpt lat="37.947774" lon="126.952867"><ele>335.4</ele></trkpt>
      <trkpt lat="37.947499" lon="126.953222"><ele>341.4</ele></trkpt>
      <trkpt lat="37.947333" lon="126.953346"><ele>343.8</ele></trkpt>
      <trkpt lat="37.946938" lon="126.953504"><ele>344.7</ele></trkpt>
      <trkpt lat="37.946534" lon="126.954188"><ele>352.0</ele></trkpt>
      <trkpt lat="37.946450" lon="126.954376"><ele>354.5</ele></trkpt>
      <trkpt lat="37.946312" lon="126.955040"><ele>372.9</ele></trkpt>
      <trkpt lat="37.946175" lon="126.955217"><ele>379.7</ele></trkpt>
      <trkpt lat="37.946227" lon="126.955307"><ele>384.2</ele></trkpt>
      <trkpt lat="37.946203" lon="126.955439"><ele>390.6</ele></trkpt>
      <trkpt lat="37.946033" lon="126.955619"><ele>398.2</ele></trkpt>
      <trkpt lat="37.945798" lon="126.956519"><ele>418.0</ele></trkpt>
      <trkpt lat="37.945717" lon="126.956614"><ele>420.1</ele></trkpt>
      <trkpt lat="37.945452" lon="126.956695"><ele>421.9</ele></trkpt>
      <trkpt lat="37.944988" lon="126.957301"><ele>420.0</ele></trkpt>
      <trkpt lat="37.944298" lon="126.957624"><ele>427.6</ele></trkpt>
      <trkpt lat="37.943945" lon="126.958107"><ele>437.5</ele></trkpt>
      <trkpt lat="37.943816" lon="126.958115"><ele>438.6</ele></trkpt>
      <trkpt lat="37.943646" lon="126.958332"><ele>440.1</ele></trkpt>
      <trkpt lat="37.943565" lon="126.958779"><ele>443.0</ele></trkpt>
      <trkpt lat="37.943693" lon="126.959281"><ele>448.7</ele></trkpt>
      <trkpt lat="37.943665" lon="126.959691"><ele>453.6</ele></trkpt>
      <trkpt lat="37.943485" lon="126.960060"><ele>452.3</ele></trkpt>
      <trkpt lat="37.943485" lon="126.960566"><ele>457.1</ele></trkpt>
      <trkpt lat="37.943349" lon="126.960820"><ele>462.4</ele></trkpt>
      <trkpt lat="37.943224" lon="126.960903"><ele>459.2</ele></trkpt>
      <trkpt lat="37.943149" lon="126.961098"><ele>460.1</ele></trkpt>
      <trkpt lat="37.943131" lon="126.961309"><ele>463.9</ele></trkpt>
      <trkpt lat="37.942981" lon="126.961861"><ele>474.4</ele></trkpt>
      <trkpt lat="37.943001" lon="126.962110"><ele>479.1</ele></trkpt>
      <trkpt lat="37.942954" lon="126.962118"><ele>478.2</ele></trkpt>
      <trkpt lat="37.942911" lon="126.962709"><ele>488.1</ele></trkpt>
      <trkpt lat="37.942738" lon="126.963125"><ele>492.4</ele></trkpt>
      <trkpt lat="37.942701" lon="126.963492"><ele>500.1</ele></trkpt>
    </trkseg>
  </trk>
</gpx>
