<?xml version="1.0" encoding="UTF-8"?>
<gpx version="1.1" creator="kr-100-mountains route-harvester"
     xmlns="http://www.topografix.com/GPX/1/1"
     xmlns:k100="https://github.com/jay-jang/kr-100-mountains/ns/1"
     xmlns:xsi="http://www.w3.org/2001/XMLSchema-instance"
     xsi:schemaLocation="http://www.topografix.com/GPX/1/1 http://www.topografix.com/GPX/1/1/gpx.xsd">
  <metadata>
    <name>감악산 · 범륜사-임꺽정봉 코스 (OSM 계산 경로)</name>
    <desc>실제 GPS 기록이 아닙니다. OpenStreetMap에 등록된 등산로 선형 위에서 계산한 경로이며, 현장 통제·훼손·출입 제한·계절 통제를 반영하지 않을 수 있습니다. 산행 전 공식 안내를 확인하세요.</desc>
    <time>2026-08-04T05:14:34.022Z</time>
    <link href="https://www.openstreetmap.org/copyright"><text>© OpenStreetMap contributors (ODbL 1.0)</text></link>
    <link href="https://registry.opendata.aws/terrain-tiles/"><text>Elevation: SRTM 1 arc-second (NASA/USGS) via AWS Terrain Tiles</text></link>
    <extensions>
      <k100:provenance>osm-routed</k100:provenance>
      <k100:not_a_recorded_track>true</k100:not_a_recorded_track>
      <k100:mountain_id>gamaksan-paju</k100:mountain_id>
      <k100:mountain_name>감악산(파주)</k100:mountain_name>
      <k100:route_id>gamaksan-paju-13b75795</k100:route_id>
      <k100:route_index>5</k100:route_index>
      <k100:route_name>범륜사-임꺽정봉 코스</k100:route_name>
      <k100:variant>0</k100:variant>
      <k100:source>OpenStreetMap via Overpass API</k100:source>
      <k100:license>ODbL-1.0</k100:license>
      <k100:attribution>© OpenStreetMap contributors</k100:attribution>
      <k100:elevation_source>SRTM 1 arc-second (NASA/USGS) — AWS Terrain Tiles 배포본. 지형 DEM 추정 고도이며 실측 아님</k100:elevation_source>
      <k100:algorithm>dijkstra-grid-v1</k100:algorithm>
      <k100:osm_snapshot>2026-08-04</k100:osm_snapshot>
      <k100:snap_trailhead_m>30</k100:snap_trailhead_m>
      <k100:snap_summit_m>100</k100:snap_summit_m>
      <k100:validation_score>89</k100:validation_score>
      <k100:validation_status>accepted</k100:validation_status>
    </extensions>
  </metadata>
  <trk>
    <name>감악산 · 범륜사-임꺽정봉 코스 (OSM 계산 경로)</name>
    <desc>실제 GPS 기록이 아닙니다. OpenStreetMap에 등록된 등산로 선형 위에서 계산한 경로이며, 현장 통제·훼손·출입 제한·계절 통제를 반영하지 않을 수 있습니다. 산행 전 공식 안내를 확인하세요.</desc>
    <trkseg>
      <trkpt lat="37.937852" lon="126.945677"><ele>150.9</ele></trkpt>
      <trkpt lat="37.938049" lon="126.945866"><ele>153.4</ele></trkpt>
      <trkpt lat="37.937661" lon="126.947571"><ele>157.0</ele></trkpt>
      <trkpt lat="37.937629" lon="126.947912"><ele>164.7</ele></trkpt>
      <trkpt lat="37.937342" lon="126.948303"><ele>173.8</ele></trkpt>
      <trkpt lat="37.937327" lon="126.948620"><ele>178.9</ele></trkpt>
      <trkpt lat="37.937388" lon="126.948830"><ele>185.7</ele></trkpt>
      <trkpt lat="37.938063" lon="126.950084"><ele>201.0</ele></trkpt>
      <trkpt lat="37.938056" lon="126.950257"><ele>209.9</ele></trkpt>
      <trkpt lat="37.937898" lon="126.950368"><ele>221.2</ele></trkpt>
      <trkpt lat="37.937909" lon="126.950544"><ele>226.1</ele></trkpt>
      <trkpt lat="37.938147" lon="126.950553"><ele>214.3</ele></trkpt>
      <trkpt lat="37.938223" lon="126.950691"><ele>212.6</ele></trkpt>
      <trkpt lat="37.938208" lon="126.950979"><ele>216.1</ele></trkpt>
      <trkpt lat="37.937999" lon="126.951374"><ele>227.8</ele></trkpt>
      <trkpt lat="37.937928" lon="126.951742"><ele>230.9</ele></trkpt>
      <trkpt lat="37.937955" lon="126.952042"><ele>232.0</ele></trkpt>
      <trkpt lat="37.938090" lon="126.952552"><ele>237.5</ele></trkpt>
      <trkpt lat="37.938464" lon="126.953581"><ele>257.6</ele></trkpt>
      <trkpt lat="37.938808" lon="126.954119"><ele>269.7</ele></trkpt>
      <trkpt lat="37.939031" lon="126.954625"><ele>282.5</ele></trkpt>
      <trkpt lat="37.939152" lon="126.954682"><ele>280.3</ele></trkpt>
      <trkpt lat="37.939273" lon="126.954953"><ele>284.3</ele></trkpt>
      <trkpt lat="37.939305" lon="126.955618"><ele>297.8</ele></trkpt>
      <trkpt lat="37.939412" lon="126.956041"><ele>301.2</ele></trkpt>
      <trkpt lat="37.939672" lon="126.956419"><ele>307.0</ele></trkpt>
      <trkpt lat="37.939911" lon="126.956979"><ele>317.3</ele></trkpt>
      <trkpt lat="37.940007" lon="126.957091"><ele>318.8</ele></trkpt>
      <trkpt lat="37.940226" lon="126.957235"><ele>324.6</ele></trkpt>
      <trkpt lat="37.940492" lon="126.957299"><ele>329.1</ele></trkpt>
      <trkpt lat="37.940591" lon="126.957402"><ele>331.5</ele></trkpt>
      <trkpt lat="37.940785" lon="126.957472"><ele>334.5</ele></trkpt>
      <trkpt lat="37.941158" lon="126.957509"><ele>344.6</ele></trkpt>
      <trkpt lat="37.941465" lon="126.957418"><ele>353.4</ele></trkpt>
      <trkpt lat="37.941739" lon="126.957486"><ele>358.3</ele></trkpt>
      <trkpt lat="37.941859" lon="126.957640"><ele>362.7</ele></trkpt>
      <trkpt lat="37.942132" lon="126.957396"><ele>372.4</ele></trkpt>
      <trkpt lat="37.942218" lon="126.957114"><ele>379.2</ele></trkpt>
      <trkpt lat="37.942394" lon="126.956965"><ele>388.3</ele></trkpt>
      <trkpt lat="37.942399" lon="126.956864"><ele>390.0</ele></trkpt>
      <trkpt lat="37.942501" lon="126.956666"><ele>395.0</ele></trkpt>
      <trkpt lat="37.942691" lon="126.956700"><ele>399.9</ele></trkpt>
      <trkpt lat="37.942791" lon="126.956952"><ele>404.1</ele></trkpt>
      <trkpt lat="37.942908" lon="126.956964"><ele>405.1</ele></trkpt>
      <trkpt lat="37.942974" lon="126.957056"><ele>407.1</ele></trkpt>
      <trkpt lat="37.943078" lon="126.957374"><ele>411.9</ele></trkpt>
      <trkpt lat="37.943328" lon="126.957824"><ele>425.4</ele></trkpt>
      <trkpt lat="37.943383" lon="126.958244"><ele>432.0</ele></trkpt>
      <trkpt lat="37.943600" lon="126.958471"><ele>441.6</ele></trkpt>
      <trkpt lat="37.943565" lon="126.958779"><ele>443.0</ele></trkpt>
      <trkpt lat="37.943693" lon="126.959281"><ele>448.7</ele></trkpt>
      <trkpt lat="37.943665" lon="126.959691"><ele>453.6</ele></trkpt>
      <trkpt lat="37.943485" lon="126.960060"><ele>452.3</ele></trkpt>
      <trkpt lat="37.943485" lon="126.960566"><ele>457.1</ele></trkpt>
      <trkpt lat="37.943349" lon="126.960820"><ele>462.4</ele></trkpt>
      <trkpt lat="37.943224" lon="126.960903"><ele>459.2</ele></trkpt>
      <trkpt lat="37.943149" lon="126.961098"><ele>460.1</ele></trkpt>
      <trkpt lat="37.943131" lon="126.961309"><ele>463.9</ele></trkpt>
      <trkpt lat="37.942981" lon="126.961861"><ele>474.4</ele></trkpt>
      <trkpt lat="37.943001" lon="126.962110"><ele>479.1</ele></trkpt>
      <trkpt lat="37.942954" lon="126.962118"><ele>478.2</ele></trkpt>
      <trkpt lat="37.942911" lon="126.962709"><ele>488.1</ele></trkpt>
      <trkpt lat="37.942738" lon="126.963125"><ele>492.4</ele></trkpt>
      <trkpt lat="37.942701" lon="126.963492"><ele>500.1</ele></trkpt>
    </trkseg>
  </trk>
</gpx>
