<?xml version="1.0" encoding="UTF-8"?>
<gpx version="1.1" creator="kr-100-mountains route-harvester"
     xmlns="http://www.topografix.com/GPX/1/1"
     xmlns:k100="https://github.com/jay-jang/kr-100-mountains/ns/1"
     xmlns:xsi="http://www.w3.org/2001/XMLSchema-instance"
     xsi:schemaLocation="http://www.topografix.com/GPX/1/1 http://www.topografix.com/GPX/1/1/gpx.xsd">
  <metadata>
    <name>감악산 · 신암저수지-숯가마터-임꺽정봉-감악산 정상 (OSM 계산 경로)</name>
    <desc>실제 GPS 기록이 아닙니다. OpenStreetMap에 등록된 등산로 선형 위에서 계산한 경로이며, 현장 통제·훼손·출입 제한·계절 통제를 반영하지 않을 수 있습니다. 산행 전 공식 안내를 확인하세요.</desc>
    <time>2026-08-04T05:14:34.003Z</time>
    <link href="https://www.openstreetmap.org/copyright"><text>© OpenStreetMap contributors (ODbL 1.0)</text></link>
    <link href="https://registry.opendata.aws/terrain-tiles/"><text>Elevation: SRTM 1 arc-second (NASA/USGS) via AWS Terrain Tiles</text></link>
    <extensions>
      <k100:provenance>osm-routed</k100:provenance>
      <k100:not_a_recorded_track>true</k100:not_a_recorded_track>
      <k100:mountain_id>gamaksan-paju</k100:mountain_id>
      <k100:mountain_name>감악산(파주)</k100:mountain_name>
      <k100:route_id>gamaksan-paju-f331f4ae</k100:route_id>
      <k100:route_index>4</k100:route_index>
      <k100:route_name>신암저수지-숯가마터-임꺽정봉-감악산 정상</k100:route_name>
      <k100:variant>0</k100:variant>
      <k100:source>OpenStreetMap via Overpass API</k100:source>
      <k100:license>ODbL-1.0</k100:license>
      <k100:attribution>© OpenStreetMap contributors</k100:attribution>
      <k100:elevation_source>SRTM 1 arc-second (NASA/USGS) — AWS Terrain Tiles 배포본. 지형 DEM 추정 고도이며 실측 아님</k100:elevation_source>
      <k100:algorithm>dijkstra-grid-v1</k100:algorithm>
      <k100:osm_snapshot>2026-08-04</k100:osm_snapshot>
      <k100:snap_trailhead_m>19</k100:snap_trailhead_m>
      <k100:snap_summit_m>100</k100:snap_summit_m>
      <k100:validation_score>82</k100:validation_score>
      <k100:validation_status>accepted</k100:validation_status>
    </extensions>
  </metadata>
  <trk>
    <name>감악산 · 신암저수지-숯가마터-임꺽정봉-감악산 정상 (OSM 계산 경로)</name>
    <desc>실제 GPS 기록이 아닙니다. OpenStreetMap에 등록된 등산로 선형 위에서 계산한 경로이며, 현장 통제·훼손·출입 제한·계절 통제를 반영하지 않을 수 있습니다. 산행 전 공식 안내를 확인하세요.</desc>
    <trkseg>
      <trkpt lat="37.915838" lon="126.966162"><ele>173.7</ele></trkpt>
      <trkpt lat="37.915521" lon="126.965990"><ele>166.5</ele></trkpt>
      <trkpt lat="37.917338" lon="126.965521"><ele>186.9</ele></trkpt>
      <trkpt lat="37.918129" lon="126.965580"><ele>191.6</ele></trkpt>
      <trkpt lat="37.918216" lon="126.965480"><ele>189.2</ele></trkpt>
      <trkpt lat="37.918447" lon="126.963724"><ele>192.9</ele></trkpt>
      <trkpt lat="37.918724" lon="126.963627"><ele>196.7</ele></trkpt>
      <trkpt lat="37.919555" lon="126.964134"><ele>196.8</ele></trkpt>
      <trkpt lat="37.919727" lon="126.964324"><ele>195.9</ele></trkpt>
      <trkpt lat="37.920105" lon="126.965003"><ele>197.7</ele></trkpt>
      <trkpt lat="37.920461" lon="126.965368"><ele>197.8</ele></trkpt>
      <trkpt lat="37.920662" lon="126.965443"><ele>198.6</ele></trkpt>
      <trkpt lat="37.921009" lon="126.965515"><ele>197.6</ele></trkpt>
      <trkpt lat="37.921561" lon="126.965502"><ele>203.6</ele></trkpt>
      <trkpt lat="37.922050" lon="126.965365"><ele>206.5</ele></trkpt>
      <trkpt lat="37.922528" lon="126.965348"><ele>205.8</ele></trkpt>
      <trkpt lat="37.922842" lon="126.965436"><ele>209.2</ele></trkpt>
      <trkpt lat="37.923800" lon="126.965872"><ele>207.9</ele></trkpt>
      <trkpt lat="37.924109" lon="126.965872"><ele>207.7</ele></trkpt>
      <trkpt lat="37.925174" lon="126.966114"><ele>217.5</ele></trkpt>
      <trkpt lat="37.925364" lon="126.966242"><ele>220.4</ele></trkpt>
      <trkpt lat="37.926013" lon="126.966238"><ele>226.7</ele></trkpt>
      <trkpt lat="37.926916" lon="126.966584"><ele>231.6</ele></trkpt>
      <trkpt lat="37.926967" lon="126.966502"><ele>234.6</ele></trkpt>
      <trkpt lat="37.927566" lon="126.966403"><ele>249.6</ele></trkpt>
      <trkpt lat="37.927803" lon="126.966274"><ele>252.4</ele></trkpt>
      <trkpt lat="37.928036" lon="126.966232"><ele>251.9</ele></trkpt>
      <trkpt lat="37.928277" lon="126.966049"><ele>253.8</ele></trkpt>
      <trkpt lat="37.929584" lon="126.966054"><ele>274.2</ele></trkpt>
      <trkpt lat="37.930253" lon="126.965846"><ele>279.0</ele></trkpt>
      <trkpt lat="37.930575" lon="126.965884"><ele>284.9</ele></trkpt>
      <trkpt lat="37.931357" lon="126.965797"><ele>304.6</ele></trkpt>
      <trkpt lat="37.931573" lon="126.965733"><ele>310.8</ele></trkpt>
      <trkpt lat="37.931721" lon="126.965566"><ele>312.7</ele></trkpt>
      <trkpt lat="37.932026" lon="126.965362"><ele>321.7</ele></trkpt>
      <trkpt lat="37.932635" lon="126.965400"><ele>341.1</ele></trkpt>
      <trkpt lat="37.932918" lon="126.965491"><ele>347.3</ele></trkpt>
      <trkpt lat="37.933033" lon="126.965759"><ele>359.0</ele></trkpt>
      <trkpt lat="37.933210" lon="126.966494"><ele>389.6</ele></trkpt>
      <trkpt lat="37.933413" lon="126.966559"><ele>393.9</ele></trkpt>
      <trkpt lat="37.933506" lon="126.966473"><ele>395.6</ele></trkpt>
      <trkpt lat="37.933756" lon="126.966467"><ele>403.7</ele></trkpt>
      <trkpt lat="37.934314" lon="126.966650"><ele>426.5</ele></trkpt>
      <trkpt lat="37.934547" lon="126.966596"><ele>434.4</ele></trkpt>
      <trkpt lat="37.934771" lon="126.966650"><ele>445.8</ele></trkpt>
      <trkpt lat="37.935279" lon="126.966897"><ele>464.7</ele></trkpt>
      <trkpt lat="37.935711" lon="126.966923"><ele>471.4</ele></trkpt>
      <trkpt lat="37.936481" lon="126.967310"><ele>494.8</ele></trkpt>
      <trkpt lat="37.936709" lon="126.967143"><ele>508.8</ele></trkpt>
      <trkpt lat="37.937348" lon="126.967111"><ele>547.0</ele></trkpt>
      <trkpt lat="37.937657" lon="126.967487"><ele>555.8</ele></trkpt>
      <trkpt lat="37.937877" lon="126.967417"><ele>568.7</ele></trkpt>
      <trkpt lat="37.938029" lon="126.967514"><ele>573.2</ele></trkpt>
      <trkpt lat="37.938275" lon="126.967508"><ele>583.5</ele></trkpt>
      <trkpt lat="37.938558" lon="126.967294"><ele>603.5</ele></trkpt>
      <trkpt lat="37.938736" lon="126.967277"><ele>611.1</ele></trkpt>
      <trkpt lat="37.938850" lon="126.967374"><ele>614.3</ele></trkpt>
      <trkpt lat="37.938901" lon="126.967811"><ele>613.0</ele></trkpt>
      <trkpt lat="37.939155" lon="126.967942"><ele>632.1</ele></trkpt>
      <trkpt lat="37.939229" lon="126.968242"><ele>638.8</ele></trkpt>
      <trkpt lat="37.939411" lon="126.968629"><ele>649.0</ele></trkpt>
      <trkpt lat="37.939560" lon="126.968793"><ele>645.3</ele></trkpt>
      <trkpt lat="37.939765" lon="126.968880"><ele>637.1</ele></trkpt>
      <trkpt lat="37.939858" lon="126.969110"><ele>636.4</ele></trkpt>
      <trkpt lat="37.940082" lon="126.969203"><ele>634.8</ele></trkpt>
      <trkpt lat="37.940565" lon="126.969724"><ele>645.4</ele></trkpt>
      <trkpt lat="37.940803" lon="126.969817"><ele>654.4</ele></trkpt>
      <trkpt lat="37.940961" lon="126.969755"><ele>658.9</ele></trkpt>
      <trkpt lat="37.941102" lon="126.969998"><ele>659.8</ele></trkpt>
      <trkpt lat="37.941154" lon="126.969710"><ele>661.9</ele></trkpt>
      <trkpt lat="37.941354" lon="126.969518"><ele>659.0</ele></trkpt>
      <trkpt lat="37.941345" lon="126.969408"><ele>656.3</ele></trkpt>
      <trkpt lat="37.941437" lon="126.969320"><ele>653.4</ele></trkpt>
      <trkpt lat="37.941515" lon="126.969120"><ele>647.3</ele></trkpt>
      <trkpt lat="37.941863" lon="126.968727"><ele>639.4</ele></trkpt>
      <trkpt lat="37.941786" lon="126.968377"><ele>630.8</ele></trkpt>
      <trkpt lat="37.941859" lon="126.968166"><ele>625.8</ele></trkpt>
      <trkpt lat="37.941870" lon="126.967495"><ele>607.0</ele></trkpt>
      <trkpt lat="37.941948" lon="126.967183"><ele>599.8</ele></trkpt>
      <trkpt lat="37.942065" lon="126.967046"><ele>593.7</ele></trkpt>
      <trkpt lat="37.942087" lon="126.966686"><ele>584.5</ele></trkpt>
      <trkpt lat="37.942229" lon="126.966478"><ele>581.8</ele></trkpt>
      <trkpt lat="37.942340" lon="126.965720"><ele>557.7</ele></trkpt>
      <trkpt lat="37.942516" lon="126.965312"><ele>555.2</ele></trkpt>
      <trkpt lat="37.942497" lon="126.965053"><ele>546.8</ele></trkpt>
      <trkpt lat="37.942422" lon="126.964807"><ele>536.9</ele></trkpt>
      <trkpt lat="37.942466" lon="126.964764"><ele>536.5</ele></trkpt>
      <trkpt lat="37.942407" lon="126.964703"><ele>532.9</ele></trkpt>
      <trkpt lat="37.942434" lon="126.964665"><ele>532.0</ele></trkpt>
      <trkpt lat="37.942402" lon="126.964622"><ele>529.4</ele></trkpt>
      <trkpt lat="37.942518" lon="126.964433"><ele>525.0</ele></trkpt>
      <trkpt lat="37.942597" lon="126.964441"><ele>527.0</ele></trkpt>
      <trkpt lat="37.942659" lon="126.964344"><ele>524.8</ele></trkpt>
      <trkpt lat="37.942612" lon="126.964256"><ele>520.6</ele></trkpt>
      <trkpt lat="37.942660" lon="126.963608"><ele>502.2</ele></trkpt>
      <trkpt lat="37.942701" lon="126.963492"><ele>500.1</ele></trkpt>
    </trkseg>
  </trk>
</gpx>
