<?xml version="1.0" encoding="UTF-8"?>
<gpx version="1.1" creator="kr-100-mountains route-harvester"
     xmlns="http://www.topografix.com/GPX/1/1"
     xmlns:k100="https://github.com/jay-jang/kr-100-mountains/ns/1"
     xmlns:xsi="http://www.w3.org/2001/XMLSchema-instance"
     xsi:schemaLocation="http://www.topografix.com/GPX/1/1 http://www.topografix.com/GPX/1/1/gpx.xsd">
  <metadata>
    <name>천마산 · 수진사 코스 (OSM 계산 경로)</name>
    <desc>실제 GPS 기록이 아닙니다. OpenStreetMap에 등록된 등산로 선형 위에서 계산한 경로이며, 현장 통제·훼손·출입 제한·계절 통제를 반영하지 않을 수 있습니다. 산행 전 공식 안내를 확인하세요.</desc>
    <time>2026-08-04T05:14:21.963Z</time>
    <link href="https://www.openstreetmap.org/copyright"><text>© OpenStreetMap contributors (ODbL 1.0)</text></link>
    <link href="https://registry.opendata.aws/terrain-tiles/"><text>Elevation: SRTM 1 arc-second (NASA/USGS) via AWS Terrain Tiles</text></link>
    <extensions>
      <k100:provenance>osm-routed</k100:provenance>
      <k100:not_a_recorded_track>true</k100:not_a_recorded_track>
      <k100:mountain_id>cheonmasan</k100:mountain_id>
      <k100:mountain_name>천마산</k100:mountain_name>
      <k100:route_id>cheonmasan-5f19b5ea</k100:route_id>
      <k100:route_index>2</k100:route_index>
      <k100:route_name>수진사 코스</k100:route_name>
      <k100:variant>0</k100:variant>
      <k100:source>OpenStreetMap via Overpass API</k100:source>
      <k100:license>ODbL-1.0</k100:license>
      <k100:attribution>© OpenStreetMap contributors</k100:attribution>
      <k100:elevation_source>SRTM 1 arc-second (NASA/USGS) — AWS Terrain Tiles 배포본. 지형 DEM 추정 고도이며 실측 아님</k100:elevation_source>
      <k100:algorithm>dijkstra-grid-v1</k100:algorithm>
      <k100:osm_snapshot>2026-08-04</k100:osm_snapshot>
      <k100:snap_trailhead_m>15</k100:snap_trailhead_m>
      <k100:snap_summit_m>96</k100:snap_summit_m>
      <k100:validation_score>93</k100:validation_score>
      <k100:validation_status>accepted</k100:validation_status>
    </extensions>
  </metadata>
  <trk>
    <name>천마산 · 수진사 코스 (OSM 계산 경로)</name>
    <desc>실제 GPS 기록이 아닙니다. OpenStreetMap에 등록된 등산로 선형 위에서 계산한 경로이며, 현장 통제·훼손·출입 제한·계절 통제를 반영하지 않을 수 있습니다. 산행 전 공식 안내를 확인하세요.</desc>
    <trkseg>
      <trkpt lat="37.656687" lon="127.243637"><ele>121.1</ele></trkpt>
      <trkpt lat="37.657677" lon="127.243604"><ele>128.0</ele></trkpt>
      <trkpt lat="37.657701" lon="127.243786"><ele>126.6</ele></trkpt>
      <trkpt lat="37.658362" lon="127.244585"><ele>126.0</ele></trkpt>
      <trkpt lat="37.658832" lon="127.245341"><ele>126.0</ele></trkpt>
      <trkpt lat="37.659379" lon="127.246668"><ele>127.2</ele></trkpt>
      <trkpt lat="37.659602" lon="127.246803"><ele>127.8</ele></trkpt>
      <trkpt lat="37.659537" lon="127.246915"><ele>127.9</ele></trkpt>
      <trkpt lat="37.661947" lon="127.248201"><ele>138.0</ele></trkpt>
      <trkpt lat="37.662500" lon="127.248388"><ele>139.2</ele></trkpt>
      <trkpt lat="37.662901" lon="127.248368"><ele>140.8</ele></trkpt>
      <trkpt lat="37.663306" lon="127.248506"><ele>141.9</ele></trkpt>
      <trkpt lat="37.664483" lon="127.249612"><ele>150.5</ele></trkpt>
      <trkpt lat="37.664582" lon="127.249886"><ele>155.7</ele></trkpt>
      <trkpt lat="37.664663" lon="127.249827"><ele>157.1</ele></trkpt>
      <trkpt lat="37.664952" lon="127.249918"><ele>165.1</ele></trkpt>
      <trkpt lat="37.665775" lon="127.250508"><ele>179.4</ele></trkpt>
      <trkpt lat="37.666599" lon="127.251474"><ele>204.9</ele></trkpt>
      <trkpt lat="37.667015" lon="127.251474"><ele>210.2</ele></trkpt>
      <trkpt lat="37.667550" lon="127.251806"><ele>217.6</ele></trkpt>
      <trkpt lat="37.668247" lon="127.251871"><ele>216.1</ele></trkpt>
      <trkpt lat="37.669215" lon="127.253104"><ele>224.9</ele></trkpt>
      <trkpt lat="37.669291" lon="127.253523"><ele>224.4</ele></trkpt>
      <trkpt lat="37.669673" lon="127.254059"><ele>232.2</ele></trkpt>
      <trkpt lat="37.669716" lon="127.254478"><ele>236.7</ele></trkpt>
      <trkpt lat="37.670005" lon="127.254800"><ele>240.4</ele></trkpt>
      <trkpt lat="37.670531" lon="127.254821"><ele>253.0</ele></trkpt>
      <trkpt lat="37.670709" lon="127.254907"><ele>258.5</ele></trkpt>
      <trkpt lat="37.670990" lon="127.255400"><ele>266.1</ele></trkpt>
      <trkpt lat="37.671134" lon="127.255948"><ele>273.7</ele></trkpt>
      <trkpt lat="37.671278" lon="127.256108"><ele>277.8</ele></trkpt>
      <trkpt lat="37.671448" lon="127.256784"><ele>301.8</ele></trkpt>
      <trkpt lat="37.671706" lon="127.257025"><ele>308.4</ele></trkpt>
      <trkpt lat="37.671597" lon="127.257124"><ele>309.6</ele></trkpt>
      <trkpt lat="37.671576" lon="127.257279"><ele>311.0</ele></trkpt>
      <trkpt lat="37.672250" lon="127.257852"><ele>314.0</ele></trkpt>
      <trkpt lat="37.672339" lon="127.257857"><ele>315.0</ele></trkpt>
      <trkpt lat="37.672674" lon="127.258109"><ele>319.4</ele></trkpt>
      <trkpt lat="37.672856" lon="127.258729"><ele>330.1</ele></trkpt>
      <trkpt lat="37.673060" lon="127.258926"><ele>342.4</ele></trkpt>
      <trkpt lat="37.672888" lon="127.259349"><ele>350.9</ele></trkpt>
      <trkpt lat="37.673193" lon="127.259982"><ele>374.1</ele></trkpt>
      <trkpt lat="37.674038" lon="127.261344"><ele>427.4</ele></trkpt>
      <trkpt lat="37.674374" lon="127.262025"><ele>441.6</ele></trkpt>
      <trkpt lat="37.674480" lon="127.262428"><ele>444.4</ele></trkpt>
      <trkpt lat="37.674344" lon="127.263731"><ele>461.3</ele></trkpt>
      <trkpt lat="37.674429" lon="127.263994"><ele>472.6</ele></trkpt>
      <trkpt lat="37.674068" lon="127.264846"><ele>485.7</ele></trkpt>
      <trkpt lat="37.674406" lon="127.265061"><ele>486.4</ele></trkpt>
      <trkpt lat="37.674892" lon="127.265700"><ele>488.2</ele></trkpt>
      <trkpt lat="37.675395" lon="127.266117"><ele>494.5</ele></trkpt>
      <trkpt lat="37.675643" lon="127.266494"><ele>490.5</ele></trkpt>
      <trkpt lat="37.676297" lon="127.266961"><ele>491.5</ele></trkpt>
      <trkpt lat="37.676637" lon="127.267385"><ele>514.5</ele></trkpt>
      <trkpt lat="37.676741" lon="127.267383"><ele>520.8</ele></trkpt>
      <trkpt lat="37.677039" lon="127.267544"><ele>541.9</ele></trkpt>
      <trkpt lat="37.677414" lon="127.267862"><ele>578.3</ele></trkpt>
      <trkpt lat="37.677783" lon="127.268290"><ele>609.4</ele></trkpt>
      <trkpt lat="37.677766" lon="127.268726"><ele>622.6</ele></trkpt>
      <trkpt lat="37.678109" lon="127.269588"><ele>648.5</ele></trkpt>
      <trkpt lat="37.678155" lon="127.270232"><ele>677.0</ele></trkpt>
      <trkpt lat="37.678244" lon="127.270528"><ele>688.4</ele></trkpt>
      <trkpt lat="37.678365" lon="127.270732"><ele>697.3</ele></trkpt>
      <trkpt lat="37.678475" lon="127.271124"><ele>710.9</ele></trkpt>
      <trkpt lat="37.678879" lon="127.271660"><ele>745.3</ele></trkpt>
      <trkpt lat="37.679086" lon="127.272065"><ele>772.1</ele></trkpt>
      <trkpt lat="37.679299" lon="127.272261"><ele>785.9</ele></trkpt>
      <trkpt lat="37.679597" lon="127.272383"><ele>790.6</ele></trkpt>
      <trkpt lat="37.679511" lon="127.272046"><ele>790.1</ele></trkpt>
      <trkpt lat="37.679599" lon="127.271895"><ele>785.5</ele></trkpt>
      <trkpt lat="37.679694" lon="127.271372"><ele>756.2</ele></trkpt>
      <trkpt lat="37.679554" lon="127.271201"><ele>749.1</ele></trkpt>
      <trkpt lat="37.679572" lon="127.270917"><ele>738.4</ele></trkpt>
      <trkpt lat="37.679677" lon="127.270729"><ele>731.2</ele></trkpt>
      <trkpt lat="37.679804" lon="127.270775"><ele>732.8</ele></trkpt>
      <trkpt lat="37.679929" lon="127.270726"><ele>727.8</ele></trkpt>
      <trkpt lat="37.680055" lon="127.270568"><ele>717.0</ele></trkpt>
    </trkseg>
  </trk>
</gpx>
