<?xml version="1.0" encoding="UTF-8"?>
<gpx version="1.1" creator="kr-100-mountains route-harvester"
     xmlns="http://www.topografix.com/GPX/1/1"
     xmlns:k100="https://github.com/jay-jang/kr-100-mountains/ns/1"
     xmlns:xsi="http://www.w3.org/2001/XMLSchema-instance"
     xsi:schemaLocation="http://www.topografix.com/GPX/1/1 http://www.topografix.com/GPX/1/1/gpx.xsd">
  <metadata>
    <name>천마산 · 수진사 코스 (대안 1) (OSM 계산 경로)</name>
    <desc>실제 GPS 기록이 아닙니다. OpenStreetMap에 등록된 등산로 선형 위에서 계산한 경로이며, 현장 통제·훼손·출입 제한·계절 통제를 반영하지 않을 수 있습니다. 산행 전 공식 안내를 확인하세요.</desc>
    <time>2026-08-04T05:14:21.963Z</time>
    <link href="https://www.openstreetmap.org/copyright"><text>© OpenStreetMap contributors (ODbL 1.0)</text></link>
    <link href="https://registry.opendata.aws/terrain-tiles/"><text>Elevation: SRTM 1 arc-second (NASA/USGS) via AWS Terrain Tiles</text></link>
    <extensions>
      <k100:provenance>osm-routed</k100:provenance>
      <k100:not_a_recorded_track>true</k100:not_a_recorded_track>
      <k100:mountain_id>cheonmasan</k100:mountain_id>
      <k100:mountain_name>천마산</k100:mountain_name>
      <k100:route_id>cheonmasan-5f19b5ea</k100:route_id>
      <k100:route_index>2</k100:route_index>
      <k100:route_name>수진사 코스</k100:route_name>
      <k100:variant>1</k100:variant>
      <k100:source>OpenStreetMap via Overpass API</k100:source>
      <k100:license>ODbL-1.0</k100:license>
      <k100:attribution>© OpenStreetMap contributors</k100:attribution>
      <k100:elevation_source>SRTM 1 arc-second (NASA/USGS) — AWS Terrain Tiles 배포본. 지형 DEM 추정 고도이며 실측 아님</k100:elevation_source>
      <k100:algorithm>dijkstra-grid-v1</k100:algorithm>
      <k100:osm_snapshot>2026-08-04</k100:osm_snapshot>
      <k100:snap_trailhead_m>15</k100:snap_trailhead_m>
      <k100:snap_summit_m>96</k100:snap_summit_m>
      <k100:validation_score>75</k100:validation_score>
      <k100:validation_status>review</k100:validation_status>
    </extensions>
  </metadata>
  <trk>
    <name>천마산 · 수진사 코스 (대안 1) (OSM 계산 경로)</name>
    <desc>실제 GPS 기록이 아닙니다. OpenStreetMap에 등록된 등산로 선형 위에서 계산한 경로이며, 현장 통제·훼손·출입 제한·계절 통제를 반영하지 않을 수 있습니다. 산행 전 공식 안내를 확인하세요.</desc>
    <trkseg>
      <trkpt lat="37.656687" lon="127.243637"><ele>121.1</ele></trkpt>
      <trkpt lat="37.656683" lon="127.243014"><ele>121.6</ele></trkpt>
      <trkpt lat="37.656345" lon="127.242521"><ele>120.4</ele></trkpt>
      <trkpt lat="37.655840" lon="127.242503"><ele>117.0</ele></trkpt>
      <trkpt lat="37.655836" lon="127.241948"><ele>119.0</ele></trkpt>
      <trkpt lat="37.655994" lon="127.241830"><ele>122.5</ele></trkpt>
      <trkpt lat="37.657519" lon="127.243842"><ele>125.3</ele></trkpt>
      <trkpt lat="37.658237" lon="127.244627"><ele>125.8</ele></trkpt>
      <trkpt lat="37.658688" lon="127.245374"><ele>126.0</ele></trkpt>
      <trkpt lat="37.659235" lon="127.246683"><ele>127.8</ele></trkpt>
      <trkpt lat="37.659537" lon="127.246915"><ele>127.9</ele></trkpt>
      <trkpt lat="37.659388" lon="127.246894"><ele>128.0</ele></trkpt>
      <trkpt lat="37.659602" lon="127.246803"><ele>127.8</ele></trkpt>
      <trkpt lat="37.661720" lon="127.247960"><ele>136.4</ele></trkpt>
      <trkpt lat="37.662005" lon="127.248064"><ele>138.2</ele></trkpt>
      <trkpt lat="37.662709" lon="127.247784"><ele>145.7</ele></trkpt>
      <trkpt lat="37.663129" lon="127.247796"><ele>150.1</ele></trkpt>
      <trkpt lat="37.664046" lon="127.247981"><ele>143.8</ele></trkpt>
      <trkpt lat="37.664256" lon="127.247914"><ele>145.0</ele></trkpt>
      <trkpt lat="37.664546" lon="127.247713"><ele>144.0</ele></trkpt>
      <trkpt lat="37.665642" lon="127.247364"><ele>149.3</ele></trkpt>
      <trkpt lat="37.665957" lon="127.247389"><ele>150.8</ele></trkpt>
      <trkpt lat="37.666936" lon="127.248118"><ele>157.2</ele></trkpt>
      <trkpt lat="37.667059" lon="127.248104"><ele>158.1</ele></trkpt>
      <trkpt lat="37.667324" lon="127.248199"><ele>160.6</ele></trkpt>
      <trkpt lat="37.667570" lon="127.247620"><ele>167.5</ele></trkpt>
      <trkpt lat="37.667671" lon="127.247496"><ele>170.5</ele></trkpt>
      <trkpt lat="37.667804" lon="127.247503"><ele>172.4</ele></trkpt>
      <trkpt lat="37.668081" lon="127.247696"><ele>179.5</ele></trkpt>
      <trkpt lat="37.668464" lon="127.248072"><ele>183.1</ele></trkpt>
      <trkpt lat="37.669181" lon="127.248130"><ele>192.9</ele></trkpt>
      <trkpt lat="37.669453" lon="127.247776"><ele>200.9</ele></trkpt>
      <trkpt lat="37.669682" lon="127.247789"><ele>198.3</ele></trkpt>
      <trkpt lat="37.669939" lon="127.247424"><ele>199.8</ele></trkpt>
      <trkpt lat="37.670056" lon="127.247342"><ele>202.1</ele></trkpt>
      <trkpt lat="37.670209" lon="127.247386"><ele>207.5</ele></trkpt>
      <trkpt lat="37.670385" lon="127.247573"><ele>213.2</ele></trkpt>
      <trkpt lat="37.671634" lon="127.249380"><ele>215.7</ele></trkpt>
      <trkpt lat="37.671664" lon="127.249553"><ele>215.5</ele></trkpt>
      <trkpt lat="37.671614" lon="127.249689"><ele>213.4</ele></trkpt>
      <trkpt lat="37.670725" lon="127.250606"><ele>188.6</ele></trkpt>
      <trkpt lat="37.670858" lon="127.250700"><ele>190.0</ele></trkpt>
      <trkpt lat="37.670271" lon="127.251309"><ele>180.5</ele></trkpt>
      <trkpt lat="37.670278" lon="127.251423"><ele>179.9</ele></trkpt>
      <trkpt lat="37.670782" lon="127.251555"><ele>186.3</ele></trkpt>
      <trkpt lat="37.670935" lon="127.251765"><ele>191.5</ele></trkpt>
      <trkpt lat="37.670982" lon="127.252010"><ele>191.9</ele></trkpt>
      <trkpt lat="37.671085" lon="127.252141"><ele>194.3</ele></trkpt>
      <trkpt lat="37.671540" lon="127.252431"><ele>200.6</ele></trkpt>
      <trkpt lat="37.671598" lon="127.252555"><ele>200.8</ele></trkpt>
      <trkpt lat="37.671568" lon="127.252836"><ele>200.0</ele></trkpt>
      <trkpt lat="37.671640" lon="127.253057"><ele>200.5</ele></trkpt>
      <trkpt lat="37.672473" lon="127.253977"><ele>207.4</ele></trkpt>
      <trkpt lat="37.672970" lon="127.255240"><ele>227.6</ele></trkpt>
      <trkpt lat="37.673123" lon="127.255327"><ele>226.4</ele></trkpt>
      <trkpt lat="37.673424" lon="127.255341"><ele>225.9</ele></trkpt>
      <trkpt lat="37.673397" lon="127.255553"><ele>228.0</ele></trkpt>
      <trkpt lat="37.673470" lon="127.255703"><ele>230.4</ele></trkpt>
      <trkpt lat="37.674266" lon="127.256537"><ele>243.1</ele></trkpt>
      <trkpt lat="37.674618" lon="127.257173"><ele>251.5</ele></trkpt>
      <trkpt lat="37.674701" lon="127.257236"><ele>252.8</ele></trkpt>
      <trkpt lat="37.674822" lon="127.257205"><ele>251.3</ele></trkpt>
      <trkpt lat="37.674939" lon="127.257254"><ele>252.2</ele></trkpt>
      <trkpt lat="37.675246" lon="127.257589"><ele>261.5</ele></trkpt>
      <trkpt lat="37.675746" lon="127.258310"><ele>275.6</ele></trkpt>
      <trkpt lat="37.675889" lon="127.258230"><ele>275.5</ele></trkpt>
      <trkpt lat="37.676127" lon="127.258563"><ele>280.2</ele></trkpt>
      <trkpt lat="37.676500" lon="127.258891"><ele>285.4</ele></trkpt>
      <trkpt lat="37.676652" lon="127.259150"><ele>288.8</ele></trkpt>
      <trkpt lat="37.676848" lon="127.259312"><ele>295.4</ele></trkpt>
      <trkpt lat="37.676996" lon="127.259571"><ele>300.8</ele></trkpt>
      <trkpt lat="37.677939" lon="127.260473"><ele>331.3</ele></trkpt>
      <trkpt lat="37.678102" lon="127.260751"><ele>336.3</ele></trkpt>
      <trkpt lat="37.678336" lon="127.261002"><ele>342.9</ele></trkpt>
      <trkpt lat="37.678670" lon="127.261192"><ele>351.1</ele></trkpt>
      <trkpt lat="37.678956" lon="127.261431"><ele>360.2</ele></trkpt>
      <trkpt lat="37.679172" lon="127.261716"><ele>366.3</ele></trkpt>
      <trkpt lat="37.679723" lon="127.261791"><ele>377.7</ele></trkpt>
      <trkpt lat="37.680061" lon="127.261945"><ele>390.3</ele></trkpt>
      <trkpt lat="37.680140" lon="127.262074"><ele>393.4</ele></trkpt>
      <trkpt lat="37.680203" lon="127.262508"><ele>399.9</ele></trkpt>
      <trkpt lat="37.680479" lon="127.262803"><ele>413.0</ele></trkpt>
      <trkpt lat="37.680636" lon="127.262830"><ele>420.3</ele></trkpt>
      <trkpt lat="37.680942" lon="127.262691"><ele>427.3</ele></trkpt>
      <trkpt lat="37.681361" lon="127.262649"><ele>434.4</ele></trkpt>
      <trkpt lat="37.681691" lon="127.263233"><ele>452.9</ele></trkpt>
      <trkpt lat="37.681579" lon="127.263522"><ele>460.8</ele></trkpt>
      <trkpt lat="37.681467" lon="127.264315"><ele>486.5</ele></trkpt>
      <trkpt lat="37.681356" lon="127.264429"><ele>490.9</ele></trkpt>
      <trkpt lat="37.681271" lon="127.264667"><ele>500.8</ele></trkpt>
      <trkpt lat="37.681282" lon="127.264807"><ele>506.1</ele></trkpt>
      <trkpt lat="37.681180" lon="127.265086"><ele>518.8</ele></trkpt>
      <trkpt lat="37.681158" lon="127.265306"><ele>528.3</ele></trkpt>
      <trkpt lat="37.681037" lon="127.265499"><ele>531.2</ele></trkpt>
      <trkpt lat="37.681042" lon="127.265651"><ele>535.0</ele></trkpt>
      <trkpt lat="37.681260" lon="127.266068"><ele>556.3</ele></trkpt>
      <trkpt lat="37.681424" lon="127.266186"><ele>564.2</ele></trkpt>
      <trkpt lat="37.681604" lon="127.266682"><ele>583.3</ele></trkpt>
      <trkpt lat="37.681613" lon="127.266840"><ele>587.9</ele></trkpt>
      <trkpt lat="37.681765" lon="127.267194"><ele>595.9</ele></trkpt>
      <trkpt lat="37.681687" lon="127.267374"><ele>602.4</ele></trkpt>
      <trkpt lat="37.681557" lon="127.267414"><ele>605.8</ele></trkpt>
      <trkpt lat="37.681520" lon="127.267684"><ele>613.9</ele></trkpt>
      <trkpt lat="37.681184" lon="127.268221"><ele>624.8</ele></trkpt>
      <trkpt lat="37.681138" lon="127.268901"><ele>642.0</ele></trkpt>
      <trkpt lat="37.681075" lon="127.269088"><ele>649.3</ele></trkpt>
      <trkpt lat="37.680803" lon="127.269479"><ele>665.3</ele></trkpt>
      <trkpt lat="37.680732" lon="127.269705"><ele>672.8</ele></trkpt>
      <trkpt lat="37.680469" lon="127.270008"><ele>685.5</ele></trkpt>
      <trkpt lat="37.680267" lon="127.270061"><ele>688.7</ele></trkpt>
      <trkpt lat="37.680198" lon="127.270322"><ele>700.8</ele></trkpt>
      <trkpt lat="37.680055" lon="127.270568"><ele>717.0</ele></trkpt>
    </trkseg>
  </trk>
</gpx>
