<?xml version="1.0" encoding="UTF-8"?>
<gpx version="1.1" creator="kr-100-mountains route-harvester"
     xmlns="http://www.topografix.com/GPX/1/1"
     xmlns:k100="https://github.com/jay-jang/kr-100-mountains/ns/1"
     xmlns:xsi="http://www.w3.org/2001/XMLSchema-instance"
     xsi:schemaLocation="http://www.topografix.com/GPX/1/1 http://www.topografix.com/GPX/1/1/gpx.xsd">
  <metadata>
    <name>천마산 · 천마산관리소-깔딱고개-뾰족봉-천마산 정상 (OSM 계산 경로)</name>
    <desc>실제 GPS 기록이 아닙니다. OpenStreetMap에 등록된 등산로 선형 위에서 계산한 경로이며, 현장 통제·훼손·출입 제한·계절 통제를 반영하지 않을 수 있습니다. 산행 전 공식 안내를 확인하세요.</desc>
    <time>2026-08-04T05:14:22.004Z</time>
    <link href="https://www.openstreetmap.org/copyright"><text>© OpenStreetMap contributors (ODbL 1.0)</text></link>
    <link href="https://registry.opendata.aws/terrain-tiles/"><text>Elevation: SRTM 1 arc-second (NASA/USGS) via AWS Terrain Tiles</text></link>
    <extensions>
      <k100:provenance>osm-routed</k100:provenance>
      <k100:not_a_recorded_track>true</k100:not_a_recorded_track>
      <k100:mountain_id>cheonmasan</k100:mountain_id>
      <k100:mountain_name>천마산</k100:mountain_name>
      <k100:route_id>cheonmasan-9268ff04</k100:route_id>
      <k100:route_index>3</k100:route_index>
      <k100:route_name>천마산관리소-깔딱고개-뾰족봉-천마산 정상</k100:route_name>
      <k100:variant>0</k100:variant>
      <k100:source>OpenStreetMap via Overpass API</k100:source>
      <k100:license>ODbL-1.0</k100:license>
      <k100:attribution>© OpenStreetMap contributors</k100:attribution>
      <k100:elevation_source>SRTM 1 arc-second (NASA/USGS) — AWS Terrain Tiles 배포본. 지형 DEM 추정 고도이며 실측 아님</k100:elevation_source>
      <k100:algorithm>dijkstra-grid-v1</k100:algorithm>
      <k100:osm_snapshot>2026-08-04</k100:osm_snapshot>
      <k100:snap_trailhead_m>29</k100:snap_trailhead_m>
      <k100:snap_summit_m>96</k100:snap_summit_m>
      <k100:validation_score>93</k100:validation_score>
      <k100:validation_status>accepted</k100:validation_status>
    </extensions>
  </metadata>
  <trk>
    <name>천마산 · 천마산관리소-깔딱고개-뾰족봉-천마산 정상 (OSM 계산 경로)</name>
    <desc>실제 GPS 기록이 아닙니다. OpenStreetMap에 등록된 등산로 선형 위에서 계산한 경로이며, 현장 통제·훼손·출입 제한·계절 통제를 반영하지 않을 수 있습니다. 산행 전 공식 안내를 확인하세요.</desc>
    <trkseg>
      <trkpt lat="37.666380" lon="127.290377"><ele>178.9</ele></trkpt>
      <trkpt lat="37.666467" lon="127.289706"><ele>196.4</ele></trkpt>
      <trkpt lat="37.666880" lon="127.288615"><ele>217.3</ele></trkpt>
      <trkpt lat="37.666958" lon="127.288166"><ele>220.9</ele></trkpt>
      <trkpt lat="37.667402" lon="127.287503"><ele>229.8</ele></trkpt>
      <trkpt lat="37.667728" lon="127.287202"><ele>235.7</ele></trkpt>
      <trkpt lat="37.667924" lon="127.286915"><ele>241.0</ele></trkpt>
      <trkpt lat="37.668050" lon="127.286573"><ele>250.2</ele></trkpt>
      <trkpt lat="37.668809" lon="127.286162"><ele>272.0</ele></trkpt>
      <trkpt lat="37.669075" lon="127.285635"><ele>271.6</ele></trkpt>
      <trkpt lat="37.669723" lon="127.284986"><ele>297.1</ele></trkpt>
      <trkpt lat="37.670067" lon="127.284538"><ele>312.2</ele></trkpt>
      <trkpt lat="37.670439" lon="127.284219"><ele>326.1</ele></trkpt>
      <trkpt lat="37.670760" lon="127.284057"><ele>333.4</ele></trkpt>
      <trkpt lat="37.670919" lon="127.283817"><ele>333.3</ele></trkpt>
      <trkpt lat="37.670907" lon="127.283338"><ele>333.1</ele></trkpt>
      <trkpt lat="37.671005" lon="127.283047"><ele>339.7</ele></trkpt>
      <trkpt lat="37.671259" lon="127.282595"><ele>352.0</ele></trkpt>
      <trkpt lat="37.671408" lon="127.281612"><ele>367.6</ele></trkpt>
      <trkpt lat="37.671768" lon="127.281161"><ele>373.4</ele></trkpt>
      <trkpt lat="37.672651" lon="127.281124"><ele>398.4</ele></trkpt>
      <trkpt lat="37.673212" lon="127.280871"><ele>424.8</ele></trkpt>
      <trkpt lat="37.673545" lon="127.280905"><ele>440.3</ele></trkpt>
      <trkpt lat="37.673641" lon="127.280781"><ele>445.3</ele></trkpt>
      <trkpt lat="37.673898" lon="127.280877"><ele>457.2</ele></trkpt>
      <trkpt lat="37.674214" lon="127.280882"><ele>466.7</ele></trkpt>
      <trkpt lat="37.674309" lon="127.280723"><ele>468.7</ele></trkpt>
      <trkpt lat="37.674388" lon="127.280462"><ele>472.7</ele></trkpt>
      <trkpt lat="37.674368" lon="127.279776"><ele>488.8</ele></trkpt>
      <trkpt lat="37.674493" lon="127.279133"><ele>512.0</ele></trkpt>
      <trkpt lat="37.674642" lon="127.278813"><ele>526.1</ele></trkpt>
      <trkpt lat="37.674615" lon="127.278564"><ele>533.6</ele></trkpt>
      <trkpt lat="37.674839" lon="127.278298"><ele>550.3</ele></trkpt>
      <trkpt lat="37.674860" lon="127.278057"><ele>557.9</ele></trkpt>
      <trkpt lat="37.675025" lon="127.277947"><ele>565.4</ele></trkpt>
      <trkpt lat="37.675108" lon="127.277590"><ele>575.0</ele></trkpt>
      <trkpt lat="37.675085" lon="127.276709"><ele>598.9</ele></trkpt>
      <trkpt lat="37.675125" lon="127.276727"><ele>598.5</ele></trkpt>
      <trkpt lat="37.675156" lon="127.276469"><ele>601.7</ele></trkpt>
      <trkpt lat="37.675297" lon="127.276174"><ele>609.8</ele></trkpt>
      <trkpt lat="37.675276" lon="127.275906"><ele>617.1</ele></trkpt>
      <trkpt lat="37.675313" lon="127.275636"><ele>626.1</ele></trkpt>
      <trkpt lat="37.675414" lon="127.275656"><ele>629.6</ele></trkpt>
      <trkpt lat="37.675570" lon="127.275159"><ele>649.7</ele></trkpt>
      <trkpt lat="37.675665" lon="127.275183"><ele>650.9</ele></trkpt>
      <trkpt lat="37.675714" lon="127.275066"><ele>653.5</ele></trkpt>
      <trkpt lat="37.675662" lon="127.274862"><ele>652.2</ele></trkpt>
      <trkpt lat="37.675747" lon="127.274667"><ele>652.8</ele></trkpt>
      <trkpt lat="37.675754" lon="127.274535"><ele>648.8</ele></trkpt>
      <trkpt lat="37.675824" lon="127.274498"><ele>650.3</ele></trkpt>
      <trkpt lat="37.675976" lon="127.274167"><ele>647.2</ele></trkpt>
      <trkpt lat="37.676051" lon="127.274086"><ele>650.8</ele></trkpt>
      <trkpt lat="37.676171" lon="127.274074"><ele>655.6</ele></trkpt>
      <trkpt lat="37.676251" lon="127.273858"><ele>656.2</ele></trkpt>
      <trkpt lat="37.676557" lon="127.273488"><ele>666.2</ele></trkpt>
      <trkpt lat="37.677155" lon="127.273133"><ele>687.4</ele></trkpt>
      <trkpt lat="37.677162" lon="127.273083"><ele>689.6</ele></trkpt>
      <trkpt lat="37.677072" lon="127.273017"><ele>688.6</ele></trkpt>
      <trkpt lat="37.677228" lon="127.272856"><ele>695.1</ele></trkpt>
      <trkpt lat="37.677320" lon="127.272897"><ele>697.3</ele></trkpt>
      <trkpt lat="37.677522" lon="127.272867"><ele>704.3</ele></trkpt>
      <trkpt lat="37.677594" lon="127.272770"><ele>708.9</ele></trkpt>
      <trkpt lat="37.678023" lon="127.272475"><ele>716.7</ele></trkpt>
      <trkpt lat="37.678214" lon="127.272473"><ele>724.6</ele></trkpt>
      <trkpt lat="37.678550" lon="127.272218"><ele>741.3</ele></trkpt>
      <trkpt lat="37.678685" lon="127.272234"><ele>748.7</ele></trkpt>
      <trkpt lat="37.679016" lon="127.272079"><ele>767.0</ele></trkpt>
      <trkpt lat="37.679086" lon="127.272065"><ele>772.1</ele></trkpt>
      <trkpt lat="37.679299" lon="127.272261"><ele>785.9</ele></trkpt>
      <trkpt lat="37.679597" lon="127.272383"><ele>790.6</ele></trkpt>
      <trkpt lat="37.679511" lon="127.272046"><ele>790.1</ele></trkpt>
      <trkpt lat="37.679599" lon="127.271895"><ele>785.5</ele></trkpt>
      <trkpt lat="37.679694" lon="127.271372"><ele>756.2</ele></trkpt>
      <trkpt lat="37.679554" lon="127.271201"><ele>749.1</ele></trkpt>
      <trkpt lat="37.679572" lon="127.270917"><ele>738.4</ele></trkpt>
      <trkpt lat="37.679677" lon="127.270729"><ele>731.2</ele></trkpt>
      <trkpt lat="37.679804" lon="127.270775"><ele>732.8</ele></trkpt>
      <trkpt lat="37.679929" lon="127.270726"><ele>727.8</ele></trkpt>
      <trkpt lat="37.680055" lon="127.270568"><ele>717.0</ele></trkpt>
    </trkseg>
  </trk>
</gpx>
