<?xml version="1.0" encoding="UTF-8"?>
<gpx version="1.1" creator="kr-100-mountains route-harvester"
     xmlns="http://www.topografix.com/GPX/1/1"
     xmlns:k100="https://github.com/jay-jang/kr-100-mountains/ns/1"
     xmlns:xsi="http://www.w3.org/2001/XMLSchema-instance"
     xsi:schemaLocation="http://www.topografix.com/GPX/1/1 http://www.topografix.com/GPX/1/1/gpx.xsd">
  <metadata>
    <name>천마산 · 천마의집 코스 (대안 1) (OSM 계산 경로)</name>
    <desc>실제 GPS 기록이 아닙니다. OpenStreetMap에 등록된 등산로 선형 위에서 계산한 경로이며, 현장 통제·훼손·출입 제한·계절 통제를 반영하지 않을 수 있습니다. 산행 전 공식 안내를 확인하세요.</desc>
    <time>2026-08-04T05:14:21.911Z</time>
    <link href="https://www.openstreetmap.org/copyright"><text>© OpenStreetMap contributors (ODbL 1.0)</text></link>
    <link href="https://registry.opendata.aws/terrain-tiles/"><text>Elevation: SRTM 1 arc-second (NASA/USGS) via AWS Terrain Tiles</text></link>
    <extensions>
      <k100:provenance>osm-routed</k100:provenance>
      <k100:not_a_recorded_track>true</k100:not_a_recorded_track>
      <k100:mountain_id>cheonmasan</k100:mountain_id>
      <k100:mountain_name>천마산</k100:mountain_name>
      <k100:route_id>cheonmasan-601691d2</k100:route_id>
      <k100:route_index>1</k100:route_index>
      <k100:route_name>천마의집 코스</k100:route_name>
      <k100:variant>1</k100:variant>
      <k100:source>OpenStreetMap via Overpass API</k100:source>
      <k100:license>ODbL-1.0</k100:license>
      <k100:attribution>© OpenStreetMap contributors</k100:attribution>
      <k100:elevation_source>SRTM 1 arc-second (NASA/USGS) — AWS Terrain Tiles 배포본. 지형 DEM 추정 고도이며 실측 아님</k100:elevation_source>
      <k100:algorithm>dijkstra-grid-v1</k100:algorithm>
      <k100:osm_snapshot>2026-08-04</k100:osm_snapshot>
      <k100:snap_trailhead_m>73</k100:snap_trailhead_m>
      <k100:snap_summit_m>96</k100:snap_summit_m>
      <k100:validation_score>84</k100:validation_score>
      <k100:validation_status>accepted</k100:validation_status>
    </extensions>
  </metadata>
  <trk>
    <name>천마산 · 천마의집 코스 (대안 1) (OSM 계산 경로)</name>
    <desc>실제 GPS 기록이 아닙니다. OpenStreetMap에 등록된 등산로 선형 위에서 계산한 경로이며, 현장 통제·훼손·출입 제한·계절 통제를 반영하지 않을 수 있습니다. 산행 전 공식 안내를 확인하세요.</desc>
    <trkseg>
      <trkpt lat="37.657448" lon="127.263471"><ele>229.7</ele></trkpt>
      <trkpt lat="37.657479" lon="127.263182"><ele>225.2</ele></trkpt>
      <trkpt lat="37.657433" lon="127.262996"><ele>220.3</ele></trkpt>
      <trkpt lat="37.657206" lon="127.262664"><ele>209.6</ele></trkpt>
      <trkpt lat="37.657055" lon="127.262334"><ele>199.8</ele></trkpt>
      <trkpt lat="37.656972" lon="127.262052"><ele>190.6</ele></trkpt>
      <trkpt lat="37.656983" lon="127.261910"><ele>187.1</ele></trkpt>
      <trkpt lat="37.656882" lon="127.261596"><ele>180.1</ele></trkpt>
      <trkpt lat="37.656818" lon="127.261536"><ele>178.3</ele></trkpt>
      <trkpt lat="37.656817" lon="127.261297"><ele>176.6</ele></trkpt>
      <trkpt lat="37.656929" lon="127.261122"><ele>177.8</ele></trkpt>
      <trkpt lat="37.658106" lon="127.259813"><ele>179.6</ele></trkpt>
      <trkpt lat="37.658543" lon="127.259429"><ele>181.1</ele></trkpt>
      <trkpt lat="37.658717" lon="127.258882"><ele>181.1</ele></trkpt>
      <trkpt lat="37.659240" lon="127.258206"><ele>188.6</ele></trkpt>
      <trkpt lat="37.660552" lon="127.255690"><ele>190.4</ele></trkpt>
      <trkpt lat="37.660609" lon="127.255710"><ele>192.8</ele></trkpt>
      <trkpt lat="37.660610" lon="127.255830"><ele>193.4</ele></trkpt>
      <trkpt lat="37.660729" lon="127.256168"><ele>198.3</ele></trkpt>
      <trkpt lat="37.661267" lon="127.256434"><ele>220.2</ele></trkpt>
      <trkpt lat="37.661436" lon="127.256571"><ele>226.7</ele></trkpt>
      <trkpt lat="37.661855" lon="127.256538"><ele>240.4</ele></trkpt>
      <trkpt lat="37.662034" lon="127.256353"><ele>245.8</ele></trkpt>
      <trkpt lat="37.662044" lon="127.256255"><ele>246.5</ele></trkpt>
      <trkpt lat="37.661900" lon="127.256023"><ele>243.3</ele></trkpt>
      <trkpt lat="37.662023" lon="127.255850"><ele>245.8</ele></trkpt>
      <trkpt lat="37.661675" lon="127.255630"><ele>233.3</ele></trkpt>
      <trkpt lat="37.661348" lon="127.255325"><ele>219.5</ele></trkpt>
      <trkpt lat="37.661233" lon="127.255024"><ele>211.6</ele></trkpt>
      <trkpt lat="37.661161" lon="127.254616"><ele>203.1</ele></trkpt>
      <trkpt lat="37.661316" lon="127.252855"><ele>164.5</ele></trkpt>
      <trkpt lat="37.662485" lon="127.249044"><ele>140.0</ele></trkpt>
      <trkpt lat="37.662678" lon="127.248639"><ele>140.0</ele></trkpt>
      <trkpt lat="37.662901" lon="127.248368"><ele>140.8</ele></trkpt>
      <trkpt lat="37.663306" lon="127.248506"><ele>141.9</ele></trkpt>
      <trkpt lat="37.664483" lon="127.249612"><ele>150.5</ele></trkpt>
      <trkpt lat="37.664582" lon="127.249886"><ele>155.7</ele></trkpt>
      <trkpt lat="37.664663" lon="127.249827"><ele>157.1</ele></trkpt>
      <trkpt lat="37.664952" lon="127.249918"><ele>165.1</ele></trkpt>
      <trkpt lat="37.665775" lon="127.250508"><ele>179.4</ele></trkpt>
      <trkpt lat="37.666599" lon="127.251474"><ele>204.9</ele></trkpt>
      <trkpt lat="37.667015" lon="127.251474"><ele>210.2</ele></trkpt>
      <trkpt lat="37.667550" lon="127.251806"><ele>217.6</ele></trkpt>
      <trkpt lat="37.668247" lon="127.251871"><ele>216.1</ele></trkpt>
      <trkpt lat="37.669215" lon="127.253104"><ele>224.9</ele></trkpt>
      <trkpt lat="37.669291" lon="127.253523"><ele>224.4</ele></trkpt>
      <trkpt lat="37.669673" lon="127.254059"><ele>232.2</ele></trkpt>
      <trkpt lat="37.669716" lon="127.254478"><ele>236.7</ele></trkpt>
      <trkpt lat="37.670005" lon="127.254800"><ele>240.4</ele></trkpt>
      <trkpt lat="37.670531" lon="127.254821"><ele>253.0</ele></trkpt>
      <trkpt lat="37.670709" lon="127.254907"><ele>258.5</ele></trkpt>
      <trkpt lat="37.670990" lon="127.255400"><ele>266.1</ele></trkpt>
      <trkpt lat="37.671134" lon="127.255948"><ele>273.7</ele></trkpt>
      <trkpt lat="37.671278" lon="127.256108"><ele>277.8</ele></trkpt>
      <trkpt lat="37.671448" lon="127.256784"><ele>301.8</ele></trkpt>
      <trkpt lat="37.671706" lon="127.257025"><ele>308.4</ele></trkpt>
      <trkpt lat="37.671877" lon="127.256938"><ele>306.0</ele></trkpt>
      <trkpt lat="37.672294" lon="127.257290"><ele>307.5</ele></trkpt>
      <trkpt lat="37.672452" lon="127.257354"><ele>306.5</ele></trkpt>
      <trkpt lat="37.672631" lon="127.257389"><ele>304.8</ele></trkpt>
      <trkpt lat="37.672889" lon="127.257344"><ele>298.4</ele></trkpt>
      <trkpt lat="37.673062" lon="127.257583"><ele>301.1</ele></trkpt>
      <trkpt lat="37.673431" lon="127.257257"><ele>288.0</ele></trkpt>
      <trkpt lat="37.673491" lon="127.257399"><ele>290.3</ele></trkpt>
      <trkpt lat="37.673479" lon="127.257644"><ele>294.2</ele></trkpt>
      <trkpt lat="37.673765" lon="127.257867"><ele>292.0</ele></trkpt>
      <trkpt lat="37.673942" lon="127.257856"><ele>288.3</ele></trkpt>
      <trkpt lat="37.674366" lon="127.257645"><ele>274.2</ele></trkpt>
      <trkpt lat="37.674551" lon="127.257824"><ele>282.7</ele></trkpt>
      <trkpt lat="37.674791" lon="127.257801"><ele>279.2</ele></trkpt>
      <trkpt lat="37.675667" lon="127.258303"><ele>276.2</ele></trkpt>
      <trkpt lat="37.675889" lon="127.258230"><ele>275.5</ele></trkpt>
      <trkpt lat="37.676127" lon="127.258563"><ele>280.2</ele></trkpt>
      <trkpt lat="37.676500" lon="127.258891"><ele>285.4</ele></trkpt>
      <trkpt lat="37.676652" lon="127.259150"><ele>288.8</ele></trkpt>
      <trkpt lat="37.676848" lon="127.259312"><ele>295.4</ele></trkpt>
      <trkpt lat="37.676996" lon="127.259571"><ele>300.8</ele></trkpt>
      <trkpt lat="37.677939" lon="127.260473"><ele>331.3</ele></trkpt>
      <trkpt lat="37.678102" lon="127.260751"><ele>336.3</ele></trkpt>
      <trkpt lat="37.678336" lon="127.261002"><ele>342.9</ele></trkpt>
      <trkpt lat="37.678670" lon="127.261192"><ele>351.1</ele></trkpt>
      <trkpt lat="37.678956" lon="127.261431"><ele>360.2</ele></trkpt>
      <trkpt lat="37.679172" lon="127.261716"><ele>366.3</ele></trkpt>
      <trkpt lat="37.679723" lon="127.261791"><ele>377.7</ele></trkpt>
      <trkpt lat="37.680061" lon="127.261945"><ele>390.3</ele></trkpt>
      <trkpt lat="37.680140" lon="127.262074"><ele>393.4</ele></trkpt>
      <trkpt lat="37.680203" lon="127.262508"><ele>399.9</ele></trkpt>
      <trkpt lat="37.680479" lon="127.262803"><ele>413.0</ele></trkpt>
      <trkpt lat="37.680636" lon="127.262830"><ele>420.3</ele></trkpt>
      <trkpt lat="37.680942" lon="127.262691"><ele>427.3</ele></trkpt>
      <trkpt lat="37.681361" lon="127.262649"><ele>434.4</ele></trkpt>
      <trkpt lat="37.681691" lon="127.263233"><ele>452.9</ele></trkpt>
      <trkpt lat="37.681579" lon="127.263522"><ele>460.8</ele></trkpt>
      <trkpt lat="37.681467" lon="127.264315"><ele>486.5</ele></trkpt>
      <trkpt lat="37.681356" lon="127.264429"><ele>490.9</ele></trkpt>
      <trkpt lat="37.681271" lon="127.264667"><ele>500.8</ele></trkpt>
      <trkpt lat="37.681241" lon="127.264992"><ele>513.8</ele></trkpt>
      <trkpt lat="37.681180" lon="127.265086"><ele>518.8</ele></trkpt>
      <trkpt lat="37.681158" lon="127.265306"><ele>528.3</ele></trkpt>
      <trkpt lat="37.681037" lon="127.265499"><ele>531.2</ele></trkpt>
      <trkpt lat="37.681042" lon="127.265651"><ele>535.0</ele></trkpt>
      <trkpt lat="37.681260" lon="127.266068"><ele>556.3</ele></trkpt>
      <trkpt lat="37.681424" lon="127.266186"><ele>564.2</ele></trkpt>
      <trkpt lat="37.681604" lon="127.266682"><ele>583.3</ele></trkpt>
      <trkpt lat="37.681613" lon="127.266840"><ele>587.9</ele></trkpt>
      <trkpt lat="37.681765" lon="127.267194"><ele>595.9</ele></trkpt>
      <trkpt lat="37.681687" lon="127.267374"><ele>602.4</ele></trkpt>
      <trkpt lat="37.681557" lon="127.267414"><ele>605.8</ele></trkpt>
      <trkpt lat="37.681520" lon="127.267684"><ele>613.9</ele></trkpt>
      <trkpt lat="37.681184" lon="127.268221"><ele>624.8</ele></trkpt>
      <trkpt lat="37.681138" lon="127.268901"><ele>642.0</ele></trkpt>
      <trkpt lat="37.681075" lon="127.269088"><ele>649.3</ele></trkpt>
      <trkpt lat="37.680803" lon="127.269479"><ele>665.3</ele></trkpt>
      <trkpt lat="37.680732" lon="127.269705"><ele>672.8</ele></trkpt>
      <trkpt lat="37.680469" lon="127.270008"><ele>685.5</ele></trkpt>
      <trkpt lat="37.680267" lon="127.270061"><ele>688.7</ele></trkpt>
      <trkpt lat="37.680198" lon="127.270322"><ele>700.8</ele></trkpt>
      <trkpt lat="37.680055" lon="127.270568"><ele>717.0</ele></trkpt>
    </trkseg>
  </trk>
</gpx>
