<?xml version="1.0" encoding="UTF-8"?>
<gpx version="1.1" creator="kr-100-mountains route-harvester"
     xmlns="http://www.topografix.com/GPX/1/1"
     xmlns:k100="https://github.com/jay-jang/kr-100-mountains/ns/1"
     xmlns:xsi="http://www.w3.org/2001/XMLSchema-instance"
     xsi:schemaLocation="http://www.topografix.com/GPX/1/1 http://www.topografix.com/GPX/1/1/gpx.xsd">
  <metadata>
    <name>천마산 · 천마의집 코스 (OSM 계산 경로)</name>
    <desc>실제 GPS 기록이 아닙니다. OpenStreetMap에 등록된 등산로 선형 위에서 계산한 경로이며, 현장 통제·훼손·출입 제한·계절 통제를 반영하지 않을 수 있습니다. 산행 전 공식 안내를 확인하세요.</desc>
    <time>2026-08-04T05:14:21.910Z</time>
    <link href="https://www.openstreetmap.org/copyright"><text>© OpenStreetMap contributors (ODbL 1.0)</text></link>
    <link href="https://registry.opendata.aws/terrain-tiles/"><text>Elevation: SRTM 1 arc-second (NASA/USGS) via AWS Terrain Tiles</text></link>
    <extensions>
      <k100:provenance>osm-routed</k100:provenance>
      <k100:not_a_recorded_track>true</k100:not_a_recorded_track>
      <k100:mountain_id>cheonmasan</k100:mountain_id>
      <k100:mountain_name>천마산</k100:mountain_name>
      <k100:route_id>cheonmasan-601691d2</k100:route_id>
      <k100:route_index>1</k100:route_index>
      <k100:route_name>천마의집 코스</k100:route_name>
      <k100:variant>0</k100:variant>
      <k100:source>OpenStreetMap via Overpass API</k100:source>
      <k100:license>ODbL-1.0</k100:license>
      <k100:attribution>© OpenStreetMap contributors</k100:attribution>
      <k100:elevation_source>SRTM 1 arc-second (NASA/USGS) — AWS Terrain Tiles 배포본. 지형 DEM 추정 고도이며 실측 아님</k100:elevation_source>
      <k100:algorithm>dijkstra-grid-v1</k100:algorithm>
      <k100:osm_snapshot>2026-08-04</k100:osm_snapshot>
      <k100:snap_trailhead_m>73</k100:snap_trailhead_m>
      <k100:snap_summit_m>96</k100:snap_summit_m>
      <k100:validation_score>100</k100:validation_score>
      <k100:validation_status>accepted</k100:validation_status>
    </extensions>
  </metadata>
  <trk>
    <name>천마산 · 천마의집 코스 (OSM 계산 경로)</name>
    <desc>실제 GPS 기록이 아닙니다. OpenStreetMap에 등록된 등산로 선형 위에서 계산한 경로이며, 현장 통제·훼손·출입 제한·계절 통제를 반영하지 않을 수 있습니다. 산행 전 공식 안내를 확인하세요.</desc>
    <trkseg>
      <trkpt lat="37.657448" lon="127.263471"><ele>229.7</ele></trkpt>
      <trkpt lat="37.657477" lon="127.263597"><ele>232.9</ele></trkpt>
      <trkpt lat="37.657620" lon="127.263758"><ele>242.7</ele></trkpt>
      <trkpt lat="37.657768" lon="127.263801"><ele>250.1</ele></trkpt>
      <trkpt lat="37.657917" lon="127.264321"><ele>261.3</ele></trkpt>
      <trkpt lat="37.657985" lon="127.264375"><ele>264.8</ele></trkpt>
      <trkpt lat="37.657964" lon="127.264499"><ele>267.8</ele></trkpt>
      <trkpt lat="37.658019" lon="127.264544"><ele>272.1</ele></trkpt>
      <trkpt lat="37.658031" lon="127.264649"><ele>277.3</ele></trkpt>
      <trkpt lat="37.658093" lon="127.264684"><ele>282.2</ele></trkpt>
      <trkpt lat="37.658231" lon="127.265169"><ele>303.2</ele></trkpt>
      <trkpt lat="37.658288" lon="127.265243"><ele>307.8</ele></trkpt>
      <trkpt lat="37.658429" lon="127.265298"><ele>314.4</ele></trkpt>
      <trkpt lat="37.659102" lon="127.265318"><ele>335.7</ele></trkpt>
      <trkpt lat="37.659660" lon="127.265082"><ele>344.1</ele></trkpt>
      <trkpt lat="37.659802" lon="127.264994"><ele>345.0</ele></trkpt>
      <trkpt lat="37.660106" lon="127.264348"><ele>349.1</ele></trkpt>
      <trkpt lat="37.660492" lon="127.263827"><ele>370.1</ele></trkpt>
      <trkpt lat="37.660643" lon="127.263702"><ele>377.2</ele></trkpt>
      <trkpt lat="37.660707" lon="127.263509"><ele>380.1</ele></trkpt>
      <trkpt lat="37.660885" lon="127.263254"><ele>381.7</ele></trkpt>
      <trkpt lat="37.661256" lon="127.263025"><ele>382.5</ele></trkpt>
      <trkpt lat="37.661323" lon="127.262919"><ele>382.9</ele></trkpt>
      <trkpt lat="37.661454" lon="127.262172"><ele>381.0</ele></trkpt>
      <trkpt lat="37.661603" lon="127.261948"><ele>383.1</ele></trkpt>
      <trkpt lat="37.661679" lon="127.261721"><ele>381.3</ele></trkpt>
      <trkpt lat="37.662302" lon="127.261191"><ele>378.8</ele></trkpt>
      <trkpt lat="37.662493" lon="127.261140"><ele>378.7</ele></trkpt>
      <trkpt lat="37.662995" lon="127.260510"><ele>382.2</ele></trkpt>
      <trkpt lat="37.663018" lon="127.260392"><ele>383.7</ele></trkpt>
      <trkpt lat="37.663212" lon="127.260216"><ele>387.6</ele></trkpt>
      <trkpt lat="37.663310" lon="127.260054"><ele>390.1</ele></trkpt>
      <trkpt lat="37.663434" lon="127.260011"><ele>391.3</ele></trkpt>
      <trkpt lat="37.663839" lon="127.260416"><ele>382.1</ele></trkpt>
      <trkpt lat="37.664157" lon="127.260608"><ele>376.1</ele></trkpt>
      <trkpt lat="37.664446" lon="127.260705"><ele>376.0</ele></trkpt>
      <trkpt lat="37.664864" lon="127.260694"><ele>373.5</ele></trkpt>
      <trkpt lat="37.665157" lon="127.260866"><ele>369.1</ele></trkpt>
      <trkpt lat="37.665452" lon="127.260935"><ele>363.0</ele></trkpt>
      <trkpt lat="37.665754" lon="127.261145"><ele>365.0</ele></trkpt>
      <trkpt lat="37.665987" lon="127.261198"><ele>367.2</ele></trkpt>
      <trkpt lat="37.666444" lon="127.261864"><ele>375.1</ele></trkpt>
      <trkpt lat="37.666894" lon="127.262025"><ele>375.7</ele></trkpt>
      <trkpt lat="37.667068" lon="127.262180"><ele>374.4</ele></trkpt>
      <trkpt lat="37.667722" lon="127.262250"><ele>368.0</ele></trkpt>
      <trkpt lat="37.668081" lon="127.262421"><ele>367.3</ele></trkpt>
      <trkpt lat="37.668520" lon="127.262400"><ele>367.7</ele></trkpt>
      <trkpt lat="37.668996" lon="127.262743"><ele>357.7</ele></trkpt>
      <trkpt lat="37.669202" lon="127.263013"><ele>352.7</ele></trkpt>
      <trkpt lat="37.669242" lon="127.263307"><ele>352.2</ele></trkpt>
      <trkpt lat="37.669457" lon="127.263517"><ele>354.4</ele></trkpt>
      <trkpt lat="37.669782" lon="127.263612"><ele>357.2</ele></trkpt>
      <trkpt lat="37.670102" lon="127.263796"><ele>356.3</ele></trkpt>
      <trkpt lat="37.670428" lon="127.263848"><ele>361.0</ele></trkpt>
      <trkpt lat="37.670591" lon="127.263742"><ele>366.9</ele></trkpt>
      <trkpt lat="37.670793" lon="127.263757"><ele>378.3</ele></trkpt>
      <trkpt lat="37.670958" lon="127.263870"><ele>388.1</ele></trkpt>
      <trkpt lat="37.671561" lon="127.263875"><ele>410.2</ele></trkpt>
      <trkpt lat="37.671918" lon="127.264277"><ele>421.6</ele></trkpt>
      <trkpt lat="37.672644" lon="127.264433"><ele>432.9</ele></trkpt>
      <trkpt lat="37.673066" lon="127.264697"><ele>452.6</ele></trkpt>
      <trkpt lat="37.673519" lon="127.264846"><ele>468.6</ele></trkpt>
      <trkpt lat="37.674068" lon="127.264846"><ele>485.7</ele></trkpt>
      <trkpt lat="37.674406" lon="127.265061"><ele>486.4</ele></trkpt>
      <trkpt lat="37.674892" lon="127.265700"><ele>488.2</ele></trkpt>
      <trkpt lat="37.675395" lon="127.266117"><ele>494.5</ele></trkpt>
      <trkpt lat="37.675643" lon="127.266494"><ele>490.5</ele></trkpt>
      <trkpt lat="37.676297" lon="127.266961"><ele>491.5</ele></trkpt>
      <trkpt lat="37.676637" lon="127.267385"><ele>514.5</ele></trkpt>
      <trkpt lat="37.676741" lon="127.267383"><ele>520.8</ele></trkpt>
      <trkpt lat="37.677039" lon="127.267544"><ele>541.9</ele></trkpt>
      <trkpt lat="37.677414" lon="127.267862"><ele>578.3</ele></trkpt>
      <trkpt lat="37.677783" lon="127.268290"><ele>609.4</ele></trkpt>
      <trkpt lat="37.677766" lon="127.268726"><ele>622.6</ele></trkpt>
      <trkpt lat="37.678109" lon="127.269588"><ele>648.5</ele></trkpt>
      <trkpt lat="37.678155" lon="127.270232"><ele>677.0</ele></trkpt>
      <trkpt lat="37.678244" lon="127.270528"><ele>688.4</ele></trkpt>
      <trkpt lat="37.678365" lon="127.270732"><ele>697.3</ele></trkpt>
      <trkpt lat="37.678475" lon="127.271124"><ele>710.9</ele></trkpt>
      <trkpt lat="37.678879" lon="127.271660"><ele>745.3</ele></trkpt>
      <trkpt lat="37.679086" lon="127.272065"><ele>772.1</ele></trkpt>
      <trkpt lat="37.679299" lon="127.272261"><ele>785.9</ele></trkpt>
      <trkpt lat="37.679597" lon="127.272383"><ele>790.6</ele></trkpt>
      <trkpt lat="37.679511" lon="127.272046"><ele>790.1</ele></trkpt>
      <trkpt lat="37.679599" lon="127.271895"><ele>785.5</ele></trkpt>
      <trkpt lat="37.679694" lon="127.271372"><ele>756.2</ele></trkpt>
      <trkpt lat="37.679554" lon="127.271201"><ele>749.1</ele></trkpt>
      <trkpt lat="37.679572" lon="127.270917"><ele>738.4</ele></trkpt>
      <trkpt lat="37.679677" lon="127.270729"><ele>731.2</ele></trkpt>
      <trkpt lat="37.679804" lon="127.270775"><ele>732.8</ele></trkpt>
      <trkpt lat="37.679929" lon="127.270726"><ele>727.8</ele></trkpt>
      <trkpt lat="37.680055" lon="127.270568"><ele>717.0</ele></trkpt>
    </trkseg>
  </trk>
</gpx>
