<?xml version="1.0" encoding="UTF-8"?>
<gpx version="1.1" creator="kr-100-mountains route-harvester"
     xmlns="http://www.topografix.com/GPX/1/1"
     xmlns:k100="https://github.com/jay-jang/kr-100-mountains/ns/1"
     xmlns:xsi="http://www.w3.org/2001/XMLSchema-instance"
     xsi:schemaLocation="http://www.topografix.com/GPX/1/1 http://www.topografix.com/GPX/1/1/gpx.xsd">
  <metadata>
    <name>천성산 · 홍룡사-원효봉(제1봉) 코스 (대안 2) (OSM 계산 경로)</name>
    <desc>실제 GPS 기록이 아닙니다. OpenStreetMap에 등록된 등산로 선형 위에서 계산한 경로이며, 현장 통제·훼손·출입 제한·계절 통제를 반영하지 않을 수 있습니다. 산행 전 공식 안내를 확인하세요.</desc>
    <time>2026-08-04T05:44:57.755Z</time>
    <link href="https://www.openstreetmap.org/copyright"><text>© OpenStreetMap contributors (ODbL 1.0)</text></link>
    <link href="https://registry.opendata.aws/terrain-tiles/"><text>Elevation: SRTM 1 arc-second (NASA/USGS) via AWS Terrain Tiles</text></link>
    <extensions>
      <k100:provenance>osm-routed</k100:provenance>
      <k100:not_a_recorded_track>true</k100:not_a_recorded_track>
      <k100:mountain_id>cheonseongsan</k100:mountain_id>
      <k100:mountain_name>천성산</k100:mountain_name>
      <k100:route_id>cheonseongsan-bb61544f</k100:route_id>
      <k100:route_index>1</k100:route_index>
      <k100:route_name>홍룡사-원효봉(제1봉) 코스</k100:route_name>
      <k100:variant>2</k100:variant>
      <k100:source>OpenStreetMap via Overpass API</k100:source>
      <k100:license>ODbL-1.0</k100:license>
      <k100:attribution>© OpenStreetMap contributors</k100:attribution>
      <k100:elevation_source>SRTM 1 arc-second (NASA/USGS) — AWS Terrain Tiles 배포본. 지형 DEM 추정 고도이며 실측 아님</k100:elevation_source>
      <k100:algorithm>dijkstra-grid-v1</k100:algorithm>
      <k100:osm_snapshot>2026-08-04</k100:osm_snapshot>
      <k100:snap_trailhead_m>42</k100:snap_trailhead_m>
      <k100:snap_summit_m>107</k100:snap_summit_m>
      <k100:validation_score>82</k100:validation_score>
      <k100:validation_status>accepted</k100:validation_status>
    </extensions>
  </metadata>
  <trk>
    <name>천성산 · 홍룡사-원효봉(제1봉) 코스 (대안 2) (OSM 계산 경로)</name>
    <desc>실제 GPS 기록이 아닙니다. OpenStreetMap에 등록된 등산로 선형 위에서 계산한 경로이며, 현장 통제·훼손·출입 제한·계절 통제를 반영하지 않을 수 있습니다. 산행 전 공식 안내를 확인하세요.</desc>
    <trkseg>
      <trkpt lat="35.393850" lon="129.083850"><ele>221.4</ele></trkpt>
      <trkpt lat="35.394158" lon="129.083951"><ele>225.9</ele></trkpt>
      <trkpt lat="35.394574" lon="129.084207"><ele>234.5</ele></trkpt>
      <trkpt lat="35.394911" lon="129.084081"><ele>243.2</ele></trkpt>
      <trkpt lat="35.395720" lon="129.084487"><ele>261.0</ele></trkpt>
      <trkpt lat="35.395891" lon="129.084629"><ele>266.0</ele></trkpt>
      <trkpt lat="35.396130" lon="129.084707"><ele>273.4</ele></trkpt>
      <trkpt lat="35.396701" lon="129.085121"><ele>286.1</ele></trkpt>
      <trkpt lat="35.396634" lon="129.085430"><ele>279.7</ele></trkpt>
      <trkpt lat="35.396772" lon="129.085766"><ele>276.1</ele></trkpt>
      <trkpt lat="35.396861" lon="129.086383"><ele>272.1</ele></trkpt>
      <trkpt lat="35.396774" lon="129.086655"><ele>277.3</ele></trkpt>
      <trkpt lat="35.396566" lon="129.086647"><ele>276.3</ele></trkpt>
      <trkpt lat="35.396459" lon="129.086591"><ele>275.7</ele></trkpt>
      <trkpt lat="35.396258" lon="129.086622"><ele>276.8</ele></trkpt>
      <trkpt lat="35.396299" lon="129.086936"><ele>286.4</ele></trkpt>
      <trkpt lat="35.396121" lon="129.087043"><ele>289.3</ele></trkpt>
      <trkpt lat="35.396346" lon="129.087574"><ele>315.2</ele></trkpt>
      <trkpt lat="35.396449" lon="129.087690"><ele>322.4</ele></trkpt>
      <trkpt lat="35.396494" lon="129.088446"><ele>357.7</ele></trkpt>
      <trkpt lat="35.396416" lon="129.088865"><ele>375.1</ele></trkpt>
      <trkpt lat="35.395868" lon="129.089401"><ele>396.0</ele></trkpt>
      <trkpt lat="35.395754" lon="129.089592"><ele>401.9</ele></trkpt>
      <trkpt lat="35.395857" lon="129.090061"><ele>412.5</ele></trkpt>
      <trkpt lat="35.395793" lon="129.090249"><ele>417.9</ele></trkpt>
      <trkpt lat="35.395821" lon="129.090499"><ele>427.8</ele></trkpt>
      <trkpt lat="35.395732" lon="129.091102"><ele>454.3</ele></trkpt>
      <trkpt lat="35.395879" lon="129.091202"><ele>457.2</ele></trkpt>
      <trkpt lat="35.395922" lon="129.091461"><ele>466.9</ele></trkpt>
      <trkpt lat="35.395695" lon="129.091733"><ele>479.5</ele></trkpt>
      <trkpt lat="35.395743" lon="129.092015"><ele>487.3</ele></trkpt>
      <trkpt lat="35.395821" lon="129.092089"><ele>489.0</ele></trkpt>
      <trkpt lat="35.395956" lon="129.092384"><ele>495.1</ele></trkpt>
      <trkpt lat="35.396401" lon="129.093465"><ele>528.2</ele></trkpt>
      <trkpt lat="35.396305" lon="129.093935"><ele>540.1</ele></trkpt>
      <trkpt lat="35.396504" lon="129.095189"><ele>579.7</ele></trkpt>
      <trkpt lat="35.396379" lon="129.095370"><ele>584.2</ele></trkpt>
      <trkpt lat="35.396132" lon="129.096112"><ele>597.8</ele></trkpt>
      <trkpt lat="35.395992" lon="129.096788"><ele>614.4</ele></trkpt>
      <trkpt lat="35.396240" lon="129.097653"><ele>645.3</ele></trkpt>
      <trkpt lat="35.396239" lon="129.098014"><ele>658.5</ele></trkpt>
      <trkpt lat="35.396298" lon="129.098212"><ele>664.8</ele></trkpt>
      <trkpt lat="35.396259" lon="129.098392"><ele>670.1</ele></trkpt>
      <trkpt lat="35.396031" lon="129.098818"><ele>681.3</ele></trkpt>
      <trkpt lat="35.396306" lon="129.100029"><ele>702.7</ele></trkpt>
      <trkpt lat="35.396330" lon="129.100626"><ele>718.5</ele></trkpt>
      <trkpt lat="35.396513" lon="129.100572"><ele>721.9</ele></trkpt>
      <trkpt lat="35.396832" lon="129.100595"><ele>723.3</ele></trkpt>
      <trkpt lat="35.397304" lon="129.100805"><ele>731.7</ele></trkpt>
      <trkpt lat="35.397787" lon="129.101101"><ele>736.2</ele></trkpt>
      <trkpt lat="35.398186" lon="129.101509"><ele>747.5</ele></trkpt>
      <trkpt lat="35.398403" lon="129.101856"><ele>755.0</ele></trkpt>
      <trkpt lat="35.398744" lon="129.102050"><ele>767.8</ele></trkpt>
      <trkpt lat="35.399143" lon="129.101999"><ele>778.3</ele></trkpt>
      <trkpt lat="35.399592" lon="129.102132"><ele>795.3</ele></trkpt>
      <trkpt lat="35.400042" lon="129.102642"><ele>810.6</ele></trkpt>
      <trkpt lat="35.400632" lon="129.102928"><ele>816.0</ele></trkpt>
      <trkpt lat="35.401040" lon="129.103561"><ele>824.4</ele></trkpt>
      <trkpt lat="35.401207" lon="129.103956"><ele>825.8</ele></trkpt>
      <trkpt lat="35.401292" lon="129.103995"><ele>823.2</ele></trkpt>
      <trkpt lat="35.401469" lon="129.104279"><ele>825.8</ele></trkpt>
      <trkpt lat="35.401733" lon="129.104402"><ele>821.9</ele></trkpt>
      <trkpt lat="35.401804" lon="129.104513"><ele>825.3</ele></trkpt>
      <trkpt lat="35.401968" lon="129.104581"><ele>822.1</ele></trkpt>
      <trkpt lat="35.402413" lon="129.105173"><ele>838.1</ele></trkpt>
      <trkpt lat="35.402632" lon="129.105132"><ele>834.7</ele></trkpt>
      <trkpt lat="35.403211" lon="129.104612"><ele>819.0</ele></trkpt>
      <trkpt lat="35.403507" lon="129.104515"><ele>823.4</ele></trkpt>
      <trkpt lat="35.403786" lon="129.104255"><ele>821.3</ele></trkpt>
      <trkpt lat="35.404249" lon="129.104288"><ele>828.1</ele></trkpt>
      <trkpt lat="35.404203" lon="129.104403"><ele>830.0</ele></trkpt>
      <trkpt lat="35.404280" lon="129.104761"><ele>834.3</ele></trkpt>
      <trkpt lat="35.404258" lon="129.105093"><ele>841.4</ele></trkpt>
      <trkpt lat="35.404159" lon="129.105462"><ele>849.2</ele></trkpt>
      <trkpt lat="35.404320" lon="129.106025"><ele>846.1</ele></trkpt>
      <trkpt lat="35.404340" lon="129.106291"><ele>846.4</ele></trkpt>
      <trkpt lat="35.404241" lon="129.106736"><ele>852.2</ele></trkpt>
      <trkpt lat="35.403949" lon="129.107482"><ele>850.8</ele></trkpt>
      <trkpt lat="35.403839" lon="129.107745"><ele>844.7</ele></trkpt>
      <trkpt lat="35.403620" lon="129.108005"><ele>836.5</ele></trkpt>
      <trkpt lat="35.403317" lon="129.108096"><ele>833.3</ele></trkpt>
      <trkpt lat="35.403190" lon="129.108037"><ele>835.0</ele></trkpt>
      <trkpt lat="35.403076" lon="129.108086"><ele>834.5</ele></trkpt>
      <trkpt lat="35.402812" lon="129.108359"><ele>840.0</ele></trkpt>
      <trkpt lat="35.402556" lon="129.108436"><ele>849.3</ele></trkpt>
      <trkpt lat="35.402501" lon="129.108509"><ele>851.9</ele></trkpt>
      <trkpt lat="35.402577" lon="129.108951"><ele>854.3</ele></trkpt>
      <trkpt lat="35.402663" lon="129.109083"><ele>853.2</ele></trkpt>
      <trkpt lat="35.402755" lon="129.109523"><ele>859.9</ele></trkpt>
      <trkpt lat="35.402750" lon="129.109845"><ele>867.4</ele></trkpt>
      <trkpt lat="35.402978" lon="129.110639"><ele>873.5</ele></trkpt>
      <trkpt lat="35.402991" lon="129.111006"><ele>875.5</ele></trkpt>
      <trkpt lat="35.403091" lon="129.111057"><ele>875.4</ele></trkpt>
      <trkpt lat="35.403122" lon="129.111170"><ele>875.2</ele></trkpt>
      <trkpt lat="35.403098" lon="129.111290"><ele>874.6</ele></trkpt>
      <trkpt lat="35.403149" lon="129.111776"><ele>870.8</ele></trkpt>
      <trkpt lat="35.403337" lon="129.112136"><ele>867.6</ele></trkpt>
      <trkpt lat="35.403549" lon="129.112712"><ele>869.1</ele></trkpt>
      <trkpt lat="35.403765" lon="129.113030"><ele>870.0</ele></trkpt>
      <trkpt lat="35.404000" lon="129.113164"><ele>870.4</ele></trkpt>
      <trkpt lat="35.404016" lon="129.113349"><ele>870.7</ele></trkpt>
      <trkpt lat="35.404076" lon="129.113477"><ele>870.0</ele></trkpt>
      <trkpt lat="35.404348" lon="129.113576"><ele>870.2</ele></trkpt>
      <trkpt lat="35.404395" lon="129.113641"><ele>869.3</ele></trkpt>
      <trkpt lat="35.404905" lon="129.113907"><ele>861.6</ele></trkpt>
      <trkpt lat="35.405634" lon="129.114786"><ele>842.6</ele></trkpt>
      <trkpt lat="35.405915" lon="129.115007"><ele>836.0</ele></trkpt>
      <trkpt lat="35.406213" lon="129.115038"><ele>831.8</ele></trkpt>
      <trkpt lat="35.406543" lon="129.115386"><ele>824.2</ele></trkpt>
      <trkpt lat="35.406808" lon="129.115834"><ele>813.0</ele></trkpt>
      <trkpt lat="35.406828" lon="129.116038"><ele>806.4</ele></trkpt>
      <trkpt lat="35.406734" lon="129.116169"><ele>802.1</ele></trkpt>
      <trkpt lat="35.406724" lon="129.116267"><ele>798.9</ele></trkpt>
      <trkpt lat="35.406821" lon="129.116319"><ele>797.3</ele></trkpt>
      <trkpt lat="35.406840" lon="129.116401"><ele>794.6</ele></trkpt>
      <trkpt lat="35.406677" lon="129.116589"><ele>789.3</ele></trkpt>
      <trkpt lat="35.406481" lon="129.117011"><ele>778.1</ele></trkpt>
      <trkpt lat="35.406501" lon="129.117569"><ele>765.7</ele></trkpt>
      <trkpt lat="35.406546" lon="129.117719"><ele>763.2</ele></trkpt>
      <trkpt lat="35.406548" lon="129.119160"><ele>741.7</ele></trkpt>
      <trkpt lat="35.406710" lon="129.119217"><ele>743.6</ele></trkpt>
      <trkpt lat="35.407011" lon="129.119217"><ele>739.5</ele></trkpt>
      <trkpt lat="35.407770" lon="129.119069"><ele>729.5</ele></trkpt>
      <trkpt lat="35.408870" lon="129.119291"><ele>708.9</ele></trkpt>
      <trkpt lat="35.409010" lon="129.119396"><ele>705.9</ele></trkpt>
      <trkpt lat="35.409382" lon="129.119223"><ele>697.9</ele></trkpt>
      <trkpt lat="35.410060" lon="129.119032"><ele>690.1</ele></trkpt>
      <trkpt lat="35.410286" lon="129.118625"><ele>690.8</ele></trkpt>
      <trkpt lat="35.410492" lon="129.118508"><ele>689.3</ele></trkpt>
      <trkpt lat="35.411401" lon="129.118323"><ele>671.9</ele></trkpt>
      <trkpt lat="35.411682" lon="129.118132"><ele>667.9</ele></trkpt>
      <trkpt lat="35.412741" lon="129.117878"><ele>659.5</ele></trkpt>
      <trkpt lat="35.412879" lon="129.117674"><ele>659.1</ele></trkpt>
      <trkpt lat="35.412937" lon="129.117319"><ele>654.1</ele></trkpt>
      <trkpt lat="35.413530" lon="129.116604"><ele>645.7</ele></trkpt>
      <trkpt lat="35.413967" lon="129.116259"><ele>641.0</ele></trkpt>
      <trkpt lat="35.414128" lon="129.115772"><ele>633.1</ele></trkpt>
      <trkpt lat="35.414344" lon="129.115852"><ele>637.0</ele></trkpt>
      <trkpt lat="35.414543" lon="129.115710"><ele>638.1</ele></trkpt>
      <trkpt lat="35.414549" lon="129.115396"><ele>633.3</ele></trkpt>
      <trkpt lat="35.414602" lon="129.115245"><ele>630.6</ele></trkpt>
      <trkpt lat="35.414938" lon="129.114928"><ele>618.7</ele></trkpt>
      <trkpt lat="35.415302" lon="129.114330"><ele>600.2</ele></trkpt>
      <trkpt lat="35.415366" lon="129.114177"><ele>594.3</ele></trkpt>
      <trkpt lat="35.415346" lon="129.114045"><ele>589.5</ele></trkpt>
      <trkpt lat="35.415534" lon="129.113774"><ele>576.5</ele></trkpt>
      <trkpt lat="35.416197" lon="129.113056"><ele>552.2</ele></trkpt>
      <trkpt lat="35.416315" lon="129.112750"><ele>543.5</ele></trkpt>
      <trkpt lat="35.416389" lon="129.112675"><ele>540.7</ele></trkpt>
      <trkpt lat="35.416678" lon="129.112562"><ele>529.5</ele></trkpt>
      <trkpt lat="35.416772" lon="129.112283"><ele>517.6</ele></trkpt>
      <trkpt lat="35.416931" lon="129.112176"><ele>508.2</ele></trkpt>
      <trkpt lat="35.417051" lon="129.111972"><ele>487.3</ele></trkpt>
      <trkpt lat="35.417084" lon="129.111862"><ele>477.8</ele></trkpt>
      <trkpt lat="35.417043" lon="129.111685"><ele>468.0</ele></trkpt>
      <trkpt lat="35.417099" lon="129.111572"><ele>458.9</ele></trkpt>
      <trkpt lat="35.417285" lon="129.111589"><ele>449.6</ele></trkpt>
      <trkpt lat="35.417709" lon="129.111505"><ele>423.4</ele></trkpt>
      <trkpt lat="35.417827" lon="129.111186"><ele>410.3</ele></trkpt>
      <trkpt lat="35.417932" lon="129.111082"><ele>405.4</ele></trkpt>
      <trkpt lat="35.418017" lon="129.111146"><ele>402.9</ele></trkpt>
      <trkpt lat="35.418267" lon="129.111194"><ele>393.6</ele></trkpt>
      <trkpt lat="35.418505" lon="129.111122"><ele>383.4</ele></trkpt>
      <trkpt lat="35.418752" lon="129.110969"><ele>376.7</ele></trkpt>
      <trkpt lat="35.419301" lon="129.111074"><ele>362.9</ele></trkpt>
      <trkpt lat="35.419867" lon="129.111049"><ele>347.9</ele></trkpt>
      <trkpt lat="35.419911" lon="129.111120"><ele>348.6</ele></trkpt>
    </trkseg>
  </trk>
</gpx>
