<?xml version="1.0" encoding="UTF-8"?>
<gpx version="1.1" creator="kr-100-mountains route-harvester"
     xmlns="http://www.topografix.com/GPX/1/1"
     xmlns:k100="https://github.com/jay-jang/kr-100-mountains/ns/1"
     xmlns:xsi="http://www.w3.org/2001/XMLSchema-instance"
     xsi:schemaLocation="http://www.topografix.com/GPX/1/1 http://www.topografix.com/GPX/1/1/gpx.xsd">
  <metadata>
    <name>천성산 · 백동마을-법수원-비로봉-은수고개-원효봉-홍룡사주차장 (OSM 계산 경로)</name>
    <desc>실제 GPS 기록이 아닙니다. OpenStreetMap에 등록된 등산로 선형 위에서 계산한 경로이며, 현장 통제·훼손·출입 제한·계절 통제를 반영하지 않을 수 있습니다. 산행 전 공식 안내를 확인하세요.</desc>
    <time>2026-08-04T05:44:57.910Z</time>
    <link href="https://www.openstreetmap.org/copyright"><text>© OpenStreetMap contributors (ODbL 1.0)</text></link>
    <link href="https://registry.opendata.aws/terrain-tiles/"><text>Elevation: SRTM 1 arc-second (NASA/USGS) via AWS Terrain Tiles</text></link>
    <extensions>
      <k100:provenance>osm-routed</k100:provenance>
      <k100:not_a_recorded_track>true</k100:not_a_recorded_track>
      <k100:mountain_id>cheonseongsan</k100:mountain_id>
      <k100:mountain_name>천성산</k100:mountain_name>
      <k100:route_id>cheonseongsan-de49a2f4</k100:route_id>
      <k100:route_index>3</k100:route_index>
      <k100:route_name>백동마을-법수원-비로봉-은수고개-원효봉-홍룡사주차장</k100:route_name>
      <k100:variant>0</k100:variant>
      <k100:source>OpenStreetMap via Overpass API</k100:source>
      <k100:license>ODbL-1.0</k100:license>
      <k100:attribution>© OpenStreetMap contributors</k100:attribution>
      <k100:elevation_source>SRTM 1 arc-second (NASA/USGS) — AWS Terrain Tiles 배포본. 지형 DEM 추정 고도이며 실측 아님</k100:elevation_source>
      <k100:algorithm>dijkstra-grid-v1</k100:algorithm>
      <k100:osm_snapshot>2026-08-04</k100:osm_snapshot>
      <k100:snap_trailhead_m>143</k100:snap_trailhead_m>
      <k100:snap_summit_m>107</k100:snap_summit_m>
      <k100:validation_score>82</k100:validation_score>
      <k100:validation_status>accepted</k100:validation_status>
    </extensions>
  </metadata>
  <trk>
    <name>천성산 · 백동마을-법수원-비로봉-은수고개-원효봉-홍룡사주차장 (OSM 계산 경로)</name>
    <desc>실제 GPS 기록이 아닙니다. OpenStreetMap에 등록된 등산로 선형 위에서 계산한 경로이며, 현장 통제·훼손·출입 제한·계절 통제를 반영하지 않을 수 있습니다. 산행 전 공식 안내를 확인하세요.</desc>
    <trkseg>
      <trkpt lat="35.406080" lon="129.136412"><ele>346.4</ele></trkpt>
      <trkpt lat="35.406266" lon="129.136398"><ele>350.8</ele></trkpt>
      <trkpt lat="35.406288" lon="129.136581"><ele>351.8</ele></trkpt>
      <trkpt lat="35.406153" lon="129.137178"><ele>348.9</ele></trkpt>
      <trkpt lat="35.406312" lon="129.137406"><ele>352.6</ele></trkpt>
      <trkpt lat="35.406589" lon="129.137418"><ele>361.7</ele></trkpt>
      <trkpt lat="35.406683" lon="129.137536"><ele>362.0</ele></trkpt>
      <trkpt lat="35.406788" lon="129.137552"><ele>366.5</ele></trkpt>
      <trkpt lat="35.406889" lon="129.137658"><ele>366.2</ele></trkpt>
      <trkpt lat="35.407239" lon="129.138198"><ele>359.1</ele></trkpt>
      <trkpt lat="35.407286" lon="129.138414"><ele>351.5</ele></trkpt>
      <trkpt lat="35.407376" lon="129.138497"><ele>352.1</ele></trkpt>
      <trkpt lat="35.407452" lon="129.138165"><ele>371.0</ele></trkpt>
      <trkpt lat="35.407654" lon="129.138180"><ele>376.8</ele></trkpt>
      <trkpt lat="35.407779" lon="129.138118"><ele>382.5</ele></trkpt>
      <trkpt lat="35.407696" lon="129.138016"><ele>384.9</ele></trkpt>
      <trkpt lat="35.408071" lon="129.137877"><ele>397.8</ele></trkpt>
      <trkpt lat="35.408289" lon="129.137721"><ele>407.2</ele></trkpt>
      <trkpt lat="35.408039" lon="129.137665"><ele>409.9</ele></trkpt>
      <trkpt lat="35.407815" lon="129.137496"><ele>416.9</ele></trkpt>
      <trkpt lat="35.408165" lon="129.137300"><ele>432.1</ele></trkpt>
      <trkpt lat="35.408032" lon="129.137219"><ele>434.2</ele></trkpt>
      <trkpt lat="35.407933" lon="129.137036"><ele>433.6</ele></trkpt>
      <trkpt lat="35.407952" lon="129.136961"><ele>436.1</ele></trkpt>
      <trkpt lat="35.408270" lon="129.136900"><ele>450.1</ele></trkpt>
      <trkpt lat="35.408181" lon="129.136699"><ele>451.2</ele></trkpt>
      <trkpt lat="35.408242" lon="129.136670"><ele>454.7</ele></trkpt>
      <trkpt lat="35.408216" lon="129.136565"><ele>453.7</ele></trkpt>
      <trkpt lat="35.408275" lon="129.136503"><ele>456.7</ele></trkpt>
      <trkpt lat="35.408275" lon="129.136383"><ele>457.0</ele></trkpt>
      <trkpt lat="35.408458" lon="129.136321"><ele>468.4</ele></trkpt>
      <trkpt lat="35.408601" lon="129.136108"><ele>485.0</ele></trkpt>
      <trkpt lat="35.408923" lon="129.135918"><ele>496.5</ele></trkpt>
      <trkpt lat="35.409145" lon="129.135665"><ele>503.2</ele></trkpt>
      <trkpt lat="35.409147" lon="129.135577"><ele>503.2</ele></trkpt>
      <trkpt lat="35.409076" lon="129.135519"><ele>500.1</ele></trkpt>
      <trkpt lat="35.409204" lon="129.135495"><ele>505.8</ele></trkpt>
      <trkpt lat="35.409332" lon="129.135390"><ele>512.6</ele></trkpt>
      <trkpt lat="35.409348" lon="129.135253"><ele>515.3</ele></trkpt>
      <trkpt lat="35.409401" lon="129.135253"><ele>518.1</ele></trkpt>
      <trkpt lat="35.409521" lon="129.135066"><ele>527.5</ele></trkpt>
      <trkpt lat="35.409663" lon="129.135018"><ele>535.6</ele></trkpt>
      <trkpt lat="35.409851" lon="129.134788"><ele>552.2</ele></trkpt>
      <trkpt lat="35.409977" lon="129.134755"><ele>559.7</ele></trkpt>
      <trkpt lat="35.410142" lon="129.134606"><ele>569.1</ele></trkpt>
      <trkpt lat="35.410102" lon="129.134266"><ele>579.7</ele></trkpt>
      <trkpt lat="35.410225" lon="129.134220"><ele>587.2</ele></trkpt>
      <trkpt lat="35.410199" lon="129.134095"><ele>592.4</ele></trkpt>
      <trkpt lat="35.410293" lon="129.134054"><ele>599.1</ele></trkpt>
      <trkpt lat="35.410168" lon="129.133711"><ele>611.7</ele></trkpt>
      <trkpt lat="35.410142" lon="129.133378"><ele>626.1</ele></trkpt>
      <trkpt lat="35.410057" lon="129.133160"><ele>629.4</ele></trkpt>
      <trkpt lat="35.409987" lon="129.133132"><ele>626.3</ele></trkpt>
      <trkpt lat="35.409919" lon="129.132882"><ele>625.8</ele></trkpt>
      <trkpt lat="35.410048" lon="129.132337"><ele>634.1</ele></trkpt>
      <trkpt lat="35.410028" lon="129.132270"><ele>631.8</ele></trkpt>
      <trkpt lat="35.410119" lon="129.132189"><ele>637.9</ele></trkpt>
      <trkpt lat="35.410072" lon="129.131879"><ele>630.5</ele></trkpt>
      <trkpt lat="35.410101" lon="129.131725"><ele>631.6</ele></trkpt>
      <trkpt lat="35.409982" lon="129.131584"><ele>623.6</ele></trkpt>
      <trkpt lat="35.409937" lon="129.131337"><ele>624.9</ele></trkpt>
      <trkpt lat="35.410102" lon="129.130936"><ele>640.4</ele></trkpt>
      <trkpt lat="35.410188" lon="129.130468"><ele>644.9</ele></trkpt>
      <trkpt lat="35.410309" lon="129.130297"><ele>647.7</ele></trkpt>
      <trkpt lat="35.410392" lon="129.130281"><ele>650.3</ele></trkpt>
      <trkpt lat="35.410319" lon="129.129723"><ele>657.1</ele></trkpt>
      <trkpt lat="35.410603" lon="129.129471"><ele>652.8</ele></trkpt>
      <trkpt lat="35.410750" lon="129.129414"><ele>652.7</ele></trkpt>
      <trkpt lat="35.411027" lon="129.129012"><ele>650.5</ele></trkpt>
      <trkpt lat="35.411030" lon="129.128785"><ele>652.2</ele></trkpt>
      <trkpt lat="35.410963" lon="129.128541"><ele>656.1</ele></trkpt>
      <trkpt lat="35.410805" lon="129.128236"><ele>659.1</ele></trkpt>
      <trkpt lat="35.410776" lon="129.127917"><ele>662.0</ele></trkpt>
      <trkpt lat="35.411268" lon="129.127754"><ele>681.1</ele></trkpt>
      <trkpt lat="35.412355" lon="129.127760"><ele>717.1</ele></trkpt>
      <trkpt lat="35.412615" lon="129.127629"><ele>723.0</ele></trkpt>
      <trkpt lat="35.412575" lon="129.127196"><ele>732.2</ele></trkpt>
      <trkpt lat="35.412647" lon="129.126849"><ele>745.4</ele></trkpt>
      <trkpt lat="35.413353" lon="129.125365"><ele>794.1</ele></trkpt>
      <trkpt lat="35.413882" lon="129.125093"><ele>797.1</ele></trkpt>
      <trkpt lat="35.414237" lon="129.124719"><ele>798.1</ele></trkpt>
      <trkpt lat="35.414476" lon="129.124069"><ele>812.1</ele></trkpt>
      <trkpt lat="35.414545" lon="129.123629"><ele>825.1</ele></trkpt>
      <trkpt lat="35.414857" lon="129.122967"><ele>837.9</ele></trkpt>
      <trkpt lat="35.414947" lon="129.123012"><ele>836.6</ele></trkpt>
      <trkpt lat="35.415030" lon="129.122928"><ele>834.1</ele></trkpt>
      <trkpt lat="35.415003" lon="129.122753"><ele>833.2</ele></trkpt>
      <trkpt lat="35.415584" lon="129.122493"><ele>804.8</ele></trkpt>
      <trkpt lat="35.415787" lon="129.122224"><ele>796.9</ele></trkpt>
      <trkpt lat="35.415907" lon="129.121580"><ele>785.3</ele></trkpt>
      <trkpt lat="35.415869" lon="129.121047"><ele>767.8</ele></trkpt>
      <trkpt lat="35.415959" lon="129.120551"><ele>752.9</ele></trkpt>
      <trkpt lat="35.415950" lon="129.120401"><ele>750.5</ele></trkpt>
      <trkpt lat="35.415985" lon="129.120278"><ele>748.5</ele></trkpt>
      <trkpt lat="35.416113" lon="129.120131"><ele>746.3</ele></trkpt>
      <trkpt lat="35.416119" lon="129.120014"><ele>744.0</ele></trkpt>
      <trkpt lat="35.416071" lon="129.119826"><ele>741.1</ele></trkpt>
      <trkpt lat="35.415628" lon="129.119282"><ele>734.6</ele></trkpt>
      <trkpt lat="35.415490" lon="129.118971"><ele>733.7</ele></trkpt>
      <trkpt lat="35.415364" lon="129.118821"><ele>731.9</ele></trkpt>
      <trkpt lat="35.415087" lon="129.118645"><ele>730.9</ele></trkpt>
      <trkpt lat="35.414729" lon="129.118316"><ele>729.8</ele></trkpt>
      <trkpt lat="35.414593" lon="129.117621"><ele>712.5</ele></trkpt>
      <trkpt lat="35.414595" lon="129.117401"><ele>705.0</ele></trkpt>
      <trkpt lat="35.414733" lon="129.116876"><ele>686.7</ele></trkpt>
      <trkpt lat="35.414652" lon="129.116849"><ele>683.9</ele></trkpt>
      <trkpt lat="35.414670" lon="129.116605"><ele>673.2</ele></trkpt>
      <trkpt lat="35.414597" lon="129.116573"><ele>669.2</ele></trkpt>
      <trkpt lat="35.414685" lon="129.116329"><ele>660.1</ele></trkpt>
      <trkpt lat="35.414595" lon="129.116173"><ele>651.2</ele></trkpt>
      <trkpt lat="35.414534" lon="129.115637"><ele>637.0</ele></trkpt>
      <trkpt lat="35.414602" lon="129.115245"><ele>630.6</ele></trkpt>
      <trkpt lat="35.414938" lon="129.114928"><ele>618.7</ele></trkpt>
      <trkpt lat="35.415302" lon="129.114330"><ele>600.2</ele></trkpt>
      <trkpt lat="35.415366" lon="129.114177"><ele>594.3</ele></trkpt>
      <trkpt lat="35.415346" lon="129.114045"><ele>589.5</ele></trkpt>
      <trkpt lat="35.415534" lon="129.113774"><ele>576.5</ele></trkpt>
      <trkpt lat="35.416197" lon="129.113056"><ele>552.2</ele></trkpt>
      <trkpt lat="35.416315" lon="129.112750"><ele>543.5</ele></trkpt>
      <trkpt lat="35.416389" lon="129.112675"><ele>540.7</ele></trkpt>
      <trkpt lat="35.416678" lon="129.112562"><ele>529.5</ele></trkpt>
      <trkpt lat="35.416772" lon="129.112283"><ele>517.6</ele></trkpt>
      <trkpt lat="35.416931" lon="129.112176"><ele>508.2</ele></trkpt>
      <trkpt lat="35.417051" lon="129.111972"><ele>487.3</ele></trkpt>
      <trkpt lat="35.417084" lon="129.111862"><ele>477.8</ele></trkpt>
      <trkpt lat="35.417043" lon="129.111685"><ele>468.0</ele></trkpt>
      <trkpt lat="35.417099" lon="129.111572"><ele>458.9</ele></trkpt>
      <trkpt lat="35.417285" lon="129.111589"><ele>449.6</ele></trkpt>
      <trkpt lat="35.417709" lon="129.111505"><ele>423.4</ele></trkpt>
      <trkpt lat="35.417827" lon="129.111186"><ele>410.3</ele></trkpt>
      <trkpt lat="35.417932" lon="129.111082"><ele>405.4</ele></trkpt>
      <trkpt lat="35.418017" lon="129.111146"><ele>402.9</ele></trkpt>
      <trkpt lat="35.418267" lon="129.111194"><ele>393.6</ele></trkpt>
      <trkpt lat="35.418505" lon="129.111122"><ele>383.4</ele></trkpt>
      <trkpt lat="35.418752" lon="129.110969"><ele>376.7</ele></trkpt>
      <trkpt lat="35.419301" lon="129.111074"><ele>362.9</ele></trkpt>
      <trkpt lat="35.419867" lon="129.111049"><ele>347.9</ele></trkpt>
      <trkpt lat="35.419911" lon="129.111120"><ele>348.6</ele></trkpt>
    </trkseg>
  </trk>
</gpx>
