<?xml version="1.0" encoding="UTF-8"?>
<gpx version="1.1" creator="kr-100-mountains route-harvester"
     xmlns="http://www.topografix.com/GPX/1/1"
     xmlns:k100="https://github.com/jay-jang/kr-100-mountains/ns/1"
     xmlns:xsi="http://www.w3.org/2001/XMLSchema-instance"
     xsi:schemaLocation="http://www.topografix.com/GPX/1/1 http://www.topografix.com/GPX/1/1/gpx.xsd">
  <metadata>
    <name>천성산 · 내원사-천성산 억새능선 코스 (OSM 계산 경로)</name>
    <desc>실제 GPS 기록이 아닙니다. OpenStreetMap에 등록된 등산로 선형 위에서 계산한 경로이며, 현장 통제·훼손·출입 제한·계절 통제를 반영하지 않을 수 있습니다. 산행 전 공식 안내를 확인하세요.</desc>
    <time>2026-08-04T05:44:57.817Z</time>
    <link href="https://www.openstreetmap.org/copyright"><text>© OpenStreetMap contributors (ODbL 1.0)</text></link>
    <link href="https://registry.opendata.aws/terrain-tiles/"><text>Elevation: SRTM 1 arc-second (NASA/USGS) via AWS Terrain Tiles</text></link>
    <extensions>
      <k100:provenance>osm-routed</k100:provenance>
      <k100:not_a_recorded_track>true</k100:not_a_recorded_track>
      <k100:mountain_id>cheonseongsan</k100:mountain_id>
      <k100:mountain_name>천성산</k100:mountain_name>
      <k100:route_id>cheonseongsan-3b746996</k100:route_id>
      <k100:route_index>2</k100:route_index>
      <k100:route_name>내원사-천성산 억새능선 코스</k100:route_name>
      <k100:variant>0</k100:variant>
      <k100:source>OpenStreetMap via Overpass API</k100:source>
      <k100:license>ODbL-1.0</k100:license>
      <k100:attribution>© OpenStreetMap contributors</k100:attribution>
      <k100:elevation_source>SRTM 1 arc-second (NASA/USGS) — AWS Terrain Tiles 배포본. 지형 DEM 추정 고도이며 실측 아님</k100:elevation_source>
      <k100:algorithm>dijkstra-grid-v1</k100:algorithm>
      <k100:osm_snapshot>2026-08-04</k100:osm_snapshot>
      <k100:snap_trailhead_m>18</k100:snap_trailhead_m>
      <k100:snap_summit_m>107</k100:snap_summit_m>
      <k100:validation_score>89</k100:validation_score>
      <k100:validation_status>accepted</k100:validation_status>
    </extensions>
  </metadata>
  <trk>
    <name>천성산 · 내원사-천성산 억새능선 코스 (OSM 계산 경로)</name>
    <desc>실제 GPS 기록이 아닙니다. OpenStreetMap에 등록된 등산로 선형 위에서 계산한 경로이며, 현장 통제·훼손·출입 제한·계절 통제를 반영하지 않을 수 있습니다. 산행 전 공식 안내를 확인하세요.</desc>
    <trkseg>
      <trkpt lat="35.441981" lon="129.079950"><ele>95.5</ele></trkpt>
      <trkpt lat="35.442234" lon="129.080005"><ele>90.9</ele></trkpt>
      <trkpt lat="35.442207" lon="129.080270"><ele>93.4</ele></trkpt>
      <trkpt lat="35.442289" lon="129.080464"><ele>95.9</ele></trkpt>
      <trkpt lat="35.442087" lon="129.080826"><ele>104.9</ele></trkpt>
      <trkpt lat="35.441821" lon="129.081156"><ele>114.9</ele></trkpt>
      <trkpt lat="35.441391" lon="129.081495"><ele>128.7</ele></trkpt>
      <trkpt lat="35.441312" lon="129.081689"><ele>135.0</ele></trkpt>
      <trkpt lat="35.440909" lon="129.082237"><ele>154.0</ele></trkpt>
      <trkpt lat="35.440893" lon="129.082452"><ele>161.9</ele></trkpt>
      <trkpt lat="35.440798" lon="129.082652"><ele>168.7</ele></trkpt>
      <trkpt lat="35.440153" lon="129.082777"><ele>183.7</ele></trkpt>
      <trkpt lat="35.439677" lon="129.083428"><ele>208.3</ele></trkpt>
      <trkpt lat="35.439588" lon="129.083625"><ele>216.8</ele></trkpt>
      <trkpt lat="35.439579" lon="129.083807"><ele>221.5</ele></trkpt>
      <trkpt lat="35.439464" lon="129.084176"><ele>230.1</ele></trkpt>
      <trkpt lat="35.439437" lon="129.085040"><ele>259.6</ele></trkpt>
      <trkpt lat="35.439202" lon="129.085975"><ele>285.7</ele></trkpt>
      <trkpt lat="35.439024" lon="129.086426"><ele>296.2</ele></trkpt>
      <trkpt lat="35.438799" lon="129.086846"><ele>307.1</ele></trkpt>
      <trkpt lat="35.438753" lon="129.087074"><ele>310.9</ele></trkpt>
      <trkpt lat="35.438644" lon="129.087215"><ele>313.6</ele></trkpt>
      <trkpt lat="35.438600" lon="129.087679"><ele>325.2</ele></trkpt>
      <trkpt lat="35.438291" lon="129.087942"><ele>328.9</ele></trkpt>
      <trkpt lat="35.438354" lon="129.088480"><ele>332.8</ele></trkpt>
      <trkpt lat="35.438433" lon="129.088701"><ele>337.4</ele></trkpt>
      <trkpt lat="35.438417" lon="129.088942"><ele>339.1</ele></trkpt>
      <trkpt lat="35.438133" lon="129.089264"><ele>335.5</ele></trkpt>
      <trkpt lat="35.438041" lon="129.089444"><ele>339.6</ele></trkpt>
      <trkpt lat="35.437640" lon="129.089767"><ele>340.4</ele></trkpt>
      <trkpt lat="35.437456" lon="129.090110"><ele>342.9</ele></trkpt>
      <trkpt lat="35.437440" lon="129.090346"><ele>346.7</ele></trkpt>
      <trkpt lat="35.437331" lon="129.090602"><ele>346.4</ele></trkpt>
      <trkpt lat="35.437356" lon="129.091032"><ele>346.5</ele></trkpt>
      <trkpt lat="35.437413" lon="129.091085"><ele>346.9</ele></trkpt>
      <trkpt lat="35.437220" lon="129.091354"><ele>344.0</ele></trkpt>
      <trkpt lat="35.437159" lon="129.091684"><ele>342.5</ele></trkpt>
      <trkpt lat="35.437131" lon="129.092134"><ele>339.1</ele></trkpt>
      <trkpt lat="35.437242" lon="129.092547"><ele>344.5</ele></trkpt>
      <trkpt lat="35.437153" lon="129.092829"><ele>351.9</ele></trkpt>
      <trkpt lat="35.437203" lon="129.092942"><ele>354.8</ele></trkpt>
      <trkpt lat="35.437105" lon="129.093207"><ele>360.4</ele></trkpt>
      <trkpt lat="35.436834" lon="129.093290"><ele>360.6</ele></trkpt>
      <trkpt lat="35.436744" lon="129.093435"><ele>360.9</ele></trkpt>
      <trkpt lat="35.436366" lon="129.093792"><ele>357.9</ele></trkpt>
      <trkpt lat="35.435949" lon="129.094065"><ele>363.2</ele></trkpt>
      <trkpt lat="35.435879" lon="129.094170"><ele>367.7</ele></trkpt>
      <trkpt lat="35.435870" lon="129.094312"><ele>368.6</ele></trkpt>
      <trkpt lat="35.435765" lon="129.094385"><ele>368.8</ele></trkpt>
      <trkpt lat="35.435802" lon="129.094489"><ele>368.7</ele></trkpt>
      <trkpt lat="35.435625" lon="129.094800"><ele>356.9</ele></trkpt>
      <trkpt lat="35.434838" lon="129.095353"><ele>355.6</ele></trkpt>
      <trkpt lat="35.434729" lon="129.095586"><ele>352.6</ele></trkpt>
      <trkpt lat="35.434117" lon="129.096227"><ele>346.5</ele></trkpt>
      <trkpt lat="35.433593" lon="129.096356"><ele>345.0</ele></trkpt>
      <trkpt lat="35.433232" lon="129.096624"><ele>347.5</ele></trkpt>
      <trkpt lat="35.432183" lon="129.097214"><ele>365.8</ele></trkpt>
      <trkpt lat="35.431903" lon="129.097222"><ele>365.9</ele></trkpt>
      <trkpt lat="35.431728" lon="129.097153"><ele>364.7</ele></trkpt>
      <trkpt lat="35.431527" lon="129.096922"><ele>364.3</ele></trkpt>
      <trkpt lat="35.431149" lon="129.096927"><ele>363.3</ele></trkpt>
      <trkpt lat="35.430837" lon="129.096608"><ele>357.0</ele></trkpt>
      <trkpt lat="35.430292" lon="129.096770"><ele>355.2</ele></trkpt>
      <trkpt lat="35.430064" lon="129.097145"><ele>347.0</ele></trkpt>
      <trkpt lat="35.429851" lon="129.097103"><ele>351.1</ele></trkpt>
      <trkpt lat="35.429653" lon="129.097131"><ele>353.2</ele></trkpt>
      <trkpt lat="35.429923" lon="129.097458"><ele>334.2</ele></trkpt>
      <trkpt lat="35.430048" lon="129.097463"><ele>333.6</ele></trkpt>
      <trkpt lat="35.429862" lon="129.097542"><ele>330.5</ele></trkpt>
      <trkpt lat="35.429683" lon="129.097496"><ele>333.9</ele></trkpt>
      <trkpt lat="35.429432" lon="129.097701"><ele>326.6</ele></trkpt>
      <trkpt lat="35.429006" lon="129.098724"><ele>294.5</ele></trkpt>
      <trkpt lat="35.429127" lon="129.098981"><ele>289.2</ele></trkpt>
      <trkpt lat="35.428895" lon="129.099144"><ele>284.5</ele></trkpt>
      <trkpt lat="35.428762" lon="129.099406"><ele>276.0</ele></trkpt>
      <trkpt lat="35.428804" lon="129.099793"><ele>265.2</ele></trkpt>
      <trkpt lat="35.428671" lon="129.099933"><ele>260.7</ele></trkpt>
      <trkpt lat="35.428800" lon="129.100200"><ele>249.3</ele></trkpt>
      <trkpt lat="35.428652" lon="129.100298"><ele>246.3</ele></trkpt>
      <trkpt lat="35.428739" lon="129.100466"><ele>241.5</ele></trkpt>
      <trkpt lat="35.428755" lon="129.100610"><ele>238.2</ele></trkpt>
      <trkpt lat="35.428587" lon="129.100961"><ele>234.1</ele></trkpt>
      <trkpt lat="35.428690" lon="129.101250"><ele>229.1</ele></trkpt>
      <trkpt lat="35.428686" lon="129.101488"><ele>223.8</ele></trkpt>
      <trkpt lat="35.428819" lon="129.101932"><ele>215.3</ele></trkpt>
      <trkpt lat="35.428812" lon="129.102100"><ele>211.1</ele></trkpt>
      <trkpt lat="35.428659" lon="129.102198"><ele>207.1</ele></trkpt>
      <trkpt lat="35.428610" lon="129.102343"><ele>203.8</ele></trkpt>
      <trkpt lat="35.428542" lon="129.102404"><ele>203.8</ele></trkpt>
      <trkpt lat="35.428195" lon="129.102612"><ele>204.3</ele></trkpt>
      <trkpt lat="35.427475" lon="129.102564"><ele>207.0</ele></trkpt>
      <trkpt lat="35.427366" lon="129.102806"><ele>206.2</ele></trkpt>
      <trkpt lat="35.426826" lon="129.103059"><ele>205.9</ele></trkpt>
      <trkpt lat="35.426313" lon="129.103449"><ele>211.9</ele></trkpt>
      <trkpt lat="35.425988" lon="129.103835"><ele>215.1</ele></trkpt>
      <trkpt lat="35.425420" lon="129.104661"><ele>226.6</ele></trkpt>
      <trkpt lat="35.424727" lon="129.105489"><ele>222.6</ele></trkpt>
      <trkpt lat="35.424474" lon="129.105640"><ele>226.9</ele></trkpt>
      <trkpt lat="35.424348" lon="129.105651"><ele>228.6</ele></trkpt>
      <trkpt lat="35.424234" lon="129.105758"><ele>231.4</ele></trkpt>
      <trkpt lat="35.424161" lon="129.106220"><ele>235.8</ele></trkpt>
      <trkpt lat="35.423762" lon="129.107028"><ele>246.2</ele></trkpt>
      <trkpt lat="35.423570" lon="129.107318"><ele>253.3</ele></trkpt>
      <trkpt lat="35.423391" lon="129.107429"><ele>256.3</ele></trkpt>
      <trkpt lat="35.422799" lon="129.107525"><ele>264.7</ele></trkpt>
      <trkpt lat="35.422587" lon="129.107621"><ele>270.7</ele></trkpt>
      <trkpt lat="35.422352" lon="129.107959"><ele>274.7</ele></trkpt>
      <trkpt lat="35.422078" lon="129.108033"><ele>278.5</ele></trkpt>
      <trkpt lat="35.421917" lon="129.108155"><ele>282.3</ele></trkpt>
      <trkpt lat="35.421529" lon="129.108745"><ele>293.8</ele></trkpt>
      <trkpt lat="35.421309" lon="129.109309"><ele>295.9</ele></trkpt>
      <trkpt lat="35.421130" lon="129.109497"><ele>303.4</ele></trkpt>
      <trkpt lat="35.421058" lon="129.109649"><ele>305.9</ele></trkpt>
      <trkpt lat="35.420958" lon="129.109652"><ele>309.4</ele></trkpt>
      <trkpt lat="35.420783" lon="129.109899"><ele>313.7</ele></trkpt>
      <trkpt lat="35.420100" lon="129.110544"><ele>333.5</ele></trkpt>
      <trkpt lat="35.420083" lon="129.110735"><ele>337.9</ele></trkpt>
      <trkpt lat="35.419911" lon="129.111120"><ele>348.6</ele></trkpt>
    </trkseg>
  </trk>
</gpx>
