<?xml version="1.0" encoding="UTF-8"?>
<gpx version="1.1" creator="kr-100-mountains route-harvester"
     xmlns="http://www.topografix.com/GPX/1/1"
     xmlns:k100="https://github.com/jay-jang/kr-100-mountains/ns/1"
     xmlns:xsi="http://www.w3.org/2001/XMLSchema-instance"
     xsi:schemaLocation="http://www.topografix.com/GPX/1/1 http://www.topografix.com/GPX/1/1/gpx.xsd">
  <metadata>
    <name>천성산 · 홍룡사-원효봉(제1봉) 코스 (OSM 계산 경로)</name>
    <desc>실제 GPS 기록이 아닙니다. OpenStreetMap에 등록된 등산로 선형 위에서 계산한 경로이며, 현장 통제·훼손·출입 제한·계절 통제를 반영하지 않을 수 있습니다. 산행 전 공식 안내를 확인하세요.</desc>
    <time>2026-08-04T05:44:57.753Z</time>
    <link href="https://www.openstreetmap.org/copyright"><text>© OpenStreetMap contributors (ODbL 1.0)</text></link>
    <link href="https://registry.opendata.aws/terrain-tiles/"><text>Elevation: SRTM 1 arc-second (NASA/USGS) via AWS Terrain Tiles</text></link>
    <extensions>
      <k100:provenance>osm-routed</k100:provenance>
      <k100:not_a_recorded_track>true</k100:not_a_recorded_track>
      <k100:mountain_id>cheonseongsan</k100:mountain_id>
      <k100:mountain_name>천성산</k100:mountain_name>
      <k100:route_id>cheonseongsan-bb61544f</k100:route_id>
      <k100:route_index>1</k100:route_index>
      <k100:route_name>홍룡사-원효봉(제1봉) 코스</k100:route_name>
      <k100:variant>0</k100:variant>
      <k100:source>OpenStreetMap via Overpass API</k100:source>
      <k100:license>ODbL-1.0</k100:license>
      <k100:attribution>© OpenStreetMap contributors</k100:attribution>
      <k100:elevation_source>SRTM 1 arc-second (NASA/USGS) — AWS Terrain Tiles 배포본. 지형 DEM 추정 고도이며 실측 아님</k100:elevation_source>
      <k100:algorithm>dijkstra-grid-v1</k100:algorithm>
      <k100:osm_snapshot>2026-08-04</k100:osm_snapshot>
      <k100:snap_trailhead_m>42</k100:snap_trailhead_m>
      <k100:snap_summit_m>107</k100:snap_summit_m>
      <k100:validation_score>82</k100:validation_score>
      <k100:validation_status>accepted</k100:validation_status>
    </extensions>
  </metadata>
  <trk>
    <name>천성산 · 홍룡사-원효봉(제1봉) 코스 (OSM 계산 경로)</name>
    <desc>실제 GPS 기록이 아닙니다. OpenStreetMap에 등록된 등산로 선형 위에서 계산한 경로이며, 현장 통제·훼손·출입 제한·계절 통제를 반영하지 않을 수 있습니다. 산행 전 공식 안내를 확인하세요.</desc>
    <trkseg>
      <trkpt lat="35.393850" lon="129.083850"><ele>221.4</ele></trkpt>
      <trkpt lat="35.394158" lon="129.083951"><ele>225.9</ele></trkpt>
      <trkpt lat="35.394574" lon="129.084207"><ele>234.5</ele></trkpt>
      <trkpt lat="35.394911" lon="129.084081"><ele>243.2</ele></trkpt>
      <trkpt lat="35.395015" lon="129.084128"><ele>245.4</ele></trkpt>
      <trkpt lat="35.395184" lon="129.084251"><ele>248.5</ele></trkpt>
      <trkpt lat="35.395720" lon="129.084487"><ele>261.0</ele></trkpt>
      <trkpt lat="35.395891" lon="129.084629"><ele>266.0</ele></trkpt>
      <trkpt lat="35.396130" lon="129.084707"><ele>273.4</ele></trkpt>
      <trkpt lat="35.396954" lon="129.085303"><ele>289.9</ele></trkpt>
      <trkpt lat="35.397148" lon="129.085306"><ele>293.5</ele></trkpt>
      <trkpt lat="35.397302" lon="129.085488"><ele>296.1</ele></trkpt>
      <trkpt lat="35.397488" lon="129.085477"><ele>300.4</ele></trkpt>
      <trkpt lat="35.397560" lon="129.085614"><ele>300.9</ele></trkpt>
      <trkpt lat="35.397674" lon="129.085643"><ele>301.9</ele></trkpt>
      <trkpt lat="35.397774" lon="129.085879"><ele>303.1</ele></trkpt>
      <trkpt lat="35.398126" lon="129.086300"><ele>314.8</ele></trkpt>
      <trkpt lat="35.398262" lon="129.086621"><ele>322.7</ele></trkpt>
      <trkpt lat="35.398268" lon="129.087173"><ele>330.5</ele></trkpt>
      <trkpt lat="35.398043" lon="129.087304"><ele>329.9</ele></trkpt>
      <trkpt lat="35.398032" lon="129.087411"><ele>331.4</ele></trkpt>
      <trkpt lat="35.398356" lon="129.087985"><ele>348.8</ele></trkpt>
      <trkpt lat="35.398447" lon="129.088293"><ele>353.0</ele></trkpt>
      <trkpt lat="35.398788" lon="129.088630"><ele>366.9</ele></trkpt>
      <trkpt lat="35.398879" lon="129.089091"><ele>379.5</ele></trkpt>
      <trkpt lat="35.399163" lon="129.089385"><ele>392.0</ele></trkpt>
      <trkpt lat="35.399219" lon="129.089363"><ele>394.3</ele></trkpt>
      <trkpt lat="35.399305" lon="129.089549"><ele>401.6</ele></trkpt>
      <trkpt lat="35.399359" lon="129.089540"><ele>404.2</ele></trkpt>
      <trkpt lat="35.399499" lon="129.089651"><ele>411.6</ele></trkpt>
      <trkpt lat="35.399598" lon="129.089629"><ele>414.3</ele></trkpt>
      <trkpt lat="35.399668" lon="129.089774"><ele>418.8</ele></trkpt>
      <trkpt lat="35.399766" lon="129.089768"><ele>421.8</ele></trkpt>
      <trkpt lat="35.399803" lon="129.089852"><ele>423.7</ele></trkpt>
      <trkpt lat="35.399938" lon="129.089842"><ele>427.5</ele></trkpt>
      <trkpt lat="35.400050" lon="129.090166"><ele>435.7</ele></trkpt>
      <trkpt lat="35.400181" lon="129.090265"><ele>442.3</ele></trkpt>
      <trkpt lat="35.400233" lon="129.090469"><ele>449.7</ele></trkpt>
      <trkpt lat="35.400194" lon="129.090571"><ele>450.7</ele></trkpt>
      <trkpt lat="35.400257" lon="129.090712"><ele>455.9</ele></trkpt>
      <trkpt lat="35.400341" lon="129.090686"><ele>458.7</ele></trkpt>
      <trkpt lat="35.400833" lon="129.090900"><ele>482.7</ele></trkpt>
      <trkpt lat="35.400936" lon="129.091088"><ele>491.8</ele></trkpt>
      <trkpt lat="35.401122" lon="129.091099"><ele>500.0</ele></trkpt>
      <trkpt lat="35.401283" lon="129.091622"><ele>517.5</ele></trkpt>
      <trkpt lat="35.401377" lon="129.091437"><ele>520.9</ele></trkpt>
      <trkpt lat="35.401476" lon="129.091595"><ele>527.9</ele></trkpt>
      <trkpt lat="35.401530" lon="129.091480"><ele>529.6</ele></trkpt>
      <trkpt lat="35.401646" lon="129.091442"><ele>535.5</ele></trkpt>
      <trkpt lat="35.401775" lon="129.091606"><ele>544.1</ele></trkpt>
      <trkpt lat="35.401891" lon="129.091547"><ele>549.5</ele></trkpt>
      <trkpt lat="35.402009" lon="129.091578"><ele>555.3</ele></trkpt>
      <trkpt lat="35.403126" lon="129.092357"><ele>606.7</ele></trkpt>
      <trkpt lat="35.403221" lon="129.092540"><ele>613.6</ele></trkpt>
      <trkpt lat="35.403479" lon="129.092737"><ele>624.5</ele></trkpt>
      <trkpt lat="35.403651" lon="129.092719"><ele>630.4</ele></trkpt>
      <trkpt lat="35.403760" lon="129.092622"><ele>630.8</ele></trkpt>
      <trkpt lat="35.403948" lon="129.092732"><ele>636.4</ele></trkpt>
      <trkpt lat="35.404075" lon="129.092896"><ele>641.5</ele></trkpt>
      <trkpt lat="35.404250" lon="129.092909"><ele>647.5</ele></trkpt>
      <trkpt lat="35.404508" lon="129.093283"><ele>663.3</ele></trkpt>
      <trkpt lat="35.404728" lon="129.093226"><ele>668.8</ele></trkpt>
      <trkpt lat="35.404893" lon="129.093609"><ele>675.0</ele></trkpt>
      <trkpt lat="35.404950" lon="129.093658"><ele>677.1</ele></trkpt>
      <trkpt lat="35.405081" lon="129.094398"><ele>693.7</ele></trkpt>
      <trkpt lat="35.405175" lon="129.094642"><ele>698.4</ele></trkpt>
      <trkpt lat="35.405122" lon="129.094779"><ele>701.0</ele></trkpt>
      <trkpt lat="35.405332" lon="129.095339"><ele>710.6</ele></trkpt>
      <trkpt lat="35.405442" lon="129.095425"><ele>712.4</ele></trkpt>
      <trkpt lat="35.405546" lon="129.095436"><ele>714.1</ele></trkpt>
      <trkpt lat="35.405658" lon="129.095645"><ele>716.4</ele></trkpt>
      <trkpt lat="35.405730" lon="129.095624"><ele>716.7</ele></trkpt>
      <trkpt lat="35.405745" lon="129.095688"><ele>717.5</ele></trkpt>
      <trkpt lat="35.405820" lon="129.095718"><ele>718.7</ele></trkpt>
      <trkpt lat="35.405818" lon="129.095922"><ele>721.5</ele></trkpt>
      <trkpt lat="35.405962" lon="129.095927"><ele>724.6</ele></trkpt>
      <trkpt lat="35.406194" lon="129.096286"><ele>735.3</ele></trkpt>
      <trkpt lat="35.406347" lon="129.096418"><ele>740.4</ele></trkpt>
      <trkpt lat="35.406412" lon="129.096404"><ele>741.8</ele></trkpt>
      <trkpt lat="35.406471" lon="129.096619"><ele>747.4</ele></trkpt>
      <trkpt lat="35.406530" lon="129.096587"><ele>748.3</ele></trkpt>
      <trkpt lat="35.407008" lon="129.097283"><ele>766.4</ele></trkpt>
      <trkpt lat="35.407304" lon="129.096981"><ele>770.0</ele></trkpt>
      <trkpt lat="35.408015" lon="129.097040"><ele>778.8</ele></trkpt>
      <trkpt lat="35.408192" lon="129.097091"><ele>777.9</ele></trkpt>
      <trkpt lat="35.408373" lon="129.097220"><ele>775.0</ele></trkpt>
      <trkpt lat="35.408634" lon="129.097271"><ele>767.7</ele></trkpt>
      <trkpt lat="35.408695" lon="129.097450"><ele>764.1</ele></trkpt>
      <trkpt lat="35.408826" lon="129.097515"><ele>761.0</ele></trkpt>
      <trkpt lat="35.408828" lon="129.097770"><ele>757.8</ele></trkpt>
      <trkpt lat="35.409778" lon="129.098203"><ele>729.9</ele></trkpt>
      <trkpt lat="35.410483" lon="129.098282"><ele>719.1</ele></trkpt>
      <trkpt lat="35.410955" lon="129.098215"><ele>708.2</ele></trkpt>
      <trkpt lat="35.411303" lon="129.098323"><ele>698.3</ele></trkpt>
      <trkpt lat="35.412219" lon="129.097924"><ele>675.0</ele></trkpt>
      <trkpt lat="35.412647" lon="129.097521"><ele>663.4</ele></trkpt>
      <trkpt lat="35.412732" lon="129.097346"><ele>660.0</ele></trkpt>
      <trkpt lat="35.412999" lon="129.097013"><ele>650.9</ele></trkpt>
      <trkpt lat="35.413527" lon="129.096623"><ele>640.9</ele></trkpt>
      <trkpt lat="35.414059" lon="129.096495"><ele>634.9</ele></trkpt>
      <trkpt lat="35.414712" lon="129.096729"><ele>611.5</ele></trkpt>
      <trkpt lat="35.415220" lon="129.097044"><ele>596.7</ele></trkpt>
      <trkpt lat="35.415609" lon="129.097107"><ele>584.7</ele></trkpt>
      <trkpt lat="35.415920" lon="129.097259"><ele>574.4</ele></trkpt>
      <trkpt lat="35.416252" lon="129.097289"><ele>563.6</ele></trkpt>
      <trkpt lat="35.416633" lon="129.097447"><ele>554.5</ele></trkpt>
      <trkpt lat="35.417095" lon="129.097773"><ele>540.1</ele></trkpt>
      <trkpt lat="35.417699" lon="129.098006"><ele>517.4</ele></trkpt>
      <trkpt lat="35.417911" lon="129.097987"><ele>511.8</ele></trkpt>
      <trkpt lat="35.417994" lon="129.098065"><ele>510.2</ele></trkpt>
      <trkpt lat="35.418283" lon="129.098115"><ele>506.7</ele></trkpt>
      <trkpt lat="35.418796" lon="129.098643"><ele>494.7</ele></trkpt>
      <trkpt lat="35.419074" lon="129.098830"><ele>487.3</ele></trkpt>
      <trkpt lat="35.419690" lon="129.099041"><ele>469.2</ele></trkpt>
      <trkpt lat="35.420167" lon="129.099082"><ele>454.0</ele></trkpt>
      <trkpt lat="35.420426" lon="129.099178"><ele>447.7</ele></trkpt>
      <trkpt lat="35.420790" lon="129.099456"><ele>435.7</ele></trkpt>
      <trkpt lat="35.420989" lon="129.099423"><ele>430.6</ele></trkpt>
      <trkpt lat="35.421174" lon="129.099594"><ele>426.0</ele></trkpt>
      <trkpt lat="35.421266" lon="129.099918"><ele>420.7</ele></trkpt>
      <trkpt lat="35.421188" lon="129.100122"><ele>415.0</ele></trkpt>
      <trkpt lat="35.421207" lon="129.100553"><ele>401.4</ele></trkpt>
      <trkpt lat="35.421327" lon="129.100695"><ele>396.8</ele></trkpt>
      <trkpt lat="35.422042" lon="129.101123"><ele>378.3</ele></trkpt>
      <trkpt lat="35.422347" lon="129.101098"><ele>374.7</ele></trkpt>
      <trkpt lat="35.422493" lon="129.101147"><ele>369.7</ele></trkpt>
      <trkpt lat="35.422612" lon="129.101307"><ele>362.1</ele></trkpt>
      <trkpt lat="35.423074" lon="129.102258"><ele>336.0</ele></trkpt>
      <trkpt lat="35.423507" lon="129.102432"><ele>316.5</ele></trkpt>
      <trkpt lat="35.423560" lon="129.102684"><ele>309.5</ele></trkpt>
      <trkpt lat="35.423785" lon="129.102602"><ele>302.3</ele></trkpt>
      <trkpt lat="35.423944" lon="129.102724"><ele>294.6</ele></trkpt>
      <trkpt lat="35.424022" lon="129.103012"><ele>285.3</ele></trkpt>
      <trkpt lat="35.424019" lon="129.103573"><ele>267.4</ele></trkpt>
      <trkpt lat="35.423797" lon="129.103788"><ele>260.4</ele></trkpt>
      <trkpt lat="35.423834" lon="129.103806"><ele>259.2</ele></trkpt>
      <trkpt lat="35.423838" lon="129.103932"><ele>253.0</ele></trkpt>
      <trkpt lat="35.423783" lon="129.104002"><ele>249.8</ele></trkpt>
      <trkpt lat="35.423816" lon="129.104096"><ele>245.0</ele></trkpt>
      <trkpt lat="35.423890" lon="129.104147"><ele>242.0</ele></trkpt>
      <trkpt lat="35.423890" lon="129.104219"><ele>239.5</ele></trkpt>
      <trkpt lat="35.423713" lon="129.104364"><ele>236.6</ele></trkpt>
      <trkpt lat="35.424039" lon="129.104657"><ele>229.6</ele></trkpt>
      <trkpt lat="35.424113" lon="129.104882"><ele>228.5</ele></trkpt>
      <trkpt lat="35.424168" lon="129.104887"><ele>228.0</ele></trkpt>
      <trkpt lat="35.424203" lon="129.104769"><ele>227.3</ele></trkpt>
      <trkpt lat="35.424370" lon="129.104677"><ele>225.2</ele></trkpt>
      <trkpt lat="35.424407" lon="129.104590"><ele>226.3</ele></trkpt>
      <trkpt lat="35.424386" lon="129.104294"><ele>234.0</ele></trkpt>
      <trkpt lat="35.424516" lon="129.104293"><ele>232.5</ele></trkpt>
      <trkpt lat="35.424572" lon="129.104690"><ele>222.7</ele></trkpt>
      <trkpt lat="35.424650" lon="129.104720"><ele>221.6</ele></trkpt>
      <trkpt lat="35.424601" lon="129.105085"><ele>221.2</ele></trkpt>
      <trkpt lat="35.424727" lon="129.105489"><ele>222.6</ele></trkpt>
      <trkpt lat="35.424474" lon="129.105640"><ele>226.9</ele></trkpt>
      <trkpt lat="35.424348" lon="129.105651"><ele>228.6</ele></trkpt>
      <trkpt lat="35.424234" lon="129.105758"><ele>231.4</ele></trkpt>
      <trkpt lat="35.424161" lon="129.106220"><ele>235.8</ele></trkpt>
      <trkpt lat="35.423762" lon="129.107028"><ele>246.2</ele></trkpt>
      <trkpt lat="35.423570" lon="129.107318"><ele>253.3</ele></trkpt>
      <trkpt lat="35.423391" lon="129.107429"><ele>256.3</ele></trkpt>
      <trkpt lat="35.422799" lon="129.107525"><ele>264.7</ele></trkpt>
      <trkpt lat="35.422587" lon="129.107621"><ele>270.7</ele></trkpt>
      <trkpt lat="35.422352" lon="129.107959"><ele>274.7</ele></trkpt>
      <trkpt lat="35.422078" lon="129.108033"><ele>278.5</ele></trkpt>
      <trkpt lat="35.421917" lon="129.108155"><ele>282.3</ele></trkpt>
      <trkpt lat="35.421529" lon="129.108745"><ele>293.8</ele></trkpt>
      <trkpt lat="35.421309" lon="129.109309"><ele>295.9</ele></trkpt>
      <trkpt lat="35.421130" lon="129.109497"><ele>303.4</ele></trkpt>
      <trkpt lat="35.421058" lon="129.109649"><ele>305.9</ele></trkpt>
      <trkpt lat="35.420958" lon="129.109652"><ele>309.4</ele></trkpt>
      <trkpt lat="35.420783" lon="129.109899"><ele>313.7</ele></trkpt>
      <trkpt lat="35.420100" lon="129.110544"><ele>333.5</ele></trkpt>
      <trkpt lat="35.420083" lon="129.110735"><ele>337.9</ele></trkpt>
      <trkpt lat="35.419911" lon="129.111120"><ele>348.6</ele></trkpt>
    </trkseg>
  </trk>
</gpx>
