<?xml version="1.0" encoding="UTF-8"?>
<gpx version="1.1" creator="kr-100-mountains route-harvester"
     xmlns="http://www.topografix.com/GPX/1/1"
     xmlns:k100="https://github.com/jay-jang/kr-100-mountains/ns/1"
     xmlns:xsi="http://www.w3.org/2001/XMLSchema-instance"
     xsi:schemaLocation="http://www.topografix.com/GPX/1/1 http://www.topografix.com/GPX/1/1/gpx.xsd">
  <metadata>
    <name>천성산 · 홍룡사-원효봉(제1봉) 코스 (대안 1) (OSM 계산 경로)</name>
    <desc>실제 GPS 기록이 아닙니다. OpenStreetMap에 등록된 등산로 선형 위에서 계산한 경로이며, 현장 통제·훼손·출입 제한·계절 통제를 반영하지 않을 수 있습니다. 산행 전 공식 안내를 확인하세요.</desc>
    <time>2026-08-04T05:44:57.754Z</time>
    <link href="https://www.openstreetmap.org/copyright"><text>© OpenStreetMap contributors (ODbL 1.0)</text></link>
    <link href="https://registry.opendata.aws/terrain-tiles/"><text>Elevation: SRTM 1 arc-second (NASA/USGS) via AWS Terrain Tiles</text></link>
    <extensions>
      <k100:provenance>osm-routed</k100:provenance>
      <k100:not_a_recorded_track>true</k100:not_a_recorded_track>
      <k100:mountain_id>cheonseongsan</k100:mountain_id>
      <k100:mountain_name>천성산</k100:mountain_name>
      <k100:route_id>cheonseongsan-bb61544f</k100:route_id>
      <k100:route_index>1</k100:route_index>
      <k100:route_name>홍룡사-원효봉(제1봉) 코스</k100:route_name>
      <k100:variant>1</k100:variant>
      <k100:source>OpenStreetMap via Overpass API</k100:source>
      <k100:license>ODbL-1.0</k100:license>
      <k100:attribution>© OpenStreetMap contributors</k100:attribution>
      <k100:elevation_source>SRTM 1 arc-second (NASA/USGS) — AWS Terrain Tiles 배포본. 지형 DEM 추정 고도이며 실측 아님</k100:elevation_source>
      <k100:algorithm>dijkstra-grid-v1</k100:algorithm>
      <k100:osm_snapshot>2026-08-04</k100:osm_snapshot>
      <k100:snap_trailhead_m>42</k100:snap_trailhead_m>
      <k100:snap_summit_m>107</k100:snap_summit_m>
      <k100:validation_score>82</k100:validation_score>
      <k100:validation_status>accepted</k100:validation_status>
    </extensions>
  </metadata>
  <trk>
    <name>천성산 · 홍룡사-원효봉(제1봉) 코스 (대안 1) (OSM 계산 경로)</name>
    <desc>실제 GPS 기록이 아닙니다. OpenStreetMap에 등록된 등산로 선형 위에서 계산한 경로이며, 현장 통제·훼손·출입 제한·계절 통제를 반영하지 않을 수 있습니다. 산행 전 공식 안내를 확인하세요.</desc>
    <trkseg>
      <trkpt lat="35.393850" lon="129.083850"><ele>221.4</ele></trkpt>
      <trkpt lat="35.393403" lon="129.083592"><ele>210.5</ele></trkpt>
      <trkpt lat="35.392977" lon="129.083619"><ele>195.3</ele></trkpt>
      <trkpt lat="35.392762" lon="129.083477"><ele>191.2</ele></trkpt>
      <trkpt lat="35.392016" lon="129.083331"><ele>177.1</ele></trkpt>
      <trkpt lat="35.391595" lon="129.083054"><ele>169.2</ele></trkpt>
      <trkpt lat="35.391311" lon="129.082759"><ele>162.3</ele></trkpt>
      <trkpt lat="35.391042" lon="129.082662"><ele>157.5</ele></trkpt>
      <trkpt lat="35.390893" lon="129.082293"><ele>154.7</ele></trkpt>
      <trkpt lat="35.390746" lon="129.082073"><ele>152.4</ele></trkpt>
      <trkpt lat="35.390612" lon="129.082074"><ele>152.4</ele></trkpt>
      <trkpt lat="35.390651" lon="129.082338"><ele>155.8</ele></trkpt>
      <trkpt lat="35.389814" lon="129.084299"><ele>189.3</ele></trkpt>
      <trkpt lat="35.389994" lon="129.084571"><ele>189.8</ele></trkpt>
      <trkpt lat="35.389650" lon="129.086073"><ele>215.7</ele></trkpt>
      <trkpt lat="35.389729" lon="129.086256"><ele>219.8</ele></trkpt>
      <trkpt lat="35.389738" lon="129.086599"><ele>225.4</ele></trkpt>
      <trkpt lat="35.389895" lon="129.087178"><ele>231.7</ele></trkpt>
      <trkpt lat="35.389808" lon="129.087683"><ele>240.8</ele></trkpt>
      <trkpt lat="35.389860" lon="129.088005"><ele>248.5</ele></trkpt>
      <trkpt lat="35.389781" lon="129.088423"><ele>256.5</ele></trkpt>
      <trkpt lat="35.389816" lon="129.089228"><ele>268.0</ele></trkpt>
      <trkpt lat="35.389746" lon="129.090183"><ele>279.9</ele></trkpt>
      <trkpt lat="35.389615" lon="129.090365"><ele>281.8</ele></trkpt>
      <trkpt lat="35.389519" lon="129.090816"><ele>290.4</ele></trkpt>
      <trkpt lat="35.389755" lon="129.091481"><ele>304.1</ele></trkpt>
      <trkpt lat="35.389816" lon="129.091867"><ele>310.2</ele></trkpt>
      <trkpt lat="35.389956" lon="129.092210"><ele>321.1</ele></trkpt>
      <trkpt lat="35.390097" lon="129.092456"><ele>326.6</ele></trkpt>
      <trkpt lat="35.390304" lon="129.092424"><ele>326.9</ele></trkpt>
      <trkpt lat="35.390446" lon="129.092728"><ele>335.2</ele></trkpt>
      <trkpt lat="35.390435" lon="129.092963"><ele>340.1</ele></trkpt>
      <trkpt lat="35.390493" lon="129.093349"><ele>347.6</ele></trkpt>
      <trkpt lat="35.390644" lon="129.093585"><ele>352.7</ele></trkpt>
      <trkpt lat="35.390895" lon="129.093849"><ele>360.9</ele></trkpt>
      <trkpt lat="35.390959" lon="129.094735"><ele>377.7</ele></trkpt>
      <trkpt lat="35.391099" lon="129.095050"><ele>385.3</ele></trkpt>
      <trkpt lat="35.391081" lon="129.095271"><ele>387.5</ele></trkpt>
      <trkpt lat="35.391244" lon="129.095493"><ele>396.8</ele></trkpt>
      <trkpt lat="35.391279" lon="129.095664"><ele>401.0</ele></trkpt>
      <trkpt lat="35.391366" lon="129.095757"><ele>405.6</ele></trkpt>
      <trkpt lat="35.391430" lon="129.095957"><ele>411.1</ele></trkpt>
      <trkpt lat="35.391530" lon="129.096057"><ele>415.8</ele></trkpt>
      <trkpt lat="35.391623" lon="129.096264"><ele>420.4</ele></trkpt>
      <trkpt lat="35.391535" lon="129.096971"><ele>427.2</ele></trkpt>
      <trkpt lat="35.391687" lon="129.097171"><ele>433.8</ele></trkpt>
      <trkpt lat="35.391663" lon="129.097472"><ele>438.5</ele></trkpt>
      <trkpt lat="35.391693" lon="129.097622"><ele>442.1</ele></trkpt>
      <trkpt lat="35.391582" lon="129.098264"><ele>454.4</ele></trkpt>
      <trkpt lat="35.391669" lon="129.098472"><ele>462.1</ele></trkpt>
      <trkpt lat="35.391535" lon="129.098836"><ele>470.9</ele></trkpt>
      <trkpt lat="35.391559" lon="129.099079"><ele>479.1</ele></trkpt>
      <trkpt lat="35.391524" lon="129.099400"><ele>487.5</ele></trkpt>
      <trkpt lat="35.391546" lon="129.099510"><ele>491.3</ele></trkpt>
      <trkpt lat="35.392194" lon="129.100383"><ele>521.9</ele></trkpt>
      <trkpt lat="35.392157" lon="129.100570"><ele>522.7</ele></trkpt>
      <trkpt lat="35.391969" lon="129.100902"><ele>530.2</ele></trkpt>
      <trkpt lat="35.392034" lon="129.101071"><ele>538.2</ele></trkpt>
      <trkpt lat="35.392020" lon="129.101245"><ele>547.0</ele></trkpt>
      <trkpt lat="35.392065" lon="129.101457"><ele>558.7</ele></trkpt>
      <trkpt lat="35.392132" lon="129.101568"><ele>565.3</ele></trkpt>
      <trkpt lat="35.392159" lon="129.101937"><ele>580.6</ele></trkpt>
      <trkpt lat="35.392305" lon="129.102015"><ele>584.9</ele></trkpt>
      <trkpt lat="35.392509" lon="129.102551"><ele>607.7</ele></trkpt>
      <trkpt lat="35.392517" lon="129.102998"><ele>623.1</ele></trkpt>
      <trkpt lat="35.392640" lon="129.103055"><ele>626.5</ele></trkpt>
      <trkpt lat="35.392724" lon="129.103323"><ele>637.0</ele></trkpt>
      <trkpt lat="35.392828" lon="129.103446"><ele>644.2</ele></trkpt>
      <trkpt lat="35.392950" lon="129.103500"><ele>647.9</ele></trkpt>
      <trkpt lat="35.393068" lon="129.103669"><ele>658.2</ele></trkpt>
      <trkpt lat="35.393234" lon="129.103699"><ele>668.2</ele></trkpt>
      <trkpt lat="35.393366" lon="129.103649"><ele>670.5</ele></trkpt>
      <trkpt lat="35.393732" lon="129.103703"><ele>682.6</ele></trkpt>
      <trkpt lat="35.393802" lon="129.103805"><ele>690.3</ele></trkpt>
      <trkpt lat="35.394176" lon="129.103855"><ele>701.1</ele></trkpt>
      <trkpt lat="35.395036" lon="129.103737"><ele>722.0</ele></trkpt>
      <trkpt lat="35.395100" lon="129.103830"><ele>728.2</ele></trkpt>
      <trkpt lat="35.395327" lon="129.103966"><ele>741.5</ele></trkpt>
      <trkpt lat="35.395456" lon="129.103963"><ele>745.5</ele></trkpt>
      <trkpt lat="35.395179" lon="129.104035"><ele>740.5</ele></trkpt>
      <trkpt lat="35.394744" lon="129.104351"><ele>742.1</ele></trkpt>
      <trkpt lat="35.394482" lon="129.104358"><ele>739.1</ele></trkpt>
      <trkpt lat="35.394206" lon="129.104558"><ele>740.2</ele></trkpt>
      <trkpt lat="35.394065" lon="129.105016"><ele>746.8</ele></trkpt>
      <trkpt lat="35.393934" lon="129.105124"><ele>742.7</ele></trkpt>
      <trkpt lat="35.394075" lon="129.105354"><ele>749.7</ele></trkpt>
      <trkpt lat="35.394126" lon="129.105347"><ele>751.7</ele></trkpt>
      <trkpt lat="35.394173" lon="129.105412"><ele>752.8</ele></trkpt>
      <trkpt lat="35.394508" lon="129.105315"><ele>764.0</ele></trkpt>
      <trkpt lat="35.395288" lon="129.105570"><ele>780.0</ele></trkpt>
      <trkpt lat="35.395983" lon="129.105972"><ele>791.4</ele></trkpt>
      <trkpt lat="35.396179" lon="129.105931"><ele>799.1</ele></trkpt>
      <trkpt lat="35.396355" lon="129.105767"><ele>811.5</ele></trkpt>
      <trkpt lat="35.396523" lon="129.105770"><ele>815.7</ele></trkpt>
      <trkpt lat="35.397030" lon="129.106079"><ele>823.1</ele></trkpt>
      <trkpt lat="35.397124" lon="129.106311"><ele>822.8</ele></trkpt>
      <trkpt lat="35.397132" lon="129.106593"><ele>820.1</ele></trkpt>
      <trkpt lat="35.397649" lon="129.107261"><ele>832.3</ele></trkpt>
      <trkpt lat="35.397704" lon="129.107698"><ele>833.2</ele></trkpt>
      <trkpt lat="35.397980" lon="129.107893"><ele>841.3</ele></trkpt>
      <trkpt lat="35.398040" lon="129.108132"><ele>838.3</ele></trkpt>
      <trkpt lat="35.398275" lon="129.108517"><ele>840.2</ele></trkpt>
      <trkpt lat="35.398311" lon="129.108705"><ele>836.5</ele></trkpt>
      <trkpt lat="35.398454" lon="129.108731"><ele>841.0</ele></trkpt>
      <trkpt lat="35.398483" lon="129.108515"><ele>849.6</ele></trkpt>
      <trkpt lat="35.398621" lon="129.108458"><ele>857.5</ele></trkpt>
      <trkpt lat="35.398870" lon="129.108584"><ele>862.4</ele></trkpt>
      <trkpt lat="35.398927" lon="129.108700"><ele>859.8</ele></trkpt>
      <trkpt lat="35.399212" lon="129.108886"><ele>866.2</ele></trkpt>
      <trkpt lat="35.399479" lon="129.109227"><ele>867.5</ele></trkpt>
      <trkpt lat="35.400008" lon="129.109471"><ele>869.7</ele></trkpt>
      <trkpt lat="35.400150" lon="129.109484"><ele>871.3</ele></trkpt>
      <trkpt lat="35.400240" lon="129.109665"><ele>865.3</ele></trkpt>
      <trkpt lat="35.401035" lon="129.109667"><ele>872.4</ele></trkpt>
      <trkpt lat="35.401171" lon="129.109696"><ele>873.3</ele></trkpt>
      <trkpt lat="35.401416" lon="129.109874"><ele>874.3</ele></trkpt>
      <trkpt lat="35.402017" lon="129.110446"><ele>878.4</ele></trkpt>
      <trkpt lat="35.402244" lon="129.110817"><ele>873.7</ele></trkpt>
      <trkpt lat="35.402742" lon="129.111115"><ele>873.3</ele></trkpt>
      <trkpt lat="35.403048" lon="129.111594"><ele>872.3</ele></trkpt>
      <trkpt lat="35.403121" lon="129.111613"><ele>872.4</ele></trkpt>
      <trkpt lat="35.403149" lon="129.111776"><ele>870.8</ele></trkpt>
      <trkpt lat="35.403337" lon="129.112136"><ele>867.6</ele></trkpt>
      <trkpt lat="35.403458" lon="129.112534"><ele>867.8</ele></trkpt>
      <trkpt lat="35.403789" lon="129.113122"><ele>869.9</ele></trkpt>
      <trkpt lat="35.404016" lon="129.113349"><ele>870.7</ele></trkpt>
      <trkpt lat="35.404076" lon="129.113477"><ele>870.0</ele></trkpt>
      <trkpt lat="35.404348" lon="129.113576"><ele>870.2</ele></trkpt>
      <trkpt lat="35.405025" lon="129.114024"><ele>860.6</ele></trkpt>
      <trkpt lat="35.405282" lon="129.114139"><ele>861.0</ele></trkpt>
      <trkpt lat="35.405951" lon="129.114718"><ele>841.9</ele></trkpt>
      <trkpt lat="35.406681" lon="129.115062"><ele>830.3</ele></trkpt>
      <trkpt lat="35.406935" lon="129.115298"><ele>829.5</ele></trkpt>
      <trkpt lat="35.407193" lon="129.115432"><ele>825.0</ele></trkpt>
      <trkpt lat="35.408692" lon="129.115539"><ele>806.7</ele></trkpt>
      <trkpt lat="35.409610" lon="129.115346"><ele>793.1</ele></trkpt>
      <trkpt lat="35.409711" lon="129.115276"><ele>792.2</ele></trkpt>
      <trkpt lat="35.409912" lon="129.114987"><ele>788.5</ele></trkpt>
      <trkpt lat="35.410201" lon="129.114777"><ele>781.1</ele></trkpt>
      <trkpt lat="35.410550" lon="129.114606"><ele>767.2</ele></trkpt>
      <trkpt lat="35.410861" lon="129.114590"><ele>762.4</ele></trkpt>
      <trkpt lat="35.411005" lon="129.114676"><ele>758.6</ele></trkpt>
      <trkpt lat="35.411364" lon="129.114708"><ele>749.8</ele></trkpt>
      <trkpt lat="35.411521" lon="129.114863"><ele>743.2</ele></trkpt>
      <trkpt lat="35.411980" lon="129.114901"><ele>727.9</ele></trkpt>
      <trkpt lat="35.412339" lon="129.115121"><ele>712.3</ele></trkpt>
      <trkpt lat="35.412549" lon="129.115099"><ele>704.3</ele></trkpt>
      <trkpt lat="35.412898" lon="129.115260"><ele>688.0</ele></trkpt>
      <trkpt lat="35.413248" lon="129.115266"><ele>669.9</ele></trkpt>
      <trkpt lat="35.413777" lon="129.115469"><ele>637.8</ele></trkpt>
      <trkpt lat="35.414083" lon="129.115657"><ele>632.1</ele></trkpt>
      <trkpt lat="35.414128" lon="129.115772"><ele>633.1</ele></trkpt>
      <trkpt lat="35.414344" lon="129.115852"><ele>637.0</ele></trkpt>
      <trkpt lat="35.414543" lon="129.115710"><ele>638.1</ele></trkpt>
      <trkpt lat="35.414549" lon="129.115396"><ele>633.3</ele></trkpt>
      <trkpt lat="35.414602" lon="129.115245"><ele>630.6</ele></trkpt>
      <trkpt lat="35.414938" lon="129.114928"><ele>618.7</ele></trkpt>
      <trkpt lat="35.415302" lon="129.114330"><ele>600.2</ele></trkpt>
      <trkpt lat="35.415366" lon="129.114177"><ele>594.3</ele></trkpt>
      <trkpt lat="35.415346" lon="129.114045"><ele>589.5</ele></trkpt>
      <trkpt lat="35.415534" lon="129.113774"><ele>576.5</ele></trkpt>
      <trkpt lat="35.416197" lon="129.113056"><ele>552.2</ele></trkpt>
      <trkpt lat="35.416315" lon="129.112750"><ele>543.5</ele></trkpt>
      <trkpt lat="35.416389" lon="129.112675"><ele>540.7</ele></trkpt>
      <trkpt lat="35.416678" lon="129.112562"><ele>529.5</ele></trkpt>
      <trkpt lat="35.416772" lon="129.112283"><ele>517.6</ele></trkpt>
      <trkpt lat="35.416931" lon="129.112176"><ele>508.2</ele></trkpt>
      <trkpt lat="35.417084" lon="129.111862"><ele>477.8</ele></trkpt>
      <trkpt lat="35.417043" lon="129.111685"><ele>468.0</ele></trkpt>
      <trkpt lat="35.417099" lon="129.111572"><ele>458.9</ele></trkpt>
      <trkpt lat="35.417285" lon="129.111589"><ele>449.6</ele></trkpt>
      <trkpt lat="35.417709" lon="129.111505"><ele>423.4</ele></trkpt>
      <trkpt lat="35.417827" lon="129.111186"><ele>410.3</ele></trkpt>
      <trkpt lat="35.417932" lon="129.111082"><ele>405.4</ele></trkpt>
      <trkpt lat="35.418017" lon="129.111146"><ele>402.9</ele></trkpt>
      <trkpt lat="35.418267" lon="129.111194"><ele>393.6</ele></trkpt>
      <trkpt lat="35.418505" lon="129.111122"><ele>383.4</ele></trkpt>
      <trkpt lat="35.418752" lon="129.110969"><ele>376.7</ele></trkpt>
      <trkpt lat="35.419301" lon="129.111074"><ele>362.9</ele></trkpt>
      <trkpt lat="35.419867" lon="129.111049"><ele>347.9</ele></trkpt>
      <trkpt lat="35.419911" lon="129.111120"><ele>348.6</ele></trkpt>
    </trkseg>
  </trk>
</gpx>
