<?xml version="1.0" encoding="UTF-8"?>
<gpx version="1.1" creator="kr-100-mountains route-harvester"
     xmlns="http://www.topografix.com/GPX/1/1"
     xmlns:k100="https://github.com/jay-jang/kr-100-mountains/ns/1"
     xmlns:xsi="http://www.w3.org/2001/XMLSchema-instance"
     xsi:schemaLocation="http://www.topografix.com/GPX/1/1 http://www.topografix.com/GPX/1/1/gpx.xsd">
  <metadata>
    <name>점봉산 · 곰배령 산림생태탐방 코스 (OSM 계산 경로)</name>
    <desc>실제 GPS 기록이 아닙니다. OpenStreetMap에 등록된 등산로 선형 위에서 계산한 경로이며, 현장 통제·훼손·출입 제한·계절 통제를 반영하지 않을 수 있습니다. 산행 전 공식 안내를 확인하세요.</desc>
    <time>2026-08-04T05:20:26.629Z</time>
    <link href="https://www.openstreetmap.org/copyright"><text>© OpenStreetMap contributors (ODbL 1.0)</text></link>
    <link href="https://registry.opendata.aws/terrain-tiles/"><text>Elevation: SRTM 1 arc-second (NASA/USGS) via AWS Terrain Tiles</text></link>
    <extensions>
      <k100:provenance>osm-routed</k100:provenance>
      <k100:not_a_recorded_track>true</k100:not_a_recorded_track>
      <k100:mountain_id>jeombongsan</k100:mountain_id>
      <k100:mountain_name>점봉산</k100:mountain_name>
      <k100:route_id>jeombongsan-536c451b</k100:route_id>
      <k100:route_index>1</k100:route_index>
      <k100:route_name>곰배령 산림생태탐방 코스</k100:route_name>
      <k100:variant>0</k100:variant>
      <k100:source>OpenStreetMap via Overpass API</k100:source>
      <k100:license>ODbL-1.0</k100:license>
      <k100:attribution>© OpenStreetMap contributors</k100:attribution>
      <k100:elevation_source>SRTM 1 arc-second (NASA/USGS) — AWS Terrain Tiles 배포본. 지형 DEM 추정 고도이며 실측 아님</k100:elevation_source>
      <k100:algorithm>dijkstra-grid-v1</k100:algorithm>
      <k100:osm_snapshot>2026-08-04</k100:osm_snapshot>
      <k100:snap_trailhead_m>472</k100:snap_trailhead_m>
      <k100:snap_summit_m>384</k100:snap_summit_m>
      <k100:validation_score>59</k100:validation_score>
      <k100:validation_status>review</k100:validation_status>
    </extensions>
  </metadata>
  <trk>
    <name>점봉산 · 곰배령 산림생태탐방 코스 (OSM 계산 경로)</name>
    <desc>실제 GPS 기록이 아닙니다. OpenStreetMap에 등록된 등산로 선형 위에서 계산한 경로이며, 현장 통제·훼손·출입 제한·계절 통제를 반영하지 않을 수 있습니다. 산행 전 공식 안내를 확인하세요.</desc>
    <trkseg>
      <trkpt lat="38.018789" lon="128.437966"><ele>1173.9</ele></trkpt>
      <trkpt lat="38.020252" lon="128.438781"><ele>1160.8</ele></trkpt>
      <trkpt lat="38.020843" lon="128.439028"><ele>1153.3</ele></trkpt>
      <trkpt lat="38.022283" lon="128.440166"><ele>1157.6</ele></trkpt>
      <trkpt lat="38.022427" lon="128.439954"><ele>1160.1</ele></trkpt>
      <trkpt lat="38.023236" lon="128.440197"><ele>1177.9</ele></trkpt>
      <trkpt lat="38.023722" lon="128.440139"><ele>1189.6</ele></trkpt>
      <trkpt lat="38.024152" lon="128.439719"><ele>1190.8</ele></trkpt>
      <trkpt lat="38.024348" lon="128.439384"><ele>1185.9</ele></trkpt>
      <trkpt lat="38.024653" lon="128.439130"><ele>1181.3</ele></trkpt>
      <trkpt lat="38.025407" lon="128.438851"><ele>1154.1</ele></trkpt>
      <trkpt lat="38.025711" lon="128.438835"><ele>1152.2</ele></trkpt>
      <trkpt lat="38.026526" lon="128.438365"><ele>1164.8</ele></trkpt>
      <trkpt lat="38.026658" lon="128.438243"><ele>1166.8</ele></trkpt>
      <trkpt lat="38.027071" lon="128.438151"><ele>1167.4</ele></trkpt>
      <trkpt lat="38.027162" lon="128.438063"><ele>1167.2</ele></trkpt>
      <trkpt lat="38.027200" lon="128.437941"><ele>1164.6</ele></trkpt>
      <trkpt lat="38.027291" lon="128.437387"><ele>1154.3</ele></trkpt>
      <trkpt lat="38.027229" lon="128.436881"><ele>1146.3</ele></trkpt>
      <trkpt lat="38.027059" lon="128.436248"><ele>1134.1</ele></trkpt>
      <trkpt lat="38.027034" lon="128.435695"><ele>1129.0</ele></trkpt>
      <trkpt lat="38.027264" lon="128.434990"><ele>1126.1</ele></trkpt>
      <trkpt lat="38.027282" lon="128.434725"><ele>1120.4</ele></trkpt>
      <trkpt lat="38.027551" lon="128.433647"><ele>1101.3</ele></trkpt>
      <trkpt lat="38.027545" lon="128.433504"><ele>1100.1</ele></trkpt>
      <trkpt lat="38.027631" lon="128.433132"><ele>1101.0</ele></trkpt>
      <trkpt lat="38.027765" lon="128.432999"><ele>1104.3</ele></trkpt>
      <trkpt lat="38.027747" lon="128.432864"><ele>1103.1</ele></trkpt>
      <trkpt lat="38.027797" lon="128.432657"><ele>1102.9</ele></trkpt>
      <trkpt lat="38.027958" lon="128.432258"><ele>1105.5</ele></trkpt>
      <trkpt lat="38.028189" lon="128.431757"><ele>1107.3</ele></trkpt>
      <trkpt lat="38.028350" lon="128.431550"><ele>1113.6</ele></trkpt>
      <trkpt lat="38.028580" lon="128.431030"><ele>1128.0</ele></trkpt>
      <trkpt lat="38.029516" lon="128.429849"><ele>1170.9</ele></trkpt>
      <trkpt lat="38.029851" lon="128.429493"><ele>1187.3</ele></trkpt>
      <trkpt lat="38.029984" lon="128.428946"><ele>1199.6</ele></trkpt>
      <trkpt lat="38.030280" lon="128.428390"><ele>1217.0</ele></trkpt>
      <trkpt lat="38.030810" lon="128.427170"><ele>1250.7</ele></trkpt>
      <trkpt lat="38.031350" lon="128.426280"><ele>1273.3</ele></trkpt>
      <trkpt lat="38.031730" lon="128.425870"><ele>1278.2</ele></trkpt>
      <trkpt lat="38.032020" lon="128.425420"><ele>1283.6</ele></trkpt>
      <trkpt lat="38.032404" lon="128.425099"><ele>1288.9</ele></trkpt>
      <trkpt lat="38.032780" lon="128.424970"><ele>1285.0</ele></trkpt>
      <trkpt lat="38.034104" lon="128.425222"><ele>1291.4</ele></trkpt>
      <trkpt lat="38.034660" lon="128.426130"><ele>1265.0</ele></trkpt>
      <trkpt lat="38.035400" lon="128.426910"><ele>1254.8</ele></trkpt>
      <trkpt lat="38.036040" lon="128.427730"><ele>1259.2</ele></trkpt>
      <trkpt lat="38.036355" lon="128.427864"><ele>1261.1</ele></trkpt>
      <trkpt lat="38.036795" lon="128.427796"><ele>1258.3</ele></trkpt>
      <trkpt lat="38.037020" lon="128.427960"><ele>1254.2</ele></trkpt>
      <trkpt lat="38.037241" lon="128.427995"><ele>1248.8</ele></trkpt>
      <trkpt lat="38.037574" lon="128.427867"><ele>1242.2</ele></trkpt>
      <trkpt lat="38.037920" lon="128.427920"><ele>1240.0</ele></trkpt>
      <trkpt lat="38.038371" lon="128.427858"><ele>1239.6</ele></trkpt>
      <trkpt lat="38.038720" lon="128.428010"><ele>1240.8</ele></trkpt>
      <trkpt lat="38.039772" lon="128.428119"><ele>1245.7</ele></trkpt>
      <trkpt lat="38.039990" lon="128.428450"><ele>1253.8</ele></trkpt>
      <trkpt lat="38.040800" lon="128.428770"><ele>1258.1</ele></trkpt>
      <trkpt lat="38.041280" lon="128.428710"><ele>1249.3</ele></trkpt>
      <trkpt lat="38.041710" lon="128.428470"><ele>1240.8</ele></trkpt>
      <trkpt lat="38.043020" lon="128.428310"><ele>1252.4</ele></trkpt>
      <trkpt lat="38.043830" lon="128.428150"><ele>1259.4</ele></trkpt>
      <trkpt lat="38.044270" lon="128.427990"><ele>1269.1</ele></trkpt>
      <trkpt lat="38.044720" lon="128.427980"><ele>1285.6</ele></trkpt>
    </trkseg>
  </trk>
</gpx>
