<?xml version="1.0" encoding="UTF-8"?>
<gpx version="1.1" creator="kr-100-mountains route-harvester"
     xmlns="http://www.topografix.com/GPX/1/1"
     xmlns:k100="https://github.com/jay-jang/kr-100-mountains/ns/1"
     xmlns:xsi="http://www.w3.org/2001/XMLSchema-instance"
     xsi:schemaLocation="http://www.topografix.com/GPX/1/1 http://www.topografix.com/GPX/1/1/gpx.xsd">
  <metadata>
    <name>선자령 · 대관령휴게소-선자령 왕복 코스 (대안 1) (OSM 계산 경로)</name>
    <desc>실제 GPS 기록이 아닙니다. OpenStreetMap에 등록된 등산로 선형 위에서 계산한 경로이며, 현장 통제·훼손·출입 제한·계절 통제를 반영하지 않을 수 있습니다. 산행 전 공식 안내를 확인하세요.</desc>
    <time>2026-08-04T05:22:43.438Z</time>
    <link href="https://www.openstreetmap.org/copyright"><text>© OpenStreetMap contributors (ODbL 1.0)</text></link>
    <link href="https://registry.opendata.aws/terrain-tiles/"><text>Elevation: SRTM 1 arc-second (NASA/USGS) via AWS Terrain Tiles</text></link>
    <extensions>
      <k100:provenance>osm-routed</k100:provenance>
      <k100:not_a_recorded_track>true</k100:not_a_recorded_track>
      <k100:mountain_id>seonjaryeong</k100:mountain_id>
      <k100:mountain_name>선자령</k100:mountain_name>
      <k100:route_id>seonjaryeong-2d6b118a</k100:route_id>
      <k100:route_index>1</k100:route_index>
      <k100:route_name>대관령휴게소-선자령 왕복 코스</k100:route_name>
      <k100:variant>1</k100:variant>
      <k100:source>OpenStreetMap via Overpass API</k100:source>
      <k100:license>ODbL-1.0</k100:license>
      <k100:attribution>© OpenStreetMap contributors</k100:attribution>
      <k100:elevation_source>SRTM 1 arc-second (NASA/USGS) — AWS Terrain Tiles 배포본. 지형 DEM 추정 고도이며 실측 아님</k100:elevation_source>
      <k100:algorithm>dijkstra-grid-v1</k100:algorithm>
      <k100:osm_snapshot>2026-08-04</k100:osm_snapshot>
      <k100:snap_trailhead_m>60</k100:snap_trailhead_m>
      <k100:snap_summit_m>10</k100:snap_summit_m>
      <k100:validation_score>100</k100:validation_score>
      <k100:validation_status>accepted</k100:validation_status>
    </extensions>
  </metadata>
  <trk>
    <name>선자령 · 대관령휴게소-선자령 왕복 코스 (대안 1) (OSM 계산 경로)</name>
    <desc>실제 GPS 기록이 아닙니다. OpenStreetMap에 등록된 등산로 선형 위에서 계산한 경로이며, 현장 통제·훼손·출입 제한·계절 통제를 반영하지 않을 수 있습니다. 산행 전 공식 안내를 확인하세요.</desc>
    <trkseg>
      <trkpt lat="37.685984" lon="128.756797"><ele>828.4</ele></trkpt>
      <trkpt lat="37.686265" lon="128.757725"><ele>831.6</ele></trkpt>
      <trkpt lat="37.686470" lon="128.758668"><ele>835.7</ele></trkpt>
      <trkpt lat="37.686597" lon="128.758673"><ele>838.6</ele></trkpt>
      <trkpt lat="37.687334" lon="128.758133"><ele>848.4</ele></trkpt>
      <trkpt lat="37.688178" lon="128.757908"><ele>850.7</ele></trkpt>
      <trkpt lat="37.688917" lon="128.757587"><ele>853.4</ele></trkpt>
      <trkpt lat="37.689521" lon="128.757540"><ele>857.9</ele></trkpt>
      <trkpt lat="37.689631" lon="128.757317"><ele>856.1</ele></trkpt>
      <trkpt lat="37.689740" lon="128.757344"><ele>856.0</ele></trkpt>
      <trkpt lat="37.690209" lon="128.757204"><ele>862.4</ele></trkpt>
      <trkpt lat="37.690416" lon="128.756961"><ele>866.8</ele></trkpt>
      <trkpt lat="37.690643" lon="128.756393"><ele>878.2</ele></trkpt>
      <trkpt lat="37.690784" lon="128.756339"><ele>880.0</ele></trkpt>
      <trkpt lat="37.691025" lon="128.756045"><ele>889.2</ele></trkpt>
      <trkpt lat="37.691186" lon="128.755948"><ele>892.9</ele></trkpt>
      <trkpt lat="37.691130" lon="128.755673"><ele>897.6</ele></trkpt>
      <trkpt lat="37.691281" lon="128.755144"><ele>906.6</ele></trkpt>
      <trkpt lat="37.691246" lon="128.755077"><ele>907.9</ele></trkpt>
      <trkpt lat="37.691100" lon="128.755196"><ele>907.6</ele></trkpt>
      <trkpt lat="37.690889" lon="128.755146"><ele>910.4</ele></trkpt>
      <trkpt lat="37.690815" lon="128.755009"><ele>911.8</ele></trkpt>
      <trkpt lat="37.690809" lon="128.754733"><ele>913.7</ele></trkpt>
      <trkpt lat="37.690844" lon="128.754663"><ele>914.0</ele></trkpt>
      <trkpt lat="37.691403" lon="128.754258"><ele>918.2</ele></trkpt>
      <trkpt lat="37.691709" lon="128.754101"><ele>924.9</ele></trkpt>
      <trkpt lat="37.692248" lon="128.754112"><ele>929.3</ele></trkpt>
      <trkpt lat="37.692442" lon="128.753802"><ele>932.7</ele></trkpt>
      <trkpt lat="37.692792" lon="128.753732"><ele>935.1</ele></trkpt>
      <trkpt lat="37.692876" lon="128.753671"><ele>935.4</ele></trkpt>
      <trkpt lat="37.692994" lon="128.753434"><ele>936.0</ele></trkpt>
      <trkpt lat="37.693520" lon="128.753214"><ele>928.4</ele></trkpt>
      <trkpt lat="37.693947" lon="128.752628"><ele>923.3</ele></trkpt>
      <trkpt lat="37.694089" lon="128.752307"><ele>920.7</ele></trkpt>
      <trkpt lat="37.694093" lon="128.752006"><ele>918.8</ele></trkpt>
      <trkpt lat="37.694410" lon="128.751460"><ele>926.7</ele></trkpt>
      <trkpt lat="37.694718" lon="128.751101"><ele>933.2</ele></trkpt>
      <trkpt lat="37.694836" lon="128.751062"><ele>933.7</ele></trkpt>
      <trkpt lat="37.695069" lon="128.750660"><ele>939.6</ele></trkpt>
      <trkpt lat="37.695578" lon="128.750620"><ele>941.2</ele></trkpt>
      <trkpt lat="37.696063" lon="128.750772"><ele>933.8</ele></trkpt>
      <trkpt lat="37.696623" lon="128.750872"><ele>937.3</ele></trkpt>
      <trkpt lat="37.697071" lon="128.751076"><ele>939.4</ele></trkpt>
      <trkpt lat="37.697597" lon="128.750646"><ele>936.7</ele></trkpt>
      <trkpt lat="37.697908" lon="128.750164"><ele>932.0</ele></trkpt>
      <trkpt lat="37.698075" lon="128.749816"><ele>929.1</ele></trkpt>
      <trkpt lat="37.698198" lon="128.749181"><ele>929.0</ele></trkpt>
      <trkpt lat="37.698221" lon="128.748840"><ele>922.2</ele></trkpt>
      <trkpt lat="37.698178" lon="128.748580"><ele>917.1</ele></trkpt>
      <trkpt lat="37.697882" lon="128.748044"><ele>908.0</ele></trkpt>
      <trkpt lat="37.697698" lon="128.747602"><ele>898.5</ele></trkpt>
      <trkpt lat="37.697692" lon="128.747315"><ele>892.0</ele></trkpt>
      <trkpt lat="37.697817" lon="128.747244"><ele>890.6</ele></trkpt>
      <trkpt lat="37.698090" lon="128.747293"><ele>892.4</ele></trkpt>
      <trkpt lat="37.698306" lon="128.747199"><ele>891.8</ele></trkpt>
      <trkpt lat="37.698517" lon="128.747230"><ele>892.9</ele></trkpt>
      <trkpt lat="37.698775" lon="128.747401"><ele>898.0</ele></trkpt>
      <trkpt lat="37.698968" lon="128.747447"><ele>897.3</ele></trkpt>
      <trkpt lat="37.699224" lon="128.747811"><ele>901.0</ele></trkpt>
      <trkpt lat="37.699470" lon="128.747861"><ele>898.0</ele></trkpt>
      <trkpt lat="37.699835" lon="128.747667"><ele>896.5</ele></trkpt>
      <trkpt lat="37.700012" lon="128.747656"><ele>898.5</ele></trkpt>
      <trkpt lat="37.700220" lon="128.747778"><ele>898.8</ele></trkpt>
      <trkpt lat="37.700644" lon="128.747873"><ele>898.7</ele></trkpt>
      <trkpt lat="37.700823" lon="128.747848"><ele>899.2</ele></trkpt>
      <trkpt lat="37.701788" lon="128.747972"><ele>899.2</ele></trkpt>
      <trkpt lat="37.701938" lon="128.748097"><ele>900.3</ele></trkpt>
      <trkpt lat="37.702195" lon="128.748140"><ele>901.5</ele></trkpt>
      <trkpt lat="37.702532" lon="128.748316"><ele>904.2</ele></trkpt>
      <trkpt lat="37.703001" lon="128.748305"><ele>906.0</ele></trkpt>
      <trkpt lat="37.703182" lon="128.748485"><ele>908.8</ele></trkpt>
      <trkpt lat="37.703358" lon="128.748831"><ele>918.2</ele></trkpt>
      <trkpt lat="37.703520" lon="128.748857"><ele>918.4</ele></trkpt>
      <trkpt lat="37.703771" lon="128.749042"><ele>919.7</ele></trkpt>
      <trkpt lat="37.704411" lon="128.749042"><ele>921.0</ele></trkpt>
      <trkpt lat="37.704603" lon="128.748876"><ele>921.4</ele></trkpt>
      <trkpt lat="37.704767" lon="128.748831"><ele>924.7</ele></trkpt>
      <trkpt lat="37.705212" lon="128.748862"><ele>932.5</ele></trkpt>
      <trkpt lat="37.705781" lon="128.748738"><ele>938.9</ele></trkpt>
      <trkpt lat="37.706091" lon="128.748809"><ele>940.4</ele></trkpt>
      <trkpt lat="37.706221" lon="128.748788"><ele>942.6</ele></trkpt>
      <trkpt lat="37.706339" lon="128.748762"><ele>944.6</ele></trkpt>
      <trkpt lat="37.706486" lon="128.748638"><ele>947.3</ele></trkpt>
      <trkpt lat="37.706635" lon="128.748196"><ele>951.3</ele></trkpt>
      <trkpt lat="37.706996" lon="128.747845"><ele>960.6</ele></trkpt>
      <trkpt lat="37.707283" lon="128.747835"><ele>962.9</ele></trkpt>
      <trkpt lat="37.707391" lon="128.747768"><ele>962.5</ele></trkpt>
      <trkpt lat="37.707659" lon="128.747861"><ele>962.4</ele></trkpt>
      <trkpt lat="37.707997" lon="128.747762"><ele>962.4</ele></trkpt>
      <trkpt lat="37.708352" lon="128.747756"><ele>968.7</ele></trkpt>
      <trkpt lat="37.708698" lon="128.747575"><ele>969.1</ele></trkpt>
      <trkpt lat="37.709609" lon="128.747509"><ele>976.9</ele></trkpt>
      <trkpt lat="37.709696" lon="128.747450"><ele>975.9</ele></trkpt>
      <trkpt lat="37.710027" lon="128.747396"><ele>976.6</ele></trkpt>
      <trkpt lat="37.710240" lon="128.747195"><ele>974.4</ele></trkpt>
      <trkpt lat="37.710505" lon="128.746753"><ele>976.7</ele></trkpt>
      <trkpt lat="37.710646" lon="128.746606"><ele>978.8</ele></trkpt>
      <trkpt lat="37.710783" lon="128.746242"><ele>979.4</ele></trkpt>
      <trkpt lat="37.711065" lon="128.746169"><ele>983.6</ele></trkpt>
      <trkpt lat="37.711113" lon="128.746106"><ele>984.0</ele></trkpt>
      <trkpt lat="37.711245" lon="128.745599"><ele>985.0</ele></trkpt>
      <trkpt lat="37.711462" lon="128.745129"><ele>983.3</ele></trkpt>
      <trkpt lat="37.711785" lon="128.745011"><ele>985.5</ele></trkpt>
      <trkpt lat="37.712088" lon="128.745026"><ele>989.7</ele></trkpt>
      <trkpt lat="37.713062" lon="128.744603"><ele>991.8</ele></trkpt>
      <trkpt lat="37.713444" lon="128.744552"><ele>996.1</ele></trkpt>
      <trkpt lat="37.713818" lon="128.744792"><ele>1002.0</ele></trkpt>
      <trkpt lat="37.713872" lon="128.745022"><ele>1006.4</ele></trkpt>
      <trkpt lat="37.714097" lon="128.745086"><ele>1008.9</ele></trkpt>
      <trkpt lat="37.714446" lon="128.744889"><ele>1011.2</ele></trkpt>
      <trkpt lat="37.714643" lon="128.744428"><ele>1010.4</ele></trkpt>
      <trkpt lat="37.714948" lon="128.744353"><ele>1014.8</ele></trkpt>
      <trkpt lat="37.715097" lon="128.744246"><ele>1015.9</ele></trkpt>
      <trkpt lat="37.715454" lon="128.744247"><ele>1023.4</ele></trkpt>
      <trkpt lat="37.715698" lon="128.744073"><ele>1027.6</ele></trkpt>
      <trkpt lat="37.715987" lon="128.744045"><ele>1033.9</ele></trkpt>
      <trkpt lat="37.716120" lon="128.744078"><ele>1037.2</ele></trkpt>
      <trkpt lat="37.716230" lon="128.744261"><ele>1039.7</ele></trkpt>
      <trkpt lat="37.716907" lon="128.744260"><ele>1050.0</ele></trkpt>
      <trkpt lat="37.716972" lon="128.744178"><ele>1050.7</ele></trkpt>
      <trkpt lat="37.716984" lon="128.743864"><ele>1048.6</ele></trkpt>
      <trkpt lat="37.717081" lon="128.743748"><ele>1049.2</ele></trkpt>
      <trkpt lat="37.717250" lon="128.743707"><ele>1051.8</ele></trkpt>
      <trkpt lat="37.717665" lon="128.743953"><ele>1061.3</ele></trkpt>
      <trkpt lat="37.718238" lon="128.743749"><ele>1067.7</ele></trkpt>
      <trkpt lat="37.718617" lon="128.743823"><ele>1077.4</ele></trkpt>
      <trkpt lat="37.718743" lon="128.743798"><ele>1078.8</ele></trkpt>
      <trkpt lat="37.718891" lon="128.743696"><ele>1078.9</ele></trkpt>
      <trkpt lat="37.719299" lon="128.743616"><ele>1081.0</ele></trkpt>
      <trkpt lat="37.719877" lon="128.743313"><ele>1083.9</ele></trkpt>
      <trkpt lat="37.720324" lon="128.743299"><ele>1092.2</ele></trkpt>
      <trkpt lat="37.720391" lon="128.743162"><ele>1091.7</ele></trkpt>
      <trkpt lat="37.720743" lon="128.742763"><ele>1094.5</ele></trkpt>
      <trkpt lat="37.720832" lon="128.742728"><ele>1095.4</ele></trkpt>
      <trkpt lat="37.720595" lon="128.743469"><ele>1097.1</ele></trkpt>
      <trkpt lat="37.720626" lon="128.743710"><ele>1100.6</ele></trkpt>
      <trkpt lat="37.720688" lon="128.743812"><ele>1102.9</ele></trkpt>
      <trkpt lat="37.720926" lon="128.744088"><ele>1109.5</ele></trkpt>
      <trkpt lat="37.721249" lon="128.744061"><ele>1116.9</ele></trkpt>
      <trkpt lat="37.721805" lon="128.744595"><ele>1139.3</ele></trkpt>
      <trkpt lat="37.722197" lon="128.744686"><ele>1147.4</ele></trkpt>
      <trkpt lat="37.722516" lon="128.745107"><ele>1151.6</ele></trkpt>
    </trkseg>
  </trk>
</gpx>
