<?xml version="1.0" encoding="UTF-8"?>
<gpx version="1.1" creator="kr-100-mountains route-harvester"
     xmlns="http://www.topografix.com/GPX/1/1"
     xmlns:k100="https://github.com/jay-jang/kr-100-mountains/ns/1"
     xmlns:xsi="http://www.w3.org/2001/XMLSchema-instance"
     xsi:schemaLocation="http://www.topografix.com/GPX/1/1 http://www.topografix.com/GPX/1/1/gpx.xsd">
  <metadata>
    <name>선자령 · 대관령휴게소-선자령 왕복 코스 (OSM 계산 경로)</name>
    <desc>실제 GPS 기록이 아닙니다. OpenStreetMap에 등록된 등산로 선형 위에서 계산한 경로이며, 현장 통제·훼손·출입 제한·계절 통제를 반영하지 않을 수 있습니다. 산행 전 공식 안내를 확인하세요.</desc>
    <time>2026-08-04T05:22:43.437Z</time>
    <link href="https://www.openstreetmap.org/copyright"><text>© OpenStreetMap contributors (ODbL 1.0)</text></link>
    <link href="https://registry.opendata.aws/terrain-tiles/"><text>Elevation: SRTM 1 arc-second (NASA/USGS) via AWS Terrain Tiles</text></link>
    <extensions>
      <k100:provenance>osm-routed</k100:provenance>
      <k100:not_a_recorded_track>true</k100:not_a_recorded_track>
      <k100:mountain_id>seonjaryeong</k100:mountain_id>
      <k100:mountain_name>선자령</k100:mountain_name>
      <k100:route_id>seonjaryeong-2d6b118a</k100:route_id>
      <k100:route_index>1</k100:route_index>
      <k100:route_name>대관령휴게소-선자령 왕복 코스</k100:route_name>
      <k100:variant>0</k100:variant>
      <k100:source>OpenStreetMap via Overpass API</k100:source>
      <k100:license>ODbL-1.0</k100:license>
      <k100:attribution>© OpenStreetMap contributors</k100:attribution>
      <k100:elevation_source>SRTM 1 arc-second (NASA/USGS) — AWS Terrain Tiles 배포본. 지형 DEM 추정 고도이며 실측 아님</k100:elevation_source>
      <k100:algorithm>dijkstra-grid-v1</k100:algorithm>
      <k100:osm_snapshot>2026-08-04</k100:osm_snapshot>
      <k100:snap_trailhead_m>60</k100:snap_trailhead_m>
      <k100:snap_summit_m>10</k100:snap_summit_m>
      <k100:validation_score>100</k100:validation_score>
      <k100:validation_status>accepted</k100:validation_status>
    </extensions>
  </metadata>
  <trk>
    <name>선자령 · 대관령휴게소-선자령 왕복 코스 (OSM 계산 경로)</name>
    <desc>실제 GPS 기록이 아닙니다. OpenStreetMap에 등록된 등산로 선형 위에서 계산한 경로이며, 현장 통제·훼손·출입 제한·계절 통제를 반영하지 않을 수 있습니다. 산행 전 공식 안내를 확인하세요.</desc>
    <trkseg>
      <trkpt lat="37.685984" lon="128.756797"><ele>828.4</ele></trkpt>
      <trkpt lat="37.686095" lon="128.757161"><ele>829.0</ele></trkpt>
      <trkpt lat="37.686496" lon="128.757311"><ele>830.8</ele></trkpt>
      <trkpt lat="37.687277" lon="128.757239"><ele>842.1</ele></trkpt>
      <trkpt lat="37.687380" lon="128.757287"><ele>842.1</ele></trkpt>
      <trkpt lat="37.687480" lon="128.757242"><ele>842.8</ele></trkpt>
      <trkpt lat="37.688003" lon="128.757245"><ele>846.5</ele></trkpt>
      <trkpt lat="37.688206" lon="128.757329"><ele>848.6</ele></trkpt>
      <trkpt lat="37.688539" lon="128.757349"><ele>851.2</ele></trkpt>
      <trkpt lat="37.688646" lon="128.757285"><ele>852.5</ele></trkpt>
      <trkpt lat="37.689009" lon="128.757305"><ele>854.8</ele></trkpt>
      <trkpt lat="37.689438" lon="128.757247"><ele>857.0</ele></trkpt>
      <trkpt lat="37.689631" lon="128.757317"><ele>856.1</ele></trkpt>
      <trkpt lat="37.689521" lon="128.757540"><ele>857.9</ele></trkpt>
      <trkpt lat="37.690311" lon="128.757859"><ele>865.9</ele></trkpt>
      <trkpt lat="37.691878" lon="128.757612"><ele>877.1</ele></trkpt>
      <trkpt lat="37.692442" lon="128.757145"><ele>881.2</ele></trkpt>
      <trkpt lat="37.692824" lon="128.757094"><ele>884.2</ele></trkpt>
      <trkpt lat="37.693085" lon="128.756864"><ele>888.8</ele></trkpt>
      <trkpt lat="37.694015" lon="128.755762"><ele>902.6</ele></trkpt>
      <trkpt lat="37.694412" lon="128.755476"><ele>908.2</ele></trkpt>
      <trkpt lat="37.694480" lon="128.755378"><ele>909.1</ele></trkpt>
      <trkpt lat="37.694629" lon="128.754825"><ele>907.9</ele></trkpt>
      <trkpt lat="37.694963" lon="128.754407"><ele>910.5</ele></trkpt>
      <trkpt lat="37.695318" lon="128.754273"><ele>911.3</ele></trkpt>
      <trkpt lat="37.695558" lon="128.754440"><ele>914.0</ele></trkpt>
      <trkpt lat="37.696123" lon="128.754622"><ele>918.6</ele></trkpt>
      <trkpt lat="37.696340" lon="128.754436"><ele>923.6</ele></trkpt>
      <trkpt lat="37.697082" lon="128.755234"><ele>951.2</ele></trkpt>
      <trkpt lat="37.697325" lon="128.754870"><ele>957.3</ele></trkpt>
      <trkpt lat="37.697642" lon="128.754592"><ele>967.9</ele></trkpt>
      <trkpt lat="37.697889" lon="128.753958"><ele>972.0</ele></trkpt>
      <trkpt lat="37.698308" lon="128.753717"><ele>980.2</ele></trkpt>
      <trkpt lat="37.698432" lon="128.753790"><ele>983.9</ele></trkpt>
      <trkpt lat="37.698481" lon="128.753944"><ele>986.6</ele></trkpt>
      <trkpt lat="37.698559" lon="128.754014"><ele>989.3</ele></trkpt>
      <trkpt lat="37.698738" lon="128.753937"><ele>992.5</ele></trkpt>
      <trkpt lat="37.698846" lon="128.753750"><ele>995.7</ele></trkpt>
      <trkpt lat="37.698817" lon="128.753283"><ele>997.5</ele></trkpt>
      <trkpt lat="37.698874" lon="128.753089"><ele>998.7</ele></trkpt>
      <trkpt lat="37.699166" lon="128.752758"><ele>998.8</ele></trkpt>
      <trkpt lat="37.699506" lon="128.752761"><ele>1002.4</ele></trkpt>
      <trkpt lat="37.699672" lon="128.752986"><ele>1008.1</ele></trkpt>
      <trkpt lat="37.699802" lon="128.753372"><ele>1012.2</ele></trkpt>
      <trkpt lat="37.700367" lon="128.753189"><ele>1018.6</ele></trkpt>
      <trkpt lat="37.701183" lon="128.752835"><ele>1011.7</ele></trkpt>
      <trkpt lat="37.701340" lon="128.753760"><ele>1020.5</ele></trkpt>
      <trkpt lat="37.701436" lon="128.754000"><ele>1018.1</ele></trkpt>
      <trkpt lat="37.701583" lon="128.754150"><ele>1015.7</ele></trkpt>
      <trkpt lat="37.702158" lon="128.754289"><ele>1017.4</ele></trkpt>
      <trkpt lat="37.702358" lon="128.754202"><ele>1018.6</ele></trkpt>
      <trkpt lat="37.702592" lon="128.754225"><ele>1021.1</ele></trkpt>
      <trkpt lat="37.702894" lon="128.753744"><ele>1019.7</ele></trkpt>
      <trkpt lat="37.703035" lon="128.753615"><ele>1019.7</ele></trkpt>
      <trkpt lat="37.703340" lon="128.753602"><ele>1023.9</ele></trkpt>
      <trkpt lat="37.703794" lon="128.753304"><ele>1023.2</ele></trkpt>
      <trkpt lat="37.704185" lon="128.753159"><ele>1023.1</ele></trkpt>
      <trkpt lat="37.704949" lon="128.753228"><ele>1023.1</ele></trkpt>
      <trkpt lat="37.705070" lon="128.753198"><ele>1021.6</ele></trkpt>
      <trkpt lat="37.705171" lon="128.753285"><ele>1021.9</ele></trkpt>
      <trkpt lat="37.705832" lon="128.753202"><ele>1021.5</ele></trkpt>
      <trkpt lat="37.706407" lon="128.753224"><ele>1029.5</ele></trkpt>
      <trkpt lat="37.706992" lon="128.753543"><ele>1032.5</ele></trkpt>
      <trkpt lat="37.707723" lon="128.753395"><ele>1035.7</ele></trkpt>
      <trkpt lat="37.708148" lon="128.753107"><ele>1037.8</ele></trkpt>
      <trkpt lat="37.708370" lon="128.753027"><ele>1038.0</ele></trkpt>
      <trkpt lat="37.708517" lon="128.752848"><ele>1038.5</ele></trkpt>
      <trkpt lat="37.708980" lon="128.752693"><ele>1041.9</ele></trkpt>
      <trkpt lat="37.709144" lon="128.752568"><ele>1041.3</ele></trkpt>
      <trkpt lat="37.709793" lon="128.752570"><ele>1043.8</ele></trkpt>
      <trkpt lat="37.710026" lon="128.752518"><ele>1046.3</ele></trkpt>
      <trkpt lat="37.710176" lon="128.752382"><ele>1049.0</ele></trkpt>
      <trkpt lat="37.710377" lon="128.752062"><ele>1049.9</ele></trkpt>
      <trkpt lat="37.710540" lon="128.751554"><ele>1041.0</ele></trkpt>
      <trkpt lat="37.710688" lon="128.751418"><ele>1040.5</ele></trkpt>
      <trkpt lat="37.711051" lon="128.751290"><ele>1041.4</ele></trkpt>
      <trkpt lat="37.711232" lon="128.751146"><ele>1036.0</ele></trkpt>
      <trkpt lat="37.711667" lon="128.750635"><ele>1025.4</ele></trkpt>
      <trkpt lat="37.712401" lon="128.749407"><ele>1027.9</ele></trkpt>
      <trkpt lat="37.712522" lon="128.748710"><ele>1035.0</ele></trkpt>
      <trkpt lat="37.713162" lon="128.748419"><ele>1027.3</ele></trkpt>
      <trkpt lat="37.713199" lon="128.748285"><ele>1029.9</ele></trkpt>
      <trkpt lat="37.713271" lon="128.748224"><ele>1029.4</ele></trkpt>
      <trkpt lat="37.713462" lon="128.748217"><ele>1024.4</ele></trkpt>
      <trkpt lat="37.713568" lon="128.748037"><ele>1026.7</ele></trkpt>
      <trkpt lat="37.713829" lon="128.747917"><ele>1021.0</ele></trkpt>
      <trkpt lat="37.714123" lon="128.747920"><ele>1012.8</ele></trkpt>
      <trkpt lat="37.714534" lon="128.747704"><ele>1022.7</ele></trkpt>
      <trkpt lat="37.714733" lon="128.747538"><ele>1025.6</ele></trkpt>
      <trkpt lat="37.715170" lon="128.747449"><ele>1013.1</ele></trkpt>
      <trkpt lat="37.715413" lon="128.747071"><ele>1036.8</ele></trkpt>
      <trkpt lat="37.715716" lon="128.746788"><ele>1049.5</ele></trkpt>
      <trkpt lat="37.716508" lon="128.746253"><ele>1068.5</ele></trkpt>
      <trkpt lat="37.716673" lon="128.746214"><ele>1071.5</ele></trkpt>
      <trkpt lat="37.717022" lon="128.745779"><ele>1078.9</ele></trkpt>
      <trkpt lat="37.717217" lon="128.745625"><ele>1078.9</ele></trkpt>
      <trkpt lat="37.717401" lon="128.745589"><ele>1082.3</ele></trkpt>
      <trkpt lat="37.717818" lon="128.745336"><ele>1087.0</ele></trkpt>
      <trkpt lat="37.718214" lon="128.745321"><ele>1095.6</ele></trkpt>
      <trkpt lat="37.718593" lon="128.745395"><ele>1104.3</ele></trkpt>
      <trkpt lat="37.719600" lon="128.745876"><ele>1119.0</ele></trkpt>
      <trkpt lat="37.720187" lon="128.746069"><ele>1123.9</ele></trkpt>
      <trkpt lat="37.720882" lon="128.746219"><ele>1135.0</ele></trkpt>
      <trkpt lat="37.721142" lon="128.746197"><ele>1138.8</ele></trkpt>
      <trkpt lat="37.721405" lon="128.746264"><ele>1140.5</ele></trkpt>
      <trkpt lat="37.721549" lon="128.746218"><ele>1139.8</ele></trkpt>
      <trkpt lat="37.721759" lon="128.746037"><ele>1139.4</ele></trkpt>
      <trkpt lat="37.721872" lon="128.745862"><ele>1141.6</ele></trkpt>
      <trkpt lat="37.721951" lon="128.745529"><ele>1145.2</ele></trkpt>
      <trkpt lat="37.722165" lon="128.745127"><ele>1148.5</ele></trkpt>
      <trkpt lat="37.722478" lon="128.745170"><ele>1151.2</ele></trkpt>
      <trkpt lat="37.722543" lon="128.745153"><ele>1151.3</ele></trkpt>
      <trkpt lat="37.722516" lon="128.745107"><ele>1151.6</ele></trkpt>
    </trkseg>
  </trk>
</gpx>
