<?xml version="1.0" encoding="UTF-8"?>
<gpx version="1.1" creator="kr-100-mountains route-harvester"
     xmlns="http://www.topografix.com/GPX/1/1"
     xmlns:k100="https://github.com/jay-jang/kr-100-mountains/ns/1"
     xmlns:xsi="http://www.w3.org/2001/XMLSchema-instance"
     xsi:schemaLocation="http://www.topografix.com/GPX/1/1 http://www.topografix.com/GPX/1/1/gpx.xsd">
  <metadata>
    <name>선자령 · 대관령마을-선자령 원점회귀 (대안 2) (OSM 계산 경로)</name>
    <desc>실제 GPS 기록이 아닙니다. OpenStreetMap에 등록된 등산로 선형 위에서 계산한 경로이며, 현장 통제·훼손·출입 제한·계절 통제를 반영하지 않을 수 있습니다. 산행 전 공식 안내를 확인하세요.</desc>
    <time>2026-08-04T05:22:43.463Z</time>
    <link href="https://www.openstreetmap.org/copyright"><text>© OpenStreetMap contributors (ODbL 1.0)</text></link>
    <link href="https://registry.opendata.aws/terrain-tiles/"><text>Elevation: SRTM 1 arc-second (NASA/USGS) via AWS Terrain Tiles</text></link>
    <extensions>
      <k100:provenance>osm-routed</k100:provenance>
      <k100:not_a_recorded_track>true</k100:not_a_recorded_track>
      <k100:mountain_id>seonjaryeong</k100:mountain_id>
      <k100:mountain_name>선자령</k100:mountain_name>
      <k100:route_id>seonjaryeong-4f17e7b4</k100:route_id>
      <k100:route_index>2</k100:route_index>
      <k100:route_name>대관령마을-선자령 원점회귀</k100:route_name>
      <k100:variant>2</k100:variant>
      <k100:source>OpenStreetMap via Overpass API</k100:source>
      <k100:license>ODbL-1.0</k100:license>
      <k100:attribution>© OpenStreetMap contributors</k100:attribution>
      <k100:elevation_source>SRTM 1 arc-second (NASA/USGS) — AWS Terrain Tiles 배포본. 지형 DEM 추정 고도이며 실측 아님</k100:elevation_source>
      <k100:algorithm>dijkstra-grid-v1</k100:algorithm>
      <k100:osm_snapshot>2026-08-04</k100:osm_snapshot>
      <k100:snap_trailhead_m>65</k100:snap_trailhead_m>
      <k100:snap_summit_m>10</k100:snap_summit_m>
      <k100:validation_score>93</k100:validation_score>
      <k100:validation_status>accepted</k100:validation_status>
    </extensions>
  </metadata>
  <trk>
    <name>선자령 · 대관령마을-선자령 원점회귀 (대안 2) (OSM 계산 경로)</name>
    <desc>실제 GPS 기록이 아닙니다. OpenStreetMap에 등록된 등산로 선형 위에서 계산한 경로이며, 현장 통제·훼손·출입 제한·계절 통제를 반영하지 않을 수 있습니다. 산행 전 공식 안내를 확인하세요.</desc>
    <trkseg>
      <trkpt lat="37.685944" lon="128.755625"><ele>833.7</ele></trkpt>
      <trkpt lat="37.685984" lon="128.756797"><ele>828.4</ele></trkpt>
      <trkpt lat="37.686265" lon="128.757725"><ele>831.6</ele></trkpt>
      <trkpt lat="37.686470" lon="128.758668"><ele>835.7</ele></trkpt>
      <trkpt lat="37.686707" lon="128.758735"><ele>841.6</ele></trkpt>
      <trkpt lat="37.687084" lon="128.759170"><ele>851.5</ele></trkpt>
      <trkpt lat="37.687171" lon="128.759128"><ele>854.0</ele></trkpt>
      <trkpt lat="37.687558" lon="128.758699"><ele>862.3</ele></trkpt>
      <trkpt lat="37.687923" lon="128.758614"><ele>866.6</ele></trkpt>
      <trkpt lat="37.688098" lon="128.758701"><ele>869.6</ele></trkpt>
      <trkpt lat="37.688268" lon="128.758871"><ele>874.7</ele></trkpt>
      <trkpt lat="37.688396" lon="128.759238"><ele>880.7</ele></trkpt>
      <trkpt lat="37.689086" lon="128.759177"><ele>889.5</ele></trkpt>
      <trkpt lat="37.689700" lon="128.758774"><ele>890.3</ele></trkpt>
      <trkpt lat="37.689951" lon="128.758686"><ele>889.6</ele></trkpt>
      <trkpt lat="37.690870" lon="128.758564"><ele>888.3</ele></trkpt>
      <trkpt lat="37.691155" lon="128.758425"><ele>888.8</ele></trkpt>
      <trkpt lat="37.691295" lon="128.758410"><ele>889.1</ele></trkpt>
      <trkpt lat="37.691530" lon="128.758541"><ele>892.8</ele></trkpt>
      <trkpt lat="37.692203" lon="128.758333"><ele>897.8</ele></trkpt>
      <trkpt lat="37.692853" lon="128.758600"><ele>908.3</ele></trkpt>
      <trkpt lat="37.693453" lon="128.758036"><ele>909.5</ele></trkpt>
      <trkpt lat="37.693893" lon="128.757710"><ele>915.1</ele></trkpt>
      <trkpt lat="37.694211" lon="128.756804"><ele>918.3</ele></trkpt>
      <trkpt lat="37.694386" lon="128.756624"><ele>920.5</ele></trkpt>
      <trkpt lat="37.695638" lon="128.755953"><ele>946.2</ele></trkpt>
      <trkpt lat="37.696032" lon="128.755875"><ele>954.5</ele></trkpt>
      <trkpt lat="37.696460" lon="128.755966"><ele>951.2</ele></trkpt>
      <trkpt lat="37.696673" lon="128.755935"><ele>947.6</ele></trkpt>
      <trkpt lat="37.696439" lon="128.755485"><ele>943.0</ele></trkpt>
      <trkpt lat="37.695963" lon="128.755300"><ele>935.2</ele></trkpt>
      <trkpt lat="37.695803" lon="128.754960"><ele>924.0</ele></trkpt>
      <trkpt lat="37.695815" lon="128.754613"><ele>916.8</ele></trkpt>
      <trkpt lat="37.695974" lon="128.753973"><ele>915.5</ele></trkpt>
      <trkpt lat="37.695957" lon="128.753338"><ele>913.8</ele></trkpt>
      <trkpt lat="37.696055" lon="128.753178"><ele>915.7</ele></trkpt>
      <trkpt lat="37.696417" lon="128.753125"><ele>924.4</ele></trkpt>
      <trkpt lat="37.696577" lon="128.752958"><ele>928.3</ele></trkpt>
      <trkpt lat="37.696611" lon="128.752258"><ele>933.3</ele></trkpt>
      <trkpt lat="37.696659" lon="128.752044"><ele>934.2</ele></trkpt>
      <trkpt lat="37.696795" lon="128.751698"><ele>936.8</ele></trkpt>
      <trkpt lat="37.696971" lon="128.751480"><ele>939.1</ele></trkpt>
      <trkpt lat="37.697071" lon="128.751076"><ele>939.4</ele></trkpt>
      <trkpt lat="37.697597" lon="128.750646"><ele>936.7</ele></trkpt>
      <trkpt lat="37.697908" lon="128.750164"><ele>932.0</ele></trkpt>
      <trkpt lat="37.698075" lon="128.749816"><ele>929.1</ele></trkpt>
      <trkpt lat="37.698198" lon="128.749181"><ele>929.0</ele></trkpt>
      <trkpt lat="37.698221" lon="128.748840"><ele>922.2</ele></trkpt>
      <trkpt lat="37.698178" lon="128.748580"><ele>917.1</ele></trkpt>
      <trkpt lat="37.697882" lon="128.748044"><ele>908.0</ele></trkpt>
      <trkpt lat="37.697698" lon="128.747602"><ele>898.5</ele></trkpt>
      <trkpt lat="37.697692" lon="128.747315"><ele>892.0</ele></trkpt>
      <trkpt lat="37.697734" lon="128.747284"><ele>891.3</ele></trkpt>
      <trkpt lat="37.697896" lon="128.747229"><ele>890.6</ele></trkpt>
      <trkpt lat="37.698090" lon="128.747293"><ele>892.4</ele></trkpt>
      <trkpt lat="37.698306" lon="128.747199"><ele>891.8</ele></trkpt>
      <trkpt lat="37.698517" lon="128.747230"><ele>892.9</ele></trkpt>
      <trkpt lat="37.698775" lon="128.747401"><ele>898.0</ele></trkpt>
      <trkpt lat="37.698968" lon="128.747447"><ele>897.3</ele></trkpt>
      <trkpt lat="37.699224" lon="128.747811"><ele>901.0</ele></trkpt>
      <trkpt lat="37.699470" lon="128.747861"><ele>898.0</ele></trkpt>
      <trkpt lat="37.699835" lon="128.747667"><ele>896.5</ele></trkpt>
      <trkpt lat="37.700012" lon="128.747656"><ele>898.5</ele></trkpt>
      <trkpt lat="37.700220" lon="128.747778"><ele>898.8</ele></trkpt>
      <trkpt lat="37.700644" lon="128.747873"><ele>898.7</ele></trkpt>
      <trkpt lat="37.700823" lon="128.747848"><ele>899.2</ele></trkpt>
      <trkpt lat="37.701788" lon="128.747972"><ele>899.2</ele></trkpt>
      <trkpt lat="37.701938" lon="128.748097"><ele>900.3</ele></trkpt>
      <trkpt lat="37.702195" lon="128.748140"><ele>901.5</ele></trkpt>
      <trkpt lat="37.702532" lon="128.748316"><ele>904.2</ele></trkpt>
      <trkpt lat="37.703001" lon="128.748305"><ele>906.0</ele></trkpt>
      <trkpt lat="37.703182" lon="128.748485"><ele>908.8</ele></trkpt>
      <trkpt lat="37.703358" lon="128.748831"><ele>918.2</ele></trkpt>
      <trkpt lat="37.703520" lon="128.748857"><ele>918.4</ele></trkpt>
      <trkpt lat="37.703771" lon="128.749042"><ele>919.7</ele></trkpt>
      <trkpt lat="37.704411" lon="128.749042"><ele>921.0</ele></trkpt>
      <trkpt lat="37.704603" lon="128.748876"><ele>921.4</ele></trkpt>
      <trkpt lat="37.704767" lon="128.748831"><ele>924.7</ele></trkpt>
      <trkpt lat="37.705212" lon="128.748862"><ele>932.5</ele></trkpt>
      <trkpt lat="37.705781" lon="128.748738"><ele>938.9</ele></trkpt>
      <trkpt lat="37.706091" lon="128.748809"><ele>940.4</ele></trkpt>
      <trkpt lat="37.706339" lon="128.748762"><ele>944.6</ele></trkpt>
      <trkpt lat="37.706458" lon="128.748634"><ele>946.9</ele></trkpt>
      <trkpt lat="37.706763" lon="128.748833"><ele>951.9</ele></trkpt>
      <trkpt lat="37.707361" lon="128.749085"><ele>960.6</ele></trkpt>
      <trkpt lat="37.707586" lon="128.748940"><ele>964.5</ele></trkpt>
      <trkpt lat="37.707807" lon="128.749085"><ele>965.6</ele></trkpt>
      <trkpt lat="37.707913" lon="128.748978"><ele>968.8</ele></trkpt>
      <trkpt lat="37.707850" lon="128.748854"><ele>968.7</ele></trkpt>
      <trkpt lat="37.707451" lon="128.748554"><ele>966.5</ele></trkpt>
      <trkpt lat="37.707417" lon="128.748425"><ele>966.3</ele></trkpt>
      <trkpt lat="37.707688" lon="128.748232"><ele>967.4</ele></trkpt>
      <trkpt lat="37.707799" lon="128.748093"><ele>966.0</ele></trkpt>
      <trkpt lat="37.707759" lon="128.747845"><ele>962.0</ele></trkpt>
      <trkpt lat="37.707997" lon="128.747762"><ele>962.4</ele></trkpt>
      <trkpt lat="37.707922" lon="128.747063"><ele>961.1</ele></trkpt>
      <trkpt lat="37.707913" lon="128.746419"><ele>964.5</ele></trkpt>
      <trkpt lat="37.707769" lon="128.746462"><ele>966.2</ele></trkpt>
      <trkpt lat="37.707523" lon="128.746773"><ele>972.1</ele></trkpt>
      <trkpt lat="37.707073" lon="128.746923"><ele>976.3</ele></trkpt>
      <trkpt lat="37.706861" lon="128.746762"><ele>979.8</ele></trkpt>
      <trkpt lat="37.706725" lon="128.746462"><ele>986.3</ele></trkpt>
      <trkpt lat="37.706640" lon="128.746076"><ele>993.5</ele></trkpt>
      <trkpt lat="37.706394" lon="128.745797"><ele>1000.7</ele></trkpt>
      <trkpt lat="37.706360" lon="128.745561"><ele>1005.7</ele></trkpt>
      <trkpt lat="37.706436" lon="128.744960"><ele>1009.3</ele></trkpt>
      <trkpt lat="37.706156" lon="128.744059"><ele>1011.4</ele></trkpt>
      <trkpt lat="37.706088" lon="128.743200"><ele>1016.5</ele></trkpt>
      <trkpt lat="37.706266" lon="128.742449"><ele>1012.6</ele></trkpt>
      <trkpt lat="37.706665" lon="128.742138"><ele>1006.0</ele></trkpt>
      <trkpt lat="37.706740" lon="128.741878"><ele>1005.3</ele></trkpt>
      <trkpt lat="37.706967" lon="128.741849"><ele>1004.2</ele></trkpt>
      <trkpt lat="37.707039" lon="128.741661"><ele>1005.0</ele></trkpt>
      <trkpt lat="37.707637" lon="128.741092"><ele>1020.2</ele></trkpt>
      <trkpt lat="37.707968" lon="128.740926"><ele>1028.0</ele></trkpt>
      <trkpt lat="37.708100" lon="128.740786"><ele>1029.7</ele></trkpt>
      <trkpt lat="37.708821" lon="128.740974"><ele>1038.0</ele></trkpt>
      <trkpt lat="37.709233" lon="128.740684"><ele>1041.0</ele></trkpt>
      <trkpt lat="37.709815" lon="128.740808"><ele>1042.2</ele></trkpt>
      <trkpt lat="37.710129" lon="128.740631"><ele>1042.4</ele></trkpt>
      <trkpt lat="37.710672" lon="128.740582"><ele>1045.0</ele></trkpt>
      <trkpt lat="37.711089" lon="128.740085"><ele>1046.1</ele></trkpt>
      <trkpt lat="37.711414" lon="128.740491"><ele>1048.8</ele></trkpt>
      <trkpt lat="37.711571" lon="128.740593"><ele>1048.6</ele></trkpt>
      <trkpt lat="37.711968" lon="128.740594"><ele>1048.2</ele></trkpt>
      <trkpt lat="37.712490" lon="128.740270"><ele>1053.9</ele></trkpt>
      <trkpt lat="37.712751" lon="128.739891"><ele>1055.9</ele></trkpt>
      <trkpt lat="37.712953" lon="128.739803"><ele>1057.5</ele></trkpt>
      <trkpt lat="37.713482" lon="128.740145"><ele>1067.8</ele></trkpt>
      <trkpt lat="37.714237" lon="128.740288"><ele>1069.8</ele></trkpt>
      <trkpt lat="37.714948" lon="128.740310"><ele>1071.7</ele></trkpt>
      <trkpt lat="37.715609" lon="128.740223"><ele>1070.0</ele></trkpt>
      <trkpt lat="37.717213" lon="128.740262"><ele>1057.3</ele></trkpt>
      <trkpt lat="37.717742" lon="128.740698"><ele>1059.0</ele></trkpt>
      <trkpt lat="37.717609" lon="128.741302"><ele>1053.5</ele></trkpt>
      <trkpt lat="37.717691" lon="128.741521"><ele>1055.3</ele></trkpt>
      <trkpt lat="37.717928" lon="128.741591"><ele>1061.8</ele></trkpt>
      <trkpt lat="37.718230" lon="128.741880"><ele>1067.9</ele></trkpt>
      <trkpt lat="37.718997" lon="128.742774"><ele>1081.0</ele></trkpt>
      <trkpt lat="37.719240" lon="128.742836"><ele>1083.1</ele></trkpt>
      <trkpt lat="37.719535" lon="128.742705"><ele>1086.9</ele></trkpt>
      <trkpt lat="37.720106" lon="128.742569"><ele>1094.7</ele></trkpt>
      <trkpt lat="37.720748" lon="128.742537"><ele>1096.4</ele></trkpt>
      <trkpt lat="37.721002" lon="128.742676"><ele>1097.0</ele></trkpt>
      <trkpt lat="37.721232" lon="128.742888"><ele>1099.5</ele></trkpt>
      <trkpt lat="37.721483" lon="128.742962"><ele>1101.1</ele></trkpt>
      <trkpt lat="37.722043" lon="128.742989"><ele>1100.3</ele></trkpt>
      <trkpt lat="37.723851" lon="128.742789"><ele>1098.2</ele></trkpt>
      <trkpt lat="37.724051" lon="128.742811"><ele>1099.4</ele></trkpt>
      <trkpt lat="37.724387" lon="128.742957"><ele>1099.2</ele></trkpt>
      <trkpt lat="37.724707" lon="128.743183"><ele>1094.4</ele></trkpt>
      <trkpt lat="37.724745" lon="128.743267"><ele>1093.9</ele></trkpt>
      <trkpt lat="37.724716" lon="128.743320"><ele>1095.1</ele></trkpt>
      <trkpt lat="37.724534" lon="128.743306"><ele>1101.4</ele></trkpt>
      <trkpt lat="37.724439" lon="128.743378"><ele>1105.4</ele></trkpt>
      <trkpt lat="37.724288" lon="128.743380"><ele>1107.9</ele></trkpt>
      <trkpt lat="37.723910" lon="128.743614"><ele>1117.8</ele></trkpt>
      <trkpt lat="37.723807" lon="128.743592"><ele>1118.9</ele></trkpt>
      <trkpt lat="37.723676" lon="128.743691"><ele>1124.5</ele></trkpt>
      <trkpt lat="37.723570" lon="128.743979"><ele>1136.2</ele></trkpt>
      <trkpt lat="37.723440" lon="128.744094"><ele>1141.9</ele></trkpt>
      <trkpt lat="37.723441" lon="128.744181"><ele>1143.8</ele></trkpt>
      <trkpt lat="37.723207" lon="128.744327"><ele>1148.8</ele></trkpt>
      <trkpt lat="37.723107" lon="128.744282"><ele>1148.5</ele></trkpt>
      <trkpt lat="37.722904" lon="128.744929"><ele>1151.3</ele></trkpt>
      <trkpt lat="37.722585" lon="128.745143"><ele>1151.2</ele></trkpt>
      <trkpt lat="37.722516" lon="128.745107"><ele>1151.6</ele></trkpt>
    </trkseg>
  </trk>
</gpx>
