<?xml version="1.0" encoding="UTF-8"?>
<gpx version="1.1" creator="kr-100-mountains route-harvester"
     xmlns="http://www.topografix.com/GPX/1/1"
     xmlns:k100="https://github.com/jay-jang/kr-100-mountains/ns/1"
     xmlns:xsi="http://www.w3.org/2001/XMLSchema-instance"
     xsi:schemaLocation="http://www.topografix.com/GPX/1/1 http://www.topografix.com/GPX/1/1/gpx.xsd">
  <metadata>
    <name>광교산 · 경기대-형제봉-시루봉 코스 (대안 1) (OSM 계산 경로)</name>
    <desc>실제 GPS 기록이 아닙니다. OpenStreetMap에 등록된 등산로 선형 위에서 계산한 경로이며, 현장 통제·훼손·출입 제한·계절 통제를 반영하지 않을 수 있습니다. 산행 전 공식 안내를 확인하세요.</desc>
    <time>2026-08-04T05:18:17.301Z</time>
    <link href="https://www.openstreetmap.org/copyright"><text>© OpenStreetMap contributors (ODbL 1.0)</text></link>
    <link href="https://registry.opendata.aws/terrain-tiles/"><text>Elevation: SRTM 1 arc-second (NASA/USGS) via AWS Terrain Tiles</text></link>
    <extensions>
      <k100:provenance>osm-routed</k100:provenance>
      <k100:not_a_recorded_track>true</k100:not_a_recorded_track>
      <k100:mountain_id>gwanggyosan</k100:mountain_id>
      <k100:mountain_name>광교산</k100:mountain_name>
      <k100:route_id>gwanggyosan-c9bdaacd</k100:route_id>
      <k100:route_index>1</k100:route_index>
      <k100:route_name>경기대-형제봉-시루봉 코스</k100:route_name>
      <k100:variant>1</k100:variant>
      <k100:source>OpenStreetMap via Overpass API</k100:source>
      <k100:license>ODbL-1.0</k100:license>
      <k100:attribution>© OpenStreetMap contributors</k100:attribution>
      <k100:elevation_source>SRTM 1 arc-second (NASA/USGS) — AWS Terrain Tiles 배포본. 지형 DEM 추정 고도이며 실측 아님</k100:elevation_source>
      <k100:algorithm>dijkstra-grid-v1</k100:algorithm>
      <k100:osm_snapshot>2026-08-04</k100:osm_snapshot>
      <k100:snap_trailhead_m>16</k100:snap_trailhead_m>
      <k100:snap_summit_m>80</k100:snap_summit_m>
      <k100:validation_score>100</k100:validation_score>
      <k100:validation_status>accepted</k100:validation_status>
    </extensions>
  </metadata>
  <trk>
    <name>광교산 · 경기대-형제봉-시루봉 코스 (대안 1) (OSM 계산 경로)</name>
    <desc>실제 GPS 기록이 아닙니다. OpenStreetMap에 등록된 등산로 선형 위에서 계산한 경로이며, 현장 통제·훼손·출입 제한·계절 통제를 반영하지 않을 수 있습니다. 산행 전 공식 안내를 확인하세요.</desc>
    <trkseg>
      <trkpt lat="37.302447" lon="127.032029"><ele>103.0</ele></trkpt>
      <trkpt lat="37.302287" lon="127.032001"><ele>103.7</ele></trkpt>
      <trkpt lat="37.302515" lon="127.028656"><ele>94.1</ele></trkpt>
      <trkpt lat="37.302263" lon="127.028711"><ele>92.3</ele></trkpt>
      <trkpt lat="37.302140" lon="127.028465"><ele>95.9</ele></trkpt>
      <trkpt lat="37.302589" lon="127.028097"><ele>103.3</ele></trkpt>
      <trkpt lat="37.302921" lon="127.028040"><ele>105.6</ele></trkpt>
      <trkpt lat="37.303066" lon="127.028110"><ele>106.4</ele></trkpt>
      <trkpt lat="37.303177" lon="127.028083"><ele>108.8</ele></trkpt>
      <trkpt lat="37.303262" lon="127.027976"><ele>112.0</ele></trkpt>
      <trkpt lat="37.303640" lon="127.028182"><ele>106.1</ele></trkpt>
      <trkpt lat="37.304024" lon="127.028231"><ele>100.3</ele></trkpt>
      <trkpt lat="37.304069" lon="127.027820"><ele>106.5</ele></trkpt>
      <trkpt lat="37.304186" lon="127.027582"><ele>104.8</ele></trkpt>
      <trkpt lat="37.304210" lon="127.027321"><ele>104.0</ele></trkpt>
      <trkpt lat="37.304474" lon="127.027356"><ele>102.8</ele></trkpt>
      <trkpt lat="37.304697" lon="127.027844"><ele>104.9</ele></trkpt>
      <trkpt lat="37.304845" lon="127.027879"><ele>108.6</ele></trkpt>
      <trkpt lat="37.304986" lon="127.027780"><ele>113.6</ele></trkpt>
      <trkpt lat="37.305353" lon="127.027268"><ele>120.4</ele></trkpt>
      <trkpt lat="37.305481" lon="127.027170"><ele>120.4</ele></trkpt>
      <trkpt lat="37.305756" lon="127.026648"><ele>122.5</ele></trkpt>
      <trkpt lat="37.305807" lon="127.026202"><ele>120.3</ele></trkpt>
      <trkpt lat="37.305910" lon="127.025996"><ele>120.0</ele></trkpt>
      <trkpt lat="37.306098" lon="127.025862"><ele>121.3</ele></trkpt>
      <trkpt lat="37.306252" lon="127.025625"><ele>129.2</ele></trkpt>
      <trkpt lat="37.306423" lon="127.025524"><ele>132.1</ele></trkpt>
      <trkpt lat="37.306426" lon="127.025287"><ele>136.4</ele></trkpt>
      <trkpt lat="37.306640" lon="127.024883"><ele>130.5</ele></trkpt>
      <trkpt lat="37.306748" lon="127.024313"><ele>124.5</ele></trkpt>
      <trkpt lat="37.307040" lon="127.023950"><ele>115.1</ele></trkpt>
      <trkpt lat="37.307221" lon="127.023784"><ele>112.8</ele></trkpt>
      <trkpt lat="37.307578" lon="127.024138"><ele>99.1</ele></trkpt>
      <trkpt lat="37.307973" lon="127.023926"><ele>108.5</ele></trkpt>
      <trkpt lat="37.308041" lon="127.023786"><ele>116.0</ele></trkpt>
      <trkpt lat="37.308133" lon="127.023719"><ele>118.0</ele></trkpt>
      <trkpt lat="37.308485" lon="127.023564"><ele>123.8</ele></trkpt>
      <trkpt lat="37.309500" lon="127.023515"><ele>118.0</ele></trkpt>
      <trkpt lat="37.309536" lon="127.023283"><ele>117.2</ele></trkpt>
      <trkpt lat="37.309591" lon="127.023207"><ele>117.6</ele></trkpt>
      <trkpt lat="37.310083" lon="127.023086"><ele>115.0</ele></trkpt>
      <trkpt lat="37.310713" lon="127.022481"><ele>110.2</ele></trkpt>
      <trkpt lat="37.311059" lon="127.021785"><ele>114.3</ele></trkpt>
      <trkpt lat="37.311238" lon="127.021514"><ele>114.3</ele></trkpt>
      <trkpt lat="37.311384" lon="127.021387"><ele>111.2</ele></trkpt>
      <trkpt lat="37.312295" lon="127.022059"><ele>99.6</ele></trkpt>
      <trkpt lat="37.312400" lon="127.021834"><ele>100.3</ele></trkpt>
      <trkpt lat="37.312483" lon="127.021911"><ele>100.9</ele></trkpt>
      <trkpt lat="37.312889" lon="127.023249"><ele>106.1</ele></trkpt>
      <trkpt lat="37.313094" lon="127.024388"><ele>110.8</ele></trkpt>
      <trkpt lat="37.314151" lon="127.024087"><ele>115.6</ele></trkpt>
      <trkpt lat="37.314477" lon="127.024135"><ele>115.9</ele></trkpt>
      <trkpt lat="37.314735" lon="127.024242"><ele>120.7</ele></trkpt>
      <trkpt lat="37.314968" lon="127.024248"><ele>122.5</ele></trkpt>
      <trkpt lat="37.315430" lon="127.023565"><ele>119.1</ele></trkpt>
      <trkpt lat="37.315479" lon="127.023393"><ele>119.1</ele></trkpt>
      <trkpt lat="37.315716" lon="127.023395"><ele>120.1</ele></trkpt>
      <trkpt lat="37.316010" lon="127.023557"><ele>125.0</ele></trkpt>
      <trkpt lat="37.316091" lon="127.022976"><ele>120.3</ele></trkpt>
      <trkpt lat="37.316131" lon="127.022892"><ele>120.0</ele></trkpt>
      <trkpt lat="37.316245" lon="127.022845"><ele>120.6</ele></trkpt>
      <trkpt lat="37.316475" lon="127.022817"><ele>122.1</ele></trkpt>
      <trkpt lat="37.316970" lon="127.022869"><ele>126.3</ele></trkpt>
      <trkpt lat="37.317346" lon="127.022830"><ele>126.7</ele></trkpt>
      <trkpt lat="37.317740" lon="127.022990"><ele>129.4</ele></trkpt>
      <trkpt lat="37.318121" lon="127.023062"><ele>125.4</ele></trkpt>
      <trkpt lat="37.318480" lon="127.022882"><ele>120.9</ele></trkpt>
      <trkpt lat="37.318885" lon="127.022798"><ele>122.1</ele></trkpt>
      <trkpt lat="37.319286" lon="127.022972"><ele>124.5</ele></trkpt>
      <trkpt lat="37.319748" lon="127.022956"><ele>125.6</ele></trkpt>
      <trkpt lat="37.320084" lon="127.023662"><ele>127.1</ele></trkpt>
      <trkpt lat="37.320331" lon="127.024446"><ele>134.8</ele></trkpt>
      <trkpt lat="37.320558" lon="127.024584"><ele>134.5</ele></trkpt>
      <trkpt lat="37.321037" lon="127.025125"><ele>136.7</ele></trkpt>
      <trkpt lat="37.321175" lon="127.025299"><ele>137.9</ele></trkpt>
      <trkpt lat="37.321483" lon="127.025992"><ele>142.1</ele></trkpt>
      <trkpt lat="37.321851" lon="127.026270"><ele>141.9</ele></trkpt>
      <trkpt lat="37.322143" lon="127.026383"><ele>144.0</ele></trkpt>
      <trkpt lat="37.322930" lon="127.026903"><ele>150.3</ele></trkpt>
      <trkpt lat="37.323679" lon="127.027182"><ele>158.2</ele></trkpt>
      <trkpt lat="37.323851" lon="127.027111"><ele>161.3</ele></trkpt>
      <trkpt lat="37.324008" lon="127.026885"><ele>169.9</ele></trkpt>
      <trkpt lat="37.324263" lon="127.026856"><ele>174.8</ele></trkpt>
      <trkpt lat="37.325122" lon="127.027038"><ele>174.7</ele></trkpt>
      <trkpt lat="37.325495" lon="127.027244"><ele>170.6</ele></trkpt>
      <trkpt lat="37.325856" lon="127.027348"><ele>172.4</ele></trkpt>
      <trkpt lat="37.326180" lon="127.027559"><ele>172.7</ele></trkpt>
      <trkpt lat="37.327009" lon="127.027220"><ele>182.0</ele></trkpt>
      <trkpt lat="37.327623" lon="127.026887"><ele>197.6</ele></trkpt>
      <trkpt lat="37.328110" lon="127.026758"><ele>206.0</ele></trkpt>
      <trkpt lat="37.328297" lon="127.026544"><ele>214.4</ele></trkpt>
      <trkpt lat="37.328664" lon="127.026522"><ele>217.8</ele></trkpt>
      <trkpt lat="37.328886" lon="127.026243"><ele>224.1</ele></trkpt>
      <trkpt lat="37.329202" lon="127.026143"><ele>227.2</ele></trkpt>
      <trkpt lat="37.329511" lon="127.026327"><ele>231.2</ele></trkpt>
      <trkpt lat="37.329897" lon="127.026726"><ele>242.2</ele></trkpt>
      <trkpt lat="37.330524" lon="127.026984"><ele>253.6</ele></trkpt>
      <trkpt lat="37.330929" lon="127.027386"><ele>264.4</ele></trkpt>
      <trkpt lat="37.331121" lon="127.027370"><ele>269.2</ele></trkpt>
      <trkpt lat="37.331505" lon="127.027187"><ele>278.7</ele></trkpt>
      <trkpt lat="37.331782" lon="127.027139"><ele>285.5</ele></trkpt>
      <trkpt lat="37.332149" lon="127.027299"><ele>297.1</ele></trkpt>
      <trkpt lat="37.332258" lon="127.027081"><ele>293.8</ele></trkpt>
      <trkpt lat="37.332340" lon="127.027145"><ele>296.4</ele></trkpt>
      <trkpt lat="37.332512" lon="127.027120"><ele>297.5</ele></trkpt>
      <trkpt lat="37.332615" lon="127.026933"><ele>297.3</ele></trkpt>
      <trkpt lat="37.332657" lon="127.026441"><ele>283.6</ele></trkpt>
      <trkpt lat="37.332605" lon="127.026260"><ele>277.0</ele></trkpt>
      <trkpt lat="37.332822" lon="127.025712"><ele>266.6</ele></trkpt>
      <trkpt lat="37.333021" lon="127.025612"><ele>266.4</ele></trkpt>
      <trkpt lat="37.333447" lon="127.025610"><ele>270.4</ele></trkpt>
      <trkpt lat="37.333713" lon="127.025671"><ele>276.6</ele></trkpt>
      <trkpt lat="37.333773" lon="127.025642"><ele>276.7</ele></trkpt>
      <trkpt lat="37.334088" lon="127.025113"><ele>269.2</ele></trkpt>
      <trkpt lat="37.334229" lon="127.025291"><ele>274.9</ele></trkpt>
      <trkpt lat="37.334521" lon="127.025291"><ele>277.7</ele></trkpt>
      <trkpt lat="37.334594" lon="127.025334"><ele>278.9</ele></trkpt>
      <trkpt lat="37.334736" lon="127.025534"><ele>282.7</ele></trkpt>
      <trkpt lat="37.334817" lon="127.025804"><ele>286.9</ele></trkpt>
      <trkpt lat="37.335114" lon="127.025990"><ele>292.3</ele></trkpt>
      <trkpt lat="37.335400" lon="127.025990"><ele>293.5</ele></trkpt>
      <trkpt lat="37.335608" lon="127.026088"><ele>298.1</ele></trkpt>
      <trkpt lat="37.335915" lon="127.026438"><ele>310.2</ele></trkpt>
      <trkpt lat="37.335965" lon="127.026626"><ele>317.0</ele></trkpt>
      <trkpt lat="37.336072" lon="127.026697"><ele>320.5</ele></trkpt>
      <trkpt lat="37.336308" lon="127.026689"><ele>323.0</ele></trkpt>
      <trkpt lat="37.336623" lon="127.026805"><ele>332.3</ele></trkpt>
      <trkpt lat="37.336845" lon="127.026743"><ele>335.3</ele></trkpt>
      <trkpt lat="37.336923" lon="127.026617"><ele>334.7</ele></trkpt>
      <trkpt lat="37.336938" lon="127.026304"><ele>330.9</ele></trkpt>
      <trkpt lat="37.336866" lon="127.026160"><ele>327.7</ele></trkpt>
      <trkpt lat="37.336301" lon="127.025506"><ele>318.2</ele></trkpt>
      <trkpt lat="37.336173" lon="127.024924"><ele>304.5</ele></trkpt>
      <trkpt lat="37.336151" lon="127.024333"><ele>295.3</ele></trkpt>
      <trkpt lat="37.336259" lon="127.023822"><ele>277.0</ele></trkpt>
      <trkpt lat="37.336459" lon="127.023464"><ele>260.8</ele></trkpt>
      <trkpt lat="37.336695" lon="127.023195"><ele>248.6</ele></trkpt>
      <trkpt lat="37.336745" lon="127.023016"><ele>242.8</ele></trkpt>
      <trkpt lat="37.336610" lon="127.022488"><ele>229.9</ele></trkpt>
      <trkpt lat="37.336681" lon="127.022022"><ele>217.1</ele></trkpt>
      <trkpt lat="37.336760" lon="127.021906"><ele>213.3</ele></trkpt>
      <trkpt lat="37.337003" lon="127.021798"><ele>208.6</ele></trkpt>
      <trkpt lat="37.337203" lon="127.021180"><ele>188.6</ele></trkpt>
      <trkpt lat="37.337564" lon="127.021342"><ele>190.8</ele></trkpt>
      <trkpt lat="37.337933" lon="127.021396"><ele>192.1</ele></trkpt>
      <trkpt lat="37.338180" lon="127.021552"><ele>193.0</ele></trkpt>
      <trkpt lat="37.338404" lon="127.021619"><ele>193.5</ele></trkpt>
      <trkpt lat="37.338726" lon="127.022091"><ele>199.8</ele></trkpt>
      <trkpt lat="37.339440" lon="127.022601"><ele>213.7</ele></trkpt>
      <trkpt lat="37.339701" lon="127.022939"><ele>221.0</ele></trkpt>
      <trkpt lat="37.339752" lon="127.023252"><ele>225.6</ele></trkpt>
      <trkpt lat="37.339684" lon="127.023336"><ele>227.0</ele></trkpt>
      <trkpt lat="37.339792" lon="127.023717"><ele>233.6</ele></trkpt>
      <trkpt lat="37.339925" lon="127.023877"><ele>236.1</ele></trkpt>
      <trkpt lat="37.339950" lon="127.024084"><ele>239.8</ele></trkpt>
      <trkpt lat="37.340112" lon="127.024132"><ele>242.4</ele></trkpt>
      <trkpt lat="37.340334" lon="127.024430"><ele>250.8</ele></trkpt>
      <trkpt lat="37.340530" lon="127.024527"><ele>256.4</ele></trkpt>
      <trkpt lat="37.340743" lon="127.025079"><ele>272.2</ele></trkpt>
      <trkpt lat="37.341379" lon="127.025739"><ele>289.8</ele></trkpt>
      <trkpt lat="37.341481" lon="127.025927"><ele>295.8</ele></trkpt>
      <trkpt lat="37.341603" lon="127.026348"><ele>303.5</ele></trkpt>
      <trkpt lat="37.342232" lon="127.026536"><ele>323.4</ele></trkpt>
      <trkpt lat="37.342558" lon="127.026911"><ele>338.9</ele></trkpt>
      <trkpt lat="37.342835" lon="127.026895"><ele>353.0</ele></trkpt>
      <trkpt lat="37.343012" lon="127.026943"><ele>361.1</ele></trkpt>
      <trkpt lat="37.343362" lon="127.027220"><ele>374.8</ele></trkpt>
    </trkseg>
  </trk>
</gpx>
