<?xml version="1.0" encoding="UTF-8"?>
<gpx version="1.1" creator="kr-100-mountains route-harvester"
     xmlns="http://www.topografix.com/GPX/1/1"
     xmlns:k100="https://github.com/jay-jang/kr-100-mountains/ns/1"
     xmlns:xsi="http://www.w3.org/2001/XMLSchema-instance"
     xsi:schemaLocation="http://www.topografix.com/GPX/1/1 http://www.topografix.com/GPX/1/1/gpx.xsd">
  <metadata>
    <name>마이산 · 남부주차장-탑사-암마이봉 코스 (대안 2) (OSM 계산 경로)</name>
    <desc>실제 GPS 기록이 아닙니다. OpenStreetMap에 등록된 등산로 선형 위에서 계산한 경로이며, 현장 통제·훼손·출입 제한·계절 통제를 반영하지 않을 수 있습니다. 산행 전 공식 안내를 확인하세요.</desc>
    <time>2026-08-04T05:37:27.169Z</time>
    <link href="https://www.openstreetmap.org/copyright"><text>© OpenStreetMap contributors (ODbL 1.0)</text></link>
    <link href="https://registry.opendata.aws/terrain-tiles/"><text>Elevation: SRTM 1 arc-second (NASA/USGS) via AWS Terrain Tiles</text></link>
    <extensions>
      <k100:provenance>osm-routed</k100:provenance>
      <k100:not_a_recorded_track>true</k100:not_a_recorded_track>
      <k100:mountain_id>maisan</k100:mountain_id>
      <k100:mountain_name>마이산</k100:mountain_name>
      <k100:route_id>maisan-25a42cd9</k100:route_id>
      <k100:route_index>1</k100:route_index>
      <k100:route_name>남부주차장-탑사-암마이봉 코스</k100:route_name>
      <k100:variant>2</k100:variant>
      <k100:source>OpenStreetMap via Overpass API</k100:source>
      <k100:license>ODbL-1.0</k100:license>
      <k100:attribution>© OpenStreetMap contributors</k100:attribution>
      <k100:elevation_source>SRTM 1 arc-second (NASA/USGS) — AWS Terrain Tiles 배포본. 지형 DEM 추정 고도이며 실측 아님</k100:elevation_source>
      <k100:algorithm>dijkstra-grid-v1</k100:algorithm>
      <k100:osm_snapshot>2026-08-04</k100:osm_snapshot>
      <k100:snap_trailhead_m>313</k100:snap_trailhead_m>
      <k100:snap_summit_m>127</k100:snap_summit_m>
      <k100:validation_score>76</k100:validation_score>
      <k100:validation_status>accepted</k100:validation_status>
    </extensions>
  </metadata>
  <trk>
    <name>마이산 · 남부주차장-탑사-암마이봉 코스 (대안 2) (OSM 계산 경로)</name>
    <desc>실제 GPS 기록이 아닙니다. OpenStreetMap에 등록된 등산로 선형 위에서 계산한 경로이며, 현장 통제·훼손·출입 제한·계절 통제를 반영하지 않을 수 있습니다. 산행 전 공식 안내를 확인하세요.</desc>
    <trkseg>
      <trkpt lat="35.753662" lon="127.404409"><ele>376.9</ele></trkpt>
      <trkpt lat="35.754452" lon="127.403479"><ele>379.6</ele></trkpt>
      <trkpt lat="35.755013" lon="127.402908"><ele>376.3</ele></trkpt>
      <trkpt lat="35.755568" lon="127.402514"><ele>369.1</ele></trkpt>
      <trkpt lat="35.756165" lon="127.402246"><ele>357.3</ele></trkpt>
      <trkpt lat="35.756039" lon="127.401846"><ele>355.9</ele></trkpt>
      <trkpt lat="35.756107" lon="127.401549"><ele>354.9</ele></trkpt>
      <trkpt lat="35.756098" lon="127.401414"><ele>356.1</ele></trkpt>
      <trkpt lat="35.755905" lon="127.401012"><ele>362.9</ele></trkpt>
      <trkpt lat="35.755781" lon="127.400433"><ele>364.4</ele></trkpt>
      <trkpt lat="35.755901" lon="127.399805"><ele>362.7</ele></trkpt>
      <trkpt lat="35.756055" lon="127.399644"><ele>355.9</ele></trkpt>
      <trkpt lat="35.756498" lon="127.399482"><ele>353.8</ele></trkpt>
      <trkpt lat="35.756724" lon="127.398881"><ele>354.1</ele></trkpt>
      <trkpt lat="35.757163" lon="127.398398"><ele>351.0</ele></trkpt>
      <trkpt lat="35.757415" lon="127.397468"><ele>343.2</ele></trkpt>
      <trkpt lat="35.757886" lon="127.397445"><ele>341.3</ele></trkpt>
      <trkpt lat="35.758108" lon="127.397596"><ele>345.1</ele></trkpt>
      <trkpt lat="35.758357" lon="127.397627"><ele>349.1</ele></trkpt>
      <trkpt lat="35.758699" lon="127.398299"><ele>347.9</ele></trkpt>
      <trkpt lat="35.759178" lon="127.398448"><ele>354.6</ele></trkpt>
      <trkpt lat="35.759431" lon="127.398665"><ele>356.6</ele></trkpt>
      <trkpt lat="35.759890" lon="127.398756"><ele>358.8</ele></trkpt>
      <trkpt lat="35.760160" lon="127.399006"><ele>362.8</ele></trkpt>
      <trkpt lat="35.760328" lon="127.399094"><ele>367.0</ele></trkpt>
      <trkpt lat="35.760659" lon="127.399159"><ele>377.1</ele></trkpt>
      <trkpt lat="35.760748" lon="127.399145"><ele>380.6</ele></trkpt>
      <trkpt lat="35.761296" lon="127.398789"><ele>401.7</ele></trkpt>
      <trkpt lat="35.761505" lon="127.398724"><ele>409.3</ele></trkpt>
      <trkpt lat="35.761938" lon="127.398687"><ele>421.6</ele></trkpt>
      <trkpt lat="35.762006" lon="127.398762"><ele>423.6</ele></trkpt>
      <trkpt lat="35.762409" lon="127.398700"><ele>438.2</ele></trkpt>
      <trkpt lat="35.763007" lon="127.398826"><ele>451.8</ele></trkpt>
      <trkpt lat="35.763207" lon="127.398797"><ele>457.5</ele></trkpt>
      <trkpt lat="35.763394" lon="127.398677"><ele>465.7</ele></trkpt>
      <trkpt lat="35.763961" lon="127.398615"><ele>464.9</ele></trkpt>
      <trkpt lat="35.764261" lon="127.398877"><ele>463.9</ele></trkpt>
      <trkpt lat="35.764354" lon="127.399029"><ele>467.5</ele></trkpt>
      <trkpt lat="35.764422" lon="127.399301"><ele>473.8</ele></trkpt>
      <trkpt lat="35.764661" lon="127.399733"><ele>475.4</ele></trkpt>
      <trkpt lat="35.764610" lon="127.399958"><ele>474.8</ele></trkpt>
      <trkpt lat="35.764143" lon="127.400287"><ele>468.2</ele></trkpt>
      <trkpt lat="35.764092" lon="127.400396"><ele>465.1</ele></trkpt>
      <trkpt lat="35.764061" lon="127.400908"><ele>457.9</ele></trkpt>
      <trkpt lat="35.763781" lon="127.401229"><ele>454.3</ele></trkpt>
      <trkpt lat="35.763676" lon="127.401616"><ele>451.4</ele></trkpt>
      <trkpt lat="35.763358" lon="127.402072"><ele>443.4</ele></trkpt>
      <trkpt lat="35.763441" lon="127.402255"><ele>440.6</ele></trkpt>
      <trkpt lat="35.763461" lon="127.402527"><ele>439.1</ele></trkpt>
      <trkpt lat="35.763628" lon="127.402819"><ele>437.2</ele></trkpt>
      <trkpt lat="35.763606" lon="127.402878"><ele>436.5</ele></trkpt>
      <trkpt lat="35.763411" lon="127.402977"><ele>431.4</ele></trkpt>
      <trkpt lat="35.763425" lon="127.403083"><ele>429.5</ele></trkpt>
      <trkpt lat="35.763782" lon="127.403733"><ele>432.0</ele></trkpt>
      <trkpt lat="35.763737" lon="127.404203"><ele>440.8</ele></trkpt>
      <trkpt lat="35.763661" lon="127.404450"><ele>450.8</ele></trkpt>
      <trkpt lat="35.763463" lon="127.404860"><ele>467.2</ele></trkpt>
      <trkpt lat="35.763305" lon="127.404968"><ele>467.2</ele></trkpt>
      <trkpt lat="35.763264" lon="127.405153"><ele>472.0</ele></trkpt>
      <trkpt lat="35.763278" lon="127.405418"><ele>479.5</ele></trkpt>
      <trkpt lat="35.763140" lon="127.405545"><ele>478.9</ele></trkpt>
      <trkpt lat="35.763006" lon="127.406099"><ele>479.7</ele></trkpt>
      <trkpt lat="35.762867" lon="127.406190"><ele>482.1</ele></trkpt>
      <trkpt lat="35.762570" lon="127.406270"><ele>489.5</ele></trkpt>
      <trkpt lat="35.762107" lon="127.406117"><ele>498.8</ele></trkpt>
      <trkpt lat="35.761850" lon="127.406165"><ele>505.2</ele></trkpt>
      <trkpt lat="35.761409" lon="127.406010"><ele>514.1</ele></trkpt>
      <trkpt lat="35.761334" lon="127.405922"><ele>514.4</ele></trkpt>
    </trkseg>
  </trk>
</gpx>
