<?xml version="1.0" encoding="UTF-8"?>
<gpx version="1.1" creator="kr-100-mountains route-harvester"
     xmlns="http://www.topografix.com/GPX/1/1"
     xmlns:k100="https://github.com/jay-jang/kr-100-mountains/ns/1"
     xmlns:xsi="http://www.w3.org/2001/XMLSchema-instance"
     xsi:schemaLocation="http://www.topografix.com/GPX/1/1 http://www.topografix.com/GPX/1/1/gpx.xsd">
  <metadata>
    <name>마이산 · 북부주차장-천황문-암마이봉 코스 (대안 1) (OSM 계산 경로)</name>
    <desc>실제 GPS 기록이 아닙니다. OpenStreetMap에 등록된 등산로 선형 위에서 계산한 경로이며, 현장 통제·훼손·출입 제한·계절 통제를 반영하지 않을 수 있습니다. 산행 전 공식 안내를 확인하세요.</desc>
    <time>2026-08-04T05:37:27.181Z</time>
    <link href="https://www.openstreetmap.org/copyright"><text>© OpenStreetMap contributors (ODbL 1.0)</text></link>
    <link href="https://registry.opendata.aws/terrain-tiles/"><text>Elevation: SRTM 1 arc-second (NASA/USGS) via AWS Terrain Tiles</text></link>
    <extensions>
      <k100:provenance>osm-routed</k100:provenance>
      <k100:not_a_recorded_track>true</k100:not_a_recorded_track>
      <k100:mountain_id>maisan</k100:mountain_id>
      <k100:mountain_name>마이산</k100:mountain_name>
      <k100:route_id>maisan-228301f6</k100:route_id>
      <k100:route_index>2</k100:route_index>
      <k100:route_name>북부주차장-천황문-암마이봉 코스</k100:route_name>
      <k100:variant>1</k100:variant>
      <k100:source>OpenStreetMap via Overpass API</k100:source>
      <k100:license>ODbL-1.0</k100:license>
      <k100:attribution>© OpenStreetMap contributors</k100:attribution>
      <k100:elevation_source>SRTM 1 arc-second (NASA/USGS) — AWS Terrain Tiles 배포본. 지형 DEM 추정 고도이며 실측 아님</k100:elevation_source>
      <k100:algorithm>dijkstra-grid-v1</k100:algorithm>
      <k100:osm_snapshot>2026-08-04</k100:osm_snapshot>
      <k100:snap_trailhead_m>25</k100:snap_trailhead_m>
      <k100:snap_summit_m>127</k100:snap_summit_m>
      <k100:validation_score>89</k100:validation_score>
      <k100:validation_status>accepted</k100:validation_status>
    </extensions>
  </metadata>
  <trk>
    <name>마이산 · 북부주차장-천황문-암마이봉 코스 (대안 1) (OSM 계산 경로)</name>
    <desc>실제 GPS 기록이 아닙니다. OpenStreetMap에 등록된 등산로 선형 위에서 계산한 경로이며, 현장 통제·훼손·출입 제한·계절 통제를 반영하지 않을 수 있습니다. 산행 전 공식 안내를 확인하세요.</desc>
    <trkseg>
      <trkpt lat="35.775311" lon="127.417729"><ele>323.7</ele></trkpt>
      <trkpt lat="35.776195" lon="127.416824"><ele>331.4</ele></trkpt>
      <trkpt lat="35.776477" lon="127.416126"><ele>336.6</ele></trkpt>
      <trkpt lat="35.776641" lon="127.414858"><ele>345.4</ele></trkpt>
      <trkpt lat="35.776522" lon="127.414421"><ele>346.5</ele></trkpt>
      <trkpt lat="35.776559" lon="127.414354"><ele>345.1</ele></trkpt>
      <trkpt lat="35.776537" lon="127.414118"><ele>345.0</ele></trkpt>
      <trkpt lat="35.776632" lon="127.413725"><ele>348.5</ele></trkpt>
      <trkpt lat="35.776510" lon="127.413556"><ele>351.0</ele></trkpt>
      <trkpt lat="35.776509" lon="127.413378"><ele>351.8</ele></trkpt>
      <trkpt lat="35.776426" lon="127.413354"><ele>352.0</ele></trkpt>
      <trkpt lat="35.776342" lon="127.413223"><ele>353.7</ele></trkpt>
      <trkpt lat="35.776379" lon="127.413101"><ele>353.1</ele></trkpt>
      <trkpt lat="35.776348" lon="127.412908"><ele>355.4</ele></trkpt>
      <trkpt lat="35.776398" lon="127.412688"><ele>357.9</ele></trkpt>
      <trkpt lat="35.776337" lon="127.412496"><ele>363.1</ele></trkpt>
      <trkpt lat="35.776344" lon="127.412353"><ele>368.0</ele></trkpt>
      <trkpt lat="35.776142" lon="127.412446"><ele>368.2</ele></trkpt>
      <trkpt lat="35.775998" lon="127.412405"><ele>371.7</ele></trkpt>
      <trkpt lat="35.775940" lon="127.412211"><ele>378.8</ele></trkpt>
      <trkpt lat="35.776071" lon="127.411890"><ele>385.4</ele></trkpt>
      <trkpt lat="35.776096" lon="127.411717"><ele>388.3</ele></trkpt>
      <trkpt lat="35.775652" lon="127.411688"><ele>390.4</ele></trkpt>
      <trkpt lat="35.775538" lon="127.411593"><ele>390.4</ele></trkpt>
      <trkpt lat="35.775403" lon="127.411394"><ele>390.9</ele></trkpt>
      <trkpt lat="35.775063" lon="127.410352"><ele>385.2</ele></trkpt>
      <trkpt lat="35.774774" lon="127.410112"><ele>383.5</ele></trkpt>
      <trkpt lat="35.774736" lon="127.409939"><ele>385.7</ele></trkpt>
      <trkpt lat="35.774632" lon="127.409757"><ele>386.5</ele></trkpt>
      <trkpt lat="35.774492" lon="127.409644"><ele>386.6</ele></trkpt>
      <trkpt lat="35.774374" lon="127.409448"><ele>387.4</ele></trkpt>
      <trkpt lat="35.774315" lon="127.409281"><ele>388.2</ele></trkpt>
      <trkpt lat="35.774315" lon="127.408984"><ele>391.3</ele></trkpt>
      <trkpt lat="35.774242" lon="127.408713"><ele>393.4</ele></trkpt>
      <trkpt lat="35.774060" lon="127.408603"><ele>392.9</ele></trkpt>
      <trkpt lat="35.774030" lon="127.408431"><ele>393.8</ele></trkpt>
      <trkpt lat="35.773845" lon="127.408168"><ele>394.5</ele></trkpt>
      <trkpt lat="35.773729" lon="127.407867"><ele>395.5</ele></trkpt>
      <trkpt lat="35.772796" lon="127.406910"><ele>409.1</ele></trkpt>
      <trkpt lat="35.772547" lon="127.406965"><ele>409.7</ele></trkpt>
      <trkpt lat="35.772428" lon="127.407100"><ele>410.8</ele></trkpt>
      <trkpt lat="35.772207" lon="127.407225"><ele>415.5</ele></trkpt>
      <trkpt lat="35.772124" lon="127.407346"><ele>418.4</ele></trkpt>
      <trkpt lat="35.771966" lon="127.407352"><ele>423.3</ele></trkpt>
      <trkpt lat="35.771722" lon="127.407879"><ele>429.8</ele></trkpt>
      <trkpt lat="35.771412" lon="127.407991"><ele>431.6</ele></trkpt>
      <trkpt lat="35.771289" lon="127.408105"><ele>431.6</ele></trkpt>
      <trkpt lat="35.770955" lon="127.408115"><ele>436.3</ele></trkpt>
      <trkpt lat="35.770775" lon="127.408214"><ele>441.8</ele></trkpt>
      <trkpt lat="35.770531" lon="127.408225"><ele>449.2</ele></trkpt>
      <trkpt lat="35.769963" lon="127.408085"><ele>468.6</ele></trkpt>
      <trkpt lat="35.769717" lon="127.407911"><ele>472.5</ele></trkpt>
      <trkpt lat="35.769451" lon="127.407991"><ele>475.7</ele></trkpt>
      <trkpt lat="35.769325" lon="127.407970"><ele>475.8</ele></trkpt>
      <trkpt lat="35.769188" lon="127.407817"><ele>477.4</ele></trkpt>
      <trkpt lat="35.769066" lon="127.407801"><ele>477.7</ele></trkpt>
      <trkpt lat="35.768931" lon="127.407667"><ele>476.6</ele></trkpt>
      <trkpt lat="35.768873" lon="127.407511"><ele>475.1</ele></trkpt>
      <trkpt lat="35.768281" lon="127.407254"><ele>473.3</ele></trkpt>
      <trkpt lat="35.768172" lon="127.407299"><ele>474.2</ele></trkpt>
      <trkpt lat="35.767797" lon="127.407195"><ele>475.0</ele></trkpt>
      <trkpt lat="35.766994" lon="127.407243"><ele>488.8</ele></trkpt>
      <trkpt lat="35.766783" lon="127.407187"><ele>489.9</ele></trkpt>
      <trkpt lat="35.766435" lon="127.406859"><ele>493.9</ele></trkpt>
      <trkpt lat="35.766387" lon="127.406615"><ele>496.4</ele></trkpt>
      <trkpt lat="35.766248" lon="127.406505"><ele>497.8</ele></trkpt>
      <trkpt lat="35.766270" lon="127.406205"><ele>500.8</ele></trkpt>
      <trkpt lat="35.766168" lon="127.405938"><ele>502.8</ele></trkpt>
      <trkpt lat="35.766027" lon="127.405858"><ele>503.6</ele></trkpt>
      <trkpt lat="35.765848" lon="127.405934"><ele>503.9</ele></trkpt>
      <trkpt lat="35.765665" lon="127.405910"><ele>504.2</ele></trkpt>
      <trkpt lat="35.765539" lon="127.405749"><ele>503.8</ele></trkpt>
      <trkpt lat="35.765166" lon="127.405607"><ele>501.5</ele></trkpt>
      <trkpt lat="35.764999" lon="127.405667"><ele>500.6</ele></trkpt>
      <trkpt lat="35.764922" lon="127.405815"><ele>504.3</ele></trkpt>
      <trkpt lat="35.764842" lon="127.405805"><ele>502.8</ele></trkpt>
      <trkpt lat="35.764561" lon="127.405482"><ele>487.9</ele></trkpt>
      <trkpt lat="35.764152" lon="127.405474"><ele>495.7</ele></trkpt>
      <trkpt lat="35.764111" lon="127.405640"><ele>497.5</ele></trkpt>
      <trkpt lat="35.764014" lon="127.405663"><ele>497.1</ele></trkpt>
      <trkpt lat="35.763918" lon="127.405539"><ele>496.8</ele></trkpt>
      <trkpt lat="35.763708" lon="127.405509"><ele>492.1</ele></trkpt>
      <trkpt lat="35.763519" lon="127.405690"><ele>488.7</ele></trkpt>
      <trkpt lat="35.763320" lon="127.405712"><ele>483.8</ele></trkpt>
      <trkpt lat="35.762867" lon="127.406190"><ele>482.1</ele></trkpt>
      <trkpt lat="35.762774" lon="127.406194"><ele>484.0</ele></trkpt>
      <trkpt lat="35.762728" lon="127.406257"><ele>485.7</ele></trkpt>
      <trkpt lat="35.762570" lon="127.406270"><ele>489.5</ele></trkpt>
      <trkpt lat="35.762107" lon="127.406117"><ele>498.8</ele></trkpt>
      <trkpt lat="35.761850" lon="127.406165"><ele>505.2</ele></trkpt>
      <trkpt lat="35.761688" lon="127.406127"><ele>508.4</ele></trkpt>
      <trkpt lat="35.761409" lon="127.406010"><ele>514.1</ele></trkpt>
      <trkpt lat="35.761334" lon="127.405922"><ele>514.4</ele></trkpt>
    </trkseg>
  </trk>
</gpx>
