<?xml version="1.0" encoding="UTF-8"?>
<gpx version="1.1" creator="kr-100-mountains route-harvester"
     xmlns="http://www.topografix.com/GPX/1/1"
     xmlns:k100="https://github.com/jay-jang/kr-100-mountains/ns/1"
     xmlns:xsi="http://www.w3.org/2001/XMLSchema-instance"
     xsi:schemaLocation="http://www.topografix.com/GPX/1/1 http://www.topografix.com/GPX/1/1/gpx.xsd">
  <metadata>
    <name>마이산 · 북부주차장-천황문-암마이봉 코스 (OSM 계산 경로)</name>
    <desc>실제 GPS 기록이 아닙니다. OpenStreetMap에 등록된 등산로 선형 위에서 계산한 경로이며, 현장 통제·훼손·출입 제한·계절 통제를 반영하지 않을 수 있습니다. 산행 전 공식 안내를 확인하세요.</desc>
    <time>2026-08-04T05:37:27.181Z</time>
    <link href="https://www.openstreetmap.org/copyright"><text>© OpenStreetMap contributors (ODbL 1.0)</text></link>
    <link href="https://registry.opendata.aws/terrain-tiles/"><text>Elevation: SRTM 1 arc-second (NASA/USGS) via AWS Terrain Tiles</text></link>
    <extensions>
      <k100:provenance>osm-routed</k100:provenance>
      <k100:not_a_recorded_track>true</k100:not_a_recorded_track>
      <k100:mountain_id>maisan</k100:mountain_id>
      <k100:mountain_name>마이산</k100:mountain_name>
      <k100:route_id>maisan-228301f6</k100:route_id>
      <k100:route_index>2</k100:route_index>
      <k100:route_name>북부주차장-천황문-암마이봉 코스</k100:route_name>
      <k100:variant>0</k100:variant>
      <k100:source>OpenStreetMap via Overpass API</k100:source>
      <k100:license>ODbL-1.0</k100:license>
      <k100:attribution>© OpenStreetMap contributors</k100:attribution>
      <k100:elevation_source>SRTM 1 arc-second (NASA/USGS) — AWS Terrain Tiles 배포본. 지형 DEM 추정 고도이며 실측 아님</k100:elevation_source>
      <k100:algorithm>dijkstra-grid-v1</k100:algorithm>
      <k100:osm_snapshot>2026-08-04</k100:osm_snapshot>
      <k100:snap_trailhead_m>25</k100:snap_trailhead_m>
      <k100:snap_summit_m>127</k100:snap_summit_m>
      <k100:validation_score>89</k100:validation_score>
      <k100:validation_status>accepted</k100:validation_status>
    </extensions>
  </metadata>
  <trk>
    <name>마이산 · 북부주차장-천황문-암마이봉 코스 (OSM 계산 경로)</name>
    <desc>실제 GPS 기록이 아닙니다. OpenStreetMap에 등록된 등산로 선형 위에서 계산한 경로이며, 현장 통제·훼손·출입 제한·계절 통제를 반영하지 않을 수 있습니다. 산행 전 공식 안내를 확인하세요.</desc>
    <trkseg>
      <trkpt lat="35.775311" lon="127.417729"><ele>323.7</ele></trkpt>
      <trkpt lat="35.773616" lon="127.416236"><ele>326.0</ele></trkpt>
      <trkpt lat="35.772925" lon="127.415721"><ele>327.6</ele></trkpt>
      <trkpt lat="35.772535" lon="127.415319"><ele>327.1</ele></trkpt>
      <trkpt lat="35.772355" lon="127.415232"><ele>328.7</ele></trkpt>
      <trkpt lat="35.771578" lon="127.414083"><ele>338.2</ele></trkpt>
      <trkpt lat="35.771410" lon="127.413975"><ele>339.0</ele></trkpt>
      <trkpt lat="35.771003" lon="127.414160"><ele>334.9</ele></trkpt>
      <trkpt lat="35.770576" lon="127.413763"><ele>340.3</ele></trkpt>
      <trkpt lat="35.770424" lon="127.413739"><ele>341.8</ele></trkpt>
      <trkpt lat="35.769954" lon="127.413809"><ele>347.0</ele></trkpt>
      <trkpt lat="35.769919" lon="127.413928"><ele>347.0</ele></trkpt>
      <trkpt lat="35.769662" lon="127.413983"><ele>350.3</ele></trkpt>
      <trkpt lat="35.769716" lon="127.413859"><ele>349.0</ele></trkpt>
      <trkpt lat="35.769650" lon="127.413783"><ele>348.6</ele></trkpt>
      <trkpt lat="35.769220" lon="127.413459"><ele>349.5</ele></trkpt>
      <trkpt lat="35.769050" lon="127.413396"><ele>351.3</ele></trkpt>
      <trkpt lat="35.768146" lon="127.412657"><ele>348.5</ele></trkpt>
      <trkpt lat="35.768205" lon="127.412296"><ele>345.4</ele></trkpt>
      <trkpt lat="35.768393" lon="127.412358"><ele>346.1</ele></trkpt>
      <trkpt lat="35.768451" lon="127.412202"><ele>348.5</ele></trkpt>
      <trkpt lat="35.768172" lon="127.412087"><ele>349.6</ele></trkpt>
      <trkpt lat="35.767991" lon="127.411953"><ele>352.1</ele></trkpt>
      <trkpt lat="35.767819" lon="127.411733"><ele>361.5</ele></trkpt>
      <trkpt lat="35.767564" lon="127.411768"><ele>362.1</ele></trkpt>
      <trkpt lat="35.767388" lon="127.411542"><ele>365.4</ele></trkpt>
      <trkpt lat="35.766812" lon="127.411191"><ele>361.2</ele></trkpt>
      <trkpt lat="35.765722" lon="127.410665"><ele>375.0</ele></trkpt>
      <trkpt lat="35.765127" lon="127.410660"><ele>380.4</ele></trkpt>
      <trkpt lat="35.764609" lon="127.410419"><ele>387.3</ele></trkpt>
      <trkpt lat="35.764322" lon="127.409960"><ele>382.5</ele></trkpt>
      <trkpt lat="35.763932" lon="127.409464"><ele>392.2</ele></trkpt>
      <trkpt lat="35.763869" lon="127.409279"><ele>399.1</ele></trkpt>
      <trkpt lat="35.763830" lon="127.408831"><ele>408.1</ele></trkpt>
      <trkpt lat="35.763863" lon="127.408469"><ele>409.5</ele></trkpt>
      <trkpt lat="35.763658" lon="127.408176"><ele>411.0</ele></trkpt>
      <trkpt lat="35.763601" lon="127.408021"><ele>413.6</ele></trkpt>
      <trkpt lat="35.763521" lon="127.406878"><ele>456.7</ele></trkpt>
      <trkpt lat="35.763329" lon="127.406401"><ele>471.7</ele></trkpt>
      <trkpt lat="35.763166" lon="127.406320"><ele>476.1</ele></trkpt>
      <trkpt lat="35.763006" lon="127.406099"><ele>479.7</ele></trkpt>
      <trkpt lat="35.762728" lon="127.406257"><ele>485.7</ele></trkpt>
      <trkpt lat="35.762570" lon="127.406270"><ele>489.5</ele></trkpt>
      <trkpt lat="35.762107" lon="127.406117"><ele>498.8</ele></trkpt>
      <trkpt lat="35.761850" lon="127.406165"><ele>505.2</ele></trkpt>
      <trkpt lat="35.761688" lon="127.406127"><ele>508.4</ele></trkpt>
      <trkpt lat="35.761409" lon="127.406010"><ele>514.1</ele></trkpt>
      <trkpt lat="35.761334" lon="127.405922"><ele>514.4</ele></trkpt>
    </trkseg>
  </trk>
</gpx>
