<?xml version="1.0" encoding="UTF-8"?>
<gpx version="1.1" creator="kr-100-mountains route-harvester"
     xmlns="http://www.topografix.com/GPX/1/1"
     xmlns:k100="https://github.com/jay-jang/kr-100-mountains/ns/1"
     xmlns:xsi="http://www.w3.org/2001/XMLSchema-instance"
     xsi:schemaLocation="http://www.topografix.com/GPX/1/1 http://www.topografix.com/GPX/1/1/gpx.xsd">
  <metadata>
    <name>마이산 · 북부주차장-천황문-암마이봉 코스 (대안 2) (OSM 계산 경로)</name>
    <desc>실제 GPS 기록이 아닙니다. OpenStreetMap에 등록된 등산로 선형 위에서 계산한 경로이며, 현장 통제·훼손·출입 제한·계절 통제를 반영하지 않을 수 있습니다. 산행 전 공식 안내를 확인하세요.</desc>
    <time>2026-08-04T05:37:27.182Z</time>
    <link href="https://www.openstreetmap.org/copyright"><text>© OpenStreetMap contributors (ODbL 1.0)</text></link>
    <link href="https://registry.opendata.aws/terrain-tiles/"><text>Elevation: SRTM 1 arc-second (NASA/USGS) via AWS Terrain Tiles</text></link>
    <extensions>
      <k100:provenance>osm-routed</k100:provenance>
      <k100:not_a_recorded_track>true</k100:not_a_recorded_track>
      <k100:mountain_id>maisan</k100:mountain_id>
      <k100:mountain_name>마이산</k100:mountain_name>
      <k100:route_id>maisan-228301f6</k100:route_id>
      <k100:route_index>2</k100:route_index>
      <k100:route_name>북부주차장-천황문-암마이봉 코스</k100:route_name>
      <k100:variant>2</k100:variant>
      <k100:source>OpenStreetMap via Overpass API</k100:source>
      <k100:license>ODbL-1.0</k100:license>
      <k100:attribution>© OpenStreetMap contributors</k100:attribution>
      <k100:elevation_source>SRTM 1 arc-second (NASA/USGS) — AWS Terrain Tiles 배포본. 지형 DEM 추정 고도이며 실측 아님</k100:elevation_source>
      <k100:algorithm>dijkstra-grid-v1</k100:algorithm>
      <k100:osm_snapshot>2026-08-04</k100:osm_snapshot>
      <k100:snap_trailhead_m>25</k100:snap_trailhead_m>
      <k100:snap_summit_m>127</k100:snap_summit_m>
      <k100:validation_score>64</k100:validation_score>
      <k100:validation_status>review</k100:validation_status>
    </extensions>
  </metadata>
  <trk>
    <name>마이산 · 북부주차장-천황문-암마이봉 코스 (대안 2) (OSM 계산 경로)</name>
    <desc>실제 GPS 기록이 아닙니다. OpenStreetMap에 등록된 등산로 선형 위에서 계산한 경로이며, 현장 통제·훼손·출입 제한·계절 통제를 반영하지 않을 수 있습니다. 산행 전 공식 안내를 확인하세요.</desc>
    <trkseg>
      <trkpt lat="35.775311" lon="127.417729"><ele>323.7</ele></trkpt>
      <trkpt lat="35.775478" lon="127.417541"><ele>325.8</ele></trkpt>
      <trkpt lat="35.775025" lon="127.417025"><ele>329.8</ele></trkpt>
      <trkpt lat="35.773420" lon="127.415582"><ele>329.3</ele></trkpt>
      <trkpt lat="35.772873" lon="127.414904"><ele>335.0</ele></trkpt>
      <trkpt lat="35.772477" lon="127.415419"><ele>329.0</ele></trkpt>
      <trkpt lat="35.772355" lon="127.415232"><ele>328.7</ele></trkpt>
      <trkpt lat="35.772270" lon="127.415292"><ele>330.5</ele></trkpt>
      <trkpt lat="35.772139" lon="127.415263"><ele>332.4</ele></trkpt>
      <trkpt lat="35.772072" lon="127.415166"><ele>332.7</ele></trkpt>
      <trkpt lat="35.772032" lon="127.414973"><ele>331.9</ele></trkpt>
      <trkpt lat="35.771797" lon="127.414670"><ele>333.7</ele></trkpt>
      <trkpt lat="35.771717" lon="127.414584"><ele>333.8</ele></trkpt>
      <trkpt lat="35.771544" lon="127.414540"><ele>333.2</ele></trkpt>
      <trkpt lat="35.771240" lon="127.414702"><ele>331.5</ele></trkpt>
      <trkpt lat="35.770955" lon="127.414745"><ele>333.5</ele></trkpt>
      <trkpt lat="35.770731" lon="127.414648"><ele>338.0</ele></trkpt>
      <trkpt lat="35.770682" lon="127.414820"><ele>341.3</ele></trkpt>
      <trkpt lat="35.770415" lon="127.414707"><ele>347.7</ele></trkpt>
      <trkpt lat="35.770361" lon="127.415560"><ele>353.2</ele></trkpt>
      <trkpt lat="35.770424" lon="127.415949"><ele>355.4</ele></trkpt>
      <trkpt lat="35.770585" lon="127.416384"><ele>355.5</ele></trkpt>
      <trkpt lat="35.770587" lon="127.416497"><ele>356.0</ele></trkpt>
      <trkpt lat="35.770524" lon="127.416542"><ele>357.1</ele></trkpt>
      <trkpt lat="35.770246" lon="127.416617"><ele>362.7</ele></trkpt>
      <trkpt lat="35.769963" lon="127.416456"><ele>370.1</ele></trkpt>
      <trkpt lat="35.769867" lon="127.416279"><ele>371.3</ele></trkpt>
      <trkpt lat="35.769863" lon="127.415719"><ele>369.0</ele></trkpt>
      <trkpt lat="35.769765" lon="127.415362"><ele>370.7</ele></trkpt>
      <trkpt lat="35.769682" lon="127.415188"><ele>371.7</ele></trkpt>
      <trkpt lat="35.769599" lon="127.415155"><ele>373.6</ele></trkpt>
      <trkpt lat="35.769525" lon="127.415212"><ele>376.3</ele></trkpt>
      <trkpt lat="35.769486" lon="127.415290"><ele>378.8</ele></trkpt>
      <trkpt lat="35.769562" lon="127.415735"><ele>381.8</ele></trkpt>
      <trkpt lat="35.769319" lon="127.416379"><ele>394.4</ele></trkpt>
      <trkpt lat="35.769528" lon="127.416692"><ele>385.6</ele></trkpt>
      <trkpt lat="35.769504" lon="127.416802"><ele>386.2</ele></trkpt>
      <trkpt lat="35.769445" lon="127.416886"><ele>388.0</ele></trkpt>
      <trkpt lat="35.768764" lon="127.417296"><ele>394.3</ele></trkpt>
      <trkpt lat="35.768561" lon="127.417372"><ele>398.0</ele></trkpt>
      <trkpt lat="35.768364" lon="127.417373"><ele>406.9</ele></trkpt>
      <trkpt lat="35.768470" lon="127.417575"><ele>398.9</ele></trkpt>
      <trkpt lat="35.768505" lon="127.417781"><ele>396.1</ele></trkpt>
      <trkpt lat="35.768463" lon="127.417950"><ele>396.9</ele></trkpt>
      <trkpt lat="35.768368" lon="127.418052"><ele>400.4</ele></trkpt>
      <trkpt lat="35.767924" lon="127.418229"><ele>405.6</ele></trkpt>
      <trkpt lat="35.767732" lon="127.418235"><ele>406.0</ele></trkpt>
      <trkpt lat="35.767414" lon="127.417899"><ele>417.9</ele></trkpt>
      <trkpt lat="35.767297" lon="127.417883"><ele>418.3</ele></trkpt>
      <trkpt lat="35.766827" lon="127.418160"><ele>414.5</ele></trkpt>
      <trkpt lat="35.766629" lon="127.418143"><ele>417.1</ele></trkpt>
      <trkpt lat="35.766281" lon="127.417760"><ele>425.2</ele></trkpt>
      <trkpt lat="35.766185" lon="127.417494"><ele>426.0</ele></trkpt>
      <trkpt lat="35.765684" lon="127.417344"><ele>421.9</ele></trkpt>
      <trkpt lat="35.765286" lon="127.417395"><ele>427.8</ele></trkpt>
      <trkpt lat="35.765055" lon="127.417202"><ele>430.6</ele></trkpt>
      <trkpt lat="35.764611" lon="127.417105"><ele>443.7</ele></trkpt>
      <trkpt lat="35.764561" lon="127.416700"><ele>437.1</ele></trkpt>
      <trkpt lat="35.764454" lon="127.416537"><ele>437.4</ele></trkpt>
      <trkpt lat="35.764172" lon="127.416424"><ele>440.2</ele></trkpt>
      <trkpt lat="35.763797" lon="127.416569"><ele>455.5</ele></trkpt>
      <trkpt lat="35.763564" lon="127.416486"><ele>460.6</ele></trkpt>
      <trkpt lat="35.763318" lon="127.415941"><ele>456.2</ele></trkpt>
      <trkpt lat="35.762929" lon="127.415751"><ele>465.7</ele></trkpt>
      <trkpt lat="35.762726" lon="127.415434"><ele>469.6</ele></trkpt>
      <trkpt lat="35.761967" lon="127.414586"><ele>492.7</ele></trkpt>
      <trkpt lat="35.761884" lon="127.414587"><ele>494.2</ele></trkpt>
      <trkpt lat="35.761770" lon="127.414681"><ele>494.5</ele></trkpt>
      <trkpt lat="35.761685" lon="127.414636"><ele>496.7</ele></trkpt>
      <trkpt lat="35.761664" lon="127.414356"><ele>498.6</ele></trkpt>
      <trkpt lat="35.761848" lon="127.414278"><ele>501.4</ele></trkpt>
      <trkpt lat="35.762104" lon="127.414027"><ele>512.4</ele></trkpt>
      <trkpt lat="35.762480" lon="127.413535"><ele>522.3</ele></trkpt>
      <trkpt lat="35.762535" lon="127.412814"><ele>493.3</ele></trkpt>
      <trkpt lat="35.762646" lon="127.412673"><ele>478.5</ele></trkpt>
      <trkpt lat="35.762898" lon="127.412752"><ele>477.4</ele></trkpt>
      <trkpt lat="35.762935" lon="127.412712"><ele>475.3</ele></trkpt>
      <trkpt lat="35.762861" lon="127.412540"><ele>465.3</ele></trkpt>
      <trkpt lat="35.762903" lon="127.412512"><ele>463.7</ele></trkpt>
      <trkpt lat="35.763138" lon="127.412610"><ele>469.0</ele></trkpt>
      <trkpt lat="35.763177" lon="127.412532"><ele>461.9</ele></trkpt>
      <trkpt lat="35.763327" lon="127.412577"><ele>463.3</ele></trkpt>
      <trkpt lat="35.763321" lon="127.412503"><ele>454.7</ele></trkpt>
      <trkpt lat="35.763224" lon="127.412346"><ele>447.0</ele></trkpt>
      <trkpt lat="35.762985" lon="127.412173"><ele>446.0</ele></trkpt>
      <trkpt lat="35.762832" lon="127.412097"><ele>445.2</ele></trkpt>
      <trkpt lat="35.762646" lon="127.412149"><ele>449.8</ele></trkpt>
      <trkpt lat="35.762476" lon="127.411953"><ele>449.5</ele></trkpt>
      <trkpt lat="35.762390" lon="127.411767"><ele>449.0</ele></trkpt>
      <trkpt lat="35.762298" lon="127.411730"><ele>452.4</ele></trkpt>
      <trkpt lat="35.762250" lon="127.411599"><ele>451.8</ele></trkpt>
      <trkpt lat="35.762059" lon="127.411475"><ele>459.6</ele></trkpt>
      <trkpt lat="35.761977" lon="127.411208"><ele>467.7</ele></trkpt>
      <trkpt lat="35.761665" lon="127.411024"><ele>483.5</ele></trkpt>
      <trkpt lat="35.761769" lon="127.410628"><ele>492.6</ele></trkpt>
      <trkpt lat="35.761677" lon="127.410454"><ele>492.2</ele></trkpt>
      <trkpt lat="35.761200" lon="127.410540"><ele>500.0</ele></trkpt>
      <trkpt lat="35.760925" lon="127.410515"><ele>514.8</ele></trkpt>
      <trkpt lat="35.760744" lon="127.410413"><ele>522.0</ele></trkpt>
      <trkpt lat="35.760664" lon="127.410164"><ele>510.1</ele></trkpt>
      <trkpt lat="35.760564" lon="127.410055"><ele>503.6</ele></trkpt>
      <trkpt lat="35.760524" lon="127.409525"><ele>479.1</ele></trkpt>
      <trkpt lat="35.760373" lon="127.409085"><ele>465.9</ele></trkpt>
      <trkpt lat="35.760192" lon="127.408651"><ele>464.3</ele></trkpt>
      <trkpt lat="35.760080" lon="127.408451"><ele>470.4</ele></trkpt>
      <trkpt lat="35.759994" lon="127.408388"><ele>473.7</ele></trkpt>
      <trkpt lat="35.760002" lon="127.408204"><ele>480.5</ele></trkpt>
      <trkpt lat="35.759763" lon="127.408026"><ele>492.8</ele></trkpt>
      <trkpt lat="35.759730" lon="127.407900"><ele>500.2</ele></trkpt>
      <trkpt lat="35.759909" lon="127.407731"><ele>503.1</ele></trkpt>
      <trkpt lat="35.759934" lon="127.407602"><ele>506.4</ele></trkpt>
      <trkpt lat="35.759900" lon="127.407360"><ele>513.7</ele></trkpt>
      <trkpt lat="35.760096" lon="127.406808"><ele>519.3</ele></trkpt>
      <trkpt lat="35.760066" lon="127.406566"><ele>523.4</ele></trkpt>
      <trkpt lat="35.760098" lon="127.406507"><ele>522.4</ele></trkpt>
      <trkpt lat="35.760141" lon="127.406463"><ele>521.0</ele></trkpt>
      <trkpt lat="35.760391" lon="127.406482"><ele>515.2</ele></trkpt>
      <trkpt lat="35.760797" lon="127.406638"><ele>511.5</ele></trkpt>
      <trkpt lat="35.760893" lon="127.406530"><ele>515.9</ele></trkpt>
      <trkpt lat="35.760859" lon="127.406373"><ele>520.3</ele></trkpt>
      <trkpt lat="35.760685" lon="127.406111"><ele>523.0</ele></trkpt>
      <trkpt lat="35.760661" lon="127.405930"><ele>518.9</ele></trkpt>
      <trkpt lat="35.760717" lon="127.405773"><ele>513.3</ele></trkpt>
      <trkpt lat="35.761026" lon="127.405799"><ele>518.5</ele></trkpt>
      <trkpt lat="35.761334" lon="127.405922"><ele>514.4</ele></trkpt>
    </trkseg>
  </trk>
</gpx>
