<?xml version="1.0" encoding="UTF-8"?>
<gpx version="1.1" creator="kr-100-mountains route-harvester"
     xmlns="http://www.topografix.com/GPX/1/1"
     xmlns:k100="https://github.com/jay-jang/kr-100-mountains/ns/1"
     xmlns:xsi="http://www.w3.org/2001/XMLSchema-instance"
     xsi:schemaLocation="http://www.topografix.com/GPX/1/1 http://www.topografix.com/GPX/1/1/gpx.xsd">
  <metadata>
    <name>마이산 · 남부주차장-탑사-암마이봉 코스 (OSM 계산 경로)</name>
    <desc>실제 GPS 기록이 아닙니다. OpenStreetMap에 등록된 등산로 선형 위에서 계산한 경로이며, 현장 통제·훼손·출입 제한·계절 통제를 반영하지 않을 수 있습니다. 산행 전 공식 안내를 확인하세요.</desc>
    <time>2026-08-04T05:37:27.168Z</time>
    <link href="https://www.openstreetmap.org/copyright"><text>© OpenStreetMap contributors (ODbL 1.0)</text></link>
    <link href="https://registry.opendata.aws/terrain-tiles/"><text>Elevation: SRTM 1 arc-second (NASA/USGS) via AWS Terrain Tiles</text></link>
    <extensions>
      <k100:provenance>osm-routed</k100:provenance>
      <k100:not_a_recorded_track>true</k100:not_a_recorded_track>
      <k100:mountain_id>maisan</k100:mountain_id>
      <k100:mountain_name>마이산</k100:mountain_name>
      <k100:route_id>maisan-25a42cd9</k100:route_id>
      <k100:route_index>1</k100:route_index>
      <k100:route_name>남부주차장-탑사-암마이봉 코스</k100:route_name>
      <k100:variant>0</k100:variant>
      <k100:source>OpenStreetMap via Overpass API</k100:source>
      <k100:license>ODbL-1.0</k100:license>
      <k100:attribution>© OpenStreetMap contributors</k100:attribution>
      <k100:elevation_source>SRTM 1 arc-second (NASA/USGS) — AWS Terrain Tiles 배포본. 지형 DEM 추정 고도이며 실측 아님</k100:elevation_source>
      <k100:algorithm>dijkstra-grid-v1</k100:algorithm>
      <k100:osm_snapshot>2026-08-04</k100:osm_snapshot>
      <k100:snap_trailhead_m>313</k100:snap_trailhead_m>
      <k100:snap_summit_m>127</k100:snap_summit_m>
      <k100:validation_score>83</k100:validation_score>
      <k100:validation_status>accepted</k100:validation_status>
    </extensions>
  </metadata>
  <trk>
    <name>마이산 · 남부주차장-탑사-암마이봉 코스 (OSM 계산 경로)</name>
    <desc>실제 GPS 기록이 아닙니다. OpenStreetMap에 등록된 등산로 선형 위에서 계산한 경로이며, 현장 통제·훼손·출입 제한·계절 통제를 반영하지 않을 수 있습니다. 산행 전 공식 안내를 확인하세요.</desc>
    <trkseg>
      <trkpt lat="35.753662" lon="127.404409"><ele>376.9</ele></trkpt>
      <trkpt lat="35.754452" lon="127.403479"><ele>379.6</ele></trkpt>
      <trkpt lat="35.755013" lon="127.402908"><ele>376.3</ele></trkpt>
      <trkpt lat="35.755568" lon="127.402514"><ele>369.1</ele></trkpt>
      <trkpt lat="35.756165" lon="127.402246"><ele>357.3</ele></trkpt>
      <trkpt lat="35.756587" lon="127.402647"><ele>358.8</ele></trkpt>
      <trkpt lat="35.756865" lon="127.403319"><ele>358.8</ele></trkpt>
      <trkpt lat="35.756881" lon="127.403645"><ele>357.3</ele></trkpt>
      <trkpt lat="35.756974" lon="127.403708"><ele>357.8</ele></trkpt>
      <trkpt lat="35.758032" lon="127.403700"><ele>367.6</ele></trkpt>
      <trkpt lat="35.758589" lon="127.403458"><ele>375.3</ele></trkpt>
      <trkpt lat="35.758685" lon="127.403474"><ele>376.5</ele></trkpt>
      <trkpt lat="35.758848" lon="127.403348"><ele>374.1</ele></trkpt>
      <trkpt lat="35.759588" lon="127.403161"><ele>381.7</ele></trkpt>
      <trkpt lat="35.759766" lon="127.403059"><ele>380.9</ele></trkpt>
      <trkpt lat="35.760456" lon="127.403096"><ele>391.0</ele></trkpt>
      <trkpt lat="35.761259" lon="127.402989"><ele>396.5</ele></trkpt>
      <trkpt lat="35.761364" lon="127.403019"><ele>395.0</ele></trkpt>
      <trkpt lat="35.761586" lon="127.402925"><ele>399.0</ele></trkpt>
      <trkpt lat="35.762036" lon="127.403107"><ele>402.7</ele></trkpt>
      <trkpt lat="35.762635" lon="127.403123"><ele>409.8</ele></trkpt>
      <trkpt lat="35.763347" lon="127.403351"><ele>424.2</ele></trkpt>
      <trkpt lat="35.763755" lon="127.403677"><ele>431.2</ele></trkpt>
      <trkpt lat="35.763771" lon="127.403952"><ele>434.7</ele></trkpt>
      <trkpt lat="35.763661" lon="127.404450"><ele>450.8</ele></trkpt>
      <trkpt lat="35.763463" lon="127.404860"><ele>467.2</ele></trkpt>
      <trkpt lat="35.763305" lon="127.404968"><ele>467.2</ele></trkpt>
      <trkpt lat="35.763264" lon="127.405153"><ele>472.0</ele></trkpt>
      <trkpt lat="35.763278" lon="127.405418"><ele>479.5</ele></trkpt>
      <trkpt lat="35.763140" lon="127.405545"><ele>478.9</ele></trkpt>
      <trkpt lat="35.763042" lon="127.405993"><ele>479.9</ele></trkpt>
      <trkpt lat="35.762867" lon="127.406190"><ele>482.1</ele></trkpt>
      <trkpt lat="35.762570" lon="127.406270"><ele>489.5</ele></trkpt>
      <trkpt lat="35.762107" lon="127.406117"><ele>498.8</ele></trkpt>
      <trkpt lat="35.761850" lon="127.406165"><ele>505.2</ele></trkpt>
      <trkpt lat="35.761409" lon="127.406010"><ele>514.1</ele></trkpt>
      <trkpt lat="35.761334" lon="127.405922"><ele>514.4</ele></trkpt>
    </trkseg>
  </trk>
</gpx>
