<?xml version="1.0" encoding="UTF-8"?>
<gpx version="1.1" creator="kr-100-mountains route-harvester"
     xmlns="http://www.topografix.com/GPX/1/1"
     xmlns:k100="https://github.com/jay-jang/kr-100-mountains/ns/1"
     xmlns:xsi="http://www.w3.org/2001/XMLSchema-instance"
     xsi:schemaLocation="http://www.topografix.com/GPX/1/1 http://www.topografix.com/GPX/1/1/gpx.xsd">
  <metadata>
    <name>바래봉 · 용산주차장-바래봉 코스 (OSM 계산 경로)</name>
    <desc>실제 GPS 기록이 아닙니다. OpenStreetMap에 등록된 등산로 선형 위에서 계산한 경로이며, 현장 통제·훼손·출입 제한·계절 통제를 반영하지 않을 수 있습니다. 산행 전 공식 안내를 확인하세요.</desc>
    <time>2026-08-04T05:30:51.492Z</time>
    <link href="https://www.openstreetmap.org/copyright"><text>© OpenStreetMap contributors (ODbL 1.0)</text></link>
    <link href="https://registry.opendata.aws/terrain-tiles/"><text>Elevation: SRTM 1 arc-second (NASA/USGS) via AWS Terrain Tiles</text></link>
    <extensions>
      <k100:provenance>osm-routed</k100:provenance>
      <k100:not_a_recorded_track>true</k100:not_a_recorded_track>
      <k100:mountain_id>baraebong-jirisan</k100:mountain_id>
      <k100:mountain_name>바래봉(지리산)</k100:mountain_name>
      <k100:route_id>baraebong-jirisan-01498ffa</k100:route_id>
      <k100:route_index>1</k100:route_index>
      <k100:route_name>용산주차장-바래봉 코스</k100:route_name>
      <k100:variant>0</k100:variant>
      <k100:source>OpenStreetMap via Overpass API</k100:source>
      <k100:license>ODbL-1.0</k100:license>
      <k100:attribution>© OpenStreetMap contributors</k100:attribution>
      <k100:elevation_source>SRTM 1 arc-second (NASA/USGS) — AWS Terrain Tiles 배포본. 지형 DEM 추정 고도이며 실측 아님</k100:elevation_source>
      <k100:algorithm>dijkstra-grid-v1</k100:algorithm>
      <k100:osm_snapshot>2026-08-04</k100:osm_snapshot>
      <k100:snap_trailhead_m>84</k100:snap_trailhead_m>
      <k100:snap_summit_m>61</k100:snap_summit_m>
      <k100:validation_score>100</k100:validation_score>
      <k100:validation_status>accepted</k100:validation_status>
    </extensions>
  </metadata>
  <trk>
    <name>바래봉 · 용산주차장-바래봉 코스 (OSM 계산 경로)</name>
    <desc>실제 GPS 기록이 아닙니다. OpenStreetMap에 등록된 등산로 선형 위에서 계산한 경로이며, 현장 통제·훼손·출입 제한·계절 통제를 반영하지 않을 수 있습니다. 산행 전 공식 안내를 확인하세요.</desc>
    <trkseg>
      <trkpt lat="35.425315" lon="127.539160"><ele>497.4</ele></trkpt>
      <trkpt lat="35.427352" lon="127.537256"><ele>487.3</ele></trkpt>
      <trkpt lat="35.424366" lon="127.532489"><ele>483.9</ele></trkpt>
      <trkpt lat="35.424363" lon="127.532335"><ele>483.0</ele></trkpt>
      <trkpt lat="35.425277" lon="127.530504"><ele>479.2</ele></trkpt>
      <trkpt lat="35.425427" lon="127.530344"><ele>479.8</ele></trkpt>
      <trkpt lat="35.425796" lon="127.530273"><ele>479.1</ele></trkpt>
      <trkpt lat="35.425934" lon="127.530197"><ele>479.0</ele></trkpt>
      <trkpt lat="35.426367" lon="127.529588"><ele>477.5</ele></trkpt>
      <trkpt lat="35.426774" lon="127.529483"><ele>476.5</ele></trkpt>
      <trkpt lat="35.427025" lon="127.529266"><ele>477.2</ele></trkpt>
      <trkpt lat="35.427193" lon="127.528874"><ele>476.9</ele></trkpt>
      <trkpt lat="35.427263" lon="127.528523"><ele>475.4</ele></trkpt>
      <trkpt lat="35.427530" lon="127.528290"><ele>474.6</ele></trkpt>
      <trkpt lat="35.427576" lon="127.528102"><ele>473.3</ele></trkpt>
      <trkpt lat="35.427441" lon="127.527717"><ele>472.7</ele></trkpt>
      <trkpt lat="35.427251" lon="127.527988"><ele>472.3</ele></trkpt>
      <trkpt lat="35.426340" lon="127.528903"><ele>477.0</ele></trkpt>
      <trkpt lat="35.417208" lon="127.527907"><ele>499.1</ele></trkpt>
      <trkpt lat="35.417337" lon="127.527471"><ele>496.4</ele></trkpt>
      <trkpt lat="35.417032" lon="127.527466"><ele>497.6</ele></trkpt>
      <trkpt lat="35.416926" lon="127.527067"><ele>498.6</ele></trkpt>
      <trkpt lat="35.415812" lon="127.527390"><ele>499.5</ele></trkpt>
      <trkpt lat="35.414622" lon="127.528029"><ele>504.3</ele></trkpt>
      <trkpt lat="35.413239" lon="127.528084"><ele>510.2</ele></trkpt>
      <trkpt lat="35.412889" lon="127.528201"><ele>511.4</ele></trkpt>
      <trkpt lat="35.412476" lon="127.528648"><ele>512.1</ele></trkpt>
      <trkpt lat="35.411837" lon="127.529033"><ele>514.6</ele></trkpt>
      <trkpt lat="35.411103" lon="127.529875"><ele>517.1</ele></trkpt>
      <trkpt lat="35.409864" lon="127.531496"><ele>526.7</ele></trkpt>
      <trkpt lat="35.408884" lon="127.532517"><ele>528.0</ele></trkpt>
      <trkpt lat="35.408387" lon="127.532510"><ele>530.6</ele></trkpt>
      <trkpt lat="35.407720" lon="127.533063"><ele>533.6</ele></trkpt>
      <trkpt lat="35.407169" lon="127.533719"><ele>538.4</ele></trkpt>
      <trkpt lat="35.406477" lon="127.534124"><ele>542.4</ele></trkpt>
      <trkpt lat="35.406175" lon="127.534214"><ele>544.3</ele></trkpt>
      <trkpt lat="35.405622" lon="127.534718"><ele>546.3</ele></trkpt>
      <trkpt lat="35.404196" lon="127.535219"><ele>556.9</ele></trkpt>
      <trkpt lat="35.403751" lon="127.535198"><ele>557.1</ele></trkpt>
      <trkpt lat="35.403420" lon="127.534986"><ele>561.8</ele></trkpt>
      <trkpt lat="35.403140" lon="127.534909"><ele>563.3</ele></trkpt>
      <trkpt lat="35.402678" lon="127.535009"><ele>563.7</ele></trkpt>
      <trkpt lat="35.401623" lon="127.535010"><ele>572.3</ele></trkpt>
      <trkpt lat="35.401253" lon="127.535134"><ele>576.9</ele></trkpt>
      <trkpt lat="35.399880" lon="127.535903"><ele>592.5</ele></trkpt>
      <trkpt lat="35.398749" lon="127.536766"><ele>598.0</ele></trkpt>
      <trkpt lat="35.398391" lon="127.536886"><ele>603.9</ele></trkpt>
      <trkpt lat="35.398021" lon="127.537230"><ele>607.7</ele></trkpt>
      <trkpt lat="35.397674" lon="127.537676"><ele>611.9</ele></trkpt>
      <trkpt lat="35.398060" lon="127.537964"><ele>610.7</ele></trkpt>
      <trkpt lat="35.398066" lon="127.538432"><ele>614.5</ele></trkpt>
      <trkpt lat="35.397934" lon="127.538486"><ele>617.0</ele></trkpt>
      <trkpt lat="35.397414" lon="127.539307"><ele>630.4</ele></trkpt>
      <trkpt lat="35.397155" lon="127.539418"><ele>634.9</ele></trkpt>
      <trkpt lat="35.396931" lon="127.539650"><ele>642.8</ele></trkpt>
      <trkpt lat="35.396643" lon="127.539749"><ele>655.1</ele></trkpt>
      <trkpt lat="35.396499" lon="127.539937"><ele>656.3</ele></trkpt>
      <trkpt lat="35.395761" lon="127.540360"><ele>674.4</ele></trkpt>
      <trkpt lat="35.395437" lon="127.540471"><ele>681.9</ele></trkpt>
      <trkpt lat="35.395344" lon="127.540585"><ele>683.3</ele></trkpt>
      <trkpt lat="35.395094" lon="127.540720"><ele>690.8</ele></trkpt>
      <trkpt lat="35.395005" lon="127.540711"><ele>694.0</ele></trkpt>
      <trkpt lat="35.395007" lon="127.540574"><ele>696.4</ele></trkpt>
      <trkpt lat="35.394973" lon="127.540565"><ele>697.8</ele></trkpt>
      <trkpt lat="35.394745" lon="127.540624"><ele>704.5</ele></trkpt>
      <trkpt lat="35.394760" lon="127.540389"><ele>707.2</ele></trkpt>
      <trkpt lat="35.394716" lon="127.540352"><ele>708.5</ele></trkpt>
      <trkpt lat="35.394570" lon="127.540437"><ele>708.2</ele></trkpt>
      <trkpt lat="35.394322" lon="127.540452"><ele>708.5</ele></trkpt>
      <trkpt lat="35.393922" lon="127.540323"><ele>714.1</ele></trkpt>
      <trkpt lat="35.393331" lon="127.540405"><ele>734.3</ele></trkpt>
      <trkpt lat="35.392991" lon="127.540749"><ele>750.4</ele></trkpt>
      <trkpt lat="35.392916" lon="127.540904"><ele>755.4</ele></trkpt>
      <trkpt lat="35.392722" lon="127.540982"><ele>760.6</ele></trkpt>
      <trkpt lat="35.392723" lon="127.541224"><ele>767.2</ele></trkpt>
      <trkpt lat="35.392453" lon="127.541582"><ele>784.7</ele></trkpt>
      <trkpt lat="35.392235" lon="127.541710"><ele>787.6</ele></trkpt>
      <trkpt lat="35.392225" lon="127.541808"><ele>791.1</ele></trkpt>
      <trkpt lat="35.392285" lon="127.541887"><ele>792.7</ele></trkpt>
      <trkpt lat="35.392271" lon="127.542082"><ele>797.5</ele></trkpt>
      <trkpt lat="35.392085" lon="127.542619"><ele>811.9</ele></trkpt>
      <trkpt lat="35.391788" lon="127.543101"><ele>829.4</ele></trkpt>
      <trkpt lat="35.391537" lon="127.543273"><ele>838.4</ele></trkpt>
      <trkpt lat="35.391399" lon="127.543600"><ele>843.6</ele></trkpt>
      <trkpt lat="35.391224" lon="127.543751"><ele>848.3</ele></trkpt>
      <trkpt lat="35.391035" lon="127.544168"><ele>866.3</ele></trkpt>
      <trkpt lat="35.390670" lon="127.544549"><ele>885.0</ele></trkpt>
      <trkpt lat="35.390574" lon="127.544841"><ele>895.8</ele></trkpt>
      <trkpt lat="35.390418" lon="127.544895"><ele>902.4</ele></trkpt>
      <trkpt lat="35.390339" lon="127.545171"><ele>915.5</ele></trkpt>
      <trkpt lat="35.389698" lon="127.546091"><ele>932.7</ele></trkpt>
      <trkpt lat="35.389673" lon="127.546278"><ele>936.2</ele></trkpt>
      <trkpt lat="35.389784" lon="127.546768"><ele>950.0</ele></trkpt>
      <trkpt lat="35.389601" lon="127.547212"><ele>964.0</ele></trkpt>
      <trkpt lat="35.389526" lon="127.547297"><ele>965.0</ele></trkpt>
      <trkpt lat="35.389435" lon="127.547700"><ele>974.0</ele></trkpt>
      <trkpt lat="35.388779" lon="127.548646"><ele>987.5</ele></trkpt>
      <trkpt lat="35.388167" lon="127.549240"><ele>982.2</ele></trkpt>
      <trkpt lat="35.388137" lon="127.549365"><ele>984.9</ele></trkpt>
      <trkpt lat="35.388185" lon="127.549460"><ele>989.5</ele></trkpt>
      <trkpt lat="35.388169" lon="127.549611"><ele>992.8</ele></trkpt>
      <trkpt lat="35.387914" lon="127.549734"><ele>989.8</ele></trkpt>
      <trkpt lat="35.387683" lon="127.550058"><ele>992.0</ele></trkpt>
      <trkpt lat="35.387528" lon="127.550493"><ele>999.8</ele></trkpt>
      <trkpt lat="35.387323" lon="127.550801"><ele>1005.8</ele></trkpt>
      <trkpt lat="35.387219" lon="127.550882"><ele>1008.1</ele></trkpt>
      <trkpt lat="35.387064" lon="127.550898"><ele>1010.8</ele></trkpt>
      <trkpt lat="35.386982" lon="127.551016"><ele>1017.6</ele></trkpt>
      <trkpt lat="35.386828" lon="127.551369"><ele>1036.4</ele></trkpt>
      <trkpt lat="35.386791" lon="127.551747"><ele>1051.9</ele></trkpt>
      <trkpt lat="35.386828" lon="127.551998"><ele>1060.6</ele></trkpt>
      <trkpt lat="35.386649" lon="127.552110"><ele>1064.6</ele></trkpt>
      <trkpt lat="35.386350" lon="127.552496"><ele>1077.8</ele></trkpt>
      <trkpt lat="35.386158" lon="127.552662"><ele>1085.8</ele></trkpt>
      <trkpt lat="35.386022" lon="127.552671"><ele>1090.2</ele></trkpt>
      <trkpt lat="35.385901" lon="127.552751"><ele>1099.0</ele></trkpt>
      <trkpt lat="35.385791" lon="127.552674"><ele>1099.7</ele></trkpt>
      <trkpt lat="35.385653" lon="127.552670"><ele>1104.8</ele></trkpt>
      <trkpt lat="35.385637" lon="127.552744"><ele>1108.1</ele></trkpt>
      <trkpt lat="35.385698" lon="127.552880"><ele>1109.6</ele></trkpt>
      <trkpt lat="35.385408" lon="127.553106"><ele>1115.9</ele></trkpt>
      <trkpt lat="35.384896" lon="127.552520"><ele>1118.3</ele></trkpt>
      <trkpt lat="35.384495" lon="127.552311"><ele>1117.9</ele></trkpt>
      <trkpt lat="35.384398" lon="127.552605"><ele>1117.9</ele></trkpt>
      <trkpt lat="35.384394" lon="127.552848"><ele>1113.8</ele></trkpt>
      <trkpt lat="35.384341" lon="127.553020"><ele>1109.0</ele></trkpt>
      <trkpt lat="35.384231" lon="127.553154"><ele>1105.1</ele></trkpt>
      <trkpt lat="35.384169" lon="127.553161"><ele>1105.0</ele></trkpt>
      <trkpt lat="35.384140" lon="127.553506"><ele>1095.8</ele></trkpt>
      <trkpt lat="35.383899" lon="127.553810"><ele>1096.7</ele></trkpt>
      <trkpt lat="35.383846" lon="127.553968"><ele>1094.6</ele></trkpt>
      <trkpt lat="35.383694" lon="127.554067"><ele>1097.3</ele></trkpt>
      <trkpt lat="35.383528" lon="127.554496"><ele>1090.0</ele></trkpt>
      <trkpt lat="35.383380" lon="127.554655"><ele>1091.9</ele></trkpt>
      <trkpt lat="35.383338" lon="127.554781"><ele>1091.2</ele></trkpt>
      <trkpt lat="35.383142" lon="127.554966"><ele>1087.2</ele></trkpt>
      <trkpt lat="35.383035" lon="127.555017"><ele>1084.2</ele></trkpt>
      <trkpt lat="35.382904" lon="127.554882"><ele>1087.9</ele></trkpt>
      <trkpt lat="35.382671" lon="127.554801"><ele>1089.2</ele></trkpt>
      <trkpt lat="35.382469" lon="127.555023"><ele>1080.0</ele></trkpt>
      <trkpt lat="35.381938" lon="127.555229"><ele>1073.8</ele></trkpt>
      <trkpt lat="35.381469" lon="127.555130"><ele>1081.9</ele></trkpt>
      <trkpt lat="35.381221" lon="127.555168"><ele>1080.2</ele></trkpt>
      <trkpt lat="35.381031" lon="127.555351"><ele>1076.8</ele></trkpt>
      <trkpt lat="35.380920" lon="127.555618"><ele>1073.6</ele></trkpt>
      <trkpt lat="35.380691" lon="127.555679"><ele>1083.1</ele></trkpt>
      <trkpt lat="35.380619" lon="127.555969"><ele>1079.0</ele></trkpt>
      <trkpt lat="35.380390" lon="127.556053"><ele>1087.0</ele></trkpt>
      <trkpt lat="35.380199" lon="127.556419"><ele>1080.7</ele></trkpt>
      <trkpt lat="35.380001" lon="127.556587"><ele>1080.7</ele></trkpt>
      <trkpt lat="35.379871" lon="127.556991"><ele>1068.9</ele></trkpt>
      <trkpt lat="35.379459" lon="127.556922"><ele>1054.1</ele></trkpt>
      <trkpt lat="35.379238" lon="127.556999"><ele>1043.2</ele></trkpt>
      <trkpt lat="35.379089" lon="127.557182"><ele>1035.0</ele></trkpt>
      <trkpt lat="35.378898" lon="127.557296"><ele>1022.8</ele></trkpt>
      <trkpt lat="35.378471" lon="127.557708"><ele>1001.4</ele></trkpt>
      <trkpt lat="35.378261" lon="127.557876"><ele>994.2</ele></trkpt>
      <trkpt lat="35.377998" lon="127.557998"><ele>983.0</ele></trkpt>
      <trkpt lat="35.377811" lon="127.558230"><ele>969.2</ele></trkpt>
      <trkpt lat="35.377719" lon="127.558113"><ele>963.6</ele></trkpt>
      <trkpt lat="35.377498" lon="127.558006"><ele>950.6</ele></trkpt>
      <trkpt lat="35.377392" lon="127.558066"><ele>947.0</ele></trkpt>
      <trkpt lat="35.377220" lon="127.558456"><ele>936.5</ele></trkpt>
      <trkpt lat="35.376720" lon="127.558616"><ele>917.0</ele></trkpt>
      <trkpt lat="35.376468" lon="127.558517"><ele>902.6</ele></trkpt>
      <trkpt lat="35.376121" lon="127.558822"><ele>887.4</ele></trkpt>
      <trkpt lat="35.375881" lon="127.558868"><ele>877.6</ele></trkpt>
      <trkpt lat="35.375461" lon="127.558822"><ele>861.7</ele></trkpt>
      <trkpt lat="35.375240" lon="127.558692"><ele>850.1</ele></trkpt>
      <trkpt lat="35.374889" lon="127.558296"><ele>821.0</ele></trkpt>
      <trkpt lat="35.374721" lon="127.558201"><ele>813.4</ele></trkpt>
      <trkpt lat="35.374431" lon="127.558273"><ele>804.5</ele></trkpt>
      <trkpt lat="35.374141" lon="127.558227"><ele>795.3</ele></trkpt>
    </trkseg>
  </trk>
</gpx>
