<?xml version="1.0" encoding="UTF-8"?>
<gpx version="1.1" creator="kr-100-mountains route-harvester"
     xmlns="http://www.topografix.com/GPX/1/1"
     xmlns:k100="https://github.com/jay-jang/kr-100-mountains/ns/1"
     xmlns:xsi="http://www.w3.org/2001/XMLSchema-instance"
     xsi:schemaLocation="http://www.topografix.com/GPX/1/1 http://www.topografix.com/GPX/1/1/gpx.xsd">
  <metadata>
    <name>바래봉 · 용산주차장-바래봉 코스 (대안 1) (OSM 계산 경로)</name>
    <desc>실제 GPS 기록이 아닙니다. OpenStreetMap에 등록된 등산로 선형 위에서 계산한 경로이며, 현장 통제·훼손·출입 제한·계절 통제를 반영하지 않을 수 있습니다. 산행 전 공식 안내를 확인하세요.</desc>
    <time>2026-08-04T05:30:51.493Z</time>
    <link href="https://www.openstreetmap.org/copyright"><text>© OpenStreetMap contributors (ODbL 1.0)</text></link>
    <link href="https://registry.opendata.aws/terrain-tiles/"><text>Elevation: SRTM 1 arc-second (NASA/USGS) via AWS Terrain Tiles</text></link>
    <extensions>
      <k100:provenance>osm-routed</k100:provenance>
      <k100:not_a_recorded_track>true</k100:not_a_recorded_track>
      <k100:mountain_id>baraebong-jirisan</k100:mountain_id>
      <k100:mountain_name>바래봉(지리산)</k100:mountain_name>
      <k100:route_id>baraebong-jirisan-01498ffa</k100:route_id>
      <k100:route_index>1</k100:route_index>
      <k100:route_name>용산주차장-바래봉 코스</k100:route_name>
      <k100:variant>1</k100:variant>
      <k100:source>OpenStreetMap via Overpass API</k100:source>
      <k100:license>ODbL-1.0</k100:license>
      <k100:attribution>© OpenStreetMap contributors</k100:attribution>
      <k100:elevation_source>SRTM 1 arc-second (NASA/USGS) — AWS Terrain Tiles 배포본. 지형 DEM 추정 고도이며 실측 아님</k100:elevation_source>
      <k100:algorithm>dijkstra-grid-v1</k100:algorithm>
      <k100:osm_snapshot>2026-08-04</k100:osm_snapshot>
      <k100:snap_trailhead_m>84</k100:snap_trailhead_m>
      <k100:snap_summit_m>61</k100:snap_summit_m>
      <k100:validation_score>93</k100:validation_score>
      <k100:validation_status>accepted</k100:validation_status>
    </extensions>
  </metadata>
  <trk>
    <name>바래봉 · 용산주차장-바래봉 코스 (대안 1) (OSM 계산 경로)</name>
    <desc>실제 GPS 기록이 아닙니다. OpenStreetMap에 등록된 등산로 선형 위에서 계산한 경로이며, 현장 통제·훼손·출입 제한·계절 통제를 반영하지 않을 수 있습니다. 산행 전 공식 안내를 확인하세요.</desc>
    <trkseg>
      <trkpt lat="35.425315" lon="127.539160"><ele>497.4</ele></trkpt>
      <trkpt lat="35.425553" lon="127.539284"><ele>494.5</ele></trkpt>
      <trkpt lat="35.426719" lon="127.539592"><ele>498.6</ele></trkpt>
      <trkpt lat="35.427331" lon="127.539436"><ele>496.0</ele></trkpt>
      <trkpt lat="35.427646" lon="127.539181"><ele>494.7</ele></trkpt>
      <trkpt lat="35.428009" lon="127.538784"><ele>492.2</ele></trkpt>
      <trkpt lat="35.428071" lon="127.538540"><ele>489.4</ele></trkpt>
      <trkpt lat="35.428188" lon="127.538374"><ele>489.3</ele></trkpt>
      <trkpt lat="35.428720" lon="127.537855"><ele>486.5</ele></trkpt>
      <trkpt lat="35.428737" lon="127.537627"><ele>485.0</ele></trkpt>
      <trkpt lat="35.428790" lon="127.537531"><ele>484.5</ele></trkpt>
      <trkpt lat="35.431467" lon="127.535015"><ele>474.0</ele></trkpt>
      <trkpt lat="35.432155" lon="127.536108"><ele>477.5</ele></trkpt>
      <trkpt lat="35.432177" lon="127.536291"><ele>477.5</ele></trkpt>
      <trkpt lat="35.432322" lon="127.536218"><ele>477.1</ele></trkpt>
      <trkpt lat="35.432281" lon="127.536362"><ele>476.8</ele></trkpt>
      <trkpt lat="35.432085" lon="127.536595"><ele>480.5</ele></trkpt>
      <trkpt lat="35.431667" lon="127.536802"><ele>483.0</ele></trkpt>
      <trkpt lat="35.431168" lon="127.537282"><ele>485.9</ele></trkpt>
      <trkpt lat="35.430691" lon="127.537927"><ele>485.5</ele></trkpt>
      <trkpt lat="35.430438" lon="127.538665"><ele>490.7</ele></trkpt>
      <trkpt lat="35.430218" lon="127.538884"><ele>492.4</ele></trkpt>
      <trkpt lat="35.429877" lon="127.539660"><ele>490.4</ele></trkpt>
      <trkpt lat="35.428906" lon="127.540762"><ele>497.0</ele></trkpt>
      <trkpt lat="35.428772" lon="127.541063"><ele>498.1</ele></trkpt>
      <trkpt lat="35.427648" lon="127.542292"><ele>506.2</ele></trkpt>
      <trkpt lat="35.427146" lon="127.542580"><ele>509.0</ele></trkpt>
      <trkpt lat="35.424270" lon="127.544823"><ele>537.4</ele></trkpt>
      <trkpt lat="35.423633" lon="127.545194"><ele>545.0</ele></trkpt>
      <trkpt lat="35.423363" lon="127.545687"><ele>542.8</ele></trkpt>
      <trkpt lat="35.423066" lon="127.546014"><ele>546.5</ele></trkpt>
      <trkpt lat="35.422846" lon="127.546591"><ele>556.7</ele></trkpt>
      <trkpt lat="35.421809" lon="127.547507"><ele>571.5</ele></trkpt>
      <trkpt lat="35.421431" lon="127.547734"><ele>572.4</ele></trkpt>
      <trkpt lat="35.420803" lon="127.548400"><ele>578.6</ele></trkpt>
      <trkpt lat="35.420270" lon="127.548776"><ele>583.7</ele></trkpt>
      <trkpt lat="35.419888" lon="127.548967"><ele>586.0</ele></trkpt>
      <trkpt lat="35.419467" lon="127.549399"><ele>594.2</ele></trkpt>
      <trkpt lat="35.419088" lon="127.549929"><ele>607.1</ele></trkpt>
      <trkpt lat="35.418725" lon="127.550050"><ele>610.0</ele></trkpt>
      <trkpt lat="35.418319" lon="127.550815"><ele>617.9</ele></trkpt>
      <trkpt lat="35.418380" lon="127.551096"><ele>621.7</ele></trkpt>
      <trkpt lat="35.418164" lon="127.551965"><ele>629.6</ele></trkpt>
      <trkpt lat="35.418520" lon="127.552616"><ele>639.3</ele></trkpt>
      <trkpt lat="35.418259" lon="127.552974"><ele>639.3</ele></trkpt>
      <trkpt lat="35.418122" lon="127.553574"><ele>649.9</ele></trkpt>
      <trkpt lat="35.418156" lon="127.554918"><ele>675.5</ele></trkpt>
      <trkpt lat="35.417993" lon="127.555066"><ele>677.5</ele></trkpt>
      <trkpt lat="35.417743" lon="127.555569"><ele>686.5</ele></trkpt>
      <trkpt lat="35.417326" lon="127.556587"><ele>706.9</ele></trkpt>
      <trkpt lat="35.417190" lon="127.556991"><ele>714.4</ele></trkpt>
      <trkpt lat="35.417357" lon="127.557345"><ele>729.4</ele></trkpt>
      <trkpt lat="35.417338" lon="127.557461"><ele>733.7</ele></trkpt>
      <trkpt lat="35.416913" lon="127.558684"><ele>767.3</ele></trkpt>
      <trkpt lat="35.416572" lon="127.559176"><ele>777.0</ele></trkpt>
      <trkpt lat="35.416580" lon="127.559544"><ele>788.4</ele></trkpt>
      <trkpt lat="35.416451" lon="127.559823"><ele>794.0</ele></trkpt>
      <trkpt lat="35.416197" lon="127.560167"><ele>796.0</ele></trkpt>
      <trkpt lat="35.415993" lon="127.560599"><ele>810.3</ele></trkpt>
      <trkpt lat="35.415477" lon="127.562208"><ele>860.4</ele></trkpt>
      <trkpt lat="35.415281" lon="127.562636"><ele>865.0</ele></trkpt>
      <trkpt lat="35.415102" lon="127.563322"><ele>892.8</ele></trkpt>
      <trkpt lat="35.414966" lon="127.563455"><ele>896.7</ele></trkpt>
      <trkpt lat="35.414947" lon="127.563719"><ele>902.6</ele></trkpt>
      <trkpt lat="35.414992" lon="127.563893"><ele>904.1</ele></trkpt>
      <trkpt lat="35.414875" lon="127.564033"><ele>907.9</ele></trkpt>
      <trkpt lat="35.414821" lon="127.564271"><ele>914.0</ele></trkpt>
      <trkpt lat="35.414584" lon="127.564593"><ele>926.5</ele></trkpt>
      <trkpt lat="35.414369" lon="127.564505"><ele>925.6</ele></trkpt>
      <trkpt lat="35.414132" lon="127.564566"><ele>928.7</ele></trkpt>
      <trkpt lat="35.414109" lon="127.564659"><ele>933.8</ele></trkpt>
      <trkpt lat="35.413884" lon="127.564812"><ele>948.3</ele></trkpt>
      <trkpt lat="35.413843" lon="127.564926"><ele>954.5</ele></trkpt>
      <trkpt lat="35.413746" lon="127.564995"><ele>959.4</ele></trkpt>
      <trkpt lat="35.413564" lon="127.565407"><ele>977.0</ele></trkpt>
      <trkpt lat="35.413395" lon="127.565409"><ele>982.0</ele></trkpt>
      <trkpt lat="35.413284" lon="127.565512"><ele>987.1</ele></trkpt>
      <trkpt lat="35.412974" lon="127.565564"><ele>994.1</ele></trkpt>
      <trkpt lat="35.412716" lon="127.565778"><ele>1003.0</ele></trkpt>
      <trkpt lat="35.412542" lon="127.565715"><ele>1003.7</ele></trkpt>
      <trkpt lat="35.412317" lon="127.565719"><ele>1009.2</ele></trkpt>
      <trkpt lat="35.412004" lon="127.565953"><ele>1014.9</ele></trkpt>
      <trkpt lat="35.411960" lon="127.565882"><ele>1016.1</ele></trkpt>
      <trkpt lat="35.412130" lon="127.565690"><ele>1013.6</ele></trkpt>
      <trkpt lat="35.412155" lon="127.565247"><ele>1011.3</ele></trkpt>
      <trkpt lat="35.412052" lon="127.564966"><ele>1011.3</ele></trkpt>
      <trkpt lat="35.411947" lon="127.564994"><ele>1012.9</ele></trkpt>
      <trkpt lat="35.411467" lon="127.564877"><ele>1022.3</ele></trkpt>
      <trkpt lat="35.411420" lon="127.564404"><ele>1025.2</ele></trkpt>
      <trkpt lat="35.410897" lon="127.564273"><ele>1016.7</ele></trkpt>
      <trkpt lat="35.410668" lon="127.564337"><ele>1016.3</ele></trkpt>
      <trkpt lat="35.410482" lon="127.564251"><ele>1016.0</ele></trkpt>
      <trkpt lat="35.410127" lon="127.564346"><ele>1011.7</ele></trkpt>
      <trkpt lat="35.410050" lon="127.564456"><ele>1008.0</ele></trkpt>
      <trkpt lat="35.409613" lon="127.564578"><ele>998.3</ele></trkpt>
      <trkpt lat="35.409484" lon="127.564498"><ele>996.1</ele></trkpt>
      <trkpt lat="35.409081" lon="127.564411"><ele>995.7</ele></trkpt>
      <trkpt lat="35.408961" lon="127.564327"><ele>996.9</ele></trkpt>
      <trkpt lat="35.408599" lon="127.564254"><ele>1001.7</ele></trkpt>
      <trkpt lat="35.408463" lon="127.564286"><ele>1001.6</ele></trkpt>
      <trkpt lat="35.407966" lon="127.564163"><ele>1006.3</ele></trkpt>
      <trkpt lat="35.407666" lon="127.564005"><ele>1008.7</ele></trkpt>
      <trkpt lat="35.407203" lon="127.563955"><ele>1007.1</ele></trkpt>
      <trkpt lat="35.407062" lon="127.564030"><ele>1007.9</ele></trkpt>
      <trkpt lat="35.406784" lon="127.564064"><ele>1009.1</ele></trkpt>
      <trkpt lat="35.406362" lon="127.564016"><ele>1008.5</ele></trkpt>
      <trkpt lat="35.405977" lon="127.564214"><ele>1012.5</ele></trkpt>
      <trkpt lat="35.405667" lon="127.564278"><ele>1018.7</ele></trkpt>
      <trkpt lat="35.405330" lon="127.564284"><ele>1026.0</ele></trkpt>
      <trkpt lat="35.405107" lon="127.564197"><ele>1029.1</ele></trkpt>
      <trkpt lat="35.403783" lon="127.564753"><ele>1056.5</ele></trkpt>
      <trkpt lat="35.403499" lon="127.564735"><ele>1062.3</ele></trkpt>
      <trkpt lat="35.403335" lon="127.564611"><ele>1064.4</ele></trkpt>
      <trkpt lat="35.403043" lon="127.564744"><ele>1063.7</ele></trkpt>
      <trkpt lat="35.402805" lon="127.564643"><ele>1063.1</ele></trkpt>
      <trkpt lat="35.402671" lon="127.564679"><ele>1067.7</ele></trkpt>
      <trkpt lat="35.402576" lon="127.564624"><ele>1071.4</ele></trkpt>
      <trkpt lat="35.402465" lon="127.564682"><ele>1077.0</ele></trkpt>
      <trkpt lat="35.402225" lon="127.564618"><ele>1086.8</ele></trkpt>
      <trkpt lat="35.401722" lon="127.564683"><ele>1103.1</ele></trkpt>
      <trkpt lat="35.401515" lon="127.564375"><ele>1096.4</ele></trkpt>
      <trkpt lat="35.401165" lon="127.564005"><ele>1086.3</ele></trkpt>
      <trkpt lat="35.400989" lon="127.563882"><ele>1080.0</ele></trkpt>
      <trkpt lat="35.400778" lon="127.563624"><ele>1070.7</ele></trkpt>
      <trkpt lat="35.400485" lon="127.563389"><ele>1065.9</ele></trkpt>
      <trkpt lat="35.400178" lon="127.563345"><ele>1067.1</ele></trkpt>
      <trkpt lat="35.399964" lon="127.563180"><ele>1070.2</ele></trkpt>
      <trkpt lat="35.399657" lon="127.562833"><ele>1083.0</ele></trkpt>
      <trkpt lat="35.399600" lon="127.562684"><ele>1084.2</ele></trkpt>
      <trkpt lat="35.398907" lon="127.562475"><ele>1081.9</ele></trkpt>
      <trkpt lat="35.398722" lon="127.562499"><ele>1080.2</ele></trkpt>
      <trkpt lat="35.398498" lon="127.562446"><ele>1079.7</ele></trkpt>
      <trkpt lat="35.398007" lon="127.562486"><ele>1089.8</ele></trkpt>
      <trkpt lat="35.397753" lon="127.562300"><ele>1094.0</ele></trkpt>
      <trkpt lat="35.397661" lon="127.561968"><ele>1092.9</ele></trkpt>
      <trkpt lat="35.397417" lon="127.561585"><ele>1092.3</ele></trkpt>
      <trkpt lat="35.396853" lon="127.561134"><ele>1096.3</ele></trkpt>
      <trkpt lat="35.396648" lon="127.560730"><ele>1099.1</ele></trkpt>
      <trkpt lat="35.396298" lon="127.560418"><ele>1098.2</ele></trkpt>
      <trkpt lat="35.396183" lon="127.560386"><ele>1096.9</ele></trkpt>
      <trkpt lat="35.395980" lon="127.560104"><ele>1095.4</ele></trkpt>
      <trkpt lat="35.395515" lon="127.559913"><ele>1100.8</ele></trkpt>
      <trkpt lat="35.395296" lon="127.559901"><ele>1107.2</ele></trkpt>
      <trkpt lat="35.395034" lon="127.559768"><ele>1108.4</ele></trkpt>
      <trkpt lat="35.394883" lon="127.559748"><ele>1106.9</ele></trkpt>
      <trkpt lat="35.394584" lon="127.559570"><ele>1105.0</ele></trkpt>
      <trkpt lat="35.394203" lon="127.559551"><ele>1104.7</ele></trkpt>
      <trkpt lat="35.394011" lon="127.559629"><ele>1104.0</ele></trkpt>
      <trkpt lat="35.393755" lon="127.559482"><ele>1108.8</ele></trkpt>
      <trkpt lat="35.393417" lon="127.559379"><ele>1117.5</ele></trkpt>
      <trkpt lat="35.393186" lon="127.559205"><ele>1123.6</ele></trkpt>
      <trkpt lat="35.393114" lon="127.559239"><ele>1124.2</ele></trkpt>
      <trkpt lat="35.392864" lon="127.558991"><ele>1120.5</ele></trkpt>
      <trkpt lat="35.392532" lon="127.558878"><ele>1115.2</ele></trkpt>
      <trkpt lat="35.392142" lon="127.558870"><ele>1111.8</ele></trkpt>
      <trkpt lat="35.391595" lon="127.558332"><ele>1106.7</ele></trkpt>
      <trkpt lat="35.391408" lon="127.557992"><ele>1107.1</ele></trkpt>
      <trkpt lat="35.391034" lon="127.557693"><ele>1102.7</ele></trkpt>
      <trkpt lat="35.390887" lon="127.557702"><ele>1104.4</ele></trkpt>
      <trkpt lat="35.390631" lon="127.557497"><ele>1110.1</ele></trkpt>
      <trkpt lat="35.390467" lon="127.557501"><ele>1112.9</ele></trkpt>
      <trkpt lat="35.390219" lon="127.557191"><ele>1123.1</ele></trkpt>
      <trkpt lat="35.390021" lon="127.557067"><ele>1128.8</ele></trkpt>
      <trkpt lat="35.389579" lon="127.556605"><ele>1140.7</ele></trkpt>
      <trkpt lat="35.389414" lon="127.556306"><ele>1143.1</ele></trkpt>
      <trkpt lat="35.389068" lon="127.555850"><ele>1137.0</ele></trkpt>
      <trkpt lat="35.388815" lon="127.555690"><ele>1132.8</ele></trkpt>
      <trkpt lat="35.388766" lon="127.555607"><ele>1132.1</ele></trkpt>
      <trkpt lat="35.388450" lon="127.555480"><ele>1128.7</ele></trkpt>
      <trkpt lat="35.388317" lon="127.555350"><ele>1128.6</ele></trkpt>
      <trkpt lat="35.388080" lon="127.554986"><ele>1129.8</ele></trkpt>
      <trkpt lat="35.387931" lon="127.554649"><ele>1130.5</ele></trkpt>
      <trkpt lat="35.387782" lon="127.554466"><ele>1133.7</ele></trkpt>
      <trkpt lat="35.387570" lon="127.554345"><ele>1133.7</ele></trkpt>
      <trkpt lat="35.387287" lon="127.553905"><ele>1127.8</ele></trkpt>
      <trkpt lat="35.386274" lon="127.553393"><ele>1106.7</ele></trkpt>
      <trkpt lat="35.385658" lon="127.553328"><ele>1116.2</ele></trkpt>
      <trkpt lat="35.385359" lon="127.553080"><ele>1115.9</ele></trkpt>
      <trkpt lat="35.384896" lon="127.552520"><ele>1118.3</ele></trkpt>
      <trkpt lat="35.384495" lon="127.552311"><ele>1117.9</ele></trkpt>
      <trkpt lat="35.384398" lon="127.552605"><ele>1117.9</ele></trkpt>
      <trkpt lat="35.384394" lon="127.552848"><ele>1113.8</ele></trkpt>
      <trkpt lat="35.384341" lon="127.553020"><ele>1109.0</ele></trkpt>
      <trkpt lat="35.384231" lon="127.553154"><ele>1105.1</ele></trkpt>
      <trkpt lat="35.384169" lon="127.553161"><ele>1105.0</ele></trkpt>
      <trkpt lat="35.384140" lon="127.553506"><ele>1095.8</ele></trkpt>
      <trkpt lat="35.383899" lon="127.553810"><ele>1096.7</ele></trkpt>
      <trkpt lat="35.383846" lon="127.553968"><ele>1094.6</ele></trkpt>
      <trkpt lat="35.383694" lon="127.554067"><ele>1097.3</ele></trkpt>
      <trkpt lat="35.383528" lon="127.554496"><ele>1090.0</ele></trkpt>
      <trkpt lat="35.383380" lon="127.554655"><ele>1091.9</ele></trkpt>
      <trkpt lat="35.383338" lon="127.554781"><ele>1091.2</ele></trkpt>
      <trkpt lat="35.383142" lon="127.554966"><ele>1087.2</ele></trkpt>
      <trkpt lat="35.383035" lon="127.555017"><ele>1084.2</ele></trkpt>
      <trkpt lat="35.382904" lon="127.554882"><ele>1087.9</ele></trkpt>
      <trkpt lat="35.382671" lon="127.554801"><ele>1089.2</ele></trkpt>
      <trkpt lat="35.382469" lon="127.555023"><ele>1080.0</ele></trkpt>
      <trkpt lat="35.381938" lon="127.555229"><ele>1073.8</ele></trkpt>
      <trkpt lat="35.381469" lon="127.555130"><ele>1081.9</ele></trkpt>
      <trkpt lat="35.381221" lon="127.555168"><ele>1080.2</ele></trkpt>
      <trkpt lat="35.381031" lon="127.555351"><ele>1076.8</ele></trkpt>
      <trkpt lat="35.380920" lon="127.555618"><ele>1073.6</ele></trkpt>
      <trkpt lat="35.380691" lon="127.555679"><ele>1083.1</ele></trkpt>
      <trkpt lat="35.380619" lon="127.555969"><ele>1079.0</ele></trkpt>
      <trkpt lat="35.380390" lon="127.556053"><ele>1087.0</ele></trkpt>
      <trkpt lat="35.380199" lon="127.556419"><ele>1080.7</ele></trkpt>
      <trkpt lat="35.380001" lon="127.556587"><ele>1080.7</ele></trkpt>
      <trkpt lat="35.379871" lon="127.556991"><ele>1068.9</ele></trkpt>
      <trkpt lat="35.379459" lon="127.556922"><ele>1054.1</ele></trkpt>
      <trkpt lat="35.379238" lon="127.556999"><ele>1043.2</ele></trkpt>
      <trkpt lat="35.379089" lon="127.557182"><ele>1035.0</ele></trkpt>
      <trkpt lat="35.378898" lon="127.557296"><ele>1022.8</ele></trkpt>
      <trkpt lat="35.378471" lon="127.557708"><ele>1001.4</ele></trkpt>
      <trkpt lat="35.378261" lon="127.557876"><ele>994.2</ele></trkpt>
      <trkpt lat="35.377998" lon="127.557998"><ele>983.0</ele></trkpt>
      <trkpt lat="35.377811" lon="127.558230"><ele>969.2</ele></trkpt>
      <trkpt lat="35.377719" lon="127.558113"><ele>963.6</ele></trkpt>
      <trkpt lat="35.377498" lon="127.558006"><ele>950.6</ele></trkpt>
      <trkpt lat="35.377392" lon="127.558066"><ele>947.0</ele></trkpt>
      <trkpt lat="35.377220" lon="127.558456"><ele>936.5</ele></trkpt>
      <trkpt lat="35.376720" lon="127.558616"><ele>917.0</ele></trkpt>
      <trkpt lat="35.376468" lon="127.558517"><ele>902.6</ele></trkpt>
      <trkpt lat="35.376121" lon="127.558822"><ele>887.4</ele></trkpt>
      <trkpt lat="35.375881" lon="127.558868"><ele>877.6</ele></trkpt>
      <trkpt lat="35.375461" lon="127.558822"><ele>861.7</ele></trkpt>
      <trkpt lat="35.375240" lon="127.558692"><ele>850.1</ele></trkpt>
      <trkpt lat="35.374889" lon="127.558296"><ele>821.0</ele></trkpt>
      <trkpt lat="35.374721" lon="127.558201"><ele>813.4</ele></trkpt>
      <trkpt lat="35.374431" lon="127.558273"><ele>804.5</ele></trkpt>
      <trkpt lat="35.374141" lon="127.558227"><ele>795.3</ele></trkpt>
    </trkseg>
  </trk>
</gpx>
