<?xml version="1.0" encoding="UTF-8"?>
<gpx version="1.1" creator="kr-100-mountains route-harvester"
     xmlns="http://www.topografix.com/GPX/1/1"
     xmlns:k100="https://github.com/jay-jang/kr-100-mountains/ns/1"
     xmlns:xsi="http://www.w3.org/2001/XMLSchema-instance"
     xsi:schemaLocation="http://www.topografix.com/GPX/1/1 http://www.topografix.com/GPX/1/1/gpx.xsd">
  <metadata>
    <name>대암산 · 인제 서흥리 용늪 탐방코스 (OSM 계산 경로)</name>
    <desc>실제 GPS 기록이 아닙니다. OpenStreetMap에 등록된 등산로 선형 위에서 계산한 경로이며, 현장 통제·훼손·출입 제한·계절 통제를 반영하지 않을 수 있습니다. 산행 전 공식 안내를 확인하세요.</desc>
    <time>2026-08-04T05:22:33.233Z</time>
    <link href="https://www.openstreetmap.org/copyright"><text>© OpenStreetMap contributors (ODbL 1.0)</text></link>
    <link href="https://registry.opendata.aws/terrain-tiles/"><text>Elevation: SRTM 1 arc-second (NASA/USGS) via AWS Terrain Tiles</text></link>
    <extensions>
      <k100:provenance>osm-routed</k100:provenance>
      <k100:not_a_recorded_track>true</k100:not_a_recorded_track>
      <k100:mountain_id>daeamsan</k100:mountain_id>
      <k100:mountain_name>대암산</k100:mountain_name>
      <k100:route_id>daeamsan-d39a29e6</k100:route_id>
      <k100:route_index>1</k100:route_index>
      <k100:route_name>인제 서흥리 용늪 탐방코스</k100:route_name>
      <k100:variant>0</k100:variant>
      <k100:source>OpenStreetMap via Overpass API</k100:source>
      <k100:license>ODbL-1.0</k100:license>
      <k100:attribution>© OpenStreetMap contributors</k100:attribution>
      <k100:elevation_source>SRTM 1 arc-second (NASA/USGS) — AWS Terrain Tiles 배포본. 지형 DEM 추정 고도이며 실측 아님</k100:elevation_source>
      <k100:algorithm>dijkstra-grid-v1</k100:algorithm>
      <k100:osm_snapshot>2026-08-04</k100:osm_snapshot>
      <k100:snap_trailhead_m>36</k100:snap_trailhead_m>
      <k100:snap_summit_m>408</k100:snap_summit_m>
      <k100:validation_score>72</k100:validation_score>
      <k100:validation_status>review</k100:validation_status>
    </extensions>
  </metadata>
  <trk>
    <name>대암산 · 인제 서흥리 용늪 탐방코스 (OSM 계산 경로)</name>
    <desc>실제 GPS 기록이 아닙니다. OpenStreetMap에 등록된 등산로 선형 위에서 계산한 경로이며, 현장 통제·훼손·출입 제한·계절 통제를 반영하지 않을 수 있습니다. 산행 전 공식 안내를 확인하세요.</desc>
    <trkseg>
      <trkpt lat="38.197488" lon="128.210192"><ele>271.8</ele></trkpt>
      <trkpt lat="38.198278" lon="128.207916"><ele>273.2</ele></trkpt>
      <trkpt lat="38.198281" lon="128.207064"><ele>276.8</ele></trkpt>
      <trkpt lat="38.197775" lon="128.206999"><ele>279.6</ele></trkpt>
      <trkpt lat="38.197822" lon="128.206763"><ele>280.3</ele></trkpt>
      <trkpt lat="38.198265" lon="128.205485"><ele>279.4</ele></trkpt>
      <trkpt lat="38.198254" lon="128.204972"><ele>280.5</ele></trkpt>
      <trkpt lat="38.198187" lon="128.204642"><ele>279.6</ele></trkpt>
      <trkpt lat="38.198090" lon="128.204413"><ele>279.4</ele></trkpt>
      <trkpt lat="38.197586" lon="128.203396"><ele>282.1</ele></trkpt>
      <trkpt lat="38.197499" lon="128.203147"><ele>284.7</ele></trkpt>
      <trkpt lat="38.197438" lon="128.202715"><ele>288.2</ele></trkpt>
      <trkpt lat="38.197510" lon="128.202133"><ele>287.7</ele></trkpt>
      <trkpt lat="38.198138" lon="128.200055"><ele>298.3</ele></trkpt>
      <trkpt lat="38.198260" lon="128.199274"><ele>299.4</ele></trkpt>
      <trkpt lat="38.198243" lon="128.198431"><ele>295.7</ele></trkpt>
      <trkpt lat="38.198146" lon="128.197760"><ele>305.6</ele></trkpt>
      <trkpt lat="38.198186" lon="128.197294"><ele>306.7</ele></trkpt>
      <trkpt lat="38.198246" lon="128.197003"><ele>306.4</ele></trkpt>
      <trkpt lat="38.198706" lon="128.195924"><ele>302.2</ele></trkpt>
      <trkpt lat="38.198877" lon="128.195234"><ele>301.1</ele></trkpt>
      <trkpt lat="38.199141" lon="128.194452"><ele>313.0</ele></trkpt>
      <trkpt lat="38.199324" lon="128.194049"><ele>310.2</ele></trkpt>
      <trkpt lat="38.199905" lon="128.193316"><ele>317.4</ele></trkpt>
      <trkpt lat="38.200249" lon="128.192606"><ele>316.5</ele></trkpt>
      <trkpt lat="38.200373" lon="128.192066"><ele>317.3</ele></trkpt>
      <trkpt lat="38.200639" lon="128.191528"><ele>315.6</ele></trkpt>
      <trkpt lat="38.200919" lon="128.191081"><ele>315.4</ele></trkpt>
      <trkpt lat="38.201207" lon="128.190781"><ele>315.4</ele></trkpt>
      <trkpt lat="38.201713" lon="128.190594"><ele>319.9</ele></trkpt>
      <trkpt lat="38.202080" lon="128.190388"><ele>318.2</ele></trkpt>
      <trkpt lat="38.202608" lon="128.189722"><ele>321.0</ele></trkpt>
      <trkpt lat="38.203021" lon="128.189355"><ele>332.2</ele></trkpt>
      <trkpt lat="38.203606" lon="128.188984"><ele>332.0</ele></trkpt>
      <trkpt lat="38.203983" lon="128.188822"><ele>330.3</ele></trkpt>
      <trkpt lat="38.204307" lon="128.188589"><ele>335.2</ele></trkpt>
      <trkpt lat="38.205223" lon="128.187601"><ele>342.5</ele></trkpt>
      <trkpt lat="38.205715" lon="128.186914"><ele>340.3</ele></trkpt>
      <trkpt lat="38.206825" lon="128.186079"><ele>351.7</ele></trkpt>
      <trkpt lat="38.207169" lon="128.185939"><ele>352.5</ele></trkpt>
      <trkpt lat="38.207670" lon="128.185852"><ele>351.7</ele></trkpt>
      <trkpt lat="38.207959" lon="128.185567"><ele>360.4</ele></trkpt>
      <trkpt lat="38.208335" lon="128.185478"><ele>351.7</ele></trkpt>
      <trkpt lat="38.208418" lon="128.185410"><ele>354.3</ele></trkpt>
      <trkpt lat="38.208450" lon="128.185323"><ele>356.4</ele></trkpt>
      <trkpt lat="38.208258" lon="128.184718"><ele>361.6</ele></trkpt>
      <trkpt lat="38.208279" lon="128.184028"><ele>364.6</ele></trkpt>
      <trkpt lat="38.208475" lon="128.183202"><ele>372.8</ele></trkpt>
      <trkpt lat="38.208616" lon="128.182997"><ele>366.8</ele></trkpt>
      <trkpt lat="38.209399" lon="128.182487"><ele>367.5</ele></trkpt>
      <trkpt lat="38.209786" lon="128.182003"><ele>373.9</ele></trkpt>
      <trkpt lat="38.209896" lon="128.181700"><ele>377.5</ele></trkpt>
      <trkpt lat="38.209951" lon="128.181313"><ele>380.4</ele></trkpt>
      <trkpt lat="38.209972" lon="128.180899"><ele>381.1</ele></trkpt>
      <trkpt lat="38.209918" lon="128.180447"><ele>381.6</ele></trkpt>
      <trkpt lat="38.209926" lon="128.180088"><ele>379.9</ele></trkpt>
      <trkpt lat="38.210143" lon="128.178830"><ele>386.2</ele></trkpt>
      <trkpt lat="38.210299" lon="128.178375"><ele>387.8</ele></trkpt>
      <trkpt lat="38.211103" lon="128.176675"><ele>390.3</ele></trkpt>
      <trkpt lat="38.212175" lon="128.175638"><ele>402.4</ele></trkpt>
      <trkpt lat="38.212801" lon="128.174603"><ele>404.5</ele></trkpt>
      <trkpt lat="38.212956" lon="128.174442"><ele>405.5</ele></trkpt>
      <trkpt lat="38.213330" lon="128.174252"><ele>408.8</ele></trkpt>
      <trkpt lat="38.214311" lon="128.173519"><ele>411.2</ele></trkpt>
      <trkpt lat="38.215048" lon="128.172753"><ele>424.8</ele></trkpt>
      <trkpt lat="38.215148" lon="128.172549"><ele>425.2</ele></trkpt>
      <trkpt lat="38.215146" lon="128.172171"><ele>436.8</ele></trkpt>
      <trkpt lat="38.215210" lon="128.171982"><ele>442.9</ele></trkpt>
      <trkpt lat="38.215307" lon="128.171862"><ele>441.9</ele></trkpt>
      <trkpt lat="38.215839" lon="128.171486"><ele>438.9</ele></trkpt>
      <trkpt lat="38.216937" lon="128.171328"><ele>453.4</ele></trkpt>
      <trkpt lat="38.217064" lon="128.171397"><ele>454.0</ele></trkpt>
      <trkpt lat="38.217330" lon="128.171693"><ele>452.9</ele></trkpt>
      <trkpt lat="38.217807" lon="128.171812"><ele>459.8</ele></trkpt>
      <trkpt lat="38.218277" lon="128.171631"><ele>465.5</ele></trkpt>
      <trkpt lat="38.219014" lon="128.170933"><ele>492.5</ele></trkpt>
      <trkpt lat="38.219112" lon="128.170790"><ele>496.7</ele></trkpt>
      <trkpt lat="38.219357" lon="128.170071"><ele>503.6</ele></trkpt>
      <trkpt lat="38.219369" lon="128.169858"><ele>508.2</ele></trkpt>
      <trkpt lat="38.219270" lon="128.169496"><ele>523.5</ele></trkpt>
      <trkpt lat="38.219272" lon="128.169353"><ele>526.1</ele></trkpt>
      <trkpt lat="38.219369" lon="128.169020"><ele>526.7</ele></trkpt>
      <trkpt lat="38.220091" lon="128.168317"><ele>539.0</ele></trkpt>
      <trkpt lat="38.220596" lon="128.168071"><ele>531.2</ele></trkpt>
      <trkpt lat="38.221025" lon="128.167477"><ele>530.6</ele></trkpt>
      <trkpt lat="38.221109" lon="128.167281"><ele>531.6</ele></trkpt>
      <trkpt lat="38.221219" lon="128.165839"><ele>547.1</ele></trkpt>
      <trkpt lat="38.221127" lon="128.165546"><ele>551.4</ele></trkpt>
      <trkpt lat="38.221117" lon="128.165333"><ele>551.0</ele></trkpt>
      <trkpt lat="38.221253" lon="128.164650"><ele>550.2</ele></trkpt>
      <trkpt lat="38.221627" lon="128.164247"><ele>548.4</ele></trkpt>
      <trkpt lat="38.221865" lon="128.164308"><ele>553.9</ele></trkpt>
      <trkpt lat="38.222009" lon="128.164682"><ele>552.0</ele></trkpt>
      <trkpt lat="38.222022" lon="128.165009"><ele>547.1</ele></trkpt>
      <trkpt lat="38.222124" lon="128.165468"><ele>543.8</ele></trkpt>
      <trkpt lat="38.222210" lon="128.165578"><ele>545.6</ele></trkpt>
      <trkpt lat="38.222377" lon="128.165561"><ele>549.8</ele></trkpt>
      <trkpt lat="38.222564" lon="128.165213"><ele>557.1</ele></trkpt>
      <trkpt lat="38.223336" lon="128.164321"><ele>557.6</ele></trkpt>
      <trkpt lat="38.223425" lon="128.164167"><ele>558.4</ele></trkpt>
      <trkpt lat="38.223593" lon="128.163542"><ele>564.0</ele></trkpt>
      <trkpt lat="38.223907" lon="128.162761"><ele>563.4</ele></trkpt>
      <trkpt lat="38.223996" lon="128.162641"><ele>566.3</ele></trkpt>
      <trkpt lat="38.224325" lon="128.162403"><ele>566.6</ele></trkpt>
      <trkpt lat="38.224588" lon="128.162091"><ele>566.2</ele></trkpt>
      <trkpt lat="38.224679" lon="128.161925"><ele>565.1</ele></trkpt>
      <trkpt lat="38.224727" lon="128.161470"><ele>568.0</ele></trkpt>
      <trkpt lat="38.224839" lon="128.161316"><ele>567.7</ele></trkpt>
      <trkpt lat="38.225249" lon="128.161019"><ele>569.5</ele></trkpt>
      <trkpt lat="38.225520" lon="128.160710"><ele>575.4</ele></trkpt>
      <trkpt lat="38.226106" lon="128.160480"><ele>579.6</ele></trkpt>
      <trkpt lat="38.226437" lon="128.160206"><ele>584.3</ele></trkpt>
      <trkpt lat="38.226657" lon="128.159932"><ele>585.6</ele></trkpt>
      <trkpt lat="38.226804" lon="128.159399"><ele>591.3</ele></trkpt>
      <trkpt lat="38.226946" lon="128.159178"><ele>592.9</ele></trkpt>
      <trkpt lat="38.226996" lon="128.158981"><ele>594.5</ele></trkpt>
      <trkpt lat="38.227017" lon="128.158771"><ele>594.5</ele></trkpt>
      <trkpt lat="38.226931" lon="128.158188"><ele>595.0</ele></trkpt>
      <trkpt lat="38.226957" lon="128.157787"><ele>598.9</ele></trkpt>
      <trkpt lat="38.227887" lon="128.156803"><ele>612.2</ele></trkpt>
      <trkpt lat="38.228141" lon="128.156054"><ele>623.2</ele></trkpt>
      <trkpt lat="38.228163" lon="128.155875"><ele>625.5</ele></trkpt>
      <trkpt lat="38.228076" lon="128.155485"><ele>631.3</ele></trkpt>
      <trkpt lat="38.228076" lon="128.155218"><ele>633.9</ele></trkpt>
      <trkpt lat="38.228268" lon="128.154665"><ele>642.0</ele></trkpt>
      <trkpt lat="38.228352" lon="128.154216"><ele>644.7</ele></trkpt>
      <trkpt lat="38.228527" lon="128.153639"><ele>645.8</ele></trkpt>
      <trkpt lat="38.228751" lon="128.153239"><ele>650.9</ele></trkpt>
      <trkpt lat="38.228875" lon="128.152714"><ele>658.5</ele></trkpt>
      <trkpt lat="38.228826" lon="128.152593"><ele>658.6</ele></trkpt>
      <trkpt lat="38.228527" lon="128.152308"><ele>654.7</ele></trkpt>
      <trkpt lat="38.228436" lon="128.152130"><ele>657.4</ele></trkpt>
      <trkpt lat="38.228099" lon="128.150987"><ele>679.8</ele></trkpt>
      <trkpt lat="38.228362" lon="128.150100"><ele>687.4</ele></trkpt>
      <trkpt lat="38.228335" lon="128.149998"><ele>690.0</ele></trkpt>
      <trkpt lat="38.228278" lon="128.149973"><ele>693.1</ele></trkpt>
      <trkpt lat="38.228042" lon="128.150255"><ele>695.9</ele></trkpt>
      <trkpt lat="38.227896" lon="128.150145"><ele>701.4</ele></trkpt>
      <trkpt lat="38.228046" lon="128.149829"><ele>706.3</ele></trkpt>
      <trkpt lat="38.228086" lon="128.149568"><ele>709.3</ele></trkpt>
      <trkpt lat="38.228029" lon="128.149067"><ele>716.6</ele></trkpt>
      <trkpt lat="38.227684" lon="128.148318"><ele>728.4</ele></trkpt>
      <trkpt lat="38.227281" lon="128.147769"><ele>744.0</ele></trkpt>
      <trkpt lat="38.227146" lon="128.147063"><ele>740.5</ele></trkpt>
      <trkpt lat="38.227071" lon="128.146961"><ele>743.7</ele></trkpt>
      <trkpt lat="38.226868" lon="128.146312"><ele>753.8</ele></trkpt>
      <trkpt lat="38.226727" lon="128.145347"><ele>760.6</ele></trkpt>
      <trkpt lat="38.226424" lon="128.144456"><ele>776.6</ele></trkpt>
      <trkpt lat="38.225935" lon="128.143587"><ele>794.3</ele></trkpt>
      <trkpt lat="38.225720" lon="128.143260"><ele>805.1</ele></trkpt>
      <trkpt lat="38.225547" lon="128.143115"><ele>813.1</ele></trkpt>
      <trkpt lat="38.225437" lon="128.142718"><ele>814.6</ele></trkpt>
      <trkpt lat="38.225555" lon="128.141726"><ele>818.0</ele></trkpt>
      <trkpt lat="38.225505" lon="128.141259"><ele>827.3</ele></trkpt>
      <trkpt lat="38.225429" lon="128.140991"><ele>834.8</ele></trkpt>
      <trkpt lat="38.224654" lon="128.139690"><ele>858.8</ele></trkpt>
      <trkpt lat="38.224543" lon="128.139241"><ele>861.6</ele></trkpt>
      <trkpt lat="38.224455" lon="128.139129"><ele>863.2</ele></trkpt>
      <trkpt lat="38.224581" lon="128.139012"><ele>864.0</ele></trkpt>
      <trkpt lat="38.224719" lon="128.139037"><ele>863.3</ele></trkpt>
      <trkpt lat="38.224793" lon="128.138825"><ele>869.3</ele></trkpt>
      <trkpt lat="38.224763" lon="128.138673"><ele>871.3</ele></trkpt>
      <trkpt lat="38.224451" lon="128.138351"><ele>871.8</ele></trkpt>
      <trkpt lat="38.224194" lon="128.137823"><ele>889.9</ele></trkpt>
      <trkpt lat="38.223647" lon="128.137826"><ele>889.6</ele></trkpt>
      <trkpt lat="38.223474" lon="128.137697"><ele>892.1</ele></trkpt>
      <trkpt lat="38.223297" lon="128.137472"><ele>896.5</ele></trkpt>
      <trkpt lat="38.223111" lon="128.137434"><ele>897.9</ele></trkpt>
      <trkpt lat="38.222445" lon="128.137622"><ele>906.5</ele></trkpt>
      <trkpt lat="38.222117" lon="128.137879"><ele>908.8</ele></trkpt>
      <trkpt lat="38.221706" lon="128.137987"><ele>917.7</ele></trkpt>
      <trkpt lat="38.221569" lon="128.138148"><ele>920.7</ele></trkpt>
      <trkpt lat="38.221211" lon="128.138180"><ele>931.1</ele></trkpt>
      <trkpt lat="38.220894" lon="128.138464"><ele>933.5</ele></trkpt>
      <trkpt lat="38.220692" lon="128.138432"><ele>937.8</ele></trkpt>
      <trkpt lat="38.220077" lon="128.138684"><ele>946.8</ele></trkpt>
      <trkpt lat="38.219571" lon="128.138813"><ele>957.8</ele></trkpt>
      <trkpt lat="38.219367" lon="128.138840"><ele>963.1</ele></trkpt>
      <trkpt lat="38.219032" lon="128.138705"><ele>969.3</ele></trkpt>
      <trkpt lat="38.218812" lon="128.138748"><ele>969.7</ele></trkpt>
      <trkpt lat="38.218669" lon="128.138834"><ele>969.2</ele></trkpt>
      <trkpt lat="38.218505" lon="128.139156"><ele>973.4</ele></trkpt>
      <trkpt lat="38.218324" lon="128.139306"><ele>982.3</ele></trkpt>
      <trkpt lat="38.218218" lon="128.139301"><ele>985.3</ele></trkpt>
      <trkpt lat="38.217708" lon="128.139521"><ele>993.1</ele></trkpt>
      <trkpt lat="38.217089" lon="128.139542"><ele>1004.8</ele></trkpt>
      <trkpt lat="38.217042" lon="128.139650"><ele>1004.5</ele></trkpt>
      <trkpt lat="38.216237" lon="128.139591"><ele>1023.1</ele></trkpt>
      <trkpt lat="38.216149" lon="128.139735"><ele>1024.2</ele></trkpt>
      <trkpt lat="38.215805" lon="128.139754"><ele>1031.5</ele></trkpt>
      <trkpt lat="38.215628" lon="128.139677"><ele>1038.7</ele></trkpt>
      <trkpt lat="38.215474" lon="128.139690"><ele>1045.1</ele></trkpt>
      <trkpt lat="38.215234" lon="128.139859"><ele>1054.1</ele></trkpt>
      <trkpt lat="38.214471" lon="128.140208"><ele>1075.8</ele></trkpt>
      <trkpt lat="38.213603" lon="128.140165"><ele>1099.8</ele></trkpt>
      <trkpt lat="38.213310" lon="128.140232"><ele>1112.5</ele></trkpt>
      <trkpt lat="38.212887" lon="128.140218"><ele>1129.2</ele></trkpt>
      <trkpt lat="38.212297" lon="128.140508"><ele>1153.5</ele></trkpt>
      <trkpt lat="38.212117" lon="128.140481"><ele>1155.3</ele></trkpt>
      <trkpt lat="38.211957" lon="128.140127"><ele>1157.6</ele></trkpt>
      <trkpt lat="38.211974" lon="128.139937"><ele>1160.4</ele></trkpt>
      <trkpt lat="38.211810" lon="128.139585"><ele>1168.9</ele></trkpt>
      <trkpt lat="38.211717" lon="128.138579"><ele>1184.8</ele></trkpt>
      <trkpt lat="38.211660" lon="128.138373"><ele>1189.7</ele></trkpt>
      <trkpt lat="38.211561" lon="128.138180"><ele>1196.7</ele></trkpt>
      <trkpt lat="38.211232" lon="128.137887"><ele>1204.6</ele></trkpt>
      <trkpt lat="38.211194" lon="128.137729"><ele>1205.5</ele></trkpt>
      <trkpt lat="38.211236" lon="128.137268"><ele>1214.4</ele></trkpt>
      <trkpt lat="38.211118" lon="128.136683"><ele>1228.7</ele></trkpt>
      <trkpt lat="38.211243" lon="128.136013"><ele>1248.0</ele></trkpt>
      <trkpt lat="38.211213" lon="128.135830"><ele>1253.4</ele></trkpt>
      <trkpt lat="38.211260" lon="128.135597"><ele>1259.4</ele></trkpt>
      <trkpt lat="38.211359" lon="128.135532"><ele>1260.8</ele></trkpt>
      <trkpt lat="38.211426" lon="128.135302"><ele>1265.2</ele></trkpt>
      <trkpt lat="38.211487" lon="128.134781"><ele>1278.9</ele></trkpt>
      <trkpt lat="38.211352" lon="128.134022"><ele>1271.6</ele></trkpt>
      <trkpt lat="38.211365" lon="128.133808"><ele>1267.1</ele></trkpt>
      <trkpt lat="38.211405" lon="128.133671"><ele>1266.4</ele></trkpt>
      <trkpt lat="38.211607" lon="128.133674"><ele>1265.5</ele></trkpt>
      <trkpt lat="38.211883" lon="128.133456"><ele>1258.2</ele></trkpt>
      <trkpt lat="38.212073" lon="128.132585"><ele>1247.3</ele></trkpt>
      <trkpt lat="38.212069" lon="128.132437"><ele>1244.2</ele></trkpt>
      <trkpt lat="38.211841" lon="128.132158"><ele>1249.6</ele></trkpt>
      <trkpt lat="38.211841" lon="128.131756"><ele>1253.6</ele></trkpt>
      <trkpt lat="38.212322" lon="128.131075"><ele>1246.4</ele></trkpt>
      <trkpt lat="38.212324" lon="128.130476"><ele>1263.8</ele></trkpt>
      <trkpt lat="38.211994" lon="128.130808"><ele>1257.1</ele></trkpt>
      <trkpt lat="38.211940" lon="128.130920"><ele>1256.0</ele></trkpt>
    </trkseg>
  </trk>
</gpx>
