<?xml version="1.0" encoding="UTF-8"?>
<gpx version="1.1" creator="kr-100-mountains route-harvester"
     xmlns="http://www.topografix.com/GPX/1/1"
     xmlns:k100="https://github.com/jay-jang/kr-100-mountains/ns/1"
     xmlns:xsi="http://www.w3.org/2001/XMLSchema-instance"
     xsi:schemaLocation="http://www.topografix.com/GPX/1/1 http://www.topografix.com/GPX/1/1/gpx.xsd">
  <metadata>
    <name>방태산 · 자연휴양림-주억봉 코스 (OSM 계산 경로)</name>
    <desc>실제 GPS 기록이 아닙니다. OpenStreetMap에 등록된 등산로 선형 위에서 계산한 경로이며, 현장 통제·훼손·출입 제한·계절 통제를 반영하지 않을 수 있습니다. 산행 전 공식 안내를 확인하세요.</desc>
    <time>2026-08-04T05:20:20.155Z</time>
    <link href="https://www.openstreetmap.org/copyright"><text>© OpenStreetMap contributors (ODbL 1.0)</text></link>
    <link href="https://registry.opendata.aws/terrain-tiles/"><text>Elevation: SRTM 1 arc-second (NASA/USGS) via AWS Terrain Tiles</text></link>
    <extensions>
      <k100:provenance>osm-routed</k100:provenance>
      <k100:not_a_recorded_track>true</k100:not_a_recorded_track>
      <k100:mountain_id>bangtaesan</k100:mountain_id>
      <k100:mountain_name>방태산</k100:mountain_name>
      <k100:route_id>bangtaesan-b27846cd</k100:route_id>
      <k100:route_index>1</k100:route_index>
      <k100:route_name>자연휴양림-주억봉 코스</k100:route_name>
      <k100:variant>0</k100:variant>
      <k100:source>OpenStreetMap via Overpass API</k100:source>
      <k100:license>ODbL-1.0</k100:license>
      <k100:attribution>© OpenStreetMap contributors</k100:attribution>
      <k100:elevation_source>SRTM 1 arc-second (NASA/USGS) — AWS Terrain Tiles 배포본. 지형 DEM 추정 고도이며 실측 아님</k100:elevation_source>
      <k100:algorithm>dijkstra-grid-v1</k100:algorithm>
      <k100:osm_snapshot>2026-08-04</k100:osm_snapshot>
      <k100:snap_trailhead_m>143</k100:snap_trailhead_m>
      <k100:snap_summit_m>23</k100:snap_summit_m>
      <k100:validation_score>100</k100:validation_score>
      <k100:validation_status>accepted</k100:validation_status>
    </extensions>
  </metadata>
  <trk>
    <name>방태산 · 자연휴양림-주억봉 코스 (OSM 계산 경로)</name>
    <desc>실제 GPS 기록이 아닙니다. OpenStreetMap에 등록된 등산로 선형 위에서 계산한 경로이며, 현장 통제·훼손·출입 제한·계절 통제를 반영하지 않을 수 있습니다. 산행 전 공식 안내를 확인하세요.</desc>
    <trkseg>
      <trkpt lat="37.923609" lon="128.397830"><ele>521.9</ele></trkpt>
      <trkpt lat="37.922846" lon="128.398349"><ele>516.9</ele></trkpt>
      <trkpt lat="37.922404" lon="128.398963"><ele>525.8</ele></trkpt>
      <trkpt lat="37.922078" lon="128.399645"><ele>537.7</ele></trkpt>
      <trkpt lat="37.922032" lon="128.400248"><ele>547.0</ele></trkpt>
      <trkpt lat="37.921842" lon="128.400915"><ele>555.9</ele></trkpt>
      <trkpt lat="37.921494" lon="128.401323"><ele>556.7</ele></trkpt>
      <trkpt lat="37.921090" lon="128.401941"><ele>554.8</ele></trkpt>
      <trkpt lat="37.919549" lon="128.402942"><ele>575.9</ele></trkpt>
      <trkpt lat="37.919092" lon="128.403373"><ele>569.5</ele></trkpt>
      <trkpt lat="37.919122" lon="128.403458"><ele>570.9</ele></trkpt>
      <trkpt lat="37.919272" lon="128.403505"><ele>575.6</ele></trkpt>
      <trkpt lat="37.919314" lon="128.403594"><ele>578.9</ele></trkpt>
      <trkpt lat="37.918919" lon="128.404126"><ele>575.7</ele></trkpt>
      <trkpt lat="37.918865" lon="128.404438"><ele>578.7</ele></trkpt>
      <trkpt lat="37.918605" lon="128.404596"><ele>577.8</ele></trkpt>
      <trkpt lat="37.918368" lon="128.404622"><ele>581.6</ele></trkpt>
      <trkpt lat="37.917960" lon="128.404887"><ele>589.1</ele></trkpt>
      <trkpt lat="37.917628" lon="128.404932"><ele>599.9</ele></trkpt>
      <trkpt lat="37.917339" lon="128.405041"><ele>605.3</ele></trkpt>
      <trkpt lat="37.916210" lon="128.405634"><ele>606.9</ele></trkpt>
      <trkpt lat="37.915722" lon="128.405825"><ele>612.7</ele></trkpt>
      <trkpt lat="37.914816" lon="128.406725"><ele>613.4</ele></trkpt>
      <trkpt lat="37.914300" lon="128.406945"><ele>620.6</ele></trkpt>
      <trkpt lat="37.913426" lon="128.407038"><ele>631.9</ele></trkpt>
      <trkpt lat="37.912973" lon="128.406910"><ele>636.0</ele></trkpt>
      <trkpt lat="37.912652" lon="128.406722"><ele>640.6</ele></trkpt>
      <trkpt lat="37.911935" lon="128.406526"><ele>656.1</ele></trkpt>
      <trkpt lat="37.911265" lon="128.406752"><ele>654.0</ele></trkpt>
      <trkpt lat="37.910799" lon="128.406819"><ele>660.8</ele></trkpt>
      <trkpt lat="37.910584" lon="128.406992"><ele>661.1</ele></trkpt>
      <trkpt lat="37.909740" lon="128.406825"><ele>684.0</ele></trkpt>
      <trkpt lat="37.909658" lon="128.406989"><ele>680.1</ele></trkpt>
      <trkpt lat="37.909284" lon="128.407224"><ele>682.8</ele></trkpt>
      <trkpt lat="37.908830" lon="128.407424"><ele>680.3</ele></trkpt>
      <trkpt lat="37.908672" lon="128.407439"><ele>680.4</ele></trkpt>
      <trkpt lat="37.908484" lon="128.407391"><ele>682.9</ele></trkpt>
      <trkpt lat="37.908335" lon="128.407243"><ele>685.8</ele></trkpt>
      <trkpt lat="37.908174" lon="128.406869"><ele>689.9</ele></trkpt>
      <trkpt lat="37.908109" lon="128.406135"><ele>697.4</ele></trkpt>
      <trkpt lat="37.908029" lon="128.405854"><ele>700.1</ele></trkpt>
      <trkpt lat="37.907876" lon="128.405521"><ele>700.1</ele></trkpt>
      <trkpt lat="37.907698" lon="128.405267"><ele>700.9</ele></trkpt>
      <trkpt lat="37.907626" lon="128.404945"><ele>707.6</ele></trkpt>
      <trkpt lat="37.907627" lon="128.404695"><ele>714.4</ele></trkpt>
      <trkpt lat="37.907324" lon="128.402953"><ele>728.2</ele></trkpt>
      <trkpt lat="37.907177" lon="128.402704"><ele>729.0</ele></trkpt>
      <trkpt lat="37.907084" lon="128.402293"><ele>736.6</ele></trkpt>
      <trkpt lat="37.906774" lon="128.402157"><ele>734.8</ele></trkpt>
      <trkpt lat="37.906660" lon="128.401900"><ele>736.0</ele></trkpt>
      <trkpt lat="37.906194" lon="128.401689"><ele>744.6</ele></trkpt>
      <trkpt lat="37.905956" lon="128.401427"><ele>748.4</ele></trkpt>
      <trkpt lat="37.905349" lon="128.401086"><ele>753.0</ele></trkpt>
      <trkpt lat="37.904686" lon="128.400769"><ele>765.0</ele></trkpt>
      <trkpt lat="37.904598" lon="128.400779"><ele>766.9</ele></trkpt>
      <trkpt lat="37.904200" lon="128.400605"><ele>775.7</ele></trkpt>
      <trkpt lat="37.904181" lon="128.400495"><ele>777.0</ele></trkpt>
      <trkpt lat="37.903985" lon="128.400293"><ele>784.7</ele></trkpt>
      <trkpt lat="37.903737" lon="128.399743"><ele>796.6</ele></trkpt>
      <trkpt lat="37.903394" lon="128.399489"><ele>799.3</ele></trkpt>
      <trkpt lat="37.903297" lon="128.399328"><ele>799.6</ele></trkpt>
      <trkpt lat="37.902832" lon="128.399175"><ele>804.0</ele></trkpt>
      <trkpt lat="37.902579" lon="128.399185"><ele>810.3</ele></trkpt>
      <trkpt lat="37.902450" lon="128.399276"><ele>814.4</ele></trkpt>
      <trkpt lat="37.902319" lon="128.399167"><ele>814.6</ele></trkpt>
      <trkpt lat="37.902207" lon="128.399185"><ele>816.7</ele></trkpt>
      <trkpt lat="37.901748" lon="128.398604"><ele>825.0</ele></trkpt>
      <trkpt lat="37.900988" lon="128.398359"><ele>841.6</ele></trkpt>
      <trkpt lat="37.900816" lon="128.398150"><ele>845.5</ele></trkpt>
      <trkpt lat="37.900498" lon="128.397958"><ele>853.4</ele></trkpt>
      <trkpt lat="37.900298" lon="128.397759"><ele>856.5</ele></trkpt>
      <trkpt lat="37.900198" lon="128.397571"><ele>857.9</ele></trkpt>
      <trkpt lat="37.899911" lon="128.397313"><ele>863.9</ele></trkpt>
      <trkpt lat="37.899540" lon="128.397164"><ele>873.2</ele></trkpt>
      <trkpt lat="37.898789" lon="128.396577"><ele>896.1</ele></trkpt>
      <trkpt lat="37.898102" lon="128.396597"><ele>915.4</ele></trkpt>
      <trkpt lat="37.897850" lon="128.396778"><ele>928.5</ele></trkpt>
      <trkpt lat="37.897302" lon="128.396893"><ele>939.9</ele></trkpt>
      <trkpt lat="37.896993" lon="128.396723"><ele>949.0</ele></trkpt>
      <trkpt lat="37.896752" lon="128.396440"><ele>956.0</ele></trkpt>
      <trkpt lat="37.896240" lon="128.396336"><ele>980.0</ele></trkpt>
      <trkpt lat="37.895769" lon="128.396083"><ele>1015.9</ele></trkpt>
      <trkpt lat="37.895578" lon="128.395780"><ele>1025.2</ele></trkpt>
      <trkpt lat="37.895098" lon="128.395625"><ele>1046.9</ele></trkpt>
      <trkpt lat="37.894661" lon="128.395215"><ele>1081.5</ele></trkpt>
      <trkpt lat="37.894559" lon="128.394988"><ele>1092.8</ele></trkpt>
      <trkpt lat="37.894314" lon="128.394983"><ele>1102.2</ele></trkpt>
      <trkpt lat="37.894150" lon="128.394592"><ele>1119.9</ele></trkpt>
      <trkpt lat="37.894031" lon="128.394424"><ele>1132.1</ele></trkpt>
      <trkpt lat="37.893075" lon="128.393870"><ele>1179.0</ele></trkpt>
      <trkpt lat="37.892326" lon="128.393863"><ele>1215.5</ele></trkpt>
      <trkpt lat="37.892145" lon="128.394056"><ele>1222.6</ele></trkpt>
      <trkpt lat="37.891541" lon="128.394190"><ele>1241.9</ele></trkpt>
      <trkpt lat="37.891374" lon="128.394123"><ele>1247.2</ele></trkpt>
      <trkpt lat="37.890838" lon="128.394199"><ele>1272.4</ele></trkpt>
      <trkpt lat="37.890427" lon="128.394051"><ele>1291.2</ele></trkpt>
      <trkpt lat="37.890239" lon="128.394123"><ele>1302.0</ele></trkpt>
      <trkpt lat="37.889722" lon="128.394138"><ele>1331.1</ele></trkpt>
      <trkpt lat="37.889564" lon="128.394279"><ele>1338.4</ele></trkpt>
      <trkpt lat="37.888898" lon="128.394235"><ele>1363.5</ele></trkpt>
      <trkpt lat="37.888460" lon="128.392771"><ele>1366.3</ele></trkpt>
      <trkpt lat="37.888270" lon="128.391969"><ele>1390.6</ele></trkpt>
      <trkpt lat="37.888138" lon="128.391773"><ele>1398.7</ele></trkpt>
      <trkpt lat="37.888010" lon="128.390750"><ele>1429.2</ele></trkpt>
      <trkpt lat="37.888248" lon="128.390087"><ele>1430.7</ele></trkpt>
    </trkseg>
  </trk>
</gpx>
