<?xml version="1.0" encoding="UTF-8"?>
<gpx version="1.1" creator="kr-100-mountains route-harvester"
     xmlns="http://www.topografix.com/GPX/1/1"
     xmlns:k100="https://github.com/jay-jang/kr-100-mountains/ns/1"
     xmlns:xsi="http://www.w3.org/2001/XMLSchema-instance"
     xsi:schemaLocation="http://www.topografix.com/GPX/1/1 http://www.topografix.com/GPX/1/1/gpx.xsd">
  <metadata>
    <name>황매산 · 오토캠핑장-황매산 정상 코스 (대안 1) (OSM 계산 경로)</name>
    <desc>실제 GPS 기록이 아닙니다. OpenStreetMap에 등록된 등산로 선형 위에서 계산한 경로이며, 현장 통제·훼손·출입 제한·계절 통제를 반영하지 않을 수 있습니다. 산행 전 공식 안내를 확인하세요.</desc>
    <time>2026-08-04T05:40:42.165Z</time>
    <link href="https://www.openstreetmap.org/copyright"><text>© OpenStreetMap contributors (ODbL 1.0)</text></link>
    <link href="https://registry.opendata.aws/terrain-tiles/"><text>Elevation: SRTM 1 arc-second (NASA/USGS) via AWS Terrain Tiles</text></link>
    <extensions>
      <k100:provenance>osm-routed</k100:provenance>
      <k100:not_a_recorded_track>true</k100:not_a_recorded_track>
      <k100:mountain_id>hwangmaesan</k100:mountain_id>
      <k100:mountain_name>황매산</k100:mountain_name>
      <k100:route_id>hwangmaesan-74c9b8f6</k100:route_id>
      <k100:route_index>1</k100:route_index>
      <k100:route_name>오토캠핑장-황매산 정상 코스</k100:route_name>
      <k100:variant>1</k100:variant>
      <k100:source>OpenStreetMap via Overpass API</k100:source>
      <k100:license>ODbL-1.0</k100:license>
      <k100:attribution>© OpenStreetMap contributors</k100:attribution>
      <k100:elevation_source>SRTM 1 arc-second (NASA/USGS) — AWS Terrain Tiles 배포본. 지형 DEM 추정 고도이며 실측 아님</k100:elevation_source>
      <k100:algorithm>dijkstra-grid-v1</k100:algorithm>
      <k100:osm_snapshot>2026-08-04</k100:osm_snapshot>
      <k100:snap_trailhead_m>125</k100:snap_trailhead_m>
      <k100:snap_summit_m>53</k100:snap_summit_m>
      <k100:validation_score>93</k100:validation_score>
      <k100:validation_status>accepted</k100:validation_status>
    </extensions>
  </metadata>
  <trk>
    <name>황매산 · 오토캠핑장-황매산 정상 코스 (대안 1) (OSM 계산 경로)</name>
    <desc>실제 GPS 기록이 아닙니다. OpenStreetMap에 등록된 등산로 선형 위에서 계산한 경로이며, 현장 통제·훼손·출입 제한·계절 통제를 반영하지 않을 수 있습니다. 산행 전 공식 안내를 확인하세요.</desc>
    <trkseg>
      <trkpt lat="35.474495" lon="127.974879"><ele>859.0</ele></trkpt>
      <trkpt lat="35.474581" lon="127.974932"><ele>859.5</ele></trkpt>
      <trkpt lat="35.474932" lon="127.974869"><ele>866.3</ele></trkpt>
      <trkpt lat="35.475095" lon="127.974958"><ele>867.3</ele></trkpt>
      <trkpt lat="35.475125" lon="127.975020"><ele>866.5</ele></trkpt>
      <trkpt lat="35.475033" lon="127.975367"><ele>857.2</ele></trkpt>
      <trkpt lat="35.475047" lon="127.975500"><ele>853.9</ele></trkpt>
      <trkpt lat="35.475094" lon="127.975555"><ele>853.0</ele></trkpt>
      <trkpt lat="35.475566" lon="127.975635"><ele>852.9</ele></trkpt>
      <trkpt lat="35.475570" lon="127.975581"><ele>854.8</ele></trkpt>
      <trkpt lat="35.475788" lon="127.975469"><ele>854.5</ele></trkpt>
      <trkpt lat="35.475898" lon="127.975273"><ele>858.7</ele></trkpt>
      <trkpt lat="35.476150" lon="127.975189"><ele>856.1</ele></trkpt>
      <trkpt lat="35.476219" lon="127.975210"><ele>855.3</ele></trkpt>
      <trkpt lat="35.476462" lon="127.975590"><ele>848.6</ele></trkpt>
      <trkpt lat="35.476641" lon="127.975514"><ele>854.3</ele></trkpt>
      <trkpt lat="35.477011" lon="127.975969"><ele>851.0</ele></trkpt>
      <trkpt lat="35.477207" lon="127.976601"><ele>846.6</ele></trkpt>
      <trkpt lat="35.477323" lon="127.976665"><ele>847.8</ele></trkpt>
      <trkpt lat="35.477629" lon="127.977016"><ele>849.1</ele></trkpt>
      <trkpt lat="35.477955" lon="127.977810"><ele>846.9</ele></trkpt>
      <trkpt lat="35.478333" lon="127.977929"><ele>851.3</ele></trkpt>
      <trkpt lat="35.478681" lon="127.978232"><ele>857.6</ele></trkpt>
      <trkpt lat="35.478780" lon="127.978708"><ele>861.4</ele></trkpt>
      <trkpt lat="35.478839" lon="127.979808"><ele>855.1</ele></trkpt>
      <trkpt lat="35.478984" lon="127.980037"><ele>850.5</ele></trkpt>
      <trkpt lat="35.479186" lon="127.980154"><ele>847.2</ele></trkpt>
      <trkpt lat="35.479466" lon="127.980796"><ele>837.9</ele></trkpt>
      <trkpt lat="35.479647" lon="127.981064"><ele>834.4</ele></trkpt>
      <trkpt lat="35.479655" lon="127.981335"><ele>834.2</ele></trkpt>
      <trkpt lat="35.479724" lon="127.981366"><ele>833.8</ele></trkpt>
      <trkpt lat="35.479869" lon="127.981155"><ele>828.3</ele></trkpt>
      <trkpt lat="35.480259" lon="127.981289"><ele>818.4</ele></trkpt>
      <trkpt lat="35.480585" lon="127.981895"><ele>812.0</ele></trkpt>
      <trkpt lat="35.480962" lon="127.982010"><ele>802.4</ele></trkpt>
      <trkpt lat="35.481199" lon="127.982142"><ele>798.9</ele></trkpt>
      <trkpt lat="35.481362" lon="127.982312"><ele>797.4</ele></trkpt>
      <trkpt lat="35.482441" lon="127.982739"><ele>799.8</ele></trkpt>
      <trkpt lat="35.483191" lon="127.982674"><ele>805.6</ele></trkpt>
      <trkpt lat="35.483819" lon="127.982192"><ele>802.1</ele></trkpt>
      <trkpt lat="35.484127" lon="127.982103"><ele>798.8</ele></trkpt>
      <trkpt lat="35.484610" lon="127.982145"><ele>794.5</ele></trkpt>
      <trkpt lat="35.484956" lon="127.981955"><ele>793.4</ele></trkpt>
      <trkpt lat="35.485435" lon="127.981968"><ele>790.6</ele></trkpt>
      <trkpt lat="35.485640" lon="127.982211"><ele>785.6</ele></trkpt>
      <trkpt lat="35.485815" lon="127.982323"><ele>782.3</ele></trkpt>
      <trkpt lat="35.485811" lon="127.982519"><ele>778.3</ele></trkpt>
      <trkpt lat="35.486321" lon="127.982701"><ele>772.5</ele></trkpt>
      <trkpt lat="35.486446" lon="127.982673"><ele>772.5</ele></trkpt>
      <trkpt lat="35.486670" lon="127.982719"><ele>767.7</ele></trkpt>
      <trkpt lat="35.486895" lon="127.982799"><ele>761.0</ele></trkpt>
      <trkpt lat="35.487003" lon="127.982915"><ele>756.5</ele></trkpt>
      <trkpt lat="35.487122" lon="127.982825"><ele>761.4</ele></trkpt>
      <trkpt lat="35.487107" lon="127.982722"><ele>766.5</ele></trkpt>
      <trkpt lat="35.487190" lon="127.982626"><ele>772.4</ele></trkpt>
      <trkpt lat="35.487526" lon="127.982340"><ele>777.2</ele></trkpt>
      <trkpt lat="35.487728" lon="127.982388"><ele>773.2</ele></trkpt>
      <trkpt lat="35.487888" lon="127.982280"><ele>774.5</ele></trkpt>
      <trkpt lat="35.487978" lon="127.982118"><ele>779.1</ele></trkpt>
      <trkpt lat="35.488257" lon="127.982075"><ele>778.5</ele></trkpt>
      <trkpt lat="35.488737" lon="127.981834"><ele>781.4</ele></trkpt>
      <trkpt lat="35.489122" lon="127.981490"><ele>785.6</ele></trkpt>
      <trkpt lat="35.489250" lon="127.981491"><ele>786.4</ele></trkpt>
      <trkpt lat="35.489557" lon="127.981669"><ele>782.3</ele></trkpt>
      <trkpt lat="35.490184" lon="127.981745"><ele>781.4</ele></trkpt>
      <trkpt lat="35.490436" lon="127.981905"><ele>783.1</ele></trkpt>
      <trkpt lat="35.490732" lon="127.982388"><ele>780.5</ele></trkpt>
      <trkpt lat="35.491050" lon="127.982491"><ele>785.0</ele></trkpt>
      <trkpt lat="35.491567" lon="127.982427"><ele>790.5</ele></trkpt>
      <trkpt lat="35.492169" lon="127.982131"><ele>806.6</ele></trkpt>
      <trkpt lat="35.492526" lon="127.982080"><ele>810.4</ele></trkpt>
      <trkpt lat="35.492621" lon="127.982019"><ele>812.7</ele></trkpt>
      <trkpt lat="35.492739" lon="127.981496"><ele>827.5</ele></trkpt>
      <trkpt lat="35.492786" lon="127.981438"><ele>830.3</ele></trkpt>
      <trkpt lat="35.493017" lon="127.981552"><ele>830.2</ele></trkpt>
      <trkpt lat="35.493454" lon="127.981649"><ele>837.4</ele></trkpt>
      <trkpt lat="35.493437" lon="127.981427"><ele>841.5</ele></trkpt>
      <trkpt lat="35.493280" lon="127.981201"><ele>841.9</ele></trkpt>
      <trkpt lat="35.493473" lon="127.981153"><ele>846.8</ele></trkpt>
      <trkpt lat="35.493771" lon="127.981266"><ele>854.6</ele></trkpt>
      <trkpt lat="35.493827" lon="127.981345"><ele>855.9</ele></trkpt>
      <trkpt lat="35.493872" lon="127.981566"><ele>852.3</ele></trkpt>
      <trkpt lat="35.493929" lon="127.981566"><ele>854.4</ele></trkpt>
      <trkpt lat="35.493986" lon="127.981244"><ele>862.5</ele></trkpt>
      <trkpt lat="35.494043" lon="127.981235"><ele>864.4</ele></trkpt>
      <trkpt lat="35.494192" lon="127.981739"><ele>859.7</ele></trkpt>
      <trkpt lat="35.494439" lon="127.982154"><ele>859.5</ele></trkpt>
      <trkpt lat="35.494846" lon="127.982131"><ele>874.0</ele></trkpt>
      <trkpt lat="35.495176" lon="127.981720"><ele>891.7</ele></trkpt>
      <trkpt lat="35.495210" lon="127.981611"><ele>895.2</ele></trkpt>
      <trkpt lat="35.495335" lon="127.981543"><ele>899.8</ele></trkpt>
      <trkpt lat="35.495819" lon="127.981641"><ele>910.1</ele></trkpt>
      <trkpt lat="35.495990" lon="127.981572"><ele>917.1</ele></trkpt>
      <trkpt lat="35.496357" lon="127.982051"><ele>925.8</ele></trkpt>
      <trkpt lat="35.496507" lon="127.982491"><ele>933.3</ele></trkpt>
      <trkpt lat="35.496515" lon="127.982696"><ele>936.3</ele></trkpt>
      <trkpt lat="35.496671" lon="127.982648"><ele>943.8</ele></trkpt>
      <trkpt lat="35.496713" lon="127.982707"><ele>946.1</ele></trkpt>
      <trkpt lat="35.496632" lon="127.983076"><ele>945.5</ele></trkpt>
      <trkpt lat="35.496789" lon="127.983840"><ele>954.1</ele></trkpt>
      <trkpt lat="35.496834" lon="127.983850"><ele>954.5</ele></trkpt>
      <trkpt lat="35.497093" lon="127.983439"><ele>968.6</ele></trkpt>
      <trkpt lat="35.497233" lon="127.983303"><ele>977.0</ele></trkpt>
      <trkpt lat="35.497401" lon="127.983415"><ele>982.2</ele></trkpt>
      <trkpt lat="35.497769" lon="127.983387"><ele>994.6</ele></trkpt>
      <trkpt lat="35.498081" lon="127.983088"><ele>1006.2</ele></trkpt>
      <trkpt lat="35.498199" lon="127.982846"><ele>1013.0</ele></trkpt>
      <trkpt lat="35.498378" lon="127.982673"><ele>1024.0</ele></trkpt>
      <trkpt lat="35.498621" lon="127.982570"><ele>1036.1</ele></trkpt>
      <trkpt lat="35.498629" lon="127.982449"><ele>1040.1</ele></trkpt>
      <trkpt lat="35.498864" lon="127.982234"><ele>1052.6</ele></trkpt>
      <trkpt lat="35.498963" lon="127.981982"><ele>1064.1</ele></trkpt>
      <trkpt lat="35.499142" lon="127.981814"><ele>1075.0</ele></trkpt>
      <trkpt lat="35.499046" lon="127.981669"><ele>1076.0</ele></trkpt>
      <trkpt lat="35.499201" lon="127.981484"><ele>1085.1</ele></trkpt>
      <trkpt lat="35.499250" lon="127.981289"><ele>1085.9</ele></trkpt>
      <trkpt lat="35.499159" lon="127.981207"><ele>1086.6</ele></trkpt>
      <trkpt lat="35.499081" lon="127.981205"><ele>1085.8</ele></trkpt>
      <trkpt lat="35.499101" lon="127.980988"><ele>1085.2</ele></trkpt>
      <trkpt lat="35.499038" lon="127.980745"><ele>1083.2</ele></trkpt>
      <trkpt lat="35.498961" lon="127.980623"><ele>1082.1</ele></trkpt>
      <trkpt lat="35.498988" lon="127.980484"><ele>1081.3</ele></trkpt>
      <trkpt lat="35.498908" lon="127.980431"><ele>1083.0</ele></trkpt>
      <trkpt lat="35.498845" lon="127.980134"><ele>1085.4</ele></trkpt>
      <trkpt lat="35.498859" lon="127.979661"><ele>1089.5</ele></trkpt>
      <trkpt lat="35.498734" lon="127.979254"><ele>1088.0</ele></trkpt>
      <trkpt lat="35.498501" lon="127.978804"><ele>1080.1</ele></trkpt>
      <trkpt lat="35.498446" lon="127.978810"><ele>1079.3</ele></trkpt>
      <trkpt lat="35.498228" lon="127.978499"><ele>1065.2</ele></trkpt>
      <trkpt lat="35.497940" lon="127.977941"><ele>1062.0</ele></trkpt>
      <trkpt lat="35.497822" lon="127.977530"><ele>1065.5</ele></trkpt>
      <trkpt lat="35.497342" lon="127.976892"><ele>1060.3</ele></trkpt>
      <trkpt lat="35.497345" lon="127.976763"><ele>1059.1</ele></trkpt>
      <trkpt lat="35.497068" lon="127.976686"><ele>1058.6</ele></trkpt>
      <trkpt lat="35.497005" lon="127.976375"><ele>1060.4</ele></trkpt>
      <trkpt lat="35.496407" lon="127.975866"><ele>1065.0</ele></trkpt>
      <trkpt lat="35.496267" lon="127.975592"><ele>1071.2</ele></trkpt>
      <trkpt lat="35.496254" lon="127.975431"><ele>1075.6</ele></trkpt>
      <trkpt lat="35.496168" lon="127.975316"><ele>1078.8</ele></trkpt>
      <trkpt lat="35.495992" lon="127.974766"><ele>1092.2</ele></trkpt>
    </trkseg>
  </trk>
</gpx>
