<?xml version="1.0" encoding="UTF-8"?>
<gpx version="1.1" creator="kr-100-mountains route-harvester"
     xmlns="http://www.topografix.com/GPX/1/1"
     xmlns:k100="https://github.com/jay-jang/kr-100-mountains/ns/1"
     xmlns:xsi="http://www.w3.org/2001/XMLSchema-instance"
     xsi:schemaLocation="http://www.topografix.com/GPX/1/1 http://www.topografix.com/GPX/1/1/gpx.xsd">
  <metadata>
    <name>황매산 · 모산재-황매산 종주 (대안 2) (OSM 계산 경로)</name>
    <desc>실제 GPS 기록이 아닙니다. OpenStreetMap에 등록된 등산로 선형 위에서 계산한 경로이며, 현장 통제·훼손·출입 제한·계절 통제를 반영하지 않을 수 있습니다. 산행 전 공식 안내를 확인하세요.</desc>
    <time>2026-08-04T05:40:42.237Z</time>
    <link href="https://www.openstreetmap.org/copyright"><text>© OpenStreetMap contributors (ODbL 1.0)</text></link>
    <link href="https://registry.opendata.aws/terrain-tiles/"><text>Elevation: SRTM 1 arc-second (NASA/USGS) via AWS Terrain Tiles</text></link>
    <extensions>
      <k100:provenance>osm-routed</k100:provenance>
      <k100:not_a_recorded_track>true</k100:not_a_recorded_track>
      <k100:mountain_id>hwangmaesan</k100:mountain_id>
      <k100:mountain_name>황매산</k100:mountain_name>
      <k100:route_id>hwangmaesan-fff14420</k100:route_id>
      <k100:route_index>3</k100:route_index>
      <k100:route_name>모산재-황매산 종주</k100:route_name>
      <k100:variant>2</k100:variant>
      <k100:source>OpenStreetMap via Overpass API</k100:source>
      <k100:license>ODbL-1.0</k100:license>
      <k100:attribution>© OpenStreetMap contributors</k100:attribution>
      <k100:elevation_source>SRTM 1 arc-second (NASA/USGS) — AWS Terrain Tiles 배포본. 지형 DEM 추정 고도이며 실측 아님</k100:elevation_source>
      <k100:algorithm>dijkstra-grid-v1</k100:algorithm>
      <k100:osm_snapshot>2026-08-04</k100:osm_snapshot>
      <k100:snap_trailhead_m>149</k100:snap_trailhead_m>
      <k100:snap_summit_m>53</k100:snap_summit_m>
      <k100:validation_score>100</k100:validation_score>
      <k100:validation_status>accepted</k100:validation_status>
    </extensions>
  </metadata>
  <trk>
    <name>황매산 · 모산재-황매산 종주 (대안 2) (OSM 계산 경로)</name>
    <desc>실제 GPS 기록이 아닙니다. OpenStreetMap에 등록된 등산로 선형 위에서 계산한 경로이며, 현장 통제·훼손·출입 제한·계절 통제를 반영하지 않을 수 있습니다. 산행 전 공식 안내를 확인하세요.</desc>
    <trkseg>
      <trkpt lat="35.475524" lon="128.010281"><ele>352.0</ele></trkpt>
      <trkpt lat="35.476027" lon="128.009950"><ele>358.9</ele></trkpt>
      <trkpt lat="35.477196" lon="128.009492"><ele>372.3</ele></trkpt>
      <trkpt lat="35.477464" lon="128.009155"><ele>374.5</ele></trkpt>
      <trkpt lat="35.477574" lon="128.008832"><ele>376.3</ele></trkpt>
      <trkpt lat="35.477196" lon="128.008727"><ele>371.0</ele></trkpt>
      <trkpt lat="35.476774" lon="128.008463"><ele>358.8</ele></trkpt>
      <trkpt lat="35.476684" lon="128.008183"><ele>353.8</ele></trkpt>
      <trkpt lat="35.476738" lon="128.007992"><ele>352.1</ele></trkpt>
      <trkpt lat="35.476890" lon="128.007936"><ele>353.5</ele></trkpt>
      <trkpt lat="35.477035" lon="128.007744"><ele>352.1</ele></trkpt>
      <trkpt lat="35.477070" lon="128.007238"><ele>350.9</ele></trkpt>
      <trkpt lat="35.477180" lon="128.006797"><ele>353.0</ele></trkpt>
      <trkpt lat="35.476968" lon="128.006635"><ele>353.2</ele></trkpt>
      <trkpt lat="35.476687" lon="128.006238"><ele>355.1</ele></trkpt>
      <trkpt lat="35.476436" lon="128.006035"><ele>356.9</ele></trkpt>
      <trkpt lat="35.476122" lon="128.005888"><ele>356.5</ele></trkpt>
      <trkpt lat="35.475881" lon="128.005863"><ele>359.0</ele></trkpt>
      <trkpt lat="35.475363" lon="128.005665"><ele>372.6</ele></trkpt>
      <trkpt lat="35.475252" lon="128.005680"><ele>375.5</ele></trkpt>
      <trkpt lat="35.474948" lon="128.005454"><ele>378.7</ele></trkpt>
      <trkpt lat="35.474717" lon="128.005185"><ele>379.1</ele></trkpt>
      <trkpt lat="35.474564" lon="128.005115"><ele>379.8</ele></trkpt>
      <trkpt lat="35.474739" lon="128.005019"><ele>375.2</ele></trkpt>
      <trkpt lat="35.474912" lon="128.004777"><ele>373.8</ele></trkpt>
      <trkpt lat="35.474950" lon="128.004445"><ele>374.5</ele></trkpt>
      <trkpt lat="35.475376" lon="128.004509"><ele>383.0</ele></trkpt>
      <trkpt lat="35.475686" lon="128.004308"><ele>389.8</ele></trkpt>
      <trkpt lat="35.475903" lon="128.004277"><ele>393.6</ele></trkpt>
      <trkpt lat="35.476027" lon="128.004158"><ele>396.5</ele></trkpt>
      <trkpt lat="35.476475" lon="128.004189"><ele>401.7</ele></trkpt>
      <trkpt lat="35.476697" lon="128.004113"><ele>406.4</ele></trkpt>
      <trkpt lat="35.476986" lon="128.004536"><ele>400.4</ele></trkpt>
      <trkpt lat="35.477094" lon="128.004612"><ele>400.9</ele></trkpt>
      <trkpt lat="35.477512" lon="128.004659"><ele>405.4</ele></trkpt>
      <trkpt lat="35.477567" lon="128.004554"><ele>407.9</ele></trkpt>
      <trkpt lat="35.477448" lon="128.003332"><ele>448.9</ele></trkpt>
      <trkpt lat="35.477503" lon="128.003099"><ele>453.4</ele></trkpt>
      <trkpt lat="35.477761" lon="128.002618"><ele>471.1</ele></trkpt>
      <trkpt lat="35.477944" lon="128.002396"><ele>481.6</ele></trkpt>
      <trkpt lat="35.477986" lon="128.002248"><ele>485.5</ele></trkpt>
      <trkpt lat="35.478431" lon="128.001833"><ele>502.3</ele></trkpt>
      <trkpt lat="35.478460" lon="128.001566"><ele>505.1</ele></trkpt>
      <trkpt lat="35.478348" lon="128.001179"><ele>513.3</ele></trkpt>
      <trkpt lat="35.478287" lon="128.001117"><ele>516.1</ele></trkpt>
      <trkpt lat="35.478064" lon="128.000582"><ele>545.8</ele></trkpt>
      <trkpt lat="35.478179" lon="128.000372"><ele>546.5</ele></trkpt>
      <trkpt lat="35.478009" lon="128.000492"><ele>550.0</ele></trkpt>
      <trkpt lat="35.477887" lon="128.000444"><ele>556.3</ele></trkpt>
      <trkpt lat="35.478006" lon="128.000241"><ele>556.6</ele></trkpt>
      <trkpt lat="35.478012" lon="128.000184"><ele>556.8</ele></trkpt>
      <trkpt lat="35.477935" lon="128.000159"><ele>562.7</ele></trkpt>
      <trkpt lat="35.477967" lon="127.999949"><ele>566.1</ele></trkpt>
      <trkpt lat="35.477842" lon="127.999692"><ele>592.3</ele></trkpt>
      <trkpt lat="35.477785" lon="127.999792"><ele>589.7</ele></trkpt>
      <trkpt lat="35.477703" lon="127.999678"><ele>599.2</ele></trkpt>
      <trkpt lat="35.477637" lon="127.999776"><ele>593.6</ele></trkpt>
      <trkpt lat="35.477583" lon="127.999461"><ele>619.1</ele></trkpt>
      <trkpt lat="35.477656" lon="127.999349"><ele>623.5</ele></trkpt>
      <trkpt lat="35.477633" lon="127.999279"><ele>626.7</ele></trkpt>
      <trkpt lat="35.477565" lon="127.999255"><ele>629.8</ele></trkpt>
      <trkpt lat="35.477550" lon="127.999031"><ele>634.3</ele></trkpt>
      <trkpt lat="35.477363" lon="127.998858"><ele>632.7</ele></trkpt>
      <trkpt lat="35.477318" lon="127.998690"><ele>633.2</ele></trkpt>
      <trkpt lat="35.477208" lon="127.998551"><ele>633.3</ele></trkpt>
      <trkpt lat="35.477077" lon="127.998186"><ele>627.9</ele></trkpt>
      <trkpt lat="35.477084" lon="127.998014"><ele>629.2</ele></trkpt>
      <trkpt lat="35.476981" lon="127.998027"><ele>627.8</ele></trkpt>
      <trkpt lat="35.477023" lon="127.997968"><ele>628.7</ele></trkpt>
      <trkpt lat="35.477019" lon="127.997715"><ele>630.4</ele></trkpt>
      <trkpt lat="35.477914" lon="127.997228"><ele>600.0</ele></trkpt>
      <trkpt lat="35.478023" lon="127.996957"><ele>598.2</ele></trkpt>
      <trkpt lat="35.478162" lon="127.996949"><ele>589.2</ele></trkpt>
      <trkpt lat="35.478296" lon="127.996779"><ele>586.9</ele></trkpt>
      <trkpt lat="35.478576" lon="127.996586"><ele>579.3</ele></trkpt>
      <trkpt lat="35.478820" lon="127.996555"><ele>571.6</ele></trkpt>
      <trkpt lat="35.479405" lon="127.996699"><ele>556.1</ele></trkpt>
      <trkpt lat="35.479491" lon="127.996634"><ele>556.4</ele></trkpt>
      <trkpt lat="35.479568" lon="127.996471"><ele>558.0</ele></trkpt>
      <trkpt lat="35.479592" lon="127.996235"><ele>560.8</ele></trkpt>
      <trkpt lat="35.479905" lon="127.996019"><ele>561.2</ele></trkpt>
      <trkpt lat="35.480166" lon="127.995958"><ele>558.3</ele></trkpt>
      <trkpt lat="35.480333" lon="127.996017"><ele>555.4</ele></trkpt>
      <trkpt lat="35.480582" lon="127.996265"><ele>550.4</ele></trkpt>
      <trkpt lat="35.480648" lon="127.996412"><ele>549.2</ele></trkpt>
      <trkpt lat="35.480822" lon="127.996605"><ele>547.6</ele></trkpt>
      <trkpt lat="35.480957" lon="127.996536"><ele>542.6</ele></trkpt>
      <trkpt lat="35.481063" lon="127.996339"><ele>536.6</ele></trkpt>
      <trkpt lat="35.481648" lon="127.996310"><ele>517.7</ele></trkpt>
      <trkpt lat="35.481876" lon="127.996186"><ele>512.4</ele></trkpt>
      <trkpt lat="35.481915" lon="127.996111"><ele>511.5</ele></trkpt>
      <trkpt lat="35.482078" lon="127.996209"><ele>508.3</ele></trkpt>
      <trkpt lat="35.482385" lon="127.996730"><ele>500.9</ele></trkpt>
      <trkpt lat="35.482590" lon="127.997239"><ele>487.8</ele></trkpt>
      <trkpt lat="35.482677" lon="127.997609"><ele>483.6</ele></trkpt>
      <trkpt lat="35.482716" lon="127.998162"><ele>474.1</ele></trkpt>
      <trkpt lat="35.482679" lon="127.998410"><ele>468.7</ele></trkpt>
      <trkpt lat="35.482732" lon="127.998502"><ele>466.2</ele></trkpt>
      <trkpt lat="35.482957" lon="127.998801"><ele>465.5</ele></trkpt>
      <trkpt lat="35.483110" lon="127.998632"><ele>468.4</ele></trkpt>
      <trkpt lat="35.483490" lon="127.998512"><ele>477.8</ele></trkpt>
      <trkpt lat="35.483632" lon="127.998524"><ele>481.5</ele></trkpt>
      <trkpt lat="35.483538" lon="127.998764"><ele>479.3</ele></trkpt>
      <trkpt lat="35.483772" lon="127.998598"><ele>485.0</ele></trkpt>
      <trkpt lat="35.483958" lon="127.998681"><ele>490.5</ele></trkpt>
      <trkpt lat="35.484049" lon="127.998882"><ele>495.1</ele></trkpt>
      <trkpt lat="35.484187" lon="127.999619"><ele>500.5</ele></trkpt>
      <trkpt lat="35.484250" lon="127.999735"><ele>502.3</ele></trkpt>
      <trkpt lat="35.484370" lon="127.999786"><ele>505.7</ele></trkpt>
      <trkpt lat="35.484455" lon="127.999801"><ele>508.0</ele></trkpt>
      <trkpt lat="35.484690" lon="127.999567"><ele>515.7</ele></trkpt>
      <trkpt lat="35.484716" lon="127.999025"><ele>512.3</ele></trkpt>
      <trkpt lat="35.485269" lon="127.998708"><ele>529.1</ele></trkpt>
      <trkpt lat="35.485380" lon="127.998295"><ele>528.5</ele></trkpt>
      <trkpt lat="35.485536" lon="127.998103"><ele>532.9</ele></trkpt>
      <trkpt lat="35.485501" lon="127.997632"><ele>524.0</ele></trkpt>
      <trkpt lat="35.485636" lon="127.997361"><ele>526.8</ele></trkpt>
      <trkpt lat="35.485836" lon="127.997324"><ele>532.2</ele></trkpt>
      <trkpt lat="35.486441" lon="127.997573"><ele>551.1</ele></trkpt>
      <trkpt lat="35.486522" lon="127.997632"><ele>555.6</ele></trkpt>
      <trkpt lat="35.486682" lon="127.997961"><ele>571.1</ele></trkpt>
      <trkpt lat="35.486832" lon="127.998797"><ele>601.6</ele></trkpt>
      <trkpt lat="35.486956" lon="127.998751"><ele>603.7</ele></trkpt>
      <trkpt lat="35.487062" lon="127.999063"><ele>617.4</ele></trkpt>
      <trkpt lat="35.486988" lon="127.999180"><ele>622.2</ele></trkpt>
      <trkpt lat="35.487049" lon="127.999314"><ele>630.0</ele></trkpt>
      <trkpt lat="35.486940" lon="127.999443"><ele>636.7</ele></trkpt>
      <trkpt lat="35.487025" lon="127.999993"><ele>660.9</ele></trkpt>
      <trkpt lat="35.486926" lon="128.000132"><ele>662.3</ele></trkpt>
      <trkpt lat="35.486959" lon="128.000293"><ele>670.4</ele></trkpt>
      <trkpt lat="35.486871" lon="128.000494"><ele>672.3</ele></trkpt>
      <trkpt lat="35.486910" lon="128.000644"><ele>678.3</ele></trkpt>
      <trkpt lat="35.487264" lon="128.000950"><ele>702.5</ele></trkpt>
      <trkpt lat="35.487505" lon="128.001304"><ele>716.2</ele></trkpt>
      <trkpt lat="35.488177" lon="128.001519"><ele>718.3</ele></trkpt>
      <trkpt lat="35.488511" lon="128.001784"><ele>721.8</ele></trkpt>
      <trkpt lat="35.488857" lon="128.002506"><ele>715.8</ele></trkpt>
      <trkpt lat="35.489328" lon="128.002479"><ele>725.3</ele></trkpt>
      <trkpt lat="35.489894" lon="128.002822"><ele>742.3</ele></trkpt>
      <trkpt lat="35.490042" lon="128.002846"><ele>745.8</ele></trkpt>
      <trkpt lat="35.490687" lon="128.002752"><ele>755.4</ele></trkpt>
      <trkpt lat="35.491033" lon="128.002855"><ele>758.8</ele></trkpt>
      <trkpt lat="35.491388" lon="128.002698"><ele>762.4</ele></trkpt>
      <trkpt lat="35.491552" lon="128.002865"><ele>763.2</ele></trkpt>
      <trkpt lat="35.491618" lon="128.003045"><ele>764.9</ele></trkpt>
      <trkpt lat="35.491810" lon="128.003149"><ele>766.0</ele></trkpt>
      <trkpt lat="35.492272" lon="128.003115"><ele>772.7</ele></trkpt>
      <trkpt lat="35.492519" lon="128.003321"><ele>784.1</ele></trkpt>
      <trkpt lat="35.493078" lon="128.003629"><ele>796.3</ele></trkpt>
      <trkpt lat="35.493181" lon="128.003621"><ele>796.8</ele></trkpt>
      <trkpt lat="35.493470" lon="128.003363"><ele>799.1</ele></trkpt>
      <trkpt lat="35.493588" lon="128.003163"><ele>802.9</ele></trkpt>
      <trkpt lat="35.493629" lon="128.002622"><ele>804.9</ele></trkpt>
      <trkpt lat="35.493770" lon="128.002285"><ele>808.5</ele></trkpt>
      <trkpt lat="35.493936" lon="128.002143"><ele>811.8</ele></trkpt>
      <trkpt lat="35.493994" lon="128.001980"><ele>815.5</ele></trkpt>
      <trkpt lat="35.494310" lon="128.001704"><ele>822.1</ele></trkpt>
      <trkpt lat="35.494501" lon="128.001419"><ele>824.7</ele></trkpt>
      <trkpt lat="35.494717" lon="128.000185"><ele>817.4</ele></trkpt>
      <trkpt lat="35.494827" lon="128.000118"><ele>816.2</ele></trkpt>
      <trkpt lat="35.494868" lon="127.999987"><ele>815.3</ele></trkpt>
      <trkpt lat="35.494943" lon="127.998631"><ele>821.5</ele></trkpt>
      <trkpt lat="35.495074" lon="127.998370"><ele>830.0</ele></trkpt>
      <trkpt lat="35.495240" lon="127.998257"><ele>832.0</ele></trkpt>
      <trkpt lat="35.495323" lon="127.998054"><ele>836.0</ele></trkpt>
      <trkpt lat="35.495587" lon="127.997766"><ele>837.2</ele></trkpt>
      <trkpt lat="35.495481" lon="127.996755"><ele>840.9</ele></trkpt>
      <trkpt lat="35.495504" lon="127.996632"><ele>842.0</ele></trkpt>
      <trkpt lat="35.495840" lon="127.996184"><ele>847.4</ele></trkpt>
      <trkpt lat="35.496062" lon="127.995616"><ele>860.2</ele></trkpt>
      <trkpt lat="35.496111" lon="127.995053"><ele>866.2</ele></trkpt>
      <trkpt lat="35.496286" lon="127.994709"><ele>877.0</ele></trkpt>
      <trkpt lat="35.496367" lon="127.994290"><ele>884.8</ele></trkpt>
      <trkpt lat="35.496664" lon="127.994107"><ele>881.6</ele></trkpt>
      <trkpt lat="35.496866" lon="127.994054"><ele>877.5</ele></trkpt>
      <trkpt lat="35.497091" lon="127.993781"><ele>870.6</ele></trkpt>
      <trkpt lat="35.497318" lon="127.993245"><ele>869.0</ele></trkpt>
      <trkpt lat="35.497363" lon="127.992952"><ele>876.9</ele></trkpt>
      <trkpt lat="35.497749" lon="127.992198"><ele>899.7</ele></trkpt>
      <trkpt lat="35.497745" lon="127.991860"><ele>901.8</ele></trkpt>
      <trkpt lat="35.497927" lon="127.991721"><ele>904.4</ele></trkpt>
      <trkpt lat="35.498298" lon="127.991292"><ele>917.3</ele></trkpt>
      <trkpt lat="35.498320" lon="127.990936"><ele>927.1</ele></trkpt>
      <trkpt lat="35.499155" lon="127.990289"><ele>947.7</ele></trkpt>
      <trkpt lat="35.499458" lon="127.989977"><ele>951.3</ele></trkpt>
      <trkpt lat="35.499650" lon="127.989571"><ele>948.2</ele></trkpt>
      <trkpt lat="35.500083" lon="127.988883"><ele>949.7</ele></trkpt>
      <trkpt lat="35.500603" lon="127.988284"><ele>958.2</ele></trkpt>
      <trkpt lat="35.500761" lon="127.988026"><ele>967.1</ele></trkpt>
      <trkpt lat="35.500940" lon="127.987931"><ele>972.0</ele></trkpt>
      <trkpt lat="35.501169" lon="127.987692"><ele>974.8</ele></trkpt>
      <trkpt lat="35.501215" lon="127.987275"><ele>978.1</ele></trkpt>
      <trkpt lat="35.501224" lon="127.986857"><ele>983.1</ele></trkpt>
      <trkpt lat="35.501128" lon="127.986655"><ele>984.6</ele></trkpt>
      <trkpt lat="35.501053" lon="127.986182"><ele>980.5</ele></trkpt>
      <trkpt lat="35.500743" lon="127.985484"><ele>975.9</ele></trkpt>
      <trkpt lat="35.500677" lon="127.985100"><ele>979.4</ele></trkpt>
      <trkpt lat="35.500383" lon="127.984258"><ele>1015.0</ele></trkpt>
      <trkpt lat="35.500585" lon="127.983273"><ele>1044.8</ele></trkpt>
      <trkpt lat="35.500560" lon="127.983091"><ele>1048.3</ele></trkpt>
      <trkpt lat="35.500473" lon="127.982887"><ele>1047.0</ele></trkpt>
      <trkpt lat="35.500081" lon="127.982602"><ele>1051.3</ele></trkpt>
      <trkpt lat="35.500027" lon="127.982480"><ele>1053.7</ele></trkpt>
      <trkpt lat="35.499804" lon="127.982297"><ele>1059.7</ele></trkpt>
      <trkpt lat="35.499765" lon="127.982147"><ele>1064.0</ele></trkpt>
      <trkpt lat="35.499547" lon="127.981771"><ele>1077.2</ele></trkpt>
      <trkpt lat="35.499201" lon="127.981484"><ele>1085.1</ele></trkpt>
      <trkpt lat="35.499250" lon="127.981289"><ele>1085.9</ele></trkpt>
      <trkpt lat="35.499159" lon="127.981207"><ele>1086.6</ele></trkpt>
      <trkpt lat="35.499081" lon="127.981205"><ele>1085.8</ele></trkpt>
      <trkpt lat="35.499101" lon="127.980988"><ele>1085.2</ele></trkpt>
      <trkpt lat="35.499038" lon="127.980745"><ele>1083.2</ele></trkpt>
      <trkpt lat="35.498961" lon="127.980623"><ele>1082.1</ele></trkpt>
      <trkpt lat="35.498988" lon="127.980484"><ele>1081.3</ele></trkpt>
      <trkpt lat="35.498908" lon="127.980431"><ele>1083.0</ele></trkpt>
      <trkpt lat="35.498845" lon="127.980134"><ele>1085.4</ele></trkpt>
      <trkpt lat="35.498859" lon="127.979661"><ele>1089.5</ele></trkpt>
      <trkpt lat="35.498734" lon="127.979254"><ele>1088.0</ele></trkpt>
      <trkpt lat="35.498501" lon="127.978804"><ele>1080.1</ele></trkpt>
      <trkpt lat="35.498446" lon="127.978810"><ele>1079.3</ele></trkpt>
      <trkpt lat="35.498228" lon="127.978499"><ele>1065.2</ele></trkpt>
      <trkpt lat="35.497940" lon="127.977941"><ele>1062.0</ele></trkpt>
      <trkpt lat="35.497822" lon="127.977530"><ele>1065.5</ele></trkpt>
      <trkpt lat="35.497657" lon="127.977275"><ele>1063.4</ele></trkpt>
      <trkpt lat="35.497277" lon="127.977170"><ele>1054.8</ele></trkpt>
      <trkpt lat="35.496963" lon="127.976865"><ele>1053.4</ele></trkpt>
      <trkpt lat="35.496871" lon="127.976530"><ele>1058.8</ele></trkpt>
      <trkpt lat="35.496891" lon="127.976302"><ele>1060.3</ele></trkpt>
      <trkpt lat="35.496407" lon="127.975866"><ele>1065.0</ele></trkpt>
      <trkpt lat="35.496267" lon="127.975592"><ele>1071.2</ele></trkpt>
      <trkpt lat="35.496254" lon="127.975431"><ele>1075.6</ele></trkpt>
      <trkpt lat="35.496168" lon="127.975316"><ele>1078.8</ele></trkpt>
      <trkpt lat="35.495992" lon="127.974766"><ele>1092.2</ele></trkpt>
    </trkseg>
  </trk>
</gpx>
