<?xml version="1.0" encoding="UTF-8"?>
<gpx version="1.1" creator="kr-100-mountains route-harvester"
     xmlns="http://www.topografix.com/GPX/1/1"
     xmlns:k100="https://github.com/jay-jang/kr-100-mountains/ns/1"
     xmlns:xsi="http://www.w3.org/2001/XMLSchema-instance"
     xsi:schemaLocation="http://www.topografix.com/GPX/1/1 http://www.topografix.com/GPX/1/1/gpx.xsd">
  <metadata>
    <name>황매산 · 영화주제공원-황매평전 코스 (대안 1) (OSM 계산 경로)</name>
    <desc>실제 GPS 기록이 아닙니다. OpenStreetMap에 등록된 등산로 선형 위에서 계산한 경로이며, 현장 통제·훼손·출입 제한·계절 통제를 반영하지 않을 수 있습니다. 산행 전 공식 안내를 확인하세요.</desc>
    <time>2026-08-04T05:40:42.184Z</time>
    <link href="https://www.openstreetmap.org/copyright"><text>© OpenStreetMap contributors (ODbL 1.0)</text></link>
    <link href="https://registry.opendata.aws/terrain-tiles/"><text>Elevation: SRTM 1 arc-second (NASA/USGS) via AWS Terrain Tiles</text></link>
    <extensions>
      <k100:provenance>osm-routed</k100:provenance>
      <k100:not_a_recorded_track>true</k100:not_a_recorded_track>
      <k100:mountain_id>hwangmaesan</k100:mountain_id>
      <k100:mountain_name>황매산</k100:mountain_name>
      <k100:route_id>hwangmaesan-b70164fd</k100:route_id>
      <k100:route_index>2</k100:route_index>
      <k100:route_name>영화주제공원-황매평전 코스</k100:route_name>
      <k100:variant>1</k100:variant>
      <k100:source>OpenStreetMap via Overpass API</k100:source>
      <k100:license>ODbL-1.0</k100:license>
      <k100:attribution>© OpenStreetMap contributors</k100:attribution>
      <k100:elevation_source>SRTM 1 arc-second (NASA/USGS) — AWS Terrain Tiles 배포본. 지형 DEM 추정 고도이며 실측 아님</k100:elevation_source>
      <k100:algorithm>dijkstra-grid-v1</k100:algorithm>
      <k100:osm_snapshot>2026-08-04</k100:osm_snapshot>
      <k100:snap_trailhead_m>204</k100:snap_trailhead_m>
      <k100:snap_summit_m>53</k100:snap_summit_m>
      <k100:validation_score>94</k100:validation_score>
      <k100:validation_status>accepted</k100:validation_status>
    </extensions>
  </metadata>
  <trk>
    <name>황매산 · 영화주제공원-황매평전 코스 (대안 1) (OSM 계산 경로)</name>
    <desc>실제 GPS 기록이 아닙니다. OpenStreetMap에 등록된 등산로 선형 위에서 계산한 경로이며, 현장 통제·훼손·출입 제한·계절 통제를 반영하지 않을 수 있습니다. 산행 전 공식 안내를 확인하세요.</desc>
    <trkseg>
      <trkpt lat="35.485408" lon="127.964024"><ele>673.1</ele></trkpt>
      <trkpt lat="35.485428" lon="127.964117"><ele>674.4</ele></trkpt>
      <trkpt lat="35.485792" lon="127.964411"><ele>678.3</ele></trkpt>
      <trkpt lat="35.486076" lon="127.964827"><ele>683.1</ele></trkpt>
      <trkpt lat="35.486549" lon="127.965252"><ele>686.0</ele></trkpt>
      <trkpt lat="35.486733" lon="127.965747"><ele>695.4</ele></trkpt>
      <trkpt lat="35.487199" lon="127.966123"><ele>700.6</ele></trkpt>
      <trkpt lat="35.487537" lon="127.966211"><ele>704.8</ele></trkpt>
      <trkpt lat="35.487775" lon="127.965950"><ele>700.3</ele></trkpt>
      <trkpt lat="35.488038" lon="127.965762"><ele>703.0</ele></trkpt>
      <trkpt lat="35.488132" lon="127.965763"><ele>706.3</ele></trkpt>
      <trkpt lat="35.488143" lon="127.965874"><ele>709.1</ele></trkpt>
      <trkpt lat="35.487860" lon="127.966149"><ele>708.3</ele></trkpt>
      <trkpt lat="35.487831" lon="127.966509"><ele>719.9</ele></trkpt>
      <trkpt lat="35.487761" lon="127.966721"><ele>726.5</ele></trkpt>
      <trkpt lat="35.487542" lon="127.966754"><ele>724.4</ele></trkpt>
      <trkpt lat="35.487475" lon="127.966829"><ele>725.6</ele></trkpt>
      <trkpt lat="35.487153" lon="127.967623"><ele>738.1</ele></trkpt>
      <trkpt lat="35.487058" lon="127.967746"><ele>741.2</ele></trkpt>
      <trkpt lat="35.486962" lon="127.967746"><ele>741.2</ele></trkpt>
      <trkpt lat="35.486711" lon="127.967549"><ele>739.1</ele></trkpt>
      <trkpt lat="35.486504" lon="127.967592"><ele>738.8</ele></trkpt>
      <trkpt lat="35.486725" lon="127.969146"><ele>758.1</ele></trkpt>
      <trkpt lat="35.486905" lon="127.969210"><ele>763.8</ele></trkpt>
      <trkpt lat="35.487020" lon="127.969084"><ele>762.9</ele></trkpt>
      <trkpt lat="35.487034" lon="127.968912"><ele>759.2</ele></trkpt>
      <trkpt lat="35.487918" lon="127.968411"><ele>762.0</ele></trkpt>
      <trkpt lat="35.488086" lon="127.968477"><ele>767.3</ele></trkpt>
      <trkpt lat="35.488244" lon="127.968630"><ele>772.3</ele></trkpt>
      <trkpt lat="35.488666" lon="127.968541"><ele>784.4</ele></trkpt>
      <trkpt lat="35.488889" lon="127.968728"><ele>793.0</ele></trkpt>
      <trkpt lat="35.488947" lon="127.968692"><ele>795.4</ele></trkpt>
      <trkpt lat="35.489153" lon="127.968307"><ele>802.3</ele></trkpt>
      <trkpt lat="35.489223" lon="127.968763"><ele>806.4</ele></trkpt>
      <trkpt lat="35.489299" lon="127.968526"><ele>808.7</ele></trkpt>
      <trkpt lat="35.489498" lon="127.968181"><ele>812.3</ele></trkpt>
      <trkpt lat="35.489595" lon="127.968049"><ele>813.7</ele></trkpt>
      <trkpt lat="35.489691" lon="127.968056"><ele>816.2</ele></trkpt>
      <trkpt lat="35.489806" lon="127.968391"><ele>822.4</ele></trkpt>
      <trkpt lat="35.490032" lon="127.968729"><ele>830.5</ele></trkpt>
      <trkpt lat="35.490136" lon="127.968999"><ele>834.2</ele></trkpt>
      <trkpt lat="35.490178" lon="127.969260"><ele>838.1</ele></trkpt>
      <trkpt lat="35.490152" lon="127.969503"><ele>840.7</ele></trkpt>
      <trkpt lat="35.490232" lon="127.969510"><ele>843.0</ele></trkpt>
      <trkpt lat="35.490256" lon="127.969618"><ele>845.5</ele></trkpt>
      <trkpt lat="35.490518" lon="127.969889"><ele>854.6</ele></trkpt>
      <trkpt lat="35.490810" lon="127.970532"><ele>878.7</ele></trkpt>
      <trkpt lat="35.490819" lon="127.970760"><ele>884.0</ele></trkpt>
      <trkpt lat="35.490726" lon="127.971061"><ele>887.9</ele></trkpt>
      <trkpt lat="35.490967" lon="127.971101"><ele>892.7</ele></trkpt>
      <trkpt lat="35.491062" lon="127.971265"><ele>899.5</ele></trkpt>
      <trkpt lat="35.491070" lon="127.971635"><ele>912.0</ele></trkpt>
      <trkpt lat="35.491160" lon="127.971935"><ele>920.2</ele></trkpt>
      <trkpt lat="35.491058" lon="127.972174"><ele>924.4</ele></trkpt>
      <trkpt lat="35.490964" lon="127.972823"><ele>939.1</ele></trkpt>
      <trkpt lat="35.491135" lon="127.973413"><ele>969.9</ele></trkpt>
      <trkpt lat="35.491249" lon="127.973624"><ele>975.3</ele></trkpt>
      <trkpt lat="35.491205" lon="127.973740"><ele>978.1</ele></trkpt>
      <trkpt lat="35.491231" lon="127.973826"><ele>979.5</ele></trkpt>
      <trkpt lat="35.491317" lon="127.973878"><ele>979.1</ele></trkpt>
      <trkpt lat="35.491461" lon="127.974186"><ele>998.8</ele></trkpt>
      <trkpt lat="35.491577" lon="127.974243"><ele>1011.0</ele></trkpt>
      <trkpt lat="35.491661" lon="127.974218"><ele>1013.2</ele></trkpt>
      <trkpt lat="35.491618" lon="127.974506"><ele>1031.2</ele></trkpt>
      <trkpt lat="35.491932" lon="127.974723"><ele>1034.2</ele></trkpt>
      <trkpt lat="35.491977" lon="127.974706"><ele>1034.4</ele></trkpt>
      <trkpt lat="35.491965" lon="127.974906"><ele>1036.3</ele></trkpt>
      <trkpt lat="35.492466" lon="127.974732"><ele>1050.2</ele></trkpt>
      <trkpt lat="35.492628" lon="127.974731"><ele>1056.1</ele></trkpt>
      <trkpt lat="35.492731" lon="127.974793"><ele>1059.3</ele></trkpt>
      <trkpt lat="35.493326" lon="127.974654"><ele>1066.7</ele></trkpt>
      <trkpt lat="35.493528" lon="127.974686"><ele>1070.9</ele></trkpt>
      <trkpt lat="35.493942" lon="127.974615"><ele>1075.7</ele></trkpt>
      <trkpt lat="35.494238" lon="127.974656"><ele>1077.4</ele></trkpt>
      <trkpt lat="35.494357" lon="127.974353"><ele>1079.1</ele></trkpt>
      <trkpt lat="35.494434" lon="127.974235"><ele>1081.4</ele></trkpt>
      <trkpt lat="35.494510" lon="127.974203"><ele>1084.3</ele></trkpt>
      <trkpt lat="35.494617" lon="127.974214"><ele>1088.0</ele></trkpt>
      <trkpt lat="35.494736" lon="127.974389"><ele>1087.8</ele></trkpt>
      <trkpt lat="35.494968" lon="127.974291"><ele>1096.4</ele></trkpt>
      <trkpt lat="35.495406" lon="127.974529"><ele>1097.5</ele></trkpt>
      <trkpt lat="35.495887" lon="127.974666"><ele>1095.3</ele></trkpt>
      <trkpt lat="35.495992" lon="127.974766"><ele>1092.2</ele></trkpt>
    </trkseg>
  </trk>
</gpx>
