<?xml version="1.0" encoding="UTF-8"?>
<gpx version="1.1" creator="kr-100-mountains route-harvester"
     xmlns="http://www.topografix.com/GPX/1/1"
     xmlns:k100="https://github.com/jay-jang/kr-100-mountains/ns/1"
     xmlns:xsi="http://www.w3.org/2001/XMLSchema-instance"
     xsi:schemaLocation="http://www.topografix.com/GPX/1/1 http://www.topografix.com/GPX/1/1/gpx.xsd">
  <metadata>
    <name>황매산 · 오토캠핑장-황매산 정상 코스 (OSM 계산 경로)</name>
    <desc>실제 GPS 기록이 아닙니다. OpenStreetMap에 등록된 등산로 선형 위에서 계산한 경로이며, 현장 통제·훼손·출입 제한·계절 통제를 반영하지 않을 수 있습니다. 산행 전 공식 안내를 확인하세요.</desc>
    <time>2026-08-04T05:40:42.164Z</time>
    <link href="https://www.openstreetmap.org/copyright"><text>© OpenStreetMap contributors (ODbL 1.0)</text></link>
    <link href="https://registry.opendata.aws/terrain-tiles/"><text>Elevation: SRTM 1 arc-second (NASA/USGS) via AWS Terrain Tiles</text></link>
    <extensions>
      <k100:provenance>osm-routed</k100:provenance>
      <k100:not_a_recorded_track>true</k100:not_a_recorded_track>
      <k100:mountain_id>hwangmaesan</k100:mountain_id>
      <k100:mountain_name>황매산</k100:mountain_name>
      <k100:route_id>hwangmaesan-74c9b8f6</k100:route_id>
      <k100:route_index>1</k100:route_index>
      <k100:route_name>오토캠핑장-황매산 정상 코스</k100:route_name>
      <k100:variant>0</k100:variant>
      <k100:source>OpenStreetMap via Overpass API</k100:source>
      <k100:license>ODbL-1.0</k100:license>
      <k100:attribution>© OpenStreetMap contributors</k100:attribution>
      <k100:elevation_source>SRTM 1 arc-second (NASA/USGS) — AWS Terrain Tiles 배포본. 지형 DEM 추정 고도이며 실측 아님</k100:elevation_source>
      <k100:algorithm>dijkstra-grid-v1</k100:algorithm>
      <k100:osm_snapshot>2026-08-04</k100:osm_snapshot>
      <k100:snap_trailhead_m>125</k100:snap_trailhead_m>
      <k100:snap_summit_m>53</k100:snap_summit_m>
      <k100:validation_score>84</k100:validation_score>
      <k100:validation_status>accepted</k100:validation_status>
    </extensions>
  </metadata>
  <trk>
    <name>황매산 · 오토캠핑장-황매산 정상 코스 (OSM 계산 경로)</name>
    <desc>실제 GPS 기록이 아닙니다. OpenStreetMap에 등록된 등산로 선형 위에서 계산한 경로이며, 현장 통제·훼손·출입 제한·계절 통제를 반영하지 않을 수 있습니다. 산행 전 공식 안내를 확인하세요.</desc>
    <trkseg>
      <trkpt lat="35.474495" lon="127.974879"><ele>859.0</ele></trkpt>
      <trkpt lat="35.474581" lon="127.974932"><ele>859.5</ele></trkpt>
      <trkpt lat="35.474932" lon="127.974869"><ele>866.3</ele></trkpt>
      <trkpt lat="35.475739" lon="127.974536"><ele>869.8</ele></trkpt>
      <trkpt lat="35.475856" lon="127.974542"><ele>869.2</ele></trkpt>
      <trkpt lat="35.475992" lon="127.974385"><ele>867.7</ele></trkpt>
      <trkpt lat="35.476206" lon="127.974463"><ele>868.9</ele></trkpt>
      <trkpt lat="35.476481" lon="127.974333"><ele>872.8</ele></trkpt>
      <trkpt lat="35.476551" lon="127.974247"><ele>874.2</ele></trkpt>
      <trkpt lat="35.476749" lon="127.974215"><ele>875.9</ele></trkpt>
      <trkpt lat="35.476877" lon="127.974313"><ele>875.7</ele></trkpt>
      <trkpt lat="35.477054" lon="127.974272"><ele>877.2</ele></trkpt>
      <trkpt lat="35.477115" lon="127.974388"><ele>878.0</ele></trkpt>
      <trkpt lat="35.477469" lon="127.974542"><ele>882.6</ele></trkpt>
      <trkpt lat="35.477596" lon="127.974658"><ele>882.6</ele></trkpt>
      <trkpt lat="35.477695" lon="127.974655"><ele>882.1</ele></trkpt>
      <trkpt lat="35.477773" lon="127.974724"><ele>882.0</ele></trkpt>
      <trkpt lat="35.478220" lon="127.974707"><ele>883.7</ele></trkpt>
      <trkpt lat="35.478515" lon="127.974953"><ele>888.3</ele></trkpt>
      <trkpt lat="35.478770" lon="127.974977"><ele>892.5</ele></trkpt>
      <trkpt lat="35.478900" lon="127.975201"><ele>897.5</ele></trkpt>
      <trkpt lat="35.479072" lon="127.975291"><ele>904.0</ele></trkpt>
      <trkpt lat="35.479237" lon="127.975596"><ele>910.2</ele></trkpt>
      <trkpt lat="35.479441" lon="127.975627"><ele>916.2</ele></trkpt>
      <trkpt lat="35.479628" lon="127.975886"><ele>918.3</ele></trkpt>
      <trkpt lat="35.479724" lon="127.975864"><ele>919.7</ele></trkpt>
      <trkpt lat="35.479807" lon="127.975955"><ele>919.4</ele></trkpt>
      <trkpt lat="35.479951" lon="127.975978"><ele>920.5</ele></trkpt>
      <trkpt lat="35.480185" lon="127.975547"><ele>924.2</ele></trkpt>
      <trkpt lat="35.480692" lon="127.975238"><ele>928.6</ele></trkpt>
      <trkpt lat="35.480854" lon="127.975349"><ele>928.0</ele></trkpt>
      <trkpt lat="35.481353" lon="127.975492"><ele>922.6</ele></trkpt>
      <trkpt lat="35.481835" lon="127.975482"><ele>908.9</ele></trkpt>
      <trkpt lat="35.482006" lon="127.975386"><ele>905.8</ele></trkpt>
      <trkpt lat="35.482093" lon="127.975247"><ele>905.9</ele></trkpt>
      <trkpt lat="35.482428" lon="127.975244"><ele>900.1</ele></trkpt>
      <trkpt lat="35.483132" lon="127.975312"><ele>897.1</ele></trkpt>
      <trkpt lat="35.483484" lon="127.975462"><ele>900.3</ele></trkpt>
      <trkpt lat="35.484311" lon="127.975601"><ele>896.8</ele></trkpt>
      <trkpt lat="35.485079" lon="127.975577"><ele>897.4</ele></trkpt>
      <trkpt lat="35.485116" lon="127.975531"><ele>897.6</ele></trkpt>
      <trkpt lat="35.485349" lon="127.975516"><ele>899.4</ele></trkpt>
      <trkpt lat="35.485659" lon="127.975244"><ele>901.5</ele></trkpt>
      <trkpt lat="35.485930" lon="127.975180"><ele>904.9</ele></trkpt>
      <trkpt lat="35.486440" lon="127.975173"><ele>910.7</ele></trkpt>
      <trkpt lat="35.486910" lon="127.975615"><ele>911.0</ele></trkpt>
      <trkpt lat="35.487619" lon="127.975820"><ele>913.0</ele></trkpt>
      <trkpt lat="35.487797" lon="127.975794"><ele>915.5</ele></trkpt>
      <trkpt lat="35.488117" lon="127.975596"><ele>916.0</ele></trkpt>
      <trkpt lat="35.489399" lon="127.975277"><ele>945.2</ele></trkpt>
      <trkpt lat="35.489655" lon="127.975144"><ele>958.0</ele></trkpt>
      <trkpt lat="35.489723" lon="127.975030"><ele>963.4</ele></trkpt>
      <trkpt lat="35.489865" lon="127.975049"><ele>969.9</ele></trkpt>
      <trkpt lat="35.490198" lon="127.974911"><ele>991.0</ele></trkpt>
      <trkpt lat="35.490275" lon="127.974946"><ele>996.0</ele></trkpt>
      <trkpt lat="35.490393" lon="127.974798"><ele>1000.9</ele></trkpt>
      <trkpt lat="35.490462" lon="127.974815"><ele>1003.3</ele></trkpt>
      <trkpt lat="35.490638" lon="127.974738"><ele>1010.0</ele></trkpt>
      <trkpt lat="35.490919" lon="127.974845"><ele>1020.7</ele></trkpt>
      <trkpt lat="35.491083" lon="127.974828"><ele>1029.5</ele></trkpt>
      <trkpt lat="35.491189" lon="127.974907"><ele>1036.5</ele></trkpt>
      <trkpt lat="35.491351" lon="127.974830"><ele>1042.6</ele></trkpt>
      <trkpt lat="35.491601" lon="127.974973"><ele>1041.0</ele></trkpt>
      <trkpt lat="35.491725" lon="127.974983"><ele>1039.2</ele></trkpt>
      <trkpt lat="35.492466" lon="127.974732"><ele>1050.2</ele></trkpt>
      <trkpt lat="35.492628" lon="127.974731"><ele>1056.1</ele></trkpt>
      <trkpt lat="35.492731" lon="127.974793"><ele>1059.3</ele></trkpt>
      <trkpt lat="35.493326" lon="127.974654"><ele>1066.7</ele></trkpt>
      <trkpt lat="35.493528" lon="127.974686"><ele>1070.9</ele></trkpt>
      <trkpt lat="35.493942" lon="127.974615"><ele>1075.7</ele></trkpt>
      <trkpt lat="35.494238" lon="127.974656"><ele>1077.4</ele></trkpt>
      <trkpt lat="35.494308" lon="127.974545"><ele>1078.0</ele></trkpt>
      <trkpt lat="35.494437" lon="127.974589"><ele>1078.4</ele></trkpt>
      <trkpt lat="35.494492" lon="127.974498"><ele>1080.8</ele></trkpt>
      <trkpt lat="35.494930" lon="127.974295"><ele>1095.3</ele></trkpt>
      <trkpt lat="35.495406" lon="127.974529"><ele>1097.5</ele></trkpt>
      <trkpt lat="35.495887" lon="127.974666"><ele>1095.3</ele></trkpt>
      <trkpt lat="35.495992" lon="127.974766"><ele>1092.2</ele></trkpt>
    </trkseg>
  </trk>
</gpx>
