<?xml version="1.0" encoding="UTF-8"?>
<gpx version="1.1" creator="kr-100-mountains route-harvester"
     xmlns="http://www.topografix.com/GPX/1/1"
     xmlns:k100="https://github.com/jay-jang/kr-100-mountains/ns/1"
     xmlns:xsi="http://www.w3.org/2001/XMLSchema-instance"
     xsi:schemaLocation="http://www.topografix.com/GPX/1/1 http://www.topografix.com/GPX/1/1/gpx.xsd">
  <metadata>
    <name>황매산 · 모산재-황매산 종주 (OSM 계산 경로)</name>
    <desc>실제 GPS 기록이 아닙니다. OpenStreetMap에 등록된 등산로 선형 위에서 계산한 경로이며, 현장 통제·훼손·출입 제한·계절 통제를 반영하지 않을 수 있습니다. 산행 전 공식 안내를 확인하세요.</desc>
    <time>2026-08-04T05:40:42.235Z</time>
    <link href="https://www.openstreetmap.org/copyright"><text>© OpenStreetMap contributors (ODbL 1.0)</text></link>
    <link href="https://registry.opendata.aws/terrain-tiles/"><text>Elevation: SRTM 1 arc-second (NASA/USGS) via AWS Terrain Tiles</text></link>
    <extensions>
      <k100:provenance>osm-routed</k100:provenance>
      <k100:not_a_recorded_track>true</k100:not_a_recorded_track>
      <k100:mountain_id>hwangmaesan</k100:mountain_id>
      <k100:mountain_name>황매산</k100:mountain_name>
      <k100:route_id>hwangmaesan-fff14420</k100:route_id>
      <k100:route_index>3</k100:route_index>
      <k100:route_name>모산재-황매산 종주</k100:route_name>
      <k100:variant>0</k100:variant>
      <k100:source>OpenStreetMap via Overpass API</k100:source>
      <k100:license>ODbL-1.0</k100:license>
      <k100:attribution>© OpenStreetMap contributors</k100:attribution>
      <k100:elevation_source>SRTM 1 arc-second (NASA/USGS) — AWS Terrain Tiles 배포본. 지형 DEM 추정 고도이며 실측 아님</k100:elevation_source>
      <k100:algorithm>dijkstra-grid-v1</k100:algorithm>
      <k100:osm_snapshot>2026-08-04</k100:osm_snapshot>
      <k100:snap_trailhead_m>149</k100:snap_trailhead_m>
      <k100:snap_summit_m>53</k100:snap_summit_m>
      <k100:validation_score>84</k100:validation_score>
      <k100:validation_status>accepted</k100:validation_status>
    </extensions>
  </metadata>
  <trk>
    <name>황매산 · 모산재-황매산 종주 (OSM 계산 경로)</name>
    <desc>실제 GPS 기록이 아닙니다. OpenStreetMap에 등록된 등산로 선형 위에서 계산한 경로이며, 현장 통제·훼손·출입 제한·계절 통제를 반영하지 않을 수 있습니다. 산행 전 공식 안내를 확인하세요.</desc>
    <trkseg>
      <trkpt lat="35.475524" lon="128.010281"><ele>352.0</ele></trkpt>
      <trkpt lat="35.476027" lon="128.009950"><ele>358.9</ele></trkpt>
      <trkpt lat="35.477075" lon="128.009530"><ele>371.9</ele></trkpt>
      <trkpt lat="35.477196" lon="128.009492"><ele>372.3</ele></trkpt>
      <trkpt lat="35.477581" lon="128.009636"><ele>376.7</ele></trkpt>
      <trkpt lat="35.477848" lon="128.009448"><ele>376.5</ele></trkpt>
      <trkpt lat="35.477994" lon="128.008886"><ele>379.5</ele></trkpt>
      <trkpt lat="35.478111" lon="128.008644"><ele>378.8</ele></trkpt>
      <trkpt lat="35.478079" lon="128.008266"><ele>376.8</ele></trkpt>
      <trkpt lat="35.478891" lon="128.007587"><ele>386.1</ele></trkpt>
      <trkpt lat="35.479098" lon="128.006977"><ele>386.5</ele></trkpt>
      <trkpt lat="35.479066" lon="128.006653"><ele>378.6</ele></trkpt>
      <trkpt lat="35.479200" lon="128.006136"><ele>378.3</ele></trkpt>
      <trkpt lat="35.479569" lon="128.005803"><ele>381.1</ele></trkpt>
      <trkpt lat="35.480062" lon="128.005809"><ele>389.0</ele></trkpt>
      <trkpt lat="35.480144" lon="128.005771"><ele>391.5</ele></trkpt>
      <trkpt lat="35.480402" lon="128.005965"><ele>402.0</ele></trkpt>
      <trkpt lat="35.480523" lon="128.005983"><ele>405.6</ele></trkpt>
      <trkpt lat="35.480771" lon="128.004612"><ele>403.1</ele></trkpt>
      <trkpt lat="35.480855" lon="128.004574"><ele>405.2</ele></trkpt>
      <trkpt lat="35.480977" lon="128.004686"><ele>409.7</ele></trkpt>
      <trkpt lat="35.481024" lon="128.004570"><ele>411.4</ele></trkpt>
      <trkpt lat="35.480874" lon="128.004397"><ele>405.6</ele></trkpt>
      <trkpt lat="35.480897" lon="128.004262"><ele>406.5</ele></trkpt>
      <trkpt lat="35.481007" lon="128.004098"><ele>410.6</ele></trkpt>
      <trkpt lat="35.481136" lon="128.004075"><ele>415.2</ele></trkpt>
      <trkpt lat="35.481155" lon="128.003874"><ele>414.4</ele></trkpt>
      <trkpt lat="35.481577" lon="128.003286"><ele>424.2</ele></trkpt>
      <trkpt lat="35.481653" lon="128.003080"><ele>425.7</ele></trkpt>
      <trkpt lat="35.481848" lon="128.002940"><ele>434.5</ele></trkpt>
      <trkpt lat="35.481981" lon="128.002500"><ele>438.2</ele></trkpt>
      <trkpt lat="35.481889" lon="128.002341"><ele>437.2</ele></trkpt>
      <trkpt lat="35.481470" lon="128.002110"><ele>432.4</ele></trkpt>
      <trkpt lat="35.481356" lon="128.001870"><ele>433.7</ele></trkpt>
      <trkpt lat="35.481363" lon="128.001596"><ele>434.9</ele></trkpt>
      <trkpt lat="35.481623" lon="128.000918"><ele>447.5</ele></trkpt>
      <trkpt lat="35.482007" lon="128.000653"><ele>455.7</ele></trkpt>
      <trkpt lat="35.482113" lon="128.000316"><ele>457.4</ele></trkpt>
      <trkpt lat="35.482198" lon="128.000210"><ele>458.7</ele></trkpt>
      <trkpt lat="35.482269" lon="128.000161"><ele>460.1</ele></trkpt>
      <trkpt lat="35.482476" lon="128.000161"><ele>465.8</ele></trkpt>
      <trkpt lat="35.482798" lon="127.999974"><ele>470.9</ele></trkpt>
      <trkpt lat="35.483094" lon="127.999693"><ele>471.0</ele></trkpt>
      <trkpt lat="35.483484" lon="127.999218"><ele>479.3</ele></trkpt>
      <trkpt lat="35.483489" lon="127.998929"><ele>478.5</ele></trkpt>
      <trkpt lat="35.483538" lon="127.998764"><ele>479.3</ele></trkpt>
      <trkpt lat="35.483632" lon="127.998524"><ele>481.5</ele></trkpt>
      <trkpt lat="35.483839" lon="127.998194"><ele>484.2</ele></trkpt>
      <trkpt lat="35.484057" lon="127.997963"><ele>486.4</ele></trkpt>
      <trkpt lat="35.484306" lon="127.997883"><ele>489.4</ele></trkpt>
      <trkpt lat="35.484354" lon="127.997813"><ele>489.8</ele></trkpt>
      <trkpt lat="35.484389" lon="127.997448"><ele>490.8</ele></trkpt>
      <trkpt lat="35.484319" lon="127.997220"><ele>492.1</ele></trkpt>
      <trkpt lat="35.483955" lon="127.997055"><ele>492.3</ele></trkpt>
      <trkpt lat="35.483759" lon="127.996864"><ele>493.1</ele></trkpt>
      <trkpt lat="35.483637" lon="127.996809"><ele>493.1</ele></trkpt>
      <trkpt lat="35.483539" lon="127.996330"><ele>498.4</ele></trkpt>
      <trkpt lat="35.483442" lon="127.996125"><ele>500.8</ele></trkpt>
      <trkpt lat="35.483429" lon="127.995988"><ele>502.5</ele></trkpt>
      <trkpt lat="35.483599" lon="127.995813"><ele>505.4</ele></trkpt>
      <trkpt lat="35.483658" lon="127.995038"><ele>524.7</ele></trkpt>
      <trkpt lat="35.483530" lon="127.994735"><ele>530.1</ele></trkpt>
      <trkpt lat="35.483523" lon="127.994491"><ele>536.2</ele></trkpt>
      <trkpt lat="35.483425" lon="127.994212"><ele>540.7</ele></trkpt>
      <trkpt lat="35.483595" lon="127.993603"><ele>553.1</ele></trkpt>
      <trkpt lat="35.483407" lon="127.993056"><ele>563.8</ele></trkpt>
      <trkpt lat="35.483512" lon="127.992337"><ele>582.9</ele></trkpt>
      <trkpt lat="35.483368" lon="127.992021"><ele>589.9</ele></trkpt>
      <trkpt lat="35.483316" lon="127.991691"><ele>602.8</ele></trkpt>
      <trkpt lat="35.483132" lon="127.991243"><ele>615.9</ele></trkpt>
      <trkpt lat="35.482949" lon="127.991015"><ele>623.5</ele></trkpt>
      <trkpt lat="35.482652" lon="127.990353"><ele>646.9</ele></trkpt>
      <trkpt lat="35.482387" lon="127.989516"><ele>678.9</ele></trkpt>
      <trkpt lat="35.481988" lon="127.988829"><ele>702.1</ele></trkpt>
      <trkpt lat="35.481948" lon="127.988588"><ele>706.2</ele></trkpt>
      <trkpt lat="35.481774" lon="127.988486"><ele>710.7</ele></trkpt>
      <trkpt lat="35.481721" lon="127.988326"><ele>713.9</ele></trkpt>
      <trkpt lat="35.481700" lon="127.987650"><ele>724.5</ele></trkpt>
      <trkpt lat="35.481744" lon="127.987197"><ele>734.0</ele></trkpt>
      <trkpt lat="35.481836" lon="127.987031"><ele>737.2</ele></trkpt>
      <trkpt lat="35.481881" lon="127.986713"><ele>742.9</ele></trkpt>
      <trkpt lat="35.481693" lon="127.986136"><ele>754.9</ele></trkpt>
      <trkpt lat="35.481469" lon="127.985766"><ele>763.3</ele></trkpt>
      <trkpt lat="35.481371" lon="127.985499"><ele>769.1</ele></trkpt>
      <trkpt lat="35.481266" lon="127.984972"><ele>777.2</ele></trkpt>
      <trkpt lat="35.481130" lon="127.984751"><ele>780.6</ele></trkpt>
      <trkpt lat="35.481087" lon="127.984452"><ele>783.3</ele></trkpt>
      <trkpt lat="35.481092" lon="127.983329"><ele>790.3</ele></trkpt>
      <trkpt lat="35.481052" lon="127.983149"><ele>793.5</ele></trkpt>
      <trkpt lat="35.481106" lon="127.982904"><ele>795.6</ele></trkpt>
      <trkpt lat="35.481093" lon="127.982646"><ele>796.1</ele></trkpt>
      <trkpt lat="35.481149" lon="127.982557"><ele>796.0</ele></trkpt>
      <trkpt lat="35.481231" lon="127.982198"><ele>798.3</ele></trkpt>
      <trkpt lat="35.481170" lon="127.982079"><ele>799.6</ele></trkpt>
      <trkpt lat="35.481373" lon="127.981823"><ele>802.8</ele></trkpt>
      <trkpt lat="35.481421" lon="127.981502"><ele>806.6</ele></trkpt>
      <trkpt lat="35.481516" lon="127.981414"><ele>806.9</ele></trkpt>
      <trkpt lat="35.481770" lon="127.981519"><ele>805.8</ele></trkpt>
      <trkpt lat="35.482005" lon="127.981359"><ele>809.0</ele></trkpt>
      <trkpt lat="35.482096" lon="127.980801"><ele>816.8</ele></trkpt>
      <trkpt lat="35.482354" lon="127.979852"><ele>823.4</ele></trkpt>
      <trkpt lat="35.482590" lon="127.979482"><ele>826.0</ele></trkpt>
      <trkpt lat="35.482895" lon="127.979133"><ele>832.3</ele></trkpt>
      <trkpt lat="35.483026" lon="127.979068"><ele>834.6</ele></trkpt>
      <trkpt lat="35.483149" lon="127.979133"><ele>837.0</ele></trkpt>
      <trkpt lat="35.483350" lon="127.979605"><ele>841.1</ele></trkpt>
      <trkpt lat="35.483468" lon="127.979584"><ele>844.1</ele></trkpt>
      <trkpt lat="35.483664" lon="127.979133"><ele>846.3</ele></trkpt>
      <trkpt lat="35.483808" lon="127.978433"><ele>846.3</ele></trkpt>
      <trkpt lat="35.483773" lon="127.978131"><ele>850.9</ele></trkpt>
      <trkpt lat="35.483834" lon="127.977583"><ele>860.7</ele></trkpt>
      <trkpt lat="35.483972" lon="127.977330"><ele>866.7</ele></trkpt>
      <trkpt lat="35.484374" lon="127.976869"><ele>877.2</ele></trkpt>
      <trkpt lat="35.484407" lon="127.976529"><ele>883.8</ele></trkpt>
      <trkpt lat="35.484909" lon="127.975844"><ele>894.8</ele></trkpt>
      <trkpt lat="35.485090" lon="127.975737"><ele>896.6</ele></trkpt>
      <trkpt lat="35.486606" lon="127.975885"><ele>915.7</ele></trkpt>
      <trkpt lat="35.487179" lon="127.976082"><ele>910.2</ele></trkpt>
      <trkpt lat="35.487542" lon="127.976125"><ele>911.4</ele></trkpt>
      <trkpt lat="35.487763" lon="127.975943"><ele>915.0</ele></trkpt>
      <trkpt lat="35.487797" lon="127.975794"><ele>915.5</ele></trkpt>
      <trkpt lat="35.488117" lon="127.975596"><ele>916.0</ele></trkpt>
      <trkpt lat="35.489399" lon="127.975277"><ele>945.2</ele></trkpt>
      <trkpt lat="35.489655" lon="127.975144"><ele>958.0</ele></trkpt>
      <trkpt lat="35.489723" lon="127.975030"><ele>963.4</ele></trkpt>
      <trkpt lat="35.489865" lon="127.975049"><ele>969.9</ele></trkpt>
      <trkpt lat="35.490198" lon="127.974911"><ele>991.0</ele></trkpt>
      <trkpt lat="35.490275" lon="127.974946"><ele>996.0</ele></trkpt>
      <trkpt lat="35.490393" lon="127.974798"><ele>1000.9</ele></trkpt>
      <trkpt lat="35.490462" lon="127.974815"><ele>1003.3</ele></trkpt>
      <trkpt lat="35.490638" lon="127.974738"><ele>1010.0</ele></trkpt>
      <trkpt lat="35.490919" lon="127.974845"><ele>1020.7</ele></trkpt>
      <trkpt lat="35.491083" lon="127.974828"><ele>1029.5</ele></trkpt>
      <trkpt lat="35.491189" lon="127.974907"><ele>1036.5</ele></trkpt>
      <trkpt lat="35.491351" lon="127.974830"><ele>1042.6</ele></trkpt>
      <trkpt lat="35.491601" lon="127.974973"><ele>1041.0</ele></trkpt>
      <trkpt lat="35.491725" lon="127.974983"><ele>1039.2</ele></trkpt>
      <trkpt lat="35.492466" lon="127.974732"><ele>1050.2</ele></trkpt>
      <trkpt lat="35.492628" lon="127.974731"><ele>1056.1</ele></trkpt>
      <trkpt lat="35.492731" lon="127.974793"><ele>1059.3</ele></trkpt>
      <trkpt lat="35.493326" lon="127.974654"><ele>1066.7</ele></trkpt>
      <trkpt lat="35.493528" lon="127.974686"><ele>1070.9</ele></trkpt>
      <trkpt lat="35.493942" lon="127.974615"><ele>1075.7</ele></trkpt>
      <trkpt lat="35.494238" lon="127.974656"><ele>1077.4</ele></trkpt>
      <trkpt lat="35.494308" lon="127.974545"><ele>1078.0</ele></trkpt>
      <trkpt lat="35.494437" lon="127.974589"><ele>1078.4</ele></trkpt>
      <trkpt lat="35.494492" lon="127.974498"><ele>1080.8</ele></trkpt>
      <trkpt lat="35.494930" lon="127.974295"><ele>1095.3</ele></trkpt>
      <trkpt lat="35.495406" lon="127.974529"><ele>1097.5</ele></trkpt>
      <trkpt lat="35.495887" lon="127.974666"><ele>1095.3</ele></trkpt>
      <trkpt lat="35.495992" lon="127.974766"><ele>1092.2</ele></trkpt>
    </trkseg>
  </trk>
</gpx>
