<?xml version="1.0" encoding="UTF-8"?>
<gpx version="1.1" creator="kr-100-mountains route-harvester"
     xmlns="http://www.topografix.com/GPX/1/1"
     xmlns:k100="https://github.com/jay-jang/kr-100-mountains/ns/1"
     xmlns:xsi="http://www.w3.org/2001/XMLSchema-instance"
     xsi:schemaLocation="http://www.topografix.com/GPX/1/1 http://www.topografix.com/GPX/1/1/gpx.xsd">
  <metadata>
    <name>황매산 · 영화주제공원-황매평전 코스 (OSM 계산 경로)</name>
    <desc>실제 GPS 기록이 아닙니다. OpenStreetMap에 등록된 등산로 선형 위에서 계산한 경로이며, 현장 통제·훼손·출입 제한·계절 통제를 반영하지 않을 수 있습니다. 산행 전 공식 안내를 확인하세요.</desc>
    <time>2026-08-04T05:40:42.183Z</time>
    <link href="https://www.openstreetmap.org/copyright"><text>© OpenStreetMap contributors (ODbL 1.0)</text></link>
    <link href="https://registry.opendata.aws/terrain-tiles/"><text>Elevation: SRTM 1 arc-second (NASA/USGS) via AWS Terrain Tiles</text></link>
    <extensions>
      <k100:provenance>osm-routed</k100:provenance>
      <k100:not_a_recorded_track>true</k100:not_a_recorded_track>
      <k100:mountain_id>hwangmaesan</k100:mountain_id>
      <k100:mountain_name>황매산</k100:mountain_name>
      <k100:route_id>hwangmaesan-b70164fd</k100:route_id>
      <k100:route_index>2</k100:route_index>
      <k100:route_name>영화주제공원-황매평전 코스</k100:route_name>
      <k100:variant>0</k100:variant>
      <k100:source>OpenStreetMap via Overpass API</k100:source>
      <k100:license>ODbL-1.0</k100:license>
      <k100:attribution>© OpenStreetMap contributors</k100:attribution>
      <k100:elevation_source>SRTM 1 arc-second (NASA/USGS) — AWS Terrain Tiles 배포본. 지형 DEM 추정 고도이며 실측 아님</k100:elevation_source>
      <k100:algorithm>dijkstra-grid-v1</k100:algorithm>
      <k100:osm_snapshot>2026-08-04</k100:osm_snapshot>
      <k100:snap_trailhead_m>204</k100:snap_trailhead_m>
      <k100:snap_summit_m>53</k100:snap_summit_m>
      <k100:validation_score>94</k100:validation_score>
      <k100:validation_status>accepted</k100:validation_status>
    </extensions>
  </metadata>
  <trk>
    <name>황매산 · 영화주제공원-황매평전 코스 (OSM 계산 경로)</name>
    <desc>실제 GPS 기록이 아닙니다. OpenStreetMap에 등록된 등산로 선형 위에서 계산한 경로이며, 현장 통제·훼손·출입 제한·계절 통제를 반영하지 않을 수 있습니다. 산행 전 공식 안내를 확인하세요.</desc>
    <trkseg>
      <trkpt lat="35.485408" lon="127.964024"><ele>673.1</ele></trkpt>
      <trkpt lat="35.485428" lon="127.964117"><ele>674.4</ele></trkpt>
      <trkpt lat="35.485792" lon="127.964411"><ele>678.3</ele></trkpt>
      <trkpt lat="35.486076" lon="127.964827"><ele>683.1</ele></trkpt>
      <trkpt lat="35.486549" lon="127.965252"><ele>686.0</ele></trkpt>
      <trkpt lat="35.486733" lon="127.965747"><ele>695.4</ele></trkpt>
      <trkpt lat="35.487199" lon="127.966123"><ele>700.6</ele></trkpt>
      <trkpt lat="35.487537" lon="127.966211"><ele>704.8</ele></trkpt>
      <trkpt lat="35.487775" lon="127.965950"><ele>700.3</ele></trkpt>
      <trkpt lat="35.488038" lon="127.965762"><ele>703.0</ele></trkpt>
      <trkpt lat="35.488132" lon="127.965763"><ele>706.3</ele></trkpt>
      <trkpt lat="35.488143" lon="127.965874"><ele>709.1</ele></trkpt>
      <trkpt lat="35.487860" lon="127.966149"><ele>708.3</ele></trkpt>
      <trkpt lat="35.487831" lon="127.966509"><ele>719.9</ele></trkpt>
      <trkpt lat="35.487761" lon="127.966721"><ele>726.5</ele></trkpt>
      <trkpt lat="35.487542" lon="127.966754"><ele>724.4</ele></trkpt>
      <trkpt lat="35.487475" lon="127.966829"><ele>725.6</ele></trkpt>
      <trkpt lat="35.487153" lon="127.967623"><ele>738.1</ele></trkpt>
      <trkpt lat="35.487058" lon="127.967746"><ele>741.2</ele></trkpt>
      <trkpt lat="35.486962" lon="127.967746"><ele>741.2</ele></trkpt>
      <trkpt lat="35.486711" lon="127.967549"><ele>739.1</ele></trkpt>
      <trkpt lat="35.486504" lon="127.967592"><ele>738.8</ele></trkpt>
      <trkpt lat="35.486725" lon="127.969146"><ele>758.1</ele></trkpt>
      <trkpt lat="35.486905" lon="127.969210"><ele>763.8</ele></trkpt>
      <trkpt lat="35.487020" lon="127.969084"><ele>762.9</ele></trkpt>
      <trkpt lat="35.486956" lon="127.969391"><ele>768.2</ele></trkpt>
      <trkpt lat="35.486977" lon="127.969680"><ele>772.9</ele></trkpt>
      <trkpt lat="35.487283" lon="127.970027"><ele>782.4</ele></trkpt>
      <trkpt lat="35.487234" lon="127.970284"><ele>783.5</ele></trkpt>
      <trkpt lat="35.487240" lon="127.970854"><ele>797.7</ele></trkpt>
      <trkpt lat="35.487342" lon="127.971184"><ele>805.1</ele></trkpt>
      <trkpt lat="35.487261" lon="127.971652"><ele>813.7</ele></trkpt>
      <trkpt lat="35.487361" lon="127.971977"><ele>820.1</ele></trkpt>
      <trkpt lat="35.487268" lon="127.972353"><ele>825.5</ele></trkpt>
      <trkpt lat="35.487355" lon="127.972579"><ele>830.8</ele></trkpt>
      <trkpt lat="35.487288" lon="127.972880"><ele>836.1</ele></trkpt>
      <trkpt lat="35.487427" lon="127.973891"><ele>866.3</ele></trkpt>
      <trkpt lat="35.487552" lon="127.974201"><ele>877.2</ele></trkpt>
      <trkpt lat="35.487612" lon="127.974255"><ele>879.1</ele></trkpt>
      <trkpt lat="35.487540" lon="127.974703"><ele>893.6</ele></trkpt>
      <trkpt lat="35.487322" lon="127.975202"><ele>904.4</ele></trkpt>
      <trkpt lat="35.487289" lon="127.975744"><ele>909.8</ele></trkpt>
      <trkpt lat="35.487619" lon="127.975820"><ele>913.0</ele></trkpt>
      <trkpt lat="35.487797" lon="127.975794"><ele>915.5</ele></trkpt>
      <trkpt lat="35.488117" lon="127.975596"><ele>916.0</ele></trkpt>
      <trkpt lat="35.489399" lon="127.975277"><ele>945.2</ele></trkpt>
      <trkpt lat="35.489655" lon="127.975144"><ele>958.0</ele></trkpt>
      <trkpt lat="35.489723" lon="127.975030"><ele>963.4</ele></trkpt>
      <trkpt lat="35.489865" lon="127.975049"><ele>969.9</ele></trkpt>
      <trkpt lat="35.490198" lon="127.974911"><ele>991.0</ele></trkpt>
      <trkpt lat="35.490275" lon="127.974946"><ele>996.0</ele></trkpt>
      <trkpt lat="35.490393" lon="127.974798"><ele>1000.9</ele></trkpt>
      <trkpt lat="35.490462" lon="127.974815"><ele>1003.3</ele></trkpt>
      <trkpt lat="35.490638" lon="127.974738"><ele>1010.0</ele></trkpt>
      <trkpt lat="35.490919" lon="127.974845"><ele>1020.7</ele></trkpt>
      <trkpt lat="35.491083" lon="127.974828"><ele>1029.5</ele></trkpt>
      <trkpt lat="35.491189" lon="127.974907"><ele>1036.5</ele></trkpt>
      <trkpt lat="35.491351" lon="127.974830"><ele>1042.6</ele></trkpt>
      <trkpt lat="35.491601" lon="127.974973"><ele>1041.0</ele></trkpt>
      <trkpt lat="35.491725" lon="127.974983"><ele>1039.2</ele></trkpt>
      <trkpt lat="35.492466" lon="127.974732"><ele>1050.2</ele></trkpt>
      <trkpt lat="35.492628" lon="127.974731"><ele>1056.1</ele></trkpt>
      <trkpt lat="35.492731" lon="127.974793"><ele>1059.3</ele></trkpt>
      <trkpt lat="35.493326" lon="127.974654"><ele>1066.7</ele></trkpt>
      <trkpt lat="35.493528" lon="127.974686"><ele>1070.9</ele></trkpt>
      <trkpt lat="35.493942" lon="127.974615"><ele>1075.7</ele></trkpt>
      <trkpt lat="35.494238" lon="127.974656"><ele>1077.4</ele></trkpt>
      <trkpt lat="35.494308" lon="127.974545"><ele>1078.0</ele></trkpt>
      <trkpt lat="35.494437" lon="127.974589"><ele>1078.4</ele></trkpt>
      <trkpt lat="35.494492" lon="127.974498"><ele>1080.8</ele></trkpt>
      <trkpt lat="35.494930" lon="127.974295"><ele>1095.3</ele></trkpt>
      <trkpt lat="35.495406" lon="127.974529"><ele>1097.5</ele></trkpt>
      <trkpt lat="35.495887" lon="127.974666"><ele>1095.3</ele></trkpt>
      <trkpt lat="35.495992" lon="127.974766"><ele>1092.2</ele></trkpt>
    </trkseg>
  </trk>
</gpx>
