<?xml version="1.0" encoding="UTF-8"?>
<gpx version="1.1" creator="kr-100-mountains route-harvester"
     xmlns="http://www.topografix.com/GPX/1/1"
     xmlns:k100="https://github.com/jay-jang/kr-100-mountains/ns/1"
     xmlns:xsi="http://www.w3.org/2001/XMLSchema-instance"
     xsi:schemaLocation="http://www.topografix.com/GPX/1/1 http://www.topografix.com/GPX/1/1/gpx.xsd">
  <metadata>
    <name>반야봉 · 뱀사골-화개재-반야봉 코스 (OSM 계산 경로)</name>
    <desc>실제 GPS 기록이 아닙니다. OpenStreetMap에 등록된 등산로 선형 위에서 계산한 경로이며, 현장 통제·훼손·출입 제한·계절 통제를 반영하지 않을 수 있습니다. 산행 전 공식 안내를 확인하세요.</desc>
    <time>2026-08-04T05:30:09.138Z</time>
    <link href="https://www.openstreetmap.org/copyright"><text>© OpenStreetMap contributors (ODbL 1.0)</text></link>
    <link href="https://registry.opendata.aws/terrain-tiles/"><text>Elevation: SRTM 1 arc-second (NASA/USGS) via AWS Terrain Tiles</text></link>
    <extensions>
      <k100:provenance>osm-routed</k100:provenance>
      <k100:not_a_recorded_track>true</k100:not_a_recorded_track>
      <k100:mountain_id>banyabong-jirisan</k100:mountain_id>
      <k100:mountain_name>반야봉(지리산)</k100:mountain_name>
      <k100:route_id>banyabong-jirisan-984fb4ef</k100:route_id>
      <k100:route_index>2</k100:route_index>
      <k100:route_name>뱀사골-화개재-반야봉 코스</k100:route_name>
      <k100:variant>0</k100:variant>
      <k100:source>OpenStreetMap via Overpass API</k100:source>
      <k100:license>ODbL-1.0</k100:license>
      <k100:attribution>© OpenStreetMap contributors</k100:attribution>
      <k100:elevation_source>SRTM 1 arc-second (NASA/USGS) — AWS Terrain Tiles 배포본. 지형 DEM 추정 고도이며 실측 아님</k100:elevation_source>
      <k100:algorithm>dijkstra-grid-v1</k100:algorithm>
      <k100:osm_snapshot>2026-08-04</k100:osm_snapshot>
      <k100:snap_trailhead_m>46</k100:snap_trailhead_m>
      <k100:snap_summit_m>195</k100:snap_summit_m>
      <k100:validation_score>89</k100:validation_score>
      <k100:validation_status>accepted</k100:validation_status>
    </extensions>
  </metadata>
  <trk>
    <name>반야봉 · 뱀사골-화개재-반야봉 코스 (OSM 계산 경로)</name>
    <desc>실제 GPS 기록이 아닙니다. OpenStreetMap에 등록된 등산로 선형 위에서 계산한 경로이며, 현장 통제·훼손·출입 제한·계절 통제를 반영하지 않을 수 있습니다. 산행 전 공식 안내를 확인하세요.</desc>
    <trkseg>
      <trkpt lat="35.364923" lon="127.582619"><ele>552.7</ele></trkpt>
      <trkpt lat="35.364860" lon="127.582710"><ele>550.2</ele></trkpt>
      <trkpt lat="35.364812" lon="127.583006"><ele>540.2</ele></trkpt>
      <trkpt lat="35.364561" lon="127.583156"><ele>540.6</ele></trkpt>
      <trkpt lat="35.364306" lon="127.583459"><ele>533.8</ele></trkpt>
      <trkpt lat="35.364131" lon="127.583529"><ele>532.5</ele></trkpt>
      <trkpt lat="35.363132" lon="127.583609"><ele>535.3</ele></trkpt>
      <trkpt lat="35.362937" lon="127.583359"><ele>541.7</ele></trkpt>
      <trkpt lat="35.362550" lon="127.583287"><ele>549.2</ele></trkpt>
      <trkpt lat="35.362375" lon="127.583318"><ele>552.0</ele></trkpt>
      <trkpt lat="35.362209" lon="127.583424"><ele>554.6</ele></trkpt>
      <trkpt lat="35.361780" lon="127.583907"><ele>561.6</ele></trkpt>
      <trkpt lat="35.361592" lon="127.584454"><ele>562.1</ele></trkpt>
      <trkpt lat="35.361570" lon="127.584728"><ele>560.0</ele></trkpt>
      <trkpt lat="35.361461" lon="127.585157"><ele>555.6</ele></trkpt>
      <trkpt lat="35.361312" lon="127.585531"><ele>557.0</ele></trkpt>
      <trkpt lat="35.361240" lon="127.585544"><ele>559.5</ele></trkpt>
      <trkpt lat="35.360946" lon="127.585798"><ele>568.3</ele></trkpt>
      <trkpt lat="35.360766" lon="127.585816"><ele>571.9</ele></trkpt>
      <trkpt lat="35.360471" lon="127.585713"><ele>576.5</ele></trkpt>
      <trkpt lat="35.360381" lon="127.586019"><ele>580.4</ele></trkpt>
      <trkpt lat="35.359197" lon="127.585886"><ele>586.4</ele></trkpt>
      <trkpt lat="35.358943" lon="127.585948"><ele>588.3</ele></trkpt>
      <trkpt lat="35.358677" lon="127.585897"><ele>589.4</ele></trkpt>
      <trkpt lat="35.358246" lon="127.586099"><ele>594.4</ele></trkpt>
      <trkpt lat="35.357788" lon="127.586186"><ele>600.7</ele></trkpt>
      <trkpt lat="35.357241" lon="127.586482"><ele>599.0</ele></trkpt>
      <trkpt lat="35.356668" lon="127.587050"><ele>608.1</ele></trkpt>
      <trkpt lat="35.356187" lon="127.587632"><ele>604.9</ele></trkpt>
      <trkpt lat="35.355284" lon="127.588490"><ele>610.2</ele></trkpt>
      <trkpt lat="35.355060" lon="127.588902"><ele>613.9</ele></trkpt>
      <trkpt lat="35.354775" lon="127.589112"><ele>619.3</ele></trkpt>
      <trkpt lat="35.354675" lon="127.588960"><ele>621.6</ele></trkpt>
      <trkpt lat="35.354196" lon="127.589264"><ele>626.1</ele></trkpt>
      <trkpt lat="35.353946" lon="127.589306"><ele>622.2</ele></trkpt>
      <trkpt lat="35.353258" lon="127.589204"><ele>623.4</ele></trkpt>
      <trkpt lat="35.353008" lon="127.589085"><ele>623.5</ele></trkpt>
      <trkpt lat="35.352827" lon="127.588930"><ele>625.2</ele></trkpt>
      <trkpt lat="35.352748" lon="127.588989"><ele>623.2</ele></trkpt>
      <trkpt lat="35.352315" lon="127.588737"><ele>628.2</ele></trkpt>
      <trkpt lat="35.351072" lon="127.588625"><ele>632.1</ele></trkpt>
      <trkpt lat="35.350836" lon="127.588625"><ele>633.9</ele></trkpt>
      <trkpt lat="35.350468" lon="127.588745"><ele>634.8</ele></trkpt>
      <trkpt lat="35.350271" lon="127.588704"><ele>634.4</ele></trkpt>
      <trkpt lat="35.349838" lon="127.588287"><ele>642.7</ele></trkpt>
      <trkpt lat="35.349321" lon="127.588022"><ele>654.8</ele></trkpt>
      <trkpt lat="35.349071" lon="127.587789"><ele>664.4</ele></trkpt>
      <trkpt lat="35.348871" lon="127.587866"><ele>663.4</ele></trkpt>
      <trkpt lat="35.348689" lon="127.587812"><ele>664.3</ele></trkpt>
      <trkpt lat="35.347919" lon="127.587915"><ele>671.0</ele></trkpt>
      <trkpt lat="35.347668" lon="127.588010"><ele>670.9</ele></trkpt>
      <trkpt lat="35.347275" lon="127.587984"><ele>676.3</ele></trkpt>
      <trkpt lat="35.346678" lon="127.588352"><ele>664.2</ele></trkpt>
      <trkpt lat="35.344482" lon="127.588317"><ele>678.1</ele></trkpt>
      <trkpt lat="35.344432" lon="127.588523"><ele>677.4</ele></trkpt>
      <trkpt lat="35.344295" lon="127.588656"><ele>680.0</ele></trkpt>
      <trkpt lat="35.344073" lon="127.588732"><ele>686.1</ele></trkpt>
      <trkpt lat="35.343846" lon="127.588696"><ele>688.9</ele></trkpt>
      <trkpt lat="35.343440" lon="127.588393"><ele>691.8</ele></trkpt>
      <trkpt lat="35.342815" lon="127.587203"><ele>697.4</ele></trkpt>
      <trkpt lat="35.342647" lon="127.587077"><ele>699.3</ele></trkpt>
      <trkpt lat="35.342145" lon="127.587025"><ele>708.7</ele></trkpt>
      <trkpt lat="35.341846" lon="127.587370"><ele>710.1</ele></trkpt>
      <trkpt lat="35.341701" lon="127.587813"><ele>710.5</ele></trkpt>
      <trkpt lat="35.341477" lon="127.587871"><ele>713.1</ele></trkpt>
      <trkpt lat="35.341378" lon="127.588021"><ele>714.8</ele></trkpt>
      <trkpt lat="35.340730" lon="127.588122"><ele>718.9</ele></trkpt>
      <trkpt lat="35.340592" lon="127.588304"><ele>723.9</ele></trkpt>
      <trkpt lat="35.340443" lon="127.588243"><ele>724.3</ele></trkpt>
      <trkpt lat="35.340183" lon="127.588233"><ele>724.9</ele></trkpt>
      <trkpt lat="35.339929" lon="127.588563"><ele>730.3</ele></trkpt>
      <trkpt lat="35.339836" lon="127.588609"><ele>730.8</ele></trkpt>
      <trkpt lat="35.338890" lon="127.588468"><ele>728.5</ele></trkpt>
      <trkpt lat="35.338498" lon="127.588482"><ele>731.1</ele></trkpt>
      <trkpt lat="35.338407" lon="127.588567"><ele>734.6</ele></trkpt>
      <trkpt lat="35.338133" lon="127.588598"><ele>738.9</ele></trkpt>
      <trkpt lat="35.337640" lon="127.588555"><ele>739.4</ele></trkpt>
      <trkpt lat="35.336703" lon="127.588696"><ele>749.1</ele></trkpt>
      <trkpt lat="35.336441" lon="127.588686"><ele>753.8</ele></trkpt>
      <trkpt lat="35.336274" lon="127.588570"><ele>756.8</ele></trkpt>
      <trkpt lat="35.336168" lon="127.588115"><ele>757.8</ele></trkpt>
      <trkpt lat="35.336074" lon="127.587914"><ele>760.6</ele></trkpt>
      <trkpt lat="35.335900" lon="127.587946"><ele>763.6</ele></trkpt>
      <trkpt lat="35.335730" lon="127.587151"><ele>759.6</ele></trkpt>
      <trkpt lat="35.335621" lon="127.586889"><ele>758.0</ele></trkpt>
      <trkpt lat="35.335304" lon="127.586425"><ele>767.6</ele></trkpt>
      <trkpt lat="35.335195" lon="127.586348"><ele>771.0</ele></trkpt>
      <trkpt lat="35.334978" lon="127.586348"><ele>777.4</ele></trkpt>
      <trkpt lat="35.334814" lon="127.586543"><ele>782.6</ele></trkpt>
      <trkpt lat="35.334655" lon="127.586497"><ele>786.5</ele></trkpt>
      <trkpt lat="35.334596" lon="127.586319"><ele>788.2</ele></trkpt>
      <trkpt lat="35.334462" lon="127.586166"><ele>793.9</ele></trkpt>
      <trkpt lat="35.334427" lon="127.586205"><ele>795.3</ele></trkpt>
      <trkpt lat="35.334219" lon="127.586098"><ele>808.3</ele></trkpt>
      <trkpt lat="35.333868" lon="127.586010"><ele>832.0</ele></trkpt>
      <trkpt lat="35.333565" lon="127.585712"><ele>859.8</ele></trkpt>
      <trkpt lat="35.333422" lon="127.585729"><ele>868.1</ele></trkpt>
      <trkpt lat="35.333339" lon="127.585641"><ele>875.5</ele></trkpt>
      <trkpt lat="35.333275" lon="127.585672"><ele>875.7</ele></trkpt>
      <trkpt lat="35.333141" lon="127.585570"><ele>879.7</ele></trkpt>
      <trkpt lat="35.333045" lon="127.585609"><ele>879.2</ele></trkpt>
      <trkpt lat="35.332910" lon="127.585464"><ele>875.2</ele></trkpt>
      <trkpt lat="35.332824" lon="127.585080"><ele>872.8</ele></trkpt>
      <trkpt lat="35.332656" lon="127.584950"><ele>866.9</ele></trkpt>
      <trkpt lat="35.332676" lon="127.584832"><ele>869.8</ele></trkpt>
      <trkpt lat="35.332617" lon="127.584552"><ele>875.8</ele></trkpt>
      <trkpt lat="35.332498" lon="127.584587"><ele>867.9</ele></trkpt>
      <trkpt lat="35.332536" lon="127.584294"><ele>879.7</ele></trkpt>
      <trkpt lat="35.332497" lon="127.584043"><ele>883.1</ele></trkpt>
      <trkpt lat="35.332406" lon="127.583937"><ele>882.1</ele></trkpt>
      <trkpt lat="35.332336" lon="127.583507"><ele>889.2</ele></trkpt>
      <trkpt lat="35.332328" lon="127.582743"><ele>910.1</ele></trkpt>
      <trkpt lat="35.332286" lon="127.582498"><ele>908.4</ele></trkpt>
      <trkpt lat="35.332231" lon="127.582286"><ele>906.8</ele></trkpt>
      <trkpt lat="35.332030" lon="127.582037"><ele>908.9</ele></trkpt>
      <trkpt lat="35.332022" lon="127.581806"><ele>914.1</ele></trkpt>
      <trkpt lat="35.331887" lon="127.581258"><ele>928.1</ele></trkpt>
      <trkpt lat="35.331716" lon="127.581023"><ele>932.6</ele></trkpt>
      <trkpt lat="35.331731" lon="127.580814"><ele>938.0</ele></trkpt>
      <trkpt lat="35.331654" lon="127.580538"><ele>944.6</ele></trkpt>
      <trkpt lat="35.331476" lon="127.580243"><ele>953.9</ele></trkpt>
      <trkpt lat="35.331088" lon="127.579956"><ele>961.4</ele></trkpt>
      <trkpt lat="35.330823" lon="127.579685"><ele>968.7</ele></trkpt>
      <trkpt lat="35.330274" lon="127.579350"><ele>985.2</ele></trkpt>
      <trkpt lat="35.330133" lon="127.579422"><ele>990.3</ele></trkpt>
      <trkpt lat="35.329963" lon="127.579392"><ele>998.1</ele></trkpt>
      <trkpt lat="35.329899" lon="127.579237"><ele>998.1</ele></trkpt>
      <trkpt lat="35.329662" lon="127.579140"><ele>1006.5</ele></trkpt>
      <trkpt lat="35.329514" lon="127.578850"><ele>1011.3</ele></trkpt>
      <trkpt lat="35.329422" lon="127.578832"><ele>1015.2</ele></trkpt>
      <trkpt lat="35.329477" lon="127.578655"><ele>1013.3</ele></trkpt>
      <trkpt lat="35.329420" lon="127.578446"><ele>1019.4</ele></trkpt>
      <trkpt lat="35.329257" lon="127.578373"><ele>1024.4</ele></trkpt>
      <trkpt lat="35.329151" lon="127.578097"><ele>1031.8</ele></trkpt>
      <trkpt lat="35.329210" lon="127.578014"><ele>1033.2</ele></trkpt>
      <trkpt lat="35.329299" lon="127.578038"><ele>1033.4</ele></trkpt>
      <trkpt lat="35.329356" lon="127.577673"><ele>1046.1</ele></trkpt>
      <trkpt lat="35.329176" lon="127.577263"><ele>1046.6</ele></trkpt>
      <trkpt lat="35.329112" lon="127.576904"><ele>1055.5</ele></trkpt>
      <trkpt lat="35.329004" lon="127.576775"><ele>1061.2</ele></trkpt>
      <trkpt lat="35.328987" lon="127.576618"><ele>1064.8</ele></trkpt>
      <trkpt lat="35.328845" lon="127.576408"><ele>1071.5</ele></trkpt>
      <trkpt lat="35.328862" lon="127.576190"><ele>1072.4</ele></trkpt>
      <trkpt lat="35.328724" lon="127.575676"><ele>1089.4</ele></trkpt>
      <trkpt lat="35.328481" lon="127.575393"><ele>1103.3</ele></trkpt>
      <trkpt lat="35.328437" lon="127.575479"><ele>1103.7</ele></trkpt>
      <trkpt lat="35.328322" lon="127.575482"><ele>1109.1</ele></trkpt>
      <trkpt lat="35.328251" lon="127.575610"><ele>1111.5</ele></trkpt>
      <trkpt lat="35.328136" lon="127.575570"><ele>1120.4</ele></trkpt>
      <trkpt lat="35.328036" lon="127.575696"><ele>1128.1</ele></trkpt>
      <trkpt lat="35.327985" lon="127.575637"><ele>1132.3</ele></trkpt>
      <trkpt lat="35.327864" lon="127.575655"><ele>1142.4</ele></trkpt>
      <trkpt lat="35.327824" lon="127.575710"><ele>1145.7</ele></trkpt>
      <trkpt lat="35.327677" lon="127.575639"><ele>1157.3</ele></trkpt>
      <trkpt lat="35.327546" lon="127.575681"><ele>1167.1</ele></trkpt>
      <trkpt lat="35.327472" lon="127.575571"><ele>1173.2</ele></trkpt>
      <trkpt lat="35.327015" lon="127.575980"><ele>1193.7</ele></trkpt>
      <trkpt lat="35.326905" lon="127.575934"><ele>1198.7</ele></trkpt>
      <trkpt lat="35.326757" lon="127.575961"><ele>1202.3</ele></trkpt>
      <trkpt lat="35.326737" lon="127.575808"><ele>1211.1</ele></trkpt>
      <trkpt lat="35.326786" lon="127.575712"><ele>1213.5</ele></trkpt>
      <trkpt lat="35.326736" lon="127.575652"><ele>1218.5</ele></trkpt>
      <trkpt lat="35.326621" lon="127.575672"><ele>1221.7</ele></trkpt>
      <trkpt lat="35.326555" lon="127.575821"><ele>1216.8</ele></trkpt>
      <trkpt lat="35.326521" lon="127.575748"><ele>1220.9</ele></trkpt>
      <trkpt lat="35.326408" lon="127.575883"><ele>1218.3</ele></trkpt>
      <trkpt lat="35.326059" lon="127.576003"><ele>1230.5</ele></trkpt>
      <trkpt lat="35.325773" lon="127.575985"><ele>1250.0</ele></trkpt>
      <trkpt lat="35.325508" lon="127.575837"><ele>1271.3</ele></trkpt>
      <trkpt lat="35.325289" lon="127.575902"><ele>1286.2</ele></trkpt>
      <trkpt lat="35.325236" lon="127.575850"><ele>1291.1</ele></trkpt>
      <trkpt lat="35.325110" lon="127.575955"><ele>1298.7</ele></trkpt>
      <trkpt lat="35.325134" lon="127.576096"><ele>1294.1</ele></trkpt>
      <trkpt lat="35.325027" lon="127.576035"><ele>1303.0</ele></trkpt>
      <trkpt lat="35.324981" lon="127.576197"><ele>1306.0</ele></trkpt>
      <trkpt lat="35.324899" lon="127.576275"><ele>1313.0</ele></trkpt>
      <trkpt lat="35.324832" lon="127.576242"><ele>1317.6</ele></trkpt>
      <trkpt lat="35.324676" lon="127.576323"><ele>1325.5</ele></trkpt>
      <trkpt lat="35.324531" lon="127.576277"><ele>1330.3</ele></trkpt>
      <trkpt lat="35.324270" lon="127.576116"><ele>1350.3</ele></trkpt>
      <trkpt lat="35.324234" lon="127.575948"><ele>1357.1</ele></trkpt>
      <trkpt lat="35.324310" lon="127.575836"><ele>1355.1</ele></trkpt>
      <trkpt lat="35.324182" lon="127.575656"><ele>1365.7</ele></trkpt>
      <trkpt lat="35.324066" lon="127.575658"><ele>1368.0</ele></trkpt>
      <trkpt lat="35.323981" lon="127.575467"><ele>1375.8</ele></trkpt>
      <trkpt lat="35.323875" lon="127.575436"><ele>1380.3</ele></trkpt>
      <trkpt lat="35.323837" lon="127.575168"><ele>1386.0</ele></trkpt>
      <trkpt lat="35.323691" lon="127.574911"><ele>1397.8</ele></trkpt>
      <trkpt lat="35.323715" lon="127.574747"><ele>1399.9</ele></trkpt>
      <trkpt lat="35.323602" lon="127.574563"><ele>1411.0</ele></trkpt>
      <trkpt lat="35.323593" lon="127.574448"><ele>1415.0</ele></trkpt>
      <trkpt lat="35.323535" lon="127.574440"><ele>1418.5</ele></trkpt>
      <trkpt lat="35.323250" lon="127.574105"><ele>1441.7</ele></trkpt>
      <trkpt lat="35.323129" lon="127.574095"><ele>1444.5</ele></trkpt>
      <trkpt lat="35.322979" lon="127.573803"><ele>1453.0</ele></trkpt>
      <trkpt lat="35.323008" lon="127.573628"><ele>1456.0</ele></trkpt>
      <trkpt lat="35.322819" lon="127.573468"><ele>1463.0</ele></trkpt>
      <trkpt lat="35.322713" lon="127.573207"><ele>1472.6</ele></trkpt>
      <trkpt lat="35.322321" lon="127.573213"><ele>1477.0</ele></trkpt>
      <trkpt lat="35.321887" lon="127.573367"><ele>1472.9</ele></trkpt>
      <trkpt lat="35.321805" lon="127.573331"><ele>1473.6</ele></trkpt>
      <trkpt lat="35.321737" lon="127.573223"><ele>1477.1</ele></trkpt>
      <trkpt lat="35.321712" lon="127.573041"><ele>1483.6</ele></trkpt>
      <trkpt lat="35.321574" lon="127.573010"><ele>1481.2</ele></trkpt>
      <trkpt lat="35.321424" lon="127.572857"><ele>1482.3</ele></trkpt>
      <trkpt lat="35.321322" lon="127.572967"><ele>1474.8</ele></trkpt>
      <trkpt lat="35.321246" lon="127.572957"><ele>1472.4</ele></trkpt>
      <trkpt lat="35.321198" lon="127.572853"><ele>1474.4</ele></trkpt>
      <trkpt lat="35.321227" lon="127.572778"><ele>1478.2</ele></trkpt>
      <trkpt lat="35.321177" lon="127.572758"><ele>1477.5</ele></trkpt>
      <trkpt lat="35.321213" lon="127.572711"><ele>1481.4</ele></trkpt>
      <trkpt lat="35.321066" lon="127.572610"><ele>1482.4</ele></trkpt>
      <trkpt lat="35.320864" lon="127.572566"><ele>1481.9</ele></trkpt>
      <trkpt lat="35.320684" lon="127.572419"><ele>1492.8</ele></trkpt>
      <trkpt lat="35.320520" lon="127.572520"><ele>1493.4</ele></trkpt>
      <trkpt lat="35.320323" lon="127.572840"><ele>1494.3</ele></trkpt>
      <trkpt lat="35.319959" lon="127.573048"><ele>1486.4</ele></trkpt>
      <trkpt lat="35.319645" lon="127.573049"><ele>1477.5</ele></trkpt>
      <trkpt lat="35.319247" lon="127.572808"><ele>1486.4</ele></trkpt>
      <trkpt lat="35.319142" lon="127.572800"><ele>1484.4</ele></trkpt>
      <trkpt lat="35.318659" lon="127.572847"><ele>1474.5</ele></trkpt>
      <trkpt lat="35.318518" lon="127.572937"><ele>1473.8</ele></trkpt>
      <trkpt lat="35.318357" lon="127.573183"><ele>1468.9</ele></trkpt>
      <trkpt lat="35.318091" lon="127.573328"><ele>1478.9</ele></trkpt>
      <trkpt lat="35.318064" lon="127.573442"><ele>1476.1</ele></trkpt>
      <trkpt lat="35.317850" lon="127.573612"><ele>1482.5</ele></trkpt>
      <trkpt lat="35.317832" lon="127.573785"><ele>1478.8</ele></trkpt>
      <trkpt lat="35.317935" lon="127.574346"><ele>1463.9</ele></trkpt>
      <trkpt lat="35.317831" lon="127.574374"><ele>1468.9</ele></trkpt>
      <trkpt lat="35.317782" lon="127.574481"><ele>1467.1</ele></trkpt>
      <trkpt lat="35.317540" lon="127.574555"><ele>1460.9</ele></trkpt>
      <trkpt lat="35.316867" lon="127.574363"><ele>1450.3</ele></trkpt>
      <trkpt lat="35.316768" lon="127.574259"><ele>1455.6</ele></trkpt>
      <trkpt lat="35.316605" lon="127.574363"><ele>1449.6</ele></trkpt>
      <trkpt lat="35.316376" lon="127.574245"><ele>1457.7</ele></trkpt>
      <trkpt lat="35.316147" lon="127.574377"><ele>1446.4</ele></trkpt>
      <trkpt lat="35.316030" lon="127.574339"><ele>1446.6</ele></trkpt>
      <trkpt lat="35.315989" lon="127.574272"><ele>1449.7</ele></trkpt>
      <trkpt lat="35.315644" lon="127.574201"><ele>1452.5</ele></trkpt>
      <trkpt lat="35.315468" lon="127.574241"><ele>1452.3</ele></trkpt>
      <trkpt lat="35.315372" lon="127.574303"><ele>1451.2</ele></trkpt>
      <trkpt lat="35.315331" lon="127.574393"><ele>1448.5</ele></trkpt>
      <trkpt lat="35.315169" lon="127.574465"><ele>1450.4</ele></trkpt>
      <trkpt lat="35.315129" lon="127.574640"><ele>1442.8</ele></trkpt>
      <trkpt lat="35.315053" lon="127.574751"><ele>1442.2</ele></trkpt>
      <trkpt lat="35.314971" lon="127.574754"><ele>1446.1</ele></trkpt>
      <trkpt lat="35.314814" lon="127.575045"><ele>1435.9</ele></trkpt>
      <trkpt lat="35.314716" lon="127.575152"><ele>1434.6</ele></trkpt>
      <trkpt lat="35.314555" lon="127.575181"><ele>1433.6</ele></trkpt>
      <trkpt lat="35.314322" lon="127.575185"><ele>1432.8</ele></trkpt>
      <trkpt lat="35.314186" lon="127.575116"><ele>1435.1</ele></trkpt>
      <trkpt lat="35.314079" lon="127.575157"><ele>1434.3</ele></trkpt>
      <trkpt lat="35.314042" lon="127.575108"><ele>1437.7</ele></trkpt>
      <trkpt lat="35.313755" lon="127.575171"><ele>1434.0</ele></trkpt>
      <trkpt lat="35.313614" lon="127.575263"><ele>1425.2</ele></trkpt>
      <trkpt lat="35.313399" lon="127.575144"><ele>1435.1</ele></trkpt>
      <trkpt lat="35.313277" lon="127.575325"><ele>1427.7</ele></trkpt>
      <trkpt lat="35.312957" lon="127.575396"><ele>1425.1</ele></trkpt>
      <trkpt lat="35.312902" lon="127.575318"><ele>1429.1</ele></trkpt>
      <trkpt lat="35.312559" lon="127.575446"><ele>1421.7</ele></trkpt>
      <trkpt lat="35.312454" lon="127.575425"><ele>1422.4</ele></trkpt>
      <trkpt lat="35.312265" lon="127.575118"><ele>1438.1</ele></trkpt>
      <trkpt lat="35.312192" lon="127.575137"><ele>1436.8</ele></trkpt>
      <trkpt lat="35.312049" lon="127.575035"><ele>1444.0</ele></trkpt>
      <trkpt lat="35.311784" lon="127.575228"><ele>1436.5</ele></trkpt>
      <trkpt lat="35.311263" lon="127.575487"><ele>1436.6</ele></trkpt>
      <trkpt lat="35.311223" lon="127.575415"><ele>1441.3</ele></trkpt>
      <trkpt lat="35.311077" lon="127.575340"><ele>1448.8</ele></trkpt>
      <trkpt lat="35.310683" lon="127.575324"><ele>1459.4</ele></trkpt>
      <trkpt lat="35.310294" lon="127.575173"><ele>1468.3</ele></trkpt>
      <trkpt lat="35.310182" lon="127.574667"><ele>1465.8</ele></trkpt>
      <trkpt lat="35.310160" lon="127.574373"><ele>1467.4</ele></trkpt>
      <trkpt lat="35.310218" lon="127.574001"><ele>1472.3</ele></trkpt>
      <trkpt lat="35.310098" lon="127.573378"><ele>1474.4</ele></trkpt>
      <trkpt lat="35.309966" lon="127.573057"><ele>1473.2</ele></trkpt>
      <trkpt lat="35.309765" lon="127.572917"><ele>1462.6</ele></trkpt>
      <trkpt lat="35.309719" lon="127.572719"><ele>1459.4</ele></trkpt>
      <trkpt lat="35.309946" lon="127.572367"><ele>1472.8</ele></trkpt>
      <trkpt lat="35.310029" lon="127.572070"><ele>1478.8</ele></trkpt>
      <trkpt lat="35.309908" lon="127.571756"><ele>1470.4</ele></trkpt>
      <trkpt lat="35.309903" lon="127.571174"><ele>1470.4</ele></trkpt>
      <trkpt lat="35.309984" lon="127.570386"><ele>1472.4</ele></trkpt>
      <trkpt lat="35.309897" lon="127.570096"><ele>1466.3</ele></trkpt>
      <trkpt lat="35.309590" lon="127.569722"><ele>1455.0</ele></trkpt>
      <trkpt lat="35.308944" lon="127.569474"><ele>1449.2</ele></trkpt>
      <trkpt lat="35.308251" lon="127.569019"><ele>1447.8</ele></trkpt>
      <trkpt lat="35.307903" lon="127.568896"><ele>1441.0</ele></trkpt>
      <trkpt lat="35.307680" lon="127.568693"><ele>1434.1</ele></trkpt>
      <trkpt lat="35.307493" lon="127.568320"><ele>1433.8</ele></trkpt>
      <trkpt lat="35.307163" lon="127.568041"><ele>1429.0</ele></trkpt>
      <trkpt lat="35.306618" lon="127.566452"><ele>1418.9</ele></trkpt>
      <trkpt lat="35.306413" lon="127.565978"><ele>1420.4</ele></trkpt>
      <trkpt lat="35.306048" lon="127.565379"><ele>1417.7</ele></trkpt>
      <trkpt lat="35.305568" lon="127.564815"><ele>1413.9</ele></trkpt>
      <trkpt lat="35.305173" lon="127.564477"><ele>1415.7</ele></trkpt>
      <trkpt lat="35.304980" lon="127.564209"><ele>1419.7</ele></trkpt>
      <trkpt lat="35.304706" lon="127.563714"><ele>1422.5</ele></trkpt>
      <trkpt lat="35.304361" lon="127.562598"><ele>1403.9</ele></trkpt>
      <trkpt lat="35.304134" lon="127.562242"><ele>1394.5</ele></trkpt>
      <trkpt lat="35.303824" lon="127.561982"><ele>1383.5</ele></trkpt>
      <trkpt lat="35.303654" lon="127.561765"><ele>1376.6</ele></trkpt>
      <trkpt lat="35.303547" lon="127.561415"><ele>1370.6</ele></trkpt>
      <trkpt lat="35.303026" lon="127.560410"><ele>1333.7</ele></trkpt>
      <trkpt lat="35.303007" lon="127.560089"><ele>1326.6</ele></trkpt>
      <trkpt lat="35.302887" lon="127.559476"><ele>1320.3</ele></trkpt>
      <trkpt lat="35.302670" lon="127.558721"><ele>1309.6</ele></trkpt>
      <trkpt lat="35.302205" lon="127.557702"><ele>1303.3</ele></trkpt>
      <trkpt lat="35.301848" lon="127.557124"><ele>1317.8</ele></trkpt>
      <trkpt lat="35.301609" lon="127.556870"><ele>1324.9</ele></trkpt>
      <trkpt lat="35.301398" lon="127.556551"><ele>1329.2</ele></trkpt>
      <trkpt lat="35.301194" lon="127.556162"><ele>1335.0</ele></trkpt>
      <trkpt lat="35.301016" lon="127.555618"><ele>1335.9</ele></trkpt>
      <trkpt lat="35.300968" lon="127.556122"><ele>1334.0</ele></trkpt>
      <trkpt lat="35.300616" lon="127.556494"><ele>1322.2</ele></trkpt>
      <trkpt lat="35.300454" lon="127.556589"><ele>1312.7</ele></trkpt>
    </trkseg>
  </trk>
</gpx>
