<?xml version="1.0" encoding="UTF-8"?>
<gpx version="1.1" creator="kr-100-mountains route-harvester"
     xmlns="http://www.topografix.com/GPX/1/1"
     xmlns:k100="https://github.com/jay-jang/kr-100-mountains/ns/1"
     xmlns:xsi="http://www.w3.org/2001/XMLSchema-instance"
     xsi:schemaLocation="http://www.topografix.com/GPX/1/1 http://www.topografix.com/GPX/1/1/gpx.xsd">
  <metadata>
    <name>반야봉 · 성삼재-노고단-반야봉 코스 (대안 1) (OSM 계산 경로)</name>
    <desc>실제 GPS 기록이 아닙니다. OpenStreetMap에 등록된 등산로 선형 위에서 계산한 경로이며, 현장 통제·훼손·출입 제한·계절 통제를 반영하지 않을 수 있습니다. 산행 전 공식 안내를 확인하세요.</desc>
    <time>2026-08-04T05:30:09.102Z</time>
    <link href="https://www.openstreetmap.org/copyright"><text>© OpenStreetMap contributors (ODbL 1.0)</text></link>
    <link href="https://registry.opendata.aws/terrain-tiles/"><text>Elevation: SRTM 1 arc-second (NASA/USGS) via AWS Terrain Tiles</text></link>
    <extensions>
      <k100:provenance>osm-routed</k100:provenance>
      <k100:not_a_recorded_track>true</k100:not_a_recorded_track>
      <k100:mountain_id>banyabong-jirisan</k100:mountain_id>
      <k100:mountain_name>반야봉(지리산)</k100:mountain_name>
      <k100:route_id>banyabong-jirisan-53476b25</k100:route_id>
      <k100:route_index>1</k100:route_index>
      <k100:route_name>성삼재-노고단-반야봉 코스</k100:route_name>
      <k100:variant>1</k100:variant>
      <k100:source>OpenStreetMap via Overpass API</k100:source>
      <k100:license>ODbL-1.0</k100:license>
      <k100:attribution>© OpenStreetMap contributors</k100:attribution>
      <k100:elevation_source>SRTM 1 arc-second (NASA/USGS) — AWS Terrain Tiles 배포본. 지형 DEM 추정 고도이며 실측 아님</k100:elevation_source>
      <k100:algorithm>dijkstra-grid-v1</k100:algorithm>
      <k100:osm_snapshot>2026-08-04</k100:osm_snapshot>
      <k100:snap_trailhead_m>23</k100:snap_trailhead_m>
      <k100:snap_summit_m>195</k100:snap_summit_m>
      <k100:validation_score>82</k100:validation_score>
      <k100:validation_status>accepted</k100:validation_status>
    </extensions>
  </metadata>
  <trk>
    <name>반야봉 · 성삼재-노고단-반야봉 코스 (대안 1) (OSM 계산 경로)</name>
    <desc>실제 GPS 기록이 아닙니다. OpenStreetMap에 등록된 등산로 선형 위에서 계산한 경로이며, 현장 통제·훼손·출입 제한·계절 통제를 반영하지 않을 수 있습니다. 산행 전 공식 안내를 확인하세요.</desc>
    <trkseg>
      <trkpt lat="35.306418" lon="127.510778"><ele>1086.3</ele></trkpt>
      <trkpt lat="35.306696" lon="127.510593"><ele>1083.7</ele></trkpt>
      <trkpt lat="35.306737" lon="127.510475"><ele>1082.1</ele></trkpt>
      <trkpt lat="35.307096" lon="127.510549"><ele>1084.2</ele></trkpt>
      <trkpt lat="35.307288" lon="127.510658"><ele>1082.5</ele></trkpt>
      <trkpt lat="35.307350" lon="127.511047"><ele>1076.5</ele></trkpt>
      <trkpt lat="35.307266" lon="127.511433"><ele>1064.6</ele></trkpt>
      <trkpt lat="35.307411" lon="127.511550"><ele>1059.9</ele></trkpt>
      <trkpt lat="35.307403" lon="127.511705"><ele>1053.8</ele></trkpt>
      <trkpt lat="35.308231" lon="127.512519"><ele>1027.6</ele></trkpt>
      <trkpt lat="35.308578" lon="127.512992"><ele>1022.6</ele></trkpt>
      <trkpt lat="35.309028" lon="127.513397"><ele>1009.1</ele></trkpt>
      <trkpt lat="35.309200" lon="127.513687"><ele>1001.1</ele></trkpt>
      <trkpt lat="35.310070" lon="127.514198"><ele>988.3</ele></trkpt>
      <trkpt lat="35.310489" lon="127.514640"><ele>982.7</ele></trkpt>
      <trkpt lat="35.310710" lon="127.514701"><ele>982.7</ele></trkpt>
      <trkpt lat="35.310840" lon="127.514968"><ele>975.9</ele></trkpt>
      <trkpt lat="35.311088" lon="127.515213"><ele>969.1</ele></trkpt>
      <trkpt lat="35.311401" lon="127.515411"><ele>963.3</ele></trkpt>
      <trkpt lat="35.311759" lon="127.515998"><ele>954.0</ele></trkpt>
      <trkpt lat="35.312488" lon="127.516670"><ele>944.0</ele></trkpt>
      <trkpt lat="35.312961" lon="127.517669"><ele>930.2</ele></trkpt>
      <trkpt lat="35.313129" lon="127.518386"><ele>921.4</ele></trkpt>
      <trkpt lat="35.313381" lon="127.519088"><ele>909.3</ele></trkpt>
      <trkpt lat="35.313430" lon="127.519836"><ele>900.6</ele></trkpt>
      <trkpt lat="35.313568" lon="127.520111"><ele>896.8</ele></trkpt>
      <trkpt lat="35.313980" lon="127.520660"><ele>890.9</ele></trkpt>
      <trkpt lat="35.314231" lon="127.521347"><ele>882.9</ele></trkpt>
      <trkpt lat="35.314300" lon="127.521759"><ele>875.5</ele></trkpt>
      <trkpt lat="35.314441" lon="127.522163"><ele>870.5</ele></trkpt>
      <trkpt lat="35.314838" lon="127.522689"><ele>861.6</ele></trkpt>
      <trkpt lat="35.315109" lon="127.522903"><ele>863.3</ele></trkpt>
      <trkpt lat="35.315429" lon="127.523422"><ele>858.6</ele></trkpt>
      <trkpt lat="35.315479" lon="127.523696"><ele>851.7</ele></trkpt>
      <trkpt lat="35.315478" lon="127.524403"><ele>836.4</ele></trkpt>
      <trkpt lat="35.315670" lon="127.524696"><ele>837.3</ele></trkpt>
      <trkpt lat="35.315761" lon="127.525077"><ele>831.1</ele></trkpt>
      <trkpt lat="35.315799" lon="127.525520"><ele>823.4</ele></trkpt>
      <trkpt lat="35.315750" lon="127.525810"><ele>822.7</ele></trkpt>
      <trkpt lat="35.315921" lon="127.526237"><ele>818.8</ele></trkpt>
      <trkpt lat="35.316410" lon="127.526847"><ele>810.9</ele></trkpt>
      <trkpt lat="35.316761" lon="127.527572"><ele>808.3</ele></trkpt>
      <trkpt lat="35.317039" lon="127.527977"><ele>807.4</ele></trkpt>
      <trkpt lat="35.317279" lon="127.528671"><ele>793.4</ele></trkpt>
      <trkpt lat="35.317489" lon="127.528900"><ele>784.7</ele></trkpt>
      <trkpt lat="35.317970" lon="127.528961"><ele>786.7</ele></trkpt>
      <trkpt lat="35.318384" lon="127.529116"><ele>778.3</ele></trkpt>
      <trkpt lat="35.318624" lon="127.529347"><ele>770.7</ele></trkpt>
      <trkpt lat="35.318851" lon="127.529411"><ele>770.3</ele></trkpt>
      <trkpt lat="35.319155" lon="127.529610"><ele>767.3</ele></trkpt>
      <trkpt lat="35.318693" lon="127.529490"><ele>767.0</ele></trkpt>
      <trkpt lat="35.318405" lon="127.529583"><ele>765.3</ele></trkpt>
      <trkpt lat="35.317697" lon="127.530082"><ele>770.3</ele></trkpt>
      <trkpt lat="35.317477" lon="127.530559"><ele>772.1</ele></trkpt>
      <trkpt lat="35.317112" lon="127.530883"><ele>774.6</ele></trkpt>
      <trkpt lat="35.316904" lon="127.531197"><ele>778.4</ele></trkpt>
      <trkpt lat="35.316116" lon="127.532860"><ele>808.9</ele></trkpt>
      <trkpt lat="35.315741" lon="127.533284"><ele>814.7</ele></trkpt>
      <trkpt lat="35.315746" lon="127.533660"><ele>827.8</ele></trkpt>
      <trkpt lat="35.315408" lon="127.533816"><ele>825.2</ele></trkpt>
      <trkpt lat="35.315050" lon="127.534152"><ele>828.1</ele></trkpt>
      <trkpt lat="35.314826" lon="127.534560"><ele>829.8</ele></trkpt>
      <trkpt lat="35.314897" lon="127.535575"><ele>846.0</ele></trkpt>
      <trkpt lat="35.314182" lon="127.536846"><ele>851.2</ele></trkpt>
      <trkpt lat="35.313825" lon="127.537833"><ele>851.6</ele></trkpt>
      <trkpt lat="35.313874" lon="127.538459"><ele>852.8</ele></trkpt>
      <trkpt lat="35.314238" lon="127.538837"><ele>866.9</ele></trkpt>
      <trkpt lat="35.314564" lon="127.539686"><ele>864.9</ele></trkpt>
      <trkpt lat="35.314577" lon="127.540222"><ele>867.9</ele></trkpt>
      <trkpt lat="35.314523" lon="127.540811"><ele>877.0</ele></trkpt>
      <trkpt lat="35.314554" lon="127.541807"><ele>885.6</ele></trkpt>
      <trkpt lat="35.313946" lon="127.542469"><ele>892.7</ele></trkpt>
      <trkpt lat="35.313794" lon="127.542914"><ele>892.2</ele></trkpt>
      <trkpt lat="35.313573" lon="127.543369"><ele>902.4</ele></trkpt>
      <trkpt lat="35.313331" lon="127.543623"><ele>905.1</ele></trkpt>
      <trkpt lat="35.313029" lon="127.544125"><ele>907.4</ele></trkpt>
      <trkpt lat="35.312632" lon="127.545033"><ele>922.0</ele></trkpt>
      <trkpt lat="35.312386" lon="127.545291"><ele>929.7</ele></trkpt>
      <trkpt lat="35.312175" lon="127.545621"><ele>932.7</ele></trkpt>
      <trkpt lat="35.311588" lon="127.547638"><ele>968.0</ele></trkpt>
      <trkpt lat="35.311345" lon="127.547854"><ele>967.2</ele></trkpt>
      <trkpt lat="35.311079" lon="127.548653"><ele>977.8</ele></trkpt>
      <trkpt lat="35.311010" lon="127.549413"><ele>987.4</ele></trkpt>
      <trkpt lat="35.310793" lon="127.549693"><ele>989.1</ele></trkpt>
      <trkpt lat="35.310365" lon="127.549660"><ele>998.2</ele></trkpt>
      <trkpt lat="35.309794" lon="127.549967"><ele>1015.3</ele></trkpt>
      <trkpt lat="35.309033" lon="127.550676"><ele>1043.7</ele></trkpt>
      <trkpt lat="35.308558" lon="127.550956"><ele>1057.0</ele></trkpt>
      <trkpt lat="35.308380" lon="127.550958"><ele>1065.5</ele></trkpt>
      <trkpt lat="35.308292" lon="127.551222"><ele>1065.3</ele></trkpt>
      <trkpt lat="35.307970" lon="127.551772"><ele>1072.3</ele></trkpt>
      <trkpt lat="35.307514" lon="127.552415"><ele>1085.1</ele></trkpt>
      <trkpt lat="35.306422" lon="127.553231"><ele>1126.9</ele></trkpt>
      <trkpt lat="35.305539" lon="127.554226"><ele>1165.9</ele></trkpt>
      <trkpt lat="35.304895" lon="127.555128"><ele>1190.4</ele></trkpt>
      <trkpt lat="35.304271" lon="127.556157"><ele>1236.6</ele></trkpt>
      <trkpt lat="35.303907" lon="127.557179"><ele>1267.9</ele></trkpt>
      <trkpt lat="35.303962" lon="127.557637"><ele>1278.4</ele></trkpt>
      <trkpt lat="35.303760" lon="127.558054"><ele>1287.8</ele></trkpt>
      <trkpt lat="35.303652" lon="127.558522"><ele>1299.8</ele></trkpt>
      <trkpt lat="35.303179" lon="127.559754"><ele>1324.1</ele></trkpt>
      <trkpt lat="35.303007" lon="127.560089"><ele>1326.6</ele></trkpt>
      <trkpt lat="35.302887" lon="127.559476"><ele>1320.3</ele></trkpt>
      <trkpt lat="35.302670" lon="127.558721"><ele>1309.6</ele></trkpt>
      <trkpt lat="35.302205" lon="127.557702"><ele>1303.3</ele></trkpt>
      <trkpt lat="35.301848" lon="127.557124"><ele>1317.8</ele></trkpt>
      <trkpt lat="35.301609" lon="127.556870"><ele>1324.9</ele></trkpt>
      <trkpt lat="35.301398" lon="127.556551"><ele>1329.2</ele></trkpt>
      <trkpt lat="35.301194" lon="127.556162"><ele>1335.0</ele></trkpt>
      <trkpt lat="35.301016" lon="127.555618"><ele>1335.9</ele></trkpt>
      <trkpt lat="35.300968" lon="127.556122"><ele>1334.0</ele></trkpt>
      <trkpt lat="35.300616" lon="127.556494"><ele>1322.2</ele></trkpt>
      <trkpt lat="35.300454" lon="127.556589"><ele>1312.7</ele></trkpt>
    </trkseg>
  </trk>
</gpx>
