<?xml version="1.0" encoding="UTF-8"?>
<gpx version="1.1" creator="kr-100-mountains route-harvester"
     xmlns="http://www.topografix.com/GPX/1/1"
     xmlns:k100="https://github.com/jay-jang/kr-100-mountains/ns/1"
     xmlns:xsi="http://www.w3.org/2001/XMLSchema-instance"
     xsi:schemaLocation="http://www.topografix.com/GPX/1/1 http://www.topografix.com/GPX/1/1/gpx.xsd">
  <metadata>
    <name>반야봉 · 성삼재-노고단-반야봉 코스 (OSM 계산 경로)</name>
    <desc>실제 GPS 기록이 아닙니다. OpenStreetMap에 등록된 등산로 선형 위에서 계산한 경로이며, 현장 통제·훼손·출입 제한·계절 통제를 반영하지 않을 수 있습니다. 산행 전 공식 안내를 확인하세요.</desc>
    <time>2026-08-04T05:30:09.102Z</time>
    <link href="https://www.openstreetmap.org/copyright"><text>© OpenStreetMap contributors (ODbL 1.0)</text></link>
    <link href="https://registry.opendata.aws/terrain-tiles/"><text>Elevation: SRTM 1 arc-second (NASA/USGS) via AWS Terrain Tiles</text></link>
    <extensions>
      <k100:provenance>osm-routed</k100:provenance>
      <k100:not_a_recorded_track>true</k100:not_a_recorded_track>
      <k100:mountain_id>banyabong-jirisan</k100:mountain_id>
      <k100:mountain_name>반야봉(지리산)</k100:mountain_name>
      <k100:route_id>banyabong-jirisan-53476b25</k100:route_id>
      <k100:route_index>1</k100:route_index>
      <k100:route_name>성삼재-노고단-반야봉 코스</k100:route_name>
      <k100:variant>0</k100:variant>
      <k100:source>OpenStreetMap via Overpass API</k100:source>
      <k100:license>ODbL-1.0</k100:license>
      <k100:attribution>© OpenStreetMap contributors</k100:attribution>
      <k100:elevation_source>SRTM 1 arc-second (NASA/USGS) — AWS Terrain Tiles 배포본. 지형 DEM 추정 고도이며 실측 아님</k100:elevation_source>
      <k100:algorithm>dijkstra-grid-v1</k100:algorithm>
      <k100:osm_snapshot>2026-08-04</k100:osm_snapshot>
      <k100:snap_trailhead_m>23</k100:snap_trailhead_m>
      <k100:snap_summit_m>195</k100:snap_summit_m>
      <k100:validation_score>89</k100:validation_score>
      <k100:validation_status>accepted</k100:validation_status>
    </extensions>
  </metadata>
  <trk>
    <name>반야봉 · 성삼재-노고단-반야봉 코스 (OSM 계산 경로)</name>
    <desc>실제 GPS 기록이 아닙니다. OpenStreetMap에 등록된 등산로 선형 위에서 계산한 경로이며, 현장 통제·훼손·출입 제한·계절 통제를 반영하지 않을 수 있습니다. 산행 전 공식 안내를 확인하세요.</desc>
    <trkseg>
      <trkpt lat="35.306418" lon="127.510778"><ele>1086.3</ele></trkpt>
      <trkpt lat="35.306055" lon="127.511085"><ele>1091.4</ele></trkpt>
      <trkpt lat="35.305903" lon="127.511044"><ele>1095.4</ele></trkpt>
      <trkpt lat="35.305537" lon="127.511314"><ele>1107.0</ele></trkpt>
      <trkpt lat="35.305400" lon="127.511515"><ele>1107.1</ele></trkpt>
      <trkpt lat="35.305148" lon="127.511729"><ele>1111.4</ele></trkpt>
      <trkpt lat="35.305022" lon="127.511940"><ele>1112.2</ele></trkpt>
      <trkpt lat="35.304869" lon="127.512429"><ele>1106.8</ele></trkpt>
      <trkpt lat="35.304728" lon="127.513509"><ele>1109.9</ele></trkpt>
      <trkpt lat="35.304322" lon="127.514030"><ele>1114.1</ele></trkpt>
      <trkpt lat="35.303977" lon="127.514220"><ele>1118.1</ele></trkpt>
      <trkpt lat="35.303628" lon="127.514643"><ele>1119.5</ele></trkpt>
      <trkpt lat="35.302962" lon="127.514773"><ele>1128.9</ele></trkpt>
      <trkpt lat="35.302529" lon="127.514955"><ele>1133.1</ele></trkpt>
      <trkpt lat="35.302287" lon="127.515192"><ele>1136.6</ele></trkpt>
      <trkpt lat="35.301985" lon="127.515663"><ele>1140.3</ele></trkpt>
      <trkpt lat="35.300996" lon="127.516300"><ele>1161.2</ele></trkpt>
      <trkpt lat="35.300005" lon="127.517276"><ele>1175.7</ele></trkpt>
      <trkpt lat="35.299549" lon="127.517613"><ele>1185.0</ele></trkpt>
      <trkpt lat="35.298947" lon="127.518260"><ele>1190.9</ele></trkpt>
      <trkpt lat="35.297933" lon="127.518701"><ele>1214.8</ele></trkpt>
      <trkpt lat="35.297696" lon="127.518882"><ele>1218.2</ele></trkpt>
      <trkpt lat="35.297246" lon="127.519454"><ele>1225.8</ele></trkpt>
      <trkpt lat="35.296886" lon="127.520087"><ele>1239.4</ele></trkpt>
      <trkpt lat="35.296789" lon="127.520376"><ele>1242.1</ele></trkpt>
      <trkpt lat="35.296705" lon="127.520946"><ele>1245.5</ele></trkpt>
      <trkpt lat="35.296494" lon="127.521177"><ele>1250.7</ele></trkpt>
      <trkpt lat="35.296408" lon="127.521174"><ele>1252.3</ele></trkpt>
      <trkpt lat="35.296296" lon="127.521068"><ele>1254.3</ele></trkpt>
      <trkpt lat="35.296058" lon="127.521151"><ele>1260.9</ele></trkpt>
      <trkpt lat="35.295950" lon="127.521038"><ele>1259.8</ele></trkpt>
      <trkpt lat="35.295630" lon="127.521880"><ele>1272.0</ele></trkpt>
      <trkpt lat="35.295543" lon="127.523031"><ele>1288.6</ele></trkpt>
      <trkpt lat="35.295551" lon="127.523564"><ele>1291.8</ele></trkpt>
      <trkpt lat="35.295660" lon="127.523724"><ele>1293.5</ele></trkpt>
      <trkpt lat="35.295835" lon="127.523649"><ele>1290.0</ele></trkpt>
      <trkpt lat="35.296110" lon="127.523742"><ele>1293.3</ele></trkpt>
      <trkpt lat="35.296106" lon="127.523864"><ele>1296.3</ele></trkpt>
      <trkpt lat="35.296410" lon="127.524661"><ele>1319.4</ele></trkpt>
      <trkpt lat="35.296282" lon="127.525781"><ele>1339.9</ele></trkpt>
      <trkpt lat="35.295976" lon="127.526416"><ele>1349.1</ele></trkpt>
      <trkpt lat="35.296023" lon="127.526569"><ele>1352.9</ele></trkpt>
      <trkpt lat="35.296025" lon="127.526960"><ele>1361.3</ele></trkpt>
      <trkpt lat="35.296046" lon="127.527036"><ele>1362.7</ele></trkpt>
      <trkpt lat="35.296417" lon="127.527453"><ele>1372.0</ele></trkpt>
      <trkpt lat="35.296531" lon="127.527866"><ele>1381.4</ele></trkpt>
      <trkpt lat="35.296730" lon="127.528100"><ele>1390.9</ele></trkpt>
      <trkpt lat="35.296768" lon="127.528462"><ele>1401.6</ele></trkpt>
      <trkpt lat="35.296866" lon="127.528672"><ele>1408.9</ele></trkpt>
      <trkpt lat="35.296830" lon="127.529151"><ele>1419.7</ele></trkpt>
      <trkpt lat="35.296874" lon="127.529772"><ele>1424.2</ele></trkpt>
      <trkpt lat="35.296745" lon="127.530107"><ele>1421.3</ele></trkpt>
      <trkpt lat="35.296669" lon="127.530490"><ele>1416.9</ele></trkpt>
      <trkpt lat="35.295732" lon="127.532302"><ele>1416.6</ele></trkpt>
      <trkpt lat="35.295480" lon="127.533008"><ele>1418.5</ele></trkpt>
      <trkpt lat="35.295387" lon="127.534211"><ele>1407.0</ele></trkpt>
      <trkpt lat="35.295420" lon="127.535346"><ele>1403.4</ele></trkpt>
      <trkpt lat="35.295539" lon="127.535993"><ele>1395.1</ele></trkpt>
      <trkpt lat="35.295757" lon="127.536738"><ele>1395.5</ele></trkpt>
      <trkpt lat="35.296143" lon="127.537748"><ele>1396.0</ele></trkpt>
      <trkpt lat="35.296040" lon="127.538246"><ele>1395.1</ele></trkpt>
      <trkpt lat="35.295859" lon="127.538685"><ele>1392.7</ele></trkpt>
      <trkpt lat="35.295663" lon="127.539701"><ele>1389.9</ele></trkpt>
      <trkpt lat="35.295224" lon="127.540951"><ele>1378.6</ele></trkpt>
      <trkpt lat="35.295188" lon="127.541172"><ele>1374.4</ele></trkpt>
      <trkpt lat="35.295399" lon="127.541758"><ele>1370.8</ele></trkpt>
      <trkpt lat="35.295434" lon="127.542042"><ele>1371.2</ele></trkpt>
      <trkpt lat="35.295616" lon="127.542572"><ele>1371.9</ele></trkpt>
      <trkpt lat="35.295719" lon="127.543081"><ele>1373.0</ele></trkpt>
      <trkpt lat="35.296112" lon="127.544470"><ele>1384.6</ele></trkpt>
      <trkpt lat="35.296234" lon="127.545456"><ele>1378.7</ele></trkpt>
      <trkpt lat="35.296170" lon="127.545721"><ele>1378.8</ele></trkpt>
      <trkpt lat="35.296146" lon="127.546123"><ele>1383.0</ele></trkpt>
      <trkpt lat="35.296204" lon="127.546423"><ele>1390.3</ele></trkpt>
      <trkpt lat="35.296507" lon="127.547196"><ele>1399.0</ele></trkpt>
      <trkpt lat="35.296686" lon="127.547443"><ele>1399.1</ele></trkpt>
      <trkpt lat="35.296928" lon="127.547506"><ele>1398.0</ele></trkpt>
      <trkpt lat="35.297743" lon="127.547990"><ele>1382.7</ele></trkpt>
      <trkpt lat="35.298076" lon="127.548109"><ele>1376.2</ele></trkpt>
      <trkpt lat="35.298744" lon="127.548478"><ele>1366.5</ele></trkpt>
      <trkpt lat="35.299257" lon="127.548904"><ele>1367.0</ele></trkpt>
      <trkpt lat="35.299668" lon="127.549399"><ele>1367.0</ele></trkpt>
      <trkpt lat="35.300148" lon="127.550376"><ele>1363.4</ele></trkpt>
      <trkpt lat="35.300332" lon="127.551050"><ele>1356.8</ele></trkpt>
      <trkpt lat="35.300449" lon="127.551689"><ele>1347.5</ele></trkpt>
      <trkpt lat="35.300785" lon="127.552061"><ele>1348.5</ele></trkpt>
      <trkpt lat="35.300914" lon="127.552740"><ele>1350.7</ele></trkpt>
      <trkpt lat="35.300926" lon="127.553139"><ele>1352.0</ele></trkpt>
      <trkpt lat="35.300998" lon="127.553443"><ele>1352.4</ele></trkpt>
      <trkpt lat="35.301204" lon="127.553936"><ele>1347.4</ele></trkpt>
      <trkpt lat="35.301235" lon="127.554156"><ele>1347.3</ele></trkpt>
      <trkpt lat="35.301057" lon="127.554842"><ele>1349.8</ele></trkpt>
      <trkpt lat="35.300968" lon="127.556122"><ele>1334.0</ele></trkpt>
      <trkpt lat="35.300616" lon="127.556494"><ele>1322.2</ele></trkpt>
      <trkpt lat="35.300454" lon="127.556589"><ele>1312.7</ele></trkpt>
    </trkseg>
  </trk>
</gpx>
