<?xml version="1.0" encoding="UTF-8"?>
<gpx version="1.1" creator="kr-100-mountains route-harvester"
     xmlns="http://www.topografix.com/GPX/1/1"
     xmlns:k100="https://github.com/jay-jang/kr-100-mountains/ns/1"
     xmlns:xsi="http://www.w3.org/2001/XMLSchema-instance"
     xsi:schemaLocation="http://www.topografix.com/GPX/1/1 http://www.topografix.com/GPX/1/1/gpx.xsd">
  <metadata>
    <name>반야봉 · 뱀사골-화개재-반야봉 코스 (대안 2) (OSM 계산 경로)</name>
    <desc>실제 GPS 기록이 아닙니다. OpenStreetMap에 등록된 등산로 선형 위에서 계산한 경로이며, 현장 통제·훼손·출입 제한·계절 통제를 반영하지 않을 수 있습니다. 산행 전 공식 안내를 확인하세요.</desc>
    <time>2026-08-04T05:30:09.140Z</time>
    <link href="https://www.openstreetmap.org/copyright"><text>© OpenStreetMap contributors (ODbL 1.0)</text></link>
    <link href="https://registry.opendata.aws/terrain-tiles/"><text>Elevation: SRTM 1 arc-second (NASA/USGS) via AWS Terrain Tiles</text></link>
    <extensions>
      <k100:provenance>osm-routed</k100:provenance>
      <k100:not_a_recorded_track>true</k100:not_a_recorded_track>
      <k100:mountain_id>banyabong-jirisan</k100:mountain_id>
      <k100:mountain_name>반야봉(지리산)</k100:mountain_name>
      <k100:route_id>banyabong-jirisan-984fb4ef</k100:route_id>
      <k100:route_index>2</k100:route_index>
      <k100:route_name>뱀사골-화개재-반야봉 코스</k100:route_name>
      <k100:variant>2</k100:variant>
      <k100:source>OpenStreetMap via Overpass API</k100:source>
      <k100:license>ODbL-1.0</k100:license>
      <k100:attribution>© OpenStreetMap contributors</k100:attribution>
      <k100:elevation_source>SRTM 1 arc-second (NASA/USGS) — AWS Terrain Tiles 배포본. 지형 DEM 추정 고도이며 실측 아님</k100:elevation_source>
      <k100:algorithm>dijkstra-grid-v1</k100:algorithm>
      <k100:osm_snapshot>2026-08-04</k100:osm_snapshot>
      <k100:snap_trailhead_m>46</k100:snap_trailhead_m>
      <k100:snap_summit_m>195</k100:snap_summit_m>
      <k100:validation_score>64</k100:validation_score>
      <k100:validation_status>review</k100:validation_status>
    </extensions>
  </metadata>
  <trk>
    <name>반야봉 · 뱀사골-화개재-반야봉 코스 (대안 2) (OSM 계산 경로)</name>
    <desc>실제 GPS 기록이 아닙니다. OpenStreetMap에 등록된 등산로 선형 위에서 계산한 경로이며, 현장 통제·훼손·출입 제한·계절 통제를 반영하지 않을 수 있습니다. 산행 전 공식 안내를 확인하세요.</desc>
    <trkseg>
      <trkpt lat="35.364923" lon="127.582619"><ele>552.7</ele></trkpt>
      <trkpt lat="35.364860" lon="127.582710"><ele>550.2</ele></trkpt>
      <trkpt lat="35.364812" lon="127.583006"><ele>540.2</ele></trkpt>
      <trkpt lat="35.364561" lon="127.583156"><ele>540.6</ele></trkpt>
      <trkpt lat="35.364306" lon="127.583459"><ele>533.8</ele></trkpt>
      <trkpt lat="35.364131" lon="127.583529"><ele>532.5</ele></trkpt>
      <trkpt lat="35.363132" lon="127.583609"><ele>535.3</ele></trkpt>
      <trkpt lat="35.362937" lon="127.583359"><ele>541.7</ele></trkpt>
      <trkpt lat="35.362550" lon="127.583287"><ele>549.2</ele></trkpt>
      <trkpt lat="35.362375" lon="127.583318"><ele>552.0</ele></trkpt>
      <trkpt lat="35.362209" lon="127.583424"><ele>554.6</ele></trkpt>
      <trkpt lat="35.361905" lon="127.583755"><ele>558.1</ele></trkpt>
      <trkpt lat="35.362326" lon="127.583648"><ele>548.8</ele></trkpt>
      <trkpt lat="35.361926" lon="127.584058"><ele>553.2</ele></trkpt>
      <trkpt lat="35.361894" lon="127.584288"><ele>552.9</ele></trkpt>
      <trkpt lat="35.361717" lon="127.584501"><ele>557.9</ele></trkpt>
      <trkpt lat="35.361684" lon="127.584833"><ele>555.8</ele></trkpt>
      <trkpt lat="35.361577" lon="127.585222"><ele>553.4</ele></trkpt>
      <trkpt lat="35.361468" lon="127.585386"><ele>553.9</ele></trkpt>
      <trkpt lat="35.361357" lon="127.585417"><ele>555.9</ele></trkpt>
      <trkpt lat="35.361358" lon="127.585595"><ele>556.0</ele></trkpt>
      <trkpt lat="35.361662" lon="127.585748"><ele>561.0</ele></trkpt>
      <trkpt lat="35.361826" lon="127.585676"><ele>559.7</ele></trkpt>
      <trkpt lat="35.362083" lon="127.585768"><ele>566.6</ele></trkpt>
      <trkpt lat="35.361856" lon="127.585948"><ele>571.2</ele></trkpt>
      <trkpt lat="35.361667" lon="127.586950"><ele>613.2</ele></trkpt>
      <trkpt lat="35.361583" lon="127.587683"><ele>632.0</ele></trkpt>
      <trkpt lat="35.361450" lon="127.588133"><ele>643.7</ele></trkpt>
      <trkpt lat="35.360783" lon="127.589150"><ele>690.6</ele></trkpt>
      <trkpt lat="35.360617" lon="127.589667"><ele>722.5</ele></trkpt>
      <trkpt lat="35.360667" lon="127.590083"><ele>736.4</ele></trkpt>
      <trkpt lat="35.359800" lon="127.590700"><ele>787.0</ele></trkpt>
      <trkpt lat="35.359083" lon="127.590883"><ele>802.9</ele></trkpt>
      <trkpt lat="35.358650" lon="127.591050"><ele>810.8</ele></trkpt>
      <trkpt lat="35.358200" lon="127.591383"><ele>816.9</ele></trkpt>
      <trkpt lat="35.357867" lon="127.591717"><ele>812.7</ele></trkpt>
      <trkpt lat="35.357700" lon="127.592150"><ele>811.6</ele></trkpt>
      <trkpt lat="35.357317" lon="127.592650"><ele>819.8</ele></trkpt>
      <trkpt lat="35.356683" lon="127.593300"><ele>834.7</ele></trkpt>
      <trkpt lat="35.355200" lon="127.594633"><ele>857.3</ele></trkpt>
      <trkpt lat="35.354700" lon="127.594800"><ele>870.2</ele></trkpt>
      <trkpt lat="35.354333" lon="127.595550"><ele>866.1</ele></trkpt>
      <trkpt lat="35.354083" lon="127.596183"><ele>880.6</ele></trkpt>
      <trkpt lat="35.353983" lon="127.596817"><ele>901.7</ele></trkpt>
      <trkpt lat="35.353633" lon="127.597367"><ele>929.4</ele></trkpt>
      <trkpt lat="35.353133" lon="127.597817"><ele>962.9</ele></trkpt>
      <trkpt lat="35.352217" lon="127.598067"><ele>979.3</ele></trkpt>
      <trkpt lat="35.351817" lon="127.598650"><ele>1003.6</ele></trkpt>
      <trkpt lat="35.351417" lon="127.598883"><ele>1025.7</ele></trkpt>
      <trkpt lat="35.351017" lon="127.599417"><ele>1033.7</ele></trkpt>
      <trkpt lat="35.349567" lon="127.599533"><ele>1070.1</ele></trkpt>
      <trkpt lat="35.348783" lon="127.599850"><ele>1088.6</ele></trkpt>
      <trkpt lat="35.348183" lon="127.599867"><ele>1114.1</ele></trkpt>
      <trkpt lat="35.347100" lon="127.600733"><ele>1117.6</ele></trkpt>
      <trkpt lat="35.346167" lon="127.601383"><ele>1124.9</ele></trkpt>
      <trkpt lat="35.345393" lon="127.602175"><ele>1145.5</ele></trkpt>
      <trkpt lat="35.344683" lon="127.603033"><ele>1169.2</ele></trkpt>
      <trkpt lat="35.344067" lon="127.604033"><ele>1217.8</ele></trkpt>
      <trkpt lat="35.343650" lon="127.604217"><ele>1240.2</ele></trkpt>
      <trkpt lat="35.342750" lon="127.604383"><ele>1260.6</ele></trkpt>
      <trkpt lat="35.341567" lon="127.604233"><ele>1311.6</ele></trkpt>
      <trkpt lat="35.340850" lon="127.604467"><ele>1325.2</ele></trkpt>
      <trkpt lat="35.340217" lon="127.604767"><ele>1331.4</ele></trkpt>
      <trkpt lat="35.339633" lon="127.605150"><ele>1352.3</ele></trkpt>
      <trkpt lat="35.339500" lon="127.605500"><ele>1359.0</ele></trkpt>
      <trkpt lat="35.338850" lon="127.605767"><ele>1379.5</ele></trkpt>
      <trkpt lat="35.338367" lon="127.605700"><ele>1395.4</ele></trkpt>
      <trkpt lat="35.337933" lon="127.605833"><ele>1409.6</ele></trkpt>
      <trkpt lat="35.337165" lon="127.606542"><ele>1430.2</ele></trkpt>
      <trkpt lat="35.336222" lon="127.607639"><ele>1430.8</ele></trkpt>
      <trkpt lat="35.334917" lon="127.609333"><ele>1471.4</ele></trkpt>
      <trkpt lat="35.334655" lon="127.609491"><ele>1475.0</ele></trkpt>
      <trkpt lat="35.334583" lon="127.609917"><ele>1482.1</ele></trkpt>
      <trkpt lat="35.333567" lon="127.611533"><ele>1523.4</ele></trkpt>
      <trkpt lat="35.332950" lon="127.612050"><ele>1517.4</ele></trkpt>
      <trkpt lat="35.332200" lon="127.612167"><ele>1516.2</ele></trkpt>
      <trkpt lat="35.331804" lon="127.612092"><ele>1517.4</ele></trkpt>
      <trkpt lat="35.330983" lon="127.611682"><ele>1536.3</ele></trkpt>
      <trkpt lat="35.330167" lon="127.611567"><ele>1553.1</ele></trkpt>
      <trkpt lat="35.329760" lon="127.611808"><ele>1555.7</ele></trkpt>
      <trkpt lat="35.329401" lon="127.612204"><ele>1561.6</ele></trkpt>
      <trkpt lat="35.328289" lon="127.611700"><ele>1561.7</ele></trkpt>
      <trkpt lat="35.327365" lon="127.611454"><ele>1547.3</ele></trkpt>
      <trkpt lat="35.326780" lon="127.610627"><ele>1534.2</ele></trkpt>
      <trkpt lat="35.326264" lon="127.609623"><ele>1530.3</ele></trkpt>
      <trkpt lat="35.326068" lon="127.609050"><ele>1526.8</ele></trkpt>
      <trkpt lat="35.325493" lon="127.608622"><ele>1521.8</ele></trkpt>
      <trkpt lat="35.325154" lon="127.608251"><ele>1530.3</ele></trkpt>
      <trkpt lat="35.324924" lon="127.607760"><ele>1534.1</ele></trkpt>
      <trkpt lat="35.324265" lon="127.606835"><ele>1517.1</ele></trkpt>
      <trkpt lat="35.323968" lon="127.606760"><ele>1506.0</ele></trkpt>
      <trkpt lat="35.323723" lon="127.606776"><ele>1498.5</ele></trkpt>
      <trkpt lat="35.323479" lon="127.606662"><ele>1489.6</ele></trkpt>
      <trkpt lat="35.322914" lon="127.606593"><ele>1475.5</ele></trkpt>
      <trkpt lat="35.322478" lon="127.606430"><ele>1469.5</ele></trkpt>
      <trkpt lat="35.321481" lon="127.606301"><ele>1455.2</ele></trkpt>
      <trkpt lat="35.321037" lon="127.606469"><ele>1453.0</ele></trkpt>
      <trkpt lat="35.320563" lon="127.606426"><ele>1448.7</ele></trkpt>
      <trkpt lat="35.319844" lon="127.606061"><ele>1460.1</ele></trkpt>
      <trkpt lat="35.319577" lon="127.606000"><ele>1463.3</ele></trkpt>
      <trkpt lat="35.319296" lon="127.605666"><ele>1464.7</ele></trkpt>
      <trkpt lat="35.318970" lon="127.605454"><ele>1468.5</ele></trkpt>
      <trkpt lat="35.318651" lon="127.605134"><ele>1470.2</ele></trkpt>
      <trkpt lat="35.318218" lon="127.604584"><ele>1457.4</ele></trkpt>
      <trkpt lat="35.318259" lon="127.604368"><ele>1450.1</ele></trkpt>
      <trkpt lat="35.318176" lon="127.603653"><ele>1425.9</ele></trkpt>
      <trkpt lat="35.317926" lon="127.603137"><ele>1409.4</ele></trkpt>
      <trkpt lat="35.317797" lon="127.602712"><ele>1406.8</ele></trkpt>
      <trkpt lat="35.317335" lon="127.602208"><ele>1402.6</ele></trkpt>
      <trkpt lat="35.317173" lon="127.601888"><ele>1401.4</ele></trkpt>
      <trkpt lat="35.316436" lon="127.600771"><ele>1417.5</ele></trkpt>
      <trkpt lat="35.316203" lon="127.600368"><ele>1422.5</ele></trkpt>
      <trkpt lat="35.316071" lon="127.599873"><ele>1425.6</ele></trkpt>
      <trkpt lat="35.315615" lon="127.599115"><ele>1443.9</ele></trkpt>
      <trkpt lat="35.315489" lon="127.598967"><ele>1448.2</ele></trkpt>
      <trkpt lat="35.314963" lon="127.598684"><ele>1458.2</ele></trkpt>
      <trkpt lat="35.314819" lon="127.598428"><ele>1460.0</ele></trkpt>
      <trkpt lat="35.314753" lon="127.597992"><ele>1466.5</ele></trkpt>
      <trkpt lat="35.314577" lon="127.597451"><ele>1476.2</ele></trkpt>
      <trkpt lat="35.314106" lon="127.596400"><ele>1507.3</ele></trkpt>
      <trkpt lat="35.313931" lon="127.596205"><ele>1514.7</ele></trkpt>
      <trkpt lat="35.313800" lon="127.595830"><ele>1525.3</ele></trkpt>
      <trkpt lat="35.313737" lon="127.595769"><ele>1525.8</ele></trkpt>
      <trkpt lat="35.313646" lon="127.595795"><ele>1526.1</ele></trkpt>
      <trkpt lat="35.313556" lon="127.595684"><ele>1526.9</ele></trkpt>
      <trkpt lat="35.313051" lon="127.595526"><ele>1522.9</ele></trkpt>
      <trkpt lat="35.312404" lon="127.594751"><ele>1502.2</ele></trkpt>
      <trkpt lat="35.312094" lon="127.594192"><ele>1486.1</ele></trkpt>
      <trkpt lat="35.312013" lon="127.593591"><ele>1475.2</ele></trkpt>
      <trkpt lat="35.311771" lon="127.593232"><ele>1466.9</ele></trkpt>
      <trkpt lat="35.311684" lon="127.592747"><ele>1458.6</ele></trkpt>
      <trkpt lat="35.311552" lon="127.592345"><ele>1442.2</ele></trkpt>
      <trkpt lat="35.311458" lon="127.591408"><ele>1418.3</ele></trkpt>
      <trkpt lat="35.311159" lon="127.590306"><ele>1396.8</ele></trkpt>
      <trkpt lat="35.311060" lon="127.590090"><ele>1390.8</ele></trkpt>
      <trkpt lat="35.311056" lon="127.589742"><ele>1384.0</ele></trkpt>
      <trkpt lat="35.310796" lon="127.589371"><ele>1377.4</ele></trkpt>
      <trkpt lat="35.310482" lon="127.589082"><ele>1365.9</ele></trkpt>
      <trkpt lat="35.310287" lon="127.588758"><ele>1356.7</ele></trkpt>
      <trkpt lat="35.310170" lon="127.588430"><ele>1349.8</ele></trkpt>
      <trkpt lat="35.310093" lon="127.587755"><ele>1341.9</ele></trkpt>
      <trkpt lat="35.310197" lon="127.587392"><ele>1338.8</ele></trkpt>
      <trkpt lat="35.310008" lon="127.586915"><ele>1335.5</ele></trkpt>
      <trkpt lat="35.309681" lon="127.586553"><ele>1330.6</ele></trkpt>
      <trkpt lat="35.309176" lon="127.585814"><ele>1331.8</ele></trkpt>
      <trkpt lat="35.308951" lon="127.585374"><ele>1331.6</ele></trkpt>
      <trkpt lat="35.309014" lon="127.584702"><ele>1321.1</ele></trkpt>
      <trkpt lat="35.309162" lon="127.584227"><ele>1314.8</ele></trkpt>
      <trkpt lat="35.309121" lon="127.583973"><ele>1315.3</ele></trkpt>
      <trkpt lat="35.309011" lon="127.583847"><ele>1316.7</ele></trkpt>
      <trkpt lat="35.309033" lon="127.583093"><ele>1328.9</ele></trkpt>
      <trkpt lat="35.309146" lon="127.582545"><ele>1339.7</ele></trkpt>
      <trkpt lat="35.309237" lon="127.582459"><ele>1341.6</ele></trkpt>
      <trkpt lat="35.309382" lon="127.582429"><ele>1342.2</ele></trkpt>
      <trkpt lat="35.309529" lon="127.582280"><ele>1342.9</ele></trkpt>
      <trkpt lat="35.309606" lon="127.582081"><ele>1346.1</ele></trkpt>
      <trkpt lat="35.309636" lon="127.581926"><ele>1350.9</ele></trkpt>
      <trkpt lat="35.309595" lon="127.581189"><ele>1385.5</ele></trkpt>
      <trkpt lat="35.309897" lon="127.580450"><ele>1420.1</ele></trkpt>
      <trkpt lat="35.309942" lon="127.579422"><ele>1446.3</ele></trkpt>
      <trkpt lat="35.309875" lon="127.579294"><ele>1447.9</ele></trkpt>
      <trkpt lat="35.309431" lon="127.578861"><ele>1452.2</ele></trkpt>
      <trkpt lat="35.309416" lon="127.578412"><ele>1463.7</ele></trkpt>
      <trkpt lat="35.309333" lon="127.578299"><ele>1466.8</ele></trkpt>
      <trkpt lat="35.309095" lon="127.578180"><ele>1467.0</ele></trkpt>
      <trkpt lat="35.309013" lon="127.577859"><ele>1473.2</ele></trkpt>
      <trkpt lat="35.308790" lon="127.577452"><ele>1474.9</ele></trkpt>
      <trkpt lat="35.309001" lon="127.577351"><ele>1481.0</ele></trkpt>
      <trkpt lat="35.309392" lon="127.576585"><ele>1474.6</ele></trkpt>
      <trkpt lat="35.309663" lon="127.576171"><ele>1466.6</ele></trkpt>
      <trkpt lat="35.309925" lon="127.575871"><ele>1459.4</ele></trkpt>
      <trkpt lat="35.310009" lon="127.575705"><ele>1459.4</ele></trkpt>
      <trkpt lat="35.310145" lon="127.575616"><ele>1459.6</ele></trkpt>
      <trkpt lat="35.310147" lon="127.575464"><ele>1461.6</ele></trkpt>
      <trkpt lat="35.310460" lon="127.574840"><ele>1474.7</ele></trkpt>
      <trkpt lat="35.310572" lon="127.574728"><ele>1480.2</ele></trkpt>
      <trkpt lat="35.310690" lon="127.574192"><ele>1496.2</ele></trkpt>
      <trkpt lat="35.310700" lon="127.573918"><ele>1500.0</ele></trkpt>
      <trkpt lat="35.311025" lon="127.573251"><ele>1526.3</ele></trkpt>
      <trkpt lat="35.311155" lon="127.572752"><ele>1539.4</ele></trkpt>
      <trkpt lat="35.311334" lon="127.572288"><ele>1554.4</ele></trkpt>
      <trkpt lat="35.311184" lon="127.572143"><ele>1546.1</ele></trkpt>
      <trkpt lat="35.311021" lon="127.571851"><ele>1534.0</ele></trkpt>
      <trkpt lat="35.310865" lon="127.571423"><ele>1520.7</ele></trkpt>
      <trkpt lat="35.310603" lon="127.571220"><ele>1506.5</ele></trkpt>
      <trkpt lat="35.310156" lon="127.570501"><ele>1481.0</ele></trkpt>
      <trkpt lat="35.309984" lon="127.570386"><ele>1472.4</ele></trkpt>
      <trkpt lat="35.309897" lon="127.570096"><ele>1466.3</ele></trkpt>
      <trkpt lat="35.309590" lon="127.569722"><ele>1455.0</ele></trkpt>
      <trkpt lat="35.309725" lon="127.569751"><ele>1456.4</ele></trkpt>
      <trkpt lat="35.309823" lon="127.569689"><ele>1458.0</ele></trkpt>
      <trkpt lat="35.309972" lon="127.569462"><ele>1454.2</ele></trkpt>
      <trkpt lat="35.309987" lon="127.569191"><ele>1443.0</ele></trkpt>
      <trkpt lat="35.310350" lon="127.568388"><ele>1422.3</ele></trkpt>
      <trkpt lat="35.310236" lon="127.567987"><ele>1405.2</ele></trkpt>
      <trkpt lat="35.310357" lon="127.567664"><ele>1395.1</ele></trkpt>
      <trkpt lat="35.310008" lon="127.566704"><ele>1363.5</ele></trkpt>
      <trkpt lat="35.309773" lon="127.566468"><ele>1353.8</ele></trkpt>
      <trkpt lat="35.309673" lon="127.566049"><ele>1341.5</ele></trkpt>
      <trkpt lat="35.309452" lon="127.565718"><ele>1332.2</ele></trkpt>
      <trkpt lat="35.309445" lon="127.564889"><ele>1304.6</ele></trkpt>
      <trkpt lat="35.309289" lon="127.564452"><ele>1291.4</ele></trkpt>
      <trkpt lat="35.308925" lon="127.563759"><ele>1275.7</ele></trkpt>
      <trkpt lat="35.308747" lon="127.562899"><ele>1263.2</ele></trkpt>
      <trkpt lat="35.308793" lon="127.562396"><ele>1251.5</ele></trkpt>
      <trkpt lat="35.309116" lon="127.561732"><ele>1240.1</ele></trkpt>
      <trkpt lat="35.308879" lon="127.560570"><ele>1202.6</ele></trkpt>
      <trkpt lat="35.308961" lon="127.560196"><ele>1198.7</ele></trkpt>
      <trkpt lat="35.308902" lon="127.559793"><ele>1196.2</ele></trkpt>
      <trkpt lat="35.309093" lon="127.559648"><ele>1184.8</ele></trkpt>
      <trkpt lat="35.309239" lon="127.559296"><ele>1175.9</ele></trkpt>
      <trkpt lat="35.309298" lon="127.558983"><ele>1174.2</ele></trkpt>
      <trkpt lat="35.309189" lon="127.558727"><ele>1168.5</ele></trkpt>
      <trkpt lat="35.308975" lon="127.557492"><ele>1137.2</ele></trkpt>
      <trkpt lat="35.308797" lon="127.557191"><ele>1134.2</ele></trkpt>
      <trkpt lat="35.308815" lon="127.556878"><ele>1132.3</ele></trkpt>
      <trkpt lat="35.308697" lon="127.556034"><ele>1113.7</ele></trkpt>
      <trkpt lat="35.308742" lon="127.555504"><ele>1105.7</ele></trkpt>
      <trkpt lat="35.308610" lon="127.555213"><ele>1099.6</ele></trkpt>
      <trkpt lat="35.308710" lon="127.554722"><ele>1091.2</ele></trkpt>
      <trkpt lat="35.309271" lon="127.553605"><ele>1069.9</ele></trkpt>
      <trkpt lat="35.309476" lon="127.553359"><ele>1059.3</ele></trkpt>
      <trkpt lat="35.309754" lon="127.553135"><ele>1057.3</ele></trkpt>
      <trkpt lat="35.309941" lon="127.552834"><ele>1052.1</ele></trkpt>
      <trkpt lat="35.310206" lon="127.552225"><ele>1035.1</ele></trkpt>
      <trkpt lat="35.310224" lon="127.551906"><ele>1030.5</ele></trkpt>
      <trkpt lat="35.310474" lon="127.551700"><ele>1025.4</ele></trkpt>
      <trkpt lat="35.310863" lon="127.550529"><ele>1013.3</ele></trkpt>
      <trkpt lat="35.310903" lon="127.549840"><ele>991.8</ele></trkpt>
      <trkpt lat="35.310793" lon="127.549693"><ele>989.1</ele></trkpt>
      <trkpt lat="35.310365" lon="127.549660"><ele>998.2</ele></trkpt>
      <trkpt lat="35.309794" lon="127.549967"><ele>1015.3</ele></trkpt>
      <trkpt lat="35.309033" lon="127.550676"><ele>1043.7</ele></trkpt>
      <trkpt lat="35.308558" lon="127.550956"><ele>1057.0</ele></trkpt>
      <trkpt lat="35.308380" lon="127.550958"><ele>1065.5</ele></trkpt>
      <trkpt lat="35.308292" lon="127.551222"><ele>1065.3</ele></trkpt>
      <trkpt lat="35.307970" lon="127.551772"><ele>1072.3</ele></trkpt>
      <trkpt lat="35.307514" lon="127.552415"><ele>1085.1</ele></trkpt>
      <trkpt lat="35.306422" lon="127.553231"><ele>1126.9</ele></trkpt>
      <trkpt lat="35.305539" lon="127.554226"><ele>1165.9</ele></trkpt>
      <trkpt lat="35.304895" lon="127.555128"><ele>1190.4</ele></trkpt>
      <trkpt lat="35.304271" lon="127.556157"><ele>1236.6</ele></trkpt>
      <trkpt lat="35.303907" lon="127.557179"><ele>1267.9</ele></trkpt>
      <trkpt lat="35.303962" lon="127.557637"><ele>1278.4</ele></trkpt>
      <trkpt lat="35.303760" lon="127.558054"><ele>1287.8</ele></trkpt>
      <trkpt lat="35.303652" lon="127.558522"><ele>1299.8</ele></trkpt>
      <trkpt lat="35.303179" lon="127.559754"><ele>1324.1</ele></trkpt>
      <trkpt lat="35.303007" lon="127.560089"><ele>1326.6</ele></trkpt>
      <trkpt lat="35.302887" lon="127.559476"><ele>1320.3</ele></trkpt>
      <trkpt lat="35.302670" lon="127.558721"><ele>1309.6</ele></trkpt>
      <trkpt lat="35.302205" lon="127.557702"><ele>1303.3</ele></trkpt>
      <trkpt lat="35.301848" lon="127.557124"><ele>1317.8</ele></trkpt>
      <trkpt lat="35.301609" lon="127.556870"><ele>1324.9</ele></trkpt>
      <trkpt lat="35.301398" lon="127.556551"><ele>1329.2</ele></trkpt>
      <trkpt lat="35.301194" lon="127.556162"><ele>1335.0</ele></trkpt>
      <trkpt lat="35.301016" lon="127.555618"><ele>1335.9</ele></trkpt>
      <trkpt lat="35.300968" lon="127.556122"><ele>1334.0</ele></trkpt>
      <trkpt lat="35.300616" lon="127.556494"><ele>1322.2</ele></trkpt>
      <trkpt lat="35.300454" lon="127.556589"><ele>1312.7</ele></trkpt>
    </trkseg>
  </trk>
</gpx>
