<?xml version="1.0" encoding="UTF-8"?>
<gpx version="1.1" creator="kr-100-mountains route-harvester"
     xmlns="http://www.topografix.com/GPX/1/1"
     xmlns:k100="https://github.com/jay-jang/kr-100-mountains/ns/1"
     xmlns:xsi="http://www.w3.org/2001/XMLSchema-instance"
     xsi:schemaLocation="http://www.topografix.com/GPX/1/1 http://www.topografix.com/GPX/1/1/gpx.xsd">
  <metadata>
    <name>소요산 · 소요산역-자재암-의상대-공주봉 순환 코스 (OSM 계산 경로)</name>
    <desc>실제 GPS 기록이 아닙니다. OpenStreetMap에 등록된 등산로 선형 위에서 계산한 경로이며, 현장 통제·훼손·출입 제한·계절 통제를 반영하지 않을 수 있습니다. 산행 전 공식 안내를 확인하세요.</desc>
    <time>2026-08-04T05:17:57.553Z</time>
    <link href="https://www.openstreetmap.org/copyright"><text>© OpenStreetMap contributors (ODbL 1.0)</text></link>
    <link href="https://registry.opendata.aws/terrain-tiles/"><text>Elevation: SRTM 1 arc-second (NASA/USGS) via AWS Terrain Tiles</text></link>
    <extensions>
      <k100:provenance>osm-routed</k100:provenance>
      <k100:not_a_recorded_track>true</k100:not_a_recorded_track>
      <k100:mountain_id>soyosan</k100:mountain_id>
      <k100:mountain_name>소요산</k100:mountain_name>
      <k100:route_id>soyosan-cca6b3b7</k100:route_id>
      <k100:route_index>1</k100:route_index>
      <k100:route_name>소요산역-자재암-의상대-공주봉 순환 코스</k100:route_name>
      <k100:variant>0</k100:variant>
      <k100:source>OpenStreetMap via Overpass API</k100:source>
      <k100:license>ODbL-1.0</k100:license>
      <k100:attribution>© OpenStreetMap contributors</k100:attribution>
      <k100:elevation_source>SRTM 1 arc-second (NASA/USGS) — AWS Terrain Tiles 배포본. 지형 DEM 추정 고도이며 실측 아님</k100:elevation_source>
      <k100:algorithm>dijkstra-grid-v1</k100:algorithm>
      <k100:osm_snapshot>2026-08-04</k100:osm_snapshot>
      <k100:snap_trailhead_m>30</k100:snap_trailhead_m>
      <k100:snap_summit_m>27</k100:snap_summit_m>
      <k100:validation_score>93</k100:validation_score>
      <k100:validation_status>accepted</k100:validation_status>
    </extensions>
  </metadata>
  <trk>
    <name>소요산 · 소요산역-자재암-의상대-공주봉 순환 코스 (OSM 계산 경로)</name>
    <desc>실제 GPS 기록이 아닙니다. OpenStreetMap에 등록된 등산로 선형 위에서 계산한 경로이며, 현장 통제·훼손·출입 제한·계절 통제를 반영하지 않을 수 있습니다. 산행 전 공식 안내를 확인하세요.</desc>
    <trkseg>
      <trkpt lat="37.947898" lon="127.060621"><ele>55.8</ele></trkpt>
      <trkpt lat="37.946468" lon="127.060405"><ele>55.5</ele></trkpt>
      <trkpt lat="37.946454" lon="127.060868"><ele>56.9</ele></trkpt>
      <trkpt lat="37.946342" lon="127.061086"><ele>58.2</ele></trkpt>
      <trkpt lat="37.946432" lon="127.061270"><ele>58.3</ele></trkpt>
      <trkpt lat="37.946266" lon="127.062443"><ele>61.7</ele></trkpt>
      <trkpt lat="37.946268" lon="127.062691"><ele>62.5</ele></trkpt>
      <trkpt lat="37.946402" lon="127.063686"><ele>65.9</ele></trkpt>
      <trkpt lat="37.946534" lon="127.063840"><ele>69.4</ele></trkpt>
      <trkpt lat="37.946722" lon="127.063906"><ele>72.9</ele></trkpt>
      <trkpt lat="37.947138" lon="127.065183"><ele>102.3</ele></trkpt>
      <trkpt lat="37.947211" lon="127.065914"><ele>132.8</ele></trkpt>
      <trkpt lat="37.947129" lon="127.066815"><ele>147.5</ele></trkpt>
      <trkpt lat="37.947511" lon="127.067716"><ele>162.1</ele></trkpt>
      <trkpt lat="37.947527" lon="127.068098"><ele>163.6</ele></trkpt>
      <trkpt lat="37.947958" lon="127.068768"><ele>175.9</ele></trkpt>
      <trkpt lat="37.948054" lon="127.069003"><ele>175.1</ele></trkpt>
      <trkpt lat="37.948233" lon="127.069086"><ele>179.4</ele></trkpt>
      <trkpt lat="37.948414" lon="127.069032"><ele>186.6</ele></trkpt>
      <trkpt lat="37.948749" lon="127.069239"><ele>192.2</ele></trkpt>
      <trkpt lat="37.948947" lon="127.069640"><ele>189.9</ele></trkpt>
      <trkpt lat="37.949030" lon="127.070003"><ele>193.6</ele></trkpt>
      <trkpt lat="37.948931" lon="127.070402"><ele>193.2</ele></trkpt>
      <trkpt lat="37.949117" lon="127.070841"><ele>197.6</ele></trkpt>
      <trkpt lat="37.949077" lon="127.071759"><ele>199.3</ele></trkpt>
      <trkpt lat="37.948995" lon="127.072475"><ele>204.4</ele></trkpt>
      <trkpt lat="37.949169" lon="127.072932"><ele>206.5</ele></trkpt>
      <trkpt lat="37.949011" lon="127.073839"><ele>201.3</ele></trkpt>
      <trkpt lat="37.949180" lon="127.074862"><ele>204.0</ele></trkpt>
      <trkpt lat="37.948919" lon="127.075574"><ele>214.1</ele></trkpt>
      <trkpt lat="37.948557" lon="127.076119"><ele>238.7</ele></trkpt>
      <trkpt lat="37.948191" lon="127.076498"><ele>237.7</ele></trkpt>
      <trkpt lat="37.948144" lon="127.076794"><ele>244.7</ele></trkpt>
      <trkpt lat="37.948360" lon="127.078144"><ele>265.8</ele></trkpt>
      <trkpt lat="37.948394" lon="127.078610"><ele>268.5</ele></trkpt>
      <trkpt lat="37.948437" lon="127.080319"><ele>301.6</ele></trkpt>
      <trkpt lat="37.948350" lon="127.081996"><ele>311.1</ele></trkpt>
      <trkpt lat="37.948502" lon="127.082634"><ele>327.6</ele></trkpt>
      <trkpt lat="37.948647" lon="127.084362"><ele>376.4</ele></trkpt>
      <trkpt lat="37.948772" lon="127.085067"><ele>394.6</ele></trkpt>
      <trkpt lat="37.949003" lon="127.085548"><ele>404.5</ele></trkpt>
      <trkpt lat="37.949090" lon="127.086271"><ele>415.2</ele></trkpt>
      <trkpt lat="37.949117" lon="127.086861"><ele>423.3</ele></trkpt>
      <trkpt lat="37.949057" lon="127.087069"><ele>422.7</ele></trkpt>
      <trkpt lat="37.948701" lon="127.087681"><ele>422.3</ele></trkpt>
    </trkseg>
  </trk>
</gpx>
