<?xml version="1.0" encoding="UTF-8"?>
<gpx version="1.1" creator="kr-100-mountains route-harvester"
     xmlns="http://www.topografix.com/GPX/1/1"
     xmlns:k100="https://github.com/jay-jang/kr-100-mountains/ns/1"
     xmlns:xsi="http://www.w3.org/2001/XMLSchema-instance"
     xsi:schemaLocation="http://www.topografix.com/GPX/1/1 http://www.topografix.com/GPX/1/1/gpx.xsd">
  <metadata>
    <name>운문산 · 석남터널-가지산-아랫재-운문산 정상-석골사 (대안 2) (OSM 계산 경로)</name>
    <desc>실제 GPS 기록이 아닙니다. OpenStreetMap에 등록된 등산로 선형 위에서 계산한 경로이며, 현장 통제·훼손·출입 제한·계절 통제를 반영하지 않을 수 있습니다. 산행 전 공식 안내를 확인하세요.</desc>
    <time>2026-08-04T05:39:39.883Z</time>
    <link href="https://www.openstreetmap.org/copyright"><text>© OpenStreetMap contributors (ODbL 1.0)</text></link>
    <link href="https://registry.opendata.aws/terrain-tiles/"><text>Elevation: SRTM 1 arc-second (NASA/USGS) via AWS Terrain Tiles</text></link>
    <extensions>
      <k100:provenance>osm-routed</k100:provenance>
      <k100:not_a_recorded_track>true</k100:not_a_recorded_track>
      <k100:mountain_id>unmunsan</k100:mountain_id>
      <k100:mountain_name>운문산</k100:mountain_name>
      <k100:route_id>unmunsan-ffa537ad</k100:route_id>
      <k100:route_index>4</k100:route_index>
      <k100:route_name>석남터널-가지산-아랫재-운문산 정상-석골사</k100:route_name>
      <k100:variant>2</k100:variant>
      <k100:source>OpenStreetMap via Overpass API</k100:source>
      <k100:license>ODbL-1.0</k100:license>
      <k100:attribution>© OpenStreetMap contributors</k100:attribution>
      <k100:elevation_source>SRTM 1 arc-second (NASA/USGS) — AWS Terrain Tiles 배포본. 지형 DEM 추정 고도이며 실측 아님</k100:elevation_source>
      <k100:algorithm>dijkstra-grid-v1</k100:algorithm>
      <k100:osm_snapshot>2026-08-04</k100:osm_snapshot>
      <k100:snap_trailhead_m>104</k100:snap_trailhead_m>
      <k100:snap_summit_m>135</k100:snap_summit_m>
      <k100:validation_score>82</k100:validation_score>
      <k100:validation_status>accepted</k100:validation_status>
    </extensions>
  </metadata>
  <trk>
    <name>운문산 · 석남터널-가지산-아랫재-운문산 정상-석골사 (대안 2) (OSM 계산 경로)</name>
    <desc>실제 GPS 기록이 아닙니다. OpenStreetMap에 등록된 등산로 선형 위에서 계산한 경로이며, 현장 통제·훼손·출입 제한·계절 통제를 반영하지 않을 수 있습니다. 산행 전 공식 안내를 확인하세요.</desc>
    <trkseg>
      <trkpt lat="35.608280" lon="129.025320"><ele>648.6</ele></trkpt>
      <trkpt lat="35.608229" lon="129.025558"><ele>636.7</ele></trkpt>
      <trkpt lat="35.608697" lon="129.025720"><ele>644.2</ele></trkpt>
      <trkpt lat="35.608926" lon="129.025386"><ele>666.5</ele></trkpt>
      <trkpt lat="35.609159" lon="129.025449"><ele>671.6</ele></trkpt>
      <trkpt lat="35.609142" lon="129.025238"><ele>678.7</ele></trkpt>
      <trkpt lat="35.609283" lon="129.024823"><ele>694.5</ele></trkpt>
      <trkpt lat="35.609220" lon="129.024655"><ele>701.2</ele></trkpt>
      <trkpt lat="35.609180" lon="129.024242"><ele>722.0</ele></trkpt>
      <trkpt lat="35.609248" lon="129.024156"><ele>726.4</ele></trkpt>
      <trkpt lat="35.609234" lon="129.024078"><ele>729.7</ele></trkpt>
      <trkpt lat="35.609294" lon="129.024061"><ele>730.2</ele></trkpt>
      <trkpt lat="35.609272" lon="129.023785"><ele>741.7</ele></trkpt>
      <trkpt lat="35.609309" lon="129.023717"><ele>744.4</ele></trkpt>
      <trkpt lat="35.609126" lon="129.023316"><ele>762.8</ele></trkpt>
      <trkpt lat="35.609095" lon="129.023112"><ele>767.5</ele></trkpt>
      <trkpt lat="35.609159" lon="129.023065"><ele>769.7</ele></trkpt>
      <trkpt lat="35.609431" lon="129.022991"><ele>764.3</ele></trkpt>
      <trkpt lat="35.609645" lon="129.022845"><ele>756.0</ele></trkpt>
      <trkpt lat="35.610169" lon="129.022630"><ele>752.8</ele></trkpt>
      <trkpt lat="35.610671" lon="129.022118"><ele>751.9</ele></trkpt>
      <trkpt lat="35.610950" lon="129.022008"><ele>748.8</ele></trkpt>
      <trkpt lat="35.611008" lon="129.021993"><ele>748.7</ele></trkpt>
      <trkpt lat="35.611240" lon="129.022107"><ele>743.9</ele></trkpt>
      <trkpt lat="35.611469" lon="129.022091"><ele>740.5</ele></trkpt>
      <trkpt lat="35.611744" lon="129.022179"><ele>741.3</ele></trkpt>
      <trkpt lat="35.611909" lon="129.022109"><ele>744.5</ele></trkpt>
      <trkpt lat="35.612090" lon="129.021899"><ele>748.0</ele></trkpt>
      <trkpt lat="35.612895" lon="129.021898"><ele>757.1</ele></trkpt>
      <trkpt lat="35.613403" lon="129.021767"><ele>774.9</ele></trkpt>
      <trkpt lat="35.613724" lon="129.021802"><ele>784.8</ele></trkpt>
      <trkpt lat="35.614080" lon="129.021706"><ele>792.7</ele></trkpt>
      <trkpt lat="35.614240" lon="129.021610"><ele>796.3</ele></trkpt>
      <trkpt lat="35.614389" lon="129.021399"><ele>802.5</ele></trkpt>
      <trkpt lat="35.614569" lon="129.021376"><ele>806.3</ele></trkpt>
      <trkpt lat="35.614725" lon="129.021205"><ele>810.0</ele></trkpt>
      <trkpt lat="35.614801" lon="129.021198"><ele>809.5</ele></trkpt>
      <trkpt lat="35.615059" lon="129.020769"><ele>809.0</ele></trkpt>
      <trkpt lat="35.615104" lon="129.020558"><ele>807.4</ele></trkpt>
      <trkpt lat="35.615362" lon="129.019999"><ele>807.7</ele></trkpt>
      <trkpt lat="35.615625" lon="129.019250"><ele>816.4</ele></trkpt>
      <trkpt lat="35.615704" lon="129.018773"><ele>820.5</ele></trkpt>
      <trkpt lat="35.615818" lon="129.018497"><ele>827.6</ele></trkpt>
      <trkpt lat="35.615958" lon="129.017846"><ele>837.2</ele></trkpt>
      <trkpt lat="35.615983" lon="129.017432"><ele>840.2</ele></trkpt>
      <trkpt lat="35.616240" lon="129.016174"><ele>859.6</ele></trkpt>
      <trkpt lat="35.616139" lon="129.015011"><ele>877.3</ele></trkpt>
      <trkpt lat="35.616154" lon="129.014824"><ele>881.8</ele></trkpt>
      <trkpt lat="35.616222" lon="129.014775"><ele>883.3</ele></trkpt>
      <trkpt lat="35.616280" lon="129.014560"><ele>889.0</ele></trkpt>
      <trkpt lat="35.616172" lon="129.014215"><ele>901.8</ele></trkpt>
      <trkpt lat="35.616217" lon="129.014115"><ele>905.0</ele></trkpt>
      <trkpt lat="35.615955" lon="129.013721"><ele>923.6</ele></trkpt>
      <trkpt lat="35.615976" lon="129.013569"><ele>929.9</ele></trkpt>
      <trkpt lat="35.615882" lon="129.013399"><ele>940.4</ele></trkpt>
      <trkpt lat="35.615864" lon="129.013184"><ele>949.6</ele></trkpt>
      <trkpt lat="35.615753" lon="129.013026"><ele>959.4</ele></trkpt>
      <trkpt lat="35.615678" lon="129.013026"><ele>961.8</ele></trkpt>
      <trkpt lat="35.615678" lon="129.012916"><ele>964.8</ele></trkpt>
      <trkpt lat="35.615580" lon="129.012910"><ele>967.9</ele></trkpt>
      <trkpt lat="35.615584" lon="129.012703"><ele>972.6</ele></trkpt>
      <trkpt lat="35.615538" lon="129.012694"><ele>973.4</ele></trkpt>
      <trkpt lat="35.615473" lon="129.012167"><ele>981.6</ele></trkpt>
      <trkpt lat="35.615572" lon="129.011940"><ele>991.0</ele></trkpt>
      <trkpt lat="35.615610" lon="129.011627"><ele>998.1</ele></trkpt>
      <trkpt lat="35.615727" lon="129.011325"><ele>1008.1</ele></trkpt>
      <trkpt lat="35.615798" lon="129.010806"><ele>1024.5</ele></trkpt>
      <trkpt lat="35.615813" lon="129.010194"><ele>1038.7</ele></trkpt>
      <trkpt lat="35.615721" lon="129.008612"><ele>1097.9</ele></trkpt>
      <trkpt lat="35.615501" lon="129.007877"><ele>1126.4</ele></trkpt>
      <trkpt lat="35.615785" lon="129.007816"><ele>1136.2</ele></trkpt>
      <trkpt lat="35.615913" lon="129.007627"><ele>1143.6</ele></trkpt>
      <trkpt lat="35.615905" lon="129.007461"><ele>1148.9</ele></trkpt>
      <trkpt lat="35.615993" lon="129.007368"><ele>1149.4</ele></trkpt>
      <trkpt lat="35.615988" lon="129.007297"><ele>1150.6</ele></trkpt>
      <trkpt lat="35.616154" lon="129.007251"><ele>1148.5</ele></trkpt>
      <trkpt lat="35.616185" lon="129.007179"><ele>1148.0</ele></trkpt>
      <trkpt lat="35.616579" lon="129.007014"><ele>1140.5</ele></trkpt>
      <trkpt lat="35.616653" lon="129.006936"><ele>1139.2</ele></trkpt>
      <trkpt lat="35.617007" lon="129.006821"><ele>1127.7</ele></trkpt>
      <trkpt lat="35.617905" lon="129.006162"><ele>1118.6</ele></trkpt>
      <trkpt lat="35.618157" lon="129.005872"><ele>1112.4</ele></trkpt>
      <trkpt lat="35.618633" lon="129.005019"><ele>1120.9</ele></trkpt>
      <trkpt lat="35.619024" lon="129.004773"><ele>1134.9</ele></trkpt>
      <trkpt lat="35.619163" lon="129.004608"><ele>1147.7</ele></trkpt>
      <trkpt lat="35.619209" lon="129.004619"><ele>1149.0</ele></trkpt>
      <trkpt lat="35.619278" lon="129.004354"><ele>1160.3</ele></trkpt>
      <trkpt lat="35.619285" lon="129.003919"><ele>1165.6</ele></trkpt>
      <trkpt lat="35.619357" lon="129.003797"><ele>1171.7</ele></trkpt>
      <trkpt lat="35.619459" lon="129.003731"><ele>1179.3</ele></trkpt>
      <trkpt lat="35.619513" lon="129.003582"><ele>1183.7</ele></trkpt>
      <trkpt lat="35.619657" lon="129.003517"><ele>1194.1</ele></trkpt>
      <trkpt lat="35.619857" lon="129.003271"><ele>1210.5</ele></trkpt>
      <trkpt lat="35.619948" lon="129.003310"><ele>1214.0</ele></trkpt>
      <trkpt lat="35.620178" lon="129.003282"><ele>1219.0</ele></trkpt>
      <trkpt lat="35.620294" lon="129.002802"><ele>1223.7</ele></trkpt>
      <trkpt lat="35.620345" lon="129.002777"><ele>1222.5</ele></trkpt>
      <trkpt lat="35.620349" lon="129.002652"><ele>1219.7</ele></trkpt>
      <trkpt lat="35.620582" lon="129.002528"><ele>1208.8</ele></trkpt>
      <trkpt lat="35.620725" lon="129.002518"><ele>1202.8</ele></trkpt>
      <trkpt lat="35.620898" lon="129.002370"><ele>1192.7</ele></trkpt>
      <trkpt lat="35.621137" lon="129.002278"><ele>1181.0</ele></trkpt>
      <trkpt lat="35.621347" lon="129.002279"><ele>1174.5</ele></trkpt>
      <trkpt lat="35.621593" lon="129.001973"><ele>1162.3</ele></trkpt>
      <trkpt lat="35.621824" lon="129.001861"><ele>1154.9</ele></trkpt>
      <trkpt lat="35.621943" lon="129.001717"><ele>1151.2</ele></trkpt>
      <trkpt lat="35.622379" lon="129.001489"><ele>1140.2</ele></trkpt>
      <trkpt lat="35.622670" lon="129.001456"><ele>1136.9</ele></trkpt>
      <trkpt lat="35.623113" lon="129.001091"><ele>1134.1</ele></trkpt>
      <trkpt lat="35.623139" lon="129.000961"><ele>1133.2</ele></trkpt>
      <trkpt lat="35.623106" lon="129.000839"><ele>1133.5</ele></trkpt>
      <trkpt lat="35.623190" lon="129.000745"><ele>1129.8</ele></trkpt>
      <trkpt lat="35.623181" lon="129.000678"><ele>1127.7</ele></trkpt>
      <trkpt lat="35.623396" lon="129.000490"><ele>1122.8</ele></trkpt>
      <trkpt lat="35.623576" lon="129.000196"><ele>1116.8</ele></trkpt>
      <trkpt lat="35.623807" lon="128.999717"><ele>1099.4</ele></trkpt>
      <trkpt lat="35.623886" lon="128.999651"><ele>1097.7</ele></trkpt>
      <trkpt lat="35.623960" lon="128.999348"><ele>1090.3</ele></trkpt>
      <trkpt lat="35.624049" lon="128.999420"><ele>1090.2</ele></trkpt>
      <trkpt lat="35.624163" lon="128.999239"><ele>1087.3</ele></trkpt>
      <trkpt lat="35.624580" lon="128.998855"><ele>1072.7</ele></trkpt>
      <trkpt lat="35.624957" lon="128.998115"><ele>1083.0</ele></trkpt>
      <trkpt lat="35.625059" lon="128.998069"><ele>1085.3</ele></trkpt>
      <trkpt lat="35.625037" lon="128.998005"><ele>1085.3</ele></trkpt>
      <trkpt lat="35.625175" lon="128.997849"><ele>1090.2</ele></trkpt>
      <trkpt lat="35.625140" lon="128.997682"><ele>1090.4</ele></trkpt>
      <trkpt lat="35.625283" lon="128.997633"><ele>1098.1</ele></trkpt>
      <trkpt lat="35.625415" lon="128.997720"><ele>1095.9</ele></trkpt>
      <trkpt lat="35.625426" lon="128.997562"><ele>1102.6</ele></trkpt>
      <trkpt lat="35.625385" lon="128.997498"><ele>1103.9</ele></trkpt>
      <trkpt lat="35.625485" lon="128.997263"><ele>1107.5</ele></trkpt>
      <trkpt lat="35.625427" lon="128.997177"><ele>1105.4</ele></trkpt>
      <trkpt lat="35.625717" lon="128.997147"><ele>1102.9</ele></trkpt>
      <trkpt lat="35.625757" lon="128.997041"><ele>1100.1</ele></trkpt>
      <trkpt lat="35.625889" lon="128.996976"><ele>1094.3</ele></trkpt>
      <trkpt lat="35.625994" lon="128.996812"><ele>1086.6</ele></trkpt>
      <trkpt lat="35.626067" lon="128.996798"><ele>1084.0</ele></trkpt>
      <trkpt lat="35.626263" lon="128.996385"><ele>1077.5</ele></trkpt>
      <trkpt lat="35.626472" lon="128.996127"><ele>1065.8</ele></trkpt>
      <trkpt lat="35.626500" lon="128.996066"><ele>1061.1</ele></trkpt>
      <trkpt lat="35.626457" lon="128.996009"><ele>1061.8</ele></trkpt>
      <trkpt lat="35.626494" lon="128.995941"><ele>1054.8</ele></trkpt>
      <trkpt lat="35.626670" lon="128.996078"><ele>1048.0</ele></trkpt>
      <trkpt lat="35.626695" lon="128.995992"><ele>1039.1</ele></trkpt>
      <trkpt lat="35.626735" lon="128.996012"><ele>1036.9</ele></trkpt>
      <trkpt lat="35.626759" lon="128.995892"><ele>1027.7</ele></trkpt>
      <trkpt lat="35.626867" lon="128.995844"><ele>1019.3</ele></trkpt>
      <trkpt lat="35.626943" lon="128.995929"><ele>1016.5</ele></trkpt>
      <trkpt lat="35.627036" lon="128.995902"><ele>1007.3</ele></trkpt>
      <trkpt lat="35.627034" lon="128.995991"><ele>1009.4</ele></trkpt>
      <trkpt lat="35.627192" lon="128.996100"><ele>999.1</ele></trkpt>
      <trkpt lat="35.627325" lon="128.995922"><ele>984.2</ele></trkpt>
      <trkpt lat="35.627533" lon="128.995891"><ele>972.2</ele></trkpt>
      <trkpt lat="35.627828" lon="128.995634"><ele>959.1</ele></trkpt>
      <trkpt lat="35.628015" lon="128.995605"><ele>952.5</ele></trkpt>
      <trkpt lat="35.628024" lon="128.995436"><ele>946.7</ele></trkpt>
      <trkpt lat="35.628185" lon="128.995489"><ele>940.3</ele></trkpt>
      <trkpt lat="35.628275" lon="128.995463"><ele>934.4</ele></trkpt>
      <trkpt lat="35.628302" lon="128.995519"><ele>933.6</ele></trkpt>
      <trkpt lat="35.628400" lon="128.995440"><ele>925.2</ele></trkpt>
      <trkpt lat="35.628383" lon="128.995406"><ele>926.3</ele></trkpt>
      <trkpt lat="35.628471" lon="128.995414"><ele>919.1</ele></trkpt>
      <trkpt lat="35.628487" lon="128.995514"><ele>918.9</ele></trkpt>
      <trkpt lat="35.628712" lon="128.995452"><ele>903.5</ele></trkpt>
      <trkpt lat="35.628803" lon="128.995387"><ele>898.9</ele></trkpt>
      <trkpt lat="35.628856" lon="128.995212"><ele>892.9</ele></trkpt>
      <trkpt lat="35.629034" lon="128.995079"><ele>881.8</ele></trkpt>
      <trkpt lat="35.629058" lon="128.994978"><ele>878.3</ele></trkpt>
      <trkpt lat="35.629208" lon="128.994781"><ele>865.0</ele></trkpt>
      <trkpt lat="35.629266" lon="128.994911"><ele>866.8</ele></trkpt>
      <trkpt lat="35.629401" lon="128.994957"><ele>860.1</ele></trkpt>
      <trkpt lat="35.629470" lon="128.995057"><ele>857.6</ele></trkpt>
      <trkpt lat="35.629684" lon="128.995084"><ele>846.1</ele></trkpt>
      <trkpt lat="35.630647" lon="128.994992"><ele>824.5</ele></trkpt>
      <trkpt lat="35.630724" lon="128.994900"><ele>825.8</ele></trkpt>
      <trkpt lat="35.631199" lon="128.994622"><ele>824.0</ele></trkpt>
      <trkpt lat="35.631521" lon="128.994640"><ele>813.8</ele></trkpt>
      <trkpt lat="35.631648" lon="128.994558"><ele>808.2</ele></trkpt>
      <trkpt lat="35.631764" lon="128.994667"><ele>806.1</ele></trkpt>
      <trkpt lat="35.631936" lon="128.994724"><ele>802.2</ele></trkpt>
      <trkpt lat="35.632002" lon="128.994698"><ele>799.1</ele></trkpt>
      <trkpt lat="35.632175" lon="128.994790"><ele>792.0</ele></trkpt>
      <trkpt lat="35.632416" lon="128.994745"><ele>783.6</ele></trkpt>
      <trkpt lat="35.632486" lon="128.994786"><ele>780.1</ele></trkpt>
      <trkpt lat="35.632578" lon="128.994740"><ele>778.4</ele></trkpt>
      <trkpt lat="35.633019" lon="128.994919"><ele>769.4</ele></trkpt>
      <trkpt lat="35.633529" lon="128.994903"><ele>763.9</ele></trkpt>
      <trkpt lat="35.633988" lon="128.994749"><ele>755.4</ele></trkpt>
      <trkpt lat="35.634110" lon="128.994773"><ele>756.7</ele></trkpt>
      <trkpt lat="35.634252" lon="128.994701"><ele>756.5</ele></trkpt>
      <trkpt lat="35.634487" lon="128.994692"><ele>753.7</ele></trkpt>
      <trkpt lat="35.634939" lon="128.994213"><ele>737.8</ele></trkpt>
      <trkpt lat="35.635166" lon="128.993891"><ele>731.6</ele></trkpt>
      <trkpt lat="35.635445" lon="128.993741"><ele>720.0</ele></trkpt>
      <trkpt lat="35.635602" lon="128.993441"><ele>713.1</ele></trkpt>
      <trkpt lat="35.635846" lon="128.993205"><ele>704.1</ele></trkpt>
      <trkpt lat="35.636265" lon="128.992883"><ele>683.6</ele></trkpt>
      <trkpt lat="35.636858" lon="128.992668"><ele>658.4</ele></trkpt>
      <trkpt lat="35.636910" lon="128.992432"><ele>652.2</ele></trkpt>
      <trkpt lat="35.637137" lon="128.992282"><ele>640.4</ele></trkpt>
      <trkpt lat="35.637398" lon="128.991681"><ele>609.8</ele></trkpt>
      <trkpt lat="35.637939" lon="128.991231"><ele>571.9</ele></trkpt>
      <trkpt lat="35.638218" lon="128.990673"><ele>551.7</ele></trkpt>
      <trkpt lat="35.638410" lon="128.990158"><ele>525.8</ele></trkpt>
      <trkpt lat="35.638427" lon="128.989385"><ele>474.7</ele></trkpt>
      <trkpt lat="35.638131" lon="128.989020"><ele>454.8</ele></trkpt>
      <trkpt lat="35.638235" lon="128.988634"><ele>432.7</ele></trkpt>
      <trkpt lat="35.638863" lon="128.988291"><ele>394.0</ele></trkpt>
      <trkpt lat="35.640258" lon="128.987883"><ele>342.2</ele></trkpt>
      <trkpt lat="35.640537" lon="128.987089"><ele>316.7</ele></trkpt>
      <trkpt lat="35.640964" lon="128.986276"><ele>300.3</ele></trkpt>
      <trkpt lat="35.641054" lon="128.986226"><ele>298.6</ele></trkpt>
      <trkpt lat="35.641275" lon="128.986510"><ele>297.4</ele></trkpt>
      <trkpt lat="35.641535" lon="128.986645"><ele>291.6</ele></trkpt>
      <trkpt lat="35.641714" lon="128.986593"><ele>286.9</ele></trkpt>
      <trkpt lat="35.641651" lon="128.986403"><ele>286.4</ele></trkpt>
      <trkpt lat="35.641622" lon="128.985942"><ele>285.1</ele></trkpt>
      <trkpt lat="35.641695" lon="128.985423"><ele>282.2</ele></trkpt>
      <trkpt lat="35.641655" lon="128.985258"><ele>281.8</ele></trkpt>
      <trkpt lat="35.641703" lon="128.985041"><ele>280.0</ele></trkpt>
      <trkpt lat="35.641528" lon="128.984755"><ele>279.9</ele></trkpt>
      <trkpt lat="35.641513" lon="128.984509"><ele>283.0</ele></trkpt>
      <trkpt lat="35.641821" lon="128.983908"><ele>280.8</ele></trkpt>
      <trkpt lat="35.642034" lon="128.983595"><ele>282.7</ele></trkpt>
      <trkpt lat="35.642098" lon="128.983041"><ele>279.8</ele></trkpt>
      <trkpt lat="35.642257" lon="128.982319"><ele>275.6</ele></trkpt>
      <trkpt lat="35.643202" lon="128.980953"><ele>273.0</ele></trkpt>
      <trkpt lat="35.643558" lon="128.980779"><ele>272.6</ele></trkpt>
      <trkpt lat="35.643685" lon="128.980613"><ele>271.5</ele></trkpt>
      <trkpt lat="35.643742" lon="128.980029"><ele>271.2</ele></trkpt>
      <trkpt lat="35.643722" lon="128.979309"><ele>265.1</ele></trkpt>
      <trkpt lat="35.643683" lon="128.978913"><ele>262.6</ele></trkpt>
      <trkpt lat="35.643574" lon="128.978647"><ele>265.4</ele></trkpt>
      <trkpt lat="35.643518" lon="128.978322"><ele>269.2</ele></trkpt>
      <trkpt lat="35.643581" lon="128.977816"><ele>270.2</ele></trkpt>
      <trkpt lat="35.643679" lon="128.977545"><ele>268.9</ele></trkpt>
      <trkpt lat="35.644008" lon="128.976947"><ele>265.8</ele></trkpt>
      <trkpt lat="35.644356" lon="128.976754"><ele>262.8</ele></trkpt>
      <trkpt lat="35.644825" lon="128.976335"><ele>258.5</ele></trkpt>
      <trkpt lat="35.645101" lon="128.976183"><ele>257.7</ele></trkpt>
      <trkpt lat="35.645541" lon="128.975781"><ele>256.3</ele></trkpt>
      <trkpt lat="35.646081" lon="128.975442"><ele>254.6</ele></trkpt>
      <trkpt lat="35.646349" lon="128.975174"><ele>254.3</ele></trkpt>
      <trkpt lat="35.646619" lon="128.974989"><ele>251.5</ele></trkpt>
      <trkpt lat="35.647222" lon="128.973723"><ele>246.0</ele></trkpt>
      <trkpt lat="35.647306" lon="128.973667"><ele>248.3</ele></trkpt>
      <trkpt lat="35.647365" lon="128.973524"><ele>251.4</ele></trkpt>
      <trkpt lat="35.647412" lon="128.973318"><ele>256.1</ele></trkpt>
      <trkpt lat="35.647233" lon="128.972764"><ele>249.4</ele></trkpt>
      <trkpt lat="35.647269" lon="128.971781"><ele>247.8</ele></trkpt>
      <trkpt lat="35.647404" lon="128.971736"><ele>250.1</ele></trkpt>
      <trkpt lat="35.647945" lon="128.970275"><ele>239.8</ele></trkpt>
      <trkpt lat="35.648391" lon="128.969686"><ele>240.0</ele></trkpt>
      <trkpt lat="35.648613" lon="128.969603"><ele>243.7</ele></trkpt>
      <trkpt lat="35.649320" lon="128.969012"><ele>241.9</ele></trkpt>
      <trkpt lat="35.649786" lon="128.968458"><ele>236.2</ele></trkpt>
      <trkpt lat="35.650174" lon="128.967899"><ele>234.6</ele></trkpt>
      <trkpt lat="35.650484" lon="128.967657"><ele>236.6</ele></trkpt>
      <trkpt lat="35.650803" lon="128.967737"><ele>236.7</ele></trkpt>
      <trkpt lat="35.651349" lon="128.968011"><ele>234.1</ele></trkpt>
      <trkpt lat="35.651867" lon="128.968357"><ele>230.3</ele></trkpt>
      <trkpt lat="35.652211" lon="128.968404"><ele>229.3</ele></trkpt>
      <trkpt lat="35.652466" lon="128.968370"><ele>232.3</ele></trkpt>
      <trkpt lat="35.652746" lon="128.968242"><ele>233.3</ele></trkpt>
      <trkpt lat="35.652910" lon="128.968023"><ele>230.0</ele></trkpt>
      <trkpt lat="35.653785" lon="128.965936"><ele>227.3</ele></trkpt>
      <trkpt lat="35.654100" lon="128.964606"><ele>220.8</ele></trkpt>
      <trkpt lat="35.654278" lon="128.964228"><ele>222.3</ele></trkpt>
      <trkpt lat="35.654510" lon="128.963924"><ele>225.1</ele></trkpt>
      <trkpt lat="35.655412" lon="128.963015"><ele>219.9</ele></trkpt>
      <trkpt lat="35.655808" lon="128.962743"><ele>219.4</ele></trkpt>
      <trkpt lat="35.656355" lon="128.962140"><ele>219.0</ele></trkpt>
      <trkpt lat="35.656069" lon="128.961752"><ele>216.1</ele></trkpt>
      <trkpt lat="35.656063" lon="128.961323"><ele>217.1</ele></trkpt>
      <trkpt lat="35.655897" lon="128.960931"><ele>216.5</ele></trkpt>
      <trkpt lat="35.655906" lon="128.960829"><ele>216.3</ele></trkpt>
      <trkpt lat="35.656211" lon="128.960347"><ele>222.5</ele></trkpt>
      <trkpt lat="35.655723" lon="128.960003"><ele>221.0</ele></trkpt>
      <trkpt lat="35.654720" lon="128.959724"><ele>220.9</ele></trkpt>
      <trkpt lat="35.654239" lon="128.959491"><ele>228.4</ele></trkpt>
      <trkpt lat="35.653683" lon="128.959381"><ele>226.6</ele></trkpt>
      <trkpt lat="35.652967" lon="128.959413"><ele>227.4</ele></trkpt>
      <trkpt lat="35.651987" lon="128.959290"><ele>231.0</ele></trkpt>
      <trkpt lat="35.651763" lon="128.959110"><ele>228.3</ele></trkpt>
      <trkpt lat="35.651496" lon="128.959023"><ele>230.6</ele></trkpt>
      <trkpt lat="35.651011" lon="128.958667"><ele>236.7</ele></trkpt>
      <trkpt lat="35.650985" lon="128.958558"><ele>236.0</ele></trkpt>
      <trkpt lat="35.650695" lon="128.958410"><ele>236.8</ele></trkpt>
      <trkpt lat="35.650645" lon="128.958284"><ele>234.9</ele></trkpt>
      <trkpt lat="35.650228" lon="128.958319"><ele>239.0</ele></trkpt>
      <trkpt lat="35.650200" lon="128.958179"><ele>235.7</ele></trkpt>
      <trkpt lat="35.649437" lon="128.957949"><ele>241.3</ele></trkpt>
      <trkpt lat="35.648969" lon="128.957664"><ele>241.6</ele></trkpt>
      <trkpt lat="35.648768" lon="128.957415"><ele>239.3</ele></trkpt>
      <trkpt lat="35.648581" lon="128.957388"><ele>240.9</ele></trkpt>
      <trkpt lat="35.648430" lon="128.957211"><ele>237.3</ele></trkpt>
      <trkpt lat="35.647996" lon="128.957187"><ele>238.8</ele></trkpt>
      <trkpt lat="35.647711" lon="128.957058"><ele>241.8</ele></trkpt>
      <trkpt lat="35.647183" lon="128.957064"><ele>241.5</ele></trkpt>
      <trkpt lat="35.646948" lon="128.957117"><ele>240.3</ele></trkpt>
      <trkpt lat="35.646594" lon="128.957409"><ele>248.0</ele></trkpt>
      <trkpt lat="35.646536" lon="128.957533"><ele>250.4</ele></trkpt>
      <trkpt lat="35.646161" lon="128.957868"><ele>254.2</ele></trkpt>
      <trkpt lat="35.645747" lon="128.958155"><ele>255.8</ele></trkpt>
      <trkpt lat="35.645439" lon="128.958194"><ele>255.3</ele></trkpt>
      <trkpt lat="35.645171" lon="128.958316"><ele>254.8</ele></trkpt>
      <trkpt lat="35.644938" lon="128.958303"><ele>253.8</ele></trkpt>
      <trkpt lat="35.644424" lon="128.958507"><ele>256.3</ele></trkpt>
      <trkpt lat="35.643535" lon="128.958619"><ele>255.7</ele></trkpt>
      <trkpt lat="35.643107" lon="128.958753"><ele>260.5</ele></trkpt>
      <trkpt lat="35.642619" lon="128.958989"><ele>263.7</ele></trkpt>
      <trkpt lat="35.641895" lon="128.959097"><ele>265.4</ele></trkpt>
      <trkpt lat="35.641651" lon="128.959182"><ele>263.4</ele></trkpt>
      <trkpt lat="35.641324" lon="128.959338"><ele>265.7</ele></trkpt>
      <trkpt lat="35.640609" lon="128.959880"><ele>269.9</ele></trkpt>
      <trkpt lat="35.640034" lon="128.960438"><ele>272.3</ele></trkpt>
      <trkpt lat="35.639459" lon="128.960781"><ele>272.1</ele></trkpt>
      <trkpt lat="35.638874" lon="128.960963"><ele>280.8</ele></trkpt>
      <trkpt lat="35.637994" lon="128.960878"><ele>282.5</ele></trkpt>
      <trkpt lat="35.637440" lon="128.961055"><ele>290.2</ele></trkpt>
      <trkpt lat="35.637152" lon="128.960985"><ele>291.6</ele></trkpt>
      <trkpt lat="35.636921" lon="128.961124"><ele>293.5</ele></trkpt>
      <trkpt lat="35.636642" lon="128.961103"><ele>294.1</ele></trkpt>
      <trkpt lat="35.636224" lon="128.960561"><ele>308.6</ele></trkpt>
      <trkpt lat="35.635936" lon="128.960545"><ele>311.7</ele></trkpt>
      <trkpt lat="35.635744" lon="128.960620"><ele>312.4</ele></trkpt>
      <trkpt lat="35.635308" lon="128.960545"><ele>316.1</ele></trkpt>
      <trkpt lat="35.634699" lon="128.960236"><ele>329.4</ele></trkpt>
      <trkpt lat="35.634464" lon="128.960285"><ele>328.9</ele></trkpt>
      <trkpt lat="35.634382" lon="128.960416"><ele>330.2</ele></trkpt>
      <trkpt lat="35.634138" lon="128.960361"><ele>337.1</ele></trkpt>
      <trkpt lat="35.633876" lon="128.960631"><ele>348.0</ele></trkpt>
      <trkpt lat="35.633623" lon="128.960714"><ele>356.6</ele></trkpt>
      <trkpt lat="35.633015" lon="128.960792"><ele>383.1</ele></trkpt>
      <trkpt lat="35.632788" lon="128.960757"><ele>394.0</ele></trkpt>
      <trkpt lat="35.632714" lon="128.960854"><ele>391.3</ele></trkpt>
      <trkpt lat="35.632544" lon="128.960843"><ele>397.2</ele></trkpt>
      <trkpt lat="35.632273" lon="128.960886"><ele>404.8</ele></trkpt>
      <trkpt lat="35.632175" lon="128.960955"><ele>405.3</ele></trkpt>
      <trkpt lat="35.632047" lon="128.960945"><ele>411.4</ele></trkpt>
      <trkpt lat="35.631881" lon="128.961009"><ele>415.3</ele></trkpt>
      <trkpt lat="35.631667" lon="128.961221"><ele>415.6</ele></trkpt>
      <trkpt lat="35.631537" lon="128.961240"><ele>423.5</ele></trkpt>
      <trkpt lat="35.631303" lon="128.961387"><ele>431.8</ele></trkpt>
    </trkseg>
  </trk>
</gpx>
