<?xml version="1.0" encoding="UTF-8"?>
<gpx version="1.1" creator="kr-100-mountains route-harvester"
     xmlns="http://www.topografix.com/GPX/1/1"
     xmlns:k100="https://github.com/jay-jang/kr-100-mountains/ns/1"
     xmlns:xsi="http://www.w3.org/2001/XMLSchema-instance"
     xsi:schemaLocation="http://www.topografix.com/GPX/1/1 http://www.topografix.com/GPX/1/1/gpx.xsd">
  <metadata>
    <name>운문산 · 석남터널-가지산-아랫재-운문산 정상-석골사 (OSM 계산 경로)</name>
    <desc>실제 GPS 기록이 아닙니다. OpenStreetMap에 등록된 등산로 선형 위에서 계산한 경로이며, 현장 통제·훼손·출입 제한·계절 통제를 반영하지 않을 수 있습니다. 산행 전 공식 안내를 확인하세요.</desc>
    <time>2026-08-04T05:39:39.880Z</time>
    <link href="https://www.openstreetmap.org/copyright"><text>© OpenStreetMap contributors (ODbL 1.0)</text></link>
    <link href="https://registry.opendata.aws/terrain-tiles/"><text>Elevation: SRTM 1 arc-second (NASA/USGS) via AWS Terrain Tiles</text></link>
    <extensions>
      <k100:provenance>osm-routed</k100:provenance>
      <k100:not_a_recorded_track>true</k100:not_a_recorded_track>
      <k100:mountain_id>unmunsan</k100:mountain_id>
      <k100:mountain_name>운문산</k100:mountain_name>
      <k100:route_id>unmunsan-ffa537ad</k100:route_id>
      <k100:route_index>4</k100:route_index>
      <k100:route_name>석남터널-가지산-아랫재-운문산 정상-석골사</k100:route_name>
      <k100:variant>0</k100:variant>
      <k100:source>OpenStreetMap via Overpass API</k100:source>
      <k100:license>ODbL-1.0</k100:license>
      <k100:attribution>© OpenStreetMap contributors</k100:attribution>
      <k100:elevation_source>SRTM 1 arc-second (NASA/USGS) — AWS Terrain Tiles 배포본. 지형 DEM 추정 고도이며 실측 아님</k100:elevation_source>
      <k100:algorithm>dijkstra-grid-v1</k100:algorithm>
      <k100:osm_snapshot>2026-08-04</k100:osm_snapshot>
      <k100:snap_trailhead_m>104</k100:snap_trailhead_m>
      <k100:snap_summit_m>135</k100:snap_summit_m>
      <k100:validation_score>89</k100:validation_score>
      <k100:validation_status>accepted</k100:validation_status>
    </extensions>
  </metadata>
  <trk>
    <name>운문산 · 석남터널-가지산-아랫재-운문산 정상-석골사 (OSM 계산 경로)</name>
    <desc>실제 GPS 기록이 아닙니다. OpenStreetMap에 등록된 등산로 선형 위에서 계산한 경로이며, 현장 통제·훼손·출입 제한·계절 통제를 반영하지 않을 수 있습니다. 산행 전 공식 안내를 확인하세요.</desc>
    <trkseg>
      <trkpt lat="35.608280" lon="129.025320"><ele>648.6</ele></trkpt>
      <trkpt lat="35.608229" lon="129.025558"><ele>636.7</ele></trkpt>
      <trkpt lat="35.608697" lon="129.025720"><ele>644.2</ele></trkpt>
      <trkpt lat="35.608926" lon="129.025386"><ele>666.5</ele></trkpt>
      <trkpt lat="35.609159" lon="129.025449"><ele>671.6</ele></trkpt>
      <trkpt lat="35.609142" lon="129.025238"><ele>678.7</ele></trkpt>
      <trkpt lat="35.609283" lon="129.024823"><ele>694.5</ele></trkpt>
      <trkpt lat="35.609220" lon="129.024655"><ele>701.2</ele></trkpt>
      <trkpt lat="35.609180" lon="129.024242"><ele>722.0</ele></trkpt>
      <trkpt lat="35.609248" lon="129.024156"><ele>726.4</ele></trkpt>
      <trkpt lat="35.609234" lon="129.024078"><ele>729.7</ele></trkpt>
      <trkpt lat="35.609294" lon="129.024061"><ele>730.2</ele></trkpt>
      <trkpt lat="35.609272" lon="129.023785"><ele>741.7</ele></trkpt>
      <trkpt lat="35.609309" lon="129.023717"><ele>744.4</ele></trkpt>
      <trkpt lat="35.609126" lon="129.023316"><ele>762.8</ele></trkpt>
      <trkpt lat="35.609095" lon="129.023112"><ele>767.5</ele></trkpt>
      <trkpt lat="35.608737" lon="129.022991"><ele>766.3</ele></trkpt>
      <trkpt lat="35.608541" lon="129.022993"><ele>766.7</ele></trkpt>
      <trkpt lat="35.608718" lon="129.021805"><ele>742.8</ele></trkpt>
      <trkpt lat="35.608534" lon="129.021325"><ele>721.4</ele></trkpt>
      <trkpt lat="35.608481" lon="129.020606"><ele>692.2</ele></trkpt>
      <trkpt lat="35.608396" lon="129.020460"><ele>685.4</ele></trkpt>
      <trkpt lat="35.608344" lon="129.020149"><ele>672.3</ele></trkpt>
      <trkpt lat="35.608379" lon="129.019980"><ele>664.6</ele></trkpt>
      <trkpt lat="35.608455" lon="129.019865"><ele>658.5</ele></trkpt>
      <trkpt lat="35.608695" lon="129.019816"><ele>653.5</ele></trkpt>
      <trkpt lat="35.608924" lon="129.019657"><ele>650.9</ele></trkpt>
      <trkpt lat="35.609000" lon="129.019500"><ele>649.6</ele></trkpt>
      <trkpt lat="35.609187" lon="129.019394"><ele>653.5</ele></trkpt>
      <trkpt lat="35.609406" lon="129.019039"><ele>673.5</ele></trkpt>
      <trkpt lat="35.610086" lon="129.018223"><ele>727.1</ele></trkpt>
      <trkpt lat="35.610339" lon="129.018006"><ele>745.1</ele></trkpt>
      <trkpt lat="35.610430" lon="129.017855"><ele>753.3</ele></trkpt>
      <trkpt lat="35.610619" lon="129.017759"><ele>763.5</ele></trkpt>
      <trkpt lat="35.610765" lon="129.017582"><ele>773.1</ele></trkpt>
      <trkpt lat="35.610915" lon="129.017086"><ele>791.8</ele></trkpt>
      <trkpt lat="35.611177" lon="129.016874"><ele>801.3</ele></trkpt>
      <trkpt lat="35.612195" lon="129.016292"><ele>851.9</ele></trkpt>
      <trkpt lat="35.612529" lon="129.016292"><ele>867.3</ele></trkpt>
      <trkpt lat="35.612742" lon="129.016153"><ele>877.5</ele></trkpt>
      <trkpt lat="35.613309" lon="129.015117"><ele>895.8</ele></trkpt>
      <trkpt lat="35.614365" lon="129.013943"><ele>931.2</ele></trkpt>
      <trkpt lat="35.614635" lon="129.013701"><ele>941.2</ele></trkpt>
      <trkpt lat="35.614919" lon="129.013269"><ele>953.4</ele></trkpt>
      <trkpt lat="35.615150" lon="129.013079"><ele>964.0</ele></trkpt>
      <trkpt lat="35.615499" lon="129.012438"><ele>977.4</ele></trkpt>
      <trkpt lat="35.615473" lon="129.012167"><ele>981.6</ele></trkpt>
      <trkpt lat="35.615572" lon="129.011940"><ele>991.0</ele></trkpt>
      <trkpt lat="35.615610" lon="129.011627"><ele>998.1</ele></trkpt>
      <trkpt lat="35.615686" lon="129.011506"><ele>1002.7</ele></trkpt>
      <trkpt lat="35.615798" lon="129.010806"><ele>1024.5</ele></trkpt>
      <trkpt lat="35.615813" lon="129.010194"><ele>1038.7</ele></trkpt>
      <trkpt lat="35.615721" lon="129.008612"><ele>1097.9</ele></trkpt>
      <trkpt lat="35.615501" lon="129.007877"><ele>1126.4</ele></trkpt>
      <trkpt lat="35.615785" lon="129.007816"><ele>1136.2</ele></trkpt>
      <trkpt lat="35.615913" lon="129.007627"><ele>1143.6</ele></trkpt>
      <trkpt lat="35.615905" lon="129.007461"><ele>1148.9</ele></trkpt>
      <trkpt lat="35.615993" lon="129.007368"><ele>1149.4</ele></trkpt>
      <trkpt lat="35.615988" lon="129.007297"><ele>1150.6</ele></trkpt>
      <trkpt lat="35.616154" lon="129.007251"><ele>1148.5</ele></trkpt>
      <trkpt lat="35.616185" lon="129.007179"><ele>1148.0</ele></trkpt>
      <trkpt lat="35.616579" lon="129.007014"><ele>1140.5</ele></trkpt>
      <trkpt lat="35.616653" lon="129.006936"><ele>1139.2</ele></trkpt>
      <trkpt lat="35.617007" lon="129.006821"><ele>1127.7</ele></trkpt>
      <trkpt lat="35.617793" lon="129.006273"><ele>1119.2</ele></trkpt>
      <trkpt lat="35.618157" lon="129.005872"><ele>1112.4</ele></trkpt>
      <trkpt lat="35.618633" lon="129.005019"><ele>1120.9</ele></trkpt>
      <trkpt lat="35.618821" lon="129.004927"><ele>1125.4</ele></trkpt>
      <trkpt lat="35.619283" lon="129.004546"><ele>1154.8</ele></trkpt>
      <trkpt lat="35.619460" lon="129.004228"><ele>1171.4</ele></trkpt>
      <trkpt lat="35.619596" lon="129.003824"><ele>1184.6</ele></trkpt>
      <trkpt lat="35.619737" lon="129.003779"><ele>1191.5</ele></trkpt>
      <trkpt lat="35.619949" lon="129.003578"><ele>1205.3</ele></trkpt>
      <trkpt lat="35.620034" lon="129.003305"><ele>1217.0</ele></trkpt>
      <trkpt lat="35.620103" lon="129.002776"><ele>1222.7</ele></trkpt>
      <trkpt lat="35.620193" lon="129.002638"><ele>1221.2</ele></trkpt>
      <trkpt lat="35.620164" lon="129.002578"><ele>1220.2</ele></trkpt>
      <trkpt lat="35.620092" lon="129.002581"><ele>1220.1</ele></trkpt>
      <trkpt lat="35.620046" lon="129.002401"><ele>1216.4</ele></trkpt>
      <trkpt lat="35.619959" lon="129.002338"><ele>1214.1</ele></trkpt>
      <trkpt lat="35.619720" lon="129.002298"><ele>1209.0</ele></trkpt>
      <trkpt lat="35.619652" lon="129.002233"><ele>1206.9</ele></trkpt>
      <trkpt lat="35.619538" lon="129.002303"><ele>1204.9</ele></trkpt>
      <trkpt lat="35.619378" lon="129.002270"><ele>1201.0</ele></trkpt>
      <trkpt lat="35.619537" lon="129.001854"><ele>1197.6</ele></trkpt>
      <trkpt lat="35.619561" lon="129.001657"><ele>1193.1</ele></trkpt>
      <trkpt lat="35.619838" lon="129.001006"><ele>1167.1</ele></trkpt>
      <trkpt lat="35.619846" lon="129.000813"><ele>1158.0</ele></trkpt>
      <trkpt lat="35.619624" lon="128.999579"><ele>1104.1</ele></trkpt>
      <trkpt lat="35.619753" lon="128.998697"><ele>1065.6</ele></trkpt>
      <trkpt lat="35.619777" lon="128.998257"><ele>1053.2</ele></trkpt>
      <trkpt lat="35.619698" lon="128.997769"><ele>1036.6</ele></trkpt>
      <trkpt lat="35.619768" lon="128.996970"><ele>1008.7</ele></trkpt>
      <trkpt lat="35.619940" lon="128.996350"><ele>985.1</ele></trkpt>
      <trkpt lat="35.620082" lon="128.996141"><ele>975.0</ele></trkpt>
      <trkpt lat="35.620158" lon="128.995872"><ele>964.3</ele></trkpt>
      <trkpt lat="35.620505" lon="128.995162"><ele>934.8</ele></trkpt>
      <trkpt lat="35.620697" lon="128.995006"><ele>926.6</ele></trkpt>
      <trkpt lat="35.620921" lon="128.994593"><ele>909.5</ele></trkpt>
      <trkpt lat="35.621080" lon="128.994529"><ele>902.3</ele></trkpt>
      <trkpt lat="35.621087" lon="128.994478"><ele>900.8</ele></trkpt>
      <trkpt lat="35.621508" lon="128.994102"><ele>876.3</ele></trkpt>
      <trkpt lat="35.621578" lon="128.993931"><ele>871.2</ele></trkpt>
      <trkpt lat="35.621883" lon="128.993748"><ele>860.4</ele></trkpt>
      <trkpt lat="35.622101" lon="128.993520"><ele>854.5</ele></trkpt>
      <trkpt lat="35.622149" lon="128.993182"><ele>845.8</ele></trkpt>
      <trkpt lat="35.622140" lon="128.992614"><ele>831.5</ele></trkpt>
      <trkpt lat="35.622197" lon="128.992436"><ele>825.6</ele></trkpt>
      <trkpt lat="35.622140" lon="128.992265"><ele>819.7</ele></trkpt>
      <trkpt lat="35.622184" lon="128.992029"><ele>808.1</ele></trkpt>
      <trkpt lat="35.622450" lon="128.991696"><ele>799.1</ele></trkpt>
      <trkpt lat="35.622485" lon="128.991562"><ele>795.0</ele></trkpt>
      <trkpt lat="35.622410" lon="128.991256"><ele>784.8</ele></trkpt>
      <trkpt lat="35.622541" lon="128.989781"><ele>744.3</ele></trkpt>
      <trkpt lat="35.622524" lon="128.988885"><ele>723.7</ele></trkpt>
      <trkpt lat="35.622336" lon="128.988241"><ele>713.7</ele></trkpt>
      <trkpt lat="35.622336" lon="128.988054"><ele>712.3</ele></trkpt>
      <trkpt lat="35.622194" lon="128.987839"><ele>704.4</ele></trkpt>
      <trkpt lat="35.622273" lon="128.987547"><ele>706.8</ele></trkpt>
      <trkpt lat="35.622116" lon="128.987367"><ele>697.6</ele></trkpt>
      <trkpt lat="35.622123" lon="128.987179"><ele>696.1</ele></trkpt>
      <trkpt lat="35.622046" lon="128.986914"><ele>693.0</ele></trkpt>
      <trkpt lat="35.622077" lon="128.986670"><ele>691.1</ele></trkpt>
      <trkpt lat="35.622020" lon="128.986589"><ele>685.6</ele></trkpt>
      <trkpt lat="35.622073" lon="128.986388"><ele>683.4</ele></trkpt>
      <trkpt lat="35.621948" lon="128.986192"><ele>671.3</ele></trkpt>
      <trkpt lat="35.621931" lon="128.984798"><ele>642.3</ele></trkpt>
      <trkpt lat="35.621745" lon="128.984194"><ele>631.3</ele></trkpt>
      <trkpt lat="35.621377" lon="128.983462"><ele>601.8</ele></trkpt>
      <trkpt lat="35.621338" lon="128.983135"><ele>595.8</ele></trkpt>
      <trkpt lat="35.621364" lon="128.982850"><ele>587.4</ele></trkpt>
      <trkpt lat="35.621530" lon="128.982604"><ele>582.5</ele></trkpt>
      <trkpt lat="35.621591" lon="128.982351"><ele>575.8</ele></trkpt>
      <trkpt lat="35.621604" lon="128.982040"><ele>569.3</ele></trkpt>
      <trkpt lat="35.621726" lon="128.981622"><ele>564.4</ele></trkpt>
      <trkpt lat="35.621737" lon="128.980900"><ele>545.7</ele></trkpt>
      <trkpt lat="35.621700" lon="128.980522"><ele>534.4</ele></trkpt>
      <trkpt lat="35.621822" lon="128.980131"><ele>526.4</ele></trkpt>
      <trkpt lat="35.621710" lon="128.980055"><ele>527.4</ele></trkpt>
      <trkpt lat="35.621634" lon="128.979927"><ele>529.1</ele></trkpt>
      <trkpt lat="35.621669" lon="128.979637"><ele>526.2</ele></trkpt>
      <trkpt lat="35.621787" lon="128.979294"><ele>522.8</ele></trkpt>
      <trkpt lat="35.621654" lon="128.978953"><ele>528.5</ele></trkpt>
      <trkpt lat="35.621418" lon="128.978776"><ele>534.1</ele></trkpt>
      <trkpt lat="35.621157" lon="128.978500"><ele>537.2</ele></trkpt>
      <trkpt lat="35.621089" lon="128.978360"><ele>537.0</ele></trkpt>
      <trkpt lat="35.621111" lon="128.978108"><ele>535.2</ele></trkpt>
      <trkpt lat="35.621411" lon="128.977945"><ele>528.6</ele></trkpt>
      <trkpt lat="35.621284" lon="128.977652"><ele>534.6</ele></trkpt>
      <trkpt lat="35.620736" lon="128.977220"><ele>550.7</ele></trkpt>
      <trkpt lat="35.620255" lon="128.977116"><ele>557.8</ele></trkpt>
      <trkpt lat="35.620098" lon="128.976837"><ele>567.3</ele></trkpt>
      <trkpt lat="35.619461" lon="128.976719"><ele>581.0</ele></trkpt>
      <trkpt lat="35.619235" lon="128.976569"><ele>586.3</ele></trkpt>
      <trkpt lat="35.619104" lon="128.976333"><ele>594.4</ele></trkpt>
      <trkpt lat="35.618033" lon="128.975337"><ele>614.7</ele></trkpt>
      <trkpt lat="35.618266" lon="128.975198"><ele>619.3</ele></trkpt>
      <trkpt lat="35.618255" lon="128.975048"><ele>624.5</ele></trkpt>
      <trkpt lat="35.618353" lon="128.974806"><ele>634.5</ele></trkpt>
      <trkpt lat="35.618257" lon="128.974715"><ele>636.2</ele></trkpt>
      <trkpt lat="35.618298" lon="128.974592"><ele>642.1</ele></trkpt>
      <trkpt lat="35.618292" lon="128.974275"><ele>658.7</ele></trkpt>
      <trkpt lat="35.618231" lon="128.974192"><ele>662.6</ele></trkpt>
      <trkpt lat="35.618261" lon="128.974082"><ele>667.9</ele></trkpt>
      <trkpt lat="35.618154" lon="128.973398"><ele>698.1</ele></trkpt>
      <trkpt lat="35.618167" lon="128.972974"><ele>715.8</ele></trkpt>
      <trkpt lat="35.618268" lon="128.972840"><ele>720.9</ele></trkpt>
      <trkpt lat="35.618292" lon="128.972476"><ele>735.1</ele></trkpt>
      <trkpt lat="35.618270" lon="128.972315"><ele>740.5</ele></trkpt>
      <trkpt lat="35.618207" lon="128.972253"><ele>742.9</ele></trkpt>
      <trkpt lat="35.618074" lon="128.971794"><ele>758.5</ele></trkpt>
      <trkpt lat="35.618076" lon="128.971223"><ele>781.7</ele></trkpt>
      <trkpt lat="35.618364" lon="128.970805"><ele>796.8</ele></trkpt>
      <trkpt lat="35.618438" lon="128.970558"><ele>806.9</ele></trkpt>
      <trkpt lat="35.618547" lon="128.970383"><ele>816.7</ele></trkpt>
      <trkpt lat="35.618534" lon="128.970281"><ele>820.1</ele></trkpt>
      <trkpt lat="35.618614" lon="128.970054"><ele>831.2</ele></trkpt>
      <trkpt lat="35.618567" lon="128.969957"><ele>832.8</ele></trkpt>
      <trkpt lat="35.618736" lon="128.970002"><ele>836.1</ele></trkpt>
      <trkpt lat="35.618883" lon="128.969860"><ele>843.4</ele></trkpt>
      <trkpt lat="35.619046" lon="128.969560"><ele>853.9</ele></trkpt>
      <trkpt lat="35.619275" lon="128.968911"><ele>876.8</ele></trkpt>
      <trkpt lat="35.619079" lon="128.968624"><ele>883.4</ele></trkpt>
      <trkpt lat="35.618922" lon="128.968243"><ele>895.7</ele></trkpt>
      <trkpt lat="35.618569" lon="128.967760"><ele>911.5</ele></trkpt>
      <trkpt lat="35.618429" lon="128.967417"><ele>921.1</ele></trkpt>
      <trkpt lat="35.618311" lon="128.967256"><ele>930.7</ele></trkpt>
      <trkpt lat="35.618290" lon="128.967117"><ele>935.1</ele></trkpt>
      <trkpt lat="35.618058" lon="128.966896"><ele>940.2</ele></trkpt>
      <trkpt lat="35.618255" lon="128.965620"><ele>959.8</ele></trkpt>
      <trkpt lat="35.618359" lon="128.965217"><ele>971.4</ele></trkpt>
      <trkpt lat="35.618673" lon="128.964692"><ele>1004.8</ele></trkpt>
      <trkpt lat="35.618787" lon="128.964354"><ele>1020.9</ele></trkpt>
      <trkpt lat="35.618922" lon="128.964198"><ele>1026.8</ele></trkpt>
      <trkpt lat="35.619006" lon="128.963935"><ele>1027.6</ele></trkpt>
      <trkpt lat="35.618839" lon="128.963836"><ele>1033.5</ele></trkpt>
      <trkpt lat="35.618690" lon="128.963430"><ele>1035.1</ele></trkpt>
      <trkpt lat="35.618392" lon="128.963095"><ele>1038.6</ele></trkpt>
      <trkpt lat="35.617954" lon="128.962477"><ele>1055.4</ele></trkpt>
      <trkpt lat="35.617809" lon="128.962384"><ele>1064.2</ele></trkpt>
      <trkpt lat="35.617580" lon="128.962097"><ele>1077.8</ele></trkpt>
      <trkpt lat="35.617297" lon="128.961898"><ele>1093.6</ele></trkpt>
      <trkpt lat="35.617155" lon="128.961660"><ele>1110.8</ele></trkpt>
      <trkpt lat="35.617098" lon="128.961322"><ele>1127.1</ele></trkpt>
      <trkpt lat="35.616902" lon="128.960866"><ele>1145.6</ele></trkpt>
      <trkpt lat="35.616928" lon="128.960552"><ele>1155.2</ele></trkpt>
      <trkpt lat="35.616787" lon="128.960310"><ele>1161.5</ele></trkpt>
      <trkpt lat="35.617251" lon="128.960495"><ele>1144.8</ele></trkpt>
      <trkpt lat="35.617506" lon="128.960481"><ele>1137.0</ele></trkpt>
      <trkpt lat="35.617749" lon="128.960590"><ele>1127.6</ele></trkpt>
      <trkpt lat="35.618062" lon="128.960518"><ele>1111.8</ele></trkpt>
      <trkpt lat="35.618448" lon="128.960630"><ele>1091.9</ele></trkpt>
      <trkpt lat="35.618765" lon="128.960320"><ele>1075.5</ele></trkpt>
      <trkpt lat="35.618824" lon="128.960358"><ele>1071.5</ele></trkpt>
      <trkpt lat="35.619108" lon="128.960300"><ele>1056.3</ele></trkpt>
      <trkpt lat="35.619395" lon="128.960103"><ele>1044.5</ele></trkpt>
      <trkpt lat="35.619482" lon="128.959918"><ele>1041.2</ele></trkpt>
      <trkpt lat="35.619641" lon="128.959740"><ele>1035.3</ele></trkpt>
      <trkpt lat="35.620150" lon="128.959465"><ele>1024.3</ele></trkpt>
      <trkpt lat="35.620209" lon="128.959719"><ele>1023.5</ele></trkpt>
      <trkpt lat="35.620364" lon="128.959754"><ele>1018.5</ele></trkpt>
      <trkpt lat="35.620554" lon="128.959704"><ele>1012.2</ele></trkpt>
      <trkpt lat="35.620966" lon="128.959959"><ele>980.2</ele></trkpt>
      <trkpt lat="35.621078" lon="128.960451"><ele>965.5</ele></trkpt>
      <trkpt lat="35.621187" lon="128.960578"><ele>955.2</ele></trkpt>
      <trkpt lat="35.621150" lon="128.960748"><ele>955.9</ele></trkpt>
      <trkpt lat="35.621230" lon="128.960968"><ele>941.9</ele></trkpt>
      <trkpt lat="35.621417" lon="128.961085"><ele>932.0</ele></trkpt>
      <trkpt lat="35.621435" lon="128.961191"><ele>927.4</ele></trkpt>
      <trkpt lat="35.621512" lon="128.961212"><ele>923.3</ele></trkpt>
      <trkpt lat="35.621610" lon="128.961159"><ele>919.7</ele></trkpt>
      <trkpt lat="35.621630" lon="128.961223"><ele>918.1</ele></trkpt>
      <trkpt lat="35.621353" lon="128.961727"><ele>897.5</ele></trkpt>
      <trkpt lat="35.621115" lon="128.961895"><ele>883.5</ele></trkpt>
      <trkpt lat="35.621037" lon="128.962039"><ele>877.6</ele></trkpt>
      <trkpt lat="35.621056" lon="128.962350"><ele>865.7</ele></trkpt>
      <trkpt lat="35.620886" lon="128.962401"><ele>870.0</ele></trkpt>
      <trkpt lat="35.620862" lon="128.962471"><ele>868.8</ele></trkpt>
      <trkpt lat="35.621026" lon="128.963053"><ele>842.6</ele></trkpt>
      <trkpt lat="35.621294" lon="128.963222"><ele>822.6</ele></trkpt>
      <trkpt lat="35.621429" lon="128.963216"><ele>815.5</ele></trkpt>
      <trkpt lat="35.621717" lon="128.963329"><ele>789.1</ele></trkpt>
      <trkpt lat="35.622434" lon="128.963168"><ele>750.5</ele></trkpt>
      <trkpt lat="35.623198" lon="128.963184"><ele>700.0</ele></trkpt>
      <trkpt lat="35.623612" lon="128.962970"><ele>682.4</ele></trkpt>
      <trkpt lat="35.623775" lon="128.962999"><ele>677.5</ele></trkpt>
      <trkpt lat="35.623908" lon="128.962946"><ele>672.3</ele></trkpt>
      <trkpt lat="35.623952" lon="128.963093"><ele>673.7</ele></trkpt>
      <trkpt lat="35.624083" lon="128.963082"><ele>668.7</ele></trkpt>
      <trkpt lat="35.624545" lon="128.963289"><ele>651.1</ele></trkpt>
      <trkpt lat="35.625155" lon="128.963699"><ele>623.4</ele></trkpt>
      <trkpt lat="35.625622" lon="128.963506"><ele>606.9</ele></trkpt>
      <trkpt lat="35.625860" lon="128.963584"><ele>601.2</ele></trkpt>
      <trkpt lat="35.626030" lon="128.963512"><ele>599.3</ele></trkpt>
      <trkpt lat="35.626439" lon="128.963477"><ele>580.9</ele></trkpt>
      <trkpt lat="35.626875" lon="128.963584"><ele>559.5</ele></trkpt>
      <trkpt lat="35.627351" lon="128.963359"><ele>544.9</ele></trkpt>
      <trkpt lat="35.627907" lon="128.962911"><ele>537.2</ele></trkpt>
      <trkpt lat="35.628173" lon="128.962766"><ele>531.3</ele></trkpt>
      <trkpt lat="35.628456" lon="128.962685"><ele>521.6</ele></trkpt>
      <trkpt lat="35.628482" lon="128.962538"><ele>522.8</ele></trkpt>
      <trkpt lat="35.628578" lon="128.962417"><ele>519.9</ele></trkpt>
      <trkpt lat="35.629010" lon="128.962482"><ele>493.1</ele></trkpt>
      <trkpt lat="35.629278" lon="128.962345"><ele>483.9</ele></trkpt>
      <trkpt lat="35.629306" lon="128.962160"><ele>488.2</ele></trkpt>
      <trkpt lat="35.629424" lon="128.962061"><ele>485.7</ele></trkpt>
      <trkpt lat="35.629701" lon="128.961653"><ele>477.8</ele></trkpt>
      <trkpt lat="35.629917" lon="128.961524"><ele>469.9</ele></trkpt>
      <trkpt lat="35.630015" lon="128.961540"><ele>464.4</ele></trkpt>
      <trkpt lat="35.630163" lon="128.961470"><ele>457.7</ele></trkpt>
      <trkpt lat="35.630429" lon="128.961529"><ele>445.9</ele></trkpt>
      <trkpt lat="35.630839" lon="128.961406"><ele>440.6</ele></trkpt>
      <trkpt lat="35.630983" lon="128.961449"><ele>437.9</ele></trkpt>
      <trkpt lat="35.631303" lon="128.961387"><ele>431.8</ele></trkpt>
    </trkseg>
  </trk>
</gpx>
