<?xml version="1.0" encoding="UTF-8"?>
<gpx version="1.1" creator="kr-100-mountains route-harvester"
     xmlns="http://www.topografix.com/GPX/1/1"
     xmlns:k100="https://github.com/jay-jang/kr-100-mountains/ns/1"
     xmlns:xsi="http://www.w3.org/2001/XMLSchema-instance"
     xsi:schemaLocation="http://www.topografix.com/GPX/1/1 http://www.topografix.com/GPX/1/1/gpx.xsd">
  <metadata>
    <name>운문산 · 석남터널-가지산-아랫재-운문산 정상-석골사 (대안 1) (OSM 계산 경로)</name>
    <desc>실제 GPS 기록이 아닙니다. OpenStreetMap에 등록된 등산로 선형 위에서 계산한 경로이며, 현장 통제·훼손·출입 제한·계절 통제를 반영하지 않을 수 있습니다. 산행 전 공식 안내를 확인하세요.</desc>
    <time>2026-08-04T05:39:39.882Z</time>
    <link href="https://www.openstreetmap.org/copyright"><text>© OpenStreetMap contributors (ODbL 1.0)</text></link>
    <link href="https://registry.opendata.aws/terrain-tiles/"><text>Elevation: SRTM 1 arc-second (NASA/USGS) via AWS Terrain Tiles</text></link>
    <extensions>
      <k100:provenance>osm-routed</k100:provenance>
      <k100:not_a_recorded_track>true</k100:not_a_recorded_track>
      <k100:mountain_id>unmunsan</k100:mountain_id>
      <k100:mountain_name>운문산</k100:mountain_name>
      <k100:route_id>unmunsan-ffa537ad</k100:route_id>
      <k100:route_index>4</k100:route_index>
      <k100:route_name>석남터널-가지산-아랫재-운문산 정상-석골사</k100:route_name>
      <k100:variant>1</k100:variant>
      <k100:source>OpenStreetMap via Overpass API</k100:source>
      <k100:license>ODbL-1.0</k100:license>
      <k100:attribution>© OpenStreetMap contributors</k100:attribution>
      <k100:elevation_source>SRTM 1 arc-second (NASA/USGS) — AWS Terrain Tiles 배포본. 지형 DEM 추정 고도이며 실측 아님</k100:elevation_source>
      <k100:algorithm>dijkstra-grid-v1</k100:algorithm>
      <k100:osm_snapshot>2026-08-04</k100:osm_snapshot>
      <k100:snap_trailhead_m>104</k100:snap_trailhead_m>
      <k100:snap_summit_m>135</k100:snap_summit_m>
      <k100:validation_score>82</k100:validation_score>
      <k100:validation_status>accepted</k100:validation_status>
    </extensions>
  </metadata>
  <trk>
    <name>운문산 · 석남터널-가지산-아랫재-운문산 정상-석골사 (대안 1) (OSM 계산 경로)</name>
    <desc>실제 GPS 기록이 아닙니다. OpenStreetMap에 등록된 등산로 선형 위에서 계산한 경로이며, 현장 통제·훼손·출입 제한·계절 통제를 반영하지 않을 수 있습니다. 산행 전 공식 안내를 확인하세요.</desc>
    <trkseg>
      <trkpt lat="35.608280" lon="129.025320"><ele>648.6</ele></trkpt>
      <trkpt lat="35.609010" lon="129.019690"><ele>654.2</ele></trkpt>
      <trkpt lat="35.608924" lon="129.019657"><ele>650.9</ele></trkpt>
      <trkpt lat="35.608894" lon="129.019489"><ele>646.9</ele></trkpt>
      <trkpt lat="35.608368" lon="129.018764"><ele>645.9</ele></trkpt>
      <trkpt lat="35.607715" lon="129.018039"><ele>640.9</ele></trkpt>
      <trkpt lat="35.607577" lon="129.018125"><ele>633.9</ele></trkpt>
      <trkpt lat="35.607162" lon="129.017970"><ele>624.7</ele></trkpt>
      <trkpt lat="35.607079" lon="129.018011"><ele>622.5</ele></trkpt>
      <trkpt lat="35.606765" lon="129.017872"><ele>615.1</ele></trkpt>
      <trkpt lat="35.606632" lon="129.017908"><ele>611.3</ele></trkpt>
      <trkpt lat="35.606159" lon="129.017689"><ele>604.0</ele></trkpt>
      <trkpt lat="35.605801" lon="129.017625"><ele>599.6</ele></trkpt>
      <trkpt lat="35.605717" lon="129.017573"><ele>599.5</ele></trkpt>
      <trkpt lat="35.605662" lon="129.017289"><ele>597.7</ele></trkpt>
      <trkpt lat="35.605308" lon="129.016944"><ele>591.6</ele></trkpt>
      <trkpt lat="35.604749" lon="129.016607"><ele>582.5</ele></trkpt>
      <trkpt lat="35.604447" lon="129.016359"><ele>578.6</ele></trkpt>
      <trkpt lat="35.603831" lon="129.016264"><ele>573.7</ele></trkpt>
      <trkpt lat="35.603248" lon="129.015890"><ele>562.5</ele></trkpt>
      <trkpt lat="35.603217" lon="129.015784"><ele>560.4</ele></trkpt>
      <trkpt lat="35.602864" lon="129.015396"><ele>554.4</ele></trkpt>
      <trkpt lat="35.602576" lon="129.015348"><ele>551.0</ele></trkpt>
      <trkpt lat="35.602205" lon="129.015369"><ele>543.7</ele></trkpt>
      <trkpt lat="35.601800" lon="129.015214"><ele>534.9</ele></trkpt>
      <trkpt lat="35.601573" lon="129.015321"><ele>535.1</ele></trkpt>
      <trkpt lat="35.601193" lon="129.015082"><ele>527.5</ele></trkpt>
      <trkpt lat="35.601001" lon="129.015048"><ele>525.5</ele></trkpt>
      <trkpt lat="35.600796" lon="129.014527"><ele>520.2</ele></trkpt>
      <trkpt lat="35.600336" lon="129.014165"><ele>512.1</ele></trkpt>
      <trkpt lat="35.599606" lon="129.013979"><ele>503.3</ele></trkpt>
      <trkpt lat="35.599139" lon="129.013588"><ele>499.5</ele></trkpt>
      <trkpt lat="35.598352" lon="129.013205"><ele>490.8</ele></trkpt>
      <trkpt lat="35.598144" lon="129.012969"><ele>488.1</ele></trkpt>
      <trkpt lat="35.597955" lon="129.012856"><ele>485.1</ele></trkpt>
      <trkpt lat="35.597726" lon="129.012580"><ele>482.5</ele></trkpt>
      <trkpt lat="35.596812" lon="129.011840"><ele>478.2</ele></trkpt>
      <trkpt lat="35.596622" lon="129.011775"><ele>477.0</ele></trkpt>
      <trkpt lat="35.596430" lon="129.011539"><ele>477.8</ele></trkpt>
      <trkpt lat="35.596221" lon="129.011526"><ele>474.8</ele></trkpt>
      <trkpt lat="35.596112" lon="129.011418"><ele>473.8</ele></trkpt>
      <trkpt lat="35.595505" lon="129.011424"><ele>467.1</ele></trkpt>
      <trkpt lat="35.595050" lon="129.011257"><ele>461.6</ele></trkpt>
      <trkpt lat="35.593979" lon="129.010324"><ele>452.7</ele></trkpt>
      <trkpt lat="35.593761" lon="129.009935"><ele>446.8</ele></trkpt>
      <trkpt lat="35.593689" lon="129.009388"><ele>447.0</ele></trkpt>
      <trkpt lat="35.593604" lon="129.009152"><ele>447.2</ele></trkpt>
      <trkpt lat="35.592901" lon="129.008457"><ele>438.0</ele></trkpt>
      <trkpt lat="35.592613" lon="129.007612"><ele>435.5</ele></trkpt>
      <trkpt lat="35.592271" lon="129.007388"><ele>426.9</ele></trkpt>
      <trkpt lat="35.592015" lon="129.007289"><ele>424.3</ele></trkpt>
      <trkpt lat="35.591578" lon="129.006946"><ele>422.3</ele></trkpt>
      <trkpt lat="35.591373" lon="129.006599"><ele>419.9</ele></trkpt>
      <trkpt lat="35.591313" lon="129.006347"><ele>419.1</ele></trkpt>
      <trkpt lat="35.591330" lon="129.006124"><ele>419.3</ele></trkpt>
      <trkpt lat="35.591031" lon="129.005484"><ele>412.6</ele></trkpt>
      <trkpt lat="35.590567" lon="129.004833"><ele>408.0</ele></trkpt>
      <trkpt lat="35.590444" lon="129.004422"><ele>406.8</ele></trkpt>
      <trkpt lat="35.590426" lon="129.004075"><ele>406.5</ele></trkpt>
      <trkpt lat="35.590303" lon="129.003573"><ele>400.8</ele></trkpt>
      <trkpt lat="35.589624" lon="129.002132"><ele>393.5</ele></trkpt>
      <trkpt lat="35.589477" lon="129.001216"><ele>400.4</ele></trkpt>
      <trkpt lat="35.589382" lon="129.001049"><ele>398.9</ele></trkpt>
      <trkpt lat="35.589235" lon="129.000929"><ele>393.3</ele></trkpt>
      <trkpt lat="35.588985" lon="129.000387"><ele>390.1</ele></trkpt>
      <trkpt lat="35.588815" lon="129.000327"><ele>383.1</ele></trkpt>
      <trkpt lat="35.588705" lon="129.000125"><ele>380.3</ele></trkpt>
      <trkpt lat="35.588518" lon="128.999952"><ele>378.1</ele></trkpt>
      <trkpt lat="35.588210" lon="128.999513"><ele>376.0</ele></trkpt>
      <trkpt lat="35.587920" lon="128.999248"><ele>368.6</ele></trkpt>
      <trkpt lat="35.587790" lon="128.998904"><ele>368.3</ele></trkpt>
      <trkpt lat="35.587465" lon="128.998476"><ele>365.4</ele></trkpt>
      <trkpt lat="35.587114" lon="128.997821"><ele>364.8</ele></trkpt>
      <trkpt lat="35.586881" lon="128.997492"><ele>356.6</ele></trkpt>
      <trkpt lat="35.586705" lon="128.997145"><ele>353.2</ele></trkpt>
      <trkpt lat="35.586676" lon="128.996846"><ele>356.3</ele></trkpt>
      <trkpt lat="35.586452" lon="128.996852"><ele>352.1</ele></trkpt>
      <trkpt lat="35.586305" lon="128.996784"><ele>351.3</ele></trkpt>
      <trkpt lat="35.586133" lon="128.996471"><ele>353.6</ele></trkpt>
      <trkpt lat="35.586315" lon="128.996317"><ele>358.3</ele></trkpt>
      <trkpt lat="35.586314" lon="128.996151"><ele>361.5</ele></trkpt>
      <trkpt lat="35.586394" lon="128.995905"><ele>373.4</ele></trkpt>
      <trkpt lat="35.586564" lon="128.995811"><ele>386.8</ele></trkpt>
      <trkpt lat="35.586709" lon="128.995609"><ele>401.3</ele></trkpt>
      <trkpt lat="35.586920" lon="128.995492"><ele>415.4</ele></trkpt>
      <trkpt lat="35.587120" lon="128.995554"><ele>419.5</ele></trkpt>
      <trkpt lat="35.587078" lon="128.995170"><ele>428.0</ele></trkpt>
      <trkpt lat="35.587381" lon="128.995070"><ele>437.9</ele></trkpt>
      <trkpt lat="35.587454" lon="128.994826"><ele>451.5</ele></trkpt>
      <trkpt lat="35.587412" lon="128.994707"><ele>455.8</ele></trkpt>
      <trkpt lat="35.587476" lon="128.994602"><ele>465.5</ele></trkpt>
      <trkpt lat="35.587902" lon="128.993182"><ele>531.1</ele></trkpt>
      <trkpt lat="35.587879" lon="128.992552"><ele>554.9</ele></trkpt>
      <trkpt lat="35.587930" lon="128.992305"><ele>566.9</ele></trkpt>
      <trkpt lat="35.588098" lon="128.991919"><ele>580.4</ele></trkpt>
      <trkpt lat="35.588325" lon="128.991090"><ele>615.5</ele></trkpt>
      <trkpt lat="35.588481" lon="128.991032"><ele>623.3</ele></trkpt>
      <trkpt lat="35.588585" lon="128.990875"><ele>630.1</ele></trkpt>
      <trkpt lat="35.588853" lon="128.990723"><ele>640.9</ele></trkpt>
      <trkpt lat="35.589079" lon="128.990660"><ele>651.9</ele></trkpt>
      <trkpt lat="35.589299" lon="128.990420"><ele>664.9</ele></trkpt>
      <trkpt lat="35.589398" lon="128.990468"><ele>667.8</ele></trkpt>
      <trkpt lat="35.589520" lon="128.990380"><ele>675.7</ele></trkpt>
      <trkpt lat="35.589542" lon="128.990264"><ele>681.9</ele></trkpt>
      <trkpt lat="35.589672" lon="128.990250"><ele>686.1</ele></trkpt>
      <trkpt lat="35.589763" lon="128.990044"><ele>693.6</ele></trkpt>
      <trkpt lat="35.589906" lon="128.989930"><ele>703.3</ele></trkpt>
      <trkpt lat="35.589941" lon="128.989532"><ele>722.7</ele></trkpt>
      <trkpt lat="35.590025" lon="128.989412"><ele>730.1</ele></trkpt>
      <trkpt lat="35.590156" lon="128.988959"><ele>737.9</ele></trkpt>
      <trkpt lat="35.590179" lon="128.988531"><ele>730.4</ele></trkpt>
      <trkpt lat="35.590287" lon="128.988340"><ele>729.9</ele></trkpt>
      <trkpt lat="35.590325" lon="128.987677"><ele>737.1</ele></trkpt>
      <trkpt lat="35.590289" lon="128.987352"><ele>742.7</ele></trkpt>
      <trkpt lat="35.590336" lon="128.987258"><ele>746.7</ele></trkpt>
      <trkpt lat="35.590332" lon="128.987039"><ele>750.9</ele></trkpt>
      <trkpt lat="35.590447" lon="128.986533"><ele>772.1</ele></trkpt>
      <trkpt lat="35.591327" lon="128.985817"><ele>792.3</ele></trkpt>
      <trkpt lat="35.591407" lon="128.985701"><ele>792.9</ele></trkpt>
      <trkpt lat="35.591454" lon="128.985520"><ele>794.1</ele></trkpt>
      <trkpt lat="35.591551" lon="128.985501"><ele>796.3</ele></trkpt>
      <trkpt lat="35.591651" lon="128.985392"><ele>800.4</ele></trkpt>
      <trkpt lat="35.591814" lon="128.985357"><ele>805.4</ele></trkpt>
      <trkpt lat="35.591828" lon="128.985286"><ele>808.5</ele></trkpt>
      <trkpt lat="35.592293" lon="128.985205"><ele>828.4</ele></trkpt>
      <trkpt lat="35.592364" lon="128.985099"><ele>835.2</ele></trkpt>
      <trkpt lat="35.592678" lon="128.984905"><ele>854.0</ele></trkpt>
      <trkpt lat="35.592756" lon="128.984942"><ele>857.7</ele></trkpt>
      <trkpt lat="35.592965" lon="128.984846"><ele>861.6</ele></trkpt>
      <trkpt lat="35.593162" lon="128.984890"><ele>865.4</ele></trkpt>
      <trkpt lat="35.593366" lon="128.984860"><ele>868.1</ele></trkpt>
      <trkpt lat="35.593475" lon="128.984742"><ele>868.9</ele></trkpt>
      <trkpt lat="35.593906" lon="128.984741"><ele>859.1</ele></trkpt>
      <trkpt lat="35.594004" lon="128.984848"><ele>853.9</ele></trkpt>
      <trkpt lat="35.594249" lon="128.984779"><ele>845.8</ele></trkpt>
      <trkpt lat="35.594477" lon="128.984862"><ele>840.4</ele></trkpt>
      <trkpt lat="35.594587" lon="128.984823"><ele>840.4</ele></trkpt>
      <trkpt lat="35.594658" lon="128.984874"><ele>839.6</ele></trkpt>
      <trkpt lat="35.595225" lon="128.984976"><ele>843.3</ele></trkpt>
      <trkpt lat="35.595827" lon="128.984312"><ele>810.3</ele></trkpt>
      <trkpt lat="35.595810" lon="128.984246"><ele>808.7</ele></trkpt>
      <trkpt lat="35.595864" lon="128.984143"><ele>804.5</ele></trkpt>
      <trkpt lat="35.596115" lon="128.984186"><ele>800.3</ele></trkpt>
      <trkpt lat="35.596328" lon="128.984091"><ele>786.7</ele></trkpt>
      <trkpt lat="35.596490" lon="128.984108"><ele>781.3</ele></trkpt>
      <trkpt lat="35.596802" lon="128.984019"><ele>774.1</ele></trkpt>
      <trkpt lat="35.596955" lon="128.984035"><ele>773.7</ele></trkpt>
      <trkpt lat="35.597133" lon="128.983976"><ele>774.2</ele></trkpt>
      <trkpt lat="35.597275" lon="128.984014"><ele>774.8</ele></trkpt>
      <trkpt lat="35.597855" lon="128.983912"><ele>774.1</ele></trkpt>
      <trkpt lat="35.598100" lon="128.983934"><ele>774.9</ele></trkpt>
      <trkpt lat="35.598316" lon="128.984030"><ele>778.3</ele></trkpt>
      <trkpt lat="35.598630" lon="128.983995"><ele>780.2</ele></trkpt>
      <trkpt lat="35.599070" lon="128.984105"><ele>783.5</ele></trkpt>
      <trkpt lat="35.599307" lon="128.984077"><ele>786.9</ele></trkpt>
      <trkpt lat="35.599489" lon="128.984154"><ele>792.1</ele></trkpt>
      <trkpt lat="35.599782" lon="128.983948"><ele>791.1</ele></trkpt>
      <trkpt lat="35.599874" lon="128.983953"><ele>791.4</ele></trkpt>
      <trkpt lat="35.600072" lon="128.983674"><ele>789.4</ele></trkpt>
      <trkpt lat="35.600515" lon="128.983293"><ele>789.0</ele></trkpt>
      <trkpt lat="35.600620" lon="128.983129"><ele>789.2</ele></trkpt>
      <trkpt lat="35.600781" lon="128.983031"><ele>792.2</ele></trkpt>
      <trkpt lat="35.601252" lon="128.982859"><ele>798.8</ele></trkpt>
      <trkpt lat="35.601963" lon="128.982960"><ele>805.1</ele></trkpt>
      <trkpt lat="35.602764" lon="128.982546"><ele>833.6</ele></trkpt>
      <trkpt lat="35.602785" lon="128.982427"><ele>836.6</ele></trkpt>
      <trkpt lat="35.602938" lon="128.982375"><ele>842.4</ele></trkpt>
      <trkpt lat="35.603365" lon="128.981838"><ele>877.0</ele></trkpt>
      <trkpt lat="35.604063" lon="128.981424"><ele>914.4</ele></trkpt>
      <trkpt lat="35.604332" lon="128.981158"><ele>930.7</ele></trkpt>
      <trkpt lat="35.604685" lon="128.980954"><ele>940.4</ele></trkpt>
      <trkpt lat="35.606118" lon="128.981259"><ele>979.8</ele></trkpt>
      <trkpt lat="35.606362" lon="128.981409"><ele>988.2</ele></trkpt>
      <trkpt lat="35.606711" lon="128.981511"><ele>1005.4</ele></trkpt>
      <trkpt lat="35.606798" lon="128.981645"><ele>1012.6</ele></trkpt>
      <trkpt lat="35.607160" lon="128.981892"><ele>1034.6</ele></trkpt>
      <trkpt lat="35.607160" lon="128.981951"><ele>1034.7</ele></trkpt>
      <trkpt lat="35.607295" lon="128.982136"><ele>1042.1</ele></trkpt>
      <trkpt lat="35.607531" lon="128.982345"><ele>1050.0</ele></trkpt>
      <trkpt lat="35.607563" lon="128.982469"><ele>1050.4</ele></trkpt>
      <trkpt lat="35.607779" lon="128.982682"><ele>1055.6</ele></trkpt>
      <trkpt lat="35.607795" lon="128.982550"><ele>1054.9</ele></trkpt>
      <trkpt lat="35.607629" lon="128.982201"><ele>1051.5</ele></trkpt>
      <trkpt lat="35.607609" lon="128.981946"><ele>1053.0</ele></trkpt>
      <trkpt lat="35.607547" lon="128.981828"><ele>1050.3</ele></trkpt>
      <trkpt lat="35.607787" lon="128.981281"><ele>1041.7</ele></trkpt>
      <trkpt lat="35.608222" lon="128.980511"><ele>1044.6</ele></trkpt>
      <trkpt lat="35.608248" lon="128.979665"><ele>1032.6</ele></trkpt>
      <trkpt lat="35.608705" lon="128.978897"><ele>1007.5</ele></trkpt>
      <trkpt lat="35.608942" lon="128.978707"><ele>993.0</ele></trkpt>
      <trkpt lat="35.608996" lon="128.978578"><ele>986.2</ele></trkpt>
      <trkpt lat="35.609133" lon="128.978486"><ele>978.0</ele></trkpt>
      <trkpt lat="35.609481" lon="128.978052"><ele>957.6</ele></trkpt>
      <trkpt lat="35.609725" lon="128.978048"><ele>949.7</ele></trkpt>
      <trkpt lat="35.609958" lon="128.977918"><ele>941.8</ele></trkpt>
      <trkpt lat="35.610023" lon="128.977640"><ele>937.2</ele></trkpt>
      <trkpt lat="35.610235" lon="128.977583"><ele>934.7</ele></trkpt>
      <trkpt lat="35.610472" lon="128.977258"><ele>934.0</ele></trkpt>
      <trkpt lat="35.610586" lon="128.976912"><ele>924.1</ele></trkpt>
      <trkpt lat="35.611096" lon="128.976383"><ele>874.3</ele></trkpt>
      <trkpt lat="35.611271" lon="128.975732"><ele>835.9</ele></trkpt>
      <trkpt lat="35.611302" lon="128.975172"><ele>818.3</ele></trkpt>
      <trkpt lat="35.611382" lon="128.975099"><ele>814.0</ele></trkpt>
      <trkpt lat="35.611528" lon="128.975091"><ele>805.9</ele></trkpt>
      <trkpt lat="35.611654" lon="128.974978"><ele>795.0</ele></trkpt>
      <trkpt lat="35.611988" lon="128.974947"><ele>781.6</ele></trkpt>
      <trkpt lat="35.612369" lon="128.974554"><ele>766.6</ele></trkpt>
      <trkpt lat="35.612455" lon="128.974383"><ele>762.6</ele></trkpt>
      <trkpt lat="35.612494" lon="128.974112"><ele>757.8</ele></trkpt>
      <trkpt lat="35.612587" lon="128.973875"><ele>752.5</ele></trkpt>
      <trkpt lat="35.612915" lon="128.973331"><ele>740.5</ele></trkpt>
      <trkpt lat="35.613031" lon="128.973043"><ele>733.9</ele></trkpt>
      <trkpt lat="35.613398" lon="128.972683"><ele>729.5</ele></trkpt>
      <trkpt lat="35.613476" lon="128.972492"><ele>733.7</ele></trkpt>
      <trkpt lat="35.613660" lon="128.972352"><ele>739.1</ele></trkpt>
      <trkpt lat="35.614087" lon="128.971468"><ele>764.0</ele></trkpt>
      <trkpt lat="35.614225" lon="128.970892"><ele>789.9</ele></trkpt>
      <trkpt lat="35.614234" lon="128.970531"><ele>801.2</ele></trkpt>
      <trkpt lat="35.613998" lon="128.969505"><ele>818.8</ele></trkpt>
      <trkpt lat="35.613992" lon="128.967959"><ele>879.5</ele></trkpt>
      <trkpt lat="35.614168" lon="128.967472"><ele>895.9</ele></trkpt>
      <trkpt lat="35.614187" lon="128.967129"><ele>906.8</ele></trkpt>
      <trkpt lat="35.614267" lon="128.966827"><ele>914.9</ele></trkpt>
      <trkpt lat="35.614426" lon="128.966482"><ele>925.7</ele></trkpt>
      <trkpt lat="35.614590" lon="128.966331"><ele>922.9</ele></trkpt>
      <trkpt lat="35.614612" lon="128.966196"><ele>925.8</ele></trkpt>
      <trkpt lat="35.614609" lon="128.966122"><ele>928.2</ele></trkpt>
      <trkpt lat="35.614350" lon="128.965891"><ele>947.8</ele></trkpt>
      <trkpt lat="35.614259" lon="128.965612"><ele>956.3</ele></trkpt>
      <trkpt lat="35.614345" lon="128.965148"><ele>960.2</ele></trkpt>
      <trkpt lat="35.614441" lon="128.965037"><ele>964.5</ele></trkpt>
      <trkpt lat="35.614297" lon="128.964013"><ele>992.7</ele></trkpt>
      <trkpt lat="35.614381" lon="128.963613"><ele>1005.6</ele></trkpt>
      <trkpt lat="35.614207" lon="128.963266"><ele>1016.9</ele></trkpt>
      <trkpt lat="35.614221" lon="128.962990"><ele>1034.0</ele></trkpt>
      <trkpt lat="35.614104" lon="128.962377"><ele>1059.0</ele></trkpt>
      <trkpt lat="35.614125" lon="128.962230"><ele>1064.5</ele></trkpt>
      <trkpt lat="35.614273" lon="128.962003"><ele>1075.0</ele></trkpt>
      <trkpt lat="35.614278" lon="128.961925"><ele>1076.6</ele></trkpt>
      <trkpt lat="35.614461" lon="128.961727"><ele>1086.0</ele></trkpt>
      <trkpt lat="35.614518" lon="128.961596"><ele>1086.9</ele></trkpt>
      <trkpt lat="35.614856" lon="128.961315"><ele>1100.8</ele></trkpt>
      <trkpt lat="35.614923" lon="128.961166"><ele>1105.3</ele></trkpt>
      <trkpt lat="35.614899" lon="128.961048"><ele>1105.3</ele></trkpt>
      <trkpt lat="35.614966" lon="128.960985"><ele>1109.6</ele></trkpt>
      <trkpt lat="35.614938" lon="128.960735"><ele>1113.3</ele></trkpt>
      <trkpt lat="35.615078" lon="128.960655"><ele>1124.1</ele></trkpt>
      <trkpt lat="35.615045" lon="128.960470"><ele>1131.1</ele></trkpt>
      <trkpt lat="35.615157" lon="128.960392"><ele>1143.2</ele></trkpt>
      <trkpt lat="35.615180" lon="128.960019"><ele>1161.4</ele></trkpt>
      <trkpt lat="35.615241" lon="128.959849"><ele>1170.9</ele></trkpt>
      <trkpt lat="35.615335" lon="128.959901"><ele>1172.9</ele></trkpt>
      <trkpt lat="35.615564" lon="128.959740"><ele>1184.6</ele></trkpt>
      <trkpt lat="35.615932" lon="128.959786"><ele>1183.5</ele></trkpt>
      <trkpt lat="35.616408" lon="128.959957"><ele>1172.6</ele></trkpt>
      <trkpt lat="35.616627" lon="128.960212"><ele>1166.5</ele></trkpt>
      <trkpt lat="35.617251" lon="128.960495"><ele>1144.8</ele></trkpt>
      <trkpt lat="35.617506" lon="128.960481"><ele>1137.0</ele></trkpt>
      <trkpt lat="35.617749" lon="128.960590"><ele>1127.6</ele></trkpt>
      <trkpt lat="35.618035" lon="128.960537"><ele>1113.5</ele></trkpt>
      <trkpt lat="35.618164" lon="128.959850"><ele>1091.3</ele></trkpt>
      <trkpt lat="35.618213" lon="128.959765"><ele>1086.7</ele></trkpt>
      <trkpt lat="35.618191" lon="128.959689"><ele>1085.2</ele></trkpt>
      <trkpt lat="35.618246" lon="128.959555"><ele>1079.3</ele></trkpt>
      <trkpt lat="35.618207" lon="128.959503"><ele>1079.2</ele></trkpt>
      <trkpt lat="35.618620" lon="128.959210"><ele>1055.1</ele></trkpt>
      <trkpt lat="35.618823" lon="128.958867"><ele>1025.3</ele></trkpt>
      <trkpt lat="35.618560" lon="128.958359"><ele>1032.2</ele></trkpt>
      <trkpt lat="35.618547" lon="128.958270"><ele>1032.5</ele></trkpt>
      <trkpt lat="35.618626" lon="128.958132"><ele>1026.4</ele></trkpt>
      <trkpt lat="35.618870" lon="128.958153"><ele>1008.2</ele></trkpt>
      <trkpt lat="35.618939" lon="128.958217"><ele>1004.4</ele></trkpt>
      <trkpt lat="35.619306" lon="128.958979"><ele>1013.7</ele></trkpt>
      <trkpt lat="35.619362" lon="128.959016"><ele>1014.8</ele></trkpt>
      <trkpt lat="35.619855" lon="128.958855"><ele>1007.0</ele></trkpt>
      <trkpt lat="35.619955" lon="128.958968"><ele>1013.9</ele></trkpt>
      <trkpt lat="35.620095" lon="128.959011"><ele>1015.9</ele></trkpt>
      <trkpt lat="35.620235" lon="128.958823"><ele>1009.3</ele></trkpt>
      <trkpt lat="35.620330" lon="128.958791"><ele>1008.8</ele></trkpt>
      <trkpt lat="35.620478" lon="128.958966"><ele>1013.7</ele></trkpt>
      <trkpt lat="35.620671" lon="128.958660"><ele>1003.1</ele></trkpt>
      <trkpt lat="35.620782" lon="128.958612"><ele>999.3</ele></trkpt>
      <trkpt lat="35.620873" lon="128.958337"><ele>999.8</ele></trkpt>
      <trkpt lat="35.621083" lon="128.958056"><ele>995.0</ele></trkpt>
      <trkpt lat="35.621309" lon="128.957558"><ele>989.1</ele></trkpt>
      <trkpt lat="35.621837" lon="128.956950"><ele>985.9</ele></trkpt>
      <trkpt lat="35.622131" lon="128.956903"><ele>972.7</ele></trkpt>
      <trkpt lat="35.622282" lon="128.957021"><ele>962.3</ele></trkpt>
      <trkpt lat="35.622365" lon="128.957179"><ele>955.3</ele></trkpt>
      <trkpt lat="35.622685" lon="128.957396"><ele>933.1</ele></trkpt>
      <trkpt lat="35.622884" lon="128.957428"><ele>922.3</ele></trkpt>
      <trkpt lat="35.623023" lon="128.957565"><ele>915.4</ele></trkpt>
      <trkpt lat="35.623300" lon="128.957718"><ele>907.5</ele></trkpt>
      <trkpt lat="35.623666" lon="128.957715"><ele>897.3</ele></trkpt>
      <trkpt lat="35.623956" lon="128.957812"><ele>893.9</ele></trkpt>
      <trkpt lat="35.624458" lon="128.957750"><ele>885.0</ele></trkpt>
      <trkpt lat="35.624750" lon="128.957619"><ele>867.2</ele></trkpt>
      <trkpt lat="35.624924" lon="128.957627"><ele>854.0</ele></trkpt>
      <trkpt lat="35.625212" lon="128.957812"><ele>845.4</ele></trkpt>
      <trkpt lat="35.625360" lon="128.957718"><ele>839.0</ele></trkpt>
      <trkpt lat="35.625532" lon="128.957790"><ele>832.9</ele></trkpt>
      <trkpt lat="35.625884" lon="128.957831"><ele>816.9</ele></trkpt>
      <trkpt lat="35.626250" lon="128.957815"><ele>806.0</ele></trkpt>
      <trkpt lat="35.626453" lon="128.958037"><ele>796.9</ele></trkpt>
      <trkpt lat="35.626627" lon="128.958107"><ele>787.2</ele></trkpt>
      <trkpt lat="35.626703" lon="128.957887"><ele>779.4</ele></trkpt>
      <trkpt lat="35.626758" lon="128.957863"><ele>776.4</ele></trkpt>
      <trkpt lat="35.626804" lon="128.957935"><ele>775.1</ele></trkpt>
      <trkpt lat="35.626995" lon="128.958005"><ele>767.0</ele></trkpt>
      <trkpt lat="35.627152" lon="128.957884"><ele>758.1</ele></trkpt>
      <trkpt lat="35.627667" lon="128.958024"><ele>727.1</ele></trkpt>
      <trkpt lat="35.627865" lon="128.958043"><ele>713.7</ele></trkpt>
      <trkpt lat="35.627924" lon="128.958002"><ele>708.1</ele></trkpt>
      <trkpt lat="35.628103" lon="128.958136"><ele>697.4</ele></trkpt>
      <trkpt lat="35.628140" lon="128.958311"><ele>693.1</ele></trkpt>
      <trkpt lat="35.628380" lon="128.958292"><ele>678.5</ele></trkpt>
      <trkpt lat="35.628576" lon="128.957908"><ele>670.4</ele></trkpt>
      <trkpt lat="35.628635" lon="128.957938"><ele>669.2</ele></trkpt>
      <trkpt lat="35.628862" lon="128.957855"><ele>658.1</ele></trkpt>
      <trkpt lat="35.629073" lon="128.957997"><ele>649.9</ele></trkpt>
      <trkpt lat="35.629272" lon="128.958016"><ele>640.4</ele></trkpt>
      <trkpt lat="35.629623" lon="128.958203"><ele>622.6</ele></trkpt>
      <trkpt lat="35.629716" lon="128.958177"><ele>617.2</ele></trkpt>
      <trkpt lat="35.629862" lon="128.958230"><ele>609.3</ele></trkpt>
      <trkpt lat="35.630403" lon="128.958716"><ele>582.1</ele></trkpt>
      <trkpt lat="35.630656" lon="128.958753"><ele>568.7</ele></trkpt>
      <trkpt lat="35.630981" lon="128.959038"><ele>547.7</ele></trkpt>
      <trkpt lat="35.631268" lon="128.959081"><ele>531.4</ele></trkpt>
      <trkpt lat="35.631591" lon="128.959236"><ele>513.6</ele></trkpt>
      <trkpt lat="35.631683" lon="128.959384"><ele>508.1</ele></trkpt>
      <trkpt lat="35.631635" lon="128.959456"><ele>509.9</ele></trkpt>
      <trkpt lat="35.632106" lon="128.959808"><ele>470.5</ele></trkpt>
      <trkpt lat="35.632225" lon="128.959982"><ele>460.3</ele></trkpt>
      <trkpt lat="35.632217" lon="128.960129"><ele>454.1</ele></trkpt>
      <trkpt lat="35.632382" lon="128.960202"><ele>443.4</ele></trkpt>
      <trkpt lat="35.632642" lon="128.960121"><ele>429.9</ele></trkpt>
      <trkpt lat="35.632901" lon="128.960306"><ele>406.8</ele></trkpt>
      <trkpt lat="35.633329" lon="128.960389"><ele>373.3</ele></trkpt>
      <trkpt lat="35.633453" lon="128.960210"><ele>367.1</ele></trkpt>
      <trkpt lat="35.633549" lon="128.960231"><ele>361.0</ele></trkpt>
      <trkpt lat="35.633688" lon="128.960180"><ele>354.1</ele></trkpt>
      <trkpt lat="35.634138" lon="128.960361"><ele>337.1</ele></trkpt>
      <trkpt lat="35.633876" lon="128.960631"><ele>348.0</ele></trkpt>
      <trkpt lat="35.633623" lon="128.960714"><ele>356.6</ele></trkpt>
      <trkpt lat="35.633015" lon="128.960792"><ele>383.1</ele></trkpt>
      <trkpt lat="35.632788" lon="128.960757"><ele>394.0</ele></trkpt>
      <trkpt lat="35.632714" lon="128.960854"><ele>391.3</ele></trkpt>
      <trkpt lat="35.632544" lon="128.960843"><ele>397.2</ele></trkpt>
      <trkpt lat="35.632273" lon="128.960886"><ele>404.8</ele></trkpt>
      <trkpt lat="35.632175" lon="128.960955"><ele>405.3</ele></trkpt>
      <trkpt lat="35.632047" lon="128.960945"><ele>411.4</ele></trkpt>
      <trkpt lat="35.631881" lon="128.961009"><ele>415.3</ele></trkpt>
      <trkpt lat="35.631667" lon="128.961221"><ele>415.6</ele></trkpt>
      <trkpt lat="35.631537" lon="128.961240"><ele>423.5</ele></trkpt>
      <trkpt lat="35.631303" lon="128.961387"><ele>431.8</ele></trkpt>
    </trkseg>
  </trk>
</gpx>
