<?xml version="1.0" encoding="UTF-8"?>
<gpx version="1.1" creator="kr-100-mountains route-harvester"
     xmlns="http://www.topografix.com/GPX/1/1"
     xmlns:k100="https://github.com/jay-jang/kr-100-mountains/ns/1"
     xmlns:xsi="http://www.w3.org/2001/XMLSchema-instance"
     xsi:schemaLocation="http://www.topografix.com/GPX/1/1 http://www.topografix.com/GPX/1/1/gpx.xsd">
  <metadata>
    <name>천황산 · 표충사 코스 (대안 2) (OSM 계산 경로)</name>
    <desc>실제 GPS 기록이 아닙니다. OpenStreetMap에 등록된 등산로 선형 위에서 계산한 경로이며, 현장 통제·훼손·출입 제한·계절 통제를 반영하지 않을 수 있습니다. 산행 전 공식 안내를 확인하세요.</desc>
    <time>2026-08-04T05:40:23.635Z</time>
    <link href="https://www.openstreetmap.org/copyright"><text>© OpenStreetMap contributors (ODbL 1.0)</text></link>
    <link href="https://registry.opendata.aws/terrain-tiles/"><text>Elevation: SRTM 1 arc-second (NASA/USGS) via AWS Terrain Tiles</text></link>
    <extensions>
      <k100:provenance>osm-routed</k100:provenance>
      <k100:not_a_recorded_track>true</k100:not_a_recorded_track>
      <k100:mountain_id>cheonhwangsan</k100:mountain_id>
      <k100:mountain_name>천황산</k100:mountain_name>
      <k100:route_id>cheonhwangsan-60054864</k100:route_id>
      <k100:route_index>2</k100:route_index>
      <k100:route_name>표충사 코스</k100:route_name>
      <k100:variant>2</k100:variant>
      <k100:source>OpenStreetMap via Overpass API</k100:source>
      <k100:license>ODbL-1.0</k100:license>
      <k100:attribution>© OpenStreetMap contributors</k100:attribution>
      <k100:elevation_source>SRTM 1 arc-second (NASA/USGS) — AWS Terrain Tiles 배포본. 지형 DEM 추정 고도이며 실측 아님</k100:elevation_source>
      <k100:algorithm>dijkstra-grid-v1</k100:algorithm>
      <k100:osm_snapshot>2026-08-04</k100:osm_snapshot>
      <k100:snap_trailhead_m>18</k100:snap_trailhead_m>
      <k100:snap_summit_m>7</k100:snap_summit_m>
      <k100:validation_score>84</k100:validation_score>
      <k100:validation_status>accepted</k100:validation_status>
    </extensions>
  </metadata>
  <trk>
    <name>천황산 · 표충사 코스 (대안 2) (OSM 계산 경로)</name>
    <desc>실제 GPS 기록이 아닙니다. OpenStreetMap에 등록된 등산로 선형 위에서 계산한 경로이며, 현장 통제·훼손·출입 제한·계절 통제를 반영하지 않을 수 있습니다. 산행 전 공식 안내를 확인하세요.</desc>
    <trkseg>
      <trkpt lat="35.532562" lon="128.959271"><ele>198.0</ele></trkpt>
      <trkpt lat="35.532117" lon="128.959171"><ele>196.0</ele></trkpt>
      <trkpt lat="35.532050" lon="128.958945"><ele>196.0</ele></trkpt>
      <trkpt lat="35.532054" lon="128.958542"><ele>195.4</ele></trkpt>
      <trkpt lat="35.532247" lon="128.958693"><ele>195.9</ele></trkpt>
      <trkpt lat="35.532770" lon="128.958782"><ele>193.5</ele></trkpt>
      <trkpt lat="35.532815" lon="128.959077"><ele>196.9</ele></trkpt>
      <trkpt lat="35.532876" lon="128.958992"><ele>195.5</ele></trkpt>
      <trkpt lat="35.532770" lon="128.957841"><ele>192.2</ele></trkpt>
      <trkpt lat="35.532762" lon="128.957152"><ele>188.7</ele></trkpt>
      <trkpt lat="35.532714" lon="128.956981"><ele>187.9</ele></trkpt>
      <trkpt lat="35.532843" lon="128.956986"><ele>188.1</ele></trkpt>
      <trkpt lat="35.532965" lon="128.957121"><ele>188.2</ele></trkpt>
      <trkpt lat="35.533169" lon="128.956565"><ele>184.2</ele></trkpt>
      <trkpt lat="35.533224" lon="128.956081"><ele>182.0</ele></trkpt>
      <trkpt lat="35.533488" lon="128.955385"><ele>181.8</ele></trkpt>
      <trkpt lat="35.533713" lon="128.954247"><ele>180.0</ele></trkpt>
      <trkpt lat="35.533628" lon="128.953526"><ele>179.0</ele></trkpt>
      <trkpt lat="35.533459" lon="128.952992"><ele>176.1</ele></trkpt>
      <trkpt lat="35.533397" lon="128.952629"><ele>171.4</ele></trkpt>
      <trkpt lat="35.533410" lon="128.952435"><ele>170.1</ele></trkpt>
      <trkpt lat="35.533564" lon="128.952152"><ele>170.4</ele></trkpt>
      <trkpt lat="35.533667" lon="128.952053"><ele>171.4</ele></trkpt>
      <trkpt lat="35.533934" lon="128.951966"><ele>176.2</ele></trkpt>
      <trkpt lat="35.534214" lon="128.951573"><ele>182.9</ele></trkpt>
      <trkpt lat="35.534494" lon="128.951619"><ele>192.2</ele></trkpt>
      <trkpt lat="35.534523" lon="128.951667"><ele>193.1</ele></trkpt>
      <trkpt lat="35.534501" lon="128.951865"><ele>194.2</ele></trkpt>
      <trkpt lat="35.534562" lon="128.951898"><ele>196.8</ele></trkpt>
      <trkpt lat="35.534774" lon="128.951662"><ele>202.9</ele></trkpt>
      <trkpt lat="35.534833" lon="128.951420"><ele>205.3</ele></trkpt>
      <trkpt lat="35.534946" lon="128.951361"><ele>207.3</ele></trkpt>
      <trkpt lat="35.535286" lon="128.951469"><ele>215.3</ele></trkpt>
      <trkpt lat="35.535616" lon="128.951312"><ele>218.3</ele></trkpt>
      <trkpt lat="35.535789" lon="128.951527"><ele>225.1</ele></trkpt>
      <trkpt lat="35.536052" lon="128.951479"><ele>230.0</ele></trkpt>
      <trkpt lat="35.536306" lon="128.951122"><ele>228.3</ele></trkpt>
      <trkpt lat="35.536271" lon="128.950790"><ele>226.6</ele></trkpt>
      <trkpt lat="35.536439" lon="128.950787"><ele>229.6</ele></trkpt>
      <trkpt lat="35.536510" lon="128.950705"><ele>230.7</ele></trkpt>
      <trkpt lat="35.536817" lon="128.950923"><ele>237.3</ele></trkpt>
      <trkpt lat="35.537049" lon="128.951018"><ele>244.1</ele></trkpt>
      <trkpt lat="35.537038" lon="128.951088"><ele>244.5</ele></trkpt>
      <trkpt lat="35.536755" lon="128.951372"><ele>243.1</ele></trkpt>
      <trkpt lat="35.536440" lon="128.951789"><ele>244.2</ele></trkpt>
      <trkpt lat="35.536804" lon="128.951741"><ele>255.8</ele></trkpt>
      <trkpt lat="35.537108" lon="128.951825"><ele>269.4</ele></trkpt>
      <trkpt lat="35.537312" lon="128.951981"><ele>280.8</ele></trkpt>
      <trkpt lat="35.537481" lon="128.952012"><ele>286.6</ele></trkpt>
      <trkpt lat="35.537655" lon="128.952252"><ele>303.0</ele></trkpt>
      <trkpt lat="35.537910" lon="128.952241"><ele>317.7</ele></trkpt>
      <trkpt lat="35.538118" lon="128.952338"><ele>332.8</ele></trkpt>
      <trkpt lat="35.538407" lon="128.952268"><ele>344.1</ele></trkpt>
      <trkpt lat="35.538515" lon="128.952350"><ele>350.7</ele></trkpt>
      <trkpt lat="35.538597" lon="128.952877"><ele>371.9</ele></trkpt>
      <trkpt lat="35.538528" lon="128.953033"><ele>375.3</ele></trkpt>
      <trkpt lat="35.538530" lon="128.953333"><ele>393.6</ele></trkpt>
      <trkpt lat="35.538600" lon="128.953472"><ele>403.2</ele></trkpt>
      <trkpt lat="35.538612" lon="128.954042"><ele>423.8</ele></trkpt>
      <trkpt lat="35.538912" lon="128.954838"><ele>461.5</ele></trkpt>
      <trkpt lat="35.539066" lon="128.954874"><ele>466.7</ele></trkpt>
      <trkpt lat="35.539163" lon="128.955079"><ele>474.8</ele></trkpt>
      <trkpt lat="35.539291" lon="128.955608"><ele>487.9</ele></trkpt>
      <trkpt lat="35.539654" lon="128.956237"><ele>496.5</ele></trkpt>
      <trkpt lat="35.539894" lon="128.956385"><ele>506.1</ele></trkpt>
      <trkpt lat="35.539959" lon="128.956337"><ele>509.5</ele></trkpt>
      <trkpt lat="35.540248" lon="128.956448"><ele>522.4</ele></trkpt>
      <trkpt lat="35.540479" lon="128.956015"><ele>549.7</ele></trkpt>
      <trkpt lat="35.540680" lon="128.955953"><ele>566.3</ele></trkpt>
      <trkpt lat="35.540923" lon="128.955700"><ele>587.1</ele></trkpt>
      <trkpt lat="35.541267" lon="128.955814"><ele>609.9</ele></trkpt>
      <trkpt lat="35.541704" lon="128.955830"><ele>629.0</ele></trkpt>
      <trkpt lat="35.541893" lon="128.955658"><ele>638.2</ele></trkpt>
      <trkpt lat="35.541942" lon="128.955537"><ele>643.4</ele></trkpt>
      <trkpt lat="35.542934" lon="128.955049"><ele>671.2</ele></trkpt>
      <trkpt lat="35.543384" lon="128.955065"><ele>684.3</ele></trkpt>
      <trkpt lat="35.543847" lon="128.955000"><ele>698.4</ele></trkpt>
      <trkpt lat="35.544456" lon="128.955121"><ele>712.6</ele></trkpt>
      <trkpt lat="35.545091" lon="128.955391"><ele>737.3</ele></trkpt>
      <trkpt lat="35.545448" lon="128.955261"><ele>751.2</ele></trkpt>
      <trkpt lat="35.545880" lon="128.954703"><ele>772.2</ele></trkpt>
      <trkpt lat="35.546476" lon="128.954210"><ele>791.6</ele></trkpt>
      <trkpt lat="35.546776" lon="128.954042"><ele>808.9</ele></trkpt>
      <trkpt lat="35.547068" lon="128.953582"><ele>821.3</ele></trkpt>
      <trkpt lat="35.547209" lon="128.953526"><ele>825.0</ele></trkpt>
      <trkpt lat="35.547273" lon="128.953357"><ele>825.5</ele></trkpt>
      <trkpt lat="35.548889" lon="128.951943"><ele>868.0</ele></trkpt>
      <trkpt lat="35.550116" lon="128.950972"><ele>890.6</ele></trkpt>
      <trkpt lat="35.550145" lon="128.950837"><ele>893.9</ele></trkpt>
      <trkpt lat="35.550440" lon="128.950451"><ele>902.1</ele></trkpt>
      <trkpt lat="35.551596" lon="128.950612"><ele>890.4</ele></trkpt>
      <trkpt lat="35.552025" lon="128.950779"><ele>882.7</ele></trkpt>
      <trkpt lat="35.552096" lon="128.950729"><ele>881.8</ele></trkpt>
      <trkpt lat="35.552358" lon="128.950841"><ele>876.2</ele></trkpt>
      <trkpt lat="35.552535" lon="128.950965"><ele>875.2</ele></trkpt>
      <trkpt lat="35.552681" lon="128.951176"><ele>880.2</ele></trkpt>
      <trkpt lat="35.552842" lon="128.951256"><ele>881.2</ele></trkpt>
      <trkpt lat="35.553054" lon="128.951579"><ele>890.1</ele></trkpt>
      <trkpt lat="35.553261" lon="128.951759"><ele>897.2</ele></trkpt>
      <trkpt lat="35.553443" lon="128.951821"><ele>902.7</ele></trkpt>
      <trkpt lat="35.553715" lon="128.951845"><ele>909.3</ele></trkpt>
      <trkpt lat="35.553760" lon="128.951914"><ele>913.1</ele></trkpt>
      <trkpt lat="35.554018" lon="128.951895"><ele>917.0</ele></trkpt>
      <trkpt lat="35.554476" lon="128.952038"><ele>923.3</ele></trkpt>
      <trkpt lat="35.554512" lon="128.952087"><ele>923.4</ele></trkpt>
      <trkpt lat="35.555289" lon="128.952242"><ele>925.5</ele></trkpt>
      <trkpt lat="35.555647" lon="128.952124"><ele>930.6</ele></trkpt>
      <trkpt lat="35.556697" lon="128.952435"><ele>939.4</ele></trkpt>
      <trkpt lat="35.556790" lon="128.952499"><ele>938.7</ele></trkpt>
      <trkpt lat="35.557037" lon="128.952856"><ele>935.8</ele></trkpt>
      <trkpt lat="35.557391" lon="128.953187"><ele>934.5</ele></trkpt>
      <trkpt lat="35.557808" lon="128.954009"><ele>943.2</ele></trkpt>
      <trkpt lat="35.558326" lon="128.954418"><ele>940.9</ele></trkpt>
      <trkpt lat="35.558765" lon="128.955036"><ele>937.7</ele></trkpt>
      <trkpt lat="35.558847" lon="128.955489"><ele>938.4</ele></trkpt>
      <trkpt lat="35.558832" lon="128.955808"><ele>933.9</ele></trkpt>
      <trkpt lat="35.559053" lon="128.956003"><ele>935.1</ele></trkpt>
      <trkpt lat="35.559251" lon="128.956076"><ele>938.2</ele></trkpt>
      <trkpt lat="35.559774" lon="128.957109"><ele>948.1</ele></trkpt>
      <trkpt lat="35.559802" lon="128.957301"><ele>950.5</ele></trkpt>
      <trkpt lat="35.560009" lon="128.957597"><ele>956.9</ele></trkpt>
      <trkpt lat="35.560039" lon="128.957830"><ele>959.1</ele></trkpt>
      <trkpt lat="35.560115" lon="128.957965"><ele>959.6</ele></trkpt>
      <trkpt lat="35.560237" lon="128.958014"><ele>960.4</ele></trkpt>
      <trkpt lat="35.560358" lon="128.958256"><ele>960.5</ele></trkpt>
      <trkpt lat="35.560353" lon="128.958526"><ele>963.7</ele></trkpt>
      <trkpt lat="35.560504" lon="128.958826"><ele>969.1</ele></trkpt>
      <trkpt lat="35.560540" lon="128.959358"><ele>969.9</ele></trkpt>
      <trkpt lat="35.560630" lon="128.959626"><ele>972.9</ele></trkpt>
      <trkpt lat="35.560766" lon="128.959849"><ele>979.2</ele></trkpt>
      <trkpt lat="35.560771" lon="128.959992"><ele>981.5</ele></trkpt>
      <trkpt lat="35.561034" lon="128.960678"><ele>1005.3</ele></trkpt>
      <trkpt lat="35.561119" lon="128.960990"><ele>1014.3</ele></trkpt>
      <trkpt lat="35.561074" lon="128.961213"><ele>1019.5</ele></trkpt>
      <trkpt lat="35.561129" lon="128.961430"><ele>1025.6</ele></trkpt>
      <trkpt lat="35.561239" lon="128.961543"><ele>1024.9</ele></trkpt>
      <trkpt lat="35.561149" lon="128.961753"><ele>1033.6</ele></trkpt>
      <trkpt lat="35.561154" lon="128.961846"><ele>1036.6</ele></trkpt>
      <trkpt lat="35.561082" lon="128.961899"><ele>1040.1</ele></trkpt>
      <trkpt lat="35.561048" lon="128.962072"><ele>1045.9</ele></trkpt>
      <trkpt lat="35.561106" lon="128.962141"><ele>1049.0</ele></trkpt>
      <trkpt lat="35.561017" lon="128.962224"><ele>1051.0</ele></trkpt>
      <trkpt lat="35.561009" lon="128.962409"><ele>1055.9</ele></trkpt>
      <trkpt lat="35.561114" lon="128.962519"><ele>1059.6</ele></trkpt>
      <trkpt lat="35.561043" lon="128.962745"><ele>1066.4</ele></trkpt>
      <trkpt lat="35.561109" lon="128.962912"><ele>1070.4</ele></trkpt>
      <trkpt lat="35.561129" lon="128.963300"><ele>1078.6</ele></trkpt>
      <trkpt lat="35.561038" lon="128.963421"><ele>1081.5</ele></trkpt>
      <trkpt lat="35.561011" lon="128.963604"><ele>1084.5</ele></trkpt>
      <trkpt lat="35.560746" lon="128.963941"><ele>1085.4</ele></trkpt>
      <trkpt lat="35.560827" lon="128.964226"><ele>1089.0</ele></trkpt>
      <trkpt lat="35.560968" lon="128.964419"><ele>1092.2</ele></trkpt>
      <trkpt lat="35.561026" lon="128.964766"><ele>1095.0</ele></trkpt>
      <trkpt lat="35.561134" lon="128.964884"><ele>1096.5</ele></trkpt>
      <trkpt lat="35.561180" lon="128.965046"><ele>1095.3</ele></trkpt>
      <trkpt lat="35.560959" lon="128.965303"><ele>1094.8</ele></trkpt>
      <trkpt lat="35.560874" lon="128.965578"><ele>1095.0</ele></trkpt>
      <trkpt lat="35.560645" lon="128.965727"><ele>1092.4</ele></trkpt>
      <trkpt lat="35.560623" lon="128.965791"><ele>1092.6</ele></trkpt>
      <trkpt lat="35.560771" lon="128.966601"><ele>1101.0</ele></trkpt>
      <trkpt lat="35.560746" lon="128.966713"><ele>1102.7</ele></trkpt>
      <trkpt lat="35.561013" lon="128.967407"><ele>1118.2</ele></trkpt>
      <trkpt lat="35.561013" lon="128.967661"><ele>1119.9</ele></trkpt>
      <trkpt lat="35.560931" lon="128.967982"><ele>1120.1</ele></trkpt>
      <trkpt lat="35.560833" lon="128.968179"><ele>1121.4</ele></trkpt>
      <trkpt lat="35.560724" lon="128.969286"><ele>1134.8</ele></trkpt>
      <trkpt lat="35.560634" lon="128.969660"><ele>1142.5</ele></trkpt>
      <trkpt lat="35.560624" lon="128.970801"><ele>1161.4</ele></trkpt>
      <trkpt lat="35.560168" lon="128.971144"><ele>1164.7</ele></trkpt>
      <trkpt lat="35.559494" lon="128.971485"><ele>1162.7</ele></trkpt>
      <trkpt lat="35.559259" lon="128.971769"><ele>1161.0</ele></trkpt>
      <trkpt lat="35.558935" lon="128.971950"><ele>1161.7</ele></trkpt>
      <trkpt lat="35.558489" lon="128.971985"><ele>1169.9</ele></trkpt>
      <trkpt lat="35.557955" lon="128.972248"><ele>1175.5</ele></trkpt>
    </trkseg>
  </trk>
</gpx>
