<?xml version="1.0" encoding="UTF-8"?>
<gpx version="1.1" creator="kr-100-mountains route-harvester"
     xmlns="http://www.topografix.com/GPX/1/1"
     xmlns:k100="https://github.com/jay-jang/kr-100-mountains/ns/1"
     xmlns:xsi="http://www.w3.org/2001/XMLSchema-instance"
     xsi:schemaLocation="http://www.topografix.com/GPX/1/1 http://www.topografix.com/GPX/1/1/gpx.xsd">
  <metadata>
    <name>천황산 · 표충사 코스 (대안 1) (OSM 계산 경로)</name>
    <desc>실제 GPS 기록이 아닙니다. OpenStreetMap에 등록된 등산로 선형 위에서 계산한 경로이며, 현장 통제·훼손·출입 제한·계절 통제를 반영하지 않을 수 있습니다. 산행 전 공식 안내를 확인하세요.</desc>
    <time>2026-08-04T05:40:23.634Z</time>
    <link href="https://www.openstreetmap.org/copyright"><text>© OpenStreetMap contributors (ODbL 1.0)</text></link>
    <link href="https://registry.opendata.aws/terrain-tiles/"><text>Elevation: SRTM 1 arc-second (NASA/USGS) via AWS Terrain Tiles</text></link>
    <extensions>
      <k100:provenance>osm-routed</k100:provenance>
      <k100:not_a_recorded_track>true</k100:not_a_recorded_track>
      <k100:mountain_id>cheonhwangsan</k100:mountain_id>
      <k100:mountain_name>천황산</k100:mountain_name>
      <k100:route_id>cheonhwangsan-60054864</k100:route_id>
      <k100:route_index>2</k100:route_index>
      <k100:route_name>표충사 코스</k100:route_name>
      <k100:variant>1</k100:variant>
      <k100:source>OpenStreetMap via Overpass API</k100:source>
      <k100:license>ODbL-1.0</k100:license>
      <k100:attribution>© OpenStreetMap contributors</k100:attribution>
      <k100:elevation_source>SRTM 1 arc-second (NASA/USGS) — AWS Terrain Tiles 배포본. 지형 DEM 추정 고도이며 실측 아님</k100:elevation_source>
      <k100:algorithm>dijkstra-grid-v1</k100:algorithm>
      <k100:osm_snapshot>2026-08-04</k100:osm_snapshot>
      <k100:snap_trailhead_m>18</k100:snap_trailhead_m>
      <k100:snap_summit_m>7</k100:snap_summit_m>
      <k100:validation_score>93</k100:validation_score>
      <k100:validation_status>accepted</k100:validation_status>
    </extensions>
  </metadata>
  <trk>
    <name>천황산 · 표충사 코스 (대안 1) (OSM 계산 경로)</name>
    <desc>실제 GPS 기록이 아닙니다. OpenStreetMap에 등록된 등산로 선형 위에서 계산한 경로이며, 현장 통제·훼손·출입 제한·계절 통제를 반영하지 않을 수 있습니다. 산행 전 공식 안내를 확인하세요.</desc>
    <trkseg>
      <trkpt lat="35.532562" lon="128.959271"><ele>198.0</ele></trkpt>
      <trkpt lat="35.532794" lon="128.959423"><ele>199.8</ele></trkpt>
      <trkpt lat="35.532815" lon="128.959077"><ele>196.9</ele></trkpt>
      <trkpt lat="35.532876" lon="128.958992"><ele>195.5</ele></trkpt>
      <trkpt lat="35.533501" lon="128.959381"><ele>191.6</ele></trkpt>
      <trkpt lat="35.533680" lon="128.959750"><ele>195.1</ele></trkpt>
      <trkpt lat="35.534496" lon="128.959778"><ele>200.3</ele></trkpt>
      <trkpt lat="35.535088" lon="128.960060"><ele>207.4</ele></trkpt>
      <trkpt lat="35.535597" lon="128.959935"><ele>215.1</ele></trkpt>
      <trkpt lat="35.535915" lon="128.960048"><ele>221.6</ele></trkpt>
      <trkpt lat="35.536206" lon="128.960494"><ele>230.5</ele></trkpt>
      <trkpt lat="35.536727" lon="128.961009"><ele>242.1</ele></trkpt>
      <trkpt lat="35.537206" lon="128.961967"><ele>262.1</ele></trkpt>
      <trkpt lat="35.537520" lon="128.962424"><ele>273.8</ele></trkpt>
      <trkpt lat="35.537897" lon="128.962807"><ele>280.3</ele></trkpt>
      <trkpt lat="35.537897" lon="128.963048"><ele>287.5</ele></trkpt>
      <trkpt lat="35.538174" lon="128.963689"><ele>311.6</ele></trkpt>
      <trkpt lat="35.538566" lon="128.964235"><ele>326.9</ele></trkpt>
      <trkpt lat="35.538884" lon="128.964539"><ele>341.8</ele></trkpt>
      <trkpt lat="35.539156" lon="128.964546"><ele>353.1</ele></trkpt>
      <trkpt lat="35.539466" lon="128.964635"><ele>366.6</ele></trkpt>
      <trkpt lat="35.539677" lon="128.964842"><ele>384.4</ele></trkpt>
      <trkpt lat="35.540185" lon="128.965201"><ele>419.6</ele></trkpt>
      <trkpt lat="35.540493" lon="128.965301"><ele>435.0</ele></trkpt>
      <trkpt lat="35.540990" lon="128.965299"><ele>463.4</ele></trkpt>
      <trkpt lat="35.541275" lon="128.965719"><ele>488.1</ele></trkpt>
      <trkpt lat="35.541547" lon="128.965774"><ele>504.6</ele></trkpt>
      <trkpt lat="35.542611" lon="128.966241"><ele>560.3</ele></trkpt>
      <trkpt lat="35.543599" lon="128.966756"><ele>617.7</ele></trkpt>
      <trkpt lat="35.543904" lon="128.966688"><ele>629.4</ele></trkpt>
      <trkpt lat="35.544337" lon="128.966963"><ele>655.6</ele></trkpt>
      <trkpt lat="35.545395" lon="128.968968"><ele>717.3</ele></trkpt>
      <trkpt lat="35.545555" lon="128.969483"><ele>734.8</ele></trkpt>
      <trkpt lat="35.545549" lon="128.969699"><ele>739.2</ele></trkpt>
      <trkpt lat="35.545985" lon="128.970322"><ele>752.7</ele></trkpt>
      <trkpt lat="35.546061" lon="128.970545"><ele>756.1</ele></trkpt>
      <trkpt lat="35.546504" lon="128.971094"><ele>784.8</ele></trkpt>
      <trkpt lat="35.546895" lon="128.971381"><ele>798.3</ele></trkpt>
      <trkpt lat="35.546904" lon="128.971536"><ele>798.5</ele></trkpt>
      <trkpt lat="35.547240" lon="128.972109"><ele>821.5</ele></trkpt>
      <trkpt lat="35.547422" lon="128.972157"><ele>825.9</ele></trkpt>
      <trkpt lat="35.547591" lon="128.972317"><ele>834.7</ele></trkpt>
      <trkpt lat="35.547737" lon="128.972366"><ele>836.7</ele></trkpt>
      <trkpt lat="35.548198" lon="128.972813"><ele>861.5</ele></trkpt>
      <trkpt lat="35.548544" lon="128.973960"><ele>903.0</ele></trkpt>
      <trkpt lat="35.549005" lon="128.974470"><ele>921.8</ele></trkpt>
      <trkpt lat="35.549223" lon="128.974979"><ele>934.4</ele></trkpt>
      <trkpt lat="35.549408" lon="128.975220"><ele>942.3</ele></trkpt>
      <trkpt lat="35.549824" lon="128.975528"><ele>945.3</ele></trkpt>
      <trkpt lat="35.550092" lon="128.975791"><ele>949.3</ele></trkpt>
      <trkpt lat="35.550175" lon="128.975932"><ele>952.4</ele></trkpt>
      <trkpt lat="35.550623" lon="128.976312"><ele>961.7</ele></trkpt>
      <trkpt lat="35.551130" lon="128.976595"><ele>966.6</ele></trkpt>
      <trkpt lat="35.551213" lon="128.976768"><ele>967.7</ele></trkpt>
      <trkpt lat="35.551365" lon="128.976817"><ele>968.5</ele></trkpt>
      <trkpt lat="35.551498" lon="128.976752"><ele>968.5</ele></trkpt>
      <trkpt lat="35.551575" lon="128.976406"><ele>968.4</ele></trkpt>
      <trkpt lat="35.551783" lon="128.975966"><ele>973.5</ele></trkpt>
      <trkpt lat="35.551783" lon="128.975703"><ele>976.4</ele></trkpt>
      <trkpt lat="35.551888" lon="128.975525"><ele>980.4</ele></trkpt>
      <trkpt lat="35.552054" lon="128.975421"><ele>985.7</ele></trkpt>
      <trkpt lat="35.552138" lon="128.975224"><ele>991.5</ele></trkpt>
      <trkpt lat="35.552346" lon="128.975182"><ele>996.0</ele></trkpt>
      <trkpt lat="35.552397" lon="128.975127"><ele>997.3</ele></trkpt>
      <trkpt lat="35.552463" lon="128.975039"><ele>999.2</ele></trkpt>
      <trkpt lat="35.552492" lon="128.974727"><ele>1003.8</ele></trkpt>
      <trkpt lat="35.553148" lon="128.973954"><ele>1025.6</ele></trkpt>
      <trkpt lat="35.553680" lon="128.973798"><ele>1039.0</ele></trkpt>
      <trkpt lat="35.553892" lon="128.973598"><ele>1043.0</ele></trkpt>
      <trkpt lat="35.554097" lon="128.973587"><ele>1047.4</ele></trkpt>
      <trkpt lat="35.554370" lon="128.973493"><ele>1053.7</ele></trkpt>
      <trkpt lat="35.554686" lon="128.973559"><ele>1060.2</ele></trkpt>
      <trkpt lat="35.554745" lon="128.973463"><ele>1061.0</ele></trkpt>
      <trkpt lat="35.555367" lon="128.973270"><ele>1084.5</ele></trkpt>
      <trkpt lat="35.555677" lon="128.973039"><ele>1100.5</ele></trkpt>
      <trkpt lat="35.555788" lon="128.972722"><ele>1108.0</ele></trkpt>
      <trkpt lat="35.555924" lon="128.972498"><ele>1119.2</ele></trkpt>
      <trkpt lat="35.556112" lon="128.972529"><ele>1129.2</ele></trkpt>
      <trkpt lat="35.556302" lon="128.972471"><ele>1137.2</ele></trkpt>
      <trkpt lat="35.556568" lon="128.972534"><ele>1141.6</ele></trkpt>
      <trkpt lat="35.556945" lon="128.972442"><ele>1151.6</ele></trkpt>
      <trkpt lat="35.556994" lon="128.972359"><ele>1154.0</ele></trkpt>
      <trkpt lat="35.557955" lon="128.972248"><ele>1175.5</ele></trkpt>
    </trkseg>
  </trk>
</gpx>
