<?xml version="1.0" encoding="UTF-8"?>
<gpx version="1.1" creator="kr-100-mountains route-harvester"
     xmlns="http://www.topografix.com/GPX/1/1"
     xmlns:k100="https://github.com/jay-jang/kr-100-mountains/ns/1"
     xmlns:xsi="http://www.w3.org/2001/XMLSchema-instance"
     xsi:schemaLocation="http://www.topografix.com/GPX/1/1 http://www.topografix.com/GPX/1/1/gpx.xsd">
  <metadata>
    <name>천황산 · 표충사 코스 (OSM 계산 경로)</name>
    <desc>실제 GPS 기록이 아닙니다. OpenStreetMap에 등록된 등산로 선형 위에서 계산한 경로이며, 현장 통제·훼손·출입 제한·계절 통제를 반영하지 않을 수 있습니다. 산행 전 공식 안내를 확인하세요.</desc>
    <time>2026-08-04T05:40:23.634Z</time>
    <link href="https://www.openstreetmap.org/copyright"><text>© OpenStreetMap contributors (ODbL 1.0)</text></link>
    <link href="https://registry.opendata.aws/terrain-tiles/"><text>Elevation: SRTM 1 arc-second (NASA/USGS) via AWS Terrain Tiles</text></link>
    <extensions>
      <k100:provenance>osm-routed</k100:provenance>
      <k100:not_a_recorded_track>true</k100:not_a_recorded_track>
      <k100:mountain_id>cheonhwangsan</k100:mountain_id>
      <k100:mountain_name>천황산</k100:mountain_name>
      <k100:route_id>cheonhwangsan-60054864</k100:route_id>
      <k100:route_index>2</k100:route_index>
      <k100:route_name>표충사 코스</k100:route_name>
      <k100:variant>0</k100:variant>
      <k100:source>OpenStreetMap via Overpass API</k100:source>
      <k100:license>ODbL-1.0</k100:license>
      <k100:attribution>© OpenStreetMap contributors</k100:attribution>
      <k100:elevation_source>SRTM 1 arc-second (NASA/USGS) — AWS Terrain Tiles 배포본. 지형 DEM 추정 고도이며 실측 아님</k100:elevation_source>
      <k100:algorithm>dijkstra-grid-v1</k100:algorithm>
      <k100:osm_snapshot>2026-08-04</k100:osm_snapshot>
      <k100:snap_trailhead_m>18</k100:snap_trailhead_m>
      <k100:snap_summit_m>7</k100:snap_summit_m>
      <k100:validation_score>93</k100:validation_score>
      <k100:validation_status>accepted</k100:validation_status>
    </extensions>
  </metadata>
  <trk>
    <name>천황산 · 표충사 코스 (OSM 계산 경로)</name>
    <desc>실제 GPS 기록이 아닙니다. OpenStreetMap에 등록된 등산로 선형 위에서 계산한 경로이며, 현장 통제·훼손·출입 제한·계절 통제를 반영하지 않을 수 있습니다. 산행 전 공식 안내를 확인하세요.</desc>
    <trkseg>
      <trkpt lat="35.532562" lon="128.959271"><ele>198.0</ele></trkpt>
      <trkpt lat="35.532794" lon="128.959423"><ele>199.8</ele></trkpt>
      <trkpt lat="35.532667" lon="128.960219"><ele>200.5</ele></trkpt>
      <trkpt lat="35.532929" lon="128.960164"><ele>200.9</ele></trkpt>
      <trkpt lat="35.533093" lon="128.960051"><ele>200.4</ele></trkpt>
      <trkpt lat="35.533300" lon="128.960073"><ele>200.8</ele></trkpt>
      <trkpt lat="35.533635" lon="128.959839"><ele>196.7</ele></trkpt>
      <trkpt lat="35.533680" lon="128.959750"><ele>195.1</ele></trkpt>
      <trkpt lat="35.534496" lon="128.959778"><ele>200.3</ele></trkpt>
      <trkpt lat="35.535176" lon="128.960055"><ele>208.8</ele></trkpt>
      <trkpt lat="35.535328" lon="128.959969"><ele>210.6</ele></trkpt>
      <trkpt lat="35.535597" lon="128.959935"><ele>215.1</ele></trkpt>
      <trkpt lat="35.536227" lon="128.960156"><ele>226.9</ele></trkpt>
      <trkpt lat="35.537296" lon="128.960365"><ele>234.3</ele></trkpt>
      <trkpt lat="35.537700" lon="128.960754"><ele>242.6</ele></trkpt>
      <trkpt lat="35.538200" lon="128.961562"><ele>255.6</ele></trkpt>
      <trkpt lat="35.538703" lon="128.961939"><ele>265.1</ele></trkpt>
      <trkpt lat="35.539093" lon="128.961947"><ele>275.4</ele></trkpt>
      <trkpt lat="35.539639" lon="128.961870"><ele>277.1</ele></trkpt>
      <trkpt lat="35.539906" lon="128.961931"><ele>278.0</ele></trkpt>
      <trkpt lat="35.540157" lon="128.961726"><ele>289.3</ele></trkpt>
      <trkpt lat="35.540584" lon="128.961777"><ele>296.5</ele></trkpt>
      <trkpt lat="35.541009" lon="128.961530"><ele>310.7</ele></trkpt>
      <trkpt lat="35.541514" lon="128.961567"><ele>317.8</ele></trkpt>
      <trkpt lat="35.541945" lon="128.961691"><ele>332.2</ele></trkpt>
      <trkpt lat="35.542126" lon="128.961664"><ele>329.5</ele></trkpt>
      <trkpt lat="35.542585" lon="128.961900"><ele>330.3</ele></trkpt>
      <trkpt lat="35.543156" lon="128.961955"><ele>344.5</ele></trkpt>
      <trkpt lat="35.543752" lon="128.961701"><ele>356.5</ele></trkpt>
      <trkpt lat="35.544105" lon="128.961476"><ele>362.1</ele></trkpt>
      <trkpt lat="35.544526" lon="128.961432"><ele>371.4</ele></trkpt>
      <trkpt lat="35.544597" lon="128.961381"><ele>374.8</ele></trkpt>
      <trkpt lat="35.544736" lon="128.961428"><ele>378.7</ele></trkpt>
      <trkpt lat="35.545127" lon="128.961394"><ele>385.3</ele></trkpt>
      <trkpt lat="35.545073" lon="128.961482"><ele>384.4</ele></trkpt>
      <trkpt lat="35.545073" lon="128.961683"><ele>384.7</ele></trkpt>
      <trkpt lat="35.545232" lon="128.961809"><ele>389.5</ele></trkpt>
      <trkpt lat="35.545575" lon="128.961809"><ele>401.2</ele></trkpt>
      <trkpt lat="35.546034" lon="128.961665"><ele>417.6</ele></trkpt>
      <trkpt lat="35.546079" lon="128.961814"><ele>421.6</ele></trkpt>
      <trkpt lat="35.546401" lon="128.961978"><ele>446.1</ele></trkpt>
      <trkpt lat="35.546435" lon="128.962077"><ele>449.5</ele></trkpt>
      <trkpt lat="35.546849" lon="128.962399"><ele>476.3</ele></trkpt>
      <trkpt lat="35.547397" lon="128.962344"><ele>506.8</ele></trkpt>
      <trkpt lat="35.547584" lon="128.962271"><ele>518.7</ele></trkpt>
      <trkpt lat="35.547782" lon="128.961865"><ele>526.9</ele></trkpt>
      <trkpt lat="35.547835" lon="128.961841"><ele>530.3</ele></trkpt>
      <trkpt lat="35.548060" lon="128.961999"><ele>548.1</ele></trkpt>
      <trkpt lat="35.548193" lon="128.962003"><ele>556.5</ele></trkpt>
      <trkpt lat="35.548380" lon="128.961813"><ele>568.0</ele></trkpt>
      <trkpt lat="35.548631" lon="128.961746"><ele>580.4</ele></trkpt>
      <trkpt lat="35.549014" lon="128.961937"><ele>600.8</ele></trkpt>
      <trkpt lat="35.549276" lon="128.961960"><ele>613.7</ele></trkpt>
      <trkpt lat="35.549591" lon="128.961732"><ele>628.2</ele></trkpt>
      <trkpt lat="35.549712" lon="128.961702"><ele>631.6</ele></trkpt>
      <trkpt lat="35.550456" lon="128.962445"><ele>677.0</ele></trkpt>
      <trkpt lat="35.550813" lon="128.962312"><ele>696.9</ele></trkpt>
      <trkpt lat="35.550916" lon="128.962045"><ele>701.7</ele></trkpt>
      <trkpt lat="35.551059" lon="128.962031"><ele>712.6</ele></trkpt>
      <trkpt lat="35.551082" lon="128.961908"><ele>714.2</ele></trkpt>
      <trkpt lat="35.551161" lon="128.961810"><ele>719.6</ele></trkpt>
      <trkpt lat="35.551301" lon="128.961973"><ele>732.8</ele></trkpt>
      <trkpt lat="35.551837" lon="128.962176"><ele>768.6</ele></trkpt>
      <trkpt lat="35.551999" lon="128.962367"><ele>782.9</ele></trkpt>
      <trkpt lat="35.552207" lon="128.962516"><ele>801.3</ele></trkpt>
      <trkpt lat="35.552383" lon="128.962753"><ele>817.2</ele></trkpt>
      <trkpt lat="35.552529" lon="128.962821"><ele>826.2</ele></trkpt>
      <trkpt lat="35.552760" lon="128.962728"><ele>834.5</ele></trkpt>
      <trkpt lat="35.553021" lon="128.962861"><ele>855.4</ele></trkpt>
      <trkpt lat="35.553128" lon="128.962974"><ele>863.6</ele></trkpt>
      <trkpt lat="35.553431" lon="128.963097"><ele>882.8</ele></trkpt>
      <trkpt lat="35.553730" lon="128.963135"><ele>897.5</ele></trkpt>
      <trkpt lat="35.553876" lon="128.963268"><ele>905.5</ele></trkpt>
      <trkpt lat="35.554277" lon="128.963848"><ele>916.8</ele></trkpt>
      <trkpt lat="35.554696" lon="128.964237"><ele>928.7</ele></trkpt>
      <trkpt lat="35.554831" lon="128.964446"><ele>935.8</ele></trkpt>
      <trkpt lat="35.555117" lon="128.964677"><ele>947.7</ele></trkpt>
      <trkpt lat="35.555386" lon="128.965148"><ele>958.3</ele></trkpt>
      <trkpt lat="35.555743" lon="128.965437"><ele>965.1</ele></trkpt>
      <trkpt lat="35.555999" lon="128.965785"><ele>976.6</ele></trkpt>
      <trkpt lat="35.556129" lon="128.966132"><ele>988.1</ele></trkpt>
      <trkpt lat="35.556399" lon="128.966348"><ele>994.2</ele></trkpt>
      <trkpt lat="35.556841" lon="128.966922"><ele>1016.9</ele></trkpt>
      <trkpt lat="35.557524" lon="128.968703"><ele>1072.5</ele></trkpt>
      <trkpt lat="35.557857" lon="128.969434"><ele>1094.6</ele></trkpt>
      <trkpt lat="35.557916" lon="128.969823"><ele>1106.1</ele></trkpt>
      <trkpt lat="35.558193" lon="128.970443"><ele>1130.4</ele></trkpt>
      <trkpt lat="35.558158" lon="128.970571"><ele>1134.4</ele></trkpt>
      <trkpt lat="35.558178" lon="128.970774"><ele>1139.6</ele></trkpt>
      <trkpt lat="35.558136" lon="128.970882"><ele>1143.1</ele></trkpt>
      <trkpt lat="35.558161" lon="128.970969"><ele>1146.0</ele></trkpt>
      <trkpt lat="35.558100" lon="128.971243"><ele>1156.0</ele></trkpt>
      <trkpt lat="35.558118" lon="128.971388"><ele>1161.0</ele></trkpt>
      <trkpt lat="35.557955" lon="128.972248"><ele>1175.5</ele></trkpt>
    </trkseg>
  </trk>
</gpx>
