<?xml version="1.0" encoding="UTF-8"?>
<gpx version="1.1" creator="kr-100-mountains route-harvester"
     xmlns="http://www.topografix.com/GPX/1/1"
     xmlns:k100="https://github.com/jay-jang/kr-100-mountains/ns/1"
     xmlns:xsi="http://www.w3.org/2001/XMLSchema-instance"
     xsi:schemaLocation="http://www.topografix.com/GPX/1/1 http://www.topografix.com/GPX/1/1/gpx.xsd">
  <metadata>
    <name>천황산 · 얼음골 케이블카 코스 (OSM 계산 경로)</name>
    <desc>실제 GPS 기록이 아닙니다. OpenStreetMap에 등록된 등산로 선형 위에서 계산한 경로이며, 현장 통제·훼손·출입 제한·계절 통제를 반영하지 않을 수 있습니다. 산행 전 공식 안내를 확인하세요.</desc>
    <time>2026-08-04T05:40:23.610Z</time>
    <link href="https://www.openstreetmap.org/copyright"><text>© OpenStreetMap contributors (ODbL 1.0)</text></link>
    <link href="https://registry.opendata.aws/terrain-tiles/"><text>Elevation: SRTM 1 arc-second (NASA/USGS) via AWS Terrain Tiles</text></link>
    <extensions>
      <k100:provenance>osm-routed</k100:provenance>
      <k100:not_a_recorded_track>true</k100:not_a_recorded_track>
      <k100:mountain_id>cheonhwangsan</k100:mountain_id>
      <k100:mountain_name>천황산</k100:mountain_name>
      <k100:route_id>cheonhwangsan-c8429a37</k100:route_id>
      <k100:route_index>1</k100:route_index>
      <k100:route_name>얼음골 케이블카 코스</k100:route_name>
      <k100:variant>0</k100:variant>
      <k100:source>OpenStreetMap via Overpass API</k100:source>
      <k100:license>ODbL-1.0</k100:license>
      <k100:attribution>© OpenStreetMap contributors</k100:attribution>
      <k100:elevation_source>SRTM 1 arc-second (NASA/USGS) — AWS Terrain Tiles 배포본. 지형 DEM 추정 고도이며 실측 아님</k100:elevation_source>
      <k100:algorithm>dijkstra-grid-v1</k100:algorithm>
      <k100:osm_snapshot>2026-08-04</k100:osm_snapshot>
      <k100:snap_trailhead_m>13</k100:snap_trailhead_m>
      <k100:snap_summit_m>7</k100:snap_summit_m>
      <k100:validation_score>75</k100:validation_score>
      <k100:validation_status>review</k100:validation_status>
    </extensions>
  </metadata>
  <trk>
    <name>천황산 · 얼음골 케이블카 코스 (OSM 계산 경로)</name>
    <desc>실제 GPS 기록이 아닙니다. OpenStreetMap에 등록된 등산로 선형 위에서 계산한 경로이며, 현장 통제·훼손·출입 제한·계절 통제를 반영하지 않을 수 있습니다. 산행 전 공식 안내를 확인하세요.</desc>
    <trkseg>
      <trkpt lat="35.583632" lon="128.959055"><ele>252.1</ele></trkpt>
      <trkpt lat="35.583385" lon="128.958950"><ele>255.2</ele></trkpt>
      <trkpt lat="35.583061" lon="128.959042"><ele>257.0</ele></trkpt>
      <trkpt lat="35.582958" lon="128.958989"><ele>258.0</ele></trkpt>
      <trkpt lat="35.582735" lon="128.958634"><ele>259.5</ele></trkpt>
      <trkpt lat="35.582578" lon="128.958268"><ele>262.9</ele></trkpt>
      <trkpt lat="35.582572" lon="128.958091"><ele>263.0</ele></trkpt>
      <trkpt lat="35.582817" lon="128.957073"><ele>259.4</ele></trkpt>
      <trkpt lat="35.582190" lon="128.957305"><ele>264.0</ele></trkpt>
      <trkpt lat="35.582176" lon="128.958233"><ele>267.4</ele></trkpt>
      <trkpt lat="35.581966" lon="128.959322"><ele>268.4</ele></trkpt>
      <trkpt lat="35.581902" lon="128.960019"><ele>274.7</ele></trkpt>
      <trkpt lat="35.581622" lon="128.960769"><ele>284.2</ele></trkpt>
      <trkpt lat="35.581422" lon="128.961838"><ele>288.3</ele></trkpt>
      <trkpt lat="35.581173" lon="128.962782"><ele>293.1</ele></trkpt>
      <trkpt lat="35.581099" lon="128.963491"><ele>295.2</ele></trkpt>
      <trkpt lat="35.580948" lon="128.964297"><ele>295.3</ele></trkpt>
      <trkpt lat="35.580782" lon="128.964251"><ele>297.6</ele></trkpt>
      <trkpt lat="35.580316" lon="128.964268"><ele>305.6</ele></trkpt>
      <trkpt lat="35.580065" lon="128.964138"><ele>310.2</ele></trkpt>
      <trkpt lat="35.579000" lon="128.964002"><ele>327.8</ele></trkpt>
      <trkpt lat="35.578809" lon="128.964322"><ele>330.0</ele></trkpt>
      <trkpt lat="35.578453" lon="128.964702"><ele>334.5</ele></trkpt>
      <trkpt lat="35.578436" lon="128.964880"><ele>334.2</ele></trkpt>
      <trkpt lat="35.578666" lon="128.965167"><ele>330.8</ele></trkpt>
      <trkpt lat="35.578674" lon="128.965226"><ele>331.2</ele></trkpt>
      <trkpt lat="35.578621" lon="128.965260"><ele>332.6</ele></trkpt>
      <trkpt lat="35.578165" lon="128.965197"><ele>342.2</ele></trkpt>
      <trkpt lat="35.577876" lon="128.965275"><ele>348.9</ele></trkpt>
      <trkpt lat="35.577562" lon="128.965039"><ele>353.1</ele></trkpt>
      <trkpt lat="35.577410" lon="128.964992"><ele>355.9</ele></trkpt>
      <trkpt lat="35.576907" lon="128.965075"><ele>367.3</ele></trkpt>
      <trkpt lat="35.576939" lon="128.965239"><ele>368.6</ele></trkpt>
      <trkpt lat="35.577181" lon="128.965673"><ele>375.0</ele></trkpt>
      <trkpt lat="35.577179" lon="128.965894"><ele>379.6</ele></trkpt>
      <trkpt lat="35.577081" lon="128.965998"><ele>382.0</ele></trkpt>
      <trkpt lat="35.576865" lon="128.966064"><ele>387.4</ele></trkpt>
      <trkpt lat="35.576597" lon="128.966336"><ele>392.8</ele></trkpt>
      <trkpt lat="35.576477" lon="128.966274"><ele>394.3</ele></trkpt>
      <trkpt lat="35.576310" lon="128.965773"><ele>394.4</ele></trkpt>
      <trkpt lat="35.576076" lon="128.965443"><ele>396.6</ele></trkpt>
      <trkpt lat="35.575972" lon="128.965321"><ele>397.5</ele></trkpt>
      <trkpt lat="35.575812" lon="128.965263"><ele>400.2</ele></trkpt>
      <trkpt lat="35.575391" lon="128.965425"><ele>412.3</ele></trkpt>
      <trkpt lat="35.575282" lon="128.965559"><ele>418.0</ele></trkpt>
      <trkpt lat="35.575199" lon="128.965776"><ele>423.7</ele></trkpt>
      <trkpt lat="35.575100" lon="128.966622"><ele>435.9</ele></trkpt>
      <trkpt lat="35.575013" lon="128.966779"><ele>437.7</ele></trkpt>
      <trkpt lat="35.574959" lon="128.966796"><ele>438.2</ele></trkpt>
      <trkpt lat="35.574936" lon="128.966756"><ele>438.0</ele></trkpt>
      <trkpt lat="35.575009" lon="128.966560"><ele>436.5</ele></trkpt>
      <trkpt lat="35.574968" lon="128.966267"><ele>434.3</ele></trkpt>
      <trkpt lat="35.574846" lon="128.965915"><ele>433.1</ele></trkpt>
      <trkpt lat="35.574686" lon="128.965695"><ele>433.9</ele></trkpt>
      <trkpt lat="35.574470" lon="128.965653"><ele>435.5</ele></trkpt>
      <trkpt lat="35.573575" lon="128.966033"><ele>457.2</ele></trkpt>
      <trkpt lat="35.573444" lon="128.965648"><ele>455.8</ele></trkpt>
      <trkpt lat="35.573195" lon="128.965384"><ele>459.9</ele></trkpt>
      <trkpt lat="35.572959" lon="128.965259"><ele>465.8</ele></trkpt>
      <trkpt lat="35.571783" lon="128.965411"><ele>502.6</ele></trkpt>
      <trkpt lat="35.571302" lon="128.965526"><ele>519.3</ele></trkpt>
      <trkpt lat="35.570664" lon="128.965580"><ele>542.5</ele></trkpt>
      <trkpt lat="35.570223" lon="128.965510"><ele>556.4</ele></trkpt>
      <trkpt lat="35.569398" lon="128.965710"><ele>584.3</ele></trkpt>
      <trkpt lat="35.569183" lon="128.965832"><ele>590.5</ele></trkpt>
      <trkpt lat="35.569065" lon="128.965794"><ele>594.6</ele></trkpt>
      <trkpt lat="35.569012" lon="128.965869"><ele>596.8</ele></trkpt>
      <trkpt lat="35.568947" lon="128.965848"><ele>599.0</ele></trkpt>
      <trkpt lat="35.568866" lon="128.965939"><ele>602.6</ele></trkpt>
      <trkpt lat="35.568895" lon="128.966513"><ele>606.2</ele></trkpt>
      <trkpt lat="35.568700" lon="128.966854"><ele>614.3</ele></trkpt>
      <trkpt lat="35.568465" lon="128.967004"><ele>626.3</ele></trkpt>
      <trkpt lat="35.568153" lon="128.967569"><ele>650.3</ele></trkpt>
      <trkpt lat="35.568126" lon="128.968036"><ele>658.9</ele></trkpt>
      <trkpt lat="35.568211" lon="128.968208"><ele>658.2</ele></trkpt>
      <trkpt lat="35.568198" lon="128.968330"><ele>660.7</ele></trkpt>
      <trkpt lat="35.567934" lon="128.968783"><ele>680.9</ele></trkpt>
      <trkpt lat="35.567823" lon="128.968847"><ele>686.7</ele></trkpt>
      <trkpt lat="35.567485" lon="128.969241"><ele>703.7</ele></trkpt>
      <trkpt lat="35.567393" lon="128.969496"><ele>712.1</ele></trkpt>
      <trkpt lat="35.567503" lon="128.969834"><ele>712.3</ele></trkpt>
      <trkpt lat="35.567451" lon="128.969964"><ele>719.9</ele></trkpt>
      <trkpt lat="35.567731" lon="128.970357"><ele>721.0</ele></trkpt>
      <trkpt lat="35.567704" lon="128.970463"><ele>725.6</ele></trkpt>
      <trkpt lat="35.567579" lon="128.970484"><ele>733.4</ele></trkpt>
      <trkpt lat="35.567392" lon="128.970678"><ele>749.4</ele></trkpt>
      <trkpt lat="35.567091" lon="128.970827"><ele>771.0</ele></trkpt>
      <trkpt lat="35.566873" lon="128.971083"><ele>787.2</ele></trkpt>
      <trkpt lat="35.566692" lon="128.971231"><ele>799.3</ele></trkpt>
      <trkpt lat="35.566556" lon="128.971274"><ele>807.9</ele></trkpt>
      <trkpt lat="35.566553" lon="128.971366"><ele>809.3</ele></trkpt>
      <trkpt lat="35.566445" lon="128.971544"><ele>818.9</ele></trkpt>
      <trkpt lat="35.566433" lon="128.971739"><ele>823.4</ele></trkpt>
      <trkpt lat="35.566255" lon="128.972117"><ele>838.2</ele></trkpt>
      <trkpt lat="35.566203" lon="128.972519"><ele>851.2</ele></trkpt>
      <trkpt lat="35.566292" lon="128.972942"><ele>858.4</ele></trkpt>
      <trkpt lat="35.566274" lon="128.973446"><ele>873.6</ele></trkpt>
      <trkpt lat="35.566471" lon="128.973653"><ele>873.3</ele></trkpt>
      <trkpt lat="35.566707" lon="128.974142"><ele>891.7</ele></trkpt>
      <trkpt lat="35.566840" lon="128.974246"><ele>891.1</ele></trkpt>
      <trkpt lat="35.566793" lon="128.974511"><ele>904.3</ele></trkpt>
      <trkpt lat="35.566520" lon="128.974646"><ele>924.2</ele></trkpt>
      <trkpt lat="35.566451" lon="128.974576"><ele>926.2</ele></trkpt>
      <trkpt lat="35.566059" lon="128.974493"><ele>939.0</ele></trkpt>
      <trkpt lat="35.566014" lon="128.974541"><ele>943.6</ele></trkpt>
      <trkpt lat="35.565989" lon="128.974747"><ele>954.3</ele></trkpt>
      <trkpt lat="35.566031" lon="128.974821"><ele>954.1</ele></trkpt>
      <trkpt lat="35.566013" lon="128.974937"><ele>957.8</ele></trkpt>
      <trkpt lat="35.565942" lon="128.975066"><ele>963.8</ele></trkpt>
      <trkpt lat="35.565629" lon="128.975206"><ele>981.9</ele></trkpt>
      <trkpt lat="35.565411" lon="128.975242"><ele>993.8</ele></trkpt>
      <trkpt lat="35.565208" lon="128.975502"><ele>1009.8</ele></trkpt>
      <trkpt lat="35.564962" lon="128.975584"><ele>1021.8</ele></trkpt>
      <trkpt lat="35.564771" lon="128.975545"><ele>1028.0</ele></trkpt>
      <trkpt lat="35.564662" lon="128.975624"><ele>1034.3</ele></trkpt>
      <trkpt lat="35.564544" lon="128.975863"><ele>1045.1</ele></trkpt>
      <trkpt lat="35.564203" lon="128.976270"><ele>1065.5</ele></trkpt>
      <trkpt lat="35.563981" lon="128.976780"><ele>1076.8</ele></trkpt>
      <trkpt lat="35.563798" lon="128.976678"><ele>1079.3</ele></trkpt>
      <trkpt lat="35.563663" lon="128.976787"><ele>1079.5</ele></trkpt>
      <trkpt lat="35.563548" lon="128.976322"><ele>1084.3</ele></trkpt>
      <trkpt lat="35.563294" lon="128.975952"><ele>1086.3</ele></trkpt>
      <trkpt lat="35.563079" lon="128.975509"><ele>1090.3</ele></trkpt>
      <trkpt lat="35.562832" lon="128.975281"><ele>1094.8</ele></trkpt>
      <trkpt lat="35.562467" lon="128.974777"><ele>1106.5</ele></trkpt>
      <trkpt lat="35.562356" lon="128.974707"><ele>1108.7</ele></trkpt>
      <trkpt lat="35.562241" lon="128.974266"><ele>1115.6</ele></trkpt>
      <trkpt lat="35.562149" lon="128.973420"><ele>1120.0</ele></trkpt>
      <trkpt lat="35.562088" lon="128.973244"><ele>1121.2</ele></trkpt>
      <trkpt lat="35.561883" lon="128.972766"><ele>1126.6</ele></trkpt>
      <trkpt lat="35.561439" lon="128.972030"><ele>1134.0</ele></trkpt>
      <trkpt lat="35.561295" lon="128.971898"><ele>1138.0</ele></trkpt>
      <trkpt lat="35.560910" lon="128.971669"><ele>1146.4</ele></trkpt>
      <trkpt lat="35.560485" lon="128.971623"><ele>1153.3</ele></trkpt>
      <trkpt lat="35.559760" lon="128.971662"><ele>1161.8</ele></trkpt>
      <trkpt lat="35.559259" lon="128.971769"><ele>1161.0</ele></trkpt>
      <trkpt lat="35.558816" lon="128.971982"><ele>1163.3</ele></trkpt>
      <trkpt lat="35.558395" lon="128.972014"><ele>1172.1</ele></trkpt>
      <trkpt lat="35.557955" lon="128.972248"><ele>1175.5</ele></trkpt>
    </trkseg>
  </trk>
</gpx>
