<?xml version="1.0" encoding="UTF-8"?>
<gpx version="1.1" creator="kr-100-mountains route-harvester"
     xmlns="http://www.topografix.com/GPX/1/1"
     xmlns:k100="https://github.com/jay-jang/kr-100-mountains/ns/1"
     xmlns:xsi="http://www.w3.org/2001/XMLSchema-instance"
     xsi:schemaLocation="http://www.topografix.com/GPX/1/1 http://www.topografix.com/GPX/1/1/gpx.xsd">
  <metadata>
    <name>내장산 · 내장사-신선봉 코스 (대안 2) (OSM 계산 경로)</name>
    <desc>실제 GPS 기록이 아닙니다. OpenStreetMap에 등록된 등산로 선형 위에서 계산한 경로이며, 현장 통제·훼손·출입 제한·계절 통제를 반영하지 않을 수 있습니다. 산행 전 공식 안내를 확인하세요.</desc>
    <time>2026-08-04T05:56:03.063Z</time>
    <link href="https://www.openstreetmap.org/copyright"><text>© OpenStreetMap contributors (ODbL 1.0)</text></link>
    <link href="https://registry.opendata.aws/terrain-tiles/"><text>Elevation: SRTM 1 arc-second (NASA/USGS) via AWS Terrain Tiles</text></link>
    <extensions>
      <k100:provenance>osm-routed</k100:provenance>
      <k100:not_a_recorded_track>true</k100:not_a_recorded_track>
      <k100:mountain_id>naejangsan</k100:mountain_id>
      <k100:mountain_name>내장산</k100:mountain_name>
      <k100:route_id>naejangsan-4c1745d9</k100:route_id>
      <k100:route_index>1</k100:route_index>
      <k100:route_name>내장사-신선봉 코스</k100:route_name>
      <k100:variant>2</k100:variant>
      <k100:source>OpenStreetMap via Overpass API</k100:source>
      <k100:license>ODbL-1.0</k100:license>
      <k100:attribution>© OpenStreetMap contributors</k100:attribution>
      <k100:elevation_source>SRTM 1 arc-second (NASA/USGS) — AWS Terrain Tiles 배포본. 지형 DEM 추정 고도이며 실측 아님</k100:elevation_source>
      <k100:algorithm>dijkstra-grid-v1</k100:algorithm>
      <k100:osm_snapshot>2026-08-04</k100:osm_snapshot>
      <k100:snap_trailhead_m>15</k100:snap_trailhead_m>
      <k100:snap_summit_m>53</k100:snap_summit_m>
      <k100:validation_score>84</k100:validation_score>
      <k100:validation_status>accepted</k100:validation_status>
    </extensions>
  </metadata>
  <trk>
    <name>내장산 · 내장사-신선봉 코스 (대안 2) (OSM 계산 경로)</name>
    <desc>실제 GPS 기록이 아닙니다. OpenStreetMap에 등록된 등산로 선형 위에서 계산한 경로이며, 현장 통제·훼손·출입 제한·계절 통제를 반영하지 않을 수 있습니다. 산행 전 공식 안내를 확인하세요.</desc>
    <trkseg>
      <trkpt lat="35.489185" lon="126.927208"><ele>156.1</ele></trkpt>
      <trkpt lat="35.489339" lon="126.927467"><ele>158.6</ele></trkpt>
      <trkpt lat="35.489702" lon="126.927873"><ele>162.3</ele></trkpt>
      <trkpt lat="35.490257" lon="126.928174"><ele>159.5</ele></trkpt>
      <trkpt lat="35.490825" lon="126.928356"><ele>158.7</ele></trkpt>
      <trkpt lat="35.490900" lon="126.928014"><ele>161.5</ele></trkpt>
      <trkpt lat="35.491271" lon="126.928039"><ele>156.8</ele></trkpt>
      <trkpt lat="35.492773" lon="126.927603"><ele>153.2</ele></trkpt>
      <trkpt lat="35.492683" lon="126.927577"><ele>154.2</ele></trkpt>
      <trkpt lat="35.492586" lon="126.927407"><ele>161.4</ele></trkpt>
      <trkpt lat="35.492660" lon="126.926961"><ele>181.7</ele></trkpt>
      <trkpt lat="35.492614" lon="126.926798"><ele>189.7</ele></trkpt>
      <trkpt lat="35.492512" lon="126.926701"><ele>198.2</ele></trkpt>
      <trkpt lat="35.492084" lon="126.926556"><ele>222.5</ele></trkpt>
      <trkpt lat="35.491608" lon="126.925923"><ele>264.0</ele></trkpt>
      <trkpt lat="35.491516" lon="126.925553"><ele>274.3</ele></trkpt>
      <trkpt lat="35.491307" lon="126.925280"><ele>288.3</ele></trkpt>
      <trkpt lat="35.491093" lon="126.924754"><ele>303.4</ele></trkpt>
      <trkpt lat="35.491005" lon="126.924271"><ele>317.9</ele></trkpt>
      <trkpt lat="35.491031" lon="126.923869"><ele>333.2</ele></trkpt>
      <trkpt lat="35.491285" lon="126.923327"><ele>357.4</ele></trkpt>
      <trkpt lat="35.491407" lon="126.923166"><ele>359.1</ele></trkpt>
      <trkpt lat="35.491425" lon="126.923075"><ele>358.8</ele></trkpt>
      <trkpt lat="35.491342" lon="126.922849"><ele>349.9</ele></trkpt>
      <trkpt lat="35.491394" lon="126.922635"><ele>341.9</ele></trkpt>
      <trkpt lat="35.491551" lon="126.922350"><ele>336.4</ele></trkpt>
      <trkpt lat="35.491612" lon="126.921964"><ele>335.3</ele></trkpt>
      <trkpt lat="35.491521" lon="126.921573"><ele>327.3</ele></trkpt>
      <trkpt lat="35.491543" lon="126.921095"><ele>324.7</ele></trkpt>
      <trkpt lat="35.491612" lon="126.920891"><ele>328.8</ele></trkpt>
      <trkpt lat="35.491499" lon="126.920167"><ele>340.1</ele></trkpt>
      <trkpt lat="35.491512" lon="126.919620"><ele>344.0</ele></trkpt>
      <trkpt lat="35.491612" lon="126.919320"><ele>346.9</ele></trkpt>
      <trkpt lat="35.491486" lon="126.917861"><ele>332.9</ele></trkpt>
      <trkpt lat="35.491661" lon="126.916439"><ele>315.8</ele></trkpt>
      <trkpt lat="35.491630" lon="126.915404"><ele>326.6</ele></trkpt>
      <trkpt lat="35.491748" lon="126.914813"><ele>348.5</ele></trkpt>
      <trkpt lat="35.491918" lon="126.914341"><ele>357.2</ele></trkpt>
      <trkpt lat="35.492171" lon="126.913918"><ele>357.4</ele></trkpt>
      <trkpt lat="35.492538" lon="126.913548"><ele>360.6</ele></trkpt>
      <trkpt lat="35.492722" lon="126.913102"><ele>364.2</ele></trkpt>
      <trkpt lat="35.493333" lon="126.912544"><ele>389.4</ele></trkpt>
      <trkpt lat="35.493936" lon="126.911584"><ele>432.1</ele></trkpt>
      <trkpt lat="35.494652" lon="126.911166"><ele>471.8</ele></trkpt>
      <trkpt lat="35.494984" lon="126.910908"><ele>482.4</ele></trkpt>
      <trkpt lat="35.495277" lon="126.910554"><ele>493.0</ele></trkpt>
      <trkpt lat="35.495404" lon="126.910275"><ele>503.5</ele></trkpt>
      <trkpt lat="35.495530" lon="126.909744"><ele>518.1</ele></trkpt>
      <trkpt lat="35.495692" lon="126.909481"><ele>522.1</ele></trkpt>
      <trkpt lat="35.495936" lon="126.908677"><ele>531.9</ele></trkpt>
      <trkpt lat="35.496194" lon="126.908210"><ele>542.4</ele></trkpt>
      <trkpt lat="35.496273" lon="126.907512"><ele>541.4</ele></trkpt>
      <trkpt lat="35.496246" lon="126.907260"><ele>535.7</ele></trkpt>
      <trkpt lat="35.496474" lon="126.906826"><ele>529.2</ele></trkpt>
      <trkpt lat="35.496600" lon="126.906418"><ele>534.6</ele></trkpt>
      <trkpt lat="35.496645" lon="126.906056"><ele>538.9</ele></trkpt>
      <trkpt lat="35.496917" lon="126.905916"><ele>549.0</ele></trkpt>
      <trkpt lat="35.496989" lon="126.905775"><ele>551.8</ele></trkpt>
      <trkpt lat="35.496978" lon="126.905662"><ele>552.4</ele></trkpt>
      <trkpt lat="35.496908" lon="126.905563"><ele>549.7</ele></trkpt>
      <trkpt lat="35.497035" lon="126.905412"><ele>558.9</ele></trkpt>
      <trkpt lat="35.497006" lon="126.905313"><ele>560.7</ele></trkpt>
      <trkpt lat="35.497131" lon="126.904758"><ele>566.6</ele></trkpt>
      <trkpt lat="35.497161" lon="126.904420"><ele>563.2</ele></trkpt>
      <trkpt lat="35.497212" lon="126.904313"><ele>566.2</ele></trkpt>
      <trkpt lat="35.497408" lon="126.904197"><ele>573.9</ele></trkpt>
      <trkpt lat="35.497469" lon="126.904053"><ele>574.8</ele></trkpt>
      <trkpt lat="35.497421" lon="126.903669"><ele>559.9</ele></trkpt>
      <trkpt lat="35.497569" lon="126.903361"><ele>562.5</ele></trkpt>
      <trkpt lat="35.497720" lon="126.903224"><ele>569.8</ele></trkpt>
      <trkpt lat="35.497760" lon="126.903228"><ele>571.7</ele></trkpt>
      <trkpt lat="35.497795" lon="126.903336"><ele>572.3</ele></trkpt>
      <trkpt lat="35.497891" lon="126.903358"><ele>568.0</ele></trkpt>
      <trkpt lat="35.498118" lon="126.903248"><ele>561.7</ele></trkpt>
      <trkpt lat="35.498157" lon="126.903077"><ele>566.6</ele></trkpt>
      <trkpt lat="35.498114" lon="126.902918"><ele>575.0</ele></trkpt>
      <trkpt lat="35.498148" lon="126.902843"><ele>576.4</ele></trkpt>
      <trkpt lat="35.498346" lon="126.902650"><ele>566.7</ele></trkpt>
      <trkpt lat="35.498584" lon="126.902603"><ele>526.2</ele></trkpt>
      <trkpt lat="35.498686" lon="126.902505"><ele>517.2</ele></trkpt>
      <trkpt lat="35.498872" lon="126.901903"><ele>506.8</ele></trkpt>
      <trkpt lat="35.498851" lon="126.901632"><ele>514.6</ele></trkpt>
      <trkpt lat="35.498771" lon="126.901443"><ele>524.1</ele></trkpt>
      <trkpt lat="35.498842" lon="126.901050"><ele>530.3</ele></trkpt>
      <trkpt lat="35.498781" lon="126.900426"><ele>550.3</ele></trkpt>
      <trkpt lat="35.498608" lon="126.900100"><ele>562.2</ele></trkpt>
      <trkpt lat="35.498455" lon="126.899501"><ele>567.4</ele></trkpt>
      <trkpt lat="35.498550" lon="126.899154"><ele>561.4</ele></trkpt>
      <trkpt lat="35.499018" lon="126.898475"><ele>558.0</ele></trkpt>
      <trkpt lat="35.499117" lon="126.897848"><ele>561.3</ele></trkpt>
      <trkpt lat="35.499075" lon="126.897728"><ele>557.8</ele></trkpt>
      <trkpt lat="35.499164" lon="126.897488"><ele>563.8</ele></trkpt>
      <trkpt lat="35.499156" lon="126.897392"><ele>563.2</ele></trkpt>
      <trkpt lat="35.499080" lon="126.897334"><ele>558.1</ele></trkpt>
      <trkpt lat="35.499037" lon="126.897106"><ele>556.4</ele></trkpt>
      <trkpt lat="35.499086" lon="126.896900"><ele>559.6</ele></trkpt>
      <trkpt lat="35.499070" lon="126.896686"><ele>560.3</ele></trkpt>
      <trkpt lat="35.499123" lon="126.896259"><ele>563.8</ele></trkpt>
      <trkpt lat="35.499224" lon="126.895945"><ele>563.9</ele></trkpt>
      <trkpt lat="35.499228" lon="126.895798"><ele>563.3</ele></trkpt>
      <trkpt lat="35.499289" lon="126.895710"><ele>563.8</ele></trkpt>
      <trkpt lat="35.499163" lon="126.895489"><ele>559.3</ele></trkpt>
      <trkpt lat="35.499282" lon="126.895351"><ele>560.6</ele></trkpt>
      <trkpt lat="35.499361" lon="126.895136"><ele>562.6</ele></trkpt>
      <trkpt lat="35.499356" lon="126.894944"><ele>563.0</ele></trkpt>
      <trkpt lat="35.499465" lon="126.894539"><ele>574.6</ele></trkpt>
      <trkpt lat="35.499453" lon="126.894387"><ele>577.5</ele></trkpt>
      <trkpt lat="35.499519" lon="126.894242"><ele>578.9</ele></trkpt>
      <trkpt lat="35.499490" lon="126.894138"><ele>580.4</ele></trkpt>
      <trkpt lat="35.499594" lon="126.893821"><ele>584.7</ele></trkpt>
      <trkpt lat="35.499591" lon="126.893599"><ele>585.1</ele></trkpt>
      <trkpt lat="35.499686" lon="126.893473"><ele>586.8</ele></trkpt>
      <trkpt lat="35.499617" lon="126.893213"><ele>588.4</ele></trkpt>
      <trkpt lat="35.499639" lon="126.893006"><ele>592.5</ele></trkpt>
      <trkpt lat="35.499355" lon="126.892546"><ele>585.0</ele></trkpt>
      <trkpt lat="35.499344" lon="126.892264"><ele>582.0</ele></trkpt>
      <trkpt lat="35.499167" lon="126.891927"><ele>579.1</ele></trkpt>
      <trkpt lat="35.499140" lon="126.891665"><ele>579.9</ele></trkpt>
      <trkpt lat="35.499211" lon="126.891245"><ele>583.8</ele></trkpt>
      <trkpt lat="35.499065" lon="126.890595"><ele>586.0</ele></trkpt>
      <trkpt lat="35.499053" lon="126.890169"><ele>589.3</ele></trkpt>
      <trkpt lat="35.498859" lon="126.889735"><ele>588.0</ele></trkpt>
      <trkpt lat="35.498676" lon="126.889172"><ele>590.0</ele></trkpt>
      <trkpt lat="35.498647" lon="126.888840"><ele>589.3</ele></trkpt>
      <trkpt lat="35.498719" lon="126.888424"><ele>594.1</ele></trkpt>
      <trkpt lat="35.498711" lon="126.888091"><ele>596.7</ele></trkpt>
      <trkpt lat="35.498642" lon="126.887803"><ele>594.1</ele></trkpt>
      <trkpt lat="35.498778" lon="126.887389"><ele>595.2</ele></trkpt>
      <trkpt lat="35.498686" lon="126.885769"><ele>586.5</ele></trkpt>
      <trkpt lat="35.498768" lon="126.885408"><ele>587.5</ele></trkpt>
      <trkpt lat="35.498693" lon="126.884772"><ele>582.1</ele></trkpt>
      <trkpt lat="35.498604" lon="126.884592"><ele>580.6</ele></trkpt>
      <trkpt lat="35.498606" lon="126.884412"><ele>580.7</ele></trkpt>
      <trkpt lat="35.498416" lon="126.883291"><ele>588.3</ele></trkpt>
      <trkpt lat="35.498220" lon="126.882892"><ele>595.6</ele></trkpt>
      <trkpt lat="35.498143" lon="126.882368"><ele>605.7</ele></trkpt>
      <trkpt lat="35.498004" lon="126.882138"><ele>609.7</ele></trkpt>
      <trkpt lat="35.497952" lon="126.881850"><ele>612.5</ele></trkpt>
      <trkpt lat="35.497832" lon="126.881605"><ele>614.7</ele></trkpt>
      <trkpt lat="35.497826" lon="126.880961"><ele>626.4</ele></trkpt>
      <trkpt lat="35.497713" lon="126.880799"><ele>628.0</ele></trkpt>
      <trkpt lat="35.497608" lon="126.880299"><ele>628.3</ele></trkpt>
      <trkpt lat="35.497681" lon="126.879921"><ele>639.3</ele></trkpt>
      <trkpt lat="35.497760" lon="126.879777"><ele>647.1</ele></trkpt>
      <trkpt lat="35.497733" lon="126.879484"><ele>651.0</ele></trkpt>
      <trkpt lat="35.497691" lon="126.879435"><ele>649.5</ele></trkpt>
      <trkpt lat="35.497542" lon="126.879479"><ele>644.2</ele></trkpt>
      <trkpt lat="35.497370" lon="126.879386"><ele>639.2</ele></trkpt>
      <trkpt lat="35.497309" lon="126.879285"><ele>636.8</ele></trkpt>
      <trkpt lat="35.497067" lon="126.879318"><ele>632.2</ele></trkpt>
      <trkpt lat="35.496429" lon="126.879109"><ele>616.1</ele></trkpt>
      <trkpt lat="35.495998" lon="126.879108"><ele>607.3</ele></trkpt>
      <trkpt lat="35.495671" lon="126.879004"><ele>605.7</ele></trkpt>
      <trkpt lat="35.495013" lon="126.879084"><ele>609.0</ele></trkpt>
      <trkpt lat="35.493885" lon="126.878776"><ele>634.8</ele></trkpt>
      <trkpt lat="35.493573" lon="126.878848"><ele>648.8</ele></trkpt>
      <trkpt lat="35.493337" lon="126.878734"><ele>652.6</ele></trkpt>
      <trkpt lat="35.493071" lon="126.878823"><ele>641.5</ele></trkpt>
      <trkpt lat="35.492904" lon="126.878806"><ele>635.0</ele></trkpt>
      <trkpt lat="35.492781" lon="126.878867"><ele>630.0</ele></trkpt>
      <trkpt lat="35.492380" lon="126.878909"><ele>616.2</ele></trkpt>
      <trkpt lat="35.491982" lon="126.879167"><ele>605.5</ele></trkpt>
      <trkpt lat="35.491458" lon="126.879227"><ele>606.0</ele></trkpt>
      <trkpt lat="35.491071" lon="126.879490"><ele>611.7</ele></trkpt>
      <trkpt lat="35.490935" lon="126.879655"><ele>614.7</ele></trkpt>
      <trkpt lat="35.490739" lon="126.879791"><ele>615.5</ele></trkpt>
      <trkpt lat="35.490632" lon="126.879824"><ele>614.9</ele></trkpt>
      <trkpt lat="35.490374" lon="126.879745"><ele>615.5</ele></trkpt>
      <trkpt lat="35.490090" lon="126.879757"><ele>614.1</ele></trkpt>
      <trkpt lat="35.489038" lon="126.880060"><ele>626.9</ele></trkpt>
      <trkpt lat="35.488805" lon="126.880187"><ele>635.8</ele></trkpt>
      <trkpt lat="35.488511" lon="126.880452"><ele>645.8</ele></trkpt>
      <trkpt lat="35.488343" lon="126.880674"><ele>652.1</ele></trkpt>
      <trkpt lat="35.487865" lon="126.880948"><ele>664.9</ele></trkpt>
      <trkpt lat="35.487383" lon="126.881325"><ele>684.7</ele></trkpt>
      <trkpt lat="35.487240" lon="126.881342"><ele>686.7</ele></trkpt>
      <trkpt lat="35.487135" lon="126.881484"><ele>688.7</ele></trkpt>
      <trkpt lat="35.486958" lon="126.881529"><ele>690.4</ele></trkpt>
      <trkpt lat="35.486869" lon="126.881609"><ele>692.0</ele></trkpt>
      <trkpt lat="35.486750" lon="126.881510"><ele>694.0</ele></trkpt>
      <trkpt lat="35.486632" lon="126.881492"><ele>694.7</ele></trkpt>
      <trkpt lat="35.486563" lon="126.881216"><ele>687.9</ele></trkpt>
      <trkpt lat="35.486417" lon="126.881100"><ele>685.5</ele></trkpt>
      <trkpt lat="35.486304" lon="126.881223"><ele>686.5</ele></trkpt>
      <trkpt lat="35.485899" lon="126.881285"><ele>684.1</ele></trkpt>
      <trkpt lat="35.485675" lon="126.881129"><ele>683.7</ele></trkpt>
      <trkpt lat="35.485224" lon="126.881060"><ele>689.9</ele></trkpt>
      <trkpt lat="35.484985" lon="126.881107"><ele>694.7</ele></trkpt>
      <trkpt lat="35.484648" lon="126.881266"><ele>687.2</ele></trkpt>
      <trkpt lat="35.483717" lon="126.881462"><ele>692.1</ele></trkpt>
      <trkpt lat="35.483509" lon="126.881680"><ele>684.3</ele></trkpt>
      <trkpt lat="35.483298" lon="126.882110"><ele>667.6</ele></trkpt>
      <trkpt lat="35.483131" lon="126.882332"><ele>656.8</ele></trkpt>
      <trkpt lat="35.482943" lon="126.882720"><ele>639.9</ele></trkpt>
      <trkpt lat="35.482858" lon="126.883092"><ele>630.8</ele></trkpt>
    </trkseg>
  </trk>
</gpx>
