<?xml version="1.0" encoding="UTF-8"?>
<gpx version="1.1" creator="kr-100-mountains route-harvester"
     xmlns="http://www.topografix.com/GPX/1/1"
     xmlns:k100="https://github.com/jay-jang/kr-100-mountains/ns/1"
     xmlns:xsi="http://www.w3.org/2001/XMLSchema-instance"
     xsi:schemaLocation="http://www.topografix.com/GPX/1/1 http://www.topografix.com/GPX/1/1/gpx.xsd">
  <metadata>
    <name>내장산 · 내장사-신선봉 코스 (대안 1) (OSM 계산 경로)</name>
    <desc>실제 GPS 기록이 아닙니다. OpenStreetMap에 등록된 등산로 선형 위에서 계산한 경로이며, 현장 통제·훼손·출입 제한·계절 통제를 반영하지 않을 수 있습니다. 산행 전 공식 안내를 확인하세요.</desc>
    <time>2026-08-04T05:56:03.061Z</time>
    <link href="https://www.openstreetmap.org/copyright"><text>© OpenStreetMap contributors (ODbL 1.0)</text></link>
    <link href="https://registry.opendata.aws/terrain-tiles/"><text>Elevation: SRTM 1 arc-second (NASA/USGS) via AWS Terrain Tiles</text></link>
    <extensions>
      <k100:provenance>osm-routed</k100:provenance>
      <k100:not_a_recorded_track>true</k100:not_a_recorded_track>
      <k100:mountain_id>naejangsan</k100:mountain_id>
      <k100:mountain_name>내장산</k100:mountain_name>
      <k100:route_id>naejangsan-4c1745d9</k100:route_id>
      <k100:route_index>1</k100:route_index>
      <k100:route_name>내장사-신선봉 코스</k100:route_name>
      <k100:variant>1</k100:variant>
      <k100:source>OpenStreetMap via Overpass API</k100:source>
      <k100:license>ODbL-1.0</k100:license>
      <k100:attribution>© OpenStreetMap contributors</k100:attribution>
      <k100:elevation_source>SRTM 1 arc-second (NASA/USGS) — AWS Terrain Tiles 배포본. 지형 DEM 추정 고도이며 실측 아님</k100:elevation_source>
      <k100:algorithm>dijkstra-grid-v1</k100:algorithm>
      <k100:osm_snapshot>2026-08-04</k100:osm_snapshot>
      <k100:snap_trailhead_m>15</k100:snap_trailhead_m>
      <k100:snap_summit_m>53</k100:snap_summit_m>
      <k100:validation_score>93</k100:validation_score>
      <k100:validation_status>accepted</k100:validation_status>
    </extensions>
  </metadata>
  <trk>
    <name>내장산 · 내장사-신선봉 코스 (대안 1) (OSM 계산 경로)</name>
    <desc>실제 GPS 기록이 아닙니다. OpenStreetMap에 등록된 등산로 선형 위에서 계산한 경로이며, 현장 통제·훼손·출입 제한·계절 통제를 반영하지 않을 수 있습니다. 산행 전 공식 안내를 확인하세요.</desc>
    <trkseg>
      <trkpt lat="35.489185" lon="126.927208"><ele>156.1</ele></trkpt>
      <trkpt lat="35.488972" lon="126.926546"><ele>158.1</ele></trkpt>
      <trkpt lat="35.487947" lon="126.925957"><ele>158.5</ele></trkpt>
      <trkpt lat="35.487640" lon="126.925369"><ele>159.7</ele></trkpt>
      <trkpt lat="35.487377" lon="126.924630"><ele>165.2</ele></trkpt>
      <trkpt lat="35.487385" lon="126.924132"><ele>164.6</ele></trkpt>
      <trkpt lat="35.487677" lon="126.922938"><ele>169.4</ele></trkpt>
      <trkpt lat="35.488231" lon="126.921868"><ele>175.5</ele></trkpt>
      <trkpt lat="35.488422" lon="126.921211"><ele>171.2</ele></trkpt>
      <trkpt lat="35.488402" lon="126.920731"><ele>169.6</ele></trkpt>
      <trkpt lat="35.488258" lon="126.920233"><ele>172.6</ele></trkpt>
      <trkpt lat="35.488361" lon="126.919113"><ele>170.0</ele></trkpt>
      <trkpt lat="35.488253" lon="126.918636"><ele>171.2</ele></trkpt>
      <trkpt lat="35.487852" lon="126.918012"><ele>174.0</ele></trkpt>
      <trkpt lat="35.487712" lon="126.917866"><ele>176.4</ele></trkpt>
      <trkpt lat="35.487512" lon="126.917768"><ele>179.2</ele></trkpt>
      <trkpt lat="35.487307" lon="126.917787"><ele>179.6</ele></trkpt>
      <trkpt lat="35.486508" lon="126.918239"><ele>177.7</ele></trkpt>
      <trkpt lat="35.486098" lon="126.918129"><ele>178.3</ele></trkpt>
      <trkpt lat="35.485726" lon="126.917859"><ele>181.1</ele></trkpt>
      <trkpt lat="35.485398" lon="126.917525"><ele>181.4</ele></trkpt>
      <trkpt lat="35.485309" lon="126.917394"><ele>182.2</ele></trkpt>
      <trkpt lat="35.485310" lon="126.917087"><ele>182.2</ele></trkpt>
      <trkpt lat="35.485126" lon="126.917026"><ele>186.6</ele></trkpt>
      <trkpt lat="35.485441" lon="126.916173"><ele>182.7</ele></trkpt>
      <trkpt lat="35.485438" lon="126.915943"><ele>183.9</ele></trkpt>
      <trkpt lat="35.485291" lon="126.915031"><ele>190.2</ele></trkpt>
      <trkpt lat="35.485291" lon="126.914591"><ele>196.8</ele></trkpt>
      <trkpt lat="35.485460" lon="126.914142"><ele>193.9</ele></trkpt>
      <trkpt lat="35.485460" lon="126.913993"><ele>196.4</ele></trkpt>
      <trkpt lat="35.485505" lon="126.913952"><ele>195.1</ele></trkpt>
      <trkpt lat="35.485575" lon="126.913588"><ele>196.5</ele></trkpt>
      <trkpt lat="35.485711" lon="126.913275"><ele>193.7</ele></trkpt>
      <trkpt lat="35.485711" lon="126.913121"><ele>194.4</ele></trkpt>
      <trkpt lat="35.485848" lon="126.912617"><ele>190.2</ele></trkpt>
      <trkpt lat="35.485827" lon="126.912515"><ele>190.5</ele></trkpt>
      <trkpt lat="35.485907" lon="126.912031"><ele>189.7</ele></trkpt>
      <trkpt lat="35.485871" lon="126.911679"><ele>198.5</ele></trkpt>
      <trkpt lat="35.486016" lon="126.911264"><ele>198.4</ele></trkpt>
      <trkpt lat="35.486278" lon="126.909709"><ele>195.3</ele></trkpt>
      <trkpt lat="35.486492" lon="126.909255"><ele>190.4</ele></trkpt>
      <trkpt lat="35.486818" lon="126.908934"><ele>191.5</ele></trkpt>
      <trkpt lat="35.486905" lon="126.908771"><ele>192.8</ele></trkpt>
      <trkpt lat="35.486894" lon="126.908529"><ele>194.6</ele></trkpt>
      <trkpt lat="35.487334" lon="126.907679"><ele>196.4</ele></trkpt>
      <trkpt lat="35.487644" lon="126.907231"><ele>196.9</ele></trkpt>
      <trkpt lat="35.487760" lon="126.907134"><ele>196.8</ele></trkpt>
      <trkpt lat="35.487795" lon="126.907014"><ele>197.6</ele></trkpt>
      <trkpt lat="35.487946" lon="126.906880"><ele>198.7</ele></trkpt>
      <trkpt lat="35.487926" lon="126.906689"><ele>199.0</ele></trkpt>
      <trkpt lat="35.488046" lon="126.906386"><ele>199.9</ele></trkpt>
      <trkpt lat="35.488002" lon="126.906204"><ele>200.0</ele></trkpt>
      <trkpt lat="35.488031" lon="126.905879"><ele>201.2</ele></trkpt>
      <trkpt lat="35.488195" lon="126.905769"><ele>202.6</ele></trkpt>
      <trkpt lat="35.488251" lon="126.905662"><ele>203.6</ele></trkpt>
      <trkpt lat="35.488171" lon="126.905324"><ele>210.0</ele></trkpt>
      <trkpt lat="35.488343" lon="126.905091"><ele>209.6</ele></trkpt>
      <trkpt lat="35.488574" lon="126.905011"><ele>207.5</ele></trkpt>
      <trkpt lat="35.488571" lon="126.904815"><ele>210.2</ele></trkpt>
      <trkpt lat="35.489064" lon="126.903992"><ele>214.2</ele></trkpt>
      <trkpt lat="35.489209" lon="126.904372"><ele>213.2</ele></trkpt>
      <trkpt lat="35.489314" lon="126.903891"><ele>215.6</ele></trkpt>
      <trkpt lat="35.489348" lon="126.903038"><ele>210.3</ele></trkpt>
      <trkpt lat="35.489195" lon="126.902772"><ele>210.9</ele></trkpt>
      <trkpt lat="35.489303" lon="126.902548"><ele>210.1</ele></trkpt>
      <trkpt lat="35.489305" lon="126.902310"><ele>210.7</ele></trkpt>
      <trkpt lat="35.489410" lon="126.902304"><ele>210.5</ele></trkpt>
      <trkpt lat="35.489473" lon="126.901921"><ele>213.3</ele></trkpt>
      <trkpt lat="35.489289" lon="126.901843"><ele>214.3</ele></trkpt>
      <trkpt lat="35.489213" lon="126.901532"><ele>218.7</ele></trkpt>
      <trkpt lat="35.488675" lon="126.901272"><ele>220.6</ele></trkpt>
      <trkpt lat="35.488400" lon="126.901347"><ele>231.5</ele></trkpt>
      <trkpt lat="35.488323" lon="126.901590"><ele>237.4</ele></trkpt>
      <trkpt lat="35.488078" lon="126.901728"><ele>256.5</ele></trkpt>
      <trkpt lat="35.487940" lon="126.901940"><ele>269.8</ele></trkpt>
      <trkpt lat="35.487500" lon="126.902346"><ele>311.3</ele></trkpt>
      <trkpt lat="35.487157" lon="126.902212"><ele>335.7</ele></trkpt>
      <trkpt lat="35.487107" lon="126.902267"><ele>340.3</ele></trkpt>
      <trkpt lat="35.487041" lon="126.902218"><ele>343.0</ele></trkpt>
      <trkpt lat="35.486970" lon="126.902490"><ele>355.9</ele></trkpt>
      <trkpt lat="35.486825" lon="126.902510"><ele>363.6</ele></trkpt>
      <trkpt lat="35.486775" lon="126.902580"><ele>368.8</ele></trkpt>
      <trkpt lat="35.486607" lon="126.902579"><ele>375.9</ele></trkpt>
      <trkpt lat="35.486572" lon="126.902696"><ele>381.2</ele></trkpt>
      <trkpt lat="35.486697" lon="126.903031"><ele>386.1</ele></trkpt>
      <trkpt lat="35.486678" lon="126.903237"><ele>386.8</ele></trkpt>
      <trkpt lat="35.486437" lon="126.903088"><ele>386.2</ele></trkpt>
      <trkpt lat="35.486174" lon="126.902614"><ele>388.8</ele></trkpt>
      <trkpt lat="35.486031" lon="126.902482"><ele>393.0</ele></trkpt>
      <trkpt lat="35.484929" lon="126.901835"><ele>425.0</ele></trkpt>
      <trkpt lat="35.484536" lon="126.901421"><ele>429.4</ele></trkpt>
      <trkpt lat="35.483833" lon="126.901401"><ele>443.9</ele></trkpt>
      <trkpt lat="35.483424" lon="126.900899"><ele>475.0</ele></trkpt>
      <trkpt lat="35.483320" lon="126.900708"><ele>486.5</ele></trkpt>
      <trkpt lat="35.483297" lon="126.900560"><ele>491.3</ele></trkpt>
      <trkpt lat="35.483010" lon="126.900369"><ele>506.4</ele></trkpt>
      <trkpt lat="35.482710" lon="126.900320"><ele>516.5</ele></trkpt>
      <trkpt lat="35.482405" lon="126.900111"><ele>528.2</ele></trkpt>
      <trkpt lat="35.482282" lon="126.899792"><ele>540.4</ele></trkpt>
      <trkpt lat="35.482077" lon="126.899740"><ele>553.1</ele></trkpt>
      <trkpt lat="35.481713" lon="126.899497"><ele>571.6</ele></trkpt>
      <trkpt lat="35.481385" lon="126.899133"><ele>589.6</ele></trkpt>
      <trkpt lat="35.480953" lon="126.899031"><ele>621.6</ele></trkpt>
      <trkpt lat="35.480859" lon="126.898933"><ele>631.8</ele></trkpt>
      <trkpt lat="35.480555" lon="126.898914"><ele>651.8</ele></trkpt>
      <trkpt lat="35.480452" lon="126.898574"><ele>649.7</ele></trkpt>
      <trkpt lat="35.480494" lon="126.898380"><ele>643.9</ele></trkpt>
      <trkpt lat="35.480735" lon="126.897837"><ele>630.8</ele></trkpt>
      <trkpt lat="35.480740" lon="126.897434"><ele>628.9</ele></trkpt>
      <trkpt lat="35.480879" lon="126.896777"><ele>634.8</ele></trkpt>
      <trkpt lat="35.480830" lon="126.896360"><ele>639.0</ele></trkpt>
      <trkpt lat="35.480603" lon="126.896074"><ele>639.2</ele></trkpt>
      <trkpt lat="35.480502" lon="126.895719"><ele>639.8</ele></trkpt>
      <trkpt lat="35.480714" lon="126.894819"><ele>649.3</ele></trkpt>
      <trkpt lat="35.480666" lon="126.894443"><ele>652.6</ele></trkpt>
      <trkpt lat="35.480795" lon="126.894148"><ele>652.9</ele></trkpt>
      <trkpt lat="35.480546" lon="126.893426"><ele>645.5</ele></trkpt>
      <trkpt lat="35.480310" lon="126.893128"><ele>636.2</ele></trkpt>
      <trkpt lat="35.480061" lon="126.892937"><ele>627.3</ele></trkpt>
      <trkpt lat="35.479967" lon="126.892595"><ele>624.7</ele></trkpt>
      <trkpt lat="35.479800" lon="126.892383"><ele>627.1</ele></trkpt>
      <trkpt lat="35.479801" lon="126.892130"><ele>633.5</ele></trkpt>
      <trkpt lat="35.479734" lon="126.891888"><ele>642.9</ele></trkpt>
      <trkpt lat="35.479572" lon="126.891683"><ele>649.6</ele></trkpt>
      <trkpt lat="35.479380" lon="126.891621"><ele>652.8</ele></trkpt>
      <trkpt lat="35.479207" lon="126.891312"><ele>668.4</ele></trkpt>
      <trkpt lat="35.479352" lon="126.891116"><ele>679.1</ele></trkpt>
      <trkpt lat="35.479236" lon="126.890962"><ele>686.3</ele></trkpt>
      <trkpt lat="35.479341" lon="126.890940"><ele>687.2</ele></trkpt>
      <trkpt lat="35.479456" lon="126.890804"><ele>693.2</ele></trkpt>
      <trkpt lat="35.479414" lon="126.890715"><ele>697.2</ele></trkpt>
      <trkpt lat="35.479460" lon="126.890674"><ele>698.6</ele></trkpt>
      <trkpt lat="35.479387" lon="126.890603"><ele>702.3</ele></trkpt>
      <trkpt lat="35.479409" lon="126.890316"><ele>705.9</ele></trkpt>
      <trkpt lat="35.478952" lon="126.890103"><ele>725.1</ele></trkpt>
      <trkpt lat="35.478789" lon="126.889923"><ele>735.3</ele></trkpt>
      <trkpt lat="35.478658" lon="126.889670"><ele>744.9</ele></trkpt>
      <trkpt lat="35.478351" lon="126.889421"><ele>748.6</ele></trkpt>
      <trkpt lat="35.478352" lon="126.888982"><ele>752.5</ele></trkpt>
      <trkpt lat="35.478536" lon="126.888730"><ele>745.1</ele></trkpt>
      <trkpt lat="35.478737" lon="126.888607"><ele>734.9</ele></trkpt>
      <trkpt lat="35.478781" lon="126.888512"><ele>731.9</ele></trkpt>
      <trkpt lat="35.478947" lon="126.888370"><ele>725.3</ele></trkpt>
      <trkpt lat="35.479120" lon="126.888354"><ele>719.5</ele></trkpt>
      <trkpt lat="35.479360" lon="126.887993"><ele>709.2</ele></trkpt>
      <trkpt lat="35.479646" lon="126.887818"><ele>699.0</ele></trkpt>
      <trkpt lat="35.479768" lon="126.887376"><ele>693.1</ele></trkpt>
      <trkpt lat="35.480035" lon="126.886748"><ele>684.8</ele></trkpt>
      <trkpt lat="35.479946" lon="126.886550"><ele>679.5</ele></trkpt>
      <trkpt lat="35.480030" lon="126.886329"><ele>675.7</ele></trkpt>
      <trkpt lat="35.480353" lon="126.885958"><ele>676.4</ele></trkpt>
      <trkpt lat="35.480674" lon="126.885473"><ele>674.9</ele></trkpt>
      <trkpt lat="35.481048" lon="126.885231"><ele>666.7</ele></trkpt>
      <trkpt lat="35.481609" lon="126.884688"><ele>652.2</ele></trkpt>
      <trkpt lat="35.481627" lon="126.884567"><ele>651.3</ele></trkpt>
      <trkpt lat="35.481968" lon="126.884111"><ele>641.9</ele></trkpt>
      <trkpt lat="35.482339" lon="126.883413"><ele>632.7</ele></trkpt>
      <trkpt lat="35.482858" lon="126.883092"><ele>630.8</ele></trkpt>
    </trkseg>
  </trk>
</gpx>
