<?xml version="1.0" encoding="UTF-8"?>
<gpx version="1.1" creator="kr-100-mountains route-harvester"
     xmlns="http://www.topografix.com/GPX/1/1"
     xmlns:k100="https://github.com/jay-jang/kr-100-mountains/ns/1"
     xmlns:xsi="http://www.w3.org/2001/XMLSchema-instance"
     xsi:schemaLocation="http://www.topografix.com/GPX/1/1 http://www.topografix.com/GPX/1/1/gpx.xsd">
  <metadata>
    <name>재약산 · 얼음골 케이블카-사자봉-재약산 코스 (대안 1) (OSM 계산 경로)</name>
    <desc>실제 GPS 기록이 아닙니다. OpenStreetMap에 등록된 등산로 선형 위에서 계산한 경로이며, 현장 통제·훼손·출입 제한·계절 통제를 반영하지 않을 수 있습니다. 산행 전 공식 안내를 확인하세요.</desc>
    <time>2026-08-04T05:40:37.822Z</time>
    <link href="https://www.openstreetmap.org/copyright"><text>© OpenStreetMap contributors (ODbL 1.0)</text></link>
    <link href="https://registry.opendata.aws/terrain-tiles/"><text>Elevation: SRTM 1 arc-second (NASA/USGS) via AWS Terrain Tiles</text></link>
    <extensions>
      <k100:provenance>osm-routed</k100:provenance>
      <k100:not_a_recorded_track>true</k100:not_a_recorded_track>
      <k100:mountain_id>jaeyaksan</k100:mountain_id>
      <k100:mountain_name>재약산</k100:mountain_name>
      <k100:route_id>jaeyaksan-dbf12447</k100:route_id>
      <k100:route_index>2</k100:route_index>
      <k100:route_name>얼음골 케이블카-사자봉-재약산 코스</k100:route_name>
      <k100:variant>1</k100:variant>
      <k100:source>OpenStreetMap via Overpass API</k100:source>
      <k100:license>ODbL-1.0</k100:license>
      <k100:attribution>© OpenStreetMap contributors</k100:attribution>
      <k100:elevation_source>SRTM 1 arc-second (NASA/USGS) — AWS Terrain Tiles 배포본. 지형 DEM 추정 고도이며 실측 아님</k100:elevation_source>
      <k100:algorithm>dijkstra-grid-v1</k100:algorithm>
      <k100:osm_snapshot>2026-08-04</k100:osm_snapshot>
      <k100:snap_trailhead_m>613</k100:snap_trailhead_m>
      <k100:snap_summit_m>45</k100:snap_summit_m>
      <k100:validation_score>79</k100:validation_score>
      <k100:validation_status>accepted</k100:validation_status>
    </extensions>
  </metadata>
  <trk>
    <name>재약산 · 얼음골 케이블카-사자봉-재약산 코스 (대안 1) (OSM 계산 경로)</name>
    <desc>실제 GPS 기록이 아닙니다. OpenStreetMap에 등록된 등산로 선형 위에서 계산한 경로이며, 현장 통제·훼손·출입 제한·계절 통제를 반영하지 않을 수 있습니다. 산행 전 공식 안내를 확인하세요.</desc>
    <trkseg>
      <trkpt lat="35.560988" lon="128.960535"><ele>1000.0</ele></trkpt>
      <trkpt lat="35.561119" lon="128.960990"><ele>1014.3</ele></trkpt>
      <trkpt lat="35.561074" lon="128.961213"><ele>1019.5</ele></trkpt>
      <trkpt lat="35.561129" lon="128.961430"><ele>1025.6</ele></trkpt>
      <trkpt lat="35.561239" lon="128.961543"><ele>1024.9</ele></trkpt>
      <trkpt lat="35.561149" lon="128.961753"><ele>1033.6</ele></trkpt>
      <trkpt lat="35.561154" lon="128.961846"><ele>1036.6</ele></trkpt>
      <trkpt lat="35.561082" lon="128.961899"><ele>1040.1</ele></trkpt>
      <trkpt lat="35.561048" lon="128.962072"><ele>1045.9</ele></trkpt>
      <trkpt lat="35.561106" lon="128.962141"><ele>1049.0</ele></trkpt>
      <trkpt lat="35.561017" lon="128.962224"><ele>1051.0</ele></trkpt>
      <trkpt lat="35.561009" lon="128.962409"><ele>1055.9</ele></trkpt>
      <trkpt lat="35.561114" lon="128.962519"><ele>1059.6</ele></trkpt>
      <trkpt lat="35.561043" lon="128.962745"><ele>1066.4</ele></trkpt>
      <trkpt lat="35.561109" lon="128.962912"><ele>1070.4</ele></trkpt>
      <trkpt lat="35.561129" lon="128.963300"><ele>1078.6</ele></trkpt>
      <trkpt lat="35.561038" lon="128.963421"><ele>1081.5</ele></trkpt>
      <trkpt lat="35.561011" lon="128.963604"><ele>1084.5</ele></trkpt>
      <trkpt lat="35.560746" lon="128.963941"><ele>1085.4</ele></trkpt>
      <trkpt lat="35.560827" lon="128.964226"><ele>1089.0</ele></trkpt>
      <trkpt lat="35.560968" lon="128.964419"><ele>1092.2</ele></trkpt>
      <trkpt lat="35.561026" lon="128.964766"><ele>1095.0</ele></trkpt>
      <trkpt lat="35.561134" lon="128.964884"><ele>1096.5</ele></trkpt>
      <trkpt lat="35.561180" lon="128.965046"><ele>1095.3</ele></trkpt>
      <trkpt lat="35.560959" lon="128.965303"><ele>1094.8</ele></trkpt>
      <trkpt lat="35.560874" lon="128.965578"><ele>1095.0</ele></trkpt>
      <trkpt lat="35.560645" lon="128.965727"><ele>1092.4</ele></trkpt>
      <trkpt lat="35.560623" lon="128.965791"><ele>1092.6</ele></trkpt>
      <trkpt lat="35.560771" lon="128.966601"><ele>1101.0</ele></trkpt>
      <trkpt lat="35.560746" lon="128.966713"><ele>1102.7</ele></trkpt>
      <trkpt lat="35.561013" lon="128.967407"><ele>1118.2</ele></trkpt>
      <trkpt lat="35.561013" lon="128.967661"><ele>1119.9</ele></trkpt>
      <trkpt lat="35.560931" lon="128.967982"><ele>1120.1</ele></trkpt>
      <trkpt lat="35.560833" lon="128.968179"><ele>1121.4</ele></trkpt>
      <trkpt lat="35.560811" lon="128.968621"><ele>1124.2</ele></trkpt>
      <trkpt lat="35.560634" lon="128.969660"><ele>1142.5</ele></trkpt>
      <trkpt lat="35.560612" lon="128.970023"><ele>1151.4</ele></trkpt>
      <trkpt lat="35.560624" lon="128.970801"><ele>1161.4</ele></trkpt>
      <trkpt lat="35.560824" lon="128.971337"><ele>1154.0</ele></trkpt>
      <trkpt lat="35.560970" lon="128.971493"><ele>1148.9</ele></trkpt>
      <trkpt lat="35.561047" lon="128.971726"><ele>1144.6</ele></trkpt>
      <trkpt lat="35.560485" lon="128.971623"><ele>1153.3</ele></trkpt>
      <trkpt lat="35.559760" lon="128.971662"><ele>1161.8</ele></trkpt>
      <trkpt lat="35.559259" lon="128.971769"><ele>1161.0</ele></trkpt>
      <trkpt lat="35.558816" lon="128.971982"><ele>1163.3</ele></trkpt>
      <trkpt lat="35.558395" lon="128.972014"><ele>1172.1</ele></trkpt>
      <trkpt lat="35.557955" lon="128.972248"><ele>1175.5</ele></trkpt>
      <trkpt lat="35.557989" lon="128.972544"><ele>1174.7</ele></trkpt>
      <trkpt lat="35.557939" lon="128.972728"><ele>1171.8</ele></trkpt>
      <trkpt lat="35.557994" lon="128.972835"><ele>1170.3</ele></trkpt>
      <trkpt lat="35.557940" lon="128.973188"><ele>1161.8</ele></trkpt>
      <trkpt lat="35.558068" lon="128.973394"><ele>1157.2</ele></trkpt>
      <trkpt lat="35.558021" lon="128.973578"><ele>1152.8</ele></trkpt>
      <trkpt lat="35.558047" lon="128.973825"><ele>1145.8</ele></trkpt>
      <trkpt lat="35.558116" lon="128.973885"><ele>1142.8</ele></trkpt>
      <trkpt lat="35.558144" lon="128.974000"><ele>1138.3</ele></trkpt>
      <trkpt lat="35.558399" lon="128.974219"><ele>1127.5</ele></trkpt>
      <trkpt lat="35.558783" lon="128.974841"><ele>1103.5</ele></trkpt>
      <trkpt lat="35.558985" lon="128.974999"><ele>1097.6</ele></trkpt>
      <trkpt lat="35.559104" lon="128.975265"><ele>1091.2</ele></trkpt>
      <trkpt lat="35.559244" lon="128.976021"><ele>1067.8</ele></trkpt>
      <trkpt lat="35.559244" lon="128.976220"><ele>1061.6</ele></trkpt>
      <trkpt lat="35.559157" lon="128.976555"><ele>1051.2</ele></trkpt>
      <trkpt lat="35.559218" lon="128.976901"><ele>1040.2</ele></trkpt>
      <trkpt lat="35.559563" lon="128.977810"><ele>1011.3</ele></trkpt>
      <trkpt lat="35.559550" lon="128.978607"><ele>989.1</ele></trkpt>
      <trkpt lat="35.559606" lon="128.978822"><ele>983.4</ele></trkpt>
      <trkpt lat="35.559532" lon="128.979031"><ele>977.6</ele></trkpt>
      <trkpt lat="35.559473" lon="128.979495"><ele>967.9</ele></trkpt>
      <trkpt lat="35.558052" lon="128.979262"><ele>972.2</ele></trkpt>
      <trkpt lat="35.557351" lon="128.978938"><ele>970.2</ele></trkpt>
      <trkpt lat="35.557043" lon="128.978739"><ele>970.4</ele></trkpt>
      <trkpt lat="35.556029" lon="128.978430"><ele>966.0</ele></trkpt>
      <trkpt lat="35.555578" lon="128.978451"><ele>963.6</ele></trkpt>
      <trkpt lat="35.555009" lon="128.978366"><ele>963.2</ele></trkpt>
      <trkpt lat="35.554556" lon="128.978427"><ele>959.6</ele></trkpt>
      <trkpt lat="35.554439" lon="128.978400"><ele>960.0</ele></trkpt>
      <trkpt lat="35.554018" lon="128.978138"><ele>962.5</ele></trkpt>
      <trkpt lat="35.553742" lon="128.978122"><ele>958.6</ele></trkpt>
      <trkpt lat="35.553410" lon="128.977978"><ele>959.6</ele></trkpt>
      <trkpt lat="35.553193" lon="128.977955"><ele>959.5</ele></trkpt>
      <trkpt lat="35.552727" lon="128.977596"><ele>963.8</ele></trkpt>
      <trkpt lat="35.552592" lon="128.977617"><ele>963.1</ele></trkpt>
      <trkpt lat="35.552627" lon="128.978531"><ele>953.3</ele></trkpt>
      <trkpt lat="35.552497" lon="128.978903"><ele>954.9</ele></trkpt>
      <trkpt lat="35.552462" lon="128.979629"><ele>950.2</ele></trkpt>
      <trkpt lat="35.552156" lon="128.980610"><ele>948.6</ele></trkpt>
      <trkpt lat="35.552080" lon="128.981091"><ele>945.7</ele></trkpt>
      <trkpt lat="35.552279" lon="128.981694"><ele>940.3</ele></trkpt>
      <trkpt lat="35.552316" lon="128.982319"><ele>937.4</ele></trkpt>
      <trkpt lat="35.552227" lon="128.982967"><ele>935.6</ele></trkpt>
      <trkpt lat="35.552276" lon="128.983707"><ele>929.2</ele></trkpt>
      <trkpt lat="35.552400" lon="128.983809"><ele>927.0</ele></trkpt>
      <trkpt lat="35.552449" lon="128.983991"><ele>926.4</ele></trkpt>
      <trkpt lat="35.552417" lon="128.984364"><ele>926.4</ele></trkpt>
      <trkpt lat="35.552451" lon="128.984688"><ele>924.6</ele></trkpt>
      <trkpt lat="35.552351" lon="128.984984"><ele>922.2</ele></trkpt>
      <trkpt lat="35.552325" lon="128.985227"><ele>920.9</ele></trkpt>
      <trkpt lat="35.552354" lon="128.985490"><ele>919.8</ele></trkpt>
      <trkpt lat="35.552156" lon="128.985733"><ele>918.2</ele></trkpt>
      <trkpt lat="35.551940" lon="128.985294"><ele>921.0</ele></trkpt>
      <trkpt lat="35.551837" lon="128.984941"><ele>924.6</ele></trkpt>
      <trkpt lat="35.551773" lon="128.984937"><ele>925.3</ele></trkpt>
      <trkpt lat="35.551680" lon="128.984806"><ele>927.3</ele></trkpt>
      <trkpt lat="35.551371" lon="128.984618"><ele>934.3</ele></trkpt>
      <trkpt lat="35.551181" lon="128.984612"><ele>936.4</ele></trkpt>
      <trkpt lat="35.551070" lon="128.984416"><ele>940.1</ele></trkpt>
      <trkpt lat="35.550797" lon="128.984175"><ele>948.6</ele></trkpt>
      <trkpt lat="35.550627" lon="128.983947"><ele>954.2</ele></trkpt>
      <trkpt lat="35.550500" lon="128.983894"><ele>956.8</ele></trkpt>
      <trkpt lat="35.550331" lon="128.983663"><ele>962.2</ele></trkpt>
      <trkpt lat="35.550120" lon="128.983655"><ele>965.6</ele></trkpt>
      <trkpt lat="35.549894" lon="128.983432"><ele>973.8</ele></trkpt>
      <trkpt lat="35.549673" lon="128.983389"><ele>978.5</ele></trkpt>
      <trkpt lat="35.549556" lon="128.983278"><ele>982.7</ele></trkpt>
      <trkpt lat="35.549377" lon="128.982974"><ele>992.5</ele></trkpt>
      <trkpt lat="35.549056" lon="128.982963"><ele>999.7</ele></trkpt>
      <trkpt lat="35.548768" lon="128.982869"><ele>1009.4</ele></trkpt>
      <trkpt lat="35.548680" lon="128.982743"><ele>1015.1</ele></trkpt>
      <trkpt lat="35.548330" lon="128.982534"><ele>1028.2</ele></trkpt>
      <trkpt lat="35.548141" lon="128.982238"><ele>1037.1</ele></trkpt>
      <trkpt lat="35.547910" lon="128.982077"><ele>1046.4</ele></trkpt>
      <trkpt lat="35.547771" lon="128.982045"><ele>1051.3</ele></trkpt>
      <trkpt lat="35.547705" lon="128.981879"><ele>1057.5</ele></trkpt>
      <trkpt lat="35.547029" lon="128.981537"><ele>1077.9</ele></trkpt>
      <trkpt lat="35.546833" lon="128.981223"><ele>1088.1</ele></trkpt>
      <trkpt lat="35.546618" lon="128.981280"><ele>1088.5</ele></trkpt>
      <trkpt lat="35.546514" lon="128.981019"><ele>1092.5</ele></trkpt>
    </trkseg>
  </trk>
</gpx>
