<?xml version="1.0" encoding="UTF-8"?>
<gpx version="1.1" creator="kr-100-mountains route-harvester"
     xmlns="http://www.topografix.com/GPX/1/1"
     xmlns:k100="https://github.com/jay-jang/kr-100-mountains/ns/1"
     xmlns:xsi="http://www.w3.org/2001/XMLSchema-instance"
     xsi:schemaLocation="http://www.topografix.com/GPX/1/1 http://www.topografix.com/GPX/1/1/gpx.xsd">
  <metadata>
    <name>재약산 · 얼음골 케이블카-사자봉-재약산 코스 (OSM 계산 경로)</name>
    <desc>실제 GPS 기록이 아닙니다. OpenStreetMap에 등록된 등산로 선형 위에서 계산한 경로이며, 현장 통제·훼손·출입 제한·계절 통제를 반영하지 않을 수 있습니다. 산행 전 공식 안내를 확인하세요.</desc>
    <time>2026-08-04T05:40:37.822Z</time>
    <link href="https://www.openstreetmap.org/copyright"><text>© OpenStreetMap contributors (ODbL 1.0)</text></link>
    <link href="https://registry.opendata.aws/terrain-tiles/"><text>Elevation: SRTM 1 arc-second (NASA/USGS) via AWS Terrain Tiles</text></link>
    <extensions>
      <k100:provenance>osm-routed</k100:provenance>
      <k100:not_a_recorded_track>true</k100:not_a_recorded_track>
      <k100:mountain_id>jaeyaksan</k100:mountain_id>
      <k100:mountain_name>재약산</k100:mountain_name>
      <k100:route_id>jaeyaksan-dbf12447</k100:route_id>
      <k100:route_index>2</k100:route_index>
      <k100:route_name>얼음골 케이블카-사자봉-재약산 코스</k100:route_name>
      <k100:variant>0</k100:variant>
      <k100:source>OpenStreetMap via Overpass API</k100:source>
      <k100:license>ODbL-1.0</k100:license>
      <k100:attribution>© OpenStreetMap contributors</k100:attribution>
      <k100:elevation_source>SRTM 1 arc-second (NASA/USGS) — AWS Terrain Tiles 배포본. 지형 DEM 추정 고도이며 실측 아님</k100:elevation_source>
      <k100:algorithm>dijkstra-grid-v1</k100:algorithm>
      <k100:osm_snapshot>2026-08-04</k100:osm_snapshot>
      <k100:snap_trailhead_m>613</k100:snap_trailhead_m>
      <k100:snap_summit_m>45</k100:snap_summit_m>
      <k100:validation_score>79</k100:validation_score>
      <k100:validation_status>accepted</k100:validation_status>
    </extensions>
  </metadata>
  <trk>
    <name>재약산 · 얼음골 케이블카-사자봉-재약산 코스 (OSM 계산 경로)</name>
    <desc>실제 GPS 기록이 아닙니다. OpenStreetMap에 등록된 등산로 선형 위에서 계산한 경로이며, 현장 통제·훼손·출입 제한·계절 통제를 반영하지 않을 수 있습니다. 산행 전 공식 안내를 확인하세요.</desc>
    <trkseg>
      <trkpt lat="35.560988" lon="128.960535"><ele>1000.0</ele></trkpt>
      <trkpt lat="35.561119" lon="128.960990"><ele>1014.3</ele></trkpt>
      <trkpt lat="35.561074" lon="128.961213"><ele>1019.5</ele></trkpt>
      <trkpt lat="35.561129" lon="128.961430"><ele>1025.6</ele></trkpt>
      <trkpt lat="35.561239" lon="128.961543"><ele>1024.9</ele></trkpt>
      <trkpt lat="35.561149" lon="128.961753"><ele>1033.6</ele></trkpt>
      <trkpt lat="35.561154" lon="128.961846"><ele>1036.6</ele></trkpt>
      <trkpt lat="35.561082" lon="128.961899"><ele>1040.1</ele></trkpt>
      <trkpt lat="35.561048" lon="128.962072"><ele>1045.9</ele></trkpt>
      <trkpt lat="35.561106" lon="128.962141"><ele>1049.0</ele></trkpt>
      <trkpt lat="35.561017" lon="128.962224"><ele>1051.0</ele></trkpt>
      <trkpt lat="35.561009" lon="128.962409"><ele>1055.9</ele></trkpt>
      <trkpt lat="35.561114" lon="128.962519"><ele>1059.6</ele></trkpt>
      <trkpt lat="35.561043" lon="128.962745"><ele>1066.4</ele></trkpt>
      <trkpt lat="35.561109" lon="128.962912"><ele>1070.4</ele></trkpt>
      <trkpt lat="35.561129" lon="128.963300"><ele>1078.6</ele></trkpt>
      <trkpt lat="35.561038" lon="128.963421"><ele>1081.5</ele></trkpt>
      <trkpt lat="35.561011" lon="128.963604"><ele>1084.5</ele></trkpt>
      <trkpt lat="35.560746" lon="128.963941"><ele>1085.4</ele></trkpt>
      <trkpt lat="35.560827" lon="128.964226"><ele>1089.0</ele></trkpt>
      <trkpt lat="35.560968" lon="128.964419"><ele>1092.2</ele></trkpt>
      <trkpt lat="35.561026" lon="128.964766"><ele>1095.0</ele></trkpt>
      <trkpt lat="35.561134" lon="128.964884"><ele>1096.5</ele></trkpt>
      <trkpt lat="35.561180" lon="128.965046"><ele>1095.3</ele></trkpt>
      <trkpt lat="35.560959" lon="128.965303"><ele>1094.8</ele></trkpt>
      <trkpt lat="35.560874" lon="128.965578"><ele>1095.0</ele></trkpt>
      <trkpt lat="35.560645" lon="128.965727"><ele>1092.4</ele></trkpt>
      <trkpt lat="35.560623" lon="128.965791"><ele>1092.6</ele></trkpt>
      <trkpt lat="35.560771" lon="128.966601"><ele>1101.0</ele></trkpt>
      <trkpt lat="35.560746" lon="128.966713"><ele>1102.7</ele></trkpt>
      <trkpt lat="35.561013" lon="128.967407"><ele>1118.2</ele></trkpt>
      <trkpt lat="35.561013" lon="128.967661"><ele>1119.9</ele></trkpt>
      <trkpt lat="35.560931" lon="128.967982"><ele>1120.1</ele></trkpt>
      <trkpt lat="35.560833" lon="128.968179"><ele>1121.4</ele></trkpt>
      <trkpt lat="35.560724" lon="128.969286"><ele>1134.8</ele></trkpt>
      <trkpt lat="35.560634" lon="128.969660"><ele>1142.5</ele></trkpt>
      <trkpt lat="35.560624" lon="128.970801"><ele>1161.4</ele></trkpt>
      <trkpt lat="35.560168" lon="128.971144"><ele>1164.7</ele></trkpt>
      <trkpt lat="35.559494" lon="128.971485"><ele>1162.7</ele></trkpt>
      <trkpt lat="35.559259" lon="128.971769"><ele>1161.0</ele></trkpt>
      <trkpt lat="35.558935" lon="128.971950"><ele>1161.7</ele></trkpt>
      <trkpt lat="35.558489" lon="128.971985"><ele>1169.9</ele></trkpt>
      <trkpt lat="35.557955" lon="128.972248"><ele>1175.5</ele></trkpt>
      <trkpt lat="35.556994" lon="128.972359"><ele>1154.0</ele></trkpt>
      <trkpt lat="35.556945" lon="128.972442"><ele>1151.6</ele></trkpt>
      <trkpt lat="35.556568" lon="128.972534"><ele>1141.6</ele></trkpt>
      <trkpt lat="35.556302" lon="128.972471"><ele>1137.2</ele></trkpt>
      <trkpt lat="35.556112" lon="128.972529"><ele>1129.2</ele></trkpt>
      <trkpt lat="35.555924" lon="128.972498"><ele>1119.2</ele></trkpt>
      <trkpt lat="35.555788" lon="128.972722"><ele>1108.0</ele></trkpt>
      <trkpt lat="35.555677" lon="128.973039"><ele>1100.5</ele></trkpt>
      <trkpt lat="35.555367" lon="128.973270"><ele>1084.5</ele></trkpt>
      <trkpt lat="35.554745" lon="128.973463"><ele>1061.0</ele></trkpt>
      <trkpt lat="35.554686" lon="128.973559"><ele>1060.2</ele></trkpt>
      <trkpt lat="35.554370" lon="128.973493"><ele>1053.7</ele></trkpt>
      <trkpt lat="35.554097" lon="128.973587"><ele>1047.4</ele></trkpt>
      <trkpt lat="35.553892" lon="128.973598"><ele>1043.0</ele></trkpt>
      <trkpt lat="35.553680" lon="128.973798"><ele>1039.0</ele></trkpt>
      <trkpt lat="35.553148" lon="128.973954"><ele>1025.6</ele></trkpt>
      <trkpt lat="35.552492" lon="128.974727"><ele>1003.8</ele></trkpt>
      <trkpt lat="35.552463" lon="128.975039"><ele>999.2</ele></trkpt>
      <trkpt lat="35.552397" lon="128.975127"><ele>997.3</ele></trkpt>
      <trkpt lat="35.552346" lon="128.975182"><ele>996.0</ele></trkpt>
      <trkpt lat="35.552138" lon="128.975224"><ele>991.5</ele></trkpt>
      <trkpt lat="35.552054" lon="128.975421"><ele>985.7</ele></trkpt>
      <trkpt lat="35.551888" lon="128.975525"><ele>980.4</ele></trkpt>
      <trkpt lat="35.551783" lon="128.975703"><ele>976.4</ele></trkpt>
      <trkpt lat="35.551783" lon="128.975966"><ele>973.5</ele></trkpt>
      <trkpt lat="35.551529" lon="128.976534"><ele>968.3</ele></trkpt>
      <trkpt lat="35.551337" lon="128.977298"><ele>969.0</ele></trkpt>
      <trkpt lat="35.551435" lon="128.977459"><ele>968.8</ele></trkpt>
      <trkpt lat="35.551441" lon="128.977553"><ele>968.6</ele></trkpt>
      <trkpt lat="35.551289" lon="128.977696"><ele>968.5</ele></trkpt>
      <trkpt lat="35.550808" lon="128.978416"><ele>980.0</ele></trkpt>
      <trkpt lat="35.550597" lon="128.978578"><ele>987.0</ele></trkpt>
      <trkpt lat="35.549995" lon="128.978887"><ele>1005.2</ele></trkpt>
      <trkpt lat="35.549657" lon="128.978967"><ele>1017.0</ele></trkpt>
      <trkpt lat="35.549494" lon="128.978929"><ele>1016.5</ele></trkpt>
      <trkpt lat="35.549312" lon="128.979357"><ele>1018.6</ele></trkpt>
      <trkpt lat="35.549034" lon="128.979800"><ele>1019.6</ele></trkpt>
      <trkpt lat="35.548846" lon="128.979948"><ele>1025.8</ele></trkpt>
      <trkpt lat="35.548834" lon="128.980105"><ele>1029.2</ele></trkpt>
      <trkpt lat="35.548712" lon="128.980269"><ele>1036.8</ele></trkpt>
      <trkpt lat="35.548631" lon="128.980314"><ele>1040.7</ele></trkpt>
      <trkpt lat="35.548347" lon="128.980141"><ele>1050.8</ele></trkpt>
      <trkpt lat="35.547991" lon="128.980401"><ele>1068.4</ele></trkpt>
      <trkpt lat="35.547787" lon="128.980333"><ele>1074.5</ele></trkpt>
      <trkpt lat="35.547714" lon="128.980373"><ele>1075.1</ele></trkpt>
      <trkpt lat="35.547645" lon="128.980614"><ele>1075.8</ele></trkpt>
      <trkpt lat="35.547298" lon="128.980653"><ele>1079.0</ele></trkpt>
      <trkpt lat="35.547260" lon="128.980810"><ele>1081.2</ele></trkpt>
      <trkpt lat="35.547050" lon="128.981101"><ele>1086.9</ele></trkpt>
      <trkpt lat="35.546833" lon="128.981223"><ele>1088.1</ele></trkpt>
      <trkpt lat="35.546514" lon="128.981019"><ele>1092.5</ele></trkpt>
    </trkseg>
  </trk>
</gpx>
