<?xml version="1.0" encoding="UTF-8"?>
<gpx version="1.1" creator="kr-100-mountains route-harvester"
     xmlns="http://www.topografix.com/GPX/1/1"
     xmlns:k100="https://github.com/jay-jang/kr-100-mountains/ns/1"
     xmlns:xsi="http://www.w3.org/2001/XMLSchema-instance"
     xsi:schemaLocation="http://www.topografix.com/GPX/1/1 http://www.topografix.com/GPX/1/1/gpx.xsd">
  <metadata>
    <name>재약산 · 배내고개-재약산 종주 (대안 2) (OSM 계산 경로)</name>
    <desc>실제 GPS 기록이 아닙니다. OpenStreetMap에 등록된 등산로 선형 위에서 계산한 경로이며, 현장 통제·훼손·출입 제한·계절 통제를 반영하지 않을 수 있습니다. 산행 전 공식 안내를 확인하세요.</desc>
    <time>2026-08-04T05:40:37.970Z</time>
    <link href="https://www.openstreetmap.org/copyright"><text>© OpenStreetMap contributors (ODbL 1.0)</text></link>
    <link href="https://registry.opendata.aws/terrain-tiles/"><text>Elevation: SRTM 1 arc-second (NASA/USGS) via AWS Terrain Tiles</text></link>
    <extensions>
      <k100:provenance>osm-routed</k100:provenance>
      <k100:not_a_recorded_track>true</k100:not_a_recorded_track>
      <k100:mountain_id>jaeyaksan</k100:mountain_id>
      <k100:mountain_name>재약산</k100:mountain_name>
      <k100:route_id>jaeyaksan-7724bb9d</k100:route_id>
      <k100:route_index>3</k100:route_index>
      <k100:route_name>배내고개-재약산 종주</k100:route_name>
      <k100:variant>2</k100:variant>
      <k100:source>OpenStreetMap via Overpass API</k100:source>
      <k100:license>ODbL-1.0</k100:license>
      <k100:attribution>© OpenStreetMap contributors</k100:attribution>
      <k100:elevation_source>SRTM 1 arc-second (NASA/USGS) — AWS Terrain Tiles 배포본. 지형 DEM 추정 고도이며 실측 아님</k100:elevation_source>
      <k100:algorithm>dijkstra-grid-v1</k100:algorithm>
      <k100:osm_snapshot>2026-08-04</k100:osm_snapshot>
      <k100:snap_trailhead_m>10</k100:snap_trailhead_m>
      <k100:snap_summit_m>45</k100:snap_summit_m>
      <k100:validation_score>100</k100:validation_score>
      <k100:validation_status>accepted</k100:validation_status>
    </extensions>
  </metadata>
  <trk>
    <name>재약산 · 배내고개-재약산 종주 (대안 2) (OSM 계산 경로)</name>
    <desc>실제 GPS 기록이 아닙니다. OpenStreetMap에 등록된 등산로 선형 위에서 계산한 경로이며, 현장 통제·훼손·출입 제한·계절 통제를 반영하지 않을 수 있습니다. 산행 전 공식 안내를 확인하세요.</desc>
    <trkseg>
      <trkpt lat="35.560174" lon="129.043264"><ele>869.5</ele></trkpt>
      <trkpt lat="35.559495" lon="129.043097"><ele>849.7</ele></trkpt>
      <trkpt lat="35.559022" lon="129.042837"><ele>843.5</ele></trkpt>
      <trkpt lat="35.558425" lon="129.042830"><ele>842.6</ele></trkpt>
      <trkpt lat="35.558156" lon="129.042737"><ele>844.2</ele></trkpt>
      <trkpt lat="35.557261" lon="129.042703"><ele>851.1</ele></trkpt>
      <trkpt lat="35.556932" lon="129.042565"><ele>859.4</ele></trkpt>
      <trkpt lat="35.556666" lon="129.042323"><ele>868.5</ele></trkpt>
      <trkpt lat="35.556291" lon="129.042183"><ele>881.1</ele></trkpt>
      <trkpt lat="35.556091" lon="129.041955"><ele>889.7</ele></trkpt>
      <trkpt lat="35.555762" lon="129.041735"><ele>903.3</ele></trkpt>
      <trkpt lat="35.555541" lon="129.041899"><ele>909.6</ele></trkpt>
      <trkpt lat="35.555021" lon="129.041721"><ele>922.1</ele></trkpt>
      <trkpt lat="35.554545" lon="129.041055"><ele>948.2</ele></trkpt>
      <trkpt lat="35.554381" lon="129.040644"><ele>961.3</ele></trkpt>
      <trkpt lat="35.554341" lon="129.040303"><ele>973.8</ele></trkpt>
      <trkpt lat="35.554264" lon="129.040123"><ele>979.0</ele></trkpt>
      <trkpt lat="35.554131" lon="129.040005"><ele>983.7</ele></trkpt>
      <trkpt lat="35.553975" lon="129.039964"><ele>986.5</ele></trkpt>
      <trkpt lat="35.553241" lon="129.040149"><ele>1004.4</ele></trkpt>
      <trkpt lat="35.552882" lon="129.040070"><ele>1016.9</ele></trkpt>
      <trkpt lat="35.552572" lon="129.040225"><ele>1029.9</ele></trkpt>
      <trkpt lat="35.552438" lon="129.040144"><ele>1035.3</ele></trkpt>
      <trkpt lat="35.552093" lon="129.040220"><ele>1046.6</ele></trkpt>
      <trkpt lat="35.552130" lon="129.039953"><ele>1047.3</ele></trkpt>
      <trkpt lat="35.551947" lon="129.039471"><ele>1037.7</ele></trkpt>
      <trkpt lat="35.551912" lon="129.038717"><ele>1025.3</ele></trkpt>
      <trkpt lat="35.551860" lon="129.038540"><ele>1022.2</ele></trkpt>
      <trkpt lat="35.551901" lon="129.038440"><ele>1020.2</ele></trkpt>
      <trkpt lat="35.551912" lon="129.038146"><ele>1016.9</ele></trkpt>
      <trkpt lat="35.551773" lon="129.037307"><ele>1009.7</ele></trkpt>
      <trkpt lat="35.551834" lon="129.037120"><ele>1009.1</ele></trkpt>
      <trkpt lat="35.551738" lon="129.036943"><ele>1008.2</ele></trkpt>
      <trkpt lat="35.551747" lon="129.036862"><ele>1005.1</ele></trkpt>
      <trkpt lat="35.551996" lon="129.036552"><ele>989.6</ele></trkpt>
      <trkpt lat="35.552004" lon="129.036407"><ele>983.1</ele></trkpt>
      <trkpt lat="35.552158" lon="129.036344"><ele>976.0</ele></trkpt>
      <trkpt lat="35.552225" lon="129.036006"><ele>961.2</ele></trkpt>
      <trkpt lat="35.552343" lon="129.035786"><ele>951.6</ele></trkpt>
      <trkpt lat="35.552489" lon="129.034933"><ele>915.0</ele></trkpt>
      <trkpt lat="35.552620" lon="129.034447"><ele>900.0</ele></trkpt>
      <trkpt lat="35.552623" lon="129.033917"><ele>895.4</ele></trkpt>
      <trkpt lat="35.552518" lon="129.033220"><ele>884.9</ele></trkpt>
      <trkpt lat="35.552461" lon="129.033173"><ele>883.7</ele></trkpt>
      <trkpt lat="35.552427" lon="129.033013"><ele>881.1</ele></trkpt>
      <trkpt lat="35.552200" lon="129.031273"><ele>892.0</ele></trkpt>
      <trkpt lat="35.552187" lon="129.030710"><ele>898.6</ele></trkpt>
      <trkpt lat="35.552082" lon="129.030173"><ele>910.4</ele></trkpt>
      <trkpt lat="35.552096" lon="129.029487"><ele>930.3</ele></trkpt>
      <trkpt lat="35.552161" lon="129.029138"><ele>944.1</ele></trkpt>
      <trkpt lat="35.552148" lon="129.028950"><ele>948.0</ele></trkpt>
      <trkpt lat="35.552196" lon="129.028838"><ele>950.0</ele></trkpt>
      <trkpt lat="35.552096" lon="129.027657"><ele>945.4</ele></trkpt>
      <trkpt lat="35.551668" lon="129.027019"><ele>917.6</ele></trkpt>
      <trkpt lat="35.551546" lon="129.026622"><ele>901.5</ele></trkpt>
      <trkpt lat="35.551423" lon="129.026434"><ele>888.6</ele></trkpt>
      <trkpt lat="35.551166" lon="129.025769"><ele>862.1</ele></trkpt>
      <trkpt lat="35.550991" lon="129.025512"><ele>849.7</ele></trkpt>
      <trkpt lat="35.550638" lon="129.025190"><ele>825.4</ele></trkpt>
      <trkpt lat="35.550577" lon="129.024581"><ele>810.7</ele></trkpt>
      <trkpt lat="35.550505" lon="129.024474"><ele>808.5</ele></trkpt>
      <trkpt lat="35.550119" lon="129.024192"><ele>805.3</ele></trkpt>
      <trkpt lat="35.549612" lon="129.024122"><ele>804.2</ele></trkpt>
      <trkpt lat="35.549261" lon="129.023889"><ele>794.0</ele></trkpt>
      <trkpt lat="35.549088" lon="129.023693"><ele>787.2</ele></trkpt>
      <trkpt lat="35.548462" lon="129.023212"><ele>760.5</ele></trkpt>
      <trkpt lat="35.547857" lon="129.022504"><ele>733.1</ele></trkpt>
      <trkpt lat="35.547338" lon="129.022105"><ele>721.6</ele></trkpt>
      <trkpt lat="35.547151" lon="129.021859"><ele>719.7</ele></trkpt>
      <trkpt lat="35.546985" lon="129.021510"><ele>713.2</ele></trkpt>
      <trkpt lat="35.546374" lon="129.021386"><ele>701.5</ele></trkpt>
      <trkpt lat="35.546120" lon="129.021285"><ele>693.5</ele></trkpt>
      <trkpt lat="35.544702" lon="129.020386"><ele>675.6</ele></trkpt>
      <trkpt lat="35.544425" lon="129.020460"><ele>667.1</ele></trkpt>
      <trkpt lat="35.544209" lon="129.020691"><ele>657.5</ele></trkpt>
      <trkpt lat="35.543988" lon="129.020831"><ele>648.2</ele></trkpt>
      <trkpt lat="35.543781" lon="129.020853"><ele>641.1</ele></trkpt>
      <trkpt lat="35.543694" lon="129.020791"><ele>638.7</ele></trkpt>
      <trkpt lat="35.543071" lon="129.020736"><ele>616.8</ele></trkpt>
      <trkpt lat="35.543502" lon="129.020688"><ele>631.3</ele></trkpt>
      <trkpt lat="35.543600" lon="129.020622"><ele>634.8</ele></trkpt>
      <trkpt lat="35.543757" lon="129.020198"><ele>639.0</ele></trkpt>
      <trkpt lat="35.543847" lon="129.019133"><ele>616.9</ele></trkpt>
      <trkpt lat="35.543942" lon="129.019029"><ele>615.6</ele></trkpt>
      <trkpt lat="35.544116" lon="129.019019"><ele>620.2</ele></trkpt>
      <trkpt lat="35.544368" lon="129.018801"><ele>617.4</ele></trkpt>
      <trkpt lat="35.544479" lon="129.018567"><ele>607.6</ele></trkpt>
      <trkpt lat="35.544497" lon="129.018368"><ele>598.2</ele></trkpt>
      <trkpt lat="35.544646" lon="129.018335"><ele>595.6</ele></trkpt>
      <trkpt lat="35.544887" lon="129.018669"><ele>601.6</ele></trkpt>
      <trkpt lat="35.545549" lon="129.018887"><ele>578.1</ele></trkpt>
      <trkpt lat="35.545767" lon="129.019027"><ele>577.5</ele></trkpt>
      <trkpt lat="35.546239" lon="129.018889"><ele>568.9</ele></trkpt>
      <trkpt lat="35.546452" lon="129.018494"><ele>552.6</ele></trkpt>
      <trkpt lat="35.547266" lon="129.017892"><ele>530.8</ele></trkpt>
      <trkpt lat="35.548117" lon="129.017908"><ele>515.7</ele></trkpt>
      <trkpt lat="35.548271" lon="129.017968"><ele>514.9</ele></trkpt>
      <trkpt lat="35.548336" lon="129.018105"><ele>517.3</ele></trkpt>
      <trkpt lat="35.548404" lon="129.018121"><ele>515.8</ele></trkpt>
      <trkpt lat="35.548448" lon="129.018049"><ele>512.1</ele></trkpt>
      <trkpt lat="35.547891" lon="129.017221"><ele>492.5</ele></trkpt>
      <trkpt lat="35.547719" lon="129.017031"><ele>485.3</ele></trkpt>
      <trkpt lat="35.547593" lon="129.016977"><ele>483.7</ele></trkpt>
      <trkpt lat="35.546880" lon="129.016958"><ele>475.4</ele></trkpt>
      <trkpt lat="35.546717" lon="129.016463"><ele>455.4</ele></trkpt>
      <trkpt lat="35.546377" lon="129.016439"><ele>458.2</ele></trkpt>
      <trkpt lat="35.546278" lon="129.016212"><ele>451.1</ele></trkpt>
      <trkpt lat="35.546136" lon="129.015523"><ele>441.5</ele></trkpt>
      <trkpt lat="35.546196" lon="129.015361"><ele>436.7</ele></trkpt>
      <trkpt lat="35.546348" lon="129.015674"><ele>436.4</ele></trkpt>
      <trkpt lat="35.546656" lon="129.015898"><ele>435.0</ele></trkpt>
      <trkpt lat="35.546869" lon="129.015819"><ele>428.9</ele></trkpt>
      <trkpt lat="35.547131" lon="129.015863"><ele>428.8</ele></trkpt>
      <trkpt lat="35.547403" lon="129.015665"><ele>423.3</ele></trkpt>
      <trkpt lat="35.547505" lon="129.015679"><ele>425.1</ele></trkpt>
      <trkpt lat="35.547724" lon="129.015845"><ele>434.4</ele></trkpt>
      <trkpt lat="35.547871" lon="129.015826"><ele>434.7</ele></trkpt>
      <trkpt lat="35.547924" lon="129.015387"><ele>419.8</ele></trkpt>
      <trkpt lat="35.547990" lon="129.015282"><ele>416.7</ele></trkpt>
      <trkpt lat="35.548090" lon="129.015242"><ele>415.4</ele></trkpt>
      <trkpt lat="35.548288" lon="129.015354"><ele>418.4</ele></trkpt>
      <trkpt lat="35.548432" lon="129.015364"><ele>416.7</ele></trkpt>
      <trkpt lat="35.549169" lon="129.015259"><ele>395.2</ele></trkpt>
      <trkpt lat="35.549563" lon="129.015401"><ele>393.3</ele></trkpt>
      <trkpt lat="35.549881" lon="129.015068"><ele>384.6</ele></trkpt>
      <trkpt lat="35.550401" lon="129.014993"><ele>381.0</ele></trkpt>
      <trkpt lat="35.550577" lon="129.014921"><ele>378.0</ele></trkpt>
      <trkpt lat="35.550632" lon="129.014768"><ele>374.3</ele></trkpt>
      <trkpt lat="35.549487" lon="129.014331"><ele>367.8</ele></trkpt>
      <trkpt lat="35.547524" lon="129.013458"><ele>357.0</ele></trkpt>
      <trkpt lat="35.546523" lon="129.012730"><ele>345.3</ele></trkpt>
      <trkpt lat="35.546724" lon="129.012287"><ele>341.1</ele></trkpt>
      <trkpt lat="35.546736" lon="129.012207"><ele>341.1</ele></trkpt>
      <trkpt lat="35.546655" lon="129.012061"><ele>340.6</ele></trkpt>
      <trkpt lat="35.546771" lon="129.011945"><ele>343.2</ele></trkpt>
      <trkpt lat="35.546708" lon="129.011789"><ele>342.6</ele></trkpt>
      <trkpt lat="35.547029" lon="129.011153"><ele>348.2</ele></trkpt>
      <trkpt lat="35.547140" lon="129.010746"><ele>349.1</ele></trkpt>
      <trkpt lat="35.546846" lon="129.010321"><ele>353.7</ele></trkpt>
      <trkpt lat="35.547055" lon="129.010156"><ele>352.0</ele></trkpt>
      <trkpt lat="35.547080" lon="129.009851"><ele>354.9</ele></trkpt>
      <trkpt lat="35.546904" lon="129.009596"><ele>361.1</ele></trkpt>
      <trkpt lat="35.546835" lon="129.009284"><ele>372.7</ele></trkpt>
      <trkpt lat="35.547005" lon="129.008988"><ele>365.1</ele></trkpt>
      <trkpt lat="35.547389" lon="129.008765"><ele>359.7</ele></trkpt>
      <trkpt lat="35.547443" lon="129.008644"><ele>361.9</ele></trkpt>
      <trkpt lat="35.547620" lon="129.008598"><ele>360.6</ele></trkpt>
      <trkpt lat="35.548368" lon="129.007936"><ele>366.4</ele></trkpt>
      <trkpt lat="35.548386" lon="129.007602"><ele>374.5</ele></trkpt>
      <trkpt lat="35.548668" lon="129.007276"><ele>378.4</ele></trkpt>
      <trkpt lat="35.548747" lon="129.006893"><ele>391.1</ele></trkpt>
      <trkpt lat="35.548629" lon="129.006727"><ele>398.5</ele></trkpt>
      <trkpt lat="35.548563" lon="129.006466"><ele>408.2</ele></trkpt>
      <trkpt lat="35.548610" lon="129.006251"><ele>417.9</ele></trkpt>
      <trkpt lat="35.548634" lon="129.006159"><ele>422.7</ele></trkpt>
      <trkpt lat="35.548900" lon="129.005905"><ele>442.2</ele></trkpt>
      <trkpt lat="35.548932" lon="129.005579"><ele>459.8</ele></trkpt>
      <trkpt lat="35.549070" lon="129.005325"><ele>472.6</ele></trkpt>
      <trkpt lat="35.549026" lon="129.005175"><ele>475.9</ele></trkpt>
      <trkpt lat="35.549083" lon="129.004943"><ele>483.4</ele></trkpt>
      <trkpt lat="35.549022" lon="129.004796"><ele>488.6</ele></trkpt>
      <trkpt lat="35.548701" lon="129.004619"><ele>483.9</ele></trkpt>
      <trkpt lat="35.548669" lon="129.004556"><ele>484.5</ele></trkpt>
      <trkpt lat="35.548724" lon="129.004118"><ele>499.4</ele></trkpt>
      <trkpt lat="35.548701" lon="129.003812"><ele>503.8</ele></trkpt>
      <trkpt lat="35.548540" lon="129.003021"><ele>513.7</ele></trkpt>
      <trkpt lat="35.548405" lon="129.002629"><ele>515.4</ele></trkpt>
      <trkpt lat="35.548256" lon="129.002486"><ele>511.6</ele></trkpt>
      <trkpt lat="35.548197" lon="129.002354"><ele>512.8</ele></trkpt>
      <trkpt lat="35.548148" lon="129.002216"><ele>514.2</ele></trkpt>
      <trkpt lat="35.548149" lon="129.001963"><ele>520.6</ele></trkpt>
      <trkpt lat="35.547971" lon="129.001706"><ele>522.2</ele></trkpt>
      <trkpt lat="35.547845" lon="129.001250"><ele>536.9</ele></trkpt>
      <trkpt lat="35.547639" lon="129.000993"><ele>550.3</ele></trkpt>
      <trkpt lat="35.547635" lon="129.000669"><ele>566.7</ele></trkpt>
      <trkpt lat="35.547446" lon="129.000496"><ele>579.8</ele></trkpt>
      <trkpt lat="35.547099" lon="129.000395"><ele>591.1</ele></trkpt>
      <trkpt lat="35.546895" lon="129.000493"><ele>591.0</ele></trkpt>
      <trkpt lat="35.546774" lon="129.000492"><ele>594.4</ele></trkpt>
      <trkpt lat="35.546186" lon="128.999715"><ele>636.9</ele></trkpt>
      <trkpt lat="35.545948" lon="128.999659"><ele>642.1</ele></trkpt>
      <trkpt lat="35.545629" lon="128.999747"><ele>650.7</ele></trkpt>
      <trkpt lat="35.545460" lon="128.999910"><ele>658.0</ele></trkpt>
      <trkpt lat="35.544694" lon="128.999662"><ele>695.7</ele></trkpt>
      <trkpt lat="35.544299" lon="128.999849"><ele>707.8</ele></trkpt>
      <trkpt lat="35.543979" lon="128.999798"><ele>710.6</ele></trkpt>
      <trkpt lat="35.543915" lon="128.999103"><ele>736.0</ele></trkpt>
      <trkpt lat="35.544073" lon="128.998671"><ele>746.7</ele></trkpt>
      <trkpt lat="35.544171" lon="128.998113"><ele>754.8</ele></trkpt>
      <trkpt lat="35.543895" lon="128.997654"><ele>772.5</ele></trkpt>
      <trkpt lat="35.543462" lon="128.997216"><ele>786.7</ele></trkpt>
      <trkpt lat="35.543286" lon="128.996624"><ele>793.0</ele></trkpt>
      <trkpt lat="35.543082" lon="128.996391"><ele>796.0</ele></trkpt>
      <trkpt lat="35.543100" lon="128.996339"><ele>796.0</ele></trkpt>
      <trkpt lat="35.543034" lon="128.996229"><ele>796.0</ele></trkpt>
      <trkpt lat="35.543045" lon="128.996067"><ele>795.6</ele></trkpt>
      <trkpt lat="35.543200" lon="128.995569"><ele>796.1</ele></trkpt>
      <trkpt lat="35.543240" lon="128.995185"><ele>795.1</ele></trkpt>
      <trkpt lat="35.543408" lon="128.994843"><ele>796.3</ele></trkpt>
      <trkpt lat="35.543460" lon="128.994146"><ele>796.4</ele></trkpt>
      <trkpt lat="35.543446" lon="128.994095"><ele>796.6</ele></trkpt>
      <trkpt lat="35.543042" lon="128.993921"><ele>787.7</ele></trkpt>
      <trkpt lat="35.542928" lon="128.993760"><ele>786.9</ele></trkpt>
      <trkpt lat="35.542720" lon="128.993205"><ele>784.7</ele></trkpt>
      <trkpt lat="35.542597" lon="128.993070"><ele>784.0</ele></trkpt>
      <trkpt lat="35.542452" lon="128.992274"><ele>792.0</ele></trkpt>
      <trkpt lat="35.542378" lon="128.992095"><ele>792.0</ele></trkpt>
      <trkpt lat="35.542358" lon="128.991753"><ele>793.5</ele></trkpt>
      <trkpt lat="35.543639" lon="128.991825"><ele>808.5</ele></trkpt>
      <trkpt lat="35.544466" lon="128.991735"><ele>818.6</ele></trkpt>
      <trkpt lat="35.544603" lon="128.991195"><ele>823.2</ele></trkpt>
      <trkpt lat="35.544785" lon="128.991031"><ele>826.8</ele></trkpt>
      <trkpt lat="35.545164" lon="128.990436"><ele>838.6</ele></trkpt>
      <trkpt lat="35.545208" lon="128.989921"><ele>848.2</ele></trkpt>
      <trkpt lat="35.545182" lon="128.989717"><ele>854.0</ele></trkpt>
      <trkpt lat="35.545278" lon="128.989347"><ele>859.7</ele></trkpt>
      <trkpt lat="35.545287" lon="128.989019"><ele>863.2</ele></trkpt>
      <trkpt lat="35.545330" lon="128.988848"><ele>866.5</ele></trkpt>
      <trkpt lat="35.545566" lon="128.988403"><ele>879.1</ele></trkpt>
      <trkpt lat="35.545675" lon="128.987839"><ele>888.5</ele></trkpt>
      <trkpt lat="35.546003" lon="128.987077"><ele>907.2</ele></trkpt>
      <trkpt lat="35.545907" lon="128.986863"><ele>911.4</ele></trkpt>
      <trkpt lat="35.545885" lon="128.986697"><ele>916.4</ele></trkpt>
      <trkpt lat="35.546085" lon="128.986139"><ele>931.5</ele></trkpt>
      <trkpt lat="35.546203" lon="128.985189"><ele>956.7</ele></trkpt>
      <trkpt lat="35.546326" lon="128.984969"><ele>963.7</ele></trkpt>
      <trkpt lat="35.546485" lon="128.984473"><ele>982.5</ele></trkpt>
      <trkpt lat="35.546380" lon="128.984320"><ele>987.9</ele></trkpt>
      <trkpt lat="35.545915" lon="128.983913"><ele>999.4</ele></trkpt>
      <trkpt lat="35.545776" lon="128.983923"><ele>998.3</ele></trkpt>
      <trkpt lat="35.545680" lon="128.983687"><ele>1005.1</ele></trkpt>
      <trkpt lat="35.545570" lon="128.983591"><ele>1007.9</ele></trkpt>
      <trkpt lat="35.545645" lon="128.983271"><ele>1019.5</ele></trkpt>
      <trkpt lat="35.545573" lon="128.983129"><ele>1025.9</ele></trkpt>
      <trkpt lat="35.545584" lon="128.982907"><ele>1033.0</ele></trkpt>
      <trkpt lat="35.545267" lon="128.982429"><ele>1042.3</ele></trkpt>
      <trkpt lat="35.545138" lon="128.982003"><ele>1051.6</ele></trkpt>
      <trkpt lat="35.545164" lon="128.981788"><ele>1061.7</ele></trkpt>
      <trkpt lat="35.545219" lon="128.981643"><ele>1069.9</ele></trkpt>
      <trkpt lat="35.545421" lon="128.981392"><ele>1083.3</ele></trkpt>
      <trkpt lat="35.545390" lon="128.980672"><ele>1097.3</ele></trkpt>
      <trkpt lat="35.545829" lon="128.980706"><ele>1093.2</ele></trkpt>
      <trkpt lat="35.545838" lon="128.980764"><ele>1094.0</ele></trkpt>
      <trkpt lat="35.546349" lon="128.981044"><ele>1093.8</ele></trkpt>
      <trkpt lat="35.546514" lon="128.981019"><ele>1092.5</ele></trkpt>
    </trkseg>
  </trk>
</gpx>
