<?xml version="1.0" encoding="UTF-8"?>
<gpx version="1.1" creator="kr-100-mountains route-harvester"
     xmlns="http://www.topografix.com/GPX/1/1"
     xmlns:k100="https://github.com/jay-jang/kr-100-mountains/ns/1"
     xmlns:xsi="http://www.w3.org/2001/XMLSchema-instance"
     xsi:schemaLocation="http://www.topografix.com/GPX/1/1 http://www.topografix.com/GPX/1/1/gpx.xsd">
  <metadata>
    <name>재약산 · 배내고개-재약산 종주 (대안 1) (OSM 계산 경로)</name>
    <desc>실제 GPS 기록이 아닙니다. OpenStreetMap에 등록된 등산로 선형 위에서 계산한 경로이며, 현장 통제·훼손·출입 제한·계절 통제를 반영하지 않을 수 있습니다. 산행 전 공식 안내를 확인하세요.</desc>
    <time>2026-08-04T05:40:37.969Z</time>
    <link href="https://www.openstreetmap.org/copyright"><text>© OpenStreetMap contributors (ODbL 1.0)</text></link>
    <link href="https://registry.opendata.aws/terrain-tiles/"><text>Elevation: SRTM 1 arc-second (NASA/USGS) via AWS Terrain Tiles</text></link>
    <extensions>
      <k100:provenance>osm-routed</k100:provenance>
      <k100:not_a_recorded_track>true</k100:not_a_recorded_track>
      <k100:mountain_id>jaeyaksan</k100:mountain_id>
      <k100:mountain_name>재약산</k100:mountain_name>
      <k100:route_id>jaeyaksan-7724bb9d</k100:route_id>
      <k100:route_index>3</k100:route_index>
      <k100:route_name>배내고개-재약산 종주</k100:route_name>
      <k100:variant>1</k100:variant>
      <k100:source>OpenStreetMap via Overpass API</k100:source>
      <k100:license>ODbL-1.0</k100:license>
      <k100:attribution>© OpenStreetMap contributors</k100:attribution>
      <k100:elevation_source>SRTM 1 arc-second (NASA/USGS) — AWS Terrain Tiles 배포본. 지형 DEM 추정 고도이며 실측 아님</k100:elevation_source>
      <k100:algorithm>dijkstra-grid-v1</k100:algorithm>
      <k100:osm_snapshot>2026-08-04</k100:osm_snapshot>
      <k100:snap_trailhead_m>10</k100:snap_trailhead_m>
      <k100:snap_summit_m>45</k100:snap_summit_m>
      <k100:validation_score>100</k100:validation_score>
      <k100:validation_status>accepted</k100:validation_status>
    </extensions>
  </metadata>
  <trk>
    <name>재약산 · 배내고개-재약산 종주 (대안 1) (OSM 계산 경로)</name>
    <desc>실제 GPS 기록이 아닙니다. OpenStreetMap에 등록된 등산로 선형 위에서 계산한 경로이며, 현장 통제·훼손·출입 제한·계절 통제를 반영하지 않을 수 있습니다. 산행 전 공식 안내를 확인하세요.</desc>
    <trkseg>
      <trkpt lat="35.560174" lon="129.043264"><ele>869.5</ele></trkpt>
      <trkpt lat="35.560267" lon="129.043265"><ele>873.1</ele></trkpt>
      <trkpt lat="35.560532" lon="129.043430"><ele>881.7</ele></trkpt>
      <trkpt lat="35.560756" lon="129.043640"><ele>891.4</ele></trkpt>
      <trkpt lat="35.560954" lon="129.043672"><ele>892.8</ele></trkpt>
      <trkpt lat="35.561685" lon="129.043023"><ele>873.1</ele></trkpt>
      <trkpt lat="35.561899" lon="129.042642"><ele>869.7</ele></trkpt>
      <trkpt lat="35.562044" lon="129.042502"><ele>867.5</ele></trkpt>
      <trkpt lat="35.562648" lon="129.042389"><ele>864.6</ele></trkpt>
      <trkpt lat="35.563313" lon="129.041959"><ele>871.6</ele></trkpt>
      <trkpt lat="35.563989" lon="129.041878"><ele>884.8</ele></trkpt>
      <trkpt lat="35.564238" lon="129.041906"><ele>885.4</ele></trkpt>
      <trkpt lat="35.564545" lon="129.041838"><ele>889.7</ele></trkpt>
      <trkpt lat="35.564583" lon="129.041758"><ele>893.0</ele></trkpt>
      <trkpt lat="35.565003" lon="129.041773"><ele>895.3</ele></trkpt>
      <trkpt lat="35.565214" lon="129.041626"><ele>894.2</ele></trkpt>
      <trkpt lat="35.565630" lon="129.041465"><ele>899.9</ele></trkpt>
      <trkpt lat="35.566281" lon="129.040950"><ele>898.1</ele></trkpt>
      <trkpt lat="35.566969" lon="129.040579"><ele>889.0</ele></trkpt>
      <trkpt lat="35.567098" lon="129.040423"><ele>883.6</ele></trkpt>
      <trkpt lat="35.567170" lon="129.040027"><ele>885.3</ele></trkpt>
      <trkpt lat="35.567235" lon="129.039893"><ele>885.7</ele></trkpt>
      <trkpt lat="35.567592" lon="129.039738"><ele>886.8</ele></trkpt>
      <trkpt lat="35.567673" lon="129.039626"><ele>886.1</ele></trkpt>
      <trkpt lat="35.567837" lon="129.039568"><ele>883.4</ele></trkpt>
      <trkpt lat="35.568117" lon="129.039327"><ele>877.1</ele></trkpt>
      <trkpt lat="35.568227" lon="129.039053"><ele>880.3</ele></trkpt>
      <trkpt lat="35.568404" lon="129.038879"><ele>883.7</ele></trkpt>
      <trkpt lat="35.568879" lon="129.038211"><ele>872.7</ele></trkpt>
      <trkpt lat="35.569116" lon="129.038054"><ele>879.9</ele></trkpt>
      <trkpt lat="35.569434" lon="129.037598"><ele>894.8</ele></trkpt>
      <trkpt lat="35.569516" lon="129.037526"><ele>899.8</ele></trkpt>
      <trkpt lat="35.569910" lon="129.037566"><ele>914.4</ele></trkpt>
      <trkpt lat="35.570058" lon="129.037452"><ele>919.5</ele></trkpt>
      <trkpt lat="35.570527" lon="129.036880"><ele>933.4</ele></trkpt>
      <trkpt lat="35.570646" lon="129.036781"><ele>934.0</ele></trkpt>
      <trkpt lat="35.570818" lon="129.036753"><ele>933.2</ele></trkpt>
      <trkpt lat="35.571494" lon="129.036216"><ele>936.6</ele></trkpt>
      <trkpt lat="35.572886" lon="129.035912"><ele>943.9</ele></trkpt>
      <trkpt lat="35.573260" lon="129.035956"><ele>949.0</ele></trkpt>
      <trkpt lat="35.573399" lon="129.036055"><ele>950.6</ele></trkpt>
      <trkpt lat="35.573472" lon="129.036033"><ele>950.2</ele></trkpt>
      <trkpt lat="35.573679" lon="129.036203"><ele>950.1</ele></trkpt>
      <trkpt lat="35.573908" lon="129.036232"><ele>948.2</ele></trkpt>
      <trkpt lat="35.574256" lon="129.036136"><ele>945.6</ele></trkpt>
      <trkpt lat="35.574917" lon="129.036086"><ele>936.0</ele></trkpt>
      <trkpt lat="35.575169" lon="129.035951"><ele>934.1</ele></trkpt>
      <trkpt lat="35.575602" lon="129.035896"><ele>929.5</ele></trkpt>
      <trkpt lat="35.575778" lon="129.035748"><ele>922.8</ele></trkpt>
      <trkpt lat="35.576013" lon="129.035652"><ele>920.1</ele></trkpt>
      <trkpt lat="35.576773" lon="129.035646"><ele>923.3</ele></trkpt>
      <trkpt lat="35.577045" lon="129.035535"><ele>926.1</ele></trkpt>
      <trkpt lat="35.577187" lon="129.035303"><ele>922.7</ele></trkpt>
      <trkpt lat="35.577228" lon="129.034601"><ele>910.3</ele></trkpt>
      <trkpt lat="35.577131" lon="129.034254"><ele>901.7</ele></trkpt>
      <trkpt lat="35.577181" lon="129.033612"><ele>883.6</ele></trkpt>
      <trkpt lat="35.576683" lon="129.032857"><ele>856.5</ele></trkpt>
      <trkpt lat="35.576516" lon="129.032801"><ele>852.8</ele></trkpt>
      <trkpt lat="35.576458" lon="129.032721"><ele>849.9</ele></trkpt>
      <trkpt lat="35.576469" lon="129.032577"><ele>846.7</ele></trkpt>
      <trkpt lat="35.576572" lon="129.032332"><ele>838.9</ele></trkpt>
      <trkpt lat="35.576877" lon="129.032132"><ele>831.9</ele></trkpt>
      <trkpt lat="35.577093" lon="129.031876"><ele>821.1</ele></trkpt>
      <trkpt lat="35.577504" lon="129.031516"><ele>809.0</ele></trkpt>
      <trkpt lat="35.578019" lon="129.031185"><ele>788.5</ele></trkpt>
      <trkpt lat="35.578399" lon="129.031054"><ele>776.2</ele></trkpt>
      <trkpt lat="35.578555" lon="129.030947"><ele>771.9</ele></trkpt>
      <trkpt lat="35.578708" lon="129.030924"><ele>768.2</ele></trkpt>
      <trkpt lat="35.578916" lon="129.031025"><ele>766.5</ele></trkpt>
      <trkpt lat="35.579001" lon="129.031004"><ele>762.5</ele></trkpt>
      <trkpt lat="35.579228" lon="129.030810"><ele>748.0</ele></trkpt>
      <trkpt lat="35.579473" lon="129.030364"><ele>734.4</ele></trkpt>
      <trkpt lat="35.579554" lon="129.030177"><ele>727.6</ele></trkpt>
      <trkpt lat="35.579569" lon="129.029950"><ele>720.0</ele></trkpt>
      <trkpt lat="35.579777" lon="129.029600"><ele>710.1</ele></trkpt>
      <trkpt lat="35.579865" lon="129.029355"><ele>702.8</ele></trkpt>
      <trkpt lat="35.579921" lon="129.028594"><ele>690.3</ele></trkpt>
      <trkpt lat="35.580080" lon="129.028355"><ele>685.1</ele></trkpt>
      <trkpt lat="35.580073" lon="129.028269"><ele>684.2</ele></trkpt>
      <trkpt lat="35.580204" lon="129.028037"><ele>681.3</ele></trkpt>
      <trkpt lat="35.581144" lon="129.026812"><ele>688.1</ele></trkpt>
      <trkpt lat="35.581542" lon="129.026650"><ele>699.1</ele></trkpt>
      <trkpt lat="35.581806" lon="129.026676"><ele>705.3</ele></trkpt>
      <trkpt lat="35.581903" lon="129.026637"><ele>708.5</ele></trkpt>
      <trkpt lat="35.582049" lon="129.026481"><ele>714.1</ele></trkpt>
      <trkpt lat="35.582057" lon="129.026372"><ele>716.7</ele></trkpt>
      <trkpt lat="35.582134" lon="129.026273"><ele>719.8</ele></trkpt>
      <trkpt lat="35.582219" lon="129.026237"><ele>722.1</ele></trkpt>
      <trkpt lat="35.582276" lon="129.026007"><ele>727.2</ele></trkpt>
      <trkpt lat="35.582526" lon="129.025686"><ele>739.4</ele></trkpt>
      <trkpt lat="35.582822" lon="129.025411"><ele>751.9</ele></trkpt>
      <trkpt lat="35.583026" lon="129.025338"><ele>759.7</ele></trkpt>
      <trkpt lat="35.583270" lon="129.025072"><ele>775.1</ele></trkpt>
      <trkpt lat="35.583631" lon="129.024815"><ele>791.9</ele></trkpt>
      <trkpt lat="35.583867" lon="129.024580"><ele>803.5</ele></trkpt>
      <trkpt lat="35.583862" lon="129.024518"><ele>805.1</ele></trkpt>
      <trkpt lat="35.583928" lon="129.024515"><ele>807.0</ele></trkpt>
      <trkpt lat="35.584056" lon="129.024311"><ele>818.0</ele></trkpt>
      <trkpt lat="35.584114" lon="129.024018"><ele>830.0</ele></trkpt>
      <trkpt lat="35.584170" lon="129.024015"><ele>831.5</ele></trkpt>
      <trkpt lat="35.584267" lon="129.023770"><ele>841.2</ele></trkpt>
      <trkpt lat="35.584456" lon="129.023497"><ele>853.1</ele></trkpt>
      <trkpt lat="35.584521" lon="129.022789"><ele>877.6</ele></trkpt>
      <trkpt lat="35.584739" lon="129.022613"><ele>884.2</ele></trkpt>
      <trkpt lat="35.584789" lon="129.022396"><ele>886.8</ele></trkpt>
      <trkpt lat="35.584750" lon="129.022148"><ele>891.7</ele></trkpt>
      <trkpt lat="35.584631" lon="129.021982"><ele>897.1</ele></trkpt>
      <trkpt lat="35.584496" lon="129.021536"><ele>911.3</ele></trkpt>
      <trkpt lat="35.584079" lon="129.020851"><ele>924.8</ele></trkpt>
      <trkpt lat="35.584079" lon="129.020291"><ele>938.8</ele></trkpt>
      <trkpt lat="35.584167" lon="129.020074"><ele>946.1</ele></trkpt>
      <trkpt lat="35.584317" lon="129.019913"><ele>944.3</ele></trkpt>
      <trkpt lat="35.583965" lon="129.019097"><ele>964.8</ele></trkpt>
      <trkpt lat="35.583880" lon="129.018745"><ele>967.0</ele></trkpt>
      <trkpt lat="35.583685" lon="129.018314"><ele>971.5</ele></trkpt>
      <trkpt lat="35.583605" lon="129.017421"><ele>961.7</ele></trkpt>
      <trkpt lat="35.583644" lon="129.017240"><ele>955.0</ele></trkpt>
      <trkpt lat="35.583616" lon="129.017132"><ele>953.1</ele></trkpt>
      <trkpt lat="35.583460" lon="129.016866"><ele>947.0</ele></trkpt>
      <trkpt lat="35.583169" lon="129.016621"><ele>940.8</ele></trkpt>
      <trkpt lat="35.583081" lon="129.016478"><ele>937.7</ele></trkpt>
      <trkpt lat="35.582977" lon="129.016174"><ele>933.0</ele></trkpt>
      <trkpt lat="35.583030" lon="129.016092"><ele>931.8</ele></trkpt>
      <trkpt lat="35.582813" lon="129.015375"><ele>915.8</ele></trkpt>
      <trkpt lat="35.582499" lon="129.014748"><ele>896.5</ele></trkpt>
      <trkpt lat="35.582434" lon="129.014445"><ele>891.8</ele></trkpt>
      <trkpt lat="35.582525" lon="129.014206"><ele>893.6</ele></trkpt>
      <trkpt lat="35.582473" lon="129.012994"><ele>905.3</ele></trkpt>
      <trkpt lat="35.582342" lon="129.012543"><ele>902.2</ele></trkpt>
      <trkpt lat="35.582064" lon="129.012271"><ele>903.2</ele></trkpt>
      <trkpt lat="35.581984" lon="129.012064"><ele>905.2</ele></trkpt>
      <trkpt lat="35.581547" lon="129.011831"><ele>918.6</ele></trkpt>
      <trkpt lat="35.581236" lon="129.011363"><ele>933.9</ele></trkpt>
      <trkpt lat="35.581149" lon="129.010712"><ele>935.4</ele></trkpt>
      <trkpt lat="35.580637" lon="129.010217"><ele>942.1</ele></trkpt>
      <trkpt lat="35.580453" lon="129.009672"><ele>947.9</ele></trkpt>
      <trkpt lat="35.580366" lon="129.009268"><ele>951.4</ele></trkpt>
      <trkpt lat="35.580390" lon="129.008858"><ele>952.8</ele></trkpt>
      <trkpt lat="35.580075" lon="129.008479"><ele>954.3</ele></trkpt>
      <trkpt lat="35.579844" lon="129.008339"><ele>951.9</ele></trkpt>
      <trkpt lat="35.578795" lon="129.007902"><ele>949.5</ele></trkpt>
      <trkpt lat="35.578375" lon="129.007364"><ele>947.1</ele></trkpt>
      <trkpt lat="35.578150" lon="129.007201"><ele>944.5</ele></trkpt>
      <trkpt lat="35.578049" lon="129.006833"><ele>941.5</ele></trkpt>
      <trkpt lat="35.577641" lon="129.006255"><ele>924.4</ele></trkpt>
      <trkpt lat="35.577573" lon="129.005983"><ele>917.3</ele></trkpt>
      <trkpt lat="35.577489" lon="129.005848"><ele>912.8</ele></trkpt>
      <trkpt lat="35.577363" lon="129.005774"><ele>907.2</ele></trkpt>
      <trkpt lat="35.577238" lon="129.005569"><ele>901.4</ele></trkpt>
      <trkpt lat="35.576192" lon="129.004537"><ele>892.3</ele></trkpt>
      <trkpt lat="35.575726" lon="129.003776"><ele>877.6</ele></trkpt>
      <trkpt lat="35.575418" lon="129.003452"><ele>877.8</ele></trkpt>
      <trkpt lat="35.574908" lon="129.003153"><ele>882.1</ele></trkpt>
      <trkpt lat="35.574670" lon="129.002926"><ele>885.3</ele></trkpt>
      <trkpt lat="35.574131" lon="129.002729"><ele>889.5</ele></trkpt>
      <trkpt lat="35.573915" lon="129.002237"><ele>887.7</ele></trkpt>
      <trkpt lat="35.573110" lon="129.001259"><ele>892.8</ele></trkpt>
      <trkpt lat="35.572901" lon="129.000770"><ele>891.3</ele></trkpt>
      <trkpt lat="35.572816" lon="129.000412"><ele>892.4</ele></trkpt>
      <trkpt lat="35.572694" lon="129.000270"><ele>894.1</ele></trkpt>
      <trkpt lat="35.572444" lon="129.000113"><ele>895.2</ele></trkpt>
      <trkpt lat="35.572234" lon="128.999872"><ele>896.4</ele></trkpt>
      <trkpt lat="35.571757" lon="128.998768"><ele>897.2</ele></trkpt>
      <trkpt lat="35.571507" lon="128.998482"><ele>902.3</ele></trkpt>
      <trkpt lat="35.571458" lon="128.998363"><ele>906.8</ele></trkpt>
      <trkpt lat="35.571537" lon="128.998313"><ele>908.5</ele></trkpt>
      <trkpt lat="35.571569" lon="128.998185"><ele>911.6</ele></trkpt>
      <trkpt lat="35.571494" lon="128.997962"><ele>917.4</ele></trkpt>
      <trkpt lat="35.571101" lon="128.997506"><ele>933.6</ele></trkpt>
      <trkpt lat="35.570939" lon="128.997235"><ele>936.5</ele></trkpt>
      <trkpt lat="35.570849" lon="128.996963"><ele>938.8</ele></trkpt>
      <trkpt lat="35.570651" lon="128.996766"><ele>939.2</ele></trkpt>
      <trkpt lat="35.570376" lon="128.996606"><ele>941.4</ele></trkpt>
      <trkpt lat="35.570104" lon="128.996324"><ele>946.0</ele></trkpt>
      <trkpt lat="35.569524" lon="128.995968"><ele>958.6</ele></trkpt>
      <trkpt lat="35.569227" lon="128.995603"><ele>964.4</ele></trkpt>
      <trkpt lat="35.569080" lon="128.995510"><ele>966.1</ele></trkpt>
      <trkpt lat="35.569007" lon="128.995274"><ele>965.7</ele></trkpt>
      <trkpt lat="35.569007" lon="128.995026"><ele>965.3</ele></trkpt>
      <trkpt lat="35.568832" lon="128.994936"><ele>966.3</ele></trkpt>
      <trkpt lat="35.568788" lon="128.994409"><ele>968.3</ele></trkpt>
      <trkpt lat="35.568411" lon="128.993979"><ele>969.5</ele></trkpt>
      <trkpt lat="35.567935" lon="128.993687"><ele>971.6</ele></trkpt>
      <trkpt lat="35.567501" lon="128.992742"><ele>981.3</ele></trkpt>
      <trkpt lat="35.567361" lon="128.992173"><ele>981.0</ele></trkpt>
      <trkpt lat="35.567143" lon="128.991973"><ele>977.4</ele></trkpt>
      <trkpt lat="35.566931" lon="128.991686"><ele>979.3</ele></trkpt>
      <trkpt lat="35.566612" lon="128.991036"><ele>987.4</ele></trkpt>
      <trkpt lat="35.566352" lon="128.990711"><ele>986.2</ele></trkpt>
      <trkpt lat="35.566277" lon="128.990286"><ele>991.0</ele></trkpt>
      <trkpt lat="35.566190" lon="128.990120"><ele>988.9</ele></trkpt>
      <trkpt lat="35.566156" lon="128.989925"><ele>988.4</ele></trkpt>
      <trkpt lat="35.566181" lon="128.989503"><ele>990.8</ele></trkpt>
      <trkpt lat="35.565998" lon="128.989052"><ele>993.9</ele></trkpt>
      <trkpt lat="35.565613" lon="128.988795"><ele>994.4</ele></trkpt>
      <trkpt lat="35.565287" lon="128.988197"><ele>992.6</ele></trkpt>
      <trkpt lat="35.565188" lon="128.987859"><ele>993.5</ele></trkpt>
      <trkpt lat="35.564803" lon="128.987394"><ele>987.9</ele></trkpt>
      <trkpt lat="35.564654" lon="128.986977"><ele>986.2</ele></trkpt>
      <trkpt lat="35.564657" lon="128.986743"><ele>985.7</ele></trkpt>
      <trkpt lat="35.564329" lon="128.985716"><ele>983.9</ele></trkpt>
      <trkpt lat="35.563612" lon="128.984695"><ele>982.2</ele></trkpt>
      <trkpt lat="35.562531" lon="128.983347"><ele>973.9</ele></trkpt>
      <trkpt lat="35.562120" lon="128.982432"><ele>970.8</ele></trkpt>
      <trkpt lat="35.561834" lon="128.981975"><ele>968.3</ele></trkpt>
      <trkpt lat="35.561518" lon="128.981632"><ele>967.5</ele></trkpt>
      <trkpt lat="35.561141" lon="128.981493"><ele>965.9</ele></trkpt>
      <trkpt lat="35.560920" lon="128.981330"><ele>967.2</ele></trkpt>
      <trkpt lat="35.560338" lon="128.980612"><ele>961.5</ele></trkpt>
      <trkpt lat="35.560283" lon="128.980450"><ele>963.0</ele></trkpt>
      <trkpt lat="35.559934" lon="128.980021"><ele>962.0</ele></trkpt>
      <trkpt lat="35.559771" lon="128.979659"><ele>965.6</ele></trkpt>
      <trkpt lat="35.559473" lon="128.979495"><ele>967.9</ele></trkpt>
      <trkpt lat="35.558052" lon="128.979262"><ele>972.2</ele></trkpt>
      <trkpt lat="35.557351" lon="128.978938"><ele>970.2</ele></trkpt>
      <trkpt lat="35.557043" lon="128.978739"><ele>970.4</ele></trkpt>
      <trkpt lat="35.556029" lon="128.978430"><ele>966.0</ele></trkpt>
      <trkpt lat="35.555578" lon="128.978451"><ele>963.6</ele></trkpt>
      <trkpt lat="35.555009" lon="128.978366"><ele>963.2</ele></trkpt>
      <trkpt lat="35.554556" lon="128.978427"><ele>959.6</ele></trkpt>
      <trkpt lat="35.554439" lon="128.978400"><ele>960.0</ele></trkpt>
      <trkpt lat="35.554018" lon="128.978138"><ele>962.5</ele></trkpt>
      <trkpt lat="35.553742" lon="128.978122"><ele>958.6</ele></trkpt>
      <trkpt lat="35.553410" lon="128.977978"><ele>959.6</ele></trkpt>
      <trkpt lat="35.553193" lon="128.977955"><ele>959.5</ele></trkpt>
      <trkpt lat="35.552727" lon="128.977596"><ele>963.8</ele></trkpt>
      <trkpt lat="35.552592" lon="128.977617"><ele>963.1</ele></trkpt>
      <trkpt lat="35.552141" lon="128.977449"><ele>965.1</ele></trkpt>
      <trkpt lat="35.552059" lon="128.977305"><ele>967.3</ele></trkpt>
      <trkpt lat="35.551755" lon="128.977006"><ele>968.7</ele></trkpt>
      <trkpt lat="35.551497" lon="128.976894"><ele>968.6</ele></trkpt>
      <trkpt lat="35.551337" lon="128.977298"><ele>969.0</ele></trkpt>
      <trkpt lat="35.551435" lon="128.977459"><ele>968.8</ele></trkpt>
      <trkpt lat="35.551441" lon="128.977553"><ele>968.6</ele></trkpt>
      <trkpt lat="35.551289" lon="128.977696"><ele>968.5</ele></trkpt>
      <trkpt lat="35.550808" lon="128.978416"><ele>980.0</ele></trkpt>
      <trkpt lat="35.550597" lon="128.978578"><ele>987.0</ele></trkpt>
      <trkpt lat="35.549995" lon="128.978887"><ele>1005.2</ele></trkpt>
      <trkpt lat="35.549657" lon="128.978967"><ele>1017.0</ele></trkpt>
      <trkpt lat="35.549494" lon="128.978929"><ele>1016.5</ele></trkpt>
      <trkpt lat="35.549312" lon="128.979357"><ele>1018.6</ele></trkpt>
      <trkpt lat="35.549034" lon="128.979800"><ele>1019.6</ele></trkpt>
      <trkpt lat="35.548846" lon="128.979948"><ele>1025.8</ele></trkpt>
      <trkpt lat="35.548787" lon="128.980207"><ele>1032.6</ele></trkpt>
      <trkpt lat="35.548631" lon="128.980314"><ele>1040.7</ele></trkpt>
      <trkpt lat="35.548347" lon="128.980141"><ele>1050.8</ele></trkpt>
      <trkpt lat="35.547991" lon="128.980401"><ele>1068.4</ele></trkpt>
      <trkpt lat="35.547787" lon="128.980333"><ele>1074.5</ele></trkpt>
      <trkpt lat="35.547714" lon="128.980373"><ele>1075.1</ele></trkpt>
      <trkpt lat="35.547645" lon="128.980614"><ele>1075.8</ele></trkpt>
      <trkpt lat="35.547298" lon="128.980653"><ele>1079.0</ele></trkpt>
      <trkpt lat="35.547260" lon="128.980810"><ele>1081.2</ele></trkpt>
      <trkpt lat="35.547050" lon="128.981101"><ele>1086.9</ele></trkpt>
      <trkpt lat="35.546738" lon="128.981275"><ele>1087.8</ele></trkpt>
      <trkpt lat="35.546618" lon="128.981280"><ele>1088.5</ele></trkpt>
      <trkpt lat="35.546514" lon="128.981019"><ele>1092.5</ele></trkpt>
    </trkseg>
  </trk>
</gpx>
