<?xml version="1.0" encoding="UTF-8"?>
<gpx version="1.1" creator="kr-100-mountains route-harvester"
     xmlns="http://www.topografix.com/GPX/1/1"
     xmlns:k100="https://github.com/jay-jang/kr-100-mountains/ns/1"
     xmlns:xsi="http://www.w3.org/2001/XMLSchema-instance"
     xsi:schemaLocation="http://www.topografix.com/GPX/1/1 http://www.topografix.com/GPX/1/1/gpx.xsd">
  <metadata>
    <name>재약산 · 배내고개-재약산 종주 (OSM 계산 경로)</name>
    <desc>실제 GPS 기록이 아닙니다. OpenStreetMap에 등록된 등산로 선형 위에서 계산한 경로이며, 현장 통제·훼손·출입 제한·계절 통제를 반영하지 않을 수 있습니다. 산행 전 공식 안내를 확인하세요.</desc>
    <time>2026-08-04T05:40:37.967Z</time>
    <link href="https://www.openstreetmap.org/copyright"><text>© OpenStreetMap contributors (ODbL 1.0)</text></link>
    <link href="https://registry.opendata.aws/terrain-tiles/"><text>Elevation: SRTM 1 arc-second (NASA/USGS) via AWS Terrain Tiles</text></link>
    <extensions>
      <k100:provenance>osm-routed</k100:provenance>
      <k100:not_a_recorded_track>true</k100:not_a_recorded_track>
      <k100:mountain_id>jaeyaksan</k100:mountain_id>
      <k100:mountain_name>재약산</k100:mountain_name>
      <k100:route_id>jaeyaksan-7724bb9d</k100:route_id>
      <k100:route_index>3</k100:route_index>
      <k100:route_name>배내고개-재약산 종주</k100:route_name>
      <k100:variant>0</k100:variant>
      <k100:source>OpenStreetMap via Overpass API</k100:source>
      <k100:license>ODbL-1.0</k100:license>
      <k100:attribution>© OpenStreetMap contributors</k100:attribution>
      <k100:elevation_source>SRTM 1 arc-second (NASA/USGS) — AWS Terrain Tiles 배포본. 지형 DEM 추정 고도이며 실측 아님</k100:elevation_source>
      <k100:algorithm>dijkstra-grid-v1</k100:algorithm>
      <k100:osm_snapshot>2026-08-04</k100:osm_snapshot>
      <k100:snap_trailhead_m>10</k100:snap_trailhead_m>
      <k100:snap_summit_m>45</k100:snap_summit_m>
      <k100:validation_score>93</k100:validation_score>
      <k100:validation_status>accepted</k100:validation_status>
    </extensions>
  </metadata>
  <trk>
    <name>재약산 · 배내고개-재약산 종주 (OSM 계산 경로)</name>
    <desc>실제 GPS 기록이 아닙니다. OpenStreetMap에 등록된 등산로 선형 위에서 계산한 경로이며, 현장 통제·훼손·출입 제한·계절 통제를 반영하지 않을 수 있습니다. 산행 전 공식 안내를 확인하세요.</desc>
    <trkseg>
      <trkpt lat="35.560174" lon="129.043264"><ele>869.5</ele></trkpt>
      <trkpt lat="35.559495" lon="129.043097"><ele>849.7</ele></trkpt>
      <trkpt lat="35.559022" lon="129.042837"><ele>843.5</ele></trkpt>
      <trkpt lat="35.558425" lon="129.042830"><ele>842.6</ele></trkpt>
      <trkpt lat="35.558311" lon="129.042757"><ele>843.7</ele></trkpt>
      <trkpt lat="35.558059" lon="129.042738"><ele>844.7</ele></trkpt>
      <trkpt lat="35.558376" lon="129.042309"><ele>830.3</ele></trkpt>
      <trkpt lat="35.558952" lon="129.041956"><ele>811.7</ele></trkpt>
      <trkpt lat="35.559262" lon="129.041660"><ele>802.0</ele></trkpt>
      <trkpt lat="35.559593" lon="129.041510"><ele>797.9</ele></trkpt>
      <trkpt lat="35.559798" lon="129.041188"><ele>789.9</ele></trkpt>
      <trkpt lat="35.560004" lon="129.040690"><ele>774.8</ele></trkpt>
      <trkpt lat="35.560466" lon="129.040024"><ele>749.7</ele></trkpt>
      <trkpt lat="35.560505" lon="129.039831"><ele>743.6</ele></trkpt>
      <trkpt lat="35.560364" lon="129.039690"><ele>735.5</ele></trkpt>
      <trkpt lat="35.560765" lon="129.039535"><ele>738.2</ele></trkpt>
      <trkpt lat="35.560932" lon="129.039368"><ele>734.1</ele></trkpt>
      <trkpt lat="35.561342" lon="129.039099"><ele>728.4</ele></trkpt>
      <trkpt lat="35.561702" lon="129.038749"><ele>725.1</ele></trkpt>
      <trkpt lat="35.562095" lon="129.038269"><ele>722.8</ele></trkpt>
      <trkpt lat="35.562667" lon="129.037758"><ele>726.1</ele></trkpt>
      <trkpt lat="35.562777" lon="129.037550"><ele>721.8</ele></trkpt>
      <trkpt lat="35.562908" lon="129.037433"><ele>719.6</ele></trkpt>
      <trkpt lat="35.563360" lon="129.037297"><ele>723.6</ele></trkpt>
      <trkpt lat="35.564079" lon="129.037291"><ele>728.9</ele></trkpt>
      <trkpt lat="35.564675" lon="129.037133"><ele>727.9</ele></trkpt>
      <trkpt lat="35.564937" lon="129.036790"><ele>719.6</ele></trkpt>
      <trkpt lat="35.565224" lon="129.036515"><ele>717.2</ele></trkpt>
      <trkpt lat="35.565976" lon="129.036202"><ele>719.5</ele></trkpt>
      <trkpt lat="35.566089" lon="129.036033"><ele>717.4</ele></trkpt>
      <trkpt lat="35.566140" lon="129.035351"><ele>705.5</ele></trkpt>
      <trkpt lat="35.566474" lon="129.034921"><ele>716.1</ele></trkpt>
      <trkpt lat="35.566479" lon="129.034801"><ele>716.9</ele></trkpt>
      <trkpt lat="35.566307" lon="129.034587"><ele>714.2</ele></trkpt>
      <trkpt lat="35.565459" lon="129.034068"><ele>699.7</ele></trkpt>
      <trkpt lat="35.565272" lon="129.033658"><ele>698.3</ele></trkpt>
      <trkpt lat="35.565301" lon="129.033300"><ele>698.4</ele></trkpt>
      <trkpt lat="35.565475" lon="129.032968"><ele>699.6</ele></trkpt>
      <trkpt lat="35.565506" lon="129.032546"><ele>693.0</ele></trkpt>
      <trkpt lat="35.565622" lon="129.032135"><ele>692.1</ele></trkpt>
      <trkpt lat="35.565655" lon="129.031627"><ele>686.9</ele></trkpt>
      <trkpt lat="35.565624" lon="129.031018"><ele>684.8</ele></trkpt>
      <trkpt lat="35.565570" lon="129.030762"><ele>685.2</ele></trkpt>
      <trkpt lat="35.565455" lon="129.030513"><ele>686.6</ele></trkpt>
      <trkpt lat="35.564882" lon="129.029806"><ele>679.4</ele></trkpt>
      <trkpt lat="35.564687" lon="129.029500"><ele>675.3</ele></trkpt>
      <trkpt lat="35.564644" lon="129.029233"><ele>675.1</ele></trkpt>
      <trkpt lat="35.564682" lon="129.028597"><ele>670.6</ele></trkpt>
      <trkpt lat="35.564656" lon="129.027398"><ele>664.5</ele></trkpt>
      <trkpt lat="35.564518" lon="129.026862"><ele>661.5</ele></trkpt>
      <trkpt lat="35.564408" lon="129.026631"><ele>656.2</ele></trkpt>
      <trkpt lat="35.564215" lon="129.026401"><ele>648.4</ele></trkpt>
      <trkpt lat="35.564153" lon="129.026171"><ele>647.6</ele></trkpt>
      <trkpt lat="35.564161" lon="129.025987"><ele>648.2</ele></trkpt>
      <trkpt lat="35.564234" lon="129.025634"><ele>644.3</ele></trkpt>
      <trkpt lat="35.564377" lon="129.025363"><ele>639.9</ele></trkpt>
      <trkpt lat="35.564795" lon="129.025218"><ele>643.8</ele></trkpt>
      <trkpt lat="35.565162" lon="129.024943"><ele>638.7</ele></trkpt>
      <trkpt lat="35.565632" lon="129.024861"><ele>637.3</ele></trkpt>
      <trkpt lat="35.565745" lon="129.024788"><ele>635.8</ele></trkpt>
      <trkpt lat="35.566032" lon="129.024185"><ele>619.5</ele></trkpt>
      <trkpt lat="35.566759" lon="129.023728"><ele>613.3</ele></trkpt>
      <trkpt lat="35.567221" lon="129.023617"><ele>608.2</ele></trkpt>
      <trkpt lat="35.567212" lon="129.023507"><ele>605.0</ele></trkpt>
      <trkpt lat="35.567171" lon="129.023475"><ele>604.2</ele></trkpt>
      <trkpt lat="35.566724" lon="129.023421"><ele>603.4</ele></trkpt>
      <trkpt lat="35.566460" lon="129.023494"><ele>603.7</ele></trkpt>
      <trkpt lat="35.566348" lon="129.023462"><ele>601.9</ele></trkpt>
      <trkpt lat="35.566348" lon="129.023370"><ele>599.5</ele></trkpt>
      <trkpt lat="35.566892" lon="129.022874"><ele>588.6</ele></trkpt>
      <trkpt lat="35.567071" lon="129.022947"><ele>590.0</ele></trkpt>
      <trkpt lat="35.567122" lon="129.022678"><ele>583.4</ele></trkpt>
      <trkpt lat="35.566881" lon="129.022219"><ele>574.1</ele></trkpt>
      <trkpt lat="35.566895" lon="129.022009"><ele>572.5</ele></trkpt>
      <trkpt lat="35.567292" lon="129.021875"><ele>567.8</ele></trkpt>
      <trkpt lat="35.567371" lon="129.021794"><ele>566.8</ele></trkpt>
      <trkpt lat="35.567381" lon="129.021647"><ele>563.0</ele></trkpt>
      <trkpt lat="35.567229" lon="129.021379"><ele>555.9</ele></trkpt>
      <trkpt lat="35.567216" lon="129.021269"><ele>554.9</ele></trkpt>
      <trkpt lat="35.567573" lon="129.021025"><ele>550.5</ele></trkpt>
      <trkpt lat="35.567751" lon="129.020794"><ele>545.5</ele></trkpt>
      <trkpt lat="35.567685" lon="129.020533"><ele>536.9</ele></trkpt>
      <trkpt lat="35.567543" lon="129.020416"><ele>537.2</ele></trkpt>
      <trkpt lat="35.567526" lon="129.020334"><ele>536.3</ele></trkpt>
      <trkpt lat="35.567584" lon="129.020164"><ele>533.0</ele></trkpt>
      <trkpt lat="35.567877" lon="129.019922"><ele>525.6</ele></trkpt>
      <trkpt lat="35.567987" lon="129.019922"><ele>525.0</ele></trkpt>
      <trkpt lat="35.568208" lon="129.020078"><ele>527.6</ele></trkpt>
      <trkpt lat="35.568320" lon="129.020017"><ele>526.4</ele></trkpt>
      <trkpt lat="35.568486" lon="129.019773"><ele>520.0</ele></trkpt>
      <trkpt lat="35.568343" lon="129.019472"><ele>515.5</ele></trkpt>
      <trkpt lat="35.567801" lon="129.018936"><ele>506.7</ele></trkpt>
      <trkpt lat="35.567188" lon="129.018858"><ele>508.5</ele></trkpt>
      <trkpt lat="35.566991" lon="129.018765"><ele>506.9</ele></trkpt>
      <trkpt lat="35.566616" lon="129.018456"><ele>505.9</ele></trkpt>
      <trkpt lat="35.566373" lon="129.018139"><ele>504.9</ele></trkpt>
      <trkpt lat="35.566367" lon="129.017734"><ele>497.0</ele></trkpt>
      <trkpt lat="35.566271" lon="129.017443"><ele>494.7</ele></trkpt>
      <trkpt lat="35.566130" lon="129.017215"><ele>492.9</ele></trkpt>
      <trkpt lat="35.565985" lon="129.017055"><ele>493.7</ele></trkpt>
      <trkpt lat="35.565775" lon="129.016931"><ele>495.5</ele></trkpt>
      <trkpt lat="35.565537" lon="129.016614"><ele>494.7</ele></trkpt>
      <trkpt lat="35.565259" lon="129.016126"><ele>491.1</ele></trkpt>
      <trkpt lat="35.564951" lon="129.015455"><ele>484.8</ele></trkpt>
      <trkpt lat="35.564792" lon="129.015187"><ele>484.3</ele></trkpt>
      <trkpt lat="35.564635" lon="129.015072"><ele>484.5</ele></trkpt>
      <trkpt lat="35.564558" lon="129.014854"><ele>481.8</ele></trkpt>
      <trkpt lat="35.564609" lon="129.014728"><ele>480.1</ele></trkpt>
      <trkpt lat="35.564578" lon="129.014431"><ele>481.9</ele></trkpt>
      <trkpt lat="35.564331" lon="129.014298"><ele>482.1</ele></trkpt>
      <trkpt lat="35.564027" lon="129.013943"><ele>484.9</ele></trkpt>
      <trkpt lat="35.563829" lon="129.013804"><ele>482.6</ele></trkpt>
      <trkpt lat="35.563631" lon="129.013446"><ele>477.0</ele></trkpt>
      <trkpt lat="35.563495" lon="129.013352"><ele>474.5</ele></trkpt>
      <trkpt lat="35.563559" lon="129.013012"><ele>478.1</ele></trkpt>
      <trkpt lat="35.563454" lon="129.013115"><ele>475.3</ele></trkpt>
      <trkpt lat="35.563361" lon="129.013037"><ele>474.8</ele></trkpt>
      <trkpt lat="35.563430" lon="129.012827"><ele>480.0</ele></trkpt>
      <trkpt lat="35.563286" lon="129.012582"><ele>490.0</ele></trkpt>
      <trkpt lat="35.563259" lon="129.012420"><ele>499.2</ele></trkpt>
      <trkpt lat="35.563074" lon="129.012330"><ele>504.5</ele></trkpt>
      <trkpt lat="35.563134" lon="129.012151"><ele>513.9</ele></trkpt>
      <trkpt lat="35.562963" lon="129.011940"><ele>521.6</ele></trkpt>
      <trkpt lat="35.562824" lon="129.011877"><ele>521.5</ele></trkpt>
      <trkpt lat="35.562615" lon="129.011196"><ele>552.6</ele></trkpt>
      <trkpt lat="35.562853" lon="129.011060"><ele>568.7</ele></trkpt>
      <trkpt lat="35.562754" lon="129.010929"><ele>573.1</ele></trkpt>
      <trkpt lat="35.562781" lon="129.010847"><ele>578.4</ele></trkpt>
      <trkpt lat="35.562751" lon="129.010643"><ele>587.5</ele></trkpt>
      <trkpt lat="35.562838" lon="129.010555"><ele>593.9</ele></trkpt>
      <trkpt lat="35.562810" lon="129.010293"><ele>603.2</ele></trkpt>
      <trkpt lat="35.562646" lon="129.009948"><ele>613.5</ele></trkpt>
      <trkpt lat="35.562694" lon="129.009749"><ele>627.6</ele></trkpt>
      <trkpt lat="35.562598" lon="129.009198"><ele>645.2</ele></trkpt>
      <trkpt lat="35.562651" lon="129.008948"><ele>659.3</ele></trkpt>
      <trkpt lat="35.562763" lon="129.008757"><ele>675.3</ele></trkpt>
      <trkpt lat="35.562955" lon="129.008590"><ele>687.1</ele></trkpt>
      <trkpt lat="35.563006" lon="129.007976"><ele>710.2</ele></trkpt>
      <trkpt lat="35.563124" lon="129.007850"><ele>717.5</ele></trkpt>
      <trkpt lat="35.563126" lon="129.007637"><ele>728.0</ele></trkpt>
      <trkpt lat="35.563293" lon="129.007249"><ele>744.0</ele></trkpt>
      <trkpt lat="35.562866" lon="129.006557"><ele>735.5</ele></trkpt>
      <trkpt lat="35.562722" lon="129.006405"><ele>736.4</ele></trkpt>
      <trkpt lat="35.562580" lon="129.006397"><ele>741.2</ele></trkpt>
      <trkpt lat="35.562345" lon="129.006212"><ele>745.1</ele></trkpt>
      <trkpt lat="35.562050" lon="129.005848"><ele>739.7</ele></trkpt>
      <trkpt lat="35.561788" lon="129.005668"><ele>741.1</ele></trkpt>
      <trkpt lat="35.561273" lon="129.005063"><ele>741.3</ele></trkpt>
      <trkpt lat="35.561073" lon="129.005030"><ele>746.1</ele></trkpt>
      <trkpt lat="35.560752" lon="129.004807"><ele>743.7</ele></trkpt>
      <trkpt lat="35.560466" lon="129.004434"><ele>737.6</ele></trkpt>
      <trkpt lat="35.559887" lon="129.003837"><ele>740.1</ele></trkpt>
      <trkpt lat="35.559665" lon="129.003474"><ele>755.0</ele></trkpt>
      <trkpt lat="35.559345" lon="129.003187"><ele>767.9</ele></trkpt>
      <trkpt lat="35.559216" lon="129.003136"><ele>771.9</ele></trkpt>
      <trkpt lat="35.559121" lon="129.002994"><ele>774.6</ele></trkpt>
      <trkpt lat="35.558819" lon="129.002130"><ele>778.6</ele></trkpt>
      <trkpt lat="35.558661" lon="129.001848"><ele>783.3</ele></trkpt>
      <trkpt lat="35.558659" lon="129.001545"><ele>788.4</ele></trkpt>
      <trkpt lat="35.558581" lon="129.001443"><ele>792.2</ele></trkpt>
      <trkpt lat="35.558527" lon="129.001093"><ele>795.4</ele></trkpt>
      <trkpt lat="35.557983" lon="129.000660"><ele>815.7</ele></trkpt>
      <trkpt lat="35.557580" lon="129.000140"><ele>828.4</ele></trkpt>
      <trkpt lat="35.557248" lon="128.999147"><ele>829.7</ele></trkpt>
      <trkpt lat="35.557027" lon="128.998034"><ele>835.8</ele></trkpt>
      <trkpt lat="35.556905" lon="128.997839"><ele>837.5</ele></trkpt>
      <trkpt lat="35.556826" lon="128.997495"><ele>842.0</ele></trkpt>
      <trkpt lat="35.556634" lon="128.997102"><ele>848.3</ele></trkpt>
      <trkpt lat="35.556645" lon="128.996901"><ele>852.7</ele></trkpt>
      <trkpt lat="35.556538" lon="128.996539"><ele>858.6</ele></trkpt>
      <trkpt lat="35.556534" lon="128.996051"><ele>877.0</ele></trkpt>
      <trkpt lat="35.556314" lon="128.995632"><ele>892.9</ele></trkpt>
      <trkpt lat="35.556170" lon="128.994687"><ele>933.0</ele></trkpt>
      <trkpt lat="35.556079" lon="128.994507"><ele>938.8</ele></trkpt>
      <trkpt lat="35.555870" lon="128.994378"><ele>945.7</ele></trkpt>
      <trkpt lat="35.555711" lon="128.994408"><ele>949.1</ele></trkpt>
      <trkpt lat="35.555498" lon="128.994212"><ele>957.7</ele></trkpt>
      <trkpt lat="35.555101" lon="128.994031"><ele>968.6</ele></trkpt>
      <trkpt lat="35.554719" lon="128.993463"><ele>970.9</ele></trkpt>
      <trkpt lat="35.554717" lon="128.993367"><ele>970.2</ele></trkpt>
      <trkpt lat="35.554634" lon="128.993219"><ele>967.0</ele></trkpt>
      <trkpt lat="35.554622" lon="128.992837"><ele>959.3</ele></trkpt>
      <trkpt lat="35.554081" lon="128.991955"><ele>953.4</ele></trkpt>
      <trkpt lat="35.553999" lon="128.991627"><ele>952.4</ele></trkpt>
      <trkpt lat="35.553991" lon="128.991047"><ele>952.1</ele></trkpt>
      <trkpt lat="35.553880" lon="128.990140"><ele>944.5</ele></trkpt>
      <trkpt lat="35.553593" lon="128.989727"><ele>937.7</ele></trkpt>
      <trkpt lat="35.553486" lon="128.989641"><ele>934.8</ele></trkpt>
      <trkpt lat="35.553433" lon="128.989443"><ele>932.0</ele></trkpt>
      <trkpt lat="35.553320" lon="128.988923"><ele>923.1</ele></trkpt>
      <trkpt lat="35.553358" lon="128.988653"><ele>920.1</ele></trkpt>
      <trkpt lat="35.553347" lon="128.988212"><ele>914.0</ele></trkpt>
      <trkpt lat="35.553319" lon="128.987907"><ele>909.8</ele></trkpt>
      <trkpt lat="35.553240" lon="128.987758"><ele>907.5</ele></trkpt>
      <trkpt lat="35.553272" lon="128.987689"><ele>907.1</ele></trkpt>
      <trkpt lat="35.553099" lon="128.987582"><ele>905.7</ele></trkpt>
      <trkpt lat="35.552888" lon="128.987271"><ele>905.6</ele></trkpt>
      <trkpt lat="35.552669" lon="128.987062"><ele>906.7</ele></trkpt>
      <trkpt lat="35.552582" lon="128.986776"><ele>906.8</ele></trkpt>
      <trkpt lat="35.552560" lon="128.986473"><ele>906.9</ele></trkpt>
      <trkpt lat="35.552180" lon="128.985871"><ele>916.6</ele></trkpt>
      <trkpt lat="35.551837" lon="128.984941"><ele>924.6</ele></trkpt>
      <trkpt lat="35.551773" lon="128.984937"><ele>925.3</ele></trkpt>
      <trkpt lat="35.551680" lon="128.984806"><ele>927.3</ele></trkpt>
      <trkpt lat="35.551371" lon="128.984618"><ele>934.3</ele></trkpt>
      <trkpt lat="35.551181" lon="128.984612"><ele>936.4</ele></trkpt>
      <trkpt lat="35.551070" lon="128.984416"><ele>940.1</ele></trkpt>
      <trkpt lat="35.550797" lon="128.984175"><ele>948.6</ele></trkpt>
      <trkpt lat="35.550627" lon="128.983947"><ele>954.2</ele></trkpt>
      <trkpt lat="35.550500" lon="128.983894"><ele>956.8</ele></trkpt>
      <trkpt lat="35.550331" lon="128.983663"><ele>962.2</ele></trkpt>
      <trkpt lat="35.550120" lon="128.983655"><ele>965.6</ele></trkpt>
      <trkpt lat="35.549894" lon="128.983432"><ele>973.8</ele></trkpt>
      <trkpt lat="35.549673" lon="128.983389"><ele>978.5</ele></trkpt>
      <trkpt lat="35.549556" lon="128.983278"><ele>982.7</ele></trkpt>
      <trkpt lat="35.549377" lon="128.982974"><ele>992.5</ele></trkpt>
      <trkpt lat="35.548859" lon="128.982912"><ele>1005.9</ele></trkpt>
      <trkpt lat="35.548768" lon="128.982869"><ele>1009.4</ele></trkpt>
      <trkpt lat="35.548680" lon="128.982743"><ele>1015.1</ele></trkpt>
      <trkpt lat="35.548431" lon="128.982630"><ele>1023.6</ele></trkpt>
      <trkpt lat="35.548141" lon="128.982238"><ele>1037.1</ele></trkpt>
      <trkpt lat="35.547910" lon="128.982077"><ele>1046.4</ele></trkpt>
      <trkpt lat="35.547771" lon="128.982045"><ele>1051.3</ele></trkpt>
      <trkpt lat="35.547705" lon="128.981879"><ele>1057.5</ele></trkpt>
      <trkpt lat="35.547029" lon="128.981537"><ele>1077.9</ele></trkpt>
      <trkpt lat="35.546833" lon="128.981223"><ele>1088.1</ele></trkpt>
      <trkpt lat="35.546514" lon="128.981019"><ele>1092.5</ele></trkpt>
    </trkseg>
  </trk>
</gpx>
