<?xml version="1.0" encoding="UTF-8"?>
<gpx version="1.1" creator="kr-100-mountains route-harvester"
     xmlns="http://www.topografix.com/GPX/1/1"
     xmlns:k100="https://github.com/jay-jang/kr-100-mountains/ns/1"
     xmlns:xsi="http://www.w3.org/2001/XMLSchema-instance"
     xsi:schemaLocation="http://www.topografix.com/GPX/1/1 http://www.topografix.com/GPX/1/1/gpx.xsd">
  <metadata>
    <name>재약산 · 표충사-재약산 코스 (대안 1) (OSM 계산 경로)</name>
    <desc>실제 GPS 기록이 아닙니다. OpenStreetMap에 등록된 등산로 선형 위에서 계산한 경로이며, 현장 통제·훼손·출입 제한·계절 통제를 반영하지 않을 수 있습니다. 산행 전 공식 안내를 확인하세요.</desc>
    <time>2026-08-04T05:40:37.790Z</time>
    <link href="https://www.openstreetmap.org/copyright"><text>© OpenStreetMap contributors (ODbL 1.0)</text></link>
    <link href="https://registry.opendata.aws/terrain-tiles/"><text>Elevation: SRTM 1 arc-second (NASA/USGS) via AWS Terrain Tiles</text></link>
    <extensions>
      <k100:provenance>osm-routed</k100:provenance>
      <k100:not_a_recorded_track>true</k100:not_a_recorded_track>
      <k100:mountain_id>jaeyaksan</k100:mountain_id>
      <k100:mountain_name>재약산</k100:mountain_name>
      <k100:route_id>jaeyaksan-b7aa45ff</k100:route_id>
      <k100:route_index>1</k100:route_index>
      <k100:route_name>표충사-재약산 코스</k100:route_name>
      <k100:variant>1</k100:variant>
      <k100:source>OpenStreetMap via Overpass API</k100:source>
      <k100:license>ODbL-1.0</k100:license>
      <k100:attribution>© OpenStreetMap contributors</k100:attribution>
      <k100:elevation_source>SRTM 1 arc-second (NASA/USGS) — AWS Terrain Tiles 배포본. 지형 DEM 추정 고도이며 실측 아님</k100:elevation_source>
      <k100:algorithm>dijkstra-grid-v1</k100:algorithm>
      <k100:osm_snapshot>2026-08-04</k100:osm_snapshot>
      <k100:snap_trailhead_m>18</k100:snap_trailhead_m>
      <k100:snap_summit_m>45</k100:snap_summit_m>
      <k100:validation_score>93</k100:validation_score>
      <k100:validation_status>accepted</k100:validation_status>
    </extensions>
  </metadata>
  <trk>
    <name>재약산 · 표충사-재약산 코스 (대안 1) (OSM 계산 경로)</name>
    <desc>실제 GPS 기록이 아닙니다. OpenStreetMap에 등록된 등산로 선형 위에서 계산한 경로이며, 현장 통제·훼손·출입 제한·계절 통제를 반영하지 않을 수 있습니다. 산행 전 공식 안내를 확인하세요.</desc>
    <trkseg>
      <trkpt lat="35.532562" lon="128.959271"><ele>198.0</ele></trkpt>
      <trkpt lat="35.532794" lon="128.959423"><ele>199.8</ele></trkpt>
      <trkpt lat="35.532815" lon="128.959077"><ele>196.9</ele></trkpt>
      <trkpt lat="35.532876" lon="128.958992"><ele>195.5</ele></trkpt>
      <trkpt lat="35.533501" lon="128.959381"><ele>191.6</ele></trkpt>
      <trkpt lat="35.533680" lon="128.959750"><ele>195.1</ele></trkpt>
      <trkpt lat="35.534076" lon="128.959778"><ele>197.5</ele></trkpt>
      <trkpt lat="35.534120" lon="128.960266"><ele>209.2</ele></trkpt>
      <trkpt lat="35.534415" lon="128.960602"><ele>218.7</ele></trkpt>
      <trkpt lat="35.534568" lon="128.961005"><ele>226.6</ele></trkpt>
      <trkpt lat="35.535056" lon="128.961894"><ele>250.8</ele></trkpt>
      <trkpt lat="35.535190" lon="128.962715"><ele>270.6</ele></trkpt>
      <trkpt lat="35.534944" lon="128.963171"><ele>279.5</ele></trkpt>
      <trkpt lat="35.534885" lon="128.963471"><ele>289.6</ele></trkpt>
      <trkpt lat="35.534849" lon="128.963525"><ele>292.5</ele></trkpt>
      <trkpt lat="35.534636" lon="128.963549"><ele>295.5</ele></trkpt>
      <trkpt lat="35.534495" lon="128.963650"><ele>299.3</ele></trkpt>
      <trkpt lat="35.534348" lon="128.963893"><ele>305.8</ele></trkpt>
      <trkpt lat="35.534309" lon="128.964056"><ele>310.5</ele></trkpt>
      <trkpt lat="35.534599" lon="128.964096"><ele>316.1</ele></trkpt>
      <trkpt lat="35.534673" lon="128.964320"><ele>325.6</ele></trkpt>
      <trkpt lat="35.534691" lon="128.964491"><ele>332.6</ele></trkpt>
      <trkpt lat="35.534634" lon="128.964595"><ele>336.3</ele></trkpt>
      <trkpt lat="35.534603" lon="128.965008"><ele>354.7</ele></trkpt>
      <trkpt lat="35.534525" lon="128.965254"><ele>365.3</ele></trkpt>
      <trkpt lat="35.534597" lon="128.965539"><ele>379.0</ele></trkpt>
      <trkpt lat="35.534948" lon="128.965773"><ele>390.4</ele></trkpt>
      <trkpt lat="35.534985" lon="128.965867"><ele>394.9</ele></trkpt>
      <trkpt lat="35.534968" lon="128.966231"><ele>415.3</ele></trkpt>
      <trkpt lat="35.535138" lon="128.966720"><ele>441.3</ele></trkpt>
      <trkpt lat="35.535162" lon="128.967053"><ele>458.0</ele></trkpt>
      <trkpt lat="35.535311" lon="128.967310"><ele>466.9</ele></trkpt>
      <trkpt lat="35.535063" lon="128.967556"><ele>481.8</ele></trkpt>
      <trkpt lat="35.534688" lon="128.968415"><ele>521.7</ele></trkpt>
      <trkpt lat="35.534658" lon="128.969016"><ele>545.8</ele></trkpt>
      <trkpt lat="35.534492" lon="128.969595"><ele>578.0</ele></trkpt>
      <trkpt lat="35.534453" lon="128.970013"><ele>595.4</ele></trkpt>
      <trkpt lat="35.534135" lon="128.970491"><ele>616.0</ele></trkpt>
      <trkpt lat="35.534217" lon="128.970754"><ele>625.0</ele></trkpt>
      <trkpt lat="35.534195" lon="128.970984"><ele>631.5</ele></trkpt>
      <trkpt lat="35.534276" lon="128.971172"><ele>638.1</ele></trkpt>
      <trkpt lat="35.534304" lon="128.971540"><ele>653.5</ele></trkpt>
      <trkpt lat="35.534479" lon="128.971935"><ele>675.8</ele></trkpt>
      <trkpt lat="35.534481" lon="128.972207"><ele>688.6</ele></trkpt>
      <trkpt lat="35.534644" lon="128.972906"><ele>724.6</ele></trkpt>
      <trkpt lat="35.535060" lon="128.973400"><ele>742.4</ele></trkpt>
      <trkpt lat="35.535273" lon="128.973732"><ele>758.3</ele></trkpt>
      <trkpt lat="35.535859" lon="128.974281"><ele>787.1</ele></trkpt>
      <trkpt lat="35.535933" lon="128.974525"><ele>794.9</ele></trkpt>
      <trkpt lat="35.536138" lon="128.974841"><ele>816.6</ele></trkpt>
      <trkpt lat="35.536234" lon="128.975108"><ele>838.3</ele></trkpt>
      <trkpt lat="35.536094" lon="128.975234"><ele>834.4</ele></trkpt>
      <trkpt lat="35.536195" lon="128.975297"><ele>845.4</ele></trkpt>
      <trkpt lat="35.536281" lon="128.975837"><ele>857.7</ele></trkpt>
      <trkpt lat="35.536459" lon="128.975850"><ele>868.8</ele></trkpt>
      <trkpt lat="35.536585" lon="128.975740"><ele>870.7</ele></trkpt>
      <trkpt lat="35.536691" lon="128.975984"><ele>876.7</ele></trkpt>
      <trkpt lat="35.536756" lon="128.976389"><ele>889.6</ele></trkpt>
      <trkpt lat="35.536723" lon="128.976511"><ele>890.9</ele></trkpt>
      <trkpt lat="35.536808" lon="128.976526"><ele>895.5</ele></trkpt>
      <trkpt lat="35.536817" lon="128.976634"><ele>899.3</ele></trkpt>
      <trkpt lat="35.537093" lon="128.976702"><ele>909.7</ele></trkpt>
      <trkpt lat="35.537323" lon="128.976887"><ele>913.4</ele></trkpt>
      <trkpt lat="35.537404" lon="128.976971"><ele>915.4</ele></trkpt>
      <trkpt lat="35.537465" lon="128.977153"><ele>917.0</ele></trkpt>
      <trkpt lat="35.537644" lon="128.977294"><ele>920.0</ele></trkpt>
      <trkpt lat="35.538532" lon="128.977249"><ele>914.8</ele></trkpt>
      <trkpt lat="35.538677" lon="128.977306"><ele>912.2</ele></trkpt>
      <trkpt lat="35.538860" lon="128.977664"><ele>921.5</ele></trkpt>
      <trkpt lat="35.538998" lon="128.977676"><ele>921.3</ele></trkpt>
      <trkpt lat="35.539151" lon="128.977883"><ele>923.4</ele></trkpt>
      <trkpt lat="35.539589" lon="128.978280"><ele>922.6</ele></trkpt>
      <trkpt lat="35.539951" lon="128.978507"><ele>927.9</ele></trkpt>
      <trkpt lat="35.540036" lon="128.978693"><ele>931.4</ele></trkpt>
      <trkpt lat="35.540753" lon="128.979118"><ele>942.0</ele></trkpt>
      <trkpt lat="35.541425" lon="128.979262"><ele>951.8</ele></trkpt>
      <trkpt lat="35.541815" lon="128.979379"><ele>968.0</ele></trkpt>
      <trkpt lat="35.542178" lon="128.979574"><ele>984.2</ele></trkpt>
      <trkpt lat="35.542811" lon="128.979712"><ele>1013.1</ele></trkpt>
      <trkpt lat="35.542910" lon="128.979838"><ele>1016.8</ele></trkpt>
      <trkpt lat="35.543124" lon="128.979895"><ele>1024.1</ele></trkpt>
      <trkpt lat="35.543330" lon="128.980030"><ele>1031.6</ele></trkpt>
      <trkpt lat="35.543712" lon="128.980436"><ele>1042.7</ele></trkpt>
      <trkpt lat="35.543974" lon="128.980585"><ele>1054.9</ele></trkpt>
      <trkpt lat="35.544154" lon="128.980591"><ele>1062.5</ele></trkpt>
      <trkpt lat="35.544418" lon="128.980789"><ele>1072.8</ele></trkpt>
      <trkpt lat="35.544878" lon="128.980869"><ele>1087.8</ele></trkpt>
      <trkpt lat="35.545010" lon="128.980796"><ele>1091.2</ele></trkpt>
      <trkpt lat="35.545077" lon="128.980603"><ele>1092.8</ele></trkpt>
      <trkpt lat="35.545187" lon="128.980589"><ele>1095.6</ele></trkpt>
      <trkpt lat="35.545240" lon="128.980673"><ele>1096.3</ele></trkpt>
      <trkpt lat="35.545829" lon="128.980706"><ele>1093.2</ele></trkpt>
      <trkpt lat="35.545838" lon="128.980764"><ele>1094.0</ele></trkpt>
      <trkpt lat="35.546349" lon="128.981044"><ele>1093.8</ele></trkpt>
      <trkpt lat="35.546514" lon="128.981019"><ele>1092.5</ele></trkpt>
    </trkseg>
  </trk>
</gpx>
