<?xml version="1.0" encoding="UTF-8"?>
<gpx version="1.1" creator="kr-100-mountains route-harvester"
     xmlns="http://www.topografix.com/GPX/1/1"
     xmlns:k100="https://github.com/jay-jang/kr-100-mountains/ns/1"
     xmlns:xsi="http://www.w3.org/2001/XMLSchema-instance"
     xsi:schemaLocation="http://www.topografix.com/GPX/1/1 http://www.topografix.com/GPX/1/1/gpx.xsd">
  <metadata>
    <name>용봉산 · 용봉초교-용봉산 정상 코스 (대안 2) (OSM 계산 경로)</name>
    <desc>실제 GPS 기록이 아닙니다. OpenStreetMap에 등록된 등산로 선형 위에서 계산한 경로이며, 현장 통제·훼손·출입 제한·계절 통제를 반영하지 않을 수 있습니다. 산행 전 공식 안내를 확인하세요.</desc>
    <time>2026-08-04T05:29:50.824Z</time>
    <link href="https://www.openstreetmap.org/copyright"><text>© OpenStreetMap contributors (ODbL 1.0)</text></link>
    <link href="https://registry.opendata.aws/terrain-tiles/"><text>Elevation: SRTM 1 arc-second (NASA/USGS) via AWS Terrain Tiles</text></link>
    <extensions>
      <k100:provenance>osm-routed</k100:provenance>
      <k100:not_a_recorded_track>true</k100:not_a_recorded_track>
      <k100:mountain_id>yongbongsan-hongseong</k100:mountain_id>
      <k100:mountain_name>용봉산(홍성)</k100:mountain_name>
      <k100:route_id>yongbongsan-hongseong-9cb32c0f</k100:route_id>
      <k100:route_index>1</k100:route_index>
      <k100:route_name>용봉초교-용봉산 정상 코스</k100:route_name>
      <k100:variant>2</k100:variant>
      <k100:source>OpenStreetMap via Overpass API</k100:source>
      <k100:license>ODbL-1.0</k100:license>
      <k100:attribution>© OpenStreetMap contributors</k100:attribution>
      <k100:elevation_source>SRTM 1 arc-second (NASA/USGS) — AWS Terrain Tiles 배포본. 지형 DEM 추정 고도이며 실측 아님</k100:elevation_source>
      <k100:algorithm>dijkstra-grid-v1</k100:algorithm>
      <k100:osm_snapshot>2026-08-04</k100:osm_snapshot>
      <k100:snap_trailhead_m>18</k100:snap_trailhead_m>
      <k100:snap_summit_m>26</k100:snap_summit_m>
      <k100:validation_score>100</k100:validation_score>
      <k100:validation_status>accepted</k100:validation_status>
    </extensions>
  </metadata>
  <trk>
    <name>용봉산 · 용봉초교-용봉산 정상 코스 (대안 2) (OSM 계산 경로)</name>
    <desc>실제 GPS 기록이 아닙니다. OpenStreetMap에 등록된 등산로 선형 위에서 계산한 경로이며, 현장 통제·훼손·출입 제한·계절 통제를 반영하지 않을 수 있습니다. 산행 전 공식 안내를 확인하세요.</desc>
    <trkseg>
      <trkpt lat="36.633504" lon="126.666592"><ele>45.2</ele></trkpt>
      <trkpt lat="36.633024" lon="126.665429"><ele>38.9</ele></trkpt>
      <trkpt lat="36.633026" lon="126.665281"><ele>37.7</ele></trkpt>
      <trkpt lat="36.630933" lon="126.665040"><ele>35.0</ele></trkpt>
      <trkpt lat="36.630943" lon="126.664905"><ele>34.4</ele></trkpt>
      <trkpt lat="36.628686" lon="126.664514"><ele>31.3</ele></trkpt>
      <trkpt lat="36.628557" lon="126.665281"><ele>32.2</ele></trkpt>
      <trkpt lat="36.627790" lon="126.664974"><ele>34.8</ele></trkpt>
      <trkpt lat="36.627411" lon="126.664923"><ele>33.7</ele></trkpt>
      <trkpt lat="36.627104" lon="126.664979"><ele>35.1</ele></trkpt>
      <trkpt lat="36.626249" lon="126.665315"><ele>46.5</ele></trkpt>
      <trkpt lat="36.625395" lon="126.665768"><ele>32.9</ele></trkpt>
      <trkpt lat="36.623796" lon="126.667048"><ele>37.1</ele></trkpt>
      <trkpt lat="36.623457" lon="126.667468"><ele>36.1</ele></trkpt>
      <trkpt lat="36.622327" lon="126.668441"><ele>31.8</ele></trkpt>
      <trkpt lat="36.622530" lon="126.668802"><ele>29.9</ele></trkpt>
      <trkpt lat="36.622565" lon="126.669000"><ele>28.6</ele></trkpt>
      <trkpt lat="36.622494" lon="126.669044"><ele>28.4</ele></trkpt>
      <trkpt lat="36.622107" lon="126.669005"><ele>28.8</ele></trkpt>
      <trkpt lat="36.621893" lon="126.669062"><ele>29.1</ele></trkpt>
      <trkpt lat="36.621031" lon="126.669558"><ele>28.8</ele></trkpt>
      <trkpt lat="36.620622" lon="126.669926"><ele>28.4</ele></trkpt>
      <trkpt lat="36.620319" lon="126.670727"><ele>25.5</ele></trkpt>
      <trkpt lat="36.620111" lon="126.671048"><ele>29.0</ele></trkpt>
      <trkpt lat="36.619722" lon="126.671423"><ele>30.6</ele></trkpt>
    </trkseg>
  </trk>
</gpx>
