<?xml version="1.0" encoding="UTF-8"?>
<gpx version="1.1" creator="kr-100-mountains route-harvester"
     xmlns="http://www.topografix.com/GPX/1/1"
     xmlns:k100="https://github.com/jay-jang/kr-100-mountains/ns/1"
     xmlns:xsi="http://www.w3.org/2001/XMLSchema-instance"
     xsi:schemaLocation="http://www.topografix.com/GPX/1/1 http://www.topografix.com/GPX/1/1/gpx.xsd">
  <metadata>
    <name>용봉산 · 용봉사-병풍바위 코스 (대안 2) (OSM 계산 경로)</name>
    <desc>실제 GPS 기록이 아닙니다. OpenStreetMap에 등록된 등산로 선형 위에서 계산한 경로이며, 현장 통제·훼손·출입 제한·계절 통제를 반영하지 않을 수 있습니다. 산행 전 공식 안내를 확인하세요.</desc>
    <time>2026-08-04T05:29:50.866Z</time>
    <link href="https://www.openstreetmap.org/copyright"><text>© OpenStreetMap contributors (ODbL 1.0)</text></link>
    <link href="https://registry.opendata.aws/terrain-tiles/"><text>Elevation: SRTM 1 arc-second (NASA/USGS) via AWS Terrain Tiles</text></link>
    <extensions>
      <k100:provenance>osm-routed</k100:provenance>
      <k100:not_a_recorded_track>true</k100:not_a_recorded_track>
      <k100:mountain_id>yongbongsan-hongseong</k100:mountain_id>
      <k100:mountain_name>용봉산(홍성)</k100:mountain_name>
      <k100:route_id>yongbongsan-hongseong-81cda6bc</k100:route_id>
      <k100:route_index>2</k100:route_index>
      <k100:route_name>용봉사-병풍바위 코스</k100:route_name>
      <k100:variant>2</k100:variant>
      <k100:source>OpenStreetMap via Overpass API</k100:source>
      <k100:license>ODbL-1.0</k100:license>
      <k100:attribution>© OpenStreetMap contributors</k100:attribution>
      <k100:elevation_source>SRTM 1 arc-second (NASA/USGS) — AWS Terrain Tiles 배포본. 지형 DEM 추정 고도이며 실측 아님</k100:elevation_source>
      <k100:algorithm>dijkstra-grid-v1</k100:algorithm>
      <k100:osm_snapshot>2026-08-04</k100:osm_snapshot>
      <k100:snap_trailhead_m>119</k100:snap_trailhead_m>
      <k100:snap_summit_m>26</k100:snap_summit_m>
      <k100:validation_score>93</k100:validation_score>
      <k100:validation_status>accepted</k100:validation_status>
    </extensions>
  </metadata>
  <trk>
    <name>용봉산 · 용봉사-병풍바위 코스 (대안 2) (OSM 계산 경로)</name>
    <desc>실제 GPS 기록이 아닙니다. OpenStreetMap에 등록된 등산로 선형 위에서 계산한 경로이며, 현장 통제·훼손·출입 제한·계절 통제를 반영하지 않을 수 있습니다. 산행 전 공식 안내를 확인하세요.</desc>
    <trkseg>
      <trkpt lat="36.642952" lon="126.671411"><ele>59.6</ele></trkpt>
      <trkpt lat="36.642943" lon="126.664448"><ele>53.2</ele></trkpt>
      <trkpt lat="36.643026" lon="126.663811"><ele>54.4</ele></trkpt>
      <trkpt lat="36.643151" lon="126.663533"><ele>56.0</ele></trkpt>
      <trkpt lat="36.642920" lon="126.663478"><ele>55.7</ele></trkpt>
      <trkpt lat="36.640899" lon="126.663915"><ele>44.2</ele></trkpt>
      <trkpt lat="36.640893" lon="126.663784"><ele>43.5</ele></trkpt>
      <trkpt lat="36.640833" lon="126.663753"><ele>43.5</ele></trkpt>
      <trkpt lat="36.638127" lon="126.663067"><ele>40.8</ele></trkpt>
      <trkpt lat="36.636809" lon="126.663361"><ele>38.4</ele></trkpt>
      <trkpt lat="36.636730" lon="126.663241"><ele>39.1</ele></trkpt>
      <trkpt lat="36.637403" lon="126.662521"><ele>42.3</ele></trkpt>
      <trkpt lat="36.636910" lon="126.661784"><ele>41.5</ele></trkpt>
      <trkpt lat="36.635127" lon="126.663603"><ele>36.4</ele></trkpt>
      <trkpt lat="36.632281" lon="126.663402"><ele>32.8</ele></trkpt>
      <trkpt lat="36.632289" lon="126.663323"><ele>33.0</ele></trkpt>
      <trkpt lat="36.632007" lon="126.663232"><ele>32.6</ele></trkpt>
      <trkpt lat="36.629040" lon="126.662443"><ele>31.6</ele></trkpt>
      <trkpt lat="36.628856" lon="126.663651"><ele>28.3</ele></trkpt>
      <trkpt lat="36.628871" lon="126.664086"><ele>30.6</ele></trkpt>
      <trkpt lat="36.628708" lon="126.664396"><ele>30.8</ele></trkpt>
      <trkpt lat="36.628557" lon="126.665281"><ele>32.2</ele></trkpt>
      <trkpt lat="36.627790" lon="126.664974"><ele>34.8</ele></trkpt>
      <trkpt lat="36.627411" lon="126.664923"><ele>33.7</ele></trkpt>
      <trkpt lat="36.627104" lon="126.664979"><ele>35.1</ele></trkpt>
      <trkpt lat="36.626249" lon="126.665315"><ele>46.5</ele></trkpt>
      <trkpt lat="36.625395" lon="126.665768"><ele>32.9</ele></trkpt>
      <trkpt lat="36.623796" lon="126.667048"><ele>37.1</ele></trkpt>
      <trkpt lat="36.623457" lon="126.667468"><ele>36.1</ele></trkpt>
      <trkpt lat="36.622327" lon="126.668441"><ele>31.8</ele></trkpt>
      <trkpt lat="36.622530" lon="126.668802"><ele>29.9</ele></trkpt>
      <trkpt lat="36.622565" lon="126.669000"><ele>28.6</ele></trkpt>
      <trkpt lat="36.622494" lon="126.669044"><ele>28.4</ele></trkpt>
      <trkpt lat="36.622107" lon="126.669005"><ele>28.8</ele></trkpt>
      <trkpt lat="36.621893" lon="126.669062"><ele>29.1</ele></trkpt>
      <trkpt lat="36.621031" lon="126.669558"><ele>28.8</ele></trkpt>
      <trkpt lat="36.620719" lon="126.669827"><ele>28.6</ele></trkpt>
      <trkpt lat="36.620566" lon="126.670051"><ele>27.6</ele></trkpt>
      <trkpt lat="36.620319" lon="126.670727"><ele>25.5</ele></trkpt>
      <trkpt lat="36.620111" lon="126.671048"><ele>29.0</ele></trkpt>
      <trkpt lat="36.619722" lon="126.671423"><ele>30.6</ele></trkpt>
    </trkseg>
  </trk>
</gpx>
