<?xml version="1.0" encoding="UTF-8"?>
<gpx version="1.1" creator="kr-100-mountains route-harvester"
     xmlns="http://www.topografix.com/GPX/1/1"
     xmlns:k100="https://github.com/jay-jang/kr-100-mountains/ns/1"
     xmlns:xsi="http://www.w3.org/2001/XMLSchema-instance"
     xsi:schemaLocation="http://www.topografix.com/GPX/1/1 http://www.topografix.com/GPX/1/1/gpx.xsd">
  <metadata>
    <name>백운산 · 무령고개-영취산-백운산 코스 (OSM 계산 경로)</name>
    <desc>실제 GPS 기록이 아닙니다. OpenStreetMap에 등록된 등산로 선형 위에서 계산한 경로이며, 현장 통제·훼손·출입 제한·계절 통제를 반영하지 않을 수 있습니다. 산행 전 공식 안내를 확인하세요.</desc>
    <time>2026-08-04T05:30:20.705Z</time>
    <link href="https://www.openstreetmap.org/copyright"><text>© OpenStreetMap contributors (ODbL 1.0)</text></link>
    <link href="https://registry.opendata.aws/terrain-tiles/"><text>Elevation: SRTM 1 arc-second (NASA/USGS) via AWS Terrain Tiles</text></link>
    <extensions>
      <k100:provenance>osm-routed</k100:provenance>
      <k100:not_a_recorded_track>true</k100:not_a_recorded_track>
      <k100:mountain_id>baekunsan-jangsu</k100:mountain_id>
      <k100:mountain_name>백운산(장수)</k100:mountain_name>
      <k100:route_id>baekunsan-jangsu-ae34a210</k100:route_id>
      <k100:route_index>1</k100:route_index>
      <k100:route_name>무령고개-영취산-백운산 코스</k100:route_name>
      <k100:variant>0</k100:variant>
      <k100:source>OpenStreetMap via Overpass API</k100:source>
      <k100:license>ODbL-1.0</k100:license>
      <k100:attribution>© OpenStreetMap contributors</k100:attribution>
      <k100:elevation_source>SRTM 1 arc-second (NASA/USGS) — AWS Terrain Tiles 배포본. 지형 DEM 추정 고도이며 실측 아님</k100:elevation_source>
      <k100:algorithm>dijkstra-grid-v1</k100:algorithm>
      <k100:osm_snapshot>2026-08-04</k100:osm_snapshot>
      <k100:snap_trailhead_m>78</k100:snap_trailhead_m>
      <k100:snap_summit_m>13</k100:snap_summit_m>
      <k100:validation_score>100</k100:validation_score>
      <k100:validation_status>accepted</k100:validation_status>
    </extensions>
  </metadata>
  <trk>
    <name>백운산 · 무령고개-영취산-백운산 코스 (OSM 계산 경로)</name>
    <desc>실제 GPS 기록이 아닙니다. OpenStreetMap에 등록된 등산로 선형 위에서 계산한 경로이며, 현장 통제·훼손·출입 제한·계절 통제를 반영하지 않을 수 있습니다. 산행 전 공식 안내를 확인하세요.</desc>
    <trkseg>
      <trkpt lat="35.642741" lon="127.618358"><ele>1008.0</ele></trkpt>
      <trkpt lat="35.642654" lon="127.618873"><ele>1025.3</ele></trkpt>
      <trkpt lat="35.642689" lon="127.618996"><ele>1032.0</ele></trkpt>
      <trkpt lat="35.642637" lon="127.619466"><ele>1048.2</ele></trkpt>
      <trkpt lat="35.642571" lon="127.619647"><ele>1053.6</ele></trkpt>
      <trkpt lat="35.642698" lon="127.620008"><ele>1060.2</ele></trkpt>
      <trkpt lat="35.642628" lon="127.620059"><ele>1058.8</ele></trkpt>
      <trkpt lat="35.642264" lon="127.620109"><ele>1057.1</ele></trkpt>
      <trkpt lat="35.642060" lon="127.620256"><ele>1058.1</ele></trkpt>
      <trkpt lat="35.641819" lon="127.620308"><ele>1058.7</ele></trkpt>
      <trkpt lat="35.641598" lon="127.620446"><ele>1056.1</ele></trkpt>
      <trkpt lat="35.641215" lon="127.620857"><ele>1046.2</ele></trkpt>
      <trkpt lat="35.640797" lon="127.621156"><ele>1037.3</ele></trkpt>
      <trkpt lat="35.640564" lon="127.621203"><ele>1039.2</ele></trkpt>
      <trkpt lat="35.640006" lon="127.621774"><ele>1028.8</ele></trkpt>
      <trkpt lat="35.639751" lon="127.622421"><ele>1028.6</ele></trkpt>
      <trkpt lat="35.639770" lon="127.622858"><ele>1039.1</ele></trkpt>
      <trkpt lat="35.639463" lon="127.623340"><ele>1047.6</ele></trkpt>
      <trkpt lat="35.638423" lon="127.624014"><ele>1063.7</ele></trkpt>
      <trkpt lat="35.638117" lon="127.624418"><ele>1074.8</ele></trkpt>
      <trkpt lat="35.637587" lon="127.624647"><ele>1068.6</ele></trkpt>
      <trkpt lat="35.636510" lon="127.624653"><ele>1055.1</ele></trkpt>
      <trkpt lat="35.635966" lon="127.624798"><ele>1051.8</ele></trkpt>
      <trkpt lat="35.635653" lon="127.624826"><ele>1054.5</ele></trkpt>
      <trkpt lat="35.634947" lon="127.624676"><ele>1064.9</ele></trkpt>
      <trkpt lat="35.634610" lon="127.624483"><ele>1065.0</ele></trkpt>
      <trkpt lat="35.633870" lon="127.624559"><ele>1071.5</ele></trkpt>
      <trkpt lat="35.633485" lon="127.624260"><ele>1074.4</ele></trkpt>
      <trkpt lat="35.633121" lon="127.624082"><ele>1069.4</ele></trkpt>
      <trkpt lat="35.632795" lon="127.624002"><ele>1068.5</ele></trkpt>
      <trkpt lat="35.632589" lon="127.624023"><ele>1069.2</ele></trkpt>
      <trkpt lat="35.632251" lon="127.624085"><ele>1071.8</ele></trkpt>
      <trkpt lat="35.631783" lon="127.624539"><ele>1072.4</ele></trkpt>
      <trkpt lat="35.631694" lon="127.624739"><ele>1069.9</ele></trkpt>
      <trkpt lat="35.631394" lon="127.624892"><ele>1063.5</ele></trkpt>
      <trkpt lat="35.630676" lon="127.625087"><ele>1072.7</ele></trkpt>
      <trkpt lat="35.630392" lon="127.625409"><ele>1072.6</ele></trkpt>
      <trkpt lat="35.629984" lon="127.625379"><ele>1072.8</ele></trkpt>
      <trkpt lat="35.629616" lon="127.625430"><ele>1071.3</ele></trkpt>
      <trkpt lat="35.629335" lon="127.625632"><ele>1066.2</ele></trkpt>
      <trkpt lat="35.629149" lon="127.626086"><ele>1062.3</ele></trkpt>
      <trkpt lat="35.628802" lon="127.626407"><ele>1066.3</ele></trkpt>
      <trkpt lat="35.628047" lon="127.626800"><ele>1089.1</ele></trkpt>
      <trkpt lat="35.627784" lon="127.626815"><ele>1089.5</ele></trkpt>
      <trkpt lat="35.627266" lon="127.627028"><ele>1103.8</ele></trkpt>
      <trkpt lat="35.626452" lon="127.628079"><ele>1120.6</ele></trkpt>
      <trkpt lat="35.626231" lon="127.628126"><ele>1119.3</ele></trkpt>
      <trkpt lat="35.625753" lon="127.628083"><ele>1119.5</ele></trkpt>
      <trkpt lat="35.625589" lon="127.628155"><ele>1120.6</ele></trkpt>
      <trkpt lat="35.625303" lon="127.628369"><ele>1124.7</ele></trkpt>
      <trkpt lat="35.625072" lon="127.628652"><ele>1128.7</ele></trkpt>
      <trkpt lat="35.624788" lon="127.628857"><ele>1136.0</ele></trkpt>
      <trkpt lat="35.624748" lon="127.629180"><ele>1132.7</ele></trkpt>
      <trkpt lat="35.624407" lon="127.630100"><ele>1130.4</ele></trkpt>
      <trkpt lat="35.623817" lon="127.630630"><ele>1130.5</ele></trkpt>
      <trkpt lat="35.623683" lon="127.630950"><ele>1132.0</ele></trkpt>
      <trkpt lat="35.623114" lon="127.631864"><ele>1148.3</ele></trkpt>
      <trkpt lat="35.622882" lon="127.632097"><ele>1147.5</ele></trkpt>
      <trkpt lat="35.622509" lon="127.632278"><ele>1143.3</ele></trkpt>
      <trkpt lat="35.622268" lon="127.632469"><ele>1147.8</ele></trkpt>
      <trkpt lat="35.622088" lon="127.632667"><ele>1151.7</ele></trkpt>
      <trkpt lat="35.621881" lon="127.633071"><ele>1153.8</ele></trkpt>
      <trkpt lat="35.621172" lon="127.633410"><ele>1173.0</ele></trkpt>
      <trkpt lat="35.621013" lon="127.633522"><ele>1177.5</ele></trkpt>
      <trkpt lat="35.620858" lon="127.633767"><ele>1182.4</ele></trkpt>
      <trkpt lat="35.620479" lon="127.633883"><ele>1194.2</ele></trkpt>
      <trkpt lat="35.620225" lon="127.634029"><ele>1198.3</ele></trkpt>
      <trkpt lat="35.620129" lon="127.634273"><ele>1203.6</ele></trkpt>
      <trkpt lat="35.620008" lon="127.634401"><ele>1211.4</ele></trkpt>
      <trkpt lat="35.619068" lon="127.634849"><ele>1247.1</ele></trkpt>
      <trkpt lat="35.618499" lon="127.635360"><ele>1261.6</ele></trkpt>
      <trkpt lat="35.618284" lon="127.635197"><ele>1262.2</ele></trkpt>
    </trkseg>
  </trk>
</gpx>
