<?xml version="1.0" encoding="UTF-8"?>
<gpx version="1.1" creator="kr-100-mountains route-harvester"
     xmlns="http://www.topografix.com/GPX/1/1"
     xmlns:k100="https://github.com/jay-jang/kr-100-mountains/ns/1"
     xmlns:xsi="http://www.w3.org/2001/XMLSchema-instance"
     xsi:schemaLocation="http://www.topografix.com/GPX/1/1 http://www.topografix.com/GPX/1/1/gpx.xsd">
  <metadata>
    <name>금산 · 두모마을(두모탐방로) 코스 (OSM 계산 경로)</name>
    <desc>실제 GPS 기록이 아닙니다. OpenStreetMap에 등록된 등산로 선형 위에서 계산한 경로이며, 현장 통제·훼손·출입 제한·계절 통제를 반영하지 않을 수 있습니다. 산행 전 공식 안내를 확인하세요.</desc>
    <time>2026-08-04T05:47:06.777Z</time>
    <link href="https://www.openstreetmap.org/copyright"><text>© OpenStreetMap contributors (ODbL 1.0)</text></link>
    <link href="https://registry.opendata.aws/terrain-tiles/"><text>Elevation: SRTM 1 arc-second (NASA/USGS) via AWS Terrain Tiles</text></link>
    <extensions>
      <k100:provenance>osm-routed</k100:provenance>
      <k100:not_a_recorded_track>true</k100:not_a_recorded_track>
      <k100:mountain_id>geumsan</k100:mountain_id>
      <k100:mountain_name>금산</k100:mountain_name>
      <k100:route_id>geumsan-8006b577</k100:route_id>
      <k100:route_index>2</k100:route_index>
      <k100:route_name>두모마을(두모탐방로) 코스</k100:route_name>
      <k100:variant>0</k100:variant>
      <k100:source>OpenStreetMap via Overpass API</k100:source>
      <k100:license>ODbL-1.0</k100:license>
      <k100:attribution>© OpenStreetMap contributors</k100:attribution>
      <k100:elevation_source>SRTM 1 arc-second (NASA/USGS) — AWS Terrain Tiles 배포본. 지형 DEM 추정 고도이며 실측 아님</k100:elevation_source>
      <k100:algorithm>dijkstra-grid-v1</k100:algorithm>
      <k100:osm_snapshot>2026-08-04</k100:osm_snapshot>
      <k100:snap_trailhead_m>20</k100:snap_trailhead_m>
      <k100:snap_summit_m>91</k100:snap_summit_m>
      <k100:validation_score>75</k100:validation_score>
      <k100:validation_status>review</k100:validation_status>
    </extensions>
  </metadata>
  <trk>
    <name>금산 · 두모마을(두모탐방로) 코스 (OSM 계산 경로)</name>
    <desc>실제 GPS 기록이 아닙니다. OpenStreetMap에 등록된 등산로 선형 위에서 계산한 경로이며, 현장 통제·훼손·출입 제한·계절 통제를 반영하지 않을 수 있습니다. 산행 전 공식 안내를 확인하세요.</desc>
    <trkseg>
      <trkpt lat="34.723900" lon="128.012313"><ele>6.0</ele></trkpt>
      <trkpt lat="34.724079" lon="128.012625"><ele>6.8</ele></trkpt>
      <trkpt lat="34.724207" lon="128.013060"><ele>8.0</ele></trkpt>
      <trkpt lat="34.724319" lon="128.013759"><ele>11.2</ele></trkpt>
      <trkpt lat="34.724515" lon="128.013755"><ele>11.0</ele></trkpt>
      <trkpt lat="34.725048" lon="128.013481"><ele>10.4</ele></trkpt>
      <trkpt lat="34.725145" lon="128.013339"><ele>9.6</ele></trkpt>
      <trkpt lat="34.725753" lon="128.012957"><ele>12.9</ele></trkpt>
      <trkpt lat="34.726124" lon="128.012831"><ele>15.6</ele></trkpt>
      <trkpt lat="34.726643" lon="128.012849"><ele>24.5</ele></trkpt>
      <trkpt lat="34.727221" lon="128.012761"><ele>22.8</ele></trkpt>
      <trkpt lat="34.727630" lon="128.012863"><ele>29.6</ele></trkpt>
      <trkpt lat="34.728265" lon="128.012729"><ele>34.0</ele></trkpt>
      <trkpt lat="34.728657" lon="128.012718"><ele>31.7</ele></trkpt>
      <trkpt lat="34.728794" lon="128.012793"><ele>33.5</ele></trkpt>
      <trkpt lat="34.729090" lon="128.013137"><ele>36.4</ele></trkpt>
      <trkpt lat="34.729433" lon="128.013405"><ele>37.1</ele></trkpt>
      <trkpt lat="34.729923" lon="128.013480"><ele>36.2</ele></trkpt>
      <trkpt lat="34.730888" lon="128.013812"><ele>41.5</ele></trkpt>
      <trkpt lat="34.731994" lon="128.014563"><ele>50.0</ele></trkpt>
      <trkpt lat="34.732275" lon="128.014656"><ele>50.5</ele></trkpt>
      <trkpt lat="34.732332" lon="128.014691"><ele>51.1</ele></trkpt>
      <trkpt lat="34.732461" lon="128.015041"><ele>56.5</ele></trkpt>
      <trkpt lat="34.732617" lon="128.015209"><ele>61.0</ele></trkpt>
      <trkpt lat="34.732956" lon="128.015335"><ele>66.5</ele></trkpt>
      <trkpt lat="34.733417" lon="128.015040"><ele>67.0</ele></trkpt>
      <trkpt lat="34.733460" lon="128.015107"><ele>68.5</ele></trkpt>
      <trkpt lat="34.733416" lon="128.015317"><ele>70.9</ele></trkpt>
      <trkpt lat="34.733134" lon="128.015539"><ele>73.2</ele></trkpt>
      <trkpt lat="34.733050" lon="128.015750"><ele>79.3</ele></trkpt>
      <trkpt lat="34.732900" lon="128.015777"><ele>78.7</ele></trkpt>
      <trkpt lat="34.732715" lon="128.015689"><ele>74.4</ele></trkpt>
      <trkpt lat="34.732636" lon="128.015758"><ele>75.1</ele></trkpt>
      <trkpt lat="34.732389" lon="128.016439"><ele>86.0</ele></trkpt>
      <trkpt lat="34.732316" lon="128.017067"><ele>97.3</ele></trkpt>
      <trkpt lat="34.732118" lon="128.017378"><ele>98.0</ele></trkpt>
      <trkpt lat="34.732109" lon="128.017480"><ele>99.3</ele></trkpt>
      <trkpt lat="34.732157" lon="128.017496"><ele>100.5</ele></trkpt>
      <trkpt lat="34.732461" lon="128.017212"><ele>105.5</ele></trkpt>
      <trkpt lat="34.732519" lon="128.017110"><ele>105.1</ele></trkpt>
      <trkpt lat="34.732556" lon="128.016788"><ele>99.7</ele></trkpt>
      <trkpt lat="34.732733" lon="128.016571"><ele>98.3</ele></trkpt>
      <trkpt lat="34.732856" lon="128.016624"><ele>101.5</ele></trkpt>
      <trkpt lat="34.732931" lon="128.016807"><ele>108.2</ele></trkpt>
      <trkpt lat="34.733105" lon="128.017035"><ele>118.2</ele></trkpt>
      <trkpt lat="34.733176" lon="128.017056"><ele>120.1</ele></trkpt>
      <trkpt lat="34.733272" lon="128.016997"><ele>119.9</ele></trkpt>
      <trkpt lat="34.733416" lon="128.016716"><ele>114.3</ele></trkpt>
      <trkpt lat="34.733553" lon="128.016625"><ele>112.5</ele></trkpt>
      <trkpt lat="34.733636" lon="128.016630"><ele>113.5</ele></trkpt>
      <trkpt lat="34.734013" lon="128.016861"><ele>131.2</ele></trkpt>
      <trkpt lat="34.734128" lon="128.016759"><ele>131.3</ele></trkpt>
      <trkpt lat="34.734182" lon="128.016354"><ele>120.1</ele></trkpt>
      <trkpt lat="34.734245" lon="128.016190"><ele>119.3</ele></trkpt>
      <trkpt lat="34.734342" lon="128.016085"><ele>120.7</ele></trkpt>
      <trkpt lat="34.734586" lon="128.016024"><ele>125.4</ele></trkpt>
      <trkpt lat="34.734692" lon="128.016013"><ele>127.0</ele></trkpt>
      <trkpt lat="34.734811" lon="128.016077"><ele>128.7</ele></trkpt>
      <trkpt lat="34.735243" lon="128.016694"><ele>139.0</ele></trkpt>
      <trkpt lat="34.735550" lon="128.017509"><ele>154.5</ele></trkpt>
      <trkpt lat="34.735625" lon="128.017590"><ele>156.0</ele></trkpt>
      <trkpt lat="34.735792" lon="128.017574"><ele>154.2</ele></trkpt>
      <trkpt lat="34.735946" lon="128.017442"><ele>155.6</ele></trkpt>
      <trkpt lat="34.736158" lon="128.016842"><ele>155.7</ele></trkpt>
      <trkpt lat="34.736242" lon="128.016713"><ele>157.2</ele></trkpt>
      <trkpt lat="34.736581" lon="128.016638"><ele>167.8</ele></trkpt>
      <trkpt lat="34.737013" lon="128.016354"><ele>167.5</ele></trkpt>
      <trkpt lat="34.737220" lon="128.016348"><ele>168.8</ele></trkpt>
      <trkpt lat="34.737313" lon="128.016407"><ele>168.1</ele></trkpt>
      <trkpt lat="34.737511" lon="128.016793"><ele>171.4</ele></trkpt>
      <trkpt lat="34.737564" lon="128.017965"><ele>193.5</ele></trkpt>
      <trkpt lat="34.737463" lon="128.018730"><ele>205.6</ele></trkpt>
      <trkpt lat="34.737569" lon="128.018756"><ele>205.3</ele></trkpt>
      <trkpt lat="34.737807" lon="128.018612"><ele>201.0</ele></trkpt>
      <trkpt lat="34.738049" lon="128.018199"><ele>196.5</ele></trkpt>
      <trkpt lat="34.738208" lon="128.018048"><ele>193.9</ele></trkpt>
      <trkpt lat="34.738353" lon="128.018097"><ele>196.2</ele></trkpt>
      <trkpt lat="34.738521" lon="128.018349"><ele>203.5</ele></trkpt>
      <trkpt lat="34.738640" lon="128.019379"><ele>231.1</ele></trkpt>
      <trkpt lat="34.738733" lon="128.019416"><ele>232.4</ele></trkpt>
      <trkpt lat="34.738966" lon="128.019126"><ele>221.0</ele></trkpt>
      <trkpt lat="34.739054" lon="128.019094"><ele>220.1</ele></trkpt>
      <trkpt lat="34.739217" lon="128.019185"><ele>224.1</ele></trkpt>
      <trkpt lat="34.739649" lon="128.019813"><ele>231.9</ele></trkpt>
      <trkpt lat="34.739914" lon="128.020725"><ele>256.9</ele></trkpt>
      <trkpt lat="34.740121" lon="128.021004"><ele>263.6</ele></trkpt>
      <trkpt lat="34.740271" lon="128.020929"><ele>260.1</ele></trkpt>
      <trkpt lat="34.740439" lon="128.020607"><ele>256.6</ele></trkpt>
      <trkpt lat="34.740580" lon="128.020119"><ele>254.7</ele></trkpt>
      <trkpt lat="34.740589" lon="128.019749"><ele>252.5</ele></trkpt>
      <trkpt lat="34.740646" lon="128.019481"><ele>250.0</ele></trkpt>
      <trkpt lat="34.740712" lon="128.019389"><ele>249.6</ele></trkpt>
      <trkpt lat="34.740787" lon="128.019389"><ele>251.0</ele></trkpt>
      <trkpt lat="34.740915" lon="128.019593"><ele>255.7</ele></trkpt>
      <trkpt lat="34.741170" lon="128.020371"><ele>272.0</ele></trkpt>
      <trkpt lat="34.741781" lon="128.021386"><ele>287.2</ele></trkpt>
      <trkpt lat="34.742182" lon="128.021847"><ele>290.4</ele></trkpt>
      <trkpt lat="34.742358" lon="128.022228"><ele>300.8</ele></trkpt>
      <trkpt lat="34.742442" lon="128.022308"><ele>302.7</ele></trkpt>
      <trkpt lat="34.742499" lon="128.022298"><ele>300.8</ele></trkpt>
      <trkpt lat="34.743072" lon="128.021954"><ele>304.3</ele></trkpt>
      <trkpt lat="34.743125" lon="128.021804"><ele>300.4</ele></trkpt>
      <trkpt lat="34.743112" lon="128.021531"><ele>290.1</ele></trkpt>
      <trkpt lat="34.743407" lon="128.021058"><ele>299.7</ele></trkpt>
      <trkpt lat="34.743429" lon="128.020820"><ele>296.3</ele></trkpt>
      <trkpt lat="34.743636" lon="128.020468"><ele>302.1</ele></trkpt>
      <trkpt lat="34.743698" lon="128.019921"><ele>298.5</ele></trkpt>
      <trkpt lat="34.743918" lon="128.018907"><ele>298.8</ele></trkpt>
      <trkpt lat="34.744056" lon="128.018643"><ele>301.0</ele></trkpt>
      <trkpt lat="34.744154" lon="128.018575"><ele>303.4</ele></trkpt>
      <trkpt lat="34.744714" lon="128.016776"><ele>326.7</ele></trkpt>
      <trkpt lat="34.744793" lon="128.016145"><ele>333.8</ele></trkpt>
      <trkpt lat="34.744768" lon="128.015790"><ele>332.7</ele></trkpt>
      <trkpt lat="34.745211" lon="128.014159"><ele>370.0</ele></trkpt>
      <trkpt lat="34.745406" lon="128.013841"><ele>379.4</ele></trkpt>
      <trkpt lat="34.745562" lon="128.013763"><ele>380.4</ele></trkpt>
      <trkpt lat="34.745853" lon="128.013441"><ele>379.2</ele></trkpt>
      <trkpt lat="34.746100" lon="128.013017"><ele>382.9</ele></trkpt>
      <trkpt lat="34.746187" lon="128.012730"><ele>388.4</ele></trkpt>
      <trkpt lat="34.746549" lon="128.012288"><ele>392.3</ele></trkpt>
      <trkpt lat="34.746761" lon="128.012078"><ele>393.2</ele></trkpt>
      <trkpt lat="34.746984" lon="128.011996"><ele>394.8</ele></trkpt>
      <trkpt lat="34.747133" lon="128.011880"><ele>397.3</ele></trkpt>
      <trkpt lat="34.747270" lon="128.011695"><ele>399.8</ele></trkpt>
      <trkpt lat="34.747407" lon="128.011612"><ele>399.7</ele></trkpt>
      <trkpt lat="34.747538" lon="128.011415"><ele>399.3</ele></trkpt>
      <trkpt lat="34.747554" lon="128.011161"><ele>397.2</ele></trkpt>
      <trkpt lat="34.747453" lon="128.010533"><ele>384.5</ele></trkpt>
      <trkpt lat="34.747360" lon="128.010422"><ele>378.8</ele></trkpt>
      <trkpt lat="34.747345" lon="128.010067"><ele>372.7</ele></trkpt>
      <trkpt lat="34.747394" lon="128.009919"><ele>372.0</ele></trkpt>
      <trkpt lat="34.747334" lon="128.009462"><ele>369.6</ele></trkpt>
      <trkpt lat="34.747389" lon="128.009082"><ele>372.1</ele></trkpt>
      <trkpt lat="34.747374" lon="128.008583"><ele>379.1</ele></trkpt>
      <trkpt lat="34.747480" lon="128.008103"><ele>389.0</ele></trkpt>
      <trkpt lat="34.747792" lon="128.007315"><ele>397.4</ele></trkpt>
      <trkpt lat="34.747724" lon="128.006752"><ele>402.3</ele></trkpt>
      <trkpt lat="34.747687" lon="128.006568"><ele>403.6</ele></trkpt>
      <trkpt lat="34.747560" lon="128.006396"><ele>404.3</ele></trkpt>
      <trkpt lat="34.747532" lon="128.006270"><ele>403.9</ele></trkpt>
      <trkpt lat="34.747368" lon="128.006021"><ele>401.2</ele></trkpt>
      <trkpt lat="34.747262" lon="128.005942"><ele>400.8</ele></trkpt>
      <trkpt lat="34.746942" lon="128.005278"><ele>420.0</ele></trkpt>
      <trkpt lat="34.746891" lon="128.005095"><ele>426.1</ele></trkpt>
      <trkpt lat="34.746790" lon="128.004938"><ele>435.0</ele></trkpt>
      <trkpt lat="34.746594" lon="128.004315"><ele>457.5</ele></trkpt>
      <trkpt lat="34.748420" lon="128.002569"><ele>468.1</ele></trkpt>
      <trkpt lat="34.748636" lon="128.002392"><ele>474.4</ele></trkpt>
      <trkpt lat="34.748828" lon="128.002305"><ele>477.0</ele></trkpt>
      <trkpt lat="34.749676" lon="128.001362"><ele>504.8</ele></trkpt>
      <trkpt lat="34.749969" lon="128.000954"><ele>521.1</ele></trkpt>
      <trkpt lat="34.750108" lon="128.000871"><ele>530.2</ele></trkpt>
      <trkpt lat="34.750516" lon="128.000865"><ele>543.7</ele></trkpt>
      <trkpt lat="34.750712" lon="128.000761"><ele>543.1</ele></trkpt>
      <trkpt lat="34.751408" lon="128.000608"><ele>544.4</ele></trkpt>
      <trkpt lat="34.751527" lon="128.000660"><ele>542.9</ele></trkpt>
      <trkpt lat="34.751776" lon="128.000536"><ele>547.0</ele></trkpt>
      <trkpt lat="34.751827" lon="128.000463"><ele>547.8</ele></trkpt>
      <trkpt lat="34.751961" lon="128.000431"><ele>548.3</ele></trkpt>
      <trkpt lat="34.752048" lon="128.000305"><ele>551.0</ele></trkpt>
      <trkpt lat="34.752402" lon="128.000039"><ele>552.4</ele></trkpt>
      <trkpt lat="34.752583" lon="127.999978"><ele>555.8</ele></trkpt>
      <trkpt lat="34.753350" lon="127.999443"><ele>576.4</ele></trkpt>
      <trkpt lat="34.753560" lon="127.999193"><ele>584.4</ele></trkpt>
      <trkpt lat="34.753608" lon="127.998930"><ele>585.9</ele></trkpt>
      <trkpt lat="34.753911" lon="127.997982"><ele>602.9</ele></trkpt>
      <trkpt lat="34.753993" lon="127.997888"><ele>606.9</ele></trkpt>
      <trkpt lat="34.754068" lon="127.997574"><ele>614.1</ele></trkpt>
      <trkpt lat="34.754269" lon="127.997346"><ele>624.2</ele></trkpt>
      <trkpt lat="34.754462" lon="127.996687"><ele>644.0</ele></trkpt>
      <trkpt lat="34.754632" lon="127.996398"><ele>647.3</ele></trkpt>
      <trkpt lat="34.754597" lon="127.996153"><ele>643.8</ele></trkpt>
      <trkpt lat="34.754616" lon="127.995919"><ele>641.4</ele></trkpt>
      <trkpt lat="34.754655" lon="127.995880"><ele>641.9</ele></trkpt>
      <trkpt lat="34.754616" lon="127.995166"><ele>636.0</ele></trkpt>
      <trkpt lat="34.754532" lon="127.994404"><ele>634.0</ele></trkpt>
      <trkpt lat="34.754483" lon="127.994276"><ele>635.4</ele></trkpt>
      <trkpt lat="34.754551" lon="127.994081"><ele>636.0</ele></trkpt>
      <trkpt lat="34.754137" lon="127.993559"><ele>629.4</ele></trkpt>
      <trkpt lat="34.753919" lon="127.993155"><ele>620.1</ele></trkpt>
      <trkpt lat="34.753609" lon="127.992305"><ele>619.7</ele></trkpt>
      <trkpt lat="34.753567" lon="127.992039"><ele>620.4</ele></trkpt>
      <trkpt lat="34.753892" lon="127.990324"><ele>611.2</ele></trkpt>
      <trkpt lat="34.753911" lon="127.989540"><ele>594.2</ele></trkpt>
      <trkpt lat="34.754052" lon="127.988809"><ele>583.6</ele></trkpt>
      <trkpt lat="34.754036" lon="127.987826"><ele>580.8</ele></trkpt>
      <trkpt lat="34.754123" lon="127.986486"><ele>606.6</ele></trkpt>
      <trkpt lat="34.754083" lon="127.986122"><ele>610.5</ele></trkpt>
      <trkpt lat="34.753729" lon="127.984907"><ele>618.0</ele></trkpt>
      <trkpt lat="34.753777" lon="127.984623"><ele>626.9</ele></trkpt>
      <trkpt lat="34.753587" lon="127.984010"><ele>643.6</ele></trkpt>
      <trkpt lat="34.753441" lon="127.983812"><ele>646.5</ele></trkpt>
      <trkpt lat="34.752932" lon="127.983597"><ele>635.7</ele></trkpt>
      <trkpt lat="34.752890" lon="127.983488"><ele>636.0</ele></trkpt>
      <trkpt lat="34.752885" lon="127.983200"><ele>643.1</ele></trkpt>
      <trkpt lat="34.752733" lon="127.983198"><ele>635.2</ele></trkpt>
      <trkpt lat="34.752454" lon="127.983045"><ele>624.3</ele></trkpt>
      <trkpt lat="34.752389" lon="127.983078"><ele>621.2</ele></trkpt>
      <trkpt lat="34.752122" lon="127.983006"><ele>611.8</ele></trkpt>
      <trkpt lat="34.752020" lon="127.982773"><ele>612.2</ele></trkpt>
      <trkpt lat="34.752010" lon="127.982698"><ele>612.8</ele></trkpt>
      <trkpt lat="34.752065" lon="127.982626"><ele>615.3</ele></trkpt>
      <trkpt lat="34.752019" lon="127.982366"><ele>618.0</ele></trkpt>
      <trkpt lat="34.751981" lon="127.982362"><ele>616.5</ele></trkpt>
      <trkpt lat="34.751917" lon="127.982501"><ele>612.0</ele></trkpt>
      <trkpt lat="34.751654" lon="127.982315"><ele>601.5</ele></trkpt>
      <trkpt lat="34.751620" lon="127.982364"><ele>599.3</ele></trkpt>
      <trkpt lat="34.751479" lon="127.982345"><ele>589.9</ele></trkpt>
      <trkpt lat="34.751423" lon="127.982516"><ele>583.4</ele></trkpt>
      <trkpt lat="34.751246" lon="127.982680"><ele>560.2</ele></trkpt>
      <trkpt lat="34.751124" lon="127.982938"><ele>532.9</ele></trkpt>
      <trkpt lat="34.750746" lon="127.983258"><ele>501.6</ele></trkpt>
      <trkpt lat="34.750645" lon="127.983524"><ele>484.9</ele></trkpt>
      <trkpt lat="34.750439" lon="127.983747"><ele>467.1</ele></trkpt>
      <trkpt lat="34.750412" lon="127.983833"><ele>463.9</ele></trkpt>
      <trkpt lat="34.749700" lon="127.984119"><ele>431.7</ele></trkpt>
      <trkpt lat="34.749637" lon="127.984212"><ele>425.3</ele></trkpt>
      <trkpt lat="34.749557" lon="127.984219"><ele>420.8</ele></trkpt>
      <trkpt lat="34.749538" lon="127.984297"><ele>418.0</ele></trkpt>
      <trkpt lat="34.749460" lon="127.984281"><ele>414.0</ele></trkpt>
      <trkpt lat="34.749181" lon="127.984573"><ele>397.2</ele></trkpt>
      <trkpt lat="34.748351" lon="127.985057"><ele>360.8</ele></trkpt>
      <trkpt lat="34.748107" lon="127.985041"><ele>354.0</ele></trkpt>
      <trkpt lat="34.747910" lon="127.985108"><ele>346.4</ele></trkpt>
      <trkpt lat="34.747784" lon="127.985286"><ele>339.1</ele></trkpt>
      <trkpt lat="34.747549" lon="127.985313"><ele>329.3</ele></trkpt>
      <trkpt lat="34.747382" lon="127.985473"><ele>318.7</ele></trkpt>
      <trkpt lat="34.746887" lon="127.985551"><ele>295.2</ele></trkpt>
      <trkpt lat="34.746698" lon="127.985743"><ele>289.4</ele></trkpt>
      <trkpt lat="34.746395" lon="127.985734"><ele>285.1</ele></trkpt>
      <trkpt lat="34.746263" lon="127.985845"><ele>281.7</ele></trkpt>
      <trkpt lat="34.745808" lon="127.985792"><ele>266.0</ele></trkpt>
      <trkpt lat="34.745448" lon="127.985819"><ele>250.0</ele></trkpt>
      <trkpt lat="34.745341" lon="127.985742"><ele>246.8</ele></trkpt>
      <trkpt lat="34.745307" lon="127.985613"><ele>245.4</ele></trkpt>
      <trkpt lat="34.745181" lon="127.985476"><ele>243.5</ele></trkpt>
      <trkpt lat="34.744927" lon="127.985317"><ele>239.6</ele></trkpt>
      <trkpt lat="34.744317" lon="127.985411"><ele>222.2</ele></trkpt>
      <trkpt lat="34.744077" lon="127.985541"><ele>214.1</ele></trkpt>
      <trkpt lat="34.743668" lon="127.985512"><ele>205.5</ele></trkpt>
      <trkpt lat="34.743148" lon="127.985661"><ele>194.2</ele></trkpt>
      <trkpt lat="34.742792" lon="127.985648"><ele>187.3</ele></trkpt>
      <trkpt lat="34.742416" lon="127.985514"><ele>178.2</ele></trkpt>
      <trkpt lat="34.742313" lon="127.985533"><ele>175.9</ele></trkpt>
      <trkpt lat="34.741115" lon="127.985026"><ele>149.4</ele></trkpt>
      <trkpt lat="34.740870" lon="127.985012"><ele>143.8</ele></trkpt>
      <trkpt lat="34.740574" lon="127.984795"><ele>138.3</ele></trkpt>
      <trkpt lat="34.740227" lon="127.984413"><ele>126.7</ele></trkpt>
    </trkseg>
  </trk>
</gpx>
