<?xml version="1.0" encoding="UTF-8"?>
<gpx version="1.1" creator="kr-100-mountains route-harvester"
     xmlns="http://www.topografix.com/GPX/1/1"
     xmlns:k100="https://github.com/jay-jang/kr-100-mountains/ns/1"
     xmlns:xsi="http://www.w3.org/2001/XMLSchema-instance"
     xsi:schemaLocation="http://www.topografix.com/GPX/1/1 http://www.topografix.com/GPX/1/1/gpx.xsd">
  <metadata>
    <name>무등산 · 원효사-서석대 코스 (OSM 계산 경로)</name>
    <desc>실제 GPS 기록이 아닙니다. OpenStreetMap에 등록된 등산로 선형 위에서 계산한 경로이며, 현장 통제·훼손·출입 제한·계절 통제를 반영하지 않을 수 있습니다. 산행 전 공식 안내를 확인하세요.</desc>
    <time>2026-08-04T05:30:41.233Z</time>
    <link href="https://www.openstreetmap.org/copyright"><text>© OpenStreetMap contributors (ODbL 1.0)</text></link>
    <link href="https://registry.opendata.aws/terrain-tiles/"><text>Elevation: SRTM 1 arc-second (NASA/USGS) via AWS Terrain Tiles</text></link>
    <extensions>
      <k100:provenance>osm-routed</k100:provenance>
      <k100:not_a_recorded_track>true</k100:not_a_recorded_track>
      <k100:mountain_id>mudeungsan</k100:mountain_id>
      <k100:mountain_name>무등산</k100:mountain_name>
      <k100:route_id>mudeungsan-78546293</k100:route_id>
      <k100:route_index>2</k100:route_index>
      <k100:route_name>원효사-서석대 코스</k100:route_name>
      <k100:variant>0</k100:variant>
      <k100:source>OpenStreetMap via Overpass API</k100:source>
      <k100:license>ODbL-1.0</k100:license>
      <k100:attribution>© OpenStreetMap contributors</k100:attribution>
      <k100:elevation_source>SRTM 1 arc-second (NASA/USGS) — AWS Terrain Tiles 배포본. 지형 DEM 추정 고도이며 실측 아님</k100:elevation_source>
      <k100:algorithm>dijkstra-grid-v1</k100:algorithm>
      <k100:osm_snapshot>2026-08-04</k100:osm_snapshot>
      <k100:snap_trailhead_m>156</k100:snap_trailhead_m>
      <k100:snap_summit_m>55</k100:snap_summit_m>
      <k100:validation_score>78</k100:validation_score>
      <k100:validation_status>accepted</k100:validation_status>
    </extensions>
  </metadata>
  <trk>
    <name>무등산 · 원효사-서석대 코스 (OSM 계산 경로)</name>
    <desc>실제 GPS 기록이 아닙니다. OpenStreetMap에 등록된 등산로 선형 위에서 계산한 경로이며, 현장 통제·훼손·출입 제한·계절 통제를 반영하지 않을 수 있습니다. 산행 전 공식 안내를 확인하세요.</desc>
    <trkseg>
      <trkpt lat="35.170853" lon="126.977325"><ele>346.3</ele></trkpt>
      <trkpt lat="35.170384" lon="126.977105"><ele>333.8</ele></trkpt>
      <trkpt lat="35.169897" lon="126.976086"><ele>314.0</ele></trkpt>
      <trkpt lat="35.169265" lon="126.976022"><ele>302.0</ele></trkpt>
      <trkpt lat="35.168787" lon="126.976236"><ele>294.2</ele></trkpt>
      <trkpt lat="35.168542" lon="126.976161"><ele>292.1</ele></trkpt>
      <trkpt lat="35.168362" lon="126.975962"><ele>292.5</ele></trkpt>
      <trkpt lat="35.167595" lon="126.975689"><ele>310.4</ele></trkpt>
      <trkpt lat="35.167428" lon="126.975576"><ele>313.7</ele></trkpt>
      <trkpt lat="35.167270" lon="126.975313"><ele>320.1</ele></trkpt>
      <trkpt lat="35.167020" lon="126.974638"><ele>348.5</ele></trkpt>
      <trkpt lat="35.167016" lon="126.974294"><ele>358.9</ele></trkpt>
      <trkpt lat="35.166674" lon="126.973844"><ele>377.1</ele></trkpt>
      <trkpt lat="35.166226" lon="126.973447"><ele>392.9</ele></trkpt>
      <trkpt lat="35.166047" lon="126.973388"><ele>398.7</ele></trkpt>
      <trkpt lat="35.165744" lon="126.973436"><ele>403.5</ele></trkpt>
      <trkpt lat="35.165491" lon="126.973404"><ele>403.8</ele></trkpt>
      <trkpt lat="35.165369" lon="126.973565"><ele>402.3</ele></trkpt>
      <trkpt lat="35.165310" lon="126.973736"><ele>397.4</ele></trkpt>
      <trkpt lat="35.165180" lon="126.974490"><ele>361.8</ele></trkpt>
      <trkpt lat="35.164858" lon="126.974876"><ele>343.5</ele></trkpt>
      <trkpt lat="35.164598" lon="126.975863"><ele>318.4</ele></trkpt>
      <trkpt lat="35.164463" lon="126.976062"><ele>317.9</ele></trkpt>
      <trkpt lat="35.164180" lon="126.976210"><ele>316.4</ele></trkpt>
      <trkpt lat="35.164008" lon="126.976182"><ele>314.8</ele></trkpt>
      <trkpt lat="35.163857" lon="126.976224"><ele>313.7</ele></trkpt>
      <trkpt lat="35.163520" lon="126.976165"><ele>307.7</ele></trkpt>
      <trkpt lat="35.163042" lon="126.976245"><ele>298.2</ele></trkpt>
      <trkpt lat="35.162618" lon="126.976479"><ele>291.5</ele></trkpt>
      <trkpt lat="35.162416" lon="126.976655"><ele>289.4</ele></trkpt>
      <trkpt lat="35.162269" lon="126.976964"><ele>285.8</ele></trkpt>
      <trkpt lat="35.162147" lon="126.977413"><ele>282.9</ele></trkpt>
      <trkpt lat="35.161964" lon="126.977487"><ele>283.9</ele></trkpt>
      <trkpt lat="35.161746" lon="126.977487"><ele>283.3</ele></trkpt>
      <trkpt lat="35.161613" lon="126.977576"><ele>281.1</ele></trkpt>
      <trkpt lat="35.161293" lon="126.977996"><ele>274.6</ele></trkpt>
      <trkpt lat="35.160986" lon="126.977910"><ele>278.0</ele></trkpt>
      <trkpt lat="35.160819" lon="126.978041"><ele>278.9</ele></trkpt>
      <trkpt lat="35.160464" lon="126.978792"><ele>290.0</ele></trkpt>
      <trkpt lat="35.160499" lon="126.978883"><ele>290.7</ele></trkpt>
      <trkpt lat="35.160440" lon="126.979058"><ele>294.1</ele></trkpt>
      <trkpt lat="35.159729" lon="126.979876"><ele>318.1</ele></trkpt>
      <trkpt lat="35.158635" lon="126.980104"><ele>350.3</ele></trkpt>
      <trkpt lat="35.158302" lon="126.980249"><ele>358.6</ele></trkpt>
      <trkpt lat="35.158091" lon="126.980276"><ele>366.7</ele></trkpt>
      <trkpt lat="35.157486" lon="126.980158"><ele>386.4</ele></trkpt>
      <trkpt lat="35.157201" lon="126.980238"><ele>395.1</ele></trkpt>
      <trkpt lat="35.157004" lon="126.980560"><ele>405.7</ele></trkpt>
      <trkpt lat="35.156056" lon="126.981118"><ele>427.1</ele></trkpt>
      <trkpt lat="35.155912" lon="126.981257"><ele>431.2</ele></trkpt>
      <trkpt lat="35.155499" lon="126.981810"><ele>436.7</ele></trkpt>
      <trkpt lat="35.155232" lon="126.982266"><ele>440.8</ele></trkpt>
      <trkpt lat="35.155210" lon="126.982706"><ele>444.7</ele></trkpt>
      <trkpt lat="35.155135" lon="126.982867"><ele>449.4</ele></trkpt>
      <trkpt lat="35.154806" lon="126.983146"><ele>462.2</ele></trkpt>
      <trkpt lat="35.154547" lon="126.983183"><ele>468.9</ele></trkpt>
      <trkpt lat="35.154214" lon="126.982995"><ele>481.7</ele></trkpt>
      <trkpt lat="35.154109" lon="126.982663"><ele>491.2</ele></trkpt>
      <trkpt lat="35.153938" lon="126.982555"><ele>500.4</ele></trkpt>
      <trkpt lat="35.153876" lon="126.982384"><ele>506.0</ele></trkpt>
      <trkpt lat="35.153736" lon="126.982223"><ele>512.4</ele></trkpt>
      <trkpt lat="35.153039" lon="126.982244"><ele>529.0</ele></trkpt>
      <trkpt lat="35.152499" lon="126.982056"><ele>544.2</ele></trkpt>
      <trkpt lat="35.151166" lon="126.981831"><ele>559.3</ele></trkpt>
      <trkpt lat="35.150986" lon="126.981729"><ele>560.3</ele></trkpt>
      <trkpt lat="35.150289" lon="126.981724"><ele>553.7</ele></trkpt>
      <trkpt lat="35.150118" lon="126.981676"><ele>552.7</ele></trkpt>
      <trkpt lat="35.149113" lon="126.981708"><ele>541.1</ele></trkpt>
      <trkpt lat="35.148552" lon="126.981600"><ele>534.2</ele></trkpt>
      <trkpt lat="35.148043" lon="126.981649"><ele>526.8</ele></trkpt>
      <trkpt lat="35.147231" lon="126.981407"><ele>510.2</ele></trkpt>
      <trkpt lat="35.146565" lon="126.981595"><ele>502.6</ele></trkpt>
      <trkpt lat="35.145740" lon="126.981542"><ele>493.0</ele></trkpt>
      <trkpt lat="35.145222" lon="126.981649"><ele>497.3</ele></trkpt>
      <trkpt lat="35.144481" lon="126.981627"><ele>502.5</ele></trkpt>
      <trkpt lat="35.143696" lon="126.981831"><ele>495.9</ele></trkpt>
      <trkpt lat="35.143520" lon="126.981965"><ele>493.6</ele></trkpt>
      <trkpt lat="35.143156" lon="126.981896"><ele>494.5</ele></trkpt>
      <trkpt lat="35.143169" lon="126.981972"><ele>494.7</ele></trkpt>
      <trkpt lat="35.143061" lon="126.981971"><ele>495.8</ele></trkpt>
      <trkpt lat="35.142916" lon="126.982080"><ele>498.5</ele></trkpt>
      <trkpt lat="35.142661" lon="126.982167"><ele>505.0</ele></trkpt>
      <trkpt lat="35.142109" lon="126.982227"><ele>523.8</ele></trkpt>
      <trkpt lat="35.141506" lon="126.982134"><ele>541.4</ele></trkpt>
      <trkpt lat="35.140779" lon="126.982389"><ele>557.9</ele></trkpt>
      <trkpt lat="35.140568" lon="126.982604"><ele>564.3</ele></trkpt>
      <trkpt lat="35.139901" lon="126.982609"><ele>568.6</ele></trkpt>
      <trkpt lat="35.139638" lon="126.982711"><ele>571.6</ele></trkpt>
      <trkpt lat="35.138427" lon="126.982529"><ele>602.3</ele></trkpt>
      <trkpt lat="35.138151" lon="126.982722"><ele>620.2</ele></trkpt>
      <trkpt lat="35.137419" lon="126.982330"><ele>636.1</ele></trkpt>
      <trkpt lat="35.137265" lon="126.982489"><ele>648.6</ele></trkpt>
      <trkpt lat="35.137054" lon="126.982271"><ele>647.1</ele></trkpt>
      <trkpt lat="35.136974" lon="126.982259"><ele>648.7</ele></trkpt>
      <trkpt lat="35.136898" lon="126.982332"><ele>652.7</ele></trkpt>
      <trkpt lat="35.136898" lon="126.982422"><ele>656.3</ele></trkpt>
      <trkpt lat="35.137137" lon="126.982755"><ele>662.0</ele></trkpt>
      <trkpt lat="35.137253" lon="126.983044"><ele>660.6</ele></trkpt>
      <trkpt lat="35.137200" lon="126.983349"><ele>662.9</ele></trkpt>
      <trkpt lat="35.136578" lon="126.984328"><ele>680.1</ele></trkpt>
      <trkpt lat="35.136376" lon="126.984780"><ele>679.3</ele></trkpt>
      <trkpt lat="35.136136" lon="126.985101"><ele>681.7</ele></trkpt>
      <trkpt lat="35.135930" lon="126.985841"><ele>685.0</ele></trkpt>
      <trkpt lat="35.135312" lon="126.987028"><ele>706.2</ele></trkpt>
      <trkpt lat="35.134749" lon="126.987703"><ele>713.3</ele></trkpt>
      <trkpt lat="35.134451" lon="126.987829"><ele>718.2</ele></trkpt>
      <trkpt lat="35.134101" lon="126.987887"><ele>724.4</ele></trkpt>
      <trkpt lat="35.133862" lon="126.988056"><ele>723.7</ele></trkpt>
    </trkseg>
  </trk>
</gpx>
