<?xml version="1.0" encoding="UTF-8"?>
<gpx version="1.1" creator="kr-100-mountains route-harvester"
     xmlns="http://www.topografix.com/GPX/1/1"
     xmlns:k100="https://github.com/jay-jang/kr-100-mountains/ns/1"
     xmlns:xsi="http://www.w3.org/2001/XMLSchema-instance"
     xsi:schemaLocation="http://www.topografix.com/GPX/1/1 http://www.topografix.com/GPX/1/1/gpx.xsd">
  <metadata>
    <name>무등산 · 증심사-중머리재-서석대 코스 (OSM 계산 경로)</name>
    <desc>실제 GPS 기록이 아닙니다. OpenStreetMap에 등록된 등산로 선형 위에서 계산한 경로이며, 현장 통제·훼손·출입 제한·계절 통제를 반영하지 않을 수 있습니다. 산행 전 공식 안내를 확인하세요.</desc>
    <time>2026-08-04T05:30:41.116Z</time>
    <link href="https://www.openstreetmap.org/copyright"><text>© OpenStreetMap contributors (ODbL 1.0)</text></link>
    <link href="https://registry.opendata.aws/terrain-tiles/"><text>Elevation: SRTM 1 arc-second (NASA/USGS) via AWS Terrain Tiles</text></link>
    <extensions>
      <k100:provenance>osm-routed</k100:provenance>
      <k100:not_a_recorded_track>true</k100:not_a_recorded_track>
      <k100:mountain_id>mudeungsan</k100:mountain_id>
      <k100:mountain_name>무등산</k100:mountain_name>
      <k100:route_id>mudeungsan-708d77a1</k100:route_id>
      <k100:route_index>1</k100:route_index>
      <k100:route_name>증심사-중머리재-서석대 코스</k100:route_name>
      <k100:variant>0</k100:variant>
      <k100:source>OpenStreetMap via Overpass API</k100:source>
      <k100:license>ODbL-1.0</k100:license>
      <k100:attribution>© OpenStreetMap contributors</k100:attribution>
      <k100:elevation_source>SRTM 1 arc-second (NASA/USGS) — AWS Terrain Tiles 배포본. 지형 DEM 추정 고도이며 실측 아님</k100:elevation_source>
      <k100:algorithm>dijkstra-grid-v1</k100:algorithm>
      <k100:osm_snapshot>2026-08-04</k100:osm_snapshot>
      <k100:snap_trailhead_m>47</k100:snap_trailhead_m>
      <k100:snap_summit_m>55</k100:snap_summit_m>
      <k100:validation_score>100</k100:validation_score>
      <k100:validation_status>accepted</k100:validation_status>
    </extensions>
  </metadata>
  <trk>
    <name>무등산 · 증심사-중머리재-서석대 코스 (OSM 계산 경로)</name>
    <desc>실제 GPS 기록이 아닙니다. OpenStreetMap에 등록된 등산로 선형 위에서 계산한 경로이며, 현장 통제·훼손·출입 제한·계절 통제를 반영하지 않을 수 있습니다. 산행 전 공식 안내를 확인하세요.</desc>
    <trkseg>
      <trkpt lat="35.129860" lon="126.951254"><ele>117.3</ele></trkpt>
      <trkpt lat="35.129884" lon="126.950924"><ele>111.6</ele></trkpt>
      <trkpt lat="35.129571" lon="126.950853"><ele>100.1</ele></trkpt>
      <trkpt lat="35.129475" lon="126.950667"><ele>98.0</ele></trkpt>
      <trkpt lat="35.129471" lon="126.950471"><ele>98.1</ele></trkpt>
      <trkpt lat="35.129385" lon="126.950405"><ele>99.8</ele></trkpt>
      <trkpt lat="35.129587" lon="126.949840"><ele>102.5</ele></trkpt>
      <trkpt lat="35.129850" lon="126.949520"><ele>99.7</ele></trkpt>
      <trkpt lat="35.129909" lon="126.949547"><ele>98.1</ele></trkpt>
      <trkpt lat="35.130169" lon="126.949484"><ele>94.5</ele></trkpt>
      <trkpt lat="35.130620" lon="126.949049"><ele>91.3</ele></trkpt>
      <trkpt lat="35.130760" lon="126.949010"><ele>91.2</ele></trkpt>
      <trkpt lat="35.130874" lon="126.948880"><ele>90.1</ele></trkpt>
      <trkpt lat="35.131159" lon="126.948180"><ele>88.9</ele></trkpt>
      <trkpt lat="35.131436" lon="126.948234"><ele>91.9</ele></trkpt>
      <trkpt lat="35.131470" lon="126.948840"><ele>101.0</ele></trkpt>
      <trkpt lat="35.131408" lon="126.949210"><ele>111.8</ele></trkpt>
      <trkpt lat="35.131588" lon="126.949511"><ele>134.4</ele></trkpt>
      <trkpt lat="35.131658" lon="126.949940"><ele>155.4</ele></trkpt>
      <trkpt lat="35.131562" lon="126.950385"><ele>171.5</ele></trkpt>
      <trkpt lat="35.131435" lon="126.950664"><ele>181.5</ele></trkpt>
      <trkpt lat="35.131321" lon="126.951410"><ele>198.2</ele></trkpt>
      <trkpt lat="35.131369" lon="126.952466"><ele>234.6</ele></trkpt>
      <trkpt lat="35.131110" lon="126.953609"><ele>243.0</ele></trkpt>
      <trkpt lat="35.131031" lon="126.954483"><ele>247.3</ele></trkpt>
      <trkpt lat="35.130373" lon="126.955052"><ele>238.8</ele></trkpt>
      <trkpt lat="35.130000" lon="126.955444"><ele>246.8</ele></trkpt>
      <trkpt lat="35.129864" lon="126.955664"><ele>246.7</ele></trkpt>
      <trkpt lat="35.129706" lon="126.956286"><ele>254.9</ele></trkpt>
      <trkpt lat="35.129675" lon="126.956613"><ele>258.7</ele></trkpt>
      <trkpt lat="35.129315" lon="126.956989"><ele>257.9</ele></trkpt>
      <trkpt lat="35.129017" lon="126.958592"><ele>237.3</ele></trkpt>
      <trkpt lat="35.128846" lon="126.958968"><ele>235.2</ele></trkpt>
      <trkpt lat="35.128798" lon="126.959247"><ele>231.0</ele></trkpt>
      <trkpt lat="35.128846" lon="126.959419"><ele>231.0</ele></trkpt>
      <trkpt lat="35.128960" lon="126.959588"><ele>230.6</ele></trkpt>
      <trkpt lat="35.129438" lon="126.959354"><ele>217.2</ele></trkpt>
      <trkpt lat="35.129697" lon="126.959200"><ele>208.1</ele></trkpt>
      <trkpt lat="35.129846" lon="126.959047"><ele>206.7</ele></trkpt>
      <trkpt lat="35.130281" lon="126.958802"><ele>191.2</ele></trkpt>
      <trkpt lat="35.131168" lon="126.958498"><ele>166.8</ele></trkpt>
      <trkpt lat="35.131846" lon="126.958567"><ele>153.5</ele></trkpt>
      <trkpt lat="35.132019" lon="126.958476"><ele>146.9</ele></trkpt>
      <trkpt lat="35.132413" lon="126.957871"><ele>136.7</ele></trkpt>
      <trkpt lat="35.132578" lon="126.957904"><ele>131.5</ele></trkpt>
      <trkpt lat="35.132824" lon="126.958078"><ele>124.4</ele></trkpt>
      <trkpt lat="35.133035" lon="126.959075"><ele>126.4</ele></trkpt>
      <trkpt lat="35.132886" lon="126.959292"><ele>129.7</ele></trkpt>
      <trkpt lat="35.132844" lon="126.959540"><ele>130.5</ele></trkpt>
      <trkpt lat="35.133117" lon="126.959962"><ele>132.4</ele></trkpt>
      <trkpt lat="35.133244" lon="126.960023"><ele>135.0</ele></trkpt>
      <trkpt lat="35.133575" lon="126.959990"><ele>141.1</ele></trkpt>
      <trkpt lat="35.133694" lon="126.959822"><ele>142.5</ele></trkpt>
      <trkpt lat="35.133764" lon="126.959844"><ele>144.7</ele></trkpt>
      <trkpt lat="35.133885" lon="126.960187"><ele>154.6</ele></trkpt>
      <trkpt lat="35.133902" lon="126.960545"><ele>160.9</ele></trkpt>
      <trkpt lat="35.133834" lon="126.961002"><ele>165.9</ele></trkpt>
      <trkpt lat="35.133916" lon="126.961212"><ele>170.5</ele></trkpt>
      <trkpt lat="35.133966" lon="126.961541"><ele>177.5</ele></trkpt>
      <trkpt lat="35.134077" lon="126.961714"><ele>185.7</ele></trkpt>
      <trkpt lat="35.134001" lon="126.962028"><ele>194.4</ele></trkpt>
      <trkpt lat="35.134021" lon="126.962390"><ele>206.3</ele></trkpt>
      <trkpt lat="35.134078" lon="126.962768"><ele>217.9</ele></trkpt>
      <trkpt lat="35.134231" lon="126.963056"><ele>228.5</ele></trkpt>
      <trkpt lat="35.134228" lon="126.963316"><ele>234.8</ele></trkpt>
      <trkpt lat="35.134314" lon="126.963658"><ele>247.3</ele></trkpt>
      <trkpt lat="35.134317" lon="126.964105"><ele>258.4</ele></trkpt>
      <trkpt lat="35.134457" lon="126.964622"><ele>278.6</ele></trkpt>
      <trkpt lat="35.134534" lon="126.965396"><ele>306.0</ele></trkpt>
      <trkpt lat="35.134829" lon="126.965843"><ele>317.5</ele></trkpt>
      <trkpt lat="35.135287" lon="126.966108"><ele>332.2</ele></trkpt>
      <trkpt lat="35.135728" lon="126.966216"><ele>346.8</ele></trkpt>
      <trkpt lat="35.135919" lon="126.966476"><ele>361.4</ele></trkpt>
      <trkpt lat="35.136086" lon="126.966858"><ele>380.8</ele></trkpt>
      <trkpt lat="35.136170" lon="126.966886"><ele>384.6</ele></trkpt>
      <trkpt lat="35.136243" lon="126.967059"><ele>392.9</ele></trkpt>
      <trkpt lat="35.136320" lon="126.967123"><ele>398.4</ele></trkpt>
      <trkpt lat="35.136391" lon="126.967434"><ele>410.6</ele></trkpt>
      <trkpt lat="35.136555" lon="126.967702"><ele>424.1</ele></trkpt>
      <trkpt lat="35.136464" lon="126.968586"><ele>430.5</ele></trkpt>
      <trkpt lat="35.136600" lon="126.969147"><ele>433.2</ele></trkpt>
      <trkpt lat="35.136603" lon="126.969511"><ele>432.5</ele></trkpt>
      <trkpt lat="35.136425" lon="126.970186"><ele>434.7</ele></trkpt>
      <trkpt lat="35.136435" lon="126.970414"><ele>438.3</ele></trkpt>
      <trkpt lat="35.136516" lon="126.970763"><ele>444.4</ele></trkpt>
      <trkpt lat="35.136651" lon="126.971020"><ele>450.2</ele></trkpt>
      <trkpt lat="35.136715" lon="126.971260"><ele>451.2</ele></trkpt>
      <trkpt lat="35.137031" lon="126.971707"><ele>466.1</ele></trkpt>
      <trkpt lat="35.137099" lon="126.972042"><ele>467.0</ele></trkpt>
      <trkpt lat="35.137547" lon="126.972687"><ele>476.2</ele></trkpt>
      <trkpt lat="35.137633" lon="126.972931"><ele>476.8</ele></trkpt>
      <trkpt lat="35.137684" lon="126.973314"><ele>478.9</ele></trkpt>
      <trkpt lat="35.137654" lon="126.973423"><ele>477.6</ele></trkpt>
      <trkpt lat="35.137499" lon="126.973625"><ele>473.0</ele></trkpt>
      <trkpt lat="35.137525" lon="126.973862"><ele>474.3</ele></trkpt>
      <trkpt lat="35.137725" lon="126.973963"><ele>476.8</ele></trkpt>
      <trkpt lat="35.137692" lon="126.974346"><ele>474.8</ele></trkpt>
      <trkpt lat="35.137771" lon="126.974754"><ele>477.3</ele></trkpt>
      <trkpt lat="35.137762" lon="126.975409"><ele>480.3</ele></trkpt>
      <trkpt lat="35.137906" lon="126.975777"><ele>481.1</ele></trkpt>
      <trkpt lat="35.138123" lon="126.976872"><ele>463.7</ele></trkpt>
      <trkpt lat="35.138368" lon="126.977503"><ele>474.2</ele></trkpt>
      <trkpt lat="35.138337" lon="126.977631"><ele>478.3</ele></trkpt>
      <trkpt lat="35.138434" lon="126.978141"><ele>495.3</ele></trkpt>
      <trkpt lat="35.138337" lon="126.978382"><ele>501.9</ele></trkpt>
      <trkpt lat="35.138056" lon="126.978795"><ele>508.3</ele></trkpt>
      <trkpt lat="35.137846" lon="126.979600"><ele>540.3</ele></trkpt>
      <trkpt lat="35.137243" lon="126.980645"><ele>583.2</ele></trkpt>
      <trkpt lat="35.137088" lon="126.981079"><ele>595.6</ele></trkpt>
      <trkpt lat="35.137088" lon="126.981289"><ele>603.5</ele></trkpt>
      <trkpt lat="35.137004" lon="126.981572"><ele>619.5</ele></trkpt>
      <trkpt lat="35.136860" lon="126.981873"><ele>636.4</ele></trkpt>
      <trkpt lat="35.136214" lon="126.982040"><ele>647.8</ele></trkpt>
      <trkpt lat="35.136113" lon="126.982156"><ele>655.2</ele></trkpt>
      <trkpt lat="35.135983" lon="126.982152"><ele>655.6</ele></trkpt>
      <trkpt lat="35.135692" lon="126.982426"><ele>668.6</ele></trkpt>
      <trkpt lat="35.135474" lon="126.982753"><ele>682.7</ele></trkpt>
      <trkpt lat="35.136274" lon="126.983229"><ele>698.9</ele></trkpt>
      <trkpt lat="35.136362" lon="126.983371"><ele>701.3</ele></trkpt>
      <trkpt lat="35.136337" lon="126.983431"><ele>703.0</ele></trkpt>
      <trkpt lat="35.136756" lon="126.983414"><ele>685.9</ele></trkpt>
      <trkpt lat="35.137253" lon="126.983178"><ele>660.8</ele></trkpt>
      <trkpt lat="35.137200" lon="126.983349"><ele>662.9</ele></trkpt>
      <trkpt lat="35.136578" lon="126.984328"><ele>680.1</ele></trkpt>
      <trkpt lat="35.136376" lon="126.984780"><ele>679.3</ele></trkpt>
      <trkpt lat="35.136136" lon="126.985101"><ele>681.7</ele></trkpt>
      <trkpt lat="35.135930" lon="126.985841"><ele>685.0</ele></trkpt>
      <trkpt lat="35.135312" lon="126.987028"><ele>706.2</ele></trkpt>
      <trkpt lat="35.134749" lon="126.987703"><ele>713.3</ele></trkpt>
      <trkpt lat="35.134451" lon="126.987829"><ele>718.2</ele></trkpt>
      <trkpt lat="35.134101" lon="126.987887"><ele>724.4</ele></trkpt>
      <trkpt lat="35.133862" lon="126.988056"><ele>723.7</ele></trkpt>
    </trkseg>
  </trk>
</gpx>
