<?xml version="1.0" encoding="UTF-8"?>
<gpx version="1.1" creator="kr-100-mountains route-harvester"
     xmlns="http://www.topografix.com/GPX/1/1"
     xmlns:k100="https://github.com/jay-jang/kr-100-mountains/ns/1"
     xmlns:xsi="http://www.w3.org/2001/XMLSchema-instance"
     xsi:schemaLocation="http://www.topografix.com/GPX/1/1 http://www.topografix.com/GPX/1/1/gpx.xsd">
  <metadata>
    <name>무등산 · 원효사-서석대 코스 (대안 1) (OSM 계산 경로)</name>
    <desc>실제 GPS 기록이 아닙니다. OpenStreetMap에 등록된 등산로 선형 위에서 계산한 경로이며, 현장 통제·훼손·출입 제한·계절 통제를 반영하지 않을 수 있습니다. 산행 전 공식 안내를 확인하세요.</desc>
    <time>2026-08-04T05:30:41.234Z</time>
    <link href="https://www.openstreetmap.org/copyright"><text>© OpenStreetMap contributors (ODbL 1.0)</text></link>
    <link href="https://registry.opendata.aws/terrain-tiles/"><text>Elevation: SRTM 1 arc-second (NASA/USGS) via AWS Terrain Tiles</text></link>
    <extensions>
      <k100:provenance>osm-routed</k100:provenance>
      <k100:not_a_recorded_track>true</k100:not_a_recorded_track>
      <k100:mountain_id>mudeungsan</k100:mountain_id>
      <k100:mountain_name>무등산</k100:mountain_name>
      <k100:route_id>mudeungsan-78546293</k100:route_id>
      <k100:route_index>2</k100:route_index>
      <k100:route_name>원효사-서석대 코스</k100:route_name>
      <k100:variant>1</k100:variant>
      <k100:source>OpenStreetMap via Overpass API</k100:source>
      <k100:license>ODbL-1.0</k100:license>
      <k100:attribution>© OpenStreetMap contributors</k100:attribution>
      <k100:elevation_source>SRTM 1 arc-second (NASA/USGS) — AWS Terrain Tiles 배포본. 지형 DEM 추정 고도이며 실측 아님</k100:elevation_source>
      <k100:algorithm>dijkstra-grid-v1</k100:algorithm>
      <k100:osm_snapshot>2026-08-04</k100:osm_snapshot>
      <k100:snap_trailhead_m>156</k100:snap_trailhead_m>
      <k100:snap_summit_m>55</k100:snap_summit_m>
      <k100:validation_score>94</k100:validation_score>
      <k100:validation_status>accepted</k100:validation_status>
    </extensions>
  </metadata>
  <trk>
    <name>무등산 · 원효사-서석대 코스 (대안 1) (OSM 계산 경로)</name>
    <desc>실제 GPS 기록이 아닙니다. OpenStreetMap에 등록된 등산로 선형 위에서 계산한 경로이며, 현장 통제·훼손·출입 제한·계절 통제를 반영하지 않을 수 있습니다. 산행 전 공식 안내를 확인하세요.</desc>
    <trkseg>
      <trkpt lat="35.170853" lon="126.977325"><ele>346.3</ele></trkpt>
      <trkpt lat="35.170384" lon="126.977105"><ele>333.8</ele></trkpt>
      <trkpt lat="35.169897" lon="126.976086"><ele>314.0</ele></trkpt>
      <trkpt lat="35.169265" lon="126.976022"><ele>302.0</ele></trkpt>
      <trkpt lat="35.168787" lon="126.976236"><ele>294.2</ele></trkpt>
      <trkpt lat="35.168542" lon="126.976161"><ele>292.1</ele></trkpt>
      <trkpt lat="35.168362" lon="126.975962"><ele>292.5</ele></trkpt>
      <trkpt lat="35.168160" lon="126.976252"><ele>288.8</ele></trkpt>
      <trkpt lat="35.167853" lon="126.976907"><ele>275.6</ele></trkpt>
      <trkpt lat="35.167542" lon="126.977309"><ele>268.3</ele></trkpt>
      <trkpt lat="35.167468" lon="126.977349"><ele>267.3</ele></trkpt>
      <trkpt lat="35.167350" lon="126.977552"><ele>262.7</ele></trkpt>
      <trkpt lat="35.167462" lon="126.977768"><ele>260.2</ele></trkpt>
      <trkpt lat="35.167441" lon="126.977971"><ele>259.4</ele></trkpt>
      <trkpt lat="35.167302" lon="126.977978"><ele>255.5</ele></trkpt>
      <trkpt lat="35.167052" lon="126.978173"><ele>252.5</ele></trkpt>
      <trkpt lat="35.166950" lon="126.978399"><ele>252.3</ele></trkpt>
      <trkpt lat="35.166885" lon="126.978452"><ele>251.9</ele></trkpt>
      <trkpt lat="35.166674" lon="126.978202"><ele>250.5</ele></trkpt>
      <trkpt lat="35.166570" lon="126.978189"><ele>250.7</ele></trkpt>
      <trkpt lat="35.166350" lon="126.978296"><ele>250.7</ele></trkpt>
      <trkpt lat="35.165917" lon="126.978863"><ele>247.6</ele></trkpt>
      <trkpt lat="35.165860" lon="126.979076"><ele>246.5</ele></trkpt>
      <trkpt lat="35.165749" lon="126.979205"><ele>246.2</ele></trkpt>
      <trkpt lat="35.165625" lon="126.979221"><ele>247.1</ele></trkpt>
      <trkpt lat="35.165475" lon="126.979433"><ele>246.6</ele></trkpt>
      <trkpt lat="35.165359" lon="126.979516"><ele>247.3</ele></trkpt>
      <trkpt lat="35.165241" lon="126.979732"><ele>248.1</ele></trkpt>
      <trkpt lat="35.165160" lon="126.979771"><ele>248.3</ele></trkpt>
      <trkpt lat="35.164773" lon="126.979709"><ele>247.2</ele></trkpt>
      <trkpt lat="35.164459" lon="126.979555"><ele>247.6</ele></trkpt>
      <trkpt lat="35.164306" lon="126.979606"><ele>246.5</ele></trkpt>
      <trkpt lat="35.164009" lon="126.979510"><ele>247.6</ele></trkpt>
      <trkpt lat="35.162219" lon="126.979913"><ele>253.4</ele></trkpt>
      <trkpt lat="35.161856" lon="126.979690"><ele>262.8</ele></trkpt>
      <trkpt lat="35.162051" lon="126.979435"><ele>257.9</ele></trkpt>
      <trkpt lat="35.161750" lon="126.979230"><ele>264.5</ele></trkpt>
      <trkpt lat="35.161293" lon="126.977996"><ele>274.6</ele></trkpt>
      <trkpt lat="35.161060" lon="126.977939"><ele>277.6</ele></trkpt>
      <trkpt lat="35.161074" lon="126.978554"><ele>275.1</ele></trkpt>
      <trkpt lat="35.161240" lon="126.979358"><ele>277.3</ele></trkpt>
      <trkpt lat="35.161148" lon="126.980522"><ele>286.1</ele></trkpt>
      <trkpt lat="35.161380" lon="126.981815"><ele>281.8</ele></trkpt>
      <trkpt lat="35.161372" lon="126.982110"><ele>283.3</ele></trkpt>
      <trkpt lat="35.161209" lon="126.982437"><ele>290.9</ele></trkpt>
      <trkpt lat="35.161148" lon="126.982818"><ele>293.8</ele></trkpt>
      <trkpt lat="35.161218" lon="126.983296"><ele>290.7</ele></trkpt>
      <trkpt lat="35.161337" lon="126.983698"><ele>285.6</ele></trkpt>
      <trkpt lat="35.161324" lon="126.983902"><ele>286.4</ele></trkpt>
      <trkpt lat="35.161166" lon="126.984819"><ele>290.0</ele></trkpt>
      <trkpt lat="35.160973" lon="126.985361"><ele>294.1</ele></trkpt>
      <trkpt lat="35.160850" lon="126.986080"><ele>292.8</ele></trkpt>
      <trkpt lat="35.160503" lon="126.986520"><ele>295.8</ele></trkpt>
      <trkpt lat="35.160205" lon="126.986659"><ele>294.1</ele></trkpt>
      <trkpt lat="35.159517" lon="126.986793"><ele>291.1</ele></trkpt>
      <trkpt lat="35.158530" lon="126.986825"><ele>299.0</ele></trkpt>
      <trkpt lat="35.157990" lon="126.986938"><ele>302.1</ele></trkpt>
      <trkpt lat="35.157284" lon="126.987335"><ele>296.4</ele></trkpt>
      <trkpt lat="35.157008" lon="126.987340"><ele>298.4</ele></trkpt>
      <trkpt lat="35.156806" lon="126.987459"><ele>294.1</ele></trkpt>
      <trkpt lat="35.156390" lon="126.987367"><ele>298.3</ele></trkpt>
      <trkpt lat="35.156069" lon="126.987206"><ele>305.7</ele></trkpt>
      <trkpt lat="35.155789" lon="126.987179"><ele>307.4</ele></trkpt>
      <trkpt lat="35.154741" lon="126.987560"><ele>305.3</ele></trkpt>
      <trkpt lat="35.154521" lon="126.987818"><ele>304.0</ele></trkpt>
      <trkpt lat="35.154026" lon="126.988054"><ele>303.1</ele></trkpt>
      <trkpt lat="35.153583" lon="126.987989"><ele>306.6</ele></trkpt>
      <trkpt lat="35.152876" lon="126.988220"><ele>303.1</ele></trkpt>
      <trkpt lat="35.152561" lon="126.988151"><ele>312.2</ele></trkpt>
      <trkpt lat="35.152332" lon="126.988301"><ele>307.6</ele></trkpt>
      <trkpt lat="35.150639" lon="126.988317"><ele>320.3</ele></trkpt>
      <trkpt lat="35.150324" lon="126.988515"><ele>319.3</ele></trkpt>
      <trkpt lat="35.149354" lon="126.988537"><ele>325.8</ele></trkpt>
      <trkpt lat="35.149008" lon="126.988435"><ele>330.7</ele></trkpt>
      <trkpt lat="35.148486" lon="126.988188"><ele>334.5</ele></trkpt>
      <trkpt lat="35.148339" lon="126.987762"><ele>345.7</ele></trkpt>
      <trkpt lat="35.147999" lon="126.987462"><ele>352.5</ele></trkpt>
      <trkpt lat="35.147911" lon="126.987315"><ele>355.4</ele></trkpt>
      <trkpt lat="35.146558" lon="126.987078"><ele>358.8</ele></trkpt>
      <trkpt lat="35.145688" lon="126.987389"><ele>361.9</ele></trkpt>
      <trkpt lat="35.144569" lon="126.988869"><ele>372.7</ele></trkpt>
      <trkpt lat="35.144418" lon="126.988863"><ele>374.4</ele></trkpt>
      <trkpt lat="35.144097" lon="126.988687"><ele>380.0</ele></trkpt>
      <trkpt lat="35.143863" lon="126.988637"><ele>386.3</ele></trkpt>
      <trkpt lat="35.143605" lon="126.988942"><ele>388.1</ele></trkpt>
      <trkpt lat="35.143046" lon="126.989411"><ele>393.2</ele></trkpt>
      <trkpt lat="35.142954" lon="126.989552"><ele>393.9</ele></trkpt>
      <trkpt lat="35.142878" lon="126.989846"><ele>391.6</ele></trkpt>
      <trkpt lat="35.142630" lon="126.990158"><ele>395.2</ele></trkpt>
      <trkpt lat="35.142521" lon="126.990201"><ele>398.6</ele></trkpt>
      <trkpt lat="35.142133" lon="126.990612"><ele>404.2</ele></trkpt>
      <trkpt lat="35.141912" lon="126.990982"><ele>409.6</ele></trkpt>
      <trkpt lat="35.141801" lon="126.991310"><ele>413.1</ele></trkpt>
      <trkpt lat="35.141653" lon="126.991577"><ele>413.9</ele></trkpt>
      <trkpt lat="35.140688" lon="126.992413"><ele>426.9</ele></trkpt>
      <trkpt lat="35.140470" lon="126.992742"><ele>429.1</ele></trkpt>
      <trkpt lat="35.140151" lon="126.993041"><ele>434.0</ele></trkpt>
      <trkpt lat="35.139997" lon="126.993104"><ele>435.4</ele></trkpt>
      <trkpt lat="35.139870" lon="126.993107"><ele>438.6</ele></trkpt>
      <trkpt lat="35.139407" lon="126.992954"><ele>453.8</ele></trkpt>
      <trkpt lat="35.139141" lon="126.992838"><ele>460.0</ele></trkpt>
      <trkpt lat="35.138916" lon="126.992587"><ele>468.4</ele></trkpt>
      <trkpt lat="35.138441" lon="126.992465"><ele>481.9</ele></trkpt>
      <trkpt lat="35.138314" lon="126.992350"><ele>487.2</ele></trkpt>
      <trkpt lat="35.138243" lon="126.992120"><ele>493.7</ele></trkpt>
      <trkpt lat="35.138429" lon="126.991754"><ele>494.9</ele></trkpt>
      <trkpt lat="35.138321" lon="126.991635"><ele>500.0</ele></trkpt>
      <trkpt lat="35.138179" lon="126.991599"><ele>505.0</ele></trkpt>
      <trkpt lat="35.138007" lon="126.991378"><ele>512.6</ele></trkpt>
      <trkpt lat="35.137799" lon="126.991291"><ele>520.2</ele></trkpt>
      <trkpt lat="35.137369" lon="126.991550"><ele>529.2</ele></trkpt>
      <trkpt lat="35.137053" lon="126.991838"><ele>533.9</ele></trkpt>
      <trkpt lat="35.136863" lon="126.991946"><ele>537.7</ele></trkpt>
      <trkpt lat="35.136276" lon="126.991999"><ele>547.7</ele></trkpt>
      <trkpt lat="35.135919" lon="126.991766"><ele>560.9</ele></trkpt>
      <trkpt lat="35.135267" lon="126.992205"><ele>572.5</ele></trkpt>
      <trkpt lat="35.134889" lon="126.992275"><ele>576.7</ele></trkpt>
      <trkpt lat="35.134483" lon="126.992499"><ele>579.5</ele></trkpt>
      <trkpt lat="35.134190" lon="126.992568"><ele>584.5</ele></trkpt>
      <trkpt lat="35.133655" lon="126.992841"><ele>594.4</ele></trkpt>
      <trkpt lat="35.133141" lon="126.993311"><ele>603.8</ele></trkpt>
      <trkpt lat="35.132789" lon="126.993553"><ele>606.8</ele></trkpt>
      <trkpt lat="35.131526" lon="126.994780"><ele>628.7</ele></trkpt>
      <trkpt lat="35.131364" lon="126.994837"><ele>630.6</ele></trkpt>
      <trkpt lat="35.131299" lon="126.994934"><ele>631.1</ele></trkpt>
      <trkpt lat="35.130531" lon="126.995534"><ele>646.5</ele></trkpt>
      <trkpt lat="35.130259" lon="126.995873"><ele>655.8</ele></trkpt>
      <trkpt lat="35.129920" lon="126.996129"><ele>666.7</ele></trkpt>
      <trkpt lat="35.129314" lon="126.995952"><ele>684.8</ele></trkpt>
      <trkpt lat="35.128767" lon="126.995913"><ele>701.2</ele></trkpt>
      <trkpt lat="35.128449" lon="126.995999"><ele>712.3</ele></trkpt>
      <trkpt lat="35.128320" lon="126.995982"><ele>716.7</ele></trkpt>
      <trkpt lat="35.128106" lon="126.995864"><ele>724.1</ele></trkpt>
      <trkpt lat="35.127986" lon="126.995650"><ele>730.8</ele></trkpt>
      <trkpt lat="35.127831" lon="126.995585"><ele>736.2</ele></trkpt>
      <trkpt lat="35.127629" lon="126.995693"><ele>741.3</ele></trkpt>
      <trkpt lat="35.127417" lon="126.996039"><ele>743.4</ele></trkpt>
      <trkpt lat="35.127285" lon="126.996088"><ele>745.2</ele></trkpt>
      <trkpt lat="35.127143" lon="126.996016"><ele>748.6</ele></trkpt>
      <trkpt lat="35.127081" lon="126.995743"><ele>754.3</ele></trkpt>
      <trkpt lat="35.126923" lon="126.995566"><ele>761.0</ele></trkpt>
      <trkpt lat="35.126800" lon="126.995150"><ele>771.4</ele></trkpt>
      <trkpt lat="35.125803" lon="126.994967"><ele>797.4</ele></trkpt>
      <trkpt lat="35.125255" lon="126.994915"><ele>810.2</ele></trkpt>
      <trkpt lat="35.125111" lon="126.994957"><ele>814.0</ele></trkpt>
      <trkpt lat="35.124876" lon="126.994755"><ele>823.3</ele></trkpt>
      <trkpt lat="35.124707" lon="126.994733"><ele>828.5</ele></trkpt>
      <trkpt lat="35.124667" lon="126.994316"><ele>831.8</ele></trkpt>
      <trkpt lat="35.124958" lon="126.993897"><ele>832.6</ele></trkpt>
      <trkpt lat="35.124972" lon="126.993800"><ele>835.1</ele></trkpt>
      <trkpt lat="35.125616" lon="126.993545"><ele>830.3</ele></trkpt>
      <trkpt lat="35.126055" lon="126.993508"><ele>824.4</ele></trkpt>
      <trkpt lat="35.126750" lon="126.993598"><ele>808.6</ele></trkpt>
      <trkpt lat="35.127172" lon="126.993285"><ele>805.5</ele></trkpt>
      <trkpt lat="35.127874" lon="126.992211"><ele>800.1</ele></trkpt>
      <trkpt lat="35.128329" lon="126.991675"><ele>789.0</ele></trkpt>
      <trkpt lat="35.128705" lon="126.991130"><ele>788.5</ele></trkpt>
      <trkpt lat="35.129487" lon="126.990325"><ele>775.5</ele></trkpt>
      <trkpt lat="35.129783" lon="126.990195"><ele>772.1</ele></trkpt>
      <trkpt lat="35.130218" lon="126.990122"><ele>763.8</ele></trkpt>
      <trkpt lat="35.130966" lon="126.989735"><ele>750.8</ele></trkpt>
      <trkpt lat="35.131335" lon="126.989362"><ele>751.1</ele></trkpt>
      <trkpt lat="35.131538" lon="126.989236"><ele>752.0</ele></trkpt>
      <trkpt lat="35.131987" lon="126.989105"><ele>748.3</ele></trkpt>
      <trkpt lat="35.132366" lon="126.988922"><ele>744.9</ele></trkpt>
      <trkpt lat="35.133074" lon="126.988536"><ele>732.2</ele></trkpt>
      <trkpt lat="35.133510" lon="126.988210"><ele>728.7</ele></trkpt>
      <trkpt lat="35.133862" lon="126.988056"><ele>723.7</ele></trkpt>
    </trkseg>
  </trk>
</gpx>
