<?xml version="1.0" encoding="UTF-8"?>
<gpx version="1.1" creator="kr-100-mountains route-harvester"
     xmlns="http://www.topografix.com/GPX/1/1"
     xmlns:k100="https://github.com/jay-jang/kr-100-mountains/ns/1"
     xmlns:xsi="http://www.w3.org/2001/XMLSchema-instance"
     xsi:schemaLocation="http://www.topografix.com/GPX/1/1 http://www.topografix.com/GPX/1/1/gpx.xsd">
  <metadata>
    <name>덕유산 · 안성탐방지원센터-동엽령-중봉-향적봉 (OSM 계산 경로)</name>
    <desc>실제 GPS 기록이 아닙니다. OpenStreetMap에 등록된 등산로 선형 위에서 계산한 경로이며, 현장 통제·훼손·출입 제한·계절 통제를 반영하지 않을 수 있습니다. 산행 전 공식 안내를 확인하세요.</desc>
    <time>2026-08-04T05:30:15.402Z</time>
    <link href="https://www.openstreetmap.org/copyright"><text>© OpenStreetMap contributors (ODbL 1.0)</text></link>
    <link href="https://registry.opendata.aws/terrain-tiles/"><text>Elevation: SRTM 1 arc-second (NASA/USGS) via AWS Terrain Tiles</text></link>
    <extensions>
      <k100:provenance>osm-routed</k100:provenance>
      <k100:not_a_recorded_track>true</k100:not_a_recorded_track>
      <k100:mountain_id>deokyusan</k100:mountain_id>
      <k100:mountain_name>덕유산</k100:mountain_name>
      <k100:route_id>deokyusan-f6a89946</k100:route_id>
      <k100:route_index>5</k100:route_index>
      <k100:route_name>안성탐방지원센터-동엽령-중봉-향적봉</k100:route_name>
      <k100:variant>0</k100:variant>
      <k100:source>OpenStreetMap via Overpass API</k100:source>
      <k100:license>ODbL-1.0</k100:license>
      <k100:attribution>© OpenStreetMap contributors</k100:attribution>
      <k100:elevation_source>SRTM 1 arc-second (NASA/USGS) — AWS Terrain Tiles 배포본. 지형 DEM 추정 고도이며 실측 아님</k100:elevation_source>
      <k100:algorithm>dijkstra-grid-v1</k100:algorithm>
      <k100:osm_snapshot>2026-08-04</k100:osm_snapshot>
      <k100:snap_trailhead_m>341</k100:snap_trailhead_m>
      <k100:snap_summit_m>27</k100:snap_summit_m>
      <k100:validation_score>87</k100:validation_score>
      <k100:validation_status>accepted</k100:validation_status>
    </extensions>
  </metadata>
  <trk>
    <name>덕유산 · 안성탐방지원센터-동엽령-중봉-향적봉 (OSM 계산 경로)</name>
    <desc>실제 GPS 기록이 아닙니다. OpenStreetMap에 등록된 등산로 선형 위에서 계산한 경로이며, 현장 통제·훼손·출입 제한·계절 통제를 반영하지 않을 수 있습니다. 산행 전 공식 안내를 확인하세요.</desc>
    <trkseg>
      <trkpt lat="35.834149" lon="127.689842"><ele>628.0</ele></trkpt>
      <trkpt lat="35.834440" lon="127.690020"><ele>629.4</ele></trkpt>
      <trkpt lat="35.834606" lon="127.690020"><ele>630.7</ele></trkpt>
      <trkpt lat="35.834710" lon="127.689891"><ele>628.6</ele></trkpt>
      <trkpt lat="35.834749" lon="127.689606"><ele>623.9</ele></trkpt>
      <trkpt lat="35.834949" lon="127.689328"><ele>622.5</ele></trkpt>
      <trkpt lat="35.835053" lon="127.689033"><ele>618.6</ele></trkpt>
      <trkpt lat="35.835049" lon="127.688786"><ele>612.7</ele></trkpt>
      <trkpt lat="35.835384" lon="127.687617"><ele>597.6</ele></trkpt>
      <trkpt lat="35.835349" lon="127.687381"><ele>592.3</ele></trkpt>
      <trkpt lat="35.835240" lon="127.687225"><ele>588.9</ele></trkpt>
      <trkpt lat="35.834762" lon="127.686952"><ele>588.5</ele></trkpt>
      <trkpt lat="35.834509" lon="127.686570"><ele>590.8</ele></trkpt>
      <trkpt lat="35.834704" lon="127.686318"><ele>585.1</ele></trkpt>
      <trkpt lat="35.834965" lon="127.685647"><ele>575.7</ele></trkpt>
      <trkpt lat="35.835074" lon="127.685502"><ele>574.8</ele></trkpt>
      <trkpt lat="35.835270" lon="127.685363"><ele>573.6</ele></trkpt>
      <trkpt lat="35.835879" lon="127.685057"><ele>565.5</ele></trkpt>
      <trkpt lat="35.836292" lon="127.684612"><ele>561.4</ele></trkpt>
      <trkpt lat="35.836696" lon="127.684607"><ele>555.8</ele></trkpt>
      <trkpt lat="35.836840" lon="127.684553"><ele>554.0</ele></trkpt>
      <trkpt lat="35.837301" lon="127.684151"><ele>546.8</ele></trkpt>
      <trkpt lat="35.838018" lon="127.683813"><ele>539.2</ele></trkpt>
      <trkpt lat="35.838123" lon="127.683722"><ele>537.4</ele></trkpt>
      <trkpt lat="35.838679" lon="127.682879"><ele>524.6</ele></trkpt>
      <trkpt lat="35.838906" lon="127.682854"><ele>524.5</ele></trkpt>
      <trkpt lat="35.839158" lon="127.683197"><ele>528.5</ele></trkpt>
      <trkpt lat="35.839340" lon="127.683680"><ele>527.1</ele></trkpt>
      <trkpt lat="35.839854" lon="127.684276"><ele>517.5</ele></trkpt>
      <trkpt lat="35.839980" lon="127.684560"><ele>513.6</ele></trkpt>
      <trkpt lat="35.840115" lon="127.684655"><ele>512.2</ele></trkpt>
      <trkpt lat="35.839663" lon="127.688188"><ele>526.6</ele></trkpt>
      <trkpt lat="35.839625" lon="127.690580"><ele>535.1</ele></trkpt>
      <trkpt lat="35.839396" lon="127.691242"><ele>537.6</ele></trkpt>
      <trkpt lat="35.838886" lon="127.692039"><ele>542.7</ele></trkpt>
      <trkpt lat="35.838799" lon="127.692252"><ele>545.5</ele></trkpt>
      <trkpt lat="35.838731" lon="127.693058"><ele>545.9</ele></trkpt>
      <trkpt lat="35.838230" lon="127.693813"><ele>553.1</ele></trkpt>
      <trkpt lat="35.838114" lon="127.694149"><ele>556.7</ele></trkpt>
      <trkpt lat="35.837996" lon="127.694766"><ele>562.3</ele></trkpt>
      <trkpt lat="35.837996" lon="127.695752"><ele>572.5</ele></trkpt>
      <trkpt lat="35.838453" lon="127.696596"><ele>573.4</ele></trkpt>
      <trkpt lat="35.838914" lon="127.697143"><ele>573.8</ele></trkpt>
      <trkpt lat="35.839054" lon="127.697462"><ele>574.9</ele></trkpt>
      <trkpt lat="35.839110" lon="127.697876"><ele>577.1</ele></trkpt>
      <trkpt lat="35.839085" lon="127.698164"><ele>578.6</ele></trkpt>
      <trkpt lat="35.838980" lon="127.698474"><ele>582.0</ele></trkpt>
      <trkpt lat="35.838652" lon="127.698944"><ele>587.2</ele></trkpt>
      <trkpt lat="35.838160" lon="127.699500"><ele>592.3</ele></trkpt>
      <trkpt lat="35.837919" lon="127.700219"><ele>592.9</ele></trkpt>
      <trkpt lat="35.837715" lon="127.700278"><ele>596.0</ele></trkpt>
      <trkpt lat="35.837409" lon="127.700552"><ele>602.3</ele></trkpt>
      <trkpt lat="35.837324" lon="127.700508"><ele>606.3</ele></trkpt>
      <trkpt lat="35.836883" lon="127.700856"><ele>615.6</ele></trkpt>
      <trkpt lat="35.836836" lon="127.701029"><ele>616.3</ele></trkpt>
      <trkpt lat="35.836752" lon="127.701769"><ele>615.8</ele></trkpt>
      <trkpt lat="35.836930" lon="127.704018"><ele>629.9</ele></trkpt>
      <trkpt lat="35.836783" lon="127.705578"><ele>641.2</ele></trkpt>
      <trkpt lat="35.836810" lon="127.706591"><ele>643.0</ele></trkpt>
      <trkpt lat="35.836789" lon="127.706867"><ele>643.1</ele></trkpt>
      <trkpt lat="35.836685" lon="127.707117"><ele>643.5</ele></trkpt>
      <trkpt lat="35.836638" lon="127.707372"><ele>644.7</ele></trkpt>
      <trkpt lat="35.836468" lon="127.707714"><ele>651.1</ele></trkpt>
      <trkpt lat="35.836357" lon="127.708179"><ele>654.5</ele></trkpt>
      <trkpt lat="35.836225" lon="127.708475"><ele>657.4</ele></trkpt>
      <trkpt lat="35.835693" lon="127.709236"><ele>666.1</ele></trkpt>
      <trkpt lat="35.835325" lon="127.709561"><ele>672.2</ele></trkpt>
      <trkpt lat="35.834250" lon="127.709950"><ele>689.4</ele></trkpt>
      <trkpt lat="35.834046" lon="127.710279"><ele>683.4</ele></trkpt>
      <trkpt lat="35.833468" lon="127.710611"><ele>684.0</ele></trkpt>
      <trkpt lat="35.833522" lon="127.710892"><ele>681.0</ele></trkpt>
      <trkpt lat="35.833698" lon="127.711194"><ele>682.5</ele></trkpt>
      <trkpt lat="35.833497" lon="127.711850"><ele>694.7</ele></trkpt>
      <trkpt lat="35.833138" lon="127.712222"><ele>706.9</ele></trkpt>
      <trkpt lat="35.832967" lon="127.712730"><ele>717.4</ele></trkpt>
      <trkpt lat="35.832542" lon="127.713200"><ele>721.5</ele></trkpt>
      <trkpt lat="35.832327" lon="127.714042"><ele>746.2</ele></trkpt>
      <trkpt lat="35.832038" lon="127.714250"><ele>746.3</ele></trkpt>
      <trkpt lat="35.831993" lon="127.714798"><ele>754.1</ele></trkpt>
      <trkpt lat="35.831888" lon="127.715129"><ele>755.9</ele></trkpt>
      <trkpt lat="35.831827" lon="127.715791"><ele>768.7</ele></trkpt>
      <trkpt lat="35.831664" lon="127.716233"><ele>771.0</ele></trkpt>
      <trkpt lat="35.831527" lon="127.717030"><ele>783.4</ele></trkpt>
      <trkpt lat="35.831452" lon="127.717763"><ele>790.5</ele></trkpt>
      <trkpt lat="35.831606" lon="127.718339"><ele>801.5</ele></trkpt>
      <trkpt lat="35.831623" lon="127.718849"><ele>806.9</ele></trkpt>
      <trkpt lat="35.831728" lon="127.719564"><ele>820.0</ele></trkpt>
      <trkpt lat="35.831923" lon="127.720287"><ele>825.5</ele></trkpt>
      <trkpt lat="35.832114" lon="127.720490"><ele>829.7</ele></trkpt>
      <trkpt lat="35.832270" lon="127.720770"><ele>835.1</ele></trkpt>
      <trkpt lat="35.832301" lon="127.721123"><ele>840.0</ele></trkpt>
      <trkpt lat="35.832214" lon="127.721466"><ele>842.7</ele></trkpt>
      <trkpt lat="35.832309" lon="127.721728"><ele>849.1</ele></trkpt>
      <trkpt lat="35.832523" lon="127.722014"><ele>854.3</ele></trkpt>
      <trkpt lat="35.832558" lon="127.722250"><ele>857.8</ele></trkpt>
      <trkpt lat="35.832732" lon="127.722618"><ele>864.5</ele></trkpt>
      <trkpt lat="35.832849" lon="127.723103"><ele>874.6</ele></trkpt>
      <trkpt lat="35.832763" lon="127.723272"><ele>881.8</ele></trkpt>
      <trkpt lat="35.832706" lon="127.723693"><ele>896.6</ele></trkpt>
      <trkpt lat="35.832501" lon="127.724229"><ele>910.3</ele></trkpt>
      <trkpt lat="35.832348" lon="127.724966"><ele>933.7</ele></trkpt>
      <trkpt lat="35.832258" lon="127.725222"><ele>943.6</ele></trkpt>
      <trkpt lat="35.832080" lon="127.725468"><ele>951.3</ele></trkpt>
      <trkpt lat="35.831980" lon="127.725897"><ele>959.1</ele></trkpt>
      <trkpt lat="35.831853" lon="127.726059"><ele>964.6</ele></trkpt>
      <trkpt lat="35.831933" lon="127.726483"><ele>977.0</ele></trkpt>
      <trkpt lat="35.831967" lon="127.727017"><ele>989.1</ele></trkpt>
      <trkpt lat="35.831833" lon="127.727250"><ele>998.5</ele></trkpt>
      <trkpt lat="35.831537" lon="127.727426"><ele>1004.5</ele></trkpt>
      <trkpt lat="35.831567" lon="127.728100"><ele>1012.8</ele></trkpt>
      <trkpt lat="35.831850" lon="127.728683"><ele>1037.8</ele></trkpt>
      <trkpt lat="35.831967" lon="127.729117"><ele>1055.4</ele></trkpt>
      <trkpt lat="35.832283" lon="127.729483"><ele>1071.7</ele></trkpt>
      <trkpt lat="35.832367" lon="127.729750"><ele>1080.7</ele></trkpt>
      <trkpt lat="35.832683" lon="127.730067"><ele>1094.9</ele></trkpt>
      <trkpt lat="35.832700" lon="127.730467"><ele>1104.7</ele></trkpt>
      <trkpt lat="35.832883" lon="127.731100"><ele>1125.8</ele></trkpt>
      <trkpt lat="35.832867" lon="127.731783"><ele>1136.3</ele></trkpt>
      <trkpt lat="35.833133" lon="127.732433"><ele>1153.8</ele></trkpt>
      <trkpt lat="35.833200" lon="127.732983"><ele>1169.1</ele></trkpt>
      <trkpt lat="35.833550" lon="127.733683"><ele>1189.1</ele></trkpt>
      <trkpt lat="35.834083" lon="127.734367"><ele>1220.2</ele></trkpt>
      <trkpt lat="35.834217" lon="127.734750"><ele>1234.8</ele></trkpt>
      <trkpt lat="35.834450" lon="127.735050"><ele>1252.1</ele></trkpt>
      <trkpt lat="35.834500" lon="127.735367"><ele>1264.0</ele></trkpt>
      <trkpt lat="35.834717" lon="127.735783"><ele>1278.6</ele></trkpt>
      <trkpt lat="35.834800" lon="127.736200"><ele>1288.4</ele></trkpt>
      <trkpt lat="35.834900" lon="127.736450"><ele>1294.1</ele></trkpt>
      <trkpt lat="35.834817" lon="127.737167"><ele>1306.5</ele></trkpt>
      <trkpt lat="35.834650" lon="127.737517"><ele>1312.1</ele></trkpt>
      <trkpt lat="35.834600" lon="127.737917"><ele>1317.0</ele></trkpt>
      <trkpt lat="35.834617" lon="127.738157"><ele>1316.5</ele></trkpt>
      <trkpt lat="35.834705" lon="127.738214"><ele>1315.6</ele></trkpt>
      <trkpt lat="35.834942" lon="127.738596"><ele>1310.5</ele></trkpt>
      <trkpt lat="35.835099" lon="127.738760"><ele>1306.3</ele></trkpt>
      <trkpt lat="35.835177" lon="127.739089"><ele>1299.6</ele></trkpt>
      <trkpt lat="35.835977" lon="127.739489"><ele>1301.4</ele></trkpt>
      <trkpt lat="35.836177" lon="127.739708"><ele>1302.8</ele></trkpt>
      <trkpt lat="35.836387" lon="127.739609"><ele>1306.8</ele></trkpt>
      <trkpt lat="35.836568" lon="127.739835"><ele>1307.1</ele></trkpt>
      <trkpt lat="35.836723" lon="127.739886"><ele>1308.1</ele></trkpt>
      <trkpt lat="35.836729" lon="127.740007"><ele>1308.1</ele></trkpt>
      <trkpt lat="35.836952" lon="127.740053"><ele>1308.6</ele></trkpt>
      <trkpt lat="35.837175" lon="127.740185"><ele>1309.9</ele></trkpt>
      <trkpt lat="35.837487" lon="127.740556"><ele>1316.8</ele></trkpt>
      <trkpt lat="35.837614" lon="127.740793"><ele>1322.7</ele></trkpt>
      <trkpt lat="35.837765" lon="127.740852"><ele>1328.0</ele></trkpt>
      <trkpt lat="35.838094" lon="127.741360"><ele>1351.7</ele></trkpt>
      <trkpt lat="35.838393" lon="127.741366"><ele>1359.2</ele></trkpt>
      <trkpt lat="35.838597" lon="127.741564"><ele>1360.9</ele></trkpt>
      <trkpt lat="35.838788" lon="127.741626"><ele>1359.4</ele></trkpt>
      <trkpt lat="35.838965" lon="127.741789"><ele>1360.7</ele></trkpt>
      <trkpt lat="35.839179" lon="127.741857"><ele>1362.5</ele></trkpt>
      <trkpt lat="35.839320" lon="127.741782"><ele>1360.3</ele></trkpt>
      <trkpt lat="35.839426" lon="127.741823"><ele>1361.5</ele></trkpt>
      <trkpt lat="35.839486" lon="127.741942"><ele>1365.2</ele></trkpt>
      <trkpt lat="35.839742" lon="127.741977"><ele>1368.2</ele></trkpt>
      <trkpt lat="35.839793" lon="127.742101"><ele>1371.5</ele></trkpt>
      <trkpt lat="35.839909" lon="127.742139"><ele>1375.6</ele></trkpt>
      <trkpt lat="35.840022" lon="127.742129"><ele>1378.9</ele></trkpt>
      <trkpt lat="35.840117" lon="127.742042"><ele>1379.9</ele></trkpt>
      <trkpt lat="35.840195" lon="127.742166"><ele>1384.1</ele></trkpt>
      <trkpt lat="35.840375" lon="127.742243"><ele>1389.0</ele></trkpt>
      <trkpt lat="35.840688" lon="127.742219"><ele>1390.8</ele></trkpt>
      <trkpt lat="35.840893" lon="127.742272"><ele>1392.9</ele></trkpt>
      <trkpt lat="35.841564" lon="127.742964"><ele>1414.5</ele></trkpt>
      <trkpt lat="35.841667" lon="127.742987"><ele>1416.0</ele></trkpt>
      <trkpt lat="35.841947" lon="127.743221"><ele>1418.7</ele></trkpt>
      <trkpt lat="35.841997" lon="127.743452"><ele>1421.9</ele></trkpt>
      <trkpt lat="35.842100" lon="127.743549"><ele>1422.5</ele></trkpt>
      <trkpt lat="35.842132" lon="127.743768"><ele>1423.7</ele></trkpt>
      <trkpt lat="35.842241" lon="127.743859"><ele>1425.8</ele></trkpt>
      <trkpt lat="35.842265" lon="127.744002"><ele>1425.2</ele></trkpt>
      <trkpt lat="35.842450" lon="127.744191"><ele>1431.6</ele></trkpt>
      <trkpt lat="35.843276" lon="127.744726"><ele>1465.2</ele></trkpt>
      <trkpt lat="35.843379" lon="127.744840"><ele>1469.2</ele></trkpt>
      <trkpt lat="35.843661" lon="127.744929"><ele>1476.9</ele></trkpt>
      <trkpt lat="35.843849" lon="127.745053"><ele>1482.2</ele></trkpt>
      <trkpt lat="35.844155" lon="127.744993"><ele>1490.6</ele></trkpt>
      <trkpt lat="35.844476" lon="127.744833"><ele>1487.1</ele></trkpt>
      <trkpt lat="35.844952" lon="127.744845"><ele>1480.3</ele></trkpt>
      <trkpt lat="35.845018" lon="127.744786"><ele>1480.2</ele></trkpt>
      <trkpt lat="35.845377" lon="127.744731"><ele>1477.7</ele></trkpt>
      <trkpt lat="35.845599" lon="127.744827"><ele>1472.2</ele></trkpt>
      <trkpt lat="35.845943" lon="127.744715"><ele>1465.2</ele></trkpt>
      <trkpt lat="35.846151" lon="127.744757"><ele>1460.0</ele></trkpt>
      <trkpt lat="35.846334" lon="127.744435"><ele>1458.4</ele></trkpt>
      <trkpt lat="35.847610" lon="127.743886"><ele>1482.0</ele></trkpt>
      <trkpt lat="35.847708" lon="127.743963"><ele>1481.2</ele></trkpt>
      <trkpt lat="35.848230" lon="127.744731"><ele>1473.3</ele></trkpt>
      <trkpt lat="35.848556" lon="127.744934"><ele>1471.9</ele></trkpt>
      <trkpt lat="35.848939" lon="127.745541"><ele>1479.9</ele></trkpt>
      <trkpt lat="35.849202" lon="127.745750"><ele>1485.6</ele></trkpt>
      <trkpt lat="35.850056" lon="127.746072"><ele>1506.7</ele></trkpt>
      <trkpt lat="35.850630" lon="127.746656"><ele>1530.0</ele></trkpt>
      <trkpt lat="35.850791" lon="127.746989"><ele>1545.7</ele></trkpt>
      <trkpt lat="35.850917" lon="127.746973"><ele>1550.1</ele></trkpt>
      <trkpt lat="35.851113" lon="127.747096"><ele>1561.1</ele></trkpt>
      <trkpt lat="35.851463" lon="127.747447"><ele>1576.3</ele></trkpt>
      <trkpt lat="35.851607" lon="127.747327"><ele>1577.1</ele></trkpt>
      <trkpt lat="35.851630" lon="127.747229"><ele>1578.2</ele></trkpt>
      <trkpt lat="35.851730" lon="127.747171"><ele>1577.6</ele></trkpt>
      <trkpt lat="35.852347" lon="127.747158"><ele>1575.3</ele></trkpt>
      <trkpt lat="35.852913" lon="127.746821"><ele>1564.3</ele></trkpt>
      <trkpt lat="35.852987" lon="127.746859"><ele>1562.7</ele></trkpt>
      <trkpt lat="35.853214" lon="127.746829"><ele>1560.2</ele></trkpt>
      <trkpt lat="35.853608" lon="127.746640"><ele>1562.5</ele></trkpt>
      <trkpt lat="35.853800" lon="127.746587"><ele>1561.2</ele></trkpt>
      <trkpt lat="35.853969" lon="127.746611"><ele>1560.7</ele></trkpt>
      <trkpt lat="35.854196" lon="127.746496"><ele>1556.7</ele></trkpt>
      <trkpt lat="35.854680" lon="127.746728"><ele>1557.1</ele></trkpt>
      <trkpt lat="35.854852" lon="127.746721"><ele>1557.7</ele></trkpt>
      <trkpt lat="35.855004" lon="127.746842"><ele>1558.0</ele></trkpt>
      <trkpt lat="35.855100" lon="127.746801"><ele>1558.0</ele></trkpt>
      <trkpt lat="35.855302" lon="127.746903"><ele>1558.6</ele></trkpt>
      <trkpt lat="35.855492" lon="127.746887"><ele>1558.0</ele></trkpt>
      <trkpt lat="35.855578" lon="127.746980"><ele>1557.9</ele></trkpt>
      <trkpt lat="35.855725" lon="127.747037"><ele>1557.9</ele></trkpt>
      <trkpt lat="35.856300" lon="127.746640"><ele>1565.4</ele></trkpt>
      <trkpt lat="35.856491" lon="127.746624"><ele>1566.8</ele></trkpt>
      <trkpt lat="35.856771" lon="127.746840"><ele>1568.8</ele></trkpt>
      <trkpt lat="35.857009" lon="127.746731"><ele>1573.1</ele></trkpt>
      <trkpt lat="35.857121" lon="127.746733"><ele>1574.5</ele></trkpt>
      <trkpt lat="35.857468" lon="127.746427"><ele>1585.6</ele></trkpt>
      <trkpt lat="35.857532" lon="127.746426"><ele>1585.4</ele></trkpt>
      <trkpt lat="35.857864" lon="127.746635"><ele>1575.8</ele></trkpt>
      <trkpt lat="35.858200" lon="127.746646"><ele>1573.0</ele></trkpt>
      <trkpt lat="35.858440" lon="127.746813"><ele>1568.9</ele></trkpt>
      <trkpt lat="35.858710" lon="127.746808"><ele>1572.5</ele></trkpt>
      <trkpt lat="35.858802" lon="127.746887"><ele>1571.9</ele></trkpt>
      <trkpt lat="35.858874" lon="127.747118"><ele>1568.0</ele></trkpt>
      <trkpt lat="35.859107" lon="127.747375"><ele>1567.6</ele></trkpt>
      <trkpt lat="35.859451" lon="127.748085"><ele>1553.9</ele></trkpt>
      <trkpt lat="35.859601" lon="127.747972"><ele>1558.5</ele></trkpt>
      <trkpt lat="35.859590" lon="127.747699"><ele>1566.0</ele></trkpt>
      <trkpt lat="35.859677" lon="127.747591"><ele>1569.4</ele></trkpt>
      <trkpt lat="35.859654" lon="127.747360"><ele>1576.4</ele></trkpt>
    </trkseg>
  </trk>
</gpx>
