<?xml version="1.0" encoding="UTF-8"?>
<gpx version="1.1" creator="kr-100-mountains route-harvester"
     xmlns="http://www.topografix.com/GPX/1/1"
     xmlns:k100="https://github.com/jay-jang/kr-100-mountains/ns/1"
     xmlns:xsi="http://www.w3.org/2001/XMLSchema-instance"
     xsi:schemaLocation="http://www.topografix.com/GPX/1/1 http://www.topografix.com/GPX/1/1/gpx.xsd">
  <metadata>
    <name>덕유산 · 삼공리-백련사-향적봉 코스 (OSM 계산 경로)</name>
    <desc>실제 GPS 기록이 아닙니다. OpenStreetMap에 등록된 등산로 선형 위에서 계산한 경로이며, 현장 통제·훼손·출입 제한·계절 통제를 반영하지 않을 수 있습니다. 산행 전 공식 안내를 확인하세요.</desc>
    <time>2026-08-04T05:30:15.323Z</time>
    <link href="https://www.openstreetmap.org/copyright"><text>© OpenStreetMap contributors (ODbL 1.0)</text></link>
    <link href="https://registry.opendata.aws/terrain-tiles/"><text>Elevation: SRTM 1 arc-second (NASA/USGS) via AWS Terrain Tiles</text></link>
    <extensions>
      <k100:provenance>osm-routed</k100:provenance>
      <k100:not_a_recorded_track>true</k100:not_a_recorded_track>
      <k100:mountain_id>deokyusan</k100:mountain_id>
      <k100:mountain_name>덕유산</k100:mountain_name>
      <k100:route_id>deokyusan-e2233685</k100:route_id>
      <k100:route_index>2</k100:route_index>
      <k100:route_name>삼공리-백련사-향적봉 코스</k100:route_name>
      <k100:variant>0</k100:variant>
      <k100:source>OpenStreetMap via Overpass API</k100:source>
      <k100:license>ODbL-1.0</k100:license>
      <k100:attribution>© OpenStreetMap contributors</k100:attribution>
      <k100:elevation_source>SRTM 1 arc-second (NASA/USGS) — AWS Terrain Tiles 배포본. 지형 DEM 추정 고도이며 실측 아님</k100:elevation_source>
      <k100:algorithm>dijkstra-grid-v1</k100:algorithm>
      <k100:osm_snapshot>2026-08-04</k100:osm_snapshot>
      <k100:snap_trailhead_m>647</k100:snap_trailhead_m>
      <k100:snap_summit_m>27</k100:snap_summit_m>
      <k100:validation_score>70</k100:validation_score>
      <k100:validation_status>review</k100:validation_status>
    </extensions>
  </metadata>
  <trk>
    <name>덕유산 · 삼공리-백련사-향적봉 코스 (OSM 계산 경로)</name>
    <desc>실제 GPS 기록이 아닙니다. OpenStreetMap에 등록된 등산로 선형 위에서 계산한 경로이며, 현장 통제·훼손·출입 제한·계절 통제를 반영하지 않을 수 있습니다. 산행 전 공식 안내를 확인하세요.</desc>
    <trkseg>
      <trkpt lat="35.881880" lon="127.773005"><ele>785.0</ele></trkpt>
      <trkpt lat="35.881774" lon="127.773213"><ele>778.1</ele></trkpt>
      <trkpt lat="35.881878" lon="127.773646"><ele>764.1</ele></trkpt>
      <trkpt lat="35.881877" lon="127.774095"><ele>752.0</ele></trkpt>
      <trkpt lat="35.881977" lon="127.774380"><ele>748.2</ele></trkpt>
      <trkpt lat="35.882128" lon="127.774554"><ele>745.8</ele></trkpt>
      <trkpt lat="35.882266" lon="127.774895"><ele>737.5</ele></trkpt>
      <trkpt lat="35.882392" lon="127.775497"><ele>725.9</ele></trkpt>
      <trkpt lat="35.882264" lon="127.776425"><ele>706.7</ele></trkpt>
      <trkpt lat="35.882265" lon="127.776538"><ele>701.5</ele></trkpt>
      <trkpt lat="35.882386" lon="127.776825"><ele>692.0</ele></trkpt>
      <trkpt lat="35.882268" lon="127.777207"><ele>681.3</ele></trkpt>
      <trkpt lat="35.882213" lon="127.777264"><ele>679.3</ele></trkpt>
      <trkpt lat="35.882244" lon="127.777303"><ele>679.0</ele></trkpt>
      <trkpt lat="35.882210" lon="127.777366"><ele>677.5</ele></trkpt>
      <trkpt lat="35.881491" lon="127.776873"><ele>686.6</ele></trkpt>
      <trkpt lat="35.881421" lon="127.776742"><ele>688.7</ele></trkpt>
      <trkpt lat="35.881456" lon="127.776609"><ele>692.4</ele></trkpt>
      <trkpt lat="35.881366" lon="127.776031"><ele>711.1</ele></trkpt>
      <trkpt lat="35.881194" lon="127.775899"><ele>715.4</ele></trkpt>
      <trkpt lat="35.881126" lon="127.775686"><ele>720.6</ele></trkpt>
      <trkpt lat="35.880983" lon="127.775486"><ele>724.3</ele></trkpt>
      <trkpt lat="35.880862" lon="127.774927"><ele>735.3</ele></trkpt>
      <trkpt lat="35.880685" lon="127.774868"><ele>739.5</ele></trkpt>
      <trkpt lat="35.880487" lon="127.774618"><ele>750.0</ele></trkpt>
      <trkpt lat="35.880296" lon="127.774785"><ele>754.9</ele></trkpt>
      <trkpt lat="35.880140" lon="127.774818"><ele>763.0</ele></trkpt>
      <trkpt lat="35.880011" lon="127.774947"><ele>768.3</ele></trkpt>
      <trkpt lat="35.879663" lon="127.774972"><ele>780.8</ele></trkpt>
      <trkpt lat="35.879502" lon="127.775046"><ele>786.5</ele></trkpt>
      <trkpt lat="35.879471" lon="127.775502"><ele>784.8</ele></trkpt>
      <trkpt lat="35.879132" lon="127.775960"><ele>791.5</ele></trkpt>
      <trkpt lat="35.878929" lon="127.776070"><ele>791.6</ele></trkpt>
      <trkpt lat="35.878922" lon="127.775652"><ele>801.9</ele></trkpt>
      <trkpt lat="35.878744" lon="127.775078"><ele>807.2</ele></trkpt>
      <trkpt lat="35.878681" lon="127.774997"><ele>807.5</ele></trkpt>
      <trkpt lat="35.878649" lon="127.774767"><ele>808.1</ele></trkpt>
      <trkpt lat="35.878713" lon="127.774501"><ele>811.1</ele></trkpt>
      <trkpt lat="35.878668" lon="127.774030"><ele>825.1</ele></trkpt>
      <trkpt lat="35.878430" lon="127.773627"><ele>837.8</ele></trkpt>
      <trkpt lat="35.878298" lon="127.773299"><ele>849.6</ele></trkpt>
      <trkpt lat="35.878273" lon="127.772253"><ele>880.0</ele></trkpt>
      <trkpt lat="35.877752" lon="127.772023"><ele>898.9</ele></trkpt>
      <trkpt lat="35.877516" lon="127.771828"><ele>909.3</ele></trkpt>
      <trkpt lat="35.877436" lon="127.771850"><ele>911.9</ele></trkpt>
      <trkpt lat="35.877159" lon="127.771660"><ele>920.3</ele></trkpt>
      <trkpt lat="35.877080" lon="127.771275"><ele>924.4</ele></trkpt>
      <trkpt lat="35.876759" lon="127.770717"><ele>930.8</ele></trkpt>
      <trkpt lat="35.876669" lon="127.769743"><ele>964.1</ele></trkpt>
      <trkpt lat="35.876176" lon="127.769301"><ele>992.7</ele></trkpt>
      <trkpt lat="35.876124" lon="127.769172"><ele>1005.2</ele></trkpt>
      <trkpt lat="35.876123" lon="127.768886"><ele>1020.0</ele></trkpt>
      <trkpt lat="35.876262" lon="127.768610"><ele>1029.1</ele></trkpt>
      <trkpt lat="35.876296" lon="127.768066"><ele>1049.2</ele></trkpt>
      <trkpt lat="35.876246" lon="127.767945"><ele>1056.2</ele></trkpt>
      <trkpt lat="35.876103" lon="127.767919"><ele>1060.1</ele></trkpt>
      <trkpt lat="35.875980" lon="127.767959"><ele>1061.0</ele></trkpt>
      <trkpt lat="35.875997" lon="127.767246"><ele>1104.0</ele></trkpt>
      <trkpt lat="35.875953" lon="127.767067"><ele>1115.8</ele></trkpt>
      <trkpt lat="35.876028" lon="127.766490"><ele>1151.9</ele></trkpt>
      <trkpt lat="35.875953" lon="127.766305"><ele>1166.5</ele></trkpt>
      <trkpt lat="35.875951" lon="127.765880"><ele>1187.2</ele></trkpt>
      <trkpt lat="35.875937" lon="127.765789"><ele>1192.0</ele></trkpt>
      <trkpt lat="35.875882" lon="127.765770"><ele>1195.7</ele></trkpt>
      <trkpt lat="35.875883" lon="127.765635"><ele>1201.1</ele></trkpt>
      <trkpt lat="35.875647" lon="127.765333"><ele>1223.7</ele></trkpt>
      <trkpt lat="35.875634" lon="127.765254"><ele>1226.1</ele></trkpt>
      <trkpt lat="35.875784" lon="127.764615"><ele>1250.9</ele></trkpt>
      <trkpt lat="35.875956" lon="127.764230"><ele>1263.4</ele></trkpt>
      <trkpt lat="35.876077" lon="127.764104"><ele>1267.9</ele></trkpt>
      <trkpt lat="35.876316" lon="127.763533"><ele>1279.7</ele></trkpt>
      <trkpt lat="35.876336" lon="127.763312"><ele>1284.1</ele></trkpt>
      <trkpt lat="35.876530" lon="127.762817"><ele>1294.8</ele></trkpt>
      <trkpt lat="35.876479" lon="127.762573"><ele>1296.6</ele></trkpt>
      <trkpt lat="35.876121" lon="127.761818"><ele>1289.2</ele></trkpt>
      <trkpt lat="35.875803" lon="127.761369"><ele>1279.0</ele></trkpt>
      <trkpt lat="35.875136" lon="127.760914"><ele>1273.2</ele></trkpt>
      <trkpt lat="35.874881" lon="127.760519"><ele>1271.3</ele></trkpt>
      <trkpt lat="35.874614" lon="127.760240"><ele>1269.0</ele></trkpt>
      <trkpt lat="35.874440" lon="127.760143"><ele>1268.3</ele></trkpt>
      <trkpt lat="35.874329" lon="127.759924"><ele>1267.7</ele></trkpt>
      <trkpt lat="35.873861" lon="127.759540"><ele>1262.4</ele></trkpt>
      <trkpt lat="35.873522" lon="127.759412"><ele>1256.3</ele></trkpt>
      <trkpt lat="35.873020" lon="127.759392"><ele>1258.1</ele></trkpt>
      <trkpt lat="35.872800" lon="127.759148"><ele>1263.5</ele></trkpt>
      <trkpt lat="35.872460" lon="127.759004"><ele>1257.3</ele></trkpt>
      <trkpt lat="35.871779" lon="127.758999"><ele>1251.3</ele></trkpt>
      <trkpt lat="35.870969" lon="127.758663"><ele>1254.9</ele></trkpt>
      <trkpt lat="35.870812" lon="127.758084"><ele>1254.9</ele></trkpt>
      <trkpt lat="35.870291" lon="127.757462"><ele>1251.4</ele></trkpt>
      <trkpt lat="35.870185" lon="127.757019"><ele>1248.8</ele></trkpt>
      <trkpt lat="35.870193" lon="127.756865"><ele>1247.9</ele></trkpt>
      <trkpt lat="35.870061" lon="127.756762"><ele>1247.4</ele></trkpt>
      <trkpt lat="35.870062" lon="127.756662"><ele>1247.8</ele></trkpt>
      <trkpt lat="35.869637" lon="127.756053"><ele>1260.1</ele></trkpt>
      <trkpt lat="35.869511" lon="127.755474"><ele>1270.9</ele></trkpt>
      <trkpt lat="35.869546" lon="127.754926"><ele>1277.9</ele></trkpt>
      <trkpt lat="35.869493" lon="127.754365"><ele>1286.2</ele></trkpt>
      <trkpt lat="35.869399" lon="127.754041"><ele>1289.6</ele></trkpt>
      <trkpt lat="35.868866" lon="127.752777"><ele>1300.8</ele></trkpt>
      <trkpt lat="35.868435" lon="127.752199"><ele>1305.9</ele></trkpt>
      <trkpt lat="35.867961" lon="127.751840"><ele>1314.0</ele></trkpt>
      <trkpt lat="35.867152" lon="127.750894"><ele>1327.9</ele></trkpt>
      <trkpt lat="35.866872" lon="127.750041"><ele>1355.4</ele></trkpt>
      <trkpt lat="35.866550" lon="127.749757"><ele>1358.5</ele></trkpt>
      <trkpt lat="35.866439" lon="127.749357"><ele>1369.3</ele></trkpt>
      <trkpt lat="35.866293" lon="127.749032"><ele>1376.4</ele></trkpt>
      <trkpt lat="35.865969" lon="127.748553"><ele>1383.2</ele></trkpt>
      <trkpt lat="35.865976" lon="127.748490"><ele>1385.3</ele></trkpt>
      <trkpt lat="35.866050" lon="127.748456"><ele>1388.3</ele></trkpt>
      <trkpt lat="35.866247" lon="127.748455"><ele>1391.4</ele></trkpt>
      <trkpt lat="35.866453" lon="127.748647"><ele>1389.7</ele></trkpt>
      <trkpt lat="35.866697" lon="127.748716"><ele>1392.8</ele></trkpt>
      <trkpt lat="35.866816" lon="127.748702"><ele>1393.2</ele></trkpt>
      <trkpt lat="35.866875" lon="127.748582"><ele>1394.7</ele></trkpt>
      <trkpt lat="35.866319" lon="127.747441"><ele>1416.9</ele></trkpt>
      <trkpt lat="35.865987" lon="127.747010"><ele>1425.3</ele></trkpt>
      <trkpt lat="35.865765" lon="127.746196"><ele>1445.6</ele></trkpt>
      <trkpt lat="35.865612" lon="127.745896"><ele>1453.2</ele></trkpt>
      <trkpt lat="35.865467" lon="127.745774"><ele>1457.1</ele></trkpt>
      <trkpt lat="35.865272" lon="127.745767"><ele>1457.0</ele></trkpt>
      <trkpt lat="35.864741" lon="127.745896"><ele>1460.3</ele></trkpt>
      <trkpt lat="35.864311" lon="127.746082"><ele>1466.5</ele></trkpt>
      <trkpt lat="35.863486" lon="127.745872"><ele>1488.0</ele></trkpt>
      <trkpt lat="35.863374" lon="127.745793"><ele>1492.1</ele></trkpt>
      <trkpt lat="35.863347" lon="127.745630"><ele>1498.8</ele></trkpt>
      <trkpt lat="35.863501" lon="127.745500"><ele>1500.9</ele></trkpt>
      <trkpt lat="35.863823" lon="127.745508"><ele>1496.7</ele></trkpt>
      <trkpt lat="35.864115" lon="127.745417"><ele>1496.4</ele></trkpt>
      <trkpt lat="35.864302" lon="127.745215"><ele>1498.7</ele></trkpt>
      <trkpt lat="35.864677" lon="127.744588"><ele>1509.3</ele></trkpt>
      <trkpt lat="35.864781" lon="127.744279"><ele>1513.1</ele></trkpt>
      <trkpt lat="35.864736" lon="127.744048"><ele>1513.4</ele></trkpt>
      <trkpt lat="35.864056" lon="127.744394"><ele>1516.4</ele></trkpt>
      <trkpt lat="35.864055" lon="127.744602"><ele>1516.6</ele></trkpt>
      <trkpt lat="35.863891" lon="127.744704"><ele>1518.0</ele></trkpt>
      <trkpt lat="35.863412" lon="127.744630"><ele>1529.0</ele></trkpt>
      <trkpt lat="35.863252" lon="127.744501"><ele>1535.8</ele></trkpt>
      <trkpt lat="35.863209" lon="127.744556"><ele>1536.4</ele></trkpt>
      <trkpt lat="35.863091" lon="127.744477"><ele>1541.4</ele></trkpt>
      <trkpt lat="35.862642" lon="127.744385"><ele>1549.7</ele></trkpt>
      <trkpt lat="35.862371" lon="127.744601"><ele>1557.1</ele></trkpt>
      <trkpt lat="35.862213" lon="127.744599"><ele>1559.3</ele></trkpt>
      <trkpt lat="35.861914" lon="127.744832"><ele>1565.5</ele></trkpt>
      <trkpt lat="35.861466" lon="127.745016"><ele>1571.7</ele></trkpt>
      <trkpt lat="35.860978" lon="127.745316"><ele>1575.1</ele></trkpt>
      <trkpt lat="35.860900" lon="127.745508"><ele>1576.1</ele></trkpt>
      <trkpt lat="35.860672" lon="127.745717"><ele>1580.5</ele></trkpt>
      <trkpt lat="35.860356" lon="127.745889"><ele>1591.7</ele></trkpt>
      <trkpt lat="35.860200" lon="127.746137"><ele>1598.1</ele></trkpt>
      <trkpt lat="35.859965" lon="127.746343"><ele>1602.1</ele></trkpt>
      <trkpt lat="35.859795" lon="127.746968"><ele>1589.7</ele></trkpt>
      <trkpt lat="35.859758" lon="127.747296"><ele>1579.1</ele></trkpt>
      <trkpt lat="35.859654" lon="127.747360"><ele>1576.4</ele></trkpt>
    </trkseg>
  </trk>
</gpx>
