<?xml version="1.0" encoding="UTF-8"?>
<gpx version="1.1" creator="kr-100-mountains route-harvester"
     xmlns="http://www.topografix.com/GPX/1/1"
     xmlns:k100="https://github.com/jay-jang/kr-100-mountains/ns/1"
     xmlns:xsi="http://www.w3.org/2001/XMLSchema-instance"
     xsi:schemaLocation="http://www.topografix.com/GPX/1/1 http://www.topografix.com/GPX/1/1/gpx.xsd">
  <metadata>
    <name>덕유산 · 안성탐방지원센터-동엽령-중봉-향적봉 (대안 1) (OSM 계산 경로)</name>
    <desc>실제 GPS 기록이 아닙니다. OpenStreetMap에 등록된 등산로 선형 위에서 계산한 경로이며, 현장 통제·훼손·출입 제한·계절 통제를 반영하지 않을 수 있습니다. 산행 전 공식 안내를 확인하세요.</desc>
    <time>2026-08-04T05:30:15.404Z</time>
    <link href="https://www.openstreetmap.org/copyright"><text>© OpenStreetMap contributors (ODbL 1.0)</text></link>
    <link href="https://registry.opendata.aws/terrain-tiles/"><text>Elevation: SRTM 1 arc-second (NASA/USGS) via AWS Terrain Tiles</text></link>
    <extensions>
      <k100:provenance>osm-routed</k100:provenance>
      <k100:not_a_recorded_track>true</k100:not_a_recorded_track>
      <k100:mountain_id>deokyusan</k100:mountain_id>
      <k100:mountain_name>덕유산</k100:mountain_name>
      <k100:route_id>deokyusan-f6a89946</k100:route_id>
      <k100:route_index>5</k100:route_index>
      <k100:route_name>안성탐방지원센터-동엽령-중봉-향적봉</k100:route_name>
      <k100:variant>1</k100:variant>
      <k100:source>OpenStreetMap via Overpass API</k100:source>
      <k100:license>ODbL-1.0</k100:license>
      <k100:attribution>© OpenStreetMap contributors</k100:attribution>
      <k100:elevation_source>SRTM 1 arc-second (NASA/USGS) — AWS Terrain Tiles 배포본. 지형 DEM 추정 고도이며 실측 아님</k100:elevation_source>
      <k100:algorithm>dijkstra-grid-v1</k100:algorithm>
      <k100:osm_snapshot>2026-08-04</k100:osm_snapshot>
      <k100:snap_trailhead_m>341</k100:snap_trailhead_m>
      <k100:snap_summit_m>27</k100:snap_summit_m>
      <k100:validation_score>69</k100:validation_score>
      <k100:validation_status>review</k100:validation_status>
    </extensions>
  </metadata>
  <trk>
    <name>덕유산 · 안성탐방지원센터-동엽령-중봉-향적봉 (대안 1) (OSM 계산 경로)</name>
    <desc>실제 GPS 기록이 아닙니다. OpenStreetMap에 등록된 등산로 선형 위에서 계산한 경로이며, 현장 통제·훼손·출입 제한·계절 통제를 반영하지 않을 수 있습니다. 산행 전 공식 안내를 확인하세요.</desc>
    <trkseg>
      <trkpt lat="35.834149" lon="127.689842"><ele>628.0</ele></trkpt>
      <trkpt lat="35.834440" lon="127.690020"><ele>629.4</ele></trkpt>
      <trkpt lat="35.834606" lon="127.690020"><ele>630.7</ele></trkpt>
      <trkpt lat="35.834710" lon="127.689891"><ele>628.6</ele></trkpt>
      <trkpt lat="35.834749" lon="127.689606"><ele>623.9</ele></trkpt>
      <trkpt lat="35.834949" lon="127.689328"><ele>622.5</ele></trkpt>
      <trkpt lat="35.835053" lon="127.689033"><ele>618.6</ele></trkpt>
      <trkpt lat="35.835049" lon="127.688786"><ele>612.7</ele></trkpt>
      <trkpt lat="35.835384" lon="127.687617"><ele>597.6</ele></trkpt>
      <trkpt lat="35.835349" lon="127.687381"><ele>592.3</ele></trkpt>
      <trkpt lat="35.835240" lon="127.687225"><ele>588.9</ele></trkpt>
      <trkpt lat="35.834762" lon="127.686952"><ele>588.5</ele></trkpt>
      <trkpt lat="35.834509" lon="127.686570"><ele>590.8</ele></trkpt>
      <trkpt lat="35.834704" lon="127.686318"><ele>585.1</ele></trkpt>
      <trkpt lat="35.834965" lon="127.685647"><ele>575.7</ele></trkpt>
      <trkpt lat="35.835074" lon="127.685502"><ele>574.8</ele></trkpt>
      <trkpt lat="35.835270" lon="127.685363"><ele>573.6</ele></trkpt>
      <trkpt lat="35.835879" lon="127.685057"><ele>565.5</ele></trkpt>
      <trkpt lat="35.836292" lon="127.684612"><ele>561.4</ele></trkpt>
      <trkpt lat="35.836696" lon="127.684607"><ele>555.8</ele></trkpt>
      <trkpt lat="35.836840" lon="127.684553"><ele>554.0</ele></trkpt>
      <trkpt lat="35.837301" lon="127.684151"><ele>546.8</ele></trkpt>
      <trkpt lat="35.838018" lon="127.683813"><ele>539.2</ele></trkpt>
      <trkpt lat="35.838123" lon="127.683722"><ele>537.4</ele></trkpt>
      <trkpt lat="35.838679" lon="127.682879"><ele>524.6</ele></trkpt>
      <trkpt lat="35.838906" lon="127.682854"><ele>524.5</ele></trkpt>
      <trkpt lat="35.839618" lon="127.682486"><ele>523.4</ele></trkpt>
      <trkpt lat="35.839821" lon="127.682167"><ele>520.4</ele></trkpt>
      <trkpt lat="35.840319" lon="127.681606"><ele>515.1</ele></trkpt>
      <trkpt lat="35.840799" lon="127.681378"><ele>514.6</ele></trkpt>
      <trkpt lat="35.841049" lon="127.681346"><ele>513.0</ele></trkpt>
      <trkpt lat="35.841195" lon="127.681400"><ele>512.2</ele></trkpt>
      <trkpt lat="35.841436" lon="127.681357"><ele>508.9</ele></trkpt>
      <trkpt lat="35.841486" lon="127.681094"><ele>506.5</ele></trkpt>
      <trkpt lat="35.841471" lon="127.680632"><ele>506.5</ele></trkpt>
      <trkpt lat="35.841541" lon="127.680236"><ele>506.3</ele></trkpt>
      <trkpt lat="35.841989" lon="127.679619"><ele>502.2</ele></trkpt>
      <trkpt lat="35.842387" lon="127.679425"><ele>497.6</ele></trkpt>
      <trkpt lat="35.842738" lon="127.679145"><ele>499.4</ele></trkpt>
      <trkpt lat="35.842663" lon="127.678813"><ele>502.6</ele></trkpt>
      <trkpt lat="35.843335" lon="127.677462"><ele>498.9</ele></trkpt>
      <trkpt lat="35.843835" lon="127.677784"><ele>500.0</ele></trkpt>
      <trkpt lat="35.844100" lon="127.678088"><ele>495.0</ele></trkpt>
      <trkpt lat="35.844259" lon="127.678174"><ele>492.4</ele></trkpt>
      <trkpt lat="35.844578" lon="127.678213"><ele>488.7</ele></trkpt>
      <trkpt lat="35.845022" lon="127.678593"><ele>488.7</ele></trkpt>
      <trkpt lat="35.845291" lon="127.678707"><ele>488.0</ele></trkpt>
      <trkpt lat="35.845743" lon="127.678498"><ele>483.9</ele></trkpt>
      <trkpt lat="35.846057" lon="127.678428"><ele>481.1</ele></trkpt>
      <trkpt lat="35.846660" lon="127.678464"><ele>483.0</ele></trkpt>
      <trkpt lat="35.846683" lon="127.678422"><ele>483.0</ele></trkpt>
      <trkpt lat="35.846866" lon="127.678417"><ele>483.0</ele></trkpt>
      <trkpt lat="35.847490" lon="127.677934"><ele>480.6</ele></trkpt>
      <trkpt lat="35.847606" lon="127.678190"><ele>480.6</ele></trkpt>
      <trkpt lat="35.847797" lon="127.678314"><ele>479.9</ele></trkpt>
      <trkpt lat="35.848013" lon="127.678583"><ele>478.2</ele></trkpt>
      <trkpt lat="35.848340" lon="127.678644"><ele>474.8</ele></trkpt>
      <trkpt lat="35.848540" lon="127.678997"><ele>470.9</ele></trkpt>
      <trkpt lat="35.849059" lon="127.679458"><ele>470.7</ele></trkpt>
      <trkpt lat="35.849702" lon="127.678798"><ele>470.6</ele></trkpt>
      <trkpt lat="35.850387" lon="127.678513"><ele>471.3</ele></trkpt>
      <trkpt lat="35.850692" lon="127.678251"><ele>471.1</ele></trkpt>
      <trkpt lat="35.850844" lon="127.678184"><ele>470.8</ele></trkpt>
      <trkpt lat="35.850982" lon="127.678194"><ele>470.7</ele></trkpt>
      <trkpt lat="35.851128" lon="127.679014"><ele>472.4</ele></trkpt>
      <trkpt lat="35.855120" lon="127.677958"><ele>456.0</ele></trkpt>
      <trkpt lat="35.855250" lon="127.677854"><ele>456.0</ele></trkpt>
      <trkpt lat="35.855361" lon="127.677991"><ele>456.3</ele></trkpt>
      <trkpt lat="35.855644" lon="127.678784"><ele>456.9</ele></trkpt>
      <trkpt lat="35.855648" lon="127.678691"><ele>456.8</ele></trkpt>
      <trkpt lat="35.855770" lon="127.678615"><ele>456.2</ele></trkpt>
      <trkpt lat="35.856135" lon="127.678640"><ele>456.9</ele></trkpt>
      <trkpt lat="35.856940" lon="127.677701"><ele>453.0</ele></trkpt>
      <trkpt lat="35.857364" lon="127.677484"><ele>450.6</ele></trkpt>
      <trkpt lat="35.857631" lon="127.677253"><ele>451.4</ele></trkpt>
      <trkpt lat="35.857681" lon="127.677092"><ele>451.7</ele></trkpt>
      <trkpt lat="35.857557" lon="127.676687"><ele>451.2</ele></trkpt>
      <trkpt lat="35.857398" lon="127.675555"><ele>447.0</ele></trkpt>
      <trkpt lat="35.857407" lon="127.675324"><ele>445.6</ele></trkpt>
      <trkpt lat="35.857477" lon="127.675204"><ele>445.1</ele></trkpt>
      <trkpt lat="35.858086" lon="127.674751"><ele>449.1</ele></trkpt>
      <trkpt lat="35.858378" lon="127.674210"><ele>448.0</ele></trkpt>
      <trkpt lat="35.858825" lon="127.673701"><ele>446.3</ele></trkpt>
      <trkpt lat="35.858891" lon="127.673432"><ele>445.4</ele></trkpt>
      <trkpt lat="35.859335" lon="127.672749"><ele>447.1</ele></trkpt>
      <trkpt lat="35.859453" lon="127.673168"><ele>444.6</ele></trkpt>
      <trkpt lat="35.859841" lon="127.673107"><ele>446.3</ele></trkpt>
      <trkpt lat="35.860058" lon="127.673391"><ele>447.4</ele></trkpt>
      <trkpt lat="35.860455" lon="127.673244"><ele>449.3</ele></trkpt>
      <trkpt lat="35.860420" lon="127.673135"><ele>449.0</ele></trkpt>
      <trkpt lat="35.860605" lon="127.673079"><ele>450.0</ele></trkpt>
      <trkpt lat="35.861113" lon="127.673332"><ele>453.0</ele></trkpt>
      <trkpt lat="35.863143" lon="127.673647"><ele>455.9</ele></trkpt>
      <trkpt lat="35.863107" lon="127.673880"><ele>457.6</ele></trkpt>
      <trkpt lat="35.863126" lon="127.673969"><ele>458.1</ele></trkpt>
      <trkpt lat="35.863273" lon="127.674113"><ele>458.7</ele></trkpt>
      <trkpt lat="35.863985" lon="127.677610"><ele>466.3</ele></trkpt>
      <trkpt lat="35.864197" lon="127.677818"><ele>465.9</ele></trkpt>
      <trkpt lat="35.864309" lon="127.678214"><ele>465.8</ele></trkpt>
      <trkpt lat="35.864725" lon="127.678835"><ele>466.8</ele></trkpt>
      <trkpt lat="35.864683" lon="127.679230"><ele>469.6</ele></trkpt>
      <trkpt lat="35.864734" lon="127.679394"><ele>470.6</ele></trkpt>
      <trkpt lat="35.864974" lon="127.679392"><ele>470.8</ele></trkpt>
      <trkpt lat="35.865424" lon="127.679852"><ele>475.0</ele></trkpt>
      <trkpt lat="35.865659" lon="127.680203"><ele>476.0</ele></trkpt>
      <trkpt lat="35.865717" lon="127.680531"><ele>476.9</ele></trkpt>
      <trkpt lat="35.865881" lon="127.680948"><ele>479.1</ele></trkpt>
      <trkpt lat="35.865995" lon="127.680944"><ele>479.7</ele></trkpt>
      <trkpt lat="35.866229" lon="127.680792"><ele>481.0</ele></trkpt>
      <trkpt lat="35.866267" lon="127.680820"><ele>481.6</ele></trkpt>
      <trkpt lat="35.866531" lon="127.681267"><ele>483.5</ele></trkpt>
      <trkpt lat="35.866787" lon="127.681480"><ele>487.2</ele></trkpt>
      <trkpt lat="35.867073" lon="127.681903"><ele>490.8</ele></trkpt>
      <trkpt lat="35.867562" lon="127.682085"><ele>494.9</ele></trkpt>
      <trkpt lat="35.867582" lon="127.681856"><ele>495.5</ele></trkpt>
      <trkpt lat="35.868334" lon="127.681791"><ele>495.9</ele></trkpt>
      <trkpt lat="35.868973" lon="127.682236"><ele>494.3</ele></trkpt>
      <trkpt lat="35.869405" lon="127.682824"><ele>484.5</ele></trkpt>
      <trkpt lat="35.869959" lon="127.683300"><ele>482.9</ele></trkpt>
      <trkpt lat="35.870027" lon="127.683209"><ele>483.0</ele></trkpt>
      <trkpt lat="35.870108" lon="127.682758"><ele>482.9</ele></trkpt>
      <trkpt lat="35.870019" lon="127.681593"><ele>474.1</ele></trkpt>
      <trkpt lat="35.870143" lon="127.681130"><ele>474.1</ele></trkpt>
      <trkpt lat="35.870205" lon="127.680323"><ele>469.2</ele></trkpt>
      <trkpt lat="35.870443" lon="127.680022"><ele>467.6</ele></trkpt>
      <trkpt lat="35.870586" lon="127.679690"><ele>469.5</ele></trkpt>
      <trkpt lat="35.870652" lon="127.679222"><ele>466.3</ele></trkpt>
      <trkpt lat="35.870712" lon="127.679087"><ele>465.9</ele></trkpt>
      <trkpt lat="35.871025" lon="127.678775"><ele>465.4</ele></trkpt>
      <trkpt lat="35.871185" lon="127.678461"><ele>461.4</ele></trkpt>
      <trkpt lat="35.871414" lon="127.678243"><ele>461.9</ele></trkpt>
      <trkpt lat="35.871563" lon="127.677773"><ele>455.8</ele></trkpt>
      <trkpt lat="35.871722" lon="127.677528"><ele>452.4</ele></trkpt>
      <trkpt lat="35.872162" lon="127.677103"><ele>445.0</ele></trkpt>
      <trkpt lat="35.872279" lon="127.677040"><ele>443.2</ele></trkpt>
      <trkpt lat="35.872560" lon="127.677088"><ele>441.6</ele></trkpt>
      <trkpt lat="35.873350" lon="127.677408"><ele>437.0</ele></trkpt>
      <trkpt lat="35.873436" lon="127.677447"><ele>436.9</ele></trkpt>
      <trkpt lat="35.873226" lon="127.678062"><ele>443.2</ele></trkpt>
      <trkpt lat="35.873278" lon="127.678367"><ele>444.6</ele></trkpt>
      <trkpt lat="35.874086" lon="127.679208"><ele>443.0</ele></trkpt>
      <trkpt lat="35.874060" lon="127.679782"><ele>443.3</ele></trkpt>
      <trkpt lat="35.874632" lon="127.680238"><ele>447.2</ele></trkpt>
      <trkpt lat="35.875023" lon="127.680459"><ele>458.6</ele></trkpt>
      <trkpt lat="35.875595" lon="127.681008"><ele>468.6</ele></trkpt>
      <trkpt lat="35.876315" lon="127.681506"><ele>457.2</ele></trkpt>
      <trkpt lat="35.876461" lon="127.681673"><ele>455.0</ele></trkpt>
      <trkpt lat="35.876566" lon="127.681683"><ele>452.0</ele></trkpt>
      <trkpt lat="35.876532" lon="127.681570"><ele>452.2</ele></trkpt>
      <trkpt lat="35.876917" lon="127.681840"><ele>446.1</ele></trkpt>
      <trkpt lat="35.876800" lon="127.682072"><ele>450.2</ele></trkpt>
      <trkpt lat="35.878723" lon="127.683594"><ele>453.5</ele></trkpt>
      <trkpt lat="35.878736" lon="127.683806"><ele>452.7</ele></trkpt>
      <trkpt lat="35.879777" lon="127.685109"><ele>458.0</ele></trkpt>
      <trkpt lat="35.883243" lon="127.685392"><ele>469.9</ele></trkpt>
      <trkpt lat="35.883169" lon="127.684742"><ele>475.6</ele></trkpt>
      <trkpt lat="35.883780" lon="127.684750"><ele>477.0</ele></trkpt>
      <trkpt lat="35.884806" lon="127.684865"><ele>487.9</ele></trkpt>
      <trkpt lat="35.885280" lon="127.684982"><ele>492.8</ele></trkpt>
      <trkpt lat="35.885368" lon="127.685235"><ele>498.2</ele></trkpt>
      <trkpt lat="35.885495" lon="127.685364"><ele>501.9</ele></trkpt>
      <trkpt lat="35.885495" lon="127.685509"><ele>504.5</ele></trkpt>
      <trkpt lat="35.885660" lon="127.685737"><ele>509.7</ele></trkpt>
      <trkpt lat="35.886090" lon="127.685785"><ele>520.3</ele></trkpt>
      <trkpt lat="35.886201" lon="127.685710"><ele>521.4</ele></trkpt>
      <trkpt lat="35.886299" lon="127.685710"><ele>522.4</ele></trkpt>
      <trkpt lat="35.886436" lon="127.685833"><ele>524.5</ele></trkpt>
      <trkpt lat="35.886555" lon="127.686332"><ele>526.1</ele></trkpt>
      <trkpt lat="35.886508" lon="127.686684"><ele>525.3</ele></trkpt>
      <trkpt lat="35.886547" lon="127.686925"><ele>526.6</ele></trkpt>
      <trkpt lat="35.886688" lon="127.687196"><ele>530.7</ele></trkpt>
      <trkpt lat="35.886843" lon="127.687444"><ele>533.0</ele></trkpt>
      <trkpt lat="35.887325" lon="127.688002"><ele>547.7</ele></trkpt>
      <trkpt lat="35.887886" lon="127.688294"><ele>561.3</ele></trkpt>
      <trkpt lat="35.887978" lon="127.688430"><ele>562.2</ele></trkpt>
      <trkpt lat="35.888163" lon="127.688958"><ele>570.7</ele></trkpt>
      <trkpt lat="35.888116" lon="127.689339"><ele>578.6</ele></trkpt>
      <trkpt lat="35.888242" lon="127.689478"><ele>580.8</ele></trkpt>
      <trkpt lat="35.888350" lon="127.689811"><ele>586.0</ele></trkpt>
      <trkpt lat="35.888668" lon="127.690133"><ele>591.7</ele></trkpt>
      <trkpt lat="35.888859" lon="127.690503"><ele>594.4</ele></trkpt>
      <trkpt lat="35.889250" lon="127.690932"><ele>601.6</ele></trkpt>
      <trkpt lat="35.889376" lon="127.691276"><ele>607.8</ele></trkpt>
      <trkpt lat="35.889485" lon="127.692316"><ele>622.0</ele></trkpt>
      <trkpt lat="35.889446" lon="127.692713"><ele>625.3</ele></trkpt>
      <trkpt lat="35.889511" lon="127.692992"><ele>626.4</ele></trkpt>
      <trkpt lat="35.889437" lon="127.694430"><ele>665.2</ele></trkpt>
      <trkpt lat="35.889533" lon="127.694998"><ele>676.4</ele></trkpt>
      <trkpt lat="35.889463" lon="127.695621"><ele>694.1</ele></trkpt>
      <trkpt lat="35.889715" lon="127.696221"><ele>703.0</ele></trkpt>
      <trkpt lat="35.889719" lon="127.696635"><ele>704.0</ele></trkpt>
      <trkpt lat="35.889967" lon="127.697171"><ele>702.3</ele></trkpt>
      <trkpt lat="35.889984" lon="127.697557"><ele>704.2</ele></trkpt>
      <trkpt lat="35.890250" lon="127.698496"><ele>724.4</ele></trkpt>
      <trkpt lat="35.891627" lon="127.700298"><ele>788.9</ele></trkpt>
      <trkpt lat="35.891788" lon="127.700384"><ele>793.9</ele></trkpt>
      <trkpt lat="35.892053" lon="127.700867"><ele>805.1</ele></trkpt>
      <trkpt lat="35.892088" lon="127.701167"><ele>811.0</ele></trkpt>
      <trkpt lat="35.892023" lon="127.702047"><ele>818.8</ele></trkpt>
      <trkpt lat="35.892057" lon="127.702251"><ele>819.4</ele></trkpt>
      <trkpt lat="35.892175" lon="127.702450"><ele>821.8</ele></trkpt>
      <trkpt lat="35.892184" lon="127.702686"><ele>822.0</ele></trkpt>
      <trkpt lat="35.891706" lon="127.703200"><ele>810.0</ele></trkpt>
      <trkpt lat="35.891575" lon="127.703420"><ele>806.1</ele></trkpt>
      <trkpt lat="35.891275" lon="127.703689"><ele>800.9</ele></trkpt>
      <trkpt lat="35.890888" lon="127.703911"><ele>804.9</ele></trkpt>
      <trkpt lat="35.890793" lon="127.704067"><ele>808.1</ele></trkpt>
      <trkpt lat="35.890458" lon="127.704260"><ele>814.4</ele></trkpt>
      <trkpt lat="35.890258" lon="127.704461"><ele>824.9</ele></trkpt>
      <trkpt lat="35.890154" lon="127.704721"><ele>827.4</ele></trkpt>
      <trkpt lat="35.889997" lon="127.704823"><ele>829.1</ele></trkpt>
      <trkpt lat="35.889428" lon="127.705395"><ele>847.5</ele></trkpt>
      <trkpt lat="35.889422" lon="127.705617"><ele>850.5</ele></trkpt>
      <trkpt lat="35.889146" lon="127.705641"><ele>862.0</ele></trkpt>
      <trkpt lat="35.889050" lon="127.705687"><ele>863.8</ele></trkpt>
      <trkpt lat="35.888963" lon="127.705834"><ele>869.7</ele></trkpt>
      <trkpt lat="35.888831" lon="127.706234"><ele>877.0</ele></trkpt>
      <trkpt lat="35.888707" lon="127.706371"><ele>875.7</ele></trkpt>
      <trkpt lat="35.888715" lon="127.707047"><ele>864.9</ele></trkpt>
      <trkpt lat="35.888529" lon="127.707278"><ele>854.1</ele></trkpt>
      <trkpt lat="35.888449" lon="127.707528"><ele>844.1</ele></trkpt>
      <trkpt lat="35.888022" lon="127.707970"><ele>821.7</ele></trkpt>
      <trkpt lat="35.887851" lon="127.708592"><ele>792.2</ele></trkpt>
      <trkpt lat="35.887664" lon="127.708884"><ele>784.8</ele></trkpt>
      <trkpt lat="35.887505" lon="127.709319"><ele>785.0</ele></trkpt>
      <trkpt lat="35.887505" lon="127.709509"><ele>786.1</ele></trkpt>
      <trkpt lat="35.887303" lon="127.710158"><ele>790.1</ele></trkpt>
      <trkpt lat="35.887177" lon="127.710346"><ele>792.9</ele></trkpt>
      <trkpt lat="35.886951" lon="127.710898"><ele>805.7</ele></trkpt>
      <trkpt lat="35.886925" lon="127.711153"><ele>812.9</ele></trkpt>
      <trkpt lat="35.886829" lon="127.711472"><ele>821.8</ele></trkpt>
      <trkpt lat="35.886682" lon="127.711623"><ele>829.0</ele></trkpt>
      <trkpt lat="35.886692" lon="127.711835"><ele>835.7</ele></trkpt>
      <trkpt lat="35.886508" lon="127.712486"><ele>862.4</ele></trkpt>
      <trkpt lat="35.886290" lon="127.712610"><ele>867.4</ele></trkpt>
      <trkpt lat="35.886438" lon="127.713152"><ele>886.9</ele></trkpt>
      <trkpt lat="35.886412" lon="127.713431"><ele>895.7</ele></trkpt>
      <trkpt lat="35.886221" lon="127.713795"><ele>904.0</ele></trkpt>
      <trkpt lat="35.886156" lon="127.714444"><ele>922.2</ele></trkpt>
      <trkpt lat="35.886043" lon="127.714600"><ele>928.3</ele></trkpt>
      <trkpt lat="35.886034" lon="127.714895"><ele>937.4</ele></trkpt>
      <trkpt lat="35.885960" lon="127.715061"><ele>941.4</ele></trkpt>
      <trkpt lat="35.885999" lon="127.715329"><ele>946.7</ele></trkpt>
      <trkpt lat="35.885938" lon="127.715592"><ele>954.5</ele></trkpt>
      <trkpt lat="35.885417" lon="127.716338"><ele>987.1</ele></trkpt>
      <trkpt lat="35.885343" lon="127.716757"><ele>1008.8</ele></trkpt>
      <trkpt lat="35.885252" lon="127.716853"><ele>1016.0</ele></trkpt>
      <trkpt lat="35.885225" lon="127.717180"><ele>1029.7</ele></trkpt>
      <trkpt lat="35.885117" lon="127.717449"><ele>1037.5</ele></trkpt>
      <trkpt lat="35.884956" lon="127.717577"><ele>1040.7</ele></trkpt>
      <trkpt lat="35.884369" lon="127.717754"><ele>1038.8</ele></trkpt>
      <trkpt lat="35.883822" lon="127.717556"><ele>1033.7</ele></trkpt>
      <trkpt lat="35.883426" lon="127.717690"><ele>1028.0</ele></trkpt>
      <trkpt lat="35.883261" lon="127.717695"><ele>1026.6</ele></trkpt>
      <trkpt lat="35.882753" lon="127.717537"><ele>1032.6</ele></trkpt>
      <trkpt lat="35.882648" lon="127.717564"><ele>1033.4</ele></trkpt>
      <trkpt lat="35.882622" lon="127.717357"><ele>1033.5</ele></trkpt>
      <trkpt lat="35.882418" lon="127.717373"><ele>1036.2</ele></trkpt>
      <trkpt lat="35.882044" lon="127.717550"><ele>1036.3</ele></trkpt>
      <trkpt lat="35.881648" lon="127.717588"><ele>1035.0</ele></trkpt>
      <trkpt lat="35.881283" lon="127.717722"><ele>1036.5</ele></trkpt>
      <trkpt lat="35.880957" lon="127.717760"><ele>1037.7</ele></trkpt>
      <trkpt lat="35.880653" lon="127.718532"><ele>1026.9</ele></trkpt>
      <trkpt lat="35.880097" lon="127.718918"><ele>1003.9</ele></trkpt>
      <trkpt lat="35.880010" lon="127.719085"><ele>999.9</ele></trkpt>
      <trkpt lat="35.879988" lon="127.719476"><ele>996.2</ele></trkpt>
      <trkpt lat="35.879871" lon="127.719884"><ele>990.4</ele></trkpt>
      <trkpt lat="35.879727" lon="127.720141"><ele>990.0</ele></trkpt>
      <trkpt lat="35.879441" lon="127.720479"><ele>990.4</ele></trkpt>
      <trkpt lat="35.878917" lon="127.720879"><ele>991.4</ele></trkpt>
      <trkpt lat="35.878743" lon="127.720908"><ele>989.9</ele></trkpt>
      <trkpt lat="35.878656" lon="127.721026"><ele>990.3</ele></trkpt>
      <trkpt lat="35.878119" lon="127.721096"><ele>986.6</ele></trkpt>
      <trkpt lat="35.877876" lon="127.721499"><ele>985.2</ele></trkpt>
      <trkpt lat="35.877606" lon="127.721638"><ele>981.5</ele></trkpt>
      <trkpt lat="35.877528" lon="127.721767"><ele>980.4</ele></trkpt>
      <trkpt lat="35.877337" lon="127.722432"><ele>970.9</ele></trkpt>
      <trkpt lat="35.877695" lon="127.723561"><ele>964.0</ele></trkpt>
      <trkpt lat="35.877660" lon="127.723784"><ele>962.9</ele></trkpt>
      <trkpt lat="35.877726" lon="127.723982"><ele>964.3</ele></trkpt>
      <trkpt lat="35.877708" lon="127.724114"><ele>964.4</ele></trkpt>
      <trkpt lat="35.877763" lon="127.724481"><ele>963.7</ele></trkpt>
      <trkpt lat="35.877863" lon="127.724615"><ele>962.6</ele></trkpt>
      <trkpt lat="35.877934" lon="127.724830"><ele>961.4</ele></trkpt>
      <trkpt lat="35.878063" lon="127.724900"><ele>963.0</ele></trkpt>
      <trkpt lat="35.878097" lon="127.725222"><ele>964.4</ele></trkpt>
      <trkpt lat="35.878071" lon="127.725565"><ele>968.1</ele></trkpt>
      <trkpt lat="35.878002" lon="127.725661"><ele>968.3</ele></trkpt>
      <trkpt lat="35.877880" lon="127.726536"><ele>977.1</ele></trkpt>
      <trkpt lat="35.877900" lon="127.726697"><ele>979.2</ele></trkpt>
      <trkpt lat="35.878041" lon="127.726965"><ele>984.4</ele></trkpt>
      <trkpt lat="35.878069" lon="127.727627"><ele>999.0</ele></trkpt>
      <trkpt lat="35.878023" lon="127.727925"><ele>1004.7</ele></trkpt>
      <trkpt lat="35.877943" lon="127.727987"><ele>1005.8</ele></trkpt>
      <trkpt lat="35.877485" lon="127.728923"><ele>1028.7</ele></trkpt>
      <trkpt lat="35.877454" lon="127.729229"><ele>1034.2</ele></trkpt>
      <trkpt lat="35.877271" lon="127.729406"><ele>1040.6</ele></trkpt>
      <trkpt lat="35.877141" lon="127.730076"><ele>1063.1</ele></trkpt>
      <trkpt lat="35.877037" lon="127.730205"><ele>1070.6</ele></trkpt>
      <trkpt lat="35.876998" lon="127.730457"><ele>1079.6</ele></trkpt>
      <trkpt lat="35.876500" lon="127.730779"><ele>1089.5</ele></trkpt>
      <trkpt lat="35.876663" lon="127.731396"><ele>1112.1</ele></trkpt>
      <trkpt lat="35.876565" lon="127.732042"><ele>1125.7</ele></trkpt>
      <trkpt lat="35.876591" lon="127.732144"><ele>1128.2</ele></trkpt>
      <trkpt lat="35.876254" lon="127.733016"><ele>1146.6</ele></trkpt>
      <trkpt lat="35.876309" lon="127.733266"><ele>1154.1</ele></trkpt>
      <trkpt lat="35.876233" lon="127.733587"><ele>1161.0</ele></trkpt>
      <trkpt lat="35.876487" lon="127.734456"><ele>1191.1</ele></trkpt>
      <trkpt lat="35.876402" lon="127.734481"><ele>1192.4</ele></trkpt>
      <trkpt lat="35.876448" lon="127.734775"><ele>1203.5</ele></trkpt>
      <trkpt lat="35.876617" lon="127.735272"><ele>1215.6</ele></trkpt>
      <trkpt lat="35.876759" lon="127.735465"><ele>1214.5</ele></trkpt>
      <trkpt lat="35.876752" lon="127.735567"><ele>1213.8</ele></trkpt>
      <trkpt lat="35.876635" lon="127.735663"><ele>1212.2</ele></trkpt>
      <trkpt lat="35.876207" lon="127.735486"><ele>1215.9</ele></trkpt>
      <trkpt lat="35.876072" lon="127.735489"><ele>1214.7</ele></trkpt>
      <trkpt lat="35.875494" lon="127.735722"><ele>1209.5</ele></trkpt>
      <trkpt lat="35.874796" lon="127.735744"><ele>1219.9</ele></trkpt>
      <trkpt lat="35.874572" lon="127.735843"><ele>1220.1</ele></trkpt>
      <trkpt lat="35.874468" lon="127.735966"><ele>1216.5</ele></trkpt>
      <trkpt lat="35.874403" lon="127.736154"><ele>1212.6</ele></trkpt>
      <trkpt lat="35.874218" lon="127.736283"><ele>1204.6</ele></trkpt>
      <trkpt lat="35.874020" lon="127.736597"><ele>1194.0</ele></trkpt>
      <trkpt lat="35.873588" lon="127.737077"><ele>1192.9</ele></trkpt>
      <trkpt lat="35.873463" lon="127.737314"><ele>1191.9</ele></trkpt>
      <trkpt lat="35.872811" lon="127.737900"><ele>1207.2</ele></trkpt>
      <trkpt lat="35.872659" lon="127.738114"><ele>1215.7</ele></trkpt>
      <trkpt lat="35.872661" lon="127.738469"><ele>1228.6</ele></trkpt>
      <trkpt lat="35.872255" lon="127.739067"><ele>1278.3</ele></trkpt>
      <trkpt lat="35.872058" lon="127.739944"><ele>1311.1</ele></trkpt>
      <trkpt lat="35.871725" lon="127.739974"><ele>1329.1</ele></trkpt>
      <trkpt lat="35.871588" lon="127.740102"><ele>1337.8</ele></trkpt>
      <trkpt lat="35.871353" lon="127.740102"><ele>1348.5</ele></trkpt>
      <trkpt lat="35.870634" lon="127.740255"><ele>1375.3</ele></trkpt>
      <trkpt lat="35.870380" lon="127.740534"><ele>1385.4</ele></trkpt>
      <trkpt lat="35.869788" lon="127.740792"><ele>1414.0</ele></trkpt>
      <trkpt lat="35.869499" lon="127.741087"><ele>1425.8</ele></trkpt>
      <trkpt lat="35.868595" lon="127.741653"><ele>1447.2</ele></trkpt>
      <trkpt lat="35.868526" lon="127.741814"><ele>1450.3</ele></trkpt>
      <trkpt lat="35.868382" lon="127.741940"><ele>1456.2</ele></trkpt>
      <trkpt lat="35.867982" lon="127.742165"><ele>1468.5</ele></trkpt>
      <trkpt lat="35.867070" lon="127.742825"><ele>1491.2</ele></trkpt>
      <trkpt lat="35.866852" lon="127.742862"><ele>1494.0</ele></trkpt>
      <trkpt lat="35.866582" lon="127.743017"><ele>1500.6</ele></trkpt>
      <trkpt lat="35.866157" lon="127.743074"><ele>1508.5</ele></trkpt>
      <trkpt lat="35.866141" lon="127.743509"><ele>1506.2</ele></trkpt>
      <trkpt lat="35.866013" lon="127.743565"><ele>1507.5</ele></trkpt>
      <trkpt lat="35.865768" lon="127.743557"><ele>1510.2</ele></trkpt>
      <trkpt lat="35.865639" lon="127.743443"><ele>1512.2</ele></trkpt>
      <trkpt lat="35.865524" lon="127.743453"><ele>1513.1</ele></trkpt>
      <trkpt lat="35.865282" lon="127.743747"><ele>1516.0</ele></trkpt>
      <trkpt lat="35.865114" lon="127.743868"><ele>1515.9</ele></trkpt>
      <trkpt lat="35.864056" lon="127.744394"><ele>1516.4</ele></trkpt>
      <trkpt lat="35.864055" lon="127.744602"><ele>1516.6</ele></trkpt>
      <trkpt lat="35.863891" lon="127.744704"><ele>1518.0</ele></trkpt>
      <trkpt lat="35.863412" lon="127.744630"><ele>1529.0</ele></trkpt>
      <trkpt lat="35.863252" lon="127.744501"><ele>1535.8</ele></trkpt>
      <trkpt lat="35.863209" lon="127.744556"><ele>1536.4</ele></trkpt>
      <trkpt lat="35.863091" lon="127.744477"><ele>1541.4</ele></trkpt>
      <trkpt lat="35.862642" lon="127.744385"><ele>1549.7</ele></trkpt>
      <trkpt lat="35.862371" lon="127.744601"><ele>1557.1</ele></trkpt>
      <trkpt lat="35.862213" lon="127.744599"><ele>1559.3</ele></trkpt>
      <trkpt lat="35.861914" lon="127.744832"><ele>1565.5</ele></trkpt>
      <trkpt lat="35.861466" lon="127.745016"><ele>1571.7</ele></trkpt>
      <trkpt lat="35.860978" lon="127.745316"><ele>1575.1</ele></trkpt>
      <trkpt lat="35.860900" lon="127.745508"><ele>1576.1</ele></trkpt>
      <trkpt lat="35.860672" lon="127.745717"><ele>1580.5</ele></trkpt>
      <trkpt lat="35.860356" lon="127.745889"><ele>1591.7</ele></trkpt>
      <trkpt lat="35.860200" lon="127.746137"><ele>1598.1</ele></trkpt>
      <trkpt lat="35.860003" lon="127.746294"><ele>1601.6</ele></trkpt>
      <trkpt lat="35.859907" lon="127.746487"><ele>1601.6</ele></trkpt>
      <trkpt lat="35.859758" lon="127.747296"><ele>1579.1</ele></trkpt>
      <trkpt lat="35.859654" lon="127.747360"><ele>1576.4</ele></trkpt>
    </trkseg>
  </trk>
</gpx>
