<?xml version="1.0" encoding="UTF-8"?>
<gpx version="1.1" creator="kr-100-mountains route-harvester"
     xmlns="http://www.topografix.com/GPX/1/1"
     xmlns:k100="https://github.com/jay-jang/kr-100-mountains/ns/1"
     xmlns:xsi="http://www.w3.org/2001/XMLSchema-instance"
     xsi:schemaLocation="http://www.topografix.com/GPX/1/1 http://www.topografix.com/GPX/1/1/gpx.xsd">
  <metadata>
    <name>조령산 · 이화령-조령산-신선암봉-깃대봉삼거리-조령산자연휴양림 종주 (OSM 계산 경로)</name>
    <desc>실제 GPS 기록이 아닙니다. OpenStreetMap에 등록된 등산로 선형 위에서 계산한 경로이며, 현장 통제·훼손·출입 제한·계절 통제를 반영하지 않을 수 있습니다. 산행 전 공식 안내를 확인하세요.</desc>
    <time>2026-08-04T05:42:36.696Z</time>
    <link href="https://www.openstreetmap.org/copyright"><text>© OpenStreetMap contributors (ODbL 1.0)</text></link>
    <link href="https://registry.opendata.aws/terrain-tiles/"><text>Elevation: SRTM 1 arc-second (NASA/USGS) via AWS Terrain Tiles</text></link>
    <extensions>
      <k100:provenance>osm-routed</k100:provenance>
      <k100:not_a_recorded_track>true</k100:not_a_recorded_track>
      <k100:mountain_id>joryeongsan-mungyeong</k100:mountain_id>
      <k100:mountain_name>조령산(문경)</k100:mountain_name>
      <k100:route_id>joryeongsan-mungyeong-0a05779b</k100:route_id>
      <k100:route_index>4</k100:route_index>
      <k100:route_name>이화령-조령산-신선암봉-깃대봉삼거리-조령산자연휴양림 종주</k100:route_name>
      <k100:variant>0</k100:variant>
      <k100:source>OpenStreetMap via Overpass API</k100:source>
      <k100:license>ODbL-1.0</k100:license>
      <k100:attribution>© OpenStreetMap contributors</k100:attribution>
      <k100:elevation_source>SRTM 1 arc-second (NASA/USGS) — AWS Terrain Tiles 배포본. 지형 DEM 추정 고도이며 실측 아님</k100:elevation_source>
      <k100:algorithm>dijkstra-grid-v1</k100:algorithm>
      <k100:osm_snapshot>2026-08-04</k100:osm_snapshot>
      <k100:snap_trailhead_m>34</k100:snap_trailhead_m>
      <k100:snap_summit_m>455</k100:snap_summit_m>
      <k100:validation_score>65</k100:validation_score>
      <k100:validation_status>review</k100:validation_status>
    </extensions>
  </metadata>
  <trk>
    <name>조령산 · 이화령-조령산-신선암봉-깃대봉삼거리-조령산자연휴양림 종주 (OSM 계산 경로)</name>
    <desc>실제 GPS 기록이 아닙니다. OpenStreetMap에 등록된 등산로 선형 위에서 계산한 경로이며, 현장 통제·훼손·출입 제한·계절 통제를 반영하지 않을 수 있습니다. 산행 전 공식 안내를 확인하세요.</desc>
    <trkseg>
      <trkpt lat="36.767542" lon="128.040542"><ele>935.3</ele></trkpt>
      <trkpt lat="36.767789" lon="128.040671"><ele>948.0</ele></trkpt>
      <trkpt lat="36.768051" lon="128.040692"><ele>959.7</ele></trkpt>
      <trkpt lat="36.768364" lon="128.040837"><ele>976.5</ele></trkpt>
      <trkpt lat="36.768545" lon="128.040818"><ele>984.6</ele></trkpt>
      <trkpt lat="36.768751" lon="128.040870"><ele>990.3</ele></trkpt>
      <trkpt lat="36.768747" lon="128.041131"><ele>992.6</ele></trkpt>
      <trkpt lat="36.768282" lon="128.041194"><ele>976.6</ele></trkpt>
      <trkpt lat="36.768019" lon="128.041103"><ele>964.3</ele></trkpt>
      <trkpt lat="36.767827" lon="128.041355"><ele>957.0</ele></trkpt>
      <trkpt lat="36.767643" lon="128.041388"><ele>946.7</ele></trkpt>
      <trkpt lat="36.767559" lon="128.041355"><ele>941.8</ele></trkpt>
      <trkpt lat="36.767273" lon="128.041483"><ele>922.5</ele></trkpt>
      <trkpt lat="36.767217" lon="128.041387"><ele>918.8</ele></trkpt>
      <trkpt lat="36.767110" lon="128.041440"><ele>914.2</ele></trkpt>
      <trkpt lat="36.767046" lon="128.041380"><ele>911.6</ele></trkpt>
      <trkpt lat="36.766704" lon="128.041423"><ele>896.6</ele></trkpt>
      <trkpt lat="36.766433" lon="128.041567"><ele>882.0</ele></trkpt>
      <trkpt lat="36.766336" lon="128.041768"><ele>879.0</ele></trkpt>
      <trkpt lat="36.766218" lon="128.041884"><ele>873.0</ele></trkpt>
      <trkpt lat="36.765417" lon="128.043680"><ele>867.2</ele></trkpt>
      <trkpt lat="36.765154" lon="128.044163"><ele>868.6</ele></trkpt>
      <trkpt lat="36.764888" lon="128.044538"><ele>863.3</ele></trkpt>
      <trkpt lat="36.764407" lon="128.045075"><ele>866.2</ele></trkpt>
      <trkpt lat="36.763693" lon="128.046287"><ele>868.6</ele></trkpt>
      <trkpt lat="36.763324" lon="128.046792"><ele>873.5</ele></trkpt>
      <trkpt lat="36.763109" lon="128.046931"><ele>868.9</ele></trkpt>
      <trkpt lat="36.762731" lon="128.047972"><ele>872.6</ele></trkpt>
      <trkpt lat="36.762713" lon="128.048701"><ele>868.6</ele></trkpt>
    </trkseg>
  </trk>
</gpx>
