<?xml version="1.0" encoding="UTF-8"?>
<gpx version="1.1" creator="kr-100-mountains route-harvester"
     xmlns="http://www.topografix.com/GPX/1/1"
     xmlns:k100="https://github.com/jay-jang/kr-100-mountains/ns/1"
     xmlns:xsi="http://www.w3.org/2001/XMLSchema-instance"
     xsi:schemaLocation="http://www.topografix.com/GPX/1/1 http://www.topografix.com/GPX/1/1/gpx.xsd">
  <metadata>
    <name>천관산 · 구룡봉 코스 (OSM 계산 경로)</name>
    <desc>실제 GPS 기록이 아닙니다. OpenStreetMap에 등록된 등산로 선형 위에서 계산한 경로이며, 현장 통제·훼손·출입 제한·계절 통제를 반영하지 않을 수 있습니다. 산행 전 공식 안내를 확인하세요.</desc>
    <time>2026-08-04T05:35:53.815Z</time>
    <link href="https://www.openstreetmap.org/copyright"><text>© OpenStreetMap contributors (ODbL 1.0)</text></link>
    <link href="https://registry.opendata.aws/terrain-tiles/"><text>Elevation: SRTM 1 arc-second (NASA/USGS) via AWS Terrain Tiles</text></link>
    <extensions>
      <k100:provenance>osm-routed</k100:provenance>
      <k100:not_a_recorded_track>true</k100:not_a_recorded_track>
      <k100:mountain_id>cheongwansan</k100:mountain_id>
      <k100:mountain_name>천관산</k100:mountain_name>
      <k100:route_id>cheongwansan-a2c35a42</k100:route_id>
      <k100:route_index>3</k100:route_index>
      <k100:route_name>구룡봉 코스</k100:route_name>
      <k100:variant>0</k100:variant>
      <k100:source>OpenStreetMap via Overpass API</k100:source>
      <k100:license>ODbL-1.0</k100:license>
      <k100:attribution>© OpenStreetMap contributors</k100:attribution>
      <k100:elevation_source>SRTM 1 arc-second (NASA/USGS) — AWS Terrain Tiles 배포본. 지형 DEM 추정 고도이며 실측 아님</k100:elevation_source>
      <k100:algorithm>dijkstra-grid-v1</k100:algorithm>
      <k100:osm_snapshot>2026-08-04</k100:osm_snapshot>
      <k100:snap_trailhead_m>314</k100:snap_trailhead_m>
      <k100:snap_summit_m>204</k100:snap_summit_m>
      <k100:validation_score>83</k100:validation_score>
      <k100:validation_status>accepted</k100:validation_status>
    </extensions>
  </metadata>
  <trk>
    <name>천관산 · 구룡봉 코스 (OSM 계산 경로)</name>
    <desc>실제 GPS 기록이 아닙니다. OpenStreetMap에 등록된 등산로 선형 위에서 계산한 경로이며, 현장 통제·훼손·출입 제한·계절 통제를 반영하지 않을 수 있습니다. 산행 전 공식 안내를 확인하세요.</desc>
    <trkseg>
      <trkpt lat="34.512731" lon="126.910271"><ele>123.0</ele></trkpt>
      <trkpt lat="34.512819" lon="126.909131"><ele>114.3</ele></trkpt>
      <trkpt lat="34.513201" lon="126.907698"><ele>111.3</ele></trkpt>
      <trkpt lat="34.513556" lon="126.906843"><ele>114.7</ele></trkpt>
      <trkpt lat="34.513606" lon="126.906621"><ele>114.2</ele></trkpt>
      <trkpt lat="34.513532" lon="126.906004"><ele>121.2</ele></trkpt>
      <trkpt lat="34.513593" lon="126.905795"><ele>123.7</ele></trkpt>
      <trkpt lat="34.514043" lon="126.905123"><ele>118.0</ele></trkpt>
      <trkpt lat="34.514267" lon="126.904550"><ele>111.2</ele></trkpt>
      <trkpt lat="34.514396" lon="126.903979"><ele>108.7</ele></trkpt>
      <trkpt lat="34.514394" lon="126.903768"><ele>105.7</ele></trkpt>
      <trkpt lat="34.514300" lon="126.903493"><ele>100.3</ele></trkpt>
      <trkpt lat="34.514358" lon="126.903339"><ele>98.2</ele></trkpt>
      <trkpt lat="34.514186" lon="126.902928"><ele>92.4</ele></trkpt>
      <trkpt lat="34.514094" lon="126.902316"><ele>88.8</ele></trkpt>
      <trkpt lat="34.514835" lon="126.902151"><ele>97.1</ele></trkpt>
      <trkpt lat="34.515071" lon="126.902204"><ele>100.2</ele></trkpt>
      <trkpt lat="34.515333" lon="126.902363"><ele>105.1</ele></trkpt>
      <trkpt lat="34.515760" lon="126.902526"><ele>111.9</ele></trkpt>
      <trkpt lat="34.516226" lon="126.902641"><ele>124.2</ele></trkpt>
      <trkpt lat="34.516232" lon="126.902233"><ele>124.4</ele></trkpt>
      <trkpt lat="34.516405" lon="126.902212"><ele>130.7</ele></trkpt>
      <trkpt lat="34.516718" lon="126.902010"><ele>146.1</ele></trkpt>
      <trkpt lat="34.516810" lon="126.902218"><ele>149.3</ele></trkpt>
      <trkpt lat="34.516881" lon="126.902255"><ele>153.0</ele></trkpt>
      <trkpt lat="34.516988" lon="126.902193"><ele>159.4</ele></trkpt>
      <trkpt lat="34.517152" lon="126.902237"><ele>167.2</ele></trkpt>
      <trkpt lat="34.517303" lon="126.902168"><ele>174.9</ele></trkpt>
      <trkpt lat="34.517468" lon="126.902271"><ele>181.8</ele></trkpt>
      <trkpt lat="34.517643" lon="126.902248"><ele>190.8</ele></trkpt>
      <trkpt lat="34.517719" lon="126.902214"><ele>195.1</ele></trkpt>
      <trkpt lat="34.517754" lon="126.902126"><ele>197.5</ele></trkpt>
      <trkpt lat="34.517829" lon="126.902162"><ele>200.8</ele></trkpt>
      <trkpt lat="34.517883" lon="126.902115"><ele>203.7</ele></trkpt>
      <trkpt lat="34.517964" lon="126.902145"><ele>207.3</ele></trkpt>
      <trkpt lat="34.517997" lon="126.902090"><ele>209.2</ele></trkpt>
      <trkpt lat="34.518171" lon="126.902079"><ele>216.4</ele></trkpt>
      <trkpt lat="34.518361" lon="126.902125"><ele>223.5</ele></trkpt>
      <trkpt lat="34.518538" lon="126.902027"><ele>228.1</ele></trkpt>
      <trkpt lat="34.519156" lon="126.902119"><ele>249.2</ele></trkpt>
      <trkpt lat="34.519382" lon="126.902108"><ele>256.6</ele></trkpt>
      <trkpt lat="34.519985" lon="126.902411"><ele>274.1</ele></trkpt>
      <trkpt lat="34.520380" lon="126.902712"><ele>287.6</ele></trkpt>
      <trkpt lat="34.520749" lon="126.902868"><ele>301.9</ele></trkpt>
      <trkpt lat="34.521104" lon="126.903148"><ele>312.6</ele></trkpt>
      <trkpt lat="34.521268" lon="126.903360"><ele>319.5</ele></trkpt>
      <trkpt lat="34.521574" lon="126.903479"><ele>329.4</ele></trkpt>
      <trkpt lat="34.521595" lon="126.903532"><ele>331.5</ele></trkpt>
      <trkpt lat="34.521819" lon="126.903595"><ele>340.0</ele></trkpt>
      <trkpt lat="34.521974" lon="126.903580"><ele>344.4</ele></trkpt>
      <trkpt lat="34.522163" lon="126.903656"><ele>351.4</ele></trkpt>
      <trkpt lat="34.522578" lon="126.903539"><ele>366.8</ele></trkpt>
      <trkpt lat="34.522792" lon="126.903547"><ele>376.5</ele></trkpt>
      <trkpt lat="34.522866" lon="126.903455"><ele>381.1</ele></trkpt>
      <trkpt lat="34.523013" lon="126.903462"><ele>387.4</ele></trkpt>
      <trkpt lat="34.523037" lon="126.903411"><ele>389.5</ele></trkpt>
      <trkpt lat="34.523209" lon="126.903353"><ele>398.7</ele></trkpt>
      <trkpt lat="34.523470" lon="126.903455"><ele>406.9</ele></trkpt>
      <trkpt lat="34.523515" lon="126.903516"><ele>407.1</ele></trkpt>
      <trkpt lat="34.523709" lon="126.903310"><ele>418.5</ele></trkpt>
      <trkpt lat="34.523955" lon="126.903190"><ele>429.0</ele></trkpt>
      <trkpt lat="34.524181" lon="126.903171"><ele>435.9</ele></trkpt>
      <trkpt lat="34.524241" lon="126.902978"><ele>441.8</ele></trkpt>
      <trkpt lat="34.524451" lon="126.902649"><ele>449.7</ele></trkpt>
      <trkpt lat="34.524557" lon="126.902547"><ele>450.6</ele></trkpt>
      <trkpt lat="34.524847" lon="126.902453"><ele>448.0</ele></trkpt>
      <trkpt lat="34.525245" lon="126.902646"><ele>454.4</ele></trkpt>
      <trkpt lat="34.525638" lon="126.902927"><ele>463.4</ele></trkpt>
      <trkpt lat="34.525860" lon="126.903003"><ele>467.9</ele></trkpt>
      <trkpt lat="34.526066" lon="126.902997"><ele>470.5</ele></trkpt>
      <trkpt lat="34.526567" lon="126.903397"><ele>476.5</ele></trkpt>
    </trkseg>
  </trk>
</gpx>
