<?xml version="1.0" encoding="UTF-8"?>
<gpx version="1.1" creator="kr-100-mountains route-harvester"
     xmlns="http://www.topografix.com/GPX/1/1"
     xmlns:k100="https://github.com/jay-jang/kr-100-mountains/ns/1"
     xmlns:xsi="http://www.w3.org/2001/XMLSchema-instance"
     xsi:schemaLocation="http://www.topografix.com/GPX/1/1 http://www.topografix.com/GPX/1/1/gpx.xsd">
  <metadata>
    <name>천관산 · 양근암 코스 (OSM 계산 경로)</name>
    <desc>실제 GPS 기록이 아닙니다. OpenStreetMap에 등록된 등산로 선형 위에서 계산한 경로이며, 현장 통제·훼손·출입 제한·계절 통제를 반영하지 않을 수 있습니다. 산행 전 공식 안내를 확인하세요.</desc>
    <time>2026-08-04T05:35:53.794Z</time>
    <link href="https://www.openstreetmap.org/copyright"><text>© OpenStreetMap contributors (ODbL 1.0)</text></link>
    <link href="https://registry.opendata.aws/terrain-tiles/"><text>Elevation: SRTM 1 arc-second (NASA/USGS) via AWS Terrain Tiles</text></link>
    <extensions>
      <k100:provenance>osm-routed</k100:provenance>
      <k100:not_a_recorded_track>true</k100:not_a_recorded_track>
      <k100:mountain_id>cheongwansan</k100:mountain_id>
      <k100:mountain_name>천관산</k100:mountain_name>
      <k100:route_id>cheongwansan-526450e0</k100:route_id>
      <k100:route_index>1</k100:route_index>
      <k100:route_name>양근암 코스</k100:route_name>
      <k100:variant>0</k100:variant>
      <k100:source>OpenStreetMap via Overpass API</k100:source>
      <k100:license>ODbL-1.0</k100:license>
      <k100:attribution>© OpenStreetMap contributors</k100:attribution>
      <k100:elevation_source>SRTM 1 arc-second (NASA/USGS) — AWS Terrain Tiles 배포본. 지형 DEM 추정 고도이며 실측 아님</k100:elevation_source>
      <k100:algorithm>dijkstra-grid-v1</k100:algorithm>
      <k100:osm_snapshot>2026-08-04</k100:osm_snapshot>
      <k100:snap_trailhead_m>157</k100:snap_trailhead_m>
      <k100:snap_summit_m>204</k100:snap_summit_m>
      <k100:validation_score>83</k100:validation_score>
      <k100:validation_status>accepted</k100:validation_status>
    </extensions>
  </metadata>
  <trk>
    <name>천관산 · 양근암 코스 (OSM 계산 경로)</name>
    <desc>실제 GPS 기록이 아닙니다. OpenStreetMap에 등록된 등산로 선형 위에서 계산한 경로이며, 현장 통제·훼손·출입 제한·계절 통제를 반영하지 않을 수 있습니다. 산행 전 공식 안내를 확인하세요.</desc>
    <trkseg>
      <trkpt lat="34.542424" lon="126.910181"><ele>553.8</ele></trkpt>
      <trkpt lat="34.542186" lon="126.910275"><ele>568.2</ele></trkpt>
      <trkpt lat="34.541773" lon="126.910801"><ele>577.4</ele></trkpt>
      <trkpt lat="34.541705" lon="126.910813"><ele>578.4</ele></trkpt>
      <trkpt lat="34.541732" lon="126.910831"><ele>578.1</ele></trkpt>
      <trkpt lat="34.541574" lon="126.910950"><ele>579.2</ele></trkpt>
      <trkpt lat="34.541217" lon="126.911053"><ele>580.1</ele></trkpt>
      <trkpt lat="34.541008" lon="126.911015"><ele>580.3</ele></trkpt>
      <trkpt lat="34.540796" lon="126.911079"><ele>582.6</ele></trkpt>
      <trkpt lat="34.540746" lon="126.911216"><ele>582.0</ele></trkpt>
      <trkpt lat="34.540586" lon="126.911332"><ele>585.9</ele></trkpt>
      <trkpt lat="34.540380" lon="126.911326"><ele>593.3</ele></trkpt>
      <trkpt lat="34.540299" lon="126.911623"><ele>601.9</ele></trkpt>
      <trkpt lat="34.539976" lon="126.912305"><ele>616.1</ele></trkpt>
      <trkpt lat="34.539467" lon="126.912598"><ele>628.8</ele></trkpt>
      <trkpt lat="34.539143" lon="126.912571"><ele>641.0</ele></trkpt>
      <trkpt lat="34.538830" lon="126.912727"><ele>645.3</ele></trkpt>
      <trkpt lat="34.538169" lon="126.912323"><ele>657.3</ele></trkpt>
      <trkpt lat="34.537837" lon="126.912398"><ele>663.3</ele></trkpt>
      <trkpt lat="34.537561" lon="126.912343"><ele>671.4</ele></trkpt>
      <trkpt lat="34.537423" lon="126.912228"><ele>675.1</ele></trkpt>
      <trkpt lat="34.537241" lon="126.912322"><ele>677.4</ele></trkpt>
      <trkpt lat="34.536823" lon="126.912169"><ele>682.5</ele></trkpt>
      <trkpt lat="34.536554" lon="126.912207"><ele>683.9</ele></trkpt>
      <trkpt lat="34.536366" lon="126.912072"><ele>684.6</ele></trkpt>
      <trkpt lat="34.536192" lon="126.911839"><ele>690.6</ele></trkpt>
      <trkpt lat="34.536017" lon="126.911769"><ele>696.6</ele></trkpt>
      <trkpt lat="34.535875" lon="126.911845"><ele>701.6</ele></trkpt>
      <trkpt lat="34.535686" lon="126.911777"><ele>704.0</ele></trkpt>
      <trkpt lat="34.535580" lon="126.911845"><ele>704.0</ele></trkpt>
      <trkpt lat="34.535476" lon="126.911550"><ele>707.2</ele></trkpt>
      <trkpt lat="34.535461" lon="126.911188"><ele>711.8</ele></trkpt>
      <trkpt lat="34.535286" lon="126.911240"><ele>713.1</ele></trkpt>
      <trkpt lat="34.534965" lon="126.911109"><ele>705.6</ele></trkpt>
      <trkpt lat="34.534286" lon="126.910611"><ele>691.1</ele></trkpt>
      <trkpt lat="34.534190" lon="126.910469"><ele>691.1</ele></trkpt>
      <trkpt lat="34.533386" lon="126.909773"><ele>685.7</ele></trkpt>
      <trkpt lat="34.532968" lon="126.909135"><ele>675.2</ele></trkpt>
      <trkpt lat="34.532484" lon="126.908267"><ele>663.1</ele></trkpt>
      <trkpt lat="34.531906" lon="126.907098"><ele>643.9</ele></trkpt>
      <trkpt lat="34.531763" lon="126.907139"><ele>642.1</ele></trkpt>
      <trkpt lat="34.531614" lon="126.907002"><ele>642.8</ele></trkpt>
      <trkpt lat="34.531577" lon="126.906880"><ele>643.0</ele></trkpt>
      <trkpt lat="34.531442" lon="126.906809"><ele>639.0</ele></trkpt>
      <trkpt lat="34.531292" lon="126.906584"><ele>635.3</ele></trkpt>
      <trkpt lat="34.531183" lon="126.906263"><ele>628.1</ele></trkpt>
      <trkpt lat="34.530859" lon="126.905962"><ele>617.8</ele></trkpt>
      <trkpt lat="34.530547" lon="126.905856"><ele>605.7</ele></trkpt>
      <trkpt lat="34.530389" lon="126.905897"><ele>598.7</ele></trkpt>
      <trkpt lat="34.530325" lon="126.905833"><ele>596.9</ele></trkpt>
      <trkpt lat="34.529842" lon="126.905753"><ele>574.4</ele></trkpt>
      <trkpt lat="34.529576" lon="126.905662"><ele>568.2</ele></trkpt>
      <trkpt lat="34.529506" lon="126.905593"><ele>565.5</ele></trkpt>
      <trkpt lat="34.529172" lon="126.905650"><ele>557.5</ele></trkpt>
      <trkpt lat="34.529041" lon="126.905834"><ele>557.1</ele></trkpt>
      <trkpt lat="34.528919" lon="126.905844"><ele>556.0</ele></trkpt>
      <trkpt lat="34.528784" lon="126.905675"><ele>552.6</ele></trkpt>
      <trkpt lat="34.528476" lon="126.905492"><ele>544.3</ele></trkpt>
      <trkpt lat="34.528384" lon="126.905375"><ele>539.1</ele></trkpt>
      <trkpt lat="34.528307" lon="126.905368"><ele>537.4</ele></trkpt>
      <trkpt lat="34.528199" lon="126.905230"><ele>532.6</ele></trkpt>
      <trkpt lat="34.527986" lon="126.905130"><ele>526.8</ele></trkpt>
      <trkpt lat="34.527774" lon="126.904896"><ele>518.3</ele></trkpt>
      <trkpt lat="34.527417" lon="126.904688"><ele>509.6</ele></trkpt>
      <trkpt lat="34.527108" lon="126.904241"><ele>500.4</ele></trkpt>
      <trkpt lat="34.526904" lon="126.904068"><ele>494.5</ele></trkpt>
      <trkpt lat="34.526567" lon="126.903397"><ele>476.5</ele></trkpt>
    </trkseg>
  </trk>
</gpx>
