<?xml version="1.0" encoding="UTF-8"?>
<gpx version="1.1" creator="kr-100-mountains route-harvester"
     xmlns="http://www.topografix.com/GPX/1/1"
     xmlns:k100="https://github.com/jay-jang/kr-100-mountains/ns/1"
     xmlns:xsi="http://www.w3.org/2001/XMLSchema-instance"
     xsi:schemaLocation="http://www.topografix.com/GPX/1/1 http://www.topografix.com/GPX/1/1/gpx.xsd">
  <metadata>
    <name>천관산 · 구룡봉 코스 (대안 1) (OSM 계산 경로)</name>
    <desc>실제 GPS 기록이 아닙니다. OpenStreetMap에 등록된 등산로 선형 위에서 계산한 경로이며, 현장 통제·훼손·출입 제한·계절 통제를 반영하지 않을 수 있습니다. 산행 전 공식 안내를 확인하세요.</desc>
    <time>2026-08-04T05:35:53.815Z</time>
    <link href="https://www.openstreetmap.org/copyright"><text>© OpenStreetMap contributors (ODbL 1.0)</text></link>
    <link href="https://registry.opendata.aws/terrain-tiles/"><text>Elevation: SRTM 1 arc-second (NASA/USGS) via AWS Terrain Tiles</text></link>
    <extensions>
      <k100:provenance>osm-routed</k100:provenance>
      <k100:not_a_recorded_track>true</k100:not_a_recorded_track>
      <k100:mountain_id>cheongwansan</k100:mountain_id>
      <k100:mountain_name>천관산</k100:mountain_name>
      <k100:route_id>cheongwansan-a2c35a42</k100:route_id>
      <k100:route_index>3</k100:route_index>
      <k100:route_name>구룡봉 코스</k100:route_name>
      <k100:variant>1</k100:variant>
      <k100:source>OpenStreetMap via Overpass API</k100:source>
      <k100:license>ODbL-1.0</k100:license>
      <k100:attribution>© OpenStreetMap contributors</k100:attribution>
      <k100:elevation_source>SRTM 1 arc-second (NASA/USGS) — AWS Terrain Tiles 배포본. 지형 DEM 추정 고도이며 실측 아님</k100:elevation_source>
      <k100:algorithm>dijkstra-grid-v1</k100:algorithm>
      <k100:osm_snapshot>2026-08-04</k100:osm_snapshot>
      <k100:snap_trailhead_m>314</k100:snap_trailhead_m>
      <k100:snap_summit_m>204</k100:snap_summit_m>
      <k100:validation_score>67</k100:validation_score>
      <k100:validation_status>review</k100:validation_status>
    </extensions>
  </metadata>
  <trk>
    <name>천관산 · 구룡봉 코스 (대안 1) (OSM 계산 경로)</name>
    <desc>실제 GPS 기록이 아닙니다. OpenStreetMap에 등록된 등산로 선형 위에서 계산한 경로이며, 현장 통제·훼손·출입 제한·계절 통제를 반영하지 않을 수 있습니다. 산행 전 공식 안내를 확인하세요.</desc>
    <trkseg>
      <trkpt lat="34.512731" lon="126.910271"><ele>123.0</ele></trkpt>
      <trkpt lat="34.512819" lon="126.909131"><ele>114.3</ele></trkpt>
      <trkpt lat="34.513201" lon="126.907698"><ele>111.3</ele></trkpt>
      <trkpt lat="34.513556" lon="126.906843"><ele>114.7</ele></trkpt>
      <trkpt lat="34.513606" lon="126.906621"><ele>114.2</ele></trkpt>
      <trkpt lat="34.513532" lon="126.906004"><ele>121.2</ele></trkpt>
      <trkpt lat="34.513593" lon="126.905795"><ele>123.7</ele></trkpt>
      <trkpt lat="34.514043" lon="126.905123"><ele>118.0</ele></trkpt>
      <trkpt lat="34.514267" lon="126.904550"><ele>111.2</ele></trkpt>
      <trkpt lat="34.514396" lon="126.903979"><ele>108.7</ele></trkpt>
      <trkpt lat="34.514380" lon="126.903705"><ele>104.7</ele></trkpt>
      <trkpt lat="34.514743" lon="126.903716"><ele>110.3</ele></trkpt>
      <trkpt lat="34.514798" lon="126.903665"><ele>110.3</ele></trkpt>
      <trkpt lat="34.515291" lon="126.903922"><ele>120.6</ele></trkpt>
      <trkpt lat="34.515285" lon="126.903770"><ele>118.3</ele></trkpt>
      <trkpt lat="34.515505" lon="126.903882"><ele>121.5</ele></trkpt>
      <trkpt lat="34.515685" lon="126.903843"><ele>123.0</ele></trkpt>
      <trkpt lat="34.515966" lon="126.903142"><ele>118.9</ele></trkpt>
      <trkpt lat="34.516030" lon="126.903111"><ele>119.9</ele></trkpt>
      <trkpt lat="34.516238" lon="126.903225"><ele>123.8</ele></trkpt>
      <trkpt lat="34.516398" lon="126.903539"><ele>128.3</ele></trkpt>
      <trkpt lat="34.516552" lon="126.903659"><ele>131.0</ele></trkpt>
      <trkpt lat="34.516827" lon="126.903374"><ele>135.3</ele></trkpt>
      <trkpt lat="34.516947" lon="126.902934"><ele>146.7</ele></trkpt>
      <trkpt lat="34.516226" lon="126.902641"><ele>124.2</ele></trkpt>
      <trkpt lat="34.516236" lon="126.902135"><ele>124.8</ele></trkpt>
      <trkpt lat="34.516394" lon="126.901352"><ele>123.0</ele></trkpt>
      <trkpt lat="34.516667" lon="126.900668"><ele>126.6</ele></trkpt>
      <trkpt lat="34.517032" lon="126.900142"><ele>130.0</ele></trkpt>
      <trkpt lat="34.517377" lon="126.899779"><ele>135.4</ele></trkpt>
      <trkpt lat="34.517400" lon="126.899622"><ele>135.6</ele></trkpt>
      <trkpt lat="34.517176" lon="126.899258"><ele>127.9</ele></trkpt>
      <trkpt lat="34.517321" lon="126.899177"><ele>132.2</ele></trkpt>
      <trkpt lat="34.517380" lon="126.899244"><ele>134.4</ele></trkpt>
      <trkpt lat="34.517452" lon="126.899207"><ele>136.6</ele></trkpt>
      <trkpt lat="34.517666" lon="126.899274"><ele>145.5</ele></trkpt>
      <trkpt lat="34.517899" lon="126.899218"><ele>156.3</ele></trkpt>
      <trkpt lat="34.518037" lon="126.899242"><ele>162.6</ele></trkpt>
      <trkpt lat="34.518452" lon="126.899107"><ele>184.4</ele></trkpt>
      <trkpt lat="34.518550" lon="126.899150"><ele>189.8</ele></trkpt>
      <trkpt lat="34.518651" lon="126.899077"><ele>194.6</ele></trkpt>
      <trkpt lat="34.518878" lon="126.899152"><ele>205.4</ele></trkpt>
      <trkpt lat="34.518960" lon="126.899088"><ele>208.9</ele></trkpt>
      <trkpt lat="34.518982" lon="126.898958"><ele>208.4</ele></trkpt>
      <trkpt lat="34.519097" lon="126.898897"><ele>211.2</ele></trkpt>
      <trkpt lat="34.519200" lon="126.898930"><ele>215.5</ele></trkpt>
      <trkpt lat="34.519249" lon="126.899044"><ele>220.3</ele></trkpt>
      <trkpt lat="34.519384" lon="126.899106"><ele>226.8</ele></trkpt>
      <trkpt lat="34.519488" lon="126.899083"><ele>230.4</ele></trkpt>
      <trkpt lat="34.519558" lon="126.899139"><ele>233.4</ele></trkpt>
      <trkpt lat="34.519633" lon="126.899112"><ele>235.7</ele></trkpt>
      <trkpt lat="34.519800" lon="126.899176"><ele>242.7</ele></trkpt>
      <trkpt lat="34.519881" lon="126.899267"><ele>247.2</ele></trkpt>
      <trkpt lat="34.520021" lon="126.899180"><ele>253.4</ele></trkpt>
      <trkpt lat="34.520046" lon="126.899257"><ele>255.6</ele></trkpt>
      <trkpt lat="34.520186" lon="126.899376"><ele>265.0</ele></trkpt>
      <trkpt lat="34.520240" lon="126.899356"><ele>267.9</ele></trkpt>
      <trkpt lat="34.520409" lon="126.899447"><ele>279.0</ele></trkpt>
      <trkpt lat="34.520627" lon="126.899407"><ele>291.8</ele></trkpt>
      <trkpt lat="34.520802" lon="126.899184"><ele>298.6</ele></trkpt>
      <trkpt lat="34.520901" lon="126.899178"><ele>304.5</ele></trkpt>
      <trkpt lat="34.520944" lon="126.899282"><ele>308.5</ele></trkpt>
      <trkpt lat="34.521068" lon="126.899196"><ele>315.5</ele></trkpt>
      <trkpt lat="34.521206" lon="126.899509"><ele>324.9</ele></trkpt>
      <trkpt lat="34.521179" lon="126.899642"><ele>322.8</ele></trkpt>
      <trkpt lat="34.521225" lon="126.899777"><ele>324.5</ele></trkpt>
      <trkpt lat="34.521269" lon="126.899796"><ele>327.0</ele></trkpt>
      <trkpt lat="34.521345" lon="126.899732"><ele>333.0</ele></trkpt>
      <trkpt lat="34.521360" lon="126.899769"><ele>333.3</ele></trkpt>
      <trkpt lat="34.521512" lon="126.899559"><ele>342.4</ele></trkpt>
      <trkpt lat="34.521801" lon="126.899607"><ele>356.0</ele></trkpt>
      <trkpt lat="34.521990" lon="126.899797"><ele>365.6</ele></trkpt>
      <trkpt lat="34.522073" lon="126.899798"><ele>366.5</ele></trkpt>
      <trkpt lat="34.522214" lon="126.899920"><ele>371.5</ele></trkpt>
      <trkpt lat="34.522304" lon="126.900017"><ele>373.2</ele></trkpt>
      <trkpt lat="34.522320" lon="126.900065"><ele>374.3</ele></trkpt>
      <trkpt lat="34.522277" lon="126.900083"><ele>375.0</ele></trkpt>
      <trkpt lat="34.522307" lon="126.900124"><ele>375.8</ele></trkpt>
      <trkpt lat="34.522421" lon="126.900116"><ele>375.0</ele></trkpt>
      <trkpt lat="34.522468" lon="126.900228"><ele>378.9</ele></trkpt>
      <trkpt lat="34.522610" lon="126.900314"><ele>379.3</ele></trkpt>
      <trkpt lat="34.522717" lon="126.900673"><ele>387.2</ele></trkpt>
      <trkpt lat="34.522817" lon="126.900774"><ele>391.1</ele></trkpt>
      <trkpt lat="34.522894" lon="126.901163"><ele>404.5</ele></trkpt>
      <trkpt lat="34.522982" lon="126.901301"><ele>410.1</ele></trkpt>
      <trkpt lat="34.523156" lon="126.901374"><ele>417.6</ele></trkpt>
      <trkpt lat="34.523135" lon="126.901422"><ele>418.6</ele></trkpt>
      <trkpt lat="34.523274" lon="126.901498"><ele>424.1</ele></trkpt>
      <trkpt lat="34.523345" lon="126.901627"><ele>429.8</ele></trkpt>
      <trkpt lat="34.523431" lon="126.901669"><ele>432.4</ele></trkpt>
      <trkpt lat="34.523461" lon="126.901797"><ele>434.6</ele></trkpt>
      <trkpt lat="34.523561" lon="126.901803"><ele>437.5</ele></trkpt>
      <trkpt lat="34.524059" lon="126.902146"><ele>452.2</ele></trkpt>
      <trkpt lat="34.524388" lon="126.902188"><ele>451.6</ele></trkpt>
      <trkpt lat="34.524556" lon="126.902261"><ele>449.9</ele></trkpt>
      <trkpt lat="34.524566" lon="126.902324"><ele>450.2</ele></trkpt>
      <trkpt lat="34.524757" lon="126.902480"><ele>449.4</ele></trkpt>
      <trkpt lat="34.524847" lon="126.902453"><ele>448.0</ele></trkpt>
      <trkpt lat="34.525245" lon="126.902646"><ele>454.4</ele></trkpt>
      <trkpt lat="34.525638" lon="126.902927"><ele>463.4</ele></trkpt>
      <trkpt lat="34.525860" lon="126.903003"><ele>467.9</ele></trkpt>
      <trkpt lat="34.526066" lon="126.902997"><ele>470.5</ele></trkpt>
      <trkpt lat="34.526567" lon="126.903397"><ele>476.5</ele></trkpt>
    </trkseg>
  </trk>
</gpx>
