<?xml version="1.0" encoding="UTF-8"?>
<gpx version="1.1" creator="kr-100-mountains route-harvester"
     xmlns="http://www.topografix.com/GPX/1/1"
     xmlns:k100="https://github.com/jay-jang/kr-100-mountains/ns/1"
     xmlns:xsi="http://www.w3.org/2001/XMLSchema-instance"
     xsi:schemaLocation="http://www.topografix.com/GPX/1/1 http://www.topografix.com/GPX/1/1/gpx.xsd">
  <metadata>
    <name>백운산 · 광덕고개 최단 코스 (OSM 계산 경로)</name>
    <desc>실제 GPS 기록이 아닙니다. OpenStreetMap에 등록된 등산로 선형 위에서 계산한 경로이며, 현장 통제·훼손·출입 제한·계절 통제를 반영하지 않을 수 있습니다. 산행 전 공식 안내를 확인하세요.</desc>
    <time>2026-08-04T05:13:51.885Z</time>
    <link href="https://www.openstreetmap.org/copyright"><text>© OpenStreetMap contributors (ODbL 1.0)</text></link>
    <link href="https://registry.opendata.aws/terrain-tiles/"><text>Elevation: SRTM 1 arc-second (NASA/USGS) via AWS Terrain Tiles</text></link>
    <extensions>
      <k100:provenance>osm-routed</k100:provenance>
      <k100:not_a_recorded_track>true</k100:not_a_recorded_track>
      <k100:mountain_id>baekunsan-pocheon</k100:mountain_id>
      <k100:mountain_name>백운산(포천)</k100:mountain_name>
      <k100:route_id>baekunsan-pocheon-b72f4d64</k100:route_id>
      <k100:route_index>1</k100:route_index>
      <k100:route_name>광덕고개 최단 코스</k100:route_name>
      <k100:variant>0</k100:variant>
      <k100:source>OpenStreetMap via Overpass API</k100:source>
      <k100:license>ODbL-1.0</k100:license>
      <k100:attribution>© OpenStreetMap contributors</k100:attribution>
      <k100:elevation_source>SRTM 1 arc-second (NASA/USGS) — AWS Terrain Tiles 배포본. 지형 DEM 추정 고도이며 실측 아님</k100:elevation_source>
      <k100:algorithm>dijkstra-grid-v1</k100:algorithm>
      <k100:osm_snapshot>2026-08-04</k100:osm_snapshot>
      <k100:snap_trailhead_m>6</k100:snap_trailhead_m>
      <k100:snap_summit_m>383</k100:snap_summit_m>
      <k100:validation_score>72</k100:validation_score>
      <k100:validation_status>review</k100:validation_status>
    </extensions>
  </metadata>
  <trk>
    <name>백운산 · 광덕고개 최단 코스 (OSM 계산 경로)</name>
    <desc>실제 GPS 기록이 아닙니다. OpenStreetMap에 등록된 등산로 선형 위에서 계산한 경로이며, 현장 통제·훼손·출입 제한·계절 통제를 반영하지 않을 수 있습니다. 산행 전 공식 안내를 확인하세요.</desc>
    <trkseg>
      <trkpt lat="38.099850" lon="127.443470"><ele>624.5</ele></trkpt>
      <trkpt lat="38.099840" lon="127.443428"><ele>624.3</ele></trkpt>
      <trkpt lat="38.099770" lon="127.443699"><ele>622.5</ele></trkpt>
      <trkpt lat="38.099380" lon="127.443863"><ele>625.8</ele></trkpt>
      <trkpt lat="38.099322" lon="127.443992"><ele>627.0</ele></trkpt>
      <trkpt lat="38.098853" lon="127.444050"><ele>638.3</ele></trkpt>
      <trkpt lat="38.098420" lon="127.444265"><ele>648.9</ele></trkpt>
      <trkpt lat="38.098269" lon="127.444434"><ele>651.0</ele></trkpt>
      <trkpt lat="38.098139" lon="127.444489"><ele>651.3</ele></trkpt>
      <trkpt lat="38.097884" lon="127.444492"><ele>656.5</ele></trkpt>
      <trkpt lat="38.097377" lon="127.444700"><ele>665.9</ele></trkpt>
      <trkpt lat="38.097160" lon="127.444722"><ele>666.2</ele></trkpt>
      <trkpt lat="38.096911" lon="127.444615"><ele>665.3</ele></trkpt>
      <trkpt lat="38.096626" lon="127.444381"><ele>661.8</ele></trkpt>
      <trkpt lat="38.096437" lon="127.444323"><ele>659.1</ele></trkpt>
      <trkpt lat="38.096230" lon="127.444416"><ele>660.6</ele></trkpt>
      <trkpt lat="38.096108" lon="127.444414"><ele>661.9</ele></trkpt>
      <trkpt lat="38.095799" lon="127.444344"><ele>662.3</ele></trkpt>
      <trkpt lat="38.095712" lon="127.444244"><ele>662.3</ele></trkpt>
      <trkpt lat="38.095286" lon="127.444183"><ele>665.5</ele></trkpt>
      <trkpt lat="38.095096" lon="127.444242"><ele>663.5</ele></trkpt>
      <trkpt lat="38.094923" lon="127.444426"><ele>660.1</ele></trkpt>
      <trkpt lat="38.094688" lon="127.444565"><ele>655.6</ele></trkpt>
      <trkpt lat="38.094568" lon="127.444560"><ele>655.4</ele></trkpt>
      <trkpt lat="38.093963" lon="127.444857"><ele>667.9</ele></trkpt>
      <trkpt lat="38.093567" lon="127.445164"><ele>679.4</ele></trkpt>
      <trkpt lat="38.093345" lon="127.445162"><ele>680.3</ele></trkpt>
      <trkpt lat="38.093197" lon="127.445053"><ele>683.5</ele></trkpt>
      <trkpt lat="38.093105" lon="127.445142"><ele>682.2</ele></trkpt>
      <trkpt lat="38.092729" lon="127.445282"><ele>685.4</ele></trkpt>
      <trkpt lat="38.092365" lon="127.445326"><ele>688.4</ele></trkpt>
      <trkpt lat="38.092272" lon="127.445215"><ele>689.3</ele></trkpt>
      <trkpt lat="38.091884" lon="127.445234"><ele>687.0</ele></trkpt>
      <trkpt lat="38.091414" lon="127.445152"><ele>701.2</ele></trkpt>
      <trkpt lat="38.091081" lon="127.445196"><ele>716.6</ele></trkpt>
      <trkpt lat="38.090839" lon="127.445390"><ele>726.0</ele></trkpt>
      <trkpt lat="38.090716" lon="127.445371"><ele>726.5</ele></trkpt>
      <trkpt lat="38.090378" lon="127.445056"><ele>735.6</ele></trkpt>
      <trkpt lat="38.090283" lon="127.444800"><ele>743.1</ele></trkpt>
      <trkpt lat="38.090105" lon="127.444594"><ele>746.1</ele></trkpt>
      <trkpt lat="38.089925" lon="127.444515"><ele>746.5</ele></trkpt>
      <trkpt lat="38.089808" lon="127.444620"><ele>745.6</ele></trkpt>
      <trkpt lat="38.089508" lon="127.444589"><ele>741.9</ele></trkpt>
      <trkpt lat="38.088982" lon="127.444908"><ele>732.2</ele></trkpt>
      <trkpt lat="38.088550" lon="127.444704"><ele>724.3</ele></trkpt>
      <trkpt lat="38.088050" lon="127.444355"><ele>729.6</ele></trkpt>
      <trkpt lat="38.087536" lon="127.444355"><ele>747.5</ele></trkpt>
      <trkpt lat="38.087196" lon="127.444256"><ele>745.4</ele></trkpt>
      <trkpt lat="38.086876" lon="127.444595"><ele>735.4</ele></trkpt>
      <trkpt lat="38.086825" lon="127.444874"><ele>727.6</ele></trkpt>
      <trkpt lat="38.086722" lon="127.445044"><ele>722.5</ele></trkpt>
      <trkpt lat="38.086619" lon="127.445519"><ele>719.4</ele></trkpt>
      <trkpt lat="38.086400" lon="127.445743"><ele>708.8</ele></trkpt>
      <trkpt lat="38.086246" lon="127.445828"><ele>707.5</ele></trkpt>
      <trkpt lat="38.085724" lon="127.445977"><ele>702.7</ele></trkpt>
      <trkpt lat="38.085089" lon="127.445924"><ele>718.6</ele></trkpt>
      <trkpt lat="38.084843" lon="127.446113"><ele>724.7</ele></trkpt>
      <trkpt lat="38.084555" lon="127.446178"><ele>728.5</ele></trkpt>
      <trkpt lat="38.084052" lon="127.446481"><ele>755.7</ele></trkpt>
      <trkpt lat="38.083857" lon="127.446700"><ele>761.8</ele></trkpt>
      <trkpt lat="38.083753" lon="127.446738"><ele>761.7</ele></trkpt>
      <trkpt lat="38.082654" lon="127.446454"><ele>769.2</ele></trkpt>
      <trkpt lat="38.082350" lon="127.446675"><ele>772.3</ele></trkpt>
      <trkpt lat="38.082002" lon="127.446760"><ele>772.9</ele></trkpt>
      <trkpt lat="38.081647" lon="127.446933"><ele>793.1</ele></trkpt>
      <trkpt lat="38.081451" lon="127.446825"><ele>804.1</ele></trkpt>
      <trkpt lat="38.081112" lon="127.446805"><ele>812.5</ele></trkpt>
      <trkpt lat="38.080610" lon="127.446959"><ele>834.0</ele></trkpt>
      <trkpt lat="38.080464" lon="127.446905"><ele>837.8</ele></trkpt>
      <trkpt lat="38.079905" lon="127.447204"><ele>847.4</ele></trkpt>
      <trkpt lat="38.079785" lon="127.447436"><ele>844.2</ele></trkpt>
      <trkpt lat="38.079700" lon="127.447811"><ele>830.4</ele></trkpt>
      <trkpt lat="38.079708" lon="127.448466"><ele>805.7</ele></trkpt>
      <trkpt lat="38.079605" lon="127.448868"><ele>787.7</ele></trkpt>
      <trkpt lat="38.079590" lon="127.449571"><ele>767.9</ele></trkpt>
      <trkpt lat="38.079700" lon="127.450086"><ele>759.5</ele></trkpt>
      <trkpt lat="38.079888" lon="127.450408"><ele>753.6</ele></trkpt>
      <trkpt lat="38.080010" lon="127.450754"><ele>748.6</ele></trkpt>
      <trkpt lat="38.079958" lon="127.451202"><ele>747.2</ele></trkpt>
      <trkpt lat="38.080071" lon="127.451201"><ele>746.6</ele></trkpt>
      <trkpt lat="38.080134" lon="127.451305"><ele>747.6</ele></trkpt>
      <trkpt lat="38.080314" lon="127.451201"><ele>742.5</ele></trkpt>
      <trkpt lat="38.080462" lon="127.451331"><ele>740.5</ele></trkpt>
      <trkpt lat="38.080580" lon="127.451247"><ele>735.1</ele></trkpt>
      <trkpt lat="38.080623" lon="127.451070"><ele>730.4</ele></trkpt>
      <trkpt lat="38.080591" lon="127.450999"><ele>730.7</ele></trkpt>
      <trkpt lat="38.080672" lon="127.450935"><ele>727.6</ele></trkpt>
      <trkpt lat="38.080719" lon="127.450977"><ele>726.5</ele></trkpt>
      <trkpt lat="38.080918" lon="127.450905"><ele>719.7</ele></trkpt>
      <trkpt lat="38.080977" lon="127.450960"><ele>718.0</ele></trkpt>
      <trkpt lat="38.081236" lon="127.450860"><ele>710.4</ele></trkpt>
      <trkpt lat="38.081447" lon="127.450862"><ele>705.5</ele></trkpt>
      <trkpt lat="38.081546" lon="127.450716"><ele>702.9</ele></trkpt>
      <trkpt lat="38.081681" lon="127.450760"><ele>698.8</ele></trkpt>
      <trkpt lat="38.081767" lon="127.450668"><ele>696.1</ele></trkpt>
      <trkpt lat="38.081969" lon="127.450721"><ele>689.5</ele></trkpt>
      <trkpt lat="38.082054" lon="127.450668"><ele>687.8</ele></trkpt>
      <trkpt lat="38.082517" lon="127.450683"><ele>682.0</ele></trkpt>
      <trkpt lat="38.082633" lon="127.450500"><ele>678.5</ele></trkpt>
      <trkpt lat="38.082827" lon="127.450379"><ele>673.2</ele></trkpt>
      <trkpt lat="38.083357" lon="127.450321"><ele>656.1</ele></trkpt>
      <trkpt lat="38.083463" lon="127.450430"><ele>654.4</ele></trkpt>
      <trkpt lat="38.083548" lon="127.450393"><ele>650.4</ele></trkpt>
      <trkpt lat="38.083945" lon="127.450413"><ele>643.5</ele></trkpt>
      <trkpt lat="38.084023" lon="127.450330"><ele>640.9</ele></trkpt>
      <trkpt lat="38.084224" lon="127.450279"><ele>636.2</ele></trkpt>
      <trkpt lat="38.084388" lon="127.450348"><ele>634.9</ele></trkpt>
    </trkseg>
  </trk>
</gpx>
