<?xml version="1.0" encoding="UTF-8"?>
<gpx version="1.1" creator="kr-100-mountains route-harvester"
     xmlns="http://www.topografix.com/GPX/1/1"
     xmlns:k100="https://github.com/jay-jang/kr-100-mountains/ns/1"
     xmlns:xsi="http://www.w3.org/2001/XMLSchema-instance"
     xsi:schemaLocation="http://www.topografix.com/GPX/1/1 http://www.topografix.com/GPX/1/1/gpx.xsd">
  <metadata>
    <name>백운산 · 백운계곡·흥룡사 코스 (OSM 계산 경로)</name>
    <desc>실제 GPS 기록이 아닙니다. OpenStreetMap에 등록된 등산로 선형 위에서 계산한 경로이며, 현장 통제·훼손·출입 제한·계절 통제를 반영하지 않을 수 있습니다. 산행 전 공식 안내를 확인하세요.</desc>
    <time>2026-08-04T05:13:51.905Z</time>
    <link href="https://www.openstreetmap.org/copyright"><text>© OpenStreetMap contributors (ODbL 1.0)</text></link>
    <link href="https://registry.opendata.aws/terrain-tiles/"><text>Elevation: SRTM 1 arc-second (NASA/USGS) via AWS Terrain Tiles</text></link>
    <extensions>
      <k100:provenance>osm-routed</k100:provenance>
      <k100:not_a_recorded_track>true</k100:not_a_recorded_track>
      <k100:mountain_id>baekunsan-pocheon</k100:mountain_id>
      <k100:mountain_name>백운산(포천)</k100:mountain_name>
      <k100:route_id>baekunsan-pocheon-bc632d1e</k100:route_id>
      <k100:route_index>2</k100:route_index>
      <k100:route_name>백운계곡·흥룡사 코스</k100:route_name>
      <k100:variant>0</k100:variant>
      <k100:source>OpenStreetMap via Overpass API</k100:source>
      <k100:license>ODbL-1.0</k100:license>
      <k100:attribution>© OpenStreetMap contributors</k100:attribution>
      <k100:elevation_source>SRTM 1 arc-second (NASA/USGS) — AWS Terrain Tiles 배포본. 지형 DEM 추정 고도이며 실측 아님</k100:elevation_source>
      <k100:algorithm>dijkstra-grid-v1</k100:algorithm>
      <k100:osm_snapshot>2026-08-04</k100:osm_snapshot>
      <k100:snap_trailhead_m>21</k100:snap_trailhead_m>
      <k100:snap_summit_m>383</k100:snap_summit_m>
      <k100:validation_score>56</k100:validation_score>
      <k100:validation_status>review</k100:validation_status>
    </extensions>
  </metadata>
  <trk>
    <name>백운산 · 백운계곡·흥룡사 코스 (OSM 계산 경로)</name>
    <desc>실제 GPS 기록이 아닙니다. OpenStreetMap에 등록된 등산로 선형 위에서 계산한 경로이며, 현장 통제·훼손·출입 제한·계절 통제를 반영하지 않을 수 있습니다. 산행 전 공식 안내를 확인하세요.</desc>
    <trkseg>
      <trkpt lat="38.071250" lon="127.409638"><ele>257.5</ele></trkpt>
      <trkpt lat="38.071152" lon="127.409775"><ele>257.7</ele></trkpt>
      <trkpt lat="38.071086" lon="127.409988"><ele>258.9</ele></trkpt>
      <trkpt lat="38.070604" lon="127.411961"><ele>267.0</ele></trkpt>
      <trkpt lat="38.070520" lon="127.412175"><ele>266.8</ele></trkpt>
      <trkpt lat="38.070154" lon="127.412656"><ele>274.4</ele></trkpt>
      <trkpt lat="38.069987" lon="127.413350"><ele>287.2</ele></trkpt>
      <trkpt lat="38.070123" lon="127.413876"><ele>294.3</ele></trkpt>
      <trkpt lat="38.070262" lon="127.414016"><ele>295.0</ele></trkpt>
      <trkpt lat="38.070336" lon="127.414257"><ele>298.2</ele></trkpt>
      <trkpt lat="38.070325" lon="127.414498"><ele>303.2</ele></trkpt>
      <trkpt lat="38.070411" lon="127.414935"><ele>320.2</ele></trkpt>
      <trkpt lat="38.070340" lon="127.415359"><ele>331.2</ele></trkpt>
      <trkpt lat="38.070580" lon="127.416089"><ele>345.2</ele></trkpt>
      <trkpt lat="38.070583" lon="127.416330"><ele>352.3</ele></trkpt>
      <trkpt lat="38.070537" lon="127.416626"><ele>358.0</ele></trkpt>
      <trkpt lat="38.070464" lon="127.416650"><ele>357.7</ele></trkpt>
      <trkpt lat="38.070401" lon="127.417294"><ele>375.2</ele></trkpt>
      <trkpt lat="38.070588" lon="127.417518"><ele>390.9</ele></trkpt>
      <trkpt lat="38.070781" lon="127.417936"><ele>402.8</ele></trkpt>
      <trkpt lat="38.070777" lon="127.418084"><ele>406.4</ele></trkpt>
      <trkpt lat="38.070673" lon="127.418223"><ele>408.4</ele></trkpt>
      <trkpt lat="38.070714" lon="127.418302"><ele>412.4</ele></trkpt>
      <trkpt lat="38.070788" lon="127.418312"><ele>414.9</ele></trkpt>
      <trkpt lat="38.070771" lon="127.418401"><ele>417.1</ele></trkpt>
      <trkpt lat="38.070912" lon="127.418490"><ele>419.3</ele></trkpt>
      <trkpt lat="38.070837" lon="127.418552"><ele>422.4</ele></trkpt>
      <trkpt lat="38.070881" lon="127.418667"><ele>424.1</ele></trkpt>
      <trkpt lat="38.070861" lon="127.418773"><ele>427.0</ele></trkpt>
      <trkpt lat="38.070631" lon="127.419163"><ele>428.9</ele></trkpt>
      <trkpt lat="38.070805" lon="127.419437"><ele>431.2</ele></trkpt>
      <trkpt lat="38.070944" lon="127.419911"><ele>433.1</ele></trkpt>
      <trkpt lat="38.071269" lon="127.420565"><ele>454.1</ele></trkpt>
      <trkpt lat="38.071312" lon="127.420764"><ele>456.8</ele></trkpt>
      <trkpt lat="38.071180" lon="127.421000"><ele>457.8</ele></trkpt>
      <trkpt lat="38.071127" lon="127.421305"><ele>457.4</ele></trkpt>
      <trkpt lat="38.071199" lon="127.422407"><ele>481.9</ele></trkpt>
      <trkpt lat="38.071180" lon="127.422810"><ele>484.3</ele></trkpt>
      <trkpt lat="38.071218" lon="127.422934"><ele>486.3</ele></trkpt>
      <trkpt lat="38.071140" lon="127.423043"><ele>485.6</ele></trkpt>
      <trkpt lat="38.071271" lon="127.423387"><ele>495.3</ele></trkpt>
      <trkpt lat="38.071352" lon="127.424613"><ele>509.6</ele></trkpt>
      <trkpt lat="38.071752" lon="127.425534"><ele>536.2</ele></trkpt>
      <trkpt lat="38.071776" lon="127.425670"><ele>536.8</ele></trkpt>
      <trkpt lat="38.071731" lon="127.425790"><ele>536.4</ele></trkpt>
      <trkpt lat="38.071723" lon="127.426083"><ele>535.2</ele></trkpt>
      <trkpt lat="38.071885" lon="127.426384"><ele>542.6</ele></trkpt>
      <trkpt lat="38.071856" lon="127.426651"><ele>545.6</ele></trkpt>
      <trkpt lat="38.072058" lon="127.427233"><ele>554.9</ele></trkpt>
      <trkpt lat="38.072181" lon="127.428006"><ele>566.2</ele></trkpt>
      <trkpt lat="38.072544" lon="127.428336"><ele>579.1</ele></trkpt>
      <trkpt lat="38.072646" lon="127.428580"><ele>587.0</ele></trkpt>
      <trkpt lat="38.072939" lon="127.428784"><ele>600.4</ele></trkpt>
      <trkpt lat="38.073034" lon="127.429079"><ele>603.6</ele></trkpt>
      <trkpt lat="38.072487" lon="127.430946"><ele>632.3</ele></trkpt>
      <trkpt lat="38.072549" lon="127.431077"><ele>634.4</ele></trkpt>
      <trkpt lat="38.072470" lon="127.431202"><ele>636.7</ele></trkpt>
      <trkpt lat="38.072464" lon="127.431747"><ele>655.4</ele></trkpt>
      <trkpt lat="38.072359" lon="127.431989"><ele>663.5</ele></trkpt>
      <trkpt lat="38.072238" lon="127.432091"><ele>664.4</ele></trkpt>
      <trkpt lat="38.072184" lon="127.432263"><ele>668.6</ele></trkpt>
      <trkpt lat="38.072299" lon="127.432673"><ele>680.7</ele></trkpt>
      <trkpt lat="38.072228" lon="127.432933"><ele>686.4</ele></trkpt>
      <trkpt lat="38.072256" lon="127.433089"><ele>690.3</ele></trkpt>
      <trkpt lat="38.072445" lon="127.433288"><ele>699.8</ele></trkpt>
      <trkpt lat="38.072782" lon="127.433441"><ele>713.5</ele></trkpt>
      <trkpt lat="38.072996" lon="127.433464"><ele>717.0</ele></trkpt>
      <trkpt lat="38.073570" lon="127.433900"><ele>723.9</ele></trkpt>
      <trkpt lat="38.074048" lon="127.433671"><ele>733.5</ele></trkpt>
      <trkpt lat="38.074384" lon="127.434135"><ele>744.1</ele></trkpt>
      <trkpt lat="38.074548" lon="127.434502"><ele>742.9</ele></trkpt>
      <trkpt lat="38.074622" lon="127.434518"><ele>743.4</ele></trkpt>
      <trkpt lat="38.074889" lon="127.434936"><ele>754.8</ele></trkpt>
      <trkpt lat="38.075024" lon="127.435299"><ele>760.0</ele></trkpt>
      <trkpt lat="38.075403" lon="127.435535"><ele>763.5</ele></trkpt>
      <trkpt lat="38.075469" lon="127.435741"><ele>768.2</ele></trkpt>
      <trkpt lat="38.075733" lon="127.436114"><ele>773.6</ele></trkpt>
      <trkpt lat="38.075948" lon="127.436136"><ele>770.8</ele></trkpt>
      <trkpt lat="38.076054" lon="127.436251"><ele>766.8</ele></trkpt>
      <trkpt lat="38.076080" lon="127.436396"><ele>764.6</ele></trkpt>
      <trkpt lat="38.076052" lon="127.436626"><ele>762.4</ele></trkpt>
      <trkpt lat="38.075950" lon="127.436914"><ele>761.4</ele></trkpt>
      <trkpt lat="38.076003" lon="127.437244"><ele>760.6</ele></trkpt>
      <trkpt lat="38.075972" lon="127.437636"><ele>763.7</ele></trkpt>
      <trkpt lat="38.075798" lon="127.438080"><ele>769.1</ele></trkpt>
      <trkpt lat="38.075697" lon="127.438775"><ele>788.6</ele></trkpt>
      <trkpt lat="38.075683" lon="127.439601"><ele>796.8</ele></trkpt>
      <trkpt lat="38.075365" lon="127.440562"><ele>816.6</ele></trkpt>
      <trkpt lat="38.075588" lon="127.441833"><ele>831.8</ele></trkpt>
      <trkpt lat="38.075379" lon="127.442331"><ele>843.2</ele></trkpt>
      <trkpt lat="38.075410" lon="127.442712"><ele>854.0</ele></trkpt>
      <trkpt lat="38.075259" lon="127.443086"><ele>861.9</ele></trkpt>
      <trkpt lat="38.074980" lon="127.443326"><ele>873.2</ele></trkpt>
      <trkpt lat="38.074699" lon="127.443737"><ele>893.5</ele></trkpt>
      <trkpt lat="38.074690" lon="127.444159"><ele>894.1</ele></trkpt>
      <trkpt lat="38.075048" lon="127.444889"><ele>888.6</ele></trkpt>
      <trkpt lat="38.075164" lon="127.445006"><ele>885.7</ele></trkpt>
      <trkpt lat="38.075223" lon="127.445150"><ele>882.2</ele></trkpt>
      <trkpt lat="38.075477" lon="127.445322"><ele>876.7</ele></trkpt>
      <trkpt lat="38.075684" lon="127.445543"><ele>875.9</ele></trkpt>
      <trkpt lat="38.076485" lon="127.445522"><ele>859.1</ele></trkpt>
      <trkpt lat="38.076754" lon="127.445576"><ele>860.4</ele></trkpt>
      <trkpt lat="38.076890" lon="127.445764"><ele>860.0</ele></trkpt>
      <trkpt lat="38.077046" lon="127.445871"><ele>857.8</ele></trkpt>
      <trkpt lat="38.077173" lon="127.446093"><ele>850.8</ele></trkpt>
      <trkpt lat="38.077554" lon="127.446213"><ele>844.2</ele></trkpt>
      <trkpt lat="38.077764" lon="127.446363"><ele>841.1</ele></trkpt>
      <trkpt lat="38.077808" lon="127.446446"><ele>840.1</ele></trkpt>
      <trkpt lat="38.077936" lon="127.446468"><ele>840.6</ele></trkpt>
      <trkpt lat="38.078126" lon="127.446798"><ele>836.5</ele></trkpt>
      <trkpt lat="38.078349" lon="127.446872"><ele>833.0</ele></trkpt>
      <trkpt lat="38.078687" lon="127.447090"><ele>826.0</ele></trkpt>
      <trkpt lat="38.079239" lon="127.447085"><ele>827.2</ele></trkpt>
      <trkpt lat="38.079390" lon="127.447164"><ele>831.6</ele></trkpt>
      <trkpt lat="38.079577" lon="127.447109"><ele>836.2</ele></trkpt>
      <trkpt lat="38.079861" lon="127.447140"><ele>844.3</ele></trkpt>
      <trkpt lat="38.079905" lon="127.447204"><ele>847.4</ele></trkpt>
      <trkpt lat="38.079785" lon="127.447436"><ele>844.2</ele></trkpt>
      <trkpt lat="38.079700" lon="127.447811"><ele>830.4</ele></trkpt>
      <trkpt lat="38.079708" lon="127.448466"><ele>805.7</ele></trkpt>
      <trkpt lat="38.079605" lon="127.448868"><ele>787.7</ele></trkpt>
      <trkpt lat="38.079590" lon="127.449571"><ele>767.9</ele></trkpt>
      <trkpt lat="38.079700" lon="127.450086"><ele>759.5</ele></trkpt>
      <trkpt lat="38.079888" lon="127.450408"><ele>753.6</ele></trkpt>
      <trkpt lat="38.080010" lon="127.450754"><ele>748.6</ele></trkpt>
      <trkpt lat="38.079958" lon="127.451202"><ele>747.2</ele></trkpt>
      <trkpt lat="38.080071" lon="127.451201"><ele>746.6</ele></trkpt>
      <trkpt lat="38.080134" lon="127.451305"><ele>747.6</ele></trkpt>
      <trkpt lat="38.080314" lon="127.451201"><ele>742.5</ele></trkpt>
      <trkpt lat="38.080462" lon="127.451331"><ele>740.5</ele></trkpt>
      <trkpt lat="38.080580" lon="127.451247"><ele>735.1</ele></trkpt>
      <trkpt lat="38.080623" lon="127.451070"><ele>730.4</ele></trkpt>
      <trkpt lat="38.080591" lon="127.450999"><ele>730.7</ele></trkpt>
      <trkpt lat="38.080672" lon="127.450935"><ele>727.6</ele></trkpt>
      <trkpt lat="38.080719" lon="127.450977"><ele>726.5</ele></trkpt>
      <trkpt lat="38.080918" lon="127.450905"><ele>719.7</ele></trkpt>
      <trkpt lat="38.080977" lon="127.450960"><ele>718.0</ele></trkpt>
      <trkpt lat="38.081236" lon="127.450860"><ele>710.4</ele></trkpt>
      <trkpt lat="38.081447" lon="127.450862"><ele>705.5</ele></trkpt>
      <trkpt lat="38.081546" lon="127.450716"><ele>702.9</ele></trkpt>
      <trkpt lat="38.081681" lon="127.450760"><ele>698.8</ele></trkpt>
      <trkpt lat="38.081767" lon="127.450668"><ele>696.1</ele></trkpt>
      <trkpt lat="38.081969" lon="127.450721"><ele>689.5</ele></trkpt>
      <trkpt lat="38.082054" lon="127.450668"><ele>687.8</ele></trkpt>
      <trkpt lat="38.082517" lon="127.450683"><ele>682.0</ele></trkpt>
      <trkpt lat="38.082633" lon="127.450500"><ele>678.5</ele></trkpt>
      <trkpt lat="38.082827" lon="127.450379"><ele>673.2</ele></trkpt>
      <trkpt lat="38.083357" lon="127.450321"><ele>656.1</ele></trkpt>
      <trkpt lat="38.083463" lon="127.450430"><ele>654.4</ele></trkpt>
      <trkpt lat="38.083548" lon="127.450393"><ele>650.4</ele></trkpt>
      <trkpt lat="38.083945" lon="127.450413"><ele>643.5</ele></trkpt>
      <trkpt lat="38.084023" lon="127.450330"><ele>640.9</ele></trkpt>
      <trkpt lat="38.084224" lon="127.450279"><ele>636.2</ele></trkpt>
      <trkpt lat="38.084388" lon="127.450348"><ele>634.9</ele></trkpt>
    </trkseg>
  </trk>
</gpx>
