<?xml version="1.0" encoding="UTF-8"?>
<gpx version="1.1" creator="kr-100-mountains route-harvester"
     xmlns="http://www.topografix.com/GPX/1/1"
     xmlns:k100="https://github.com/jay-jang/kr-100-mountains/ns/1"
     xmlns:xsi="http://www.w3.org/2001/XMLSchema-instance"
     xsi:schemaLocation="http://www.topografix.com/GPX/1/1 http://www.topografix.com/GPX/1/1/gpx.xsd">
  <metadata>
    <name>검단산 · 산곡초등학교-정상 코스 (대안 1) (OSM 계산 경로)</name>
    <desc>실제 GPS 기록이 아닙니다. OpenStreetMap에 등록된 등산로 선형 위에서 계산한 경로이며, 현장 통제·훼손·출입 제한·계절 통제를 반영하지 않을 수 있습니다. 산행 전 공식 안내를 확인하세요.</desc>
    <time>2026-08-04T05:14:50.570Z</time>
    <link href="https://www.openstreetmap.org/copyright"><text>© OpenStreetMap contributors (ODbL 1.0)</text></link>
    <link href="https://registry.opendata.aws/terrain-tiles/"><text>Elevation: SRTM 1 arc-second (NASA/USGS) via AWS Terrain Tiles</text></link>
    <extensions>
      <k100:provenance>osm-routed</k100:provenance>
      <k100:not_a_recorded_track>true</k100:not_a_recorded_track>
      <k100:mountain_id>geomdansan</k100:mountain_id>
      <k100:mountain_name>검단산</k100:mountain_name>
      <k100:route_id>geomdansan-d04b819e</k100:route_id>
      <k100:route_index>2</k100:route_index>
      <k100:route_name>산곡초등학교-정상 코스</k100:route_name>
      <k100:variant>1</k100:variant>
      <k100:source>OpenStreetMap via Overpass API</k100:source>
      <k100:license>ODbL-1.0</k100:license>
      <k100:attribution>© OpenStreetMap contributors</k100:attribution>
      <k100:elevation_source>SRTM 1 arc-second (NASA/USGS) — AWS Terrain Tiles 배포본. 지형 DEM 추정 고도이며 실측 아님</k100:elevation_source>
      <k100:algorithm>dijkstra-grid-v1</k100:algorithm>
      <k100:osm_snapshot>2026-08-04</k100:osm_snapshot>
      <k100:snap_trailhead_m>30</k100:snap_trailhead_m>
      <k100:snap_summit_m>89</k100:snap_summit_m>
      <k100:validation_score>100</k100:validation_score>
      <k100:validation_status>accepted</k100:validation_status>
    </extensions>
  </metadata>
  <trk>
    <name>검단산 · 산곡초등학교-정상 코스 (대안 1) (OSM 계산 경로)</name>
    <desc>실제 GPS 기록이 아닙니다. OpenStreetMap에 등록된 등산로 선형 위에서 계산한 경로이며, 현장 통제·훼손·출입 제한·계절 통제를 반영하지 않을 수 있습니다. 산행 전 공식 안내를 확인하세요.</desc>
    <trkseg>
      <trkpt lat="37.504603" lon="127.231490"><ele>85.2</ele></trkpt>
      <trkpt lat="37.504693" lon="127.230780"><ele>79.9</ele></trkpt>
      <trkpt lat="37.503684" lon="127.230814"><ele>80.3</ele></trkpt>
      <trkpt lat="37.503608" lon="127.230719"><ele>79.8</ele></trkpt>
      <trkpt lat="37.502995" lon="127.230899"><ele>76.4</ele></trkpt>
      <trkpt lat="37.502922" lon="127.231211"><ele>78.0</ele></trkpt>
      <trkpt lat="37.502407" lon="127.231579"><ele>79.2</ele></trkpt>
      <trkpt lat="37.502688" lon="127.232170"><ele>83.9</ele></trkpt>
      <trkpt lat="37.502926" lon="127.232917"><ele>89.7</ele></trkpt>
      <trkpt lat="37.503203" lon="127.233400"><ele>93.1</ele></trkpt>
      <trkpt lat="37.503263" lon="127.233731"><ele>95.8</ele></trkpt>
      <trkpt lat="37.503216" lon="127.234169"><ele>100.9</ele></trkpt>
      <trkpt lat="37.503310" lon="127.234451"><ele>101.9</ele></trkpt>
      <trkpt lat="37.503402" lon="127.234590"><ele>103.2</ele></trkpt>
      <trkpt lat="37.503470" lon="127.235112"><ele>105.6</ele></trkpt>
      <trkpt lat="37.503620" lon="127.235239"><ele>106.0</ele></trkpt>
      <trkpt lat="37.503662" lon="127.235374"><ele>107.2</ele></trkpt>
      <trkpt lat="37.503468" lon="127.236300"><ele>113.8</ele></trkpt>
      <trkpt lat="37.503658" lon="127.236879"><ele>121.1</ele></trkpt>
      <trkpt lat="37.503736" lon="127.237350"><ele>128.7</ele></trkpt>
      <trkpt lat="37.503686" lon="127.238292"><ele>134.5</ele></trkpt>
      <trkpt lat="37.503554" lon="127.239032"><ele>148.0</ele></trkpt>
      <trkpt lat="37.503695" lon="127.239633"><ele>150.0</ele></trkpt>
      <trkpt lat="37.503681" lon="127.240202"><ele>156.0</ele></trkpt>
      <trkpt lat="37.503765" lon="127.240420"><ele>159.2</ele></trkpt>
      <trkpt lat="37.503933" lon="127.240540"><ele>161.2</ele></trkpt>
      <trkpt lat="37.504162" lon="127.240987"><ele>171.2</ele></trkpt>
      <trkpt lat="37.504165" lon="127.242067"><ele>188.2</ele></trkpt>
      <trkpt lat="37.504364" lon="127.242512"><ele>201.1</ele></trkpt>
      <trkpt lat="37.504392" lon="127.243153"><ele>206.3</ele></trkpt>
      <trkpt lat="37.504655" lon="127.243745"><ele>215.8</ele></trkpt>
      <trkpt lat="37.504756" lon="127.243859"><ele>220.2</ele></trkpt>
      <trkpt lat="37.504803" lon="127.244029"><ele>225.2</ele></trkpt>
      <trkpt lat="37.504798" lon="127.244842"><ele>238.0</ele></trkpt>
      <trkpt lat="37.504889" lon="127.245354"><ele>251.9</ele></trkpt>
      <trkpt lat="37.505282" lon="127.246251"><ele>264.2</ele></trkpt>
      <trkpt lat="37.505348" lon="127.246324"><ele>266.3</ele></trkpt>
      <trkpt lat="37.505560" lon="127.246476"><ele>270.9</ele></trkpt>
      <trkpt lat="37.505924" lon="127.246571"><ele>287.7</ele></trkpt>
      <trkpt lat="37.506580" lon="127.247345"><ele>311.3</ele></trkpt>
      <trkpt lat="37.506782" lon="127.247512"><ele>318.9</ele></trkpt>
      <trkpt lat="37.507023" lon="127.247646"><ele>328.9</ele></trkpt>
      <trkpt lat="37.507441" lon="127.247722"><ele>337.5</ele></trkpt>
      <trkpt lat="37.507623" lon="127.248172"><ele>346.5</ele></trkpt>
      <trkpt lat="37.507855" lon="127.248467"><ele>358.6</ele></trkpt>
      <trkpt lat="37.508017" lon="127.248554"><ele>363.5</ele></trkpt>
      <trkpt lat="37.508817" lon="127.249258"><ele>408.3</ele></trkpt>
      <trkpt lat="37.508913" lon="127.249490"><ele>413.1</ele></trkpt>
      <trkpt lat="37.509688" lon="127.250258"><ele>466.9</ele></trkpt>
      <trkpt lat="37.509905" lon="127.250638"><ele>468.6</ele></trkpt>
      <trkpt lat="37.510149" lon="127.250528"><ele>472.2</ele></trkpt>
      <trkpt lat="37.510419" lon="127.250257"><ele>477.2</ele></trkpt>
      <trkpt lat="37.510401" lon="127.250166"><ele>477.3</ele></trkpt>
      <trkpt lat="37.510511" lon="127.250091"><ele>480.0</ele></trkpt>
      <trkpt lat="37.510766" lon="127.249401"><ele>481.5</ele></trkpt>
      <trkpt lat="37.510836" lon="127.249063"><ele>483.5</ele></trkpt>
      <trkpt lat="37.510838" lon="127.248622"><ele>489.9</ele></trkpt>
      <trkpt lat="37.510978" lon="127.248140"><ele>504.9</ele></trkpt>
      <trkpt lat="37.510901" lon="127.247981"><ele>506.1</ele></trkpt>
      <trkpt lat="37.511113" lon="127.247678"><ele>519.5</ele></trkpt>
      <trkpt lat="37.511167" lon="127.247628"><ele>522.0</ele></trkpt>
      <trkpt lat="37.511249" lon="127.247641"><ele>524.5</ele></trkpt>
      <trkpt lat="37.511349" lon="127.247548"><ele>528.5</ele></trkpt>
      <trkpt lat="37.511629" lon="127.247587"><ele>532.2</ele></trkpt>
      <trkpt lat="37.511768" lon="127.247672"><ele>533.3</ele></trkpt>
      <trkpt lat="37.512028" lon="127.247666"><ele>534.2</ele></trkpt>
      <trkpt lat="37.512340" lon="127.247528"><ele>539.6</ele></trkpt>
      <trkpt lat="37.512490" lon="127.247367"><ele>543.2</ele></trkpt>
      <trkpt lat="37.512597" lon="127.247420"><ele>544.4</ele></trkpt>
      <trkpt lat="37.512730" lon="127.247387"><ele>546.4</ele></trkpt>
      <trkpt lat="37.512868" lon="127.247206"><ele>548.9</ele></trkpt>
      <trkpt lat="37.513038" lon="127.247080"><ele>546.6</ele></trkpt>
      <trkpt lat="37.513135" lon="127.247110"><ele>546.4</ele></trkpt>
      <trkpt lat="37.513653" lon="127.246992"><ele>553.5</ele></trkpt>
      <trkpt lat="37.513881" lon="127.246848"><ele>560.7</ele></trkpt>
      <trkpt lat="37.514141" lon="127.246978"><ele>570.1</ele></trkpt>
      <trkpt lat="37.514198" lon="127.247082"><ele>571.6</ele></trkpt>
      <trkpt lat="37.514487" lon="127.247205"><ele>578.5</ele></trkpt>
      <trkpt lat="37.514651" lon="127.247372"><ele>579.7</ele></trkpt>
      <trkpt lat="37.514795" lon="127.247398"><ele>580.9</ele></trkpt>
      <trkpt lat="37.515066" lon="127.247597"><ele>584.3</ele></trkpt>
      <trkpt lat="37.515699" lon="127.247908"><ele>603.9</ele></trkpt>
      <trkpt lat="37.516086" lon="127.248038"><ele>611.3</ele></trkpt>
      <trkpt lat="37.516319" lon="127.248271"><ele>614.0</ele></trkpt>
      <trkpt lat="37.516766" lon="127.248559"><ele>621.7</ele></trkpt>
      <trkpt lat="37.516911" lon="127.248761"><ele>627.8</ele></trkpt>
      <trkpt lat="37.516947" lon="127.248527"><ele>623.3</ele></trkpt>
      <trkpt lat="37.517147" lon="127.248567"><ele>623.0</ele></trkpt>
      <trkpt lat="37.517469" lon="127.248109"><ele>597.7</ele></trkpt>
      <trkpt lat="37.517547" lon="127.247854"><ele>583.4</ele></trkpt>
      <trkpt lat="37.517564" lon="127.247489"><ele>563.6</ele></trkpt>
      <trkpt lat="37.517707" lon="127.247176"><ele>546.8</ele></trkpt>
      <trkpt lat="37.517882" lon="127.246903"><ele>535.1</ele></trkpt>
      <trkpt lat="37.518102" lon="127.246728"><ele>531.5</ele></trkpt>
      <trkpt lat="37.518217" lon="127.246427"><ele>519.4</ele></trkpt>
      <trkpt lat="37.518595" lon="127.246007"><ele>506.8</ele></trkpt>
      <trkpt lat="37.518765" lon="127.245546"><ele>489.5</ele></trkpt>
      <trkpt lat="37.519031" lon="127.245380"><ele>489.0</ele></trkpt>
      <trkpt lat="37.519178" lon="127.245219"><ele>486.3</ele></trkpt>
      <trkpt lat="37.519209" lon="127.245089"><ele>482.4</ele></trkpt>
      <trkpt lat="37.519487" lon="127.244720"><ele>468.8</ele></trkpt>
      <trkpt lat="37.519450" lon="127.244518"><ele>463.8</ele></trkpt>
      <trkpt lat="37.519829" lon="127.243642"><ele>441.4</ele></trkpt>
      <trkpt lat="37.519923" lon="127.243489"><ele>441.4</ele></trkpt>
      <trkpt lat="37.520007" lon="127.243474"><ele>441.4</ele></trkpt>
      <trkpt lat="37.520197" lon="127.243819"><ele>436.6</ele></trkpt>
      <trkpt lat="37.520409" lon="127.243875"><ele>431.8</ele></trkpt>
      <trkpt lat="37.520615" lon="127.244295"><ele>432.8</ele></trkpt>
      <trkpt lat="37.520868" lon="127.244395"><ele>425.9</ele></trkpt>
      <trkpt lat="37.521025" lon="127.244382"><ele>419.4</ele></trkpt>
      <trkpt lat="37.521099" lon="127.244524"><ele>423.6</ele></trkpt>
      <trkpt lat="37.521236" lon="127.244548"><ele>423.5</ele></trkpt>
      <trkpt lat="37.521410" lon="127.244307"><ele>411.1</ele></trkpt>
      <trkpt lat="37.521682" lon="127.244452"><ele>411.1</ele></trkpt>
      <trkpt lat="37.521890" lon="127.244434"><ele>406.7</ele></trkpt>
      <trkpt lat="37.522275" lon="127.244102"><ele>400.3</ele></trkpt>
      <trkpt lat="37.522612" lon="127.244328"><ele>405.9</ele></trkpt>
      <trkpt lat="37.522872" lon="127.244722"><ele>411.0</ele></trkpt>
      <trkpt lat="37.522918" lon="127.244924"><ele>417.1</ele></trkpt>
      <trkpt lat="37.523065" lon="127.245090"><ele>419.7</ele></trkpt>
      <trkpt lat="37.523010" lon="127.245315"><ele>430.2</ele></trkpt>
      <trkpt lat="37.522797" lon="127.245752"><ele>450.2</ele></trkpt>
      <trkpt lat="37.522803" lon="127.246227"><ele>471.6</ele></trkpt>
      <trkpt lat="37.522880" lon="127.246624"><ele>491.1</ele></trkpt>
      <trkpt lat="37.523499" lon="127.247236"><ele>538.2</ele></trkpt>
      <trkpt lat="37.523542" lon="127.247722"><ele>553.6</ele></trkpt>
      <trkpt lat="37.523300" lon="127.247755"><ele>552.7</ele></trkpt>
      <trkpt lat="37.523068" lon="127.247908"><ele>558.1</ele></trkpt>
      <trkpt lat="37.522823" lon="127.247992"><ele>561.2</ele></trkpt>
      <trkpt lat="37.522160" lon="127.248082"><ele>568.2</ele></trkpt>
      <trkpt lat="37.521839" lon="127.248295"><ele>582.5</ele></trkpt>
      <trkpt lat="37.521539" lon="127.248376"><ele>596.2</ele></trkpt>
      <trkpt lat="37.520871" lon="127.248093"><ele>619.2</ele></trkpt>
    </trkseg>
  </trk>
</gpx>
