<?xml version="1.0" encoding="UTF-8"?>
<gpx version="1.1" creator="kr-100-mountains route-harvester"
     xmlns="http://www.topografix.com/GPX/1/1"
     xmlns:k100="https://github.com/jay-jang/kr-100-mountains/ns/1"
     xmlns:xsi="http://www.w3.org/2001/XMLSchema-instance"
     xsi:schemaLocation="http://www.topografix.com/GPX/1/1 http://www.topografix.com/GPX/1/1/gpx.xsd">
  <metadata>
    <name>강천산 · 산성산 연대봉 연계 코스 (대안 2) (OSM 계산 경로)</name>
    <desc>실제 GPS 기록이 아닙니다. OpenStreetMap에 등록된 등산로 선형 위에서 계산한 경로이며, 현장 통제·훼손·출입 제한·계절 통제를 반영하지 않을 수 있습니다. 산행 전 공식 안내를 확인하세요.</desc>
    <time>2026-08-04T05:37:43.207Z</time>
    <link href="https://www.openstreetmap.org/copyright"><text>© OpenStreetMap contributors (ODbL 1.0)</text></link>
    <link href="https://registry.opendata.aws/terrain-tiles/"><text>Elevation: SRTM 1 arc-second (NASA/USGS) via AWS Terrain Tiles</text></link>
    <extensions>
      <k100:provenance>osm-routed</k100:provenance>
      <k100:not_a_recorded_track>true</k100:not_a_recorded_track>
      <k100:mountain_id>gangcheonsan</k100:mountain_id>
      <k100:mountain_name>강천산</k100:mountain_name>
      <k100:route_id>gangcheonsan-bf9868df</k100:route_id>
      <k100:route_index>2</k100:route_index>
      <k100:route_name>산성산 연대봉 연계 코스</k100:route_name>
      <k100:variant>2</k100:variant>
      <k100:source>OpenStreetMap via Overpass API</k100:source>
      <k100:license>ODbL-1.0</k100:license>
      <k100:attribution>© OpenStreetMap contributors</k100:attribution>
      <k100:elevation_source>SRTM 1 arc-second (NASA/USGS) — AWS Terrain Tiles 배포본. 지형 DEM 추정 고도이며 실측 아님</k100:elevation_source>
      <k100:algorithm>dijkstra-grid-v1</k100:algorithm>
      <k100:osm_snapshot>2026-08-04</k100:osm_snapshot>
      <k100:snap_trailhead_m>11</k100:snap_trailhead_m>
      <k100:snap_summit_m>48</k100:snap_summit_m>
      <k100:validation_score>75</k100:validation_score>
      <k100:validation_status>review</k100:validation_status>
    </extensions>
  </metadata>
  <trk>
    <name>강천산 · 산성산 연대봉 연계 코스 (대안 2) (OSM 계산 경로)</name>
    <desc>실제 GPS 기록이 아닙니다. OpenStreetMap에 등록된 등산로 선형 위에서 계산한 경로이며, 현장 통제·훼손·출입 제한·계절 통제를 반영하지 않을 수 있습니다. 산행 전 공식 안내를 확인하세요.</desc>
    <trkseg>
      <trkpt lat="35.404910" lon="127.024795"><ele>323.9</ele></trkpt>
      <trkpt lat="35.404731" lon="127.024999"><ele>327.3</ele></trkpt>
      <trkpt lat="35.404600" lon="127.025042"><ele>323.5</ele></trkpt>
      <trkpt lat="35.404351" lon="127.024967"><ele>309.8</ele></trkpt>
      <trkpt lat="35.404189" lon="127.025036"><ele>309.3</ele></trkpt>
      <trkpt lat="35.403861" lon="127.025337"><ele>312.8</ele></trkpt>
      <trkpt lat="35.403607" lon="127.025374"><ele>302.4</ele></trkpt>
      <trkpt lat="35.403441" lon="127.025471"><ele>303.4</ele></trkpt>
      <trkpt lat="35.403271" lon="127.025777"><ele>316.1</ele></trkpt>
      <trkpt lat="35.403135" lon="127.025787"><ele>316.7</ele></trkpt>
      <trkpt lat="35.402925" lon="127.025696"><ele>314.9</ele></trkpt>
      <trkpt lat="35.402509" lon="127.025643"><ele>319.4</ele></trkpt>
      <trkpt lat="35.402399" lon="127.025452"><ele>321.2</ele></trkpt>
      <trkpt lat="35.402481" lon="127.025138"><ele>314.0</ele></trkpt>
      <trkpt lat="35.402768" lon="127.024597"><ele>290.7</ele></trkpt>
      <trkpt lat="35.402793" lon="127.024510"><ele>288.7</ele></trkpt>
      <trkpt lat="35.402685" lon="127.024083"><ele>292.4</ele></trkpt>
      <trkpt lat="35.402758" lon="127.023840"><ele>284.0</ele></trkpt>
      <trkpt lat="35.402949" lon="127.023516"><ele>269.7</ele></trkpt>
      <trkpt lat="35.402704" lon="127.023410"><ele>278.8</ele></trkpt>
      <trkpt lat="35.402428" lon="127.023203"><ele>289.0</ele></trkpt>
      <trkpt lat="35.402413" lon="127.022917"><ele>285.0</ele></trkpt>
      <trkpt lat="35.402481" lon="127.022729"><ele>278.3</ele></trkpt>
      <trkpt lat="35.402616" lon="127.022821"><ele>272.8</ele></trkpt>
      <trkpt lat="35.402614" lon="127.022944"><ele>275.3</ele></trkpt>
      <trkpt lat="35.402697" lon="127.023116"><ele>275.0</ele></trkpt>
      <trkpt lat="35.403128" lon="127.023248"><ele>257.4</ele></trkpt>
      <trkpt lat="35.403172" lon="127.023681"><ele>260.4</ele></trkpt>
      <trkpt lat="35.403114" lon="127.024288"><ele>270.5</ele></trkpt>
      <trkpt lat="35.403209" lon="127.024532"><ele>270.2</ele></trkpt>
      <trkpt lat="35.403328" lon="127.024576"><ele>268.0</ele></trkpt>
      <trkpt lat="35.403441" lon="127.024505"><ele>267.0</ele></trkpt>
      <trkpt lat="35.403825" lon="127.024045"><ele>257.0</ele></trkpt>
      <trkpt lat="35.404036" lon="127.023894"><ele>259.4</ele></trkpt>
      <trkpt lat="35.404110" lon="127.023749"><ele>258.5</ele></trkpt>
      <trkpt lat="35.404174" lon="127.023276"><ele>247.4</ele></trkpt>
      <trkpt lat="35.404482" lon="127.022826"><ele>239.4</ele></trkpt>
      <trkpt lat="35.404933" lon="127.022574"><ele>243.1</ele></trkpt>
      <trkpt lat="35.405094" lon="127.022413"><ele>241.6</ele></trkpt>
      <trkpt lat="35.405317" lon="127.022016"><ele>232.8</ele></trkpt>
      <trkpt lat="35.405619" lon="127.021775"><ele>234.8</ele></trkpt>
      <trkpt lat="35.405719" lon="127.021297"><ele>220.5</ele></trkpt>
      <trkpt lat="35.405991" lon="127.020754"><ele>216.2</ele></trkpt>
      <trkpt lat="35.405935" lon="127.020538"><ele>206.8</ele></trkpt>
      <trkpt lat="35.405706" lon="127.020605"><ele>198.9</ele></trkpt>
      <trkpt lat="35.405566" lon="127.020847"><ele>199.0</ele></trkpt>
      <trkpt lat="35.405391" lon="127.020943"><ele>196.4</ele></trkpt>
      <trkpt lat="35.405251" lon="127.021131"><ele>197.0</ele></trkpt>
      <trkpt lat="35.404867" lon="127.021421"><ele>194.8</ele></trkpt>
      <trkpt lat="35.404425" lon="127.021877"><ele>201.3</ele></trkpt>
      <trkpt lat="35.404241" lon="127.021962"><ele>202.7</ele></trkpt>
      <trkpt lat="35.404163" lon="127.021919"><ele>201.9</ele></trkpt>
      <trkpt lat="35.404163" lon="127.021630"><ele>200.2</ele></trkpt>
      <trkpt lat="35.404215" lon="127.021421"><ele>198.2</ele></trkpt>
      <trkpt lat="35.404180" lon="127.021227"><ele>201.0</ele></trkpt>
      <trkpt lat="35.404198" lon="127.020954"><ele>200.0</ele></trkpt>
      <trkpt lat="35.404307" lon="127.020128"><ele>183.1</ele></trkpt>
      <trkpt lat="35.404224" lon="127.019790"><ele>185.8</ele></trkpt>
      <trkpt lat="35.404093" lon="127.019613"><ele>192.2</ele></trkpt>
      <trkpt lat="35.404097" lon="127.019479"><ele>193.2</ele></trkpt>
      <trkpt lat="35.404390" lon="127.019082"><ele>187.8</ele></trkpt>
      <trkpt lat="35.404504" lon="127.018851"><ele>183.0</ele></trkpt>
      <trkpt lat="35.404574" lon="127.018454"><ele>175.1</ele></trkpt>
      <trkpt lat="35.404482" lon="127.018282"><ele>176.5</ele></trkpt>
      <trkpt lat="35.404202" lon="127.018218"><ele>189.5</ele></trkpt>
      <trkpt lat="35.404084" lon="127.018111"><ele>192.3</ele></trkpt>
      <trkpt lat="35.403868" lon="127.017724"><ele>196.6</ele></trkpt>
      <trkpt lat="35.403925" lon="127.017403"><ele>185.0</ele></trkpt>
      <trkpt lat="35.403579" lon="127.016958"><ele>190.3</ele></trkpt>
      <trkpt lat="35.403562" lon="127.016754"><ele>189.6</ele></trkpt>
      <trkpt lat="35.403824" lon="127.015633"><ele>167.6</ele></trkpt>
      <trkpt lat="35.403802" lon="127.015574"><ele>167.4</ele></trkpt>
      <trkpt lat="35.403330" lon="127.015547"><ele>179.8</ele></trkpt>
      <trkpt lat="35.403216" lon="127.015493"><ele>180.8</ele></trkpt>
      <trkpt lat="35.402950" lon="127.014801"><ele>161.7</ele></trkpt>
      <trkpt lat="35.402744" lon="127.014833"><ele>161.3</ele></trkpt>
      <trkpt lat="35.402438" lon="127.015011"><ele>159.6</ele></trkpt>
      <trkpt lat="35.402259" lon="127.014968"><ele>156.9</ele></trkpt>
      <trkpt lat="35.402049" lon="127.014351"><ele>154.7</ele></trkpt>
      <trkpt lat="35.402145" lon="127.013841"><ele>146.7</ele></trkpt>
      <trkpt lat="35.402115" lon="127.013680"><ele>146.8</ele></trkpt>
      <trkpt lat="35.402036" lon="127.013552"><ele>148.3</ele></trkpt>
      <trkpt lat="35.401857" lon="127.013375"><ele>149.6</ele></trkpt>
      <trkpt lat="35.401656" lon="127.013267"><ele>150.3</ele></trkpt>
      <trkpt lat="35.401411" lon="127.013203"><ele>153.0</ele></trkpt>
      <trkpt lat="35.401066" lon="127.013203"><ele>158.6</ele></trkpt>
      <trkpt lat="35.400852" lon="127.012672"><ele>149.3</ele></trkpt>
      <trkpt lat="35.400187" lon="127.012490"><ele>162.7</ele></trkpt>
      <trkpt lat="35.400148" lon="127.012350"><ele>161.3</ele></trkpt>
      <trkpt lat="35.400209" lon="127.011905"><ele>151.0</ele></trkpt>
      <trkpt lat="35.400183" lon="127.011744"><ele>150.8</ele></trkpt>
      <trkpt lat="35.400087" lon="127.011578"><ele>154.3</ele></trkpt>
      <trkpt lat="35.399811" lon="127.011261"><ele>157.9</ele></trkpt>
      <trkpt lat="35.399645" lon="127.010956"><ele>151.7</ele></trkpt>
      <trkpt lat="35.399190" lon="127.010575"><ele>144.6</ele></trkpt>
      <trkpt lat="35.398893" lon="127.010462"><ele>149.8</ele></trkpt>
      <trkpt lat="35.398740" lon="127.010038"><ele>138.2</ele></trkpt>
      <trkpt lat="35.398045" lon="127.009990"><ele>148.0</ele></trkpt>
      <trkpt lat="35.397993" lon="127.009915"><ele>146.9</ele></trkpt>
      <trkpt lat="35.397927" lon="127.009588"><ele>138.7</ele></trkpt>
      <trkpt lat="35.397822" lon="127.009486"><ele>138.2</ele></trkpt>
      <trkpt lat="35.397228" lon="127.009347"><ele>139.1</ele></trkpt>
      <trkpt lat="35.396957" lon="127.009368"><ele>142.9</ele></trkpt>
      <trkpt lat="35.396642" lon="127.009153"><ele>138.7</ele></trkpt>
      <trkpt lat="35.396445" lon="127.009261"><ele>142.0</ele></trkpt>
      <trkpt lat="35.396196" lon="127.009572"><ele>150.2</ele></trkpt>
      <trkpt lat="35.395816" lon="127.010350"><ele>154.5</ele></trkpt>
      <trkpt lat="35.395658" lon="127.010934"><ele>166.1</ele></trkpt>
      <trkpt lat="35.395374" lon="127.011074"><ele>164.6</ele></trkpt>
      <trkpt lat="35.395020" lon="127.011063"><ele>162.0</ele></trkpt>
      <trkpt lat="35.394535" lon="127.011326"><ele>166.2</ele></trkpt>
      <trkpt lat="35.393632" lon="127.012070"><ele>170.9</ele></trkpt>
      <trkpt lat="35.393220" lon="127.012200"><ele>167.0</ele></trkpt>
      <trkpt lat="35.393155" lon="127.012272"><ele>167.4</ele></trkpt>
      <trkpt lat="35.393114" lon="127.012381"><ele>168.2</ele></trkpt>
      <trkpt lat="35.393220" lon="127.012525"><ele>172.6</ele></trkpt>
      <trkpt lat="35.393279" lon="127.012706"><ele>177.2</ele></trkpt>
      <trkpt lat="35.393185" lon="127.012922"><ele>177.8</ele></trkpt>
      <trkpt lat="35.393126" lon="127.013442"><ele>188.3</ele></trkpt>
      <trkpt lat="35.392773" lon="127.013254"><ele>178.9</ele></trkpt>
      <trkpt lat="35.392443" lon="127.013268"><ele>173.7</ele></trkpt>
      <trkpt lat="35.392279" lon="127.013478"><ele>172.9</ele></trkpt>
      <trkpt lat="35.392220" lon="127.013673"><ele>173.6</ele></trkpt>
      <trkpt lat="35.392355" lon="127.014402"><ele>182.9</ele></trkpt>
      <trkpt lat="35.392343" lon="127.014616"><ele>186.9</ele></trkpt>
      <trkpt lat="35.392277" lon="127.014643"><ele>185.5</ele></trkpt>
      <trkpt lat="35.391729" lon="127.014557"><ele>171.1</ele></trkpt>
      <trkpt lat="35.391547" lon="127.014597"><ele>170.5</ele></trkpt>
      <trkpt lat="35.391431" lon="127.014683"><ele>170.4</ele></trkpt>
      <trkpt lat="35.391571" lon="127.015225"><ele>173.2</ele></trkpt>
      <trkpt lat="35.391551" lon="127.015437"><ele>174.4</ele></trkpt>
      <trkpt lat="35.391484" lon="127.015539"><ele>173.2</ele></trkpt>
      <trkpt lat="35.391239" lon="127.015699"><ele>166.6</ele></trkpt>
      <trkpt lat="35.390596" lon="127.016053"><ele>143.1</ele></trkpt>
      <trkpt lat="35.390598" lon="127.016207"><ele>144.8</ele></trkpt>
      <trkpt lat="35.390690" lon="127.016453"><ele>149.3</ele></trkpt>
      <trkpt lat="35.390959" lon="127.016901"><ele>147.0</ele></trkpt>
      <trkpt lat="35.391346" lon="127.017317"><ele>142.5</ele></trkpt>
      <trkpt lat="35.391851" lon="127.017534"><ele>139.8</ele></trkpt>
      <trkpt lat="35.391998" lon="127.017679"><ele>138.4</ele></trkpt>
      <trkpt lat="35.392828" lon="127.018626"><ele>136.4</ele></trkpt>
      <trkpt lat="35.392995" lon="127.018854"><ele>137.8</ele></trkpt>
      <trkpt lat="35.393049" lon="127.019028"><ele>139.0</ele></trkpt>
      <trkpt lat="35.392986" lon="127.019157"><ele>139.7</ele></trkpt>
      <trkpt lat="35.392863" lon="127.019227"><ele>141.0</ele></trkpt>
      <trkpt lat="35.392120" lon="127.019216"><ele>147.6</ele></trkpt>
      <trkpt lat="35.391602" lon="127.019146"><ele>149.9</ele></trkpt>
      <trkpt lat="35.391230" lon="127.019208"><ele>149.0</ele></trkpt>
      <trkpt lat="35.391051" lon="127.019353"><ele>151.2</ele></trkpt>
      <trkpt lat="35.390635" lon="127.020062"><ele>159.5</ele></trkpt>
      <trkpt lat="35.390239" lon="127.020568"><ele>160.3</ele></trkpt>
      <trkpt lat="35.390139" lon="127.021297"><ele>180.9</ele></trkpt>
      <trkpt lat="35.390196" lon="127.021716"><ele>190.9</ele></trkpt>
      <trkpt lat="35.390148" lon="127.022821"><ele>203.2</ele></trkpt>
      <trkpt lat="35.389878" lon="127.023030"><ele>202.0</ele></trkpt>
      <trkpt lat="35.389756" lon="127.023072"><ele>202.0</ele></trkpt>
      <trkpt lat="35.389385" lon="127.022915"><ele>201.0</ele></trkpt>
      <trkpt lat="35.389306" lon="127.022635"><ele>198.2</ele></trkpt>
      <trkpt lat="35.389339" lon="127.021474"><ele>174.2</ele></trkpt>
      <trkpt lat="35.389264" lon="127.020895"><ele>165.8</ele></trkpt>
      <trkpt lat="35.389155" lon="127.020611"><ele>166.4</ele></trkpt>
      <trkpt lat="35.389172" lon="127.019929"><ele>155.5</ele></trkpt>
      <trkpt lat="35.388674" lon="127.018819"><ele>164.6</ele></trkpt>
      <trkpt lat="35.388407" lon="127.017875"><ele>173.3</ele></trkpt>
      <trkpt lat="35.388280" lon="127.017719"><ele>178.4</ele></trkpt>
      <trkpt lat="35.388228" lon="127.017440"><ele>175.2</ele></trkpt>
      <trkpt lat="35.388070" lon="127.017188"><ele>178.6</ele></trkpt>
      <trkpt lat="35.388092" lon="127.017049"><ele>174.9</ele></trkpt>
      <trkpt lat="35.387655" lon="127.016335"><ele>186.9</ele></trkpt>
      <trkpt lat="35.387602" lon="127.016104"><ele>188.3</ele></trkpt>
      <trkpt lat="35.387659" lon="127.015563"><ele>177.5</ele></trkpt>
      <trkpt lat="35.387471" lon="127.014999"><ele>182.0</ele></trkpt>
      <trkpt lat="35.387428" lon="127.014592"><ele>174.7</ele></trkpt>
      <trkpt lat="35.387266" lon="127.014227"><ele>176.4</ele></trkpt>
      <trkpt lat="35.387178" lon="127.013680"><ele>168.9</ele></trkpt>
      <trkpt lat="35.387003" lon="127.013342"><ele>163.3</ele></trkpt>
      <trkpt lat="35.386365" lon="127.014077"><ele>173.7</ele></trkpt>
      <trkpt lat="35.386234" lon="127.014291"><ele>174.1</ele></trkpt>
      <trkpt lat="35.386142" lon="127.014560"><ele>176.0</ele></trkpt>
      <trkpt lat="35.385801" lon="127.015117"><ele>169.7</ele></trkpt>
      <trkpt lat="35.385831" lon="127.015380"><ele>169.8</ele></trkpt>
      <trkpt lat="35.386356" lon="127.016062"><ele>182.2</ele></trkpt>
      <trkpt lat="35.386448" lon="127.016260"><ele>184.8</ele></trkpt>
      <trkpt lat="35.386365" lon="127.016630"><ele>181.0</ele></trkpt>
      <trkpt lat="35.386155" lon="127.016770"><ele>175.8</ele></trkpt>
      <trkpt lat="35.385866" lon="127.017215"><ele>174.9</ele></trkpt>
      <trkpt lat="35.385722" lon="127.017580"><ele>183.0</ele></trkpt>
      <trkpt lat="35.385201" lon="127.017521"><ele>172.4</ele></trkpt>
      <trkpt lat="35.385048" lon="127.017666"><ele>173.4</ele></trkpt>
      <trkpt lat="35.384961" lon="127.017859"><ele>175.2</ele></trkpt>
      <trkpt lat="35.384908" lon="127.018143"><ele>179.6</ele></trkpt>
      <trkpt lat="35.384607" lon="127.018336"><ele>179.4</ele></trkpt>
      <trkpt lat="35.384449" lon="127.018599"><ele>186.6</ele></trkpt>
      <trkpt lat="35.384362" lon="127.018663"><ele>188.8</ele></trkpt>
      <trkpt lat="35.384029" lon="127.018261"><ele>172.9</ele></trkpt>
      <trkpt lat="35.383876" lon="127.018213"><ele>168.4</ele></trkpt>
      <trkpt lat="35.383710" lon="127.018454"><ele>171.8</ele></trkpt>
      <trkpt lat="35.383491" lon="127.018936"><ele>179.3</ele></trkpt>
      <trkpt lat="35.383395" lon="127.018942"><ele>178.7</ele></trkpt>
      <trkpt lat="35.383293" lon="127.018822"><ele>175.3</ele></trkpt>
      <trkpt lat="35.383020" lon="127.017971"><ele>158.9</ele></trkpt>
      <trkpt lat="35.382903" lon="127.017808"><ele>154.3</ele></trkpt>
      <trkpt lat="35.382782" lon="127.017787"><ele>152.2</ele></trkpt>
      <trkpt lat="35.382667" lon="127.018035"><ele>153.7</ele></trkpt>
      <trkpt lat="35.382618" lon="127.018840"><ele>171.6</ele></trkpt>
      <trkpt lat="35.382460" lon="127.018844"><ele>169.5</ele></trkpt>
      <trkpt lat="35.382222" lon="127.018459"><ele>157.7</ele></trkpt>
      <trkpt lat="35.381968" lon="127.018234"><ele>148.2</ele></trkpt>
      <trkpt lat="35.381797" lon="127.018197"><ele>144.9</ele></trkpt>
      <trkpt lat="35.381692" lon="127.018256"><ele>143.9</ele></trkpt>
      <trkpt lat="35.381574" lon="127.018459"><ele>143.5</ele></trkpt>
      <trkpt lat="35.381561" lon="127.018636"><ele>145.3</ele></trkpt>
      <trkpt lat="35.381640" lon="127.018980"><ele>152.1</ele></trkpt>
      <trkpt lat="35.381290" lon="127.019114"><ele>146.3</ele></trkpt>
      <trkpt lat="35.381001" lon="127.019629"><ele>149.4</ele></trkpt>
      <trkpt lat="35.380874" lon="127.019607"><ele>147.7</ele></trkpt>
      <trkpt lat="35.380559" lon="127.019232"><ele>136.7</ele></trkpt>
      <trkpt lat="35.380153" lon="127.019280"><ele>137.0</ele></trkpt>
      <trkpt lat="35.379733" lon="127.019210"><ele>135.3</ele></trkpt>
      <trkpt lat="35.379510" lon="127.019286"><ele>136.3</ele></trkpt>
      <trkpt lat="35.379116" lon="127.019543"><ele>137.5</ele></trkpt>
      <trkpt lat="35.377944" lon="127.020557"><ele>149.6</ele></trkpt>
      <trkpt lat="35.377624" lon="127.020922"><ele>155.3</ele></trkpt>
      <trkpt lat="35.377358" lon="127.021362"><ele>162.2</ele></trkpt>
      <trkpt lat="35.377257" lon="127.021474"><ele>163.1</ele></trkpt>
      <trkpt lat="35.377134" lon="127.021517"><ele>163.9</ele></trkpt>
      <trkpt lat="35.377038" lon="127.021405"><ele>164.3</ele></trkpt>
      <trkpt lat="35.377108" lon="127.020691"><ele>168.5</ele></trkpt>
      <trkpt lat="35.377344" lon="127.020128"><ele>170.1</ele></trkpt>
      <trkpt lat="35.377752" lon="127.019765"><ele>169.4</ele></trkpt>
      <trkpt lat="35.377607" lon="127.019675"><ele>177.0</ele></trkpt>
      <trkpt lat="35.377226" lon="127.019785"><ele>182.4</ele></trkpt>
      <trkpt lat="35.377056" lon="127.019913"><ele>180.0</ele></trkpt>
      <trkpt lat="35.376631" lon="127.020632"><ele>184.8</ele></trkpt>
      <trkpt lat="35.376317" lon="127.021276"><ele>190.1</ele></trkpt>
      <trkpt lat="35.375743" lon="127.021957"><ele>195.5</ele></trkpt>
      <trkpt lat="35.375647" lon="127.022349"><ele>203.7</ele></trkpt>
      <trkpt lat="35.375669" lon="127.022805"><ele>204.3</ele></trkpt>
      <trkpt lat="35.375271" lon="127.023985"><ele>209.5</ele></trkpt>
      <trkpt lat="35.375275" lon="127.024151"><ele>209.0</ele></trkpt>
      <trkpt lat="35.375490" lon="127.024682"><ele>205.2</ele></trkpt>
      <trkpt lat="35.375726" lon="127.024918"><ele>210.0</ele></trkpt>
      <trkpt lat="35.375840" lon="127.025235"><ele>209.2</ele></trkpt>
      <trkpt lat="35.375835" lon="127.025385"><ele>208.1</ele></trkpt>
      <trkpt lat="35.375628" lon="127.025689"><ele>195.0</ele></trkpt>
      <trkpt lat="35.375208" lon="127.025855"><ele>172.5</ele></trkpt>
      <trkpt lat="35.375201" lon="127.026098"><ele>172.4</ele></trkpt>
      <trkpt lat="35.375481" lon="127.026302"><ele>183.4</ele></trkpt>
      <trkpt lat="35.375608" lon="127.026851"><ele>182.4</ele></trkpt>
      <trkpt lat="35.375674" lon="127.026983"><ele>186.7</ele></trkpt>
      <trkpt lat="35.375653" lon="127.027126"><ele>188.4</ele></trkpt>
      <trkpt lat="35.375526" lon="127.027218"><ele>187.5</ele></trkpt>
      <trkpt lat="35.375302" lon="127.027132"><ele>181.2</ele></trkpt>
      <trkpt lat="35.375219" lon="127.027172"><ele>180.3</ele></trkpt>
      <trkpt lat="35.375099" lon="127.027354"><ele>183.2</ele></trkpt>
      <trkpt lat="35.375040" lon="127.027359"><ele>181.9</ele></trkpt>
      <trkpt lat="35.374972" lon="127.027334"><ele>179.4</ele></trkpt>
      <trkpt lat="35.374768" lon="127.027042"><ele>163.0</ele></trkpt>
      <trkpt lat="35.374479" lon="127.027108"><ele>167.5</ele></trkpt>
      <trkpt lat="35.374381" lon="127.027051"><ele>168.4</ele></trkpt>
      <trkpt lat="35.374355" lon="127.026965"><ele>166.6</ele></trkpt>
      <trkpt lat="35.374388" lon="127.026883"><ele>161.8</ele></trkpt>
      <trkpt lat="35.374642" lon="127.026773"><ele>153.5</ele></trkpt>
      <trkpt lat="35.374671" lon="127.026676"><ele>150.3</ele></trkpt>
      <trkpt lat="35.374628" lon="127.026549"><ele>148.6</ele></trkpt>
      <trkpt lat="35.374309" lon="127.026184"><ele>144.0</ele></trkpt>
      <trkpt lat="35.374086" lon="127.025680"><ele>137.9</ele></trkpt>
      <trkpt lat="35.373661" lon="127.025170"><ele>128.7</ele></trkpt>
      <trkpt lat="35.373359" lon="127.024870"><ele>124.2</ele></trkpt>
      <trkpt lat="35.373235" lon="127.024820"><ele>125.1</ele></trkpt>
      <trkpt lat="35.372881" lon="127.024257"><ele>125.9</ele></trkpt>
      <trkpt lat="35.372151" lon="127.023717"><ele>114.8</ele></trkpt>
      <trkpt lat="35.371997" lon="127.023730"><ele>114.5</ele></trkpt>
      <trkpt lat="35.371654" lon="127.023470"><ele>106.0</ele></trkpt>
      <trkpt lat="35.371229" lon="127.023363"><ele>103.4</ele></trkpt>
      <trkpt lat="35.370770" lon="127.023143"><ele>96.1</ele></trkpt>
      <trkpt lat="35.371096" lon="127.023652"><ele>117.8</ele></trkpt>
      <trkpt lat="35.371367" lon="127.023958"><ele>128.7</ele></trkpt>
      <trkpt lat="35.372097" lon="127.024360"><ele>132.7</ele></trkpt>
      <trkpt lat="35.372399" lon="127.024999"><ele>164.7</ele></trkpt>
      <trkpt lat="35.372653" lon="127.025342"><ele>165.5</ele></trkpt>
      <trkpt lat="35.372732" lon="127.025541"><ele>169.5</ele></trkpt>
      <trkpt lat="35.372775" lon="127.025996"><ele>179.3</ele></trkpt>
      <trkpt lat="35.372880" lon="127.026313"><ele>180.8</ele></trkpt>
      <trkpt lat="35.373239" lon="127.026823"><ele>189.2</ele></trkpt>
      <trkpt lat="35.373187" lon="127.027037"><ele>186.4</ele></trkpt>
      <trkpt lat="35.372854" lon="127.026892"><ele>176.4</ele></trkpt>
      <trkpt lat="35.372679" lon="127.026984"><ele>169.5</ele></trkpt>
      <trkpt lat="35.372172" lon="127.026903"><ele>152.5</ele></trkpt>
      <trkpt lat="35.371761" lon="127.026694"><ele>139.8</ele></trkpt>
      <trkpt lat="35.370886" lon="127.026436"><ele>109.7</ele></trkpt>
      <trkpt lat="35.370488" lon="127.026131"><ele>107.4</ele></trkpt>
      <trkpt lat="35.369945" lon="127.025862"><ele>103.0</ele></trkpt>
      <trkpt lat="35.369167" lon="127.025755"><ele>97.7</ele></trkpt>
      <trkpt lat="35.368817" lon="127.025809"><ele>91.6</ele></trkpt>
      <trkpt lat="35.368440" lon="127.025750"><ele>88.1</ele></trkpt>
      <trkpt lat="35.368099" lon="127.025809"><ele>85.3</ele></trkpt>
      <trkpt lat="35.367496" lon="127.025782"><ele>87.7</ele></trkpt>
      <trkpt lat="35.367172" lon="127.025707"><ele>89.5</ele></trkpt>
      <trkpt lat="35.366905" lon="127.025578"><ele>89.0</ele></trkpt>
      <trkpt lat="35.366266" lon="127.025511"><ele>84.1</ele></trkpt>
      <trkpt lat="35.366253" lon="127.025154"><ele>79.4</ele></trkpt>
      <trkpt lat="35.366051" lon="127.025052"><ele>77.5</ele></trkpt>
      <trkpt lat="35.365974" lon="127.024799"><ele>77.4</ele></trkpt>
      <trkpt lat="35.365606" lon="127.024973"><ele>77.0</ele></trkpt>
      <trkpt lat="35.365305" lon="127.024012"><ele>77.0</ele></trkpt>
      <trkpt lat="35.365480" lon="127.023518"><ele>76.9</ele></trkpt>
      <trkpt lat="35.365403" lon="127.023109"><ele>76.1</ele></trkpt>
      <trkpt lat="35.365570" lon="127.022862"><ele>75.9</ele></trkpt>
      <trkpt lat="35.365432" lon="127.022965"><ele>76.0</ele></trkpt>
      <trkpt lat="35.363799" lon="127.023648"><ele>73.0</ele></trkpt>
      <trkpt lat="35.363339" lon="127.023551"><ele>73.2</ele></trkpt>
      <trkpt lat="35.362808" lon="127.023265"><ele>73.4</ele></trkpt>
      <trkpt lat="35.361969" lon="127.022626"><ele>71.1</ele></trkpt>
      <trkpt lat="35.361480" lon="127.022470"><ele>71.7</ele></trkpt>
      <trkpt lat="35.358012" lon="127.022342"><ele>71.2</ele></trkpt>
      <trkpt lat="35.357379" lon="127.022392"><ele>71.4</ele></trkpt>
      <trkpt lat="35.357023" lon="127.022499"><ele>69.6</ele></trkpt>
      <trkpt lat="35.356784" lon="127.022694"><ele>69.0</ele></trkpt>
      <trkpt lat="35.356837" lon="127.023270"><ele>69.0</ele></trkpt>
      <trkpt lat="35.356650" lon="127.023487"><ele>69.5</ele></trkpt>
      <trkpt lat="35.352559" lon="127.025421"><ele>69.7</ele></trkpt>
      <trkpt lat="35.348621" lon="127.026889"><ele>68.6</ele></trkpt>
      <trkpt lat="35.348360" lon="127.026705"><ele>65.6</ele></trkpt>
      <trkpt lat="35.347980" lon="127.026792"><ele>64.1</ele></trkpt>
      <trkpt lat="35.347768" lon="127.026940"><ele>64.0</ele></trkpt>
      <trkpt lat="35.347597" lon="127.027201"><ele>65.2</ele></trkpt>
      <trkpt lat="35.347401" lon="127.027251"><ele>65.1</ele></trkpt>
      <trkpt lat="35.347207" lon="127.027420"><ele>65.7</ele></trkpt>
      <trkpt lat="35.346930" lon="127.027764"><ele>65.0</ele></trkpt>
      <trkpt lat="35.346415" lon="127.028018"><ele>65.7</ele></trkpt>
      <trkpt lat="35.346193" lon="127.028193"><ele>66.6</ele></trkpt>
      <trkpt lat="35.346105" lon="127.028467"><ele>67.5</ele></trkpt>
      <trkpt lat="35.345982" lon="127.028461"><ele>67.0</ele></trkpt>
      <trkpt lat="35.345956" lon="127.028678"><ele>67.4</ele></trkpt>
      <trkpt lat="35.345859" lon="127.028916"><ele>67.1</ele></trkpt>
      <trkpt lat="35.345778" lon="127.029004"><ele>66.6</ele></trkpt>
      <trkpt lat="35.345478" lon="127.029083"><ele>64.5</ele></trkpt>
      <trkpt lat="35.344544" lon="127.030150"><ele>65.1</ele></trkpt>
      <trkpt lat="35.344452" lon="127.030323"><ele>65.1</ele></trkpt>
      <trkpt lat="35.344221" lon="127.030512"><ele>63.3</ele></trkpt>
      <trkpt lat="35.343910" lon="127.031089"><ele>64.0</ele></trkpt>
      <trkpt lat="35.343755" lon="127.031191"><ele>63.1</ele></trkpt>
      <trkpt lat="35.343709" lon="127.031388"><ele>62.0</ele></trkpt>
      <trkpt lat="35.343747" lon="127.031522"><ele>62.0</ele></trkpt>
      <trkpt lat="35.343419" lon="127.031928"><ele>62.7</ele></trkpt>
      <trkpt lat="35.343362" lon="127.032434"><ele>64.7</ele></trkpt>
      <trkpt lat="35.343493" lon="127.033161"><ele>66.4</ele></trkpt>
      <trkpt lat="35.344054" lon="127.033747"><ele>65.0</ele></trkpt>
      <trkpt lat="35.344613" lon="127.034792"><ele>66.6</ele></trkpt>
      <trkpt lat="35.344817" lon="127.034995"><ele>66.6</ele></trkpt>
      <trkpt lat="35.345052" lon="127.034761"><ele>65.1</ele></trkpt>
      <trkpt lat="35.345159" lon="127.034769"><ele>65.1</ele></trkpt>
      <trkpt lat="35.346063" lon="127.035599"><ele>67.0</ele></trkpt>
      <trkpt lat="35.346795" lon="127.036095"><ele>69.0</ele></trkpt>
      <trkpt lat="35.347486" lon="127.036157"><ele>66.2</ele></trkpt>
      <trkpt lat="35.348062" lon="127.036101"><ele>67.0</ele></trkpt>
      <trkpt lat="35.349177" lon="127.036327"><ele>67.0</ele></trkpt>
      <trkpt lat="35.349454" lon="127.036449"><ele>67.4</ele></trkpt>
      <trkpt lat="35.349677" lon="127.036579"><ele>67.8</ele></trkpt>
      <trkpt lat="35.349969" lon="127.036923"><ele>69.0</ele></trkpt>
      <trkpt lat="35.350327" lon="127.037492"><ele>69.2</ele></trkpt>
      <trkpt lat="35.350702" lon="127.038652"><ele>71.6</ele></trkpt>
      <trkpt lat="35.350767" lon="127.038994"><ele>72.4</ele></trkpt>
      <trkpt lat="35.350759" lon="127.039255"><ele>73.2</ele></trkpt>
      <trkpt lat="35.350638" lon="127.039730"><ele>75.4</ele></trkpt>
      <trkpt lat="35.350395" lon="127.040286"><ele>81.5</ele></trkpt>
      <trkpt lat="35.350133" lon="127.040712"><ele>80.6</ele></trkpt>
      <trkpt lat="35.349718" lon="127.041240"><ele>85.9</ele></trkpt>
      <trkpt lat="35.349627" lon="127.041711"><ele>80.6</ele></trkpt>
      <trkpt lat="35.349643" lon="127.041824"><ele>78.8</ele></trkpt>
      <trkpt lat="35.350182" lon="127.042901"><ele>75.3</ele></trkpt>
      <trkpt lat="35.350452" lon="127.043680"><ele>76.8</ele></trkpt>
      <trkpt lat="35.350463" lon="127.044020"><ele>77.3</ele></trkpt>
      <trkpt lat="35.350371" lon="127.044582"><ele>78.3</ele></trkpt>
      <trkpt lat="35.350251" lon="127.044992"><ele>79.0</ele></trkpt>
      <trkpt lat="35.350542" lon="127.045051"><ele>82.2</ele></trkpt>
      <trkpt lat="35.350514" lon="127.045311"><ele>83.2</ele></trkpt>
      <trkpt lat="35.350540" lon="127.046062"><ele>83.0</ele></trkpt>
      <trkpt lat="35.350791" lon="127.047644"><ele>77.8</ele></trkpt>
      <trkpt lat="35.350819" lon="127.048085"><ele>79.0</ele></trkpt>
      <trkpt lat="35.350523" lon="127.051045"><ele>83.7</ele></trkpt>
      <trkpt lat="35.351436" lon="127.051021"><ele>85.8</ele></trkpt>
      <trkpt lat="35.351368" lon="127.051594"><ele>87.6</ele></trkpt>
      <trkpt lat="35.351242" lon="127.052110"><ele>88.3</ele></trkpt>
      <trkpt lat="35.350766" lon="127.053073"><ele>88.5</ele></trkpt>
      <trkpt lat="35.350862" lon="127.053557"><ele>89.8</ele></trkpt>
      <trkpt lat="35.351445" lon="127.053918"><ele>91.3</ele></trkpt>
      <trkpt lat="35.351629" lon="127.054271"><ele>93.8</ele></trkpt>
      <trkpt lat="35.351433" lon="127.054804"><ele>93.2</ele></trkpt>
      <trkpt lat="35.351440" lon="127.055611"><ele>93.7</ele></trkpt>
      <trkpt lat="35.352035" lon="127.056030"><ele>95.7</ele></trkpt>
      <trkpt lat="35.352107" lon="127.056014"><ele>96.2</ele></trkpt>
    </trkseg>
  </trk>
</gpx>
