<?xml version="1.0" encoding="UTF-8"?>
<gpx version="1.1" creator="kr-100-mountains route-harvester"
     xmlns="http://www.topografix.com/GPX/1/1"
     xmlns:k100="https://github.com/jay-jang/kr-100-mountains/ns/1"
     xmlns:xsi="http://www.w3.org/2001/XMLSchema-instance"
     xsi:schemaLocation="http://www.topografix.com/GPX/1/1 http://www.topografix.com/GPX/1/1/gpx.xsd">
  <metadata>
    <name>지리산 · 중산리-천왕봉 코스 (대안 2) (OSM 계산 경로)</name>
    <desc>실제 GPS 기록이 아닙니다. OpenStreetMap에 등록된 등산로 선형 위에서 계산한 경로이며, 현장 통제·훼손·출입 제한·계절 통제를 반영하지 않을 수 있습니다. 산행 전 공식 안내를 확인하세요.</desc>
    <time>2026-08-04T05:29:57.256Z</time>
    <link href="https://www.openstreetmap.org/copyright"><text>© OpenStreetMap contributors (ODbL 1.0)</text></link>
    <link href="https://registry.opendata.aws/terrain-tiles/"><text>Elevation: SRTM 1 arc-second (NASA/USGS) via AWS Terrain Tiles</text></link>
    <extensions>
      <k100:provenance>osm-routed</k100:provenance>
      <k100:not_a_recorded_track>true</k100:not_a_recorded_track>
      <k100:mountain_id>jirisan</k100:mountain_id>
      <k100:mountain_name>지리산</k100:mountain_name>
      <k100:route_id>jirisan-dfba3885</k100:route_id>
      <k100:route_index>1</k100:route_index>
      <k100:route_name>중산리-천왕봉 코스</k100:route_name>
      <k100:variant>2</k100:variant>
      <k100:source>OpenStreetMap via Overpass API</k100:source>
      <k100:license>ODbL-1.0</k100:license>
      <k100:attribution>© OpenStreetMap contributors</k100:attribution>
      <k100:elevation_source>SRTM 1 arc-second (NASA/USGS) — AWS Terrain Tiles 배포본. 지형 DEM 추정 고도이며 실측 아님</k100:elevation_source>
      <k100:algorithm>dijkstra-grid-v1</k100:algorithm>
      <k100:osm_snapshot>2026-08-04</k100:osm_snapshot>
      <k100:snap_trailhead_m>208</k100:snap_trailhead_m>
      <k100:snap_summit_m>3</k100:snap_summit_m>
      <k100:validation_score>94</k100:validation_score>
      <k100:validation_status>accepted</k100:validation_status>
    </extensions>
  </metadata>
  <trk>
    <name>지리산 · 중산리-천왕봉 코스 (대안 2) (OSM 계산 경로)</name>
    <desc>실제 GPS 기록이 아닙니다. OpenStreetMap에 등록된 등산로 선형 위에서 계산한 경로이며, 현장 통제·훼손·출입 제한·계절 통제를 반영하지 않을 수 있습니다. 산행 전 공식 안내를 확인하세요.</desc>
    <trkseg>
      <trkpt lat="35.311319" lon="127.743085"><ele>764.8</ele></trkpt>
      <trkpt lat="35.311337" lon="127.743188"><ele>764.8</ele></trkpt>
      <trkpt lat="35.311235" lon="127.743520"><ele>760.6</ele></trkpt>
      <trkpt lat="35.311248" lon="127.743632"><ele>762.3</ele></trkpt>
      <trkpt lat="35.311013" lon="127.743825"><ele>756.4</ele></trkpt>
      <trkpt lat="35.310902" lon="127.744183"><ele>758.2</ele></trkpt>
      <trkpt lat="35.310331" lon="127.744599"><ele>746.7</ele></trkpt>
      <trkpt lat="35.310290" lon="127.744702"><ele>748.0</ele></trkpt>
      <trkpt lat="35.310162" lon="127.744692"><ele>740.5</ele></trkpt>
      <trkpt lat="35.310633" lon="127.744983"><ele>774.4</ele></trkpt>
      <trkpt lat="35.310817" lon="127.745300"><ele>787.7</ele></trkpt>
      <trkpt lat="35.311600" lon="127.745650"><ele>827.3</ele></trkpt>
      <trkpt lat="35.312083" lon="127.745983"><ele>854.9</ele></trkpt>
      <trkpt lat="35.313283" lon="127.747000"><ele>952.3</ele></trkpt>
      <trkpt lat="35.313567" lon="127.747117"><ele>962.1</ele></trkpt>
      <trkpt lat="35.314000" lon="127.747167"><ele>972.6</ele></trkpt>
      <trkpt lat="35.314650" lon="127.746983"><ele>993.8</ele></trkpt>
      <trkpt lat="35.314883" lon="127.746717"><ele>1007.1</ele></trkpt>
      <trkpt lat="35.315183" lon="127.746567"><ele>1016.0</ele></trkpt>
      <trkpt lat="35.315533" lon="127.746633"><ele>1029.0</ele></trkpt>
      <trkpt lat="35.315817" lon="127.746800"><ele>1048.2</ele></trkpt>
      <trkpt lat="35.316317" lon="127.747267"><ele>1074.5</ele></trkpt>
      <trkpt lat="35.316567" lon="127.747183"><ele>1086.1</ele></trkpt>
      <trkpt lat="35.316800" lon="127.747350"><ele>1096.3</ele></trkpt>
      <trkpt lat="35.317717" lon="127.747667"><ele>1102.3</ele></trkpt>
      <trkpt lat="35.318150" lon="127.747733"><ele>1111.3</ele></trkpt>
      <trkpt lat="35.318483" lon="127.747700"><ele>1124.7</ele></trkpt>
      <trkpt lat="35.319200" lon="127.747833"><ele>1132.4</ele></trkpt>
      <trkpt lat="35.319467" lon="127.747767"><ele>1133.7</ele></trkpt>
      <trkpt lat="35.320100" lon="127.747467"><ele>1153.8</ele></trkpt>
      <trkpt lat="35.320400" lon="127.747467"><ele>1162.5</ele></trkpt>
      <trkpt lat="35.320717" lon="127.747367"><ele>1169.9</ele></trkpt>
      <trkpt lat="35.321317" lon="127.747067"><ele>1201.6</ele></trkpt>
      <trkpt lat="35.321550" lon="127.746850"><ele>1216.4</ele></trkpt>
      <trkpt lat="35.321850" lon="127.746667"><ele>1235.9</ele></trkpt>
      <trkpt lat="35.322417" lon="127.746600"><ele>1259.7</ele></trkpt>
      <trkpt lat="35.322633" lon="127.746333"><ele>1263.8</ele></trkpt>
      <trkpt lat="35.322767" lon="127.746033"><ele>1270.4</ele></trkpt>
      <trkpt lat="35.323350" lon="127.745517"><ele>1271.7</ele></trkpt>
      <trkpt lat="35.323650" lon="127.744767"><ele>1282.0</ele></trkpt>
      <trkpt lat="35.323583" lon="127.744450"><ele>1288.5</ele></trkpt>
      <trkpt lat="35.323817" lon="127.744217"><ele>1300.0</ele></trkpt>
      <trkpt lat="35.323967" lon="127.743800"><ele>1314.1</ele></trkpt>
      <trkpt lat="35.324167" lon="127.743550"><ele>1327.0</ele></trkpt>
      <trkpt lat="35.324300" lon="127.743250"><ele>1325.9</ele></trkpt>
      <trkpt lat="35.324300" lon="127.742833"><ele>1324.0</ele></trkpt>
      <trkpt lat="35.324400" lon="127.742483"><ele>1325.8</ele></trkpt>
      <trkpt lat="35.324550" lon="127.742217"><ele>1328.5</ele></trkpt>
      <trkpt lat="35.324583" lon="127.741933"><ele>1335.3</ele></trkpt>
      <trkpt lat="35.324550" lon="127.741300"><ele>1353.0</ele></trkpt>
      <trkpt lat="35.324700" lon="127.740883"><ele>1361.1</ele></trkpt>
      <trkpt lat="35.324983" lon="127.740617"><ele>1362.3</ele></trkpt>
      <trkpt lat="35.325133" lon="127.740267"><ele>1363.2</ele></trkpt>
      <trkpt lat="35.325433" lon="127.740050"><ele>1350.1</ele></trkpt>
      <trkpt lat="35.325667" lon="127.739750"><ele>1341.0</ele></trkpt>
      <trkpt lat="35.325983" lon="127.739617"><ele>1339.5</ele></trkpt>
      <trkpt lat="35.326487" lon="127.738513"><ele>1334.0</ele></trkpt>
      <trkpt lat="35.326790" lon="127.738089"><ele>1331.9</ele></trkpt>
      <trkpt lat="35.326941" lon="127.737982"><ele>1328.2</ele></trkpt>
      <trkpt lat="35.327059" lon="127.737542"><ele>1326.3</ele></trkpt>
      <trkpt lat="35.327211" lon="127.737400"><ele>1331.8</ele></trkpt>
      <trkpt lat="35.327266" lon="127.737135"><ele>1337.5</ele></trkpt>
      <trkpt lat="35.327230" lon="127.736846"><ele>1343.6</ele></trkpt>
      <trkpt lat="35.327262" lon="127.736537"><ele>1357.2</ele></trkpt>
      <trkpt lat="35.327429" lon="127.736590"><ele>1360.5</ele></trkpt>
      <trkpt lat="35.327686" lon="127.736396"><ele>1371.6</ele></trkpt>
      <trkpt lat="35.327750" lon="127.736400"><ele>1373.2</ele></trkpt>
      <trkpt lat="35.327758" lon="127.736593"><ele>1371.1</ele></trkpt>
      <trkpt lat="35.327892" lon="127.736976"><ele>1373.9</ele></trkpt>
      <trkpt lat="35.328525" lon="127.737922"><ele>1369.8</ele></trkpt>
      <trkpt lat="35.328597" lon="127.738235"><ele>1363.3</ele></trkpt>
      <trkpt lat="35.328702" lon="127.738342"><ele>1363.3</ele></trkpt>
      <trkpt lat="35.329380" lon="127.738331"><ele>1372.8</ele></trkpt>
      <trkpt lat="35.330294" lon="127.738784"><ele>1400.1</ele></trkpt>
      <trkpt lat="35.330925" lon="127.738536"><ele>1410.4</ele></trkpt>
      <trkpt lat="35.331047" lon="127.738398"><ele>1411.7</ele></trkpt>
      <trkpt lat="35.331194" lon="127.738353"><ele>1404.2</ele></trkpt>
      <trkpt lat="35.331348" lon="127.738100"><ele>1405.5</ele></trkpt>
      <trkpt lat="35.331750" lon="127.738083"><ele>1396.3</ele></trkpt>
      <trkpt lat="35.332222" lon="127.738503"><ele>1388.1</ele></trkpt>
      <trkpt lat="35.332800" lon="127.739267"><ele>1400.5</ele></trkpt>
      <trkpt lat="35.333372" lon="127.739446"><ele>1390.4</ele></trkpt>
      <trkpt lat="35.333691" lon="127.739711"><ele>1387.7</ele></trkpt>
      <trkpt lat="35.333765" lon="127.739547"><ele>1397.6</ele></trkpt>
      <trkpt lat="35.333885" lon="127.739434"><ele>1408.1</ele></trkpt>
      <trkpt lat="35.333862" lon="127.739027"><ele>1419.6</ele></trkpt>
      <trkpt lat="35.333785" lon="127.738903"><ele>1420.9</ele></trkpt>
      <trkpt lat="35.333968" lon="127.738039"><ele>1453.4</ele></trkpt>
      <trkpt lat="35.334272" lon="127.737307"><ele>1489.9</ele></trkpt>
      <trkpt lat="35.334755" lon="127.736741"><ele>1527.0</ele></trkpt>
      <trkpt lat="35.334841" lon="127.736338"><ele>1551.0</ele></trkpt>
      <trkpt lat="35.335005" lon="127.736362"><ele>1556.7</ele></trkpt>
      <trkpt lat="35.335167" lon="127.736494"><ele>1565.6</ele></trkpt>
      <trkpt lat="35.335252" lon="127.736839"><ele>1553.2</ele></trkpt>
      <trkpt lat="35.335511" lon="127.737082"><ele>1561.4</ele></trkpt>
      <trkpt lat="35.335663" lon="127.737127"><ele>1570.9</ele></trkpt>
      <trkpt lat="35.336052" lon="127.737799"><ele>1574.4</ele></trkpt>
      <trkpt lat="35.336159" lon="127.737873"><ele>1574.5</ele></trkpt>
      <trkpt lat="35.336187" lon="127.737702"><ele>1582.3</ele></trkpt>
      <trkpt lat="35.336231" lon="127.737670"><ele>1584.3</ele></trkpt>
      <trkpt lat="35.336351" lon="127.737300"><ele>1599.0</ele></trkpt>
      <trkpt lat="35.336304" lon="127.737106"><ele>1607.9</ele></trkpt>
      <trkpt lat="35.336347" lon="127.736948"><ele>1616.7</ele></trkpt>
      <trkpt lat="35.336300" lon="127.736887"><ele>1617.5</ele></trkpt>
      <trkpt lat="35.336216" lon="127.736418"><ele>1626.5</ele></trkpt>
      <trkpt lat="35.336243" lon="127.735844"><ele>1644.5</ele></trkpt>
      <trkpt lat="35.336384" lon="127.735338"><ele>1672.4</ele></trkpt>
      <trkpt lat="35.336367" lon="127.735155"><ele>1678.8</ele></trkpt>
      <trkpt lat="35.336489" lon="127.735077"><ele>1686.1</ele></trkpt>
      <trkpt lat="35.336493" lon="127.734678"><ele>1701.6</ele></trkpt>
      <trkpt lat="35.336682" lon="127.734073"><ele>1734.7</ele></trkpt>
      <trkpt lat="35.336652" lon="127.733713"><ele>1742.7</ele></trkpt>
      <trkpt lat="35.336727" lon="127.733046"><ele>1782.4</ele></trkpt>
      <trkpt lat="35.336603" lon="127.732701"><ele>1809.1</ele></trkpt>
      <trkpt lat="35.336669" lon="127.732582"><ele>1817.0</ele></trkpt>
      <trkpt lat="35.336673" lon="127.732416"><ele>1824.1</ele></trkpt>
      <trkpt lat="35.336743" lon="127.732437"><ele>1823.9</ele></trkpt>
      <trkpt lat="35.336783" lon="127.732225"><ele>1830.6</ele></trkpt>
      <trkpt lat="35.336893" lon="127.732095"><ele>1838.5</ele></trkpt>
      <trkpt lat="35.336838" lon="127.731970"><ele>1842.7</ele></trkpt>
      <trkpt lat="35.336697" lon="127.731864"><ele>1841.4</ele></trkpt>
      <trkpt lat="35.336621" lon="127.731689"><ele>1845.0</ele></trkpt>
      <trkpt lat="35.336650" lon="127.731357"><ele>1870.2</ele></trkpt>
      <trkpt lat="35.336746" lon="127.731120"><ele>1886.2</ele></trkpt>
      <trkpt lat="35.336905" lon="127.731099"><ele>1891.9</ele></trkpt>
      <trkpt lat="35.337120" lon="127.730884"><ele>1891.4</ele></trkpt>
      <trkpt lat="35.336957" lon="127.730652"><ele>1897.0</ele></trkpt>
      <trkpt lat="35.336958" lon="127.730585"><ele>1897.5</ele></trkpt>
    </trkseg>
  </trk>
</gpx>
