<?xml version="1.0" encoding="UTF-8"?>
<gpx version="1.1" creator="kr-100-mountains route-harvester"
     xmlns="http://www.topografix.com/GPX/1/1"
     xmlns:k100="https://github.com/jay-jang/kr-100-mountains/ns/1"
     xmlns:xsi="http://www.w3.org/2001/XMLSchema-instance"
     xsi:schemaLocation="http://www.topografix.com/GPX/1/1 http://www.topografix.com/GPX/1/1/gpx.xsd">
  <metadata>
    <name>지리산 · 화엄사-노고단-천왕봉-대원사 화대종주 (대안 1) (OSM 계산 경로)</name>
    <desc>실제 GPS 기록이 아닙니다. OpenStreetMap에 등록된 등산로 선형 위에서 계산한 경로이며, 현장 통제·훼손·출입 제한·계절 통제를 반영하지 않을 수 있습니다. 산행 전 공식 안내를 확인하세요.</desc>
    <time>2026-08-04T05:29:58.114Z</time>
    <link href="https://www.openstreetmap.org/copyright"><text>© OpenStreetMap contributors (ODbL 1.0)</text></link>
    <link href="https://registry.opendata.aws/terrain-tiles/"><text>Elevation: SRTM 1 arc-second (NASA/USGS) via AWS Terrain Tiles</text></link>
    <extensions>
      <k100:provenance>osm-routed</k100:provenance>
      <k100:not_a_recorded_track>true</k100:not_a_recorded_track>
      <k100:mountain_id>jirisan</k100:mountain_id>
      <k100:mountain_name>지리산</k100:mountain_name>
      <k100:route_id>jirisan-22a24b82</k100:route_id>
      <k100:route_index>4</k100:route_index>
      <k100:route_name>화엄사-노고단-천왕봉-대원사 화대종주</k100:route_name>
      <k100:variant>1</k100:variant>
      <k100:source>OpenStreetMap via Overpass API</k100:source>
      <k100:license>ODbL-1.0</k100:license>
      <k100:attribution>© OpenStreetMap contributors</k100:attribution>
      <k100:elevation_source>SRTM 1 arc-second (NASA/USGS) — AWS Terrain Tiles 배포본. 지형 DEM 추정 고도이며 실측 아님</k100:elevation_source>
      <k100:algorithm>dijkstra-grid-v1</k100:algorithm>
      <k100:osm_snapshot>2026-08-04</k100:osm_snapshot>
      <k100:snap_trailhead_m>380</k100:snap_trailhead_m>
      <k100:snap_summit_m>3</k100:snap_summit_m>
      <k100:validation_score>94</k100:validation_score>
      <k100:validation_status>accepted</k100:validation_status>
    </extensions>
  </metadata>
  <trk>
    <name>지리산 · 화엄사-노고단-천왕봉-대원사 화대종주 (대안 1) (OSM 계산 경로)</name>
    <desc>실제 GPS 기록이 아닙니다. OpenStreetMap에 등록된 등산로 선형 위에서 계산한 경로이며, 현장 통제·훼손·출입 제한·계절 통제를 반영하지 않을 수 있습니다. 산행 전 공식 안내를 확인하세요.</desc>
    <trkseg>
      <trkpt lat="35.258431" lon="127.497823"><ele>281.9</ele></trkpt>
      <trkpt lat="35.258392" lon="127.498094"><ele>278.0</ele></trkpt>
      <trkpt lat="35.257922" lon="127.497874"><ele>269.8</ele></trkpt>
      <trkpt lat="35.257654" lon="127.498143"><ele>263.1</ele></trkpt>
      <trkpt lat="35.257272" lon="127.498159"><ele>259.0</ele></trkpt>
      <trkpt lat="35.257066" lon="127.497813"><ele>256.4</ele></trkpt>
      <trkpt lat="35.256751" lon="127.497817"><ele>251.1</ele></trkpt>
      <trkpt lat="35.255364" lon="127.497230"><ele>236.7</ele></trkpt>
      <trkpt lat="35.255195" lon="127.496414"><ele>233.0</ele></trkpt>
      <trkpt lat="35.254709" lon="127.495815"><ele>231.0</ele></trkpt>
      <trkpt lat="35.252450" lon="127.494040"><ele>206.9</ele></trkpt>
      <trkpt lat="35.249626" lon="127.492955"><ele>185.1</ele></trkpt>
      <trkpt lat="35.247700" lon="127.491520"><ele>171.9</ele></trkpt>
      <trkpt lat="35.245380" lon="127.490600"><ele>156.3</ele></trkpt>
      <trkpt lat="35.244200" lon="127.489720"><ele>140.4</ele></trkpt>
      <trkpt lat="35.243551" lon="127.489001"><ele>141.4</ele></trkpt>
      <trkpt lat="35.243276" lon="127.489224"><ele>139.0</ele></trkpt>
      <trkpt lat="35.242671" lon="127.489281"><ele>133.1</ele></trkpt>
      <trkpt lat="35.242330" lon="127.489140"><ele>132.3</ele></trkpt>
      <trkpt lat="35.242920" lon="127.488331"><ele>133.0</ele></trkpt>
      <trkpt lat="35.243791" lon="127.486447"><ele>135.7</ele></trkpt>
      <trkpt lat="35.244272" lon="127.486668"><ele>146.3</ele></trkpt>
      <trkpt lat="35.244311" lon="127.486880"><ele>150.2</ele></trkpt>
      <trkpt lat="35.245004" lon="127.487075"><ele>171.9</ele></trkpt>
      <trkpt lat="35.245444" lon="127.487520"><ele>189.7</ele></trkpt>
      <trkpt lat="35.245805" lon="127.488157"><ele>216.5</ele></trkpt>
      <trkpt lat="35.246042" lon="127.488249"><ele>232.1</ele></trkpt>
      <trkpt lat="35.246332" lon="127.488770"><ele>247.6</ele></trkpt>
      <trkpt lat="35.246635" lon="127.488847"><ele>263.9</ele></trkpt>
      <trkpt lat="35.247133" lon="127.488227"><ele>285.5</ele></trkpt>
      <trkpt lat="35.247633" lon="127.488471"><ele>314.0</ele></trkpt>
      <trkpt lat="35.249517" lon="127.488300"><ele>341.2</ele></trkpt>
      <trkpt lat="35.250185" lon="127.488418"><ele>351.9</ele></trkpt>
      <trkpt lat="35.250870" lon="127.488167"><ele>380.7</ele></trkpt>
      <trkpt lat="35.251302" lon="127.487726"><ele>406.6</ele></trkpt>
      <trkpt lat="35.251987" lon="127.487484"><ele>409.3</ele></trkpt>
      <trkpt lat="35.252393" lon="127.487594"><ele>411.5</ele></trkpt>
      <trkpt lat="35.253174" lon="127.487449"><ele>433.5</ele></trkpt>
      <trkpt lat="35.253639" lon="127.487177"><ele>447.9</ele></trkpt>
      <trkpt lat="35.254272" lon="127.487133"><ele>472.8</ele></trkpt>
      <trkpt lat="35.254810" lon="127.487426"><ele>477.8</ele></trkpt>
      <trkpt lat="35.255418" lon="127.487261"><ele>476.9</ele></trkpt>
      <trkpt lat="35.256484" lon="127.486333"><ele>488.4</ele></trkpt>
      <trkpt lat="35.257130" lon="127.485317"><ele>518.3</ele></trkpt>
      <trkpt lat="35.257753" lon="127.485134"><ele>537.4</ele></trkpt>
      <trkpt lat="35.258150" lon="127.484700"><ele>547.3</ele></trkpt>
      <trkpt lat="35.259091" lon="127.484881"><ele>542.6</ele></trkpt>
      <trkpt lat="35.260195" lon="127.485613"><ele>563.6</ele></trkpt>
      <trkpt lat="35.261502" lon="127.487415"><ele>615.4</ele></trkpt>
      <trkpt lat="35.262516" lon="127.489351"><ele>641.5</ele></trkpt>
      <trkpt lat="35.262784" lon="127.490458"><ele>652.0</ele></trkpt>
      <trkpt lat="35.263484" lon="127.490731"><ele>653.5</ele></trkpt>
      <trkpt lat="35.264489" lon="127.492043"><ele>639.5</ele></trkpt>
      <trkpt lat="35.265398" lon="127.492674"><ele>621.8</ele></trkpt>
      <trkpt lat="35.266832" lon="127.494131"><ele>647.7</ele></trkpt>
      <trkpt lat="35.269667" lon="127.495967"><ele>699.7</ele></trkpt>
      <trkpt lat="35.269976" lon="127.495880"><ele>714.0</ele></trkpt>
      <trkpt lat="35.270599" lon="127.496156"><ele>710.2</ele></trkpt>
      <trkpt lat="35.271268" lon="127.495998"><ele>722.3</ele></trkpt>
      <trkpt lat="35.272297" lon="127.496401"><ele>718.6</ele></trkpt>
      <trkpt lat="35.273290" lon="127.496426"><ele>738.7</ele></trkpt>
      <trkpt lat="35.274064" lon="127.497254"><ele>761.9</ele></trkpt>
      <trkpt lat="35.274649" lon="127.497229"><ele>775.5</ele></trkpt>
      <trkpt lat="35.275006" lon="127.497512"><ele>783.0</ele></trkpt>
      <trkpt lat="35.275731" lon="127.498517"><ele>800.1</ele></trkpt>
      <trkpt lat="35.276125" lon="127.498937"><ele>811.6</ele></trkpt>
      <trkpt lat="35.276569" lon="127.499074"><ele>823.1</ele></trkpt>
      <trkpt lat="35.277008" lon="127.499738"><ele>852.4</ele></trkpt>
      <trkpt lat="35.277850" lon="127.500550"><ele>875.1</ele></trkpt>
      <trkpt lat="35.279050" lon="127.501183"><ele>891.9</ele></trkpt>
      <trkpt lat="35.279751" lon="127.501261"><ele>908.4</ele></trkpt>
      <trkpt lat="35.280787" lon="127.502131"><ele>982.7</ele></trkpt>
      <trkpt lat="35.281075" lon="127.502170"><ele>986.3</ele></trkpt>
      <trkpt lat="35.281542" lon="127.501953"><ele>990.0</ele></trkpt>
      <trkpt lat="35.283149" lon="127.502642"><ele>969.3</ele></trkpt>
      <trkpt lat="35.284573" lon="127.504777"><ele>983.3</ele></trkpt>
      <trkpt lat="35.285941" lon="127.505283"><ele>1000.4</ele></trkpt>
      <trkpt lat="35.287225" lon="127.506228"><ele>1027.5</ele></trkpt>
      <trkpt lat="35.288036" lon="127.507689"><ele>1038.8</ele></trkpt>
      <trkpt lat="35.288611" lon="127.508438"><ele>1055.6</ele></trkpt>
      <trkpt lat="35.288674" lon="127.509038"><ele>1070.4</ele></trkpt>
      <trkpt lat="35.288862" lon="127.509318"><ele>1074.3</ele></trkpt>
      <trkpt lat="35.289550" lon="127.509733"><ele>1099.4</ele></trkpt>
      <trkpt lat="35.290150" lon="127.510767"><ele>1131.7</ele></trkpt>
      <trkpt lat="35.290917" lon="127.511300"><ele>1151.1</ele></trkpt>
      <trkpt lat="35.292895" lon="127.512133"><ele>1202.5</ele></trkpt>
      <trkpt lat="35.293051" lon="127.512550"><ele>1208.8</ele></trkpt>
      <trkpt lat="35.293716" lon="127.513105"><ele>1235.7</ele></trkpt>
      <trkpt lat="35.293902" lon="127.513165"><ele>1243.5</ele></trkpt>
      <trkpt lat="35.294121" lon="127.512611"><ele>1243.9</ele></trkpt>
      <trkpt lat="35.294816" lon="127.512147"><ele>1243.1</ele></trkpt>
      <trkpt lat="35.295672" lon="127.510830"><ele>1213.2</ele></trkpt>
      <trkpt lat="35.295519" lon="127.509427"><ele>1178.0</ele></trkpt>
      <trkpt lat="35.295589" lon="127.509109"><ele>1177.7</ele></trkpt>
      <trkpt lat="35.295893" lon="127.508711"><ele>1187.0</ele></trkpt>
      <trkpt lat="35.295954" lon="127.508058"><ele>1176.8</ele></trkpt>
      <trkpt lat="35.296353" lon="127.508454"><ele>1198.1</ele></trkpt>
      <trkpt lat="35.296507" lon="127.508917"><ele>1217.2</ele></trkpt>
      <trkpt lat="35.297791" lon="127.509704"><ele>1281.7</ele></trkpt>
      <trkpt lat="35.297837" lon="127.509995"><ele>1289.8</ele></trkpt>
      <trkpt lat="35.298450" lon="127.510261"><ele>1315.1</ele></trkpt>
      <trkpt lat="35.298988" lon="127.509964"><ele>1310.6</ele></trkpt>
      <trkpt lat="35.299656" lon="127.510241"><ele>1288.0</ele></trkpt>
      <trkpt lat="35.300970" lon="127.511281"><ele>1245.5</ele></trkpt>
      <trkpt lat="35.302825" lon="127.511362"><ele>1193.1</ele></trkpt>
      <trkpt lat="35.304695" lon="127.510925"><ele>1139.4</ele></trkpt>
      <trkpt lat="35.305056" lon="127.510710"><ele>1130.2</ele></trkpt>
      <trkpt lat="35.305537" lon="127.511314"><ele>1107.0</ele></trkpt>
      <trkpt lat="35.305903" lon="127.511044"><ele>1095.4</ele></trkpt>
      <trkpt lat="35.306055" lon="127.511085"><ele>1091.4</ele></trkpt>
      <trkpt lat="35.306737" lon="127.510475"><ele>1082.1</ele></trkpt>
      <trkpt lat="35.307288" lon="127.510658"><ele>1082.5</ele></trkpt>
      <trkpt lat="35.307266" lon="127.511433"><ele>1064.6</ele></trkpt>
      <trkpt lat="35.307403" lon="127.511705"><ele>1053.8</ele></trkpt>
      <trkpt lat="35.309200" lon="127.513687"><ele>1001.1</ele></trkpt>
      <trkpt lat="35.310710" lon="127.514701"><ele>982.7</ele></trkpt>
      <trkpt lat="35.310840" lon="127.514968"><ele>975.9</ele></trkpt>
      <trkpt lat="35.311401" lon="127.515411"><ele>963.3</ele></trkpt>
      <trkpt lat="35.311759" lon="127.515998"><ele>954.0</ele></trkpt>
      <trkpt lat="35.312488" lon="127.516670"><ele>944.0</ele></trkpt>
      <trkpt lat="35.312961" lon="127.517669"><ele>930.2</ele></trkpt>
      <trkpt lat="35.313381" lon="127.519088"><ele>909.3</ele></trkpt>
      <trkpt lat="35.313430" lon="127.519836"><ele>900.6</ele></trkpt>
      <trkpt lat="35.313980" lon="127.520660"><ele>890.9</ele></trkpt>
      <trkpt lat="35.314441" lon="127.522163"><ele>870.5</ele></trkpt>
      <trkpt lat="35.315429" lon="127.523422"><ele>858.6</ele></trkpt>
      <trkpt lat="35.315478" lon="127.524403"><ele>836.4</ele></trkpt>
      <trkpt lat="35.315670" lon="127.524696"><ele>837.3</ele></trkpt>
      <trkpt lat="35.315750" lon="127.525810"><ele>822.7</ele></trkpt>
      <trkpt lat="35.315921" lon="127.526237"><ele>818.8</ele></trkpt>
      <trkpt lat="35.316410" lon="127.526847"><ele>810.9</ele></trkpt>
      <trkpt lat="35.317489" lon="127.528900"><ele>784.7</ele></trkpt>
      <trkpt lat="35.318384" lon="127.529116"><ele>778.3</ele></trkpt>
      <trkpt lat="35.319155" lon="127.529610"><ele>767.3</ele></trkpt>
      <trkpt lat="35.318693" lon="127.529490"><ele>767.0</ele></trkpt>
      <trkpt lat="35.318405" lon="127.529583"><ele>765.3</ele></trkpt>
      <trkpt lat="35.318417" lon="127.529973"><ele>766.6</ele></trkpt>
      <trkpt lat="35.317834" lon="127.530969"><ele>789.0</ele></trkpt>
      <trkpt lat="35.318160" lon="127.531542"><ele>825.8</ele></trkpt>
      <trkpt lat="35.318145" lon="127.531863"><ele>835.3</ele></trkpt>
      <trkpt lat="35.318825" lon="127.532147"><ele>866.0</ele></trkpt>
      <trkpt lat="35.318924" lon="127.532375"><ele>873.4</ele></trkpt>
      <trkpt lat="35.318813" lon="127.532920"><ele>893.6</ele></trkpt>
      <trkpt lat="35.318905" lon="127.533157"><ele>904.0</ele></trkpt>
      <trkpt lat="35.318494" lon="127.534130"><ele>927.9</ele></trkpt>
      <trkpt lat="35.318514" lon="127.534535"><ele>940.5</ele></trkpt>
      <trkpt lat="35.318320" lon="127.535098"><ele>958.0</ele></trkpt>
      <trkpt lat="35.318422" lon="127.535624"><ele>967.0</ele></trkpt>
      <trkpt lat="35.318255" lon="127.535876"><ele>971.6</ele></trkpt>
      <trkpt lat="35.318331" lon="127.536834"><ele>1001.2</ele></trkpt>
      <trkpt lat="35.318105" lon="127.537402"><ele>1006.7</ele></trkpt>
      <trkpt lat="35.318163" lon="127.537794"><ele>1016.6</ele></trkpt>
      <trkpt lat="35.317799" lon="127.539001"><ele>1054.2</ele></trkpt>
      <trkpt lat="35.317842" lon="127.539897"><ele>1061.6</ele></trkpt>
      <trkpt lat="35.318329" lon="127.540787"><ele>1071.7</ele></trkpt>
      <trkpt lat="35.318427" lon="127.541274"><ele>1082.7</ele></trkpt>
      <trkpt lat="35.319694" lon="127.542553"><ele>1138.6</ele></trkpt>
      <trkpt lat="35.320162" lon="127.543651"><ele>1180.3</ele></trkpt>
      <trkpt lat="35.320567" lon="127.543625"><ele>1189.5</ele></trkpt>
      <trkpt lat="35.320678" lon="127.544021"><ele>1196.1</ele></trkpt>
      <trkpt lat="35.320797" lon="127.544981"><ele>1223.2</ele></trkpt>
      <trkpt lat="35.320662" lon="127.545755"><ele>1237.9</ele></trkpt>
      <trkpt lat="35.320237" lon="127.546773"><ele>1254.2</ele></trkpt>
      <trkpt lat="35.320536" lon="127.547804"><ele>1250.7</ele></trkpt>
      <trkpt lat="35.320878" lon="127.548407"><ele>1247.1</ele></trkpt>
      <trkpt lat="35.321467" lon="127.550911"><ele>1286.2</ele></trkpt>
      <trkpt lat="35.321443" lon="127.551371"><ele>1296.7</ele></trkpt>
      <trkpt lat="35.321788" lon="127.552913"><ele>1346.3</ele></trkpt>
      <trkpt lat="35.321441" lon="127.553674"><ele>1358.2</ele></trkpt>
      <trkpt lat="35.321988" lon="127.555913"><ele>1404.6</ele></trkpt>
      <trkpt lat="35.322201" lon="127.556346"><ele>1415.0</ele></trkpt>
      <trkpt lat="35.322267" lon="127.556979"><ele>1430.4</ele></trkpt>
      <trkpt lat="35.322029" lon="127.557715"><ele>1448.0</ele></trkpt>
      <trkpt lat="35.321579" lon="127.558486"><ele>1479.6</ele></trkpt>
      <trkpt lat="35.321270" lon="127.560762"><ele>1547.2</ele></trkpt>
      <trkpt lat="35.320822" lon="127.561458"><ele>1578.7</ele></trkpt>
      <trkpt lat="35.319797" lon="127.561989"><ele>1623.6</ele></trkpt>
      <trkpt lat="35.319410" lon="127.562352"><ele>1636.9</ele></trkpt>
      <trkpt lat="35.319435" lon="127.562784"><ele>1638.8</ele></trkpt>
      <trkpt lat="35.319191" lon="127.563192"><ele>1641.1</ele></trkpt>
      <trkpt lat="35.319499" lon="127.564248"><ele>1670.1</ele></trkpt>
      <trkpt lat="35.319491" lon="127.565500"><ele>1699.6</ele></trkpt>
      <trkpt lat="35.319138" lon="127.566596"><ele>1713.8</ele></trkpt>
      <trkpt lat="35.318953" lon="127.567716"><ele>1724.6</ele></trkpt>
      <trkpt lat="35.319617" lon="127.567774"><ele>1709.4</ele></trkpt>
      <trkpt lat="35.320171" lon="127.568573"><ele>1690.9</ele></trkpt>
      <trkpt lat="35.320740" lon="127.568441"><ele>1672.6</ele></trkpt>
      <trkpt lat="35.321091" lon="127.568724"><ele>1655.9</ele></trkpt>
      <trkpt lat="35.321156" lon="127.569352"><ele>1642.0</ele></trkpt>
      <trkpt lat="35.321306" lon="127.569514"><ele>1637.2</ele></trkpt>
      <trkpt lat="35.321444" lon="127.570163"><ele>1617.2</ele></trkpt>
      <trkpt lat="35.321829" lon="127.570665"><ele>1593.8</ele></trkpt>
      <trkpt lat="35.321789" lon="127.570801"><ele>1591.4</ele></trkpt>
      <trkpt lat="35.322000" lon="127.571094"><ele>1585.5</ele></trkpt>
      <trkpt lat="35.321931" lon="127.571363"><ele>1567.7</ele></trkpt>
      <trkpt lat="35.322074" lon="127.571508"><ele>1560.5</ele></trkpt>
      <trkpt lat="35.322016" lon="127.571807"><ele>1544.7</ele></trkpt>
      <trkpt lat="35.321457" lon="127.572252"><ele>1514.5</ele></trkpt>
      <trkpt lat="35.321752" lon="127.572727"><ele>1498.9</ele></trkpt>
      <trkpt lat="35.321574" lon="127.573010"><ele>1481.2</ele></trkpt>
      <trkpt lat="35.321887" lon="127.573367"><ele>1472.9</ele></trkpt>
      <trkpt lat="35.322713" lon="127.573207"><ele>1472.6</ele></trkpt>
      <trkpt lat="35.323008" lon="127.573628"><ele>1456.0</ele></trkpt>
      <trkpt lat="35.323129" lon="127.574095"><ele>1444.5</ele></trkpt>
      <trkpt lat="35.323593" lon="127.574448"><ele>1415.0</ele></trkpt>
      <trkpt lat="35.323875" lon="127.575436"><ele>1380.3</ele></trkpt>
      <trkpt lat="35.324310" lon="127.575836"><ele>1355.1</ele></trkpt>
      <trkpt lat="35.324270" lon="127.576116"><ele>1350.3</ele></trkpt>
      <trkpt lat="35.324531" lon="127.576277"><ele>1330.3</ele></trkpt>
      <trkpt lat="35.324899" lon="127.576275"><ele>1313.0</ele></trkpt>
      <trkpt lat="35.325236" lon="127.575850"><ele>1291.1</ele></trkpt>
      <trkpt lat="35.326059" lon="127.576003"><ele>1230.5</ele></trkpt>
      <trkpt lat="35.326736" lon="127.575652"><ele>1218.5</ele></trkpt>
      <trkpt lat="35.326757" lon="127.575961"><ele>1202.3</ele></trkpt>
      <trkpt lat="35.327015" lon="127.575980"><ele>1193.7</ele></trkpt>
      <trkpt lat="35.327472" lon="127.575571"><ele>1173.2</ele></trkpt>
      <trkpt lat="35.328036" lon="127.575696"><ele>1128.1</ele></trkpt>
      <trkpt lat="35.328527" lon="127.575434"><ele>1100.4</ele></trkpt>
      <trkpt lat="35.328724" lon="127.575676"><ele>1089.4</ele></trkpt>
      <trkpt lat="35.328845" lon="127.576408"><ele>1071.5</ele></trkpt>
      <trkpt lat="35.329356" lon="127.577673"><ele>1046.1</ele></trkpt>
      <trkpt lat="35.329299" lon="127.578038"><ele>1033.4</ele></trkpt>
      <trkpt lat="35.329151" lon="127.578097"><ele>1031.8</ele></trkpt>
      <trkpt lat="35.329420" lon="127.578446"><ele>1019.4</ele></trkpt>
      <trkpt lat="35.329422" lon="127.578832"><ele>1015.2</ele></trkpt>
      <trkpt lat="35.329963" lon="127.579392"><ele>998.1</ele></trkpt>
      <trkpt lat="35.330274" lon="127.579350"><ele>985.2</ele></trkpt>
      <trkpt lat="35.330823" lon="127.579685"><ele>968.7</ele></trkpt>
      <trkpt lat="35.331654" lon="127.580538"><ele>944.6</ele></trkpt>
      <trkpt lat="35.332030" lon="127.582037"><ele>908.9</ele></trkpt>
      <trkpt lat="35.332286" lon="127.582498"><ele>908.4</ele></trkpt>
      <trkpt lat="35.332498" lon="127.584587"><ele>867.9</ele></trkpt>
      <trkpt lat="35.332617" lon="127.584552"><ele>875.8</ele></trkpt>
      <trkpt lat="35.332656" lon="127.584950"><ele>866.9</ele></trkpt>
      <trkpt lat="35.332824" lon="127.585080"><ele>872.8</ele></trkpt>
      <trkpt lat="35.332910" lon="127.585464"><ele>875.2</ele></trkpt>
      <trkpt lat="35.333565" lon="127.585712"><ele>859.8</ele></trkpt>
      <trkpt lat="35.333868" lon="127.586010"><ele>832.0</ele></trkpt>
      <trkpt lat="35.334462" lon="127.586166"><ele>793.9</ele></trkpt>
      <trkpt lat="35.334655" lon="127.586497"><ele>786.5</ele></trkpt>
      <trkpt lat="35.334814" lon="127.586543"><ele>782.6</ele></trkpt>
      <trkpt lat="35.334978" lon="127.586348"><ele>777.4</ele></trkpt>
      <trkpt lat="35.335304" lon="127.586425"><ele>767.6</ele></trkpt>
      <trkpt lat="35.335730" lon="127.587151"><ele>759.6</ele></trkpt>
      <trkpt lat="35.335900" lon="127.587946"><ele>763.6</ele></trkpt>
      <trkpt lat="35.336074" lon="127.587914"><ele>760.6</ele></trkpt>
      <trkpt lat="35.336274" lon="127.588570"><ele>756.8</ele></trkpt>
      <trkpt lat="35.336441" lon="127.588686"><ele>753.8</ele></trkpt>
      <trkpt lat="35.338890" lon="127.588468"><ele>728.5</ele></trkpt>
      <trkpt lat="35.339836" lon="127.588609"><ele>730.8</ele></trkpt>
      <trkpt lat="35.340183" lon="127.588233"><ele>724.9</ele></trkpt>
      <trkpt lat="35.340592" lon="127.588304"><ele>723.9</ele></trkpt>
      <trkpt lat="35.340730" lon="127.588122"><ele>718.9</ele></trkpt>
      <trkpt lat="35.341378" lon="127.588021"><ele>714.8</ele></trkpt>
      <trkpt lat="35.341701" lon="127.587813"><ele>710.5</ele></trkpt>
      <trkpt lat="35.341846" lon="127.587370"><ele>710.1</ele></trkpt>
      <trkpt lat="35.342145" lon="127.587025"><ele>708.7</ele></trkpt>
      <trkpt lat="35.342815" lon="127.587203"><ele>697.4</ele></trkpt>
      <trkpt lat="35.343440" lon="127.588393"><ele>691.8</ele></trkpt>
      <trkpt lat="35.343846" lon="127.588696"><ele>688.9</ele></trkpt>
      <trkpt lat="35.344295" lon="127.588656"><ele>680.0</ele></trkpt>
      <trkpt lat="35.344482" lon="127.588317"><ele>678.1</ele></trkpt>
      <trkpt lat="35.346678" lon="127.588352"><ele>664.2</ele></trkpt>
      <trkpt lat="35.347275" lon="127.587984"><ele>676.3</ele></trkpt>
      <trkpt lat="35.349071" lon="127.587789"><ele>664.4</ele></trkpt>
      <trkpt lat="35.350271" lon="127.588704"><ele>634.4</ele></trkpt>
      <trkpt lat="35.352315" lon="127.588737"><ele>628.2</ele></trkpt>
      <trkpt lat="35.353258" lon="127.589204"><ele>623.4</ele></trkpt>
      <trkpt lat="35.353946" lon="127.589306"><ele>622.2</ele></trkpt>
      <trkpt lat="35.354675" lon="127.588960"><ele>621.6</ele></trkpt>
      <trkpt lat="35.354775" lon="127.589112"><ele>619.3</ele></trkpt>
      <trkpt lat="35.355060" lon="127.588902"><ele>613.9</ele></trkpt>
      <trkpt lat="35.355284" lon="127.588490"><ele>610.2</ele></trkpt>
      <trkpt lat="35.356668" lon="127.587050"><ele>608.1</ele></trkpt>
      <trkpt lat="35.357241" lon="127.586482"><ele>599.0</ele></trkpt>
      <trkpt lat="35.357788" lon="127.586186"><ele>600.7</ele></trkpt>
      <trkpt lat="35.358677" lon="127.585897"><ele>589.4</ele></trkpt>
      <trkpt lat="35.360909" lon="127.586088"><ele>573.8</ele></trkpt>
      <trkpt lat="35.361606" lon="127.585915"><ele>568.0</ele></trkpt>
      <trkpt lat="35.361826" lon="127.585676"><ele>559.7</ele></trkpt>
      <trkpt lat="35.362083" lon="127.585768"><ele>566.6</ele></trkpt>
      <trkpt lat="35.362087" lon="127.586619"><ele>588.5</ele></trkpt>
      <trkpt lat="35.362239" lon="127.587215"><ele>596.2</ele></trkpt>
      <trkpt lat="35.362611" lon="127.587581"><ele>594.9</ele></trkpt>
      <trkpt lat="35.362720" lon="127.588330"><ele>597.8</ele></trkpt>
      <trkpt lat="35.362669" lon="127.589507"><ele>612.2</ele></trkpt>
      <trkpt lat="35.362912" lon="127.591489"><ele>643.7</ele></trkpt>
      <trkpt lat="35.362716" lon="127.591836"><ele>641.0</ele></trkpt>
      <trkpt lat="35.363531" lon="127.593401"><ele>679.4</ele></trkpt>
      <trkpt lat="35.363712" lon="127.594370"><ele>701.5</ele></trkpt>
      <trkpt lat="35.364055" lon="127.594818"><ele>723.1</ele></trkpt>
      <trkpt lat="35.364150" lon="127.595547"><ele>753.7</ele></trkpt>
      <trkpt lat="35.364409" lon="127.595719"><ele>766.8</ele></trkpt>
      <trkpt lat="35.364366" lon="127.596711"><ele>786.6</ele></trkpt>
      <trkpt lat="35.364775" lon="127.597846"><ele>812.7</ele></trkpt>
      <trkpt lat="35.364796" lon="127.598739"><ele>854.9</ele></trkpt>
      <trkpt lat="35.363978" lon="127.600606"><ele>914.2</ele></trkpt>
      <trkpt lat="35.364162" lon="127.602626"><ele>987.3</ele></trkpt>
      <trkpt lat="35.363918" lon="127.603094"><ele>995.5</ele></trkpt>
      <trkpt lat="35.363942" lon="127.603921"><ele>1022.9</ele></trkpt>
      <trkpt lat="35.363591" lon="127.604164"><ele>1042.8</ele></trkpt>
      <trkpt lat="35.363434" lon="127.604783"><ele>1064.3</ele></trkpt>
      <trkpt lat="35.363505" lon="127.605686"><ele>1094.2</ele></trkpt>
      <trkpt lat="35.363151" lon="127.605958"><ele>1108.7</ele></trkpt>
      <trkpt lat="35.363427" lon="127.606409"><ele>1136.3</ele></trkpt>
      <trkpt lat="35.363491" lon="127.606976"><ele>1154.4</ele></trkpt>
      <trkpt lat="35.363837" lon="127.607832"><ele>1160.7</ele></trkpt>
      <trkpt lat="35.364306" lon="127.608305"><ele>1188.6</ele></trkpt>
      <trkpt lat="35.364412" lon="127.608650"><ele>1199.9</ele></trkpt>
      <trkpt lat="35.364643" lon="127.608767"><ele>1203.3</ele></trkpt>
      <trkpt lat="35.364643" lon="127.609028"><ele>1200.0</ele></trkpt>
      <trkpt lat="35.364870" lon="127.609248"><ele>1210.4</ele></trkpt>
      <trkpt lat="35.364888" lon="127.609492"><ele>1215.1</ele></trkpt>
      <trkpt lat="35.364772" lon="127.609607"><ele>1207.9</ele></trkpt>
      <trkpt lat="35.364877" lon="127.609766"><ele>1220.9</ele></trkpt>
      <trkpt lat="35.364886" lon="127.609626"><ele>1218.2</ele></trkpt>
      <trkpt lat="35.366699" lon="127.610748"><ele>1273.8</ele></trkpt>
      <trkpt lat="35.368831" lon="127.613418"><ele>1229.8</ele></trkpt>
      <trkpt lat="35.369167" lon="127.615135"><ele>1201.6</ele></trkpt>
      <trkpt lat="35.369716" lon="127.615982"><ele>1183.3</ele></trkpt>
      <trkpt lat="35.370765" lon="127.619018"><ele>1118.4</ele></trkpt>
      <trkpt lat="35.371436" lon="127.620029"><ele>1118.5</ele></trkpt>
      <trkpt lat="35.371282" lon="127.620264"><ele>1114.9</ele></trkpt>
      <trkpt lat="35.371631" lon="127.620468"><ele>1129.0</ele></trkpt>
      <trkpt lat="35.371637" lon="127.620676"><ele>1131.8</ele></trkpt>
      <trkpt lat="35.371897" lon="127.620875"><ele>1146.8</ele></trkpt>
      <trkpt lat="35.371962" lon="127.621512"><ele>1172.9</ele></trkpt>
      <trkpt lat="35.372296" lon="127.622037"><ele>1176.4</ele></trkpt>
      <trkpt lat="35.373509" lon="127.622583"><ele>1175.5</ele></trkpt>
      <trkpt lat="35.373641" lon="127.622799"><ele>1174.9</ele></trkpt>
      <trkpt lat="35.374081" lon="127.622785"><ele>1159.8</ele></trkpt>
      <trkpt lat="35.374573" lon="127.623263"><ele>1147.3</ele></trkpt>
      <trkpt lat="35.374853" lon="127.623205"><ele>1148.5</ele></trkpt>
      <trkpt lat="35.374992" lon="127.623750"><ele>1154.0</ele></trkpt>
      <trkpt lat="35.375286" lon="127.624035"><ele>1171.3</ele></trkpt>
      <trkpt lat="35.375529" lon="127.624561"><ele>1173.6</ele></trkpt>
      <trkpt lat="35.375518" lon="127.624934"><ele>1166.5</ele></trkpt>
      <trkpt lat="35.375636" lon="127.625001"><ele>1172.4</ele></trkpt>
      <trkpt lat="35.375551" lon="127.625475"><ele>1168.8</ele></trkpt>
      <trkpt lat="35.375262" lon="127.625661"><ele>1158.8</ele></trkpt>
      <trkpt lat="35.375084" lon="127.626534"><ele>1156.8</ele></trkpt>
      <trkpt lat="35.375409" lon="127.626894"><ele>1183.7</ele></trkpt>
      <trkpt lat="35.375173" lon="127.627297"><ele>1156.8</ele></trkpt>
      <trkpt lat="35.375169" lon="127.627853"><ele>1149.2</ele></trkpt>
      <trkpt lat="35.375833" lon="127.627815"><ele>1169.7</ele></trkpt>
      <trkpt lat="35.376931" lon="127.628775"><ele>1164.6</ele></trkpt>
      <trkpt lat="35.377084" lon="127.628759"><ele>1164.4</ele></trkpt>
      <trkpt lat="35.377173" lon="127.628380"><ele>1167.2</ele></trkpt>
      <trkpt lat="35.377491" lon="127.628246"><ele>1151.2</ele></trkpt>
      <trkpt lat="35.379182" lon="127.628467"><ele>1083.9</ele></trkpt>
      <trkpt lat="35.379731" lon="127.628318"><ele>1080.8</ele></trkpt>
      <trkpt lat="35.380010" lon="127.628528"><ele>1066.3</ele></trkpt>
      <trkpt lat="35.380106" lon="127.628416"><ele>1070.7</ele></trkpt>
      <trkpt lat="35.380492" lon="127.628476"><ele>1057.6</ele></trkpt>
      <trkpt lat="35.380704" lon="127.628779"><ele>1040.2</ele></trkpt>
      <trkpt lat="35.381031" lon="127.628903"><ele>1032.0</ele></trkpt>
      <trkpt lat="35.380943" lon="127.629303"><ele>1009.1</ele></trkpt>
      <trkpt lat="35.381114" lon="127.629642"><ele>987.3</ele></trkpt>
      <trkpt lat="35.381064" lon="127.629884"><ele>978.0</ele></trkpt>
      <trkpt lat="35.381437" lon="127.630269"><ele>960.3</ele></trkpt>
      <trkpt lat="35.381608" lon="127.630217"><ele>958.1</ele></trkpt>
      <trkpt lat="35.382308" lon="127.630592"><ele>930.9</ele></trkpt>
      <trkpt lat="35.382869" lon="127.630623"><ele>919.0</ele></trkpt>
      <trkpt lat="35.384003" lon="127.631373"><ele>867.3</ele></trkpt>
      <trkpt lat="35.384192" lon="127.631748"><ele>855.5</ele></trkpt>
      <trkpt lat="35.384656" lon="127.632164"><ele>845.0</ele></trkpt>
      <trkpt lat="35.384753" lon="127.632538"><ele>830.1</ele></trkpt>
      <trkpt lat="35.385087" lon="127.632800"><ele>831.5</ele></trkpt>
      <trkpt lat="35.385230" lon="127.633422"><ele>804.3</ele></trkpt>
      <trkpt lat="35.385506" lon="127.633668"><ele>791.2</ele></trkpt>
      <trkpt lat="35.387361" lon="127.634408"><ele>737.8</ele></trkpt>
      <trkpt lat="35.387853" lon="127.634423"><ele>727.7</ele></trkpt>
      <trkpt lat="35.389588" lon="127.635287"><ele>685.8</ele></trkpt>
      <trkpt lat="35.390721" lon="127.636164"><ele>651.0</ele></trkpt>
      <trkpt lat="35.391525" lon="127.636566"><ele>631.7</ele></trkpt>
      <trkpt lat="35.392485" lon="127.637695"><ele>592.8</ele></trkpt>
      <trkpt lat="35.392750" lon="127.638238"><ele>588.1</ele></trkpt>
      <trkpt lat="35.393524" lon="127.638847"><ele>560.8</ele></trkpt>
      <trkpt lat="35.394294" lon="127.640351"><ele>528.3</ele></trkpt>
      <trkpt lat="35.395333" lon="127.641389"><ele>512.6</ele></trkpt>
      <trkpt lat="35.396617" lon="127.644233"><ele>458.4</ele></trkpt>
      <trkpt lat="35.396900" lon="127.644096"><ele>451.2</ele></trkpt>
      <trkpt lat="35.397617" lon="127.644149"><ele>455.6</ele></trkpt>
      <trkpt lat="35.397923" lon="127.644488"><ele>452.9</ele></trkpt>
      <trkpt lat="35.397869" lon="127.644972"><ele>440.1</ele></trkpt>
      <trkpt lat="35.398998" lon="127.646865"><ele>421.6</ele></trkpt>
      <trkpt lat="35.399215" lon="127.647880"><ele>406.9</ele></trkpt>
      <trkpt lat="35.399583" lon="127.648633"><ele>394.7</ele></trkpt>
      <trkpt lat="35.399898" lon="127.648933"><ele>386.5</ele></trkpt>
      <trkpt lat="35.400088" lon="127.648915"><ele>391.5</ele></trkpt>
      <trkpt lat="35.399860" lon="127.649569"><ele>376.8</ele></trkpt>
      <trkpt lat="35.399435" lon="127.649424"><ele>375.2</ele></trkpt>
      <trkpt lat="35.399163" lon="127.649734"><ele>367.7</ele></trkpt>
      <trkpt lat="35.398909" lon="127.649758"><ele>365.5</ele></trkpt>
      <trkpt lat="35.399017" lon="127.650373"><ele>354.5</ele></trkpt>
      <trkpt lat="35.398712" lon="127.651741"><ele>352.3</ele></trkpt>
      <trkpt lat="35.398426" lon="127.651826"><ele>363.2</ele></trkpt>
      <trkpt lat="35.398118" lon="127.652687"><ele>370.8</ele></trkpt>
      <trkpt lat="35.397370" lon="127.653163"><ele>361.7</ele></trkpt>
      <trkpt lat="35.397225" lon="127.653902"><ele>345.8</ele></trkpt>
      <trkpt lat="35.396905" lon="127.654465"><ele>341.2</ele></trkpt>
      <trkpt lat="35.396476" lon="127.654685"><ele>339.1</ele></trkpt>
      <trkpt lat="35.396309" lon="127.654453"><ele>343.5</ele></trkpt>
      <trkpt lat="35.395654" lon="127.654280"><ele>348.4</ele></trkpt>
      <trkpt lat="35.394737" lon="127.653688"><ele>371.1</ele></trkpt>
      <trkpt lat="35.393975" lon="127.651815"><ele>411.4</ele></trkpt>
      <trkpt lat="35.393706" lon="127.649535"><ele>474.3</ele></trkpt>
      <trkpt lat="35.393513" lon="127.649180"><ele>487.8</ele></trkpt>
      <trkpt lat="35.393289" lon="127.649115"><ele>494.3</ele></trkpt>
      <trkpt lat="35.391784" lon="127.650789"><ele>472.3</ele></trkpt>
      <trkpt lat="35.391762" lon="127.651395"><ele>456.4</ele></trkpt>
      <trkpt lat="35.391962" lon="127.651903"><ele>441.2</ele></trkpt>
      <trkpt lat="35.391726" lon="127.652561"><ele>425.1</ele></trkpt>
      <trkpt lat="35.391982" lon="127.653306"><ele>409.3</ele></trkpt>
      <trkpt lat="35.391589" lon="127.653756"><ele>396.2</ele></trkpt>
      <trkpt lat="35.391910" lon="127.654836"><ele>374.8</ele></trkpt>
      <trkpt lat="35.391441" lon="127.655522"><ele>355.4</ele></trkpt>
      <trkpt lat="35.391447" lon="127.657046"><ele>328.7</ele></trkpt>
      <trkpt lat="35.390899" lon="127.657614"><ele>321.8</ele></trkpt>
      <trkpt lat="35.390805" lon="127.658235"><ele>314.0</ele></trkpt>
      <trkpt lat="35.390597" lon="127.658518"><ele>305.0</ele></trkpt>
      <trkpt lat="35.389545" lon="127.658981"><ele>306.1</ele></trkpt>
      <trkpt lat="35.390043" lon="127.659959"><ele>289.7</ele></trkpt>
      <trkpt lat="35.390111" lon="127.660492"><ele>289.5</ele></trkpt>
      <trkpt lat="35.390468" lon="127.660677"><ele>291.1</ele></trkpt>
      <trkpt lat="35.390633" lon="127.661251"><ele>302.2</ele></trkpt>
      <trkpt lat="35.390640" lon="127.662192"><ele>321.5</ele></trkpt>
      <trkpt lat="35.390491" lon="127.662359"><ele>325.7</ele></trkpt>
      <trkpt lat="35.390515" lon="127.662715"><ele>332.9</ele></trkpt>
      <trkpt lat="35.390082" lon="127.663253"><ele>342.8</ele></trkpt>
      <trkpt lat="35.390170" lon="127.664407"><ele>360.9</ele></trkpt>
      <trkpt lat="35.389977" lon="127.664949"><ele>373.8</ele></trkpt>
      <trkpt lat="35.390207" lon="127.665532"><ele>385.4</ele></trkpt>
      <trkpt lat="35.390410" lon="127.667050"><ele>410.3</ele></trkpt>
      <trkpt lat="35.389770" lon="127.668760"><ele>451.4</ele></trkpt>
      <trkpt lat="35.389196" lon="127.669192"><ele>474.7</ele></trkpt>
      <trkpt lat="35.389005" lon="127.670092"><ele>500.3</ele></trkpt>
      <trkpt lat="35.388718" lon="127.670400"><ele>511.3</ele></trkpt>
      <trkpt lat="35.388705" lon="127.670679"><ele>517.4</ele></trkpt>
      <trkpt lat="35.388466" lon="127.670915"><ele>526.8</ele></trkpt>
      <trkpt lat="35.388460" lon="127.671237"><ele>535.9</ele></trkpt>
      <trkpt lat="35.388158" lon="127.671772"><ele>563.5</ele></trkpt>
      <trkpt lat="35.388397" lon="127.672383"><ele>576.9</ele></trkpt>
      <trkpt lat="35.388185" lon="127.672800"><ele>590.8</ele></trkpt>
      <trkpt lat="35.388233" lon="127.673639"><ele>617.6</ele></trkpt>
      <trkpt lat="35.387907" lon="127.673843"><ele>633.4</ele></trkpt>
      <trkpt lat="35.387839" lon="127.674091"><ele>643.1</ele></trkpt>
      <trkpt lat="35.388042" lon="127.674466"><ele>658.4</ele></trkpt>
      <trkpt lat="35.387939" lon="127.674891"><ele>661.6</ele></trkpt>
      <trkpt lat="35.387438" lon="127.675091"><ele>677.0</ele></trkpt>
      <trkpt lat="35.387150" lon="127.675450"><ele>687.9</ele></trkpt>
      <trkpt lat="35.386950" lon="127.676030"><ele>693.5</ele></trkpt>
      <trkpt lat="35.386370" lon="127.676360"><ele>706.8</ele></trkpt>
      <trkpt lat="35.385670" lon="127.676210"><ele>733.5</ele></trkpt>
      <trkpt lat="35.385160" lon="127.676410"><ele>756.8</ele></trkpt>
      <trkpt lat="35.384610" lon="127.677090"><ele>782.4</ele></trkpt>
      <trkpt lat="35.384130" lon="127.676810"><ele>805.6</ele></trkpt>
      <trkpt lat="35.383345" lon="127.676840"><ele>835.8</ele></trkpt>
      <trkpt lat="35.383262" lon="127.677498"><ele>856.0</ele></trkpt>
      <trkpt lat="35.382786" lon="127.678099"><ele>871.2</ele></trkpt>
      <trkpt lat="35.382981" lon="127.679400"><ele>894.1</ele></trkpt>
      <trkpt lat="35.382634" lon="127.679973"><ele>907.5</ele></trkpt>
      <trkpt lat="35.382592" lon="127.680627"><ele>917.0</ele></trkpt>
      <trkpt lat="35.382260" lon="127.681080"><ele>916.8</ele></trkpt>
      <trkpt lat="35.382150" lon="127.681480"><ele>911.7</ele></trkpt>
      <trkpt lat="35.381661" lon="127.681605"><ele>897.4</ele></trkpt>
      <trkpt lat="35.381484" lon="127.682302"><ele>876.8</ele></trkpt>
      <trkpt lat="35.380966" lon="127.682413"><ele>858.4</ele></trkpt>
      <trkpt lat="35.379166" lon="127.683438"><ele>809.9</ele></trkpt>
      <trkpt lat="35.378453" lon="127.684465"><ele>796.8</ele></trkpt>
      <trkpt lat="35.377777" lon="127.683963"><ele>780.4</ele></trkpt>
      <trkpt lat="35.377327" lon="127.684121"><ele>779.4</ele></trkpt>
      <trkpt lat="35.376847" lon="127.684663"><ele>760.2</ele></trkpt>
      <trkpt lat="35.375944" lon="127.684489"><ele>736.5</ele></trkpt>
      <trkpt lat="35.375480" lon="127.684650"><ele>741.7</ele></trkpt>
      <trkpt lat="35.374173" lon="127.684648"><ele>757.1</ele></trkpt>
      <trkpt lat="35.373917" lon="127.685359"><ele>749.8</ele></trkpt>
      <trkpt lat="35.373793" lon="127.686378"><ele>739.1</ele></trkpt>
      <trkpt lat="35.373894" lon="127.686869"><ele>730.8</ele></trkpt>
      <trkpt lat="35.373102" lon="127.688036"><ele>744.1</ele></trkpt>
      <trkpt lat="35.372731" lon="127.689054"><ele>777.6</ele></trkpt>
      <trkpt lat="35.372026" lon="127.690170"><ele>822.0</ele></trkpt>
      <trkpt lat="35.371379" lon="127.690330"><ele>831.9</ele></trkpt>
      <trkpt lat="35.370336" lon="127.691006"><ele>848.5</ele></trkpt>
      <trkpt lat="35.369671" lon="127.690839"><ele>857.2</ele></trkpt>
      <trkpt lat="35.368536" lon="127.690844"><ele>896.6</ele></trkpt>
      <trkpt lat="35.368091" lon="127.691139"><ele>895.5</ele></trkpt>
      <trkpt lat="35.367830" lon="127.691588"><ele>905.4</ele></trkpt>
      <trkpt lat="35.367177" lon="127.692005"><ele>911.5</ele></trkpt>
      <trkpt lat="35.366383" lon="127.692126"><ele>909.6</ele></trkpt>
      <trkpt lat="35.364713" lon="127.693942"><ele>942.9</ele></trkpt>
      <trkpt lat="35.363298" lon="127.694430"><ele>941.2</ele></trkpt>
      <trkpt lat="35.362720" lon="127.694376"><ele>943.6</ele></trkpt>
      <trkpt lat="35.362526" lon="127.694648"><ele>943.3</ele></trkpt>
      <trkpt lat="35.361701" lon="127.694864"><ele>955.2</ele></trkpt>
      <trkpt lat="35.361456" lon="127.695481"><ele>949.3</ele></trkpt>
      <trkpt lat="35.361275" lon="127.695513"><ele>958.8</ele></trkpt>
      <trkpt lat="35.361253" lon="127.695878"><ele>949.3</ele></trkpt>
      <trkpt lat="35.361079" lon="127.696112"><ele>951.8</ele></trkpt>
      <trkpt lat="35.360028" lon="127.696956"><ele>959.3</ele></trkpt>
      <trkpt lat="35.359779" lon="127.697359"><ele>958.4</ele></trkpt>
      <trkpt lat="35.359234" lon="127.698667"><ele>947.5</ele></trkpt>
      <trkpt lat="35.359323" lon="127.699161"><ele>921.2</ele></trkpt>
      <trkpt lat="35.359086" lon="127.699365"><ele>918.2</ele></trkpt>
      <trkpt lat="35.359039" lon="127.699605"><ele>907.6</ele></trkpt>
      <trkpt lat="35.358449" lon="127.699762"><ele>897.1</ele></trkpt>
      <trkpt lat="35.358130" lon="127.700088"><ele>892.8</ele></trkpt>
      <trkpt lat="35.358339" lon="127.701194"><ele>863.1</ele></trkpt>
      <trkpt lat="35.358096" lon="127.701303"><ele>880.1</ele></trkpt>
      <trkpt lat="35.357395" lon="127.702229"><ele>890.3</ele></trkpt>
      <trkpt lat="35.357370" lon="127.702837"><ele>879.8</ele></trkpt>
      <trkpt lat="35.357112" lon="127.703276"><ele>884.8</ele></trkpt>
      <trkpt lat="35.356989" lon="127.703976"><ele>865.7</ele></trkpt>
      <trkpt lat="35.356569" lon="127.704512"><ele>865.6</ele></trkpt>
      <trkpt lat="35.356603" lon="127.704756"><ele>859.9</ele></trkpt>
      <trkpt lat="35.356138" lon="127.705502"><ele>883.3</ele></trkpt>
      <trkpt lat="35.355884" lon="127.705702"><ele>892.2</ele></trkpt>
      <trkpt lat="35.355710" lon="127.706233"><ele>888.9</ele></trkpt>
      <trkpt lat="35.354918" lon="127.706899"><ele>919.1</ele></trkpt>
      <trkpt lat="35.354865" lon="127.707379"><ele>915.3</ele></trkpt>
      <trkpt lat="35.354600" lon="127.707613"><ele>925.9</ele></trkpt>
      <trkpt lat="35.354520" lon="127.707891"><ele>939.3</ele></trkpt>
      <trkpt lat="35.354270" lon="127.708051"><ele>949.9</ele></trkpt>
      <trkpt lat="35.353726" lon="127.707988"><ele>946.7</ele></trkpt>
      <trkpt lat="35.353533" lon="127.708726"><ele>976.4</ele></trkpt>
      <trkpt lat="35.353378" lon="127.708790"><ele>971.6</ele></trkpt>
      <trkpt lat="35.353284" lon="127.709088"><ele>976.9</ele></trkpt>
      <trkpt lat="35.353109" lon="127.709016"><ele>971.4</ele></trkpt>
      <trkpt lat="35.352933" lon="127.709176"><ele>976.3</ele></trkpt>
      <trkpt lat="35.352862" lon="127.709641"><ele>982.1</ele></trkpt>
      <trkpt lat="35.353027" lon="127.709750"><ele>986.6</ele></trkpt>
      <trkpt lat="35.352774" lon="127.711307"><ele>1017.3</ele></trkpt>
      <trkpt lat="35.353048" lon="127.711688"><ele>1030.2</ele></trkpt>
      <trkpt lat="35.353087" lon="127.712057"><ele>1036.8</ele></trkpt>
      <trkpt lat="35.353054" lon="127.712256"><ele>1039.7</ele></trkpt>
      <trkpt lat="35.352519" lon="127.712838"><ele>1042.9</ele></trkpt>
      <trkpt lat="35.352447" lon="127.713239"><ele>1056.9</ele></trkpt>
      <trkpt lat="35.351025" lon="127.713938"><ele>1097.7</ele></trkpt>
      <trkpt lat="35.350914" lon="127.714273"><ele>1101.4</ele></trkpt>
      <trkpt lat="35.350613" lon="127.714308"><ele>1096.0</ele></trkpt>
      <trkpt lat="35.349926" lon="127.714764"><ele>1117.4</ele></trkpt>
      <trkpt lat="35.349753" lon="127.714722"><ele>1118.6</ele></trkpt>
      <trkpt lat="35.348713" lon="127.715375"><ele>1139.0</ele></trkpt>
      <trkpt lat="35.348379" lon="127.716141"><ele>1161.7</ele></trkpt>
      <trkpt lat="35.347725" lon="127.716556"><ele>1174.8</ele></trkpt>
      <trkpt lat="35.347105" lon="127.717645"><ele>1203.8</ele></trkpt>
      <trkpt lat="35.346605" lon="127.718065"><ele>1216.1</ele></trkpt>
      <trkpt lat="35.346498" lon="127.718344"><ele>1231.5</ele></trkpt>
      <trkpt lat="35.346148" lon="127.718507"><ele>1235.4</ele></trkpt>
      <trkpt lat="35.345881" lon="127.718961"><ele>1253.3</ele></trkpt>
      <trkpt lat="35.345830" lon="127.719213"><ele>1256.5</ele></trkpt>
      <trkpt lat="35.345960" lon="127.719335"><ele>1265.6</ele></trkpt>
      <trkpt lat="35.345840" lon="127.719490"><ele>1265.8</ele></trkpt>
      <trkpt lat="35.344872" lon="127.720200"><ele>1294.7</ele></trkpt>
      <trkpt lat="35.344415" lon="127.720273"><ele>1298.1</ele></trkpt>
      <trkpt lat="35.343764" lon="127.720871"><ele>1314.3</ele></trkpt>
      <trkpt lat="35.343402" lon="127.721827"><ele>1345.0</ele></trkpt>
      <trkpt lat="35.343115" lon="127.721975"><ele>1353.8</ele></trkpt>
      <trkpt lat="35.343277" lon="127.722437"><ele>1379.5</ele></trkpt>
      <trkpt lat="35.342938" lon="127.722755"><ele>1401.1</ele></trkpt>
      <trkpt lat="35.342985" lon="127.723450"><ele>1421.1</ele></trkpt>
      <trkpt lat="35.342457" lon="127.723791"><ele>1453.3</ele></trkpt>
      <trkpt lat="35.342432" lon="127.723990"><ele>1460.4</ele></trkpt>
      <trkpt lat="35.341615" lon="127.724662"><ele>1509.4</ele></trkpt>
      <trkpt lat="35.340695" lon="127.725716"><ele>1577.5</ele></trkpt>
      <trkpt lat="35.340301" lon="127.725853"><ele>1600.0</ele></trkpt>
      <trkpt lat="35.339836" lon="127.725719"><ele>1612.6</ele></trkpt>
      <trkpt lat="35.338705" lon="127.727710"><ele>1693.1</ele></trkpt>
      <trkpt lat="35.338771" lon="127.727829"><ele>1696.1</ele></trkpt>
      <trkpt lat="35.338562" lon="127.728574"><ele>1738.7</ele></trkpt>
      <trkpt lat="35.338189" lon="127.729397"><ele>1790.1</ele></trkpt>
      <trkpt lat="35.337808" lon="127.729462"><ele>1820.5</ele></trkpt>
      <trkpt lat="35.337562" lon="127.729171"><ele>1826.3</ele></trkpt>
      <trkpt lat="35.336855" lon="127.729176"><ele>1877.0</ele></trkpt>
      <trkpt lat="35.336734" lon="127.729301"><ele>1876.5</ele></trkpt>
      <trkpt lat="35.336958" lon="127.730585"><ele>1897.5</ele></trkpt>
    </trkseg>
  </trk>
</gpx>
