<?xml version="1.0" encoding="UTF-8"?>
<gpx version="1.1" creator="kr-100-mountains route-harvester"
     xmlns="http://www.topografix.com/GPX/1/1"
     xmlns:k100="https://github.com/jay-jang/kr-100-mountains/ns/1"
     xmlns:xsi="http://www.w3.org/2001/XMLSchema-instance"
     xsi:schemaLocation="http://www.topografix.com/GPX/1/1 http://www.topografix.com/GPX/1/1/gpx.xsd">
  <metadata>
    <name>지리산 · 성삼재-노고단-천왕봉 종주(화대종주) (대안 1) (OSM 계산 경로)</name>
    <desc>실제 GPS 기록이 아닙니다. OpenStreetMap에 등록된 등산로 선형 위에서 계산한 경로이며, 현장 통제·훼손·출입 제한·계절 통제를 반영하지 않을 수 있습니다. 산행 전 공식 안내를 확인하세요.</desc>
    <time>2026-08-04T05:29:57.682Z</time>
    <link href="https://www.openstreetmap.org/copyright"><text>© OpenStreetMap contributors (ODbL 1.0)</text></link>
    <link href="https://registry.opendata.aws/terrain-tiles/"><text>Elevation: SRTM 1 arc-second (NASA/USGS) via AWS Terrain Tiles</text></link>
    <extensions>
      <k100:provenance>osm-routed</k100:provenance>
      <k100:not_a_recorded_track>true</k100:not_a_recorded_track>
      <k100:mountain_id>jirisan</k100:mountain_id>
      <k100:mountain_name>지리산</k100:mountain_name>
      <k100:route_id>jirisan-f6b630c1</k100:route_id>
      <k100:route_index>2</k100:route_index>
      <k100:route_name>성삼재-노고단-천왕봉 종주(화대종주)</k100:route_name>
      <k100:variant>1</k100:variant>
      <k100:source>OpenStreetMap via Overpass API</k100:source>
      <k100:license>ODbL-1.0</k100:license>
      <k100:attribution>© OpenStreetMap contributors</k100:attribution>
      <k100:elevation_source>SRTM 1 arc-second (NASA/USGS) — AWS Terrain Tiles 배포본. 지형 DEM 추정 고도이며 실측 아님</k100:elevation_source>
      <k100:algorithm>dijkstra-grid-v1</k100:algorithm>
      <k100:osm_snapshot>2026-08-04</k100:osm_snapshot>
      <k100:snap_trailhead_m>23</k100:snap_trailhead_m>
      <k100:snap_summit_m>3</k100:snap_summit_m>
      <k100:validation_score>84</k100:validation_score>
      <k100:validation_status>accepted</k100:validation_status>
    </extensions>
  </metadata>
  <trk>
    <name>지리산 · 성삼재-노고단-천왕봉 종주(화대종주) (대안 1) (OSM 계산 경로)</name>
    <desc>실제 GPS 기록이 아닙니다. OpenStreetMap에 등록된 등산로 선형 위에서 계산한 경로이며, 현장 통제·훼손·출입 제한·계절 통제를 반영하지 않을 수 있습니다. 산행 전 공식 안내를 확인하세요.</desc>
    <trkseg>
      <trkpt lat="35.306418" lon="127.510778"><ele>1086.3</ele></trkpt>
      <trkpt lat="35.306055" lon="127.511085"><ele>1091.4</ele></trkpt>
      <trkpt lat="35.305903" lon="127.511044"><ele>1095.4</ele></trkpt>
      <trkpt lat="35.305537" lon="127.511314"><ele>1107.0</ele></trkpt>
      <trkpt lat="35.305400" lon="127.511515"><ele>1107.1</ele></trkpt>
      <trkpt lat="35.305148" lon="127.511729"><ele>1111.4</ele></trkpt>
      <trkpt lat="35.305022" lon="127.511940"><ele>1112.2</ele></trkpt>
      <trkpt lat="35.304869" lon="127.512429"><ele>1106.8</ele></trkpt>
      <trkpt lat="35.304728" lon="127.513509"><ele>1109.9</ele></trkpt>
      <trkpt lat="35.304322" lon="127.514030"><ele>1114.1</ele></trkpt>
      <trkpt lat="35.303977" lon="127.514220"><ele>1118.1</ele></trkpt>
      <trkpt lat="35.303628" lon="127.514643"><ele>1119.5</ele></trkpt>
      <trkpt lat="35.302962" lon="127.514773"><ele>1128.9</ele></trkpt>
      <trkpt lat="35.302529" lon="127.514955"><ele>1133.1</ele></trkpt>
      <trkpt lat="35.302287" lon="127.515192"><ele>1136.6</ele></trkpt>
      <trkpt lat="35.301985" lon="127.515663"><ele>1140.3</ele></trkpt>
      <trkpt lat="35.300996" lon="127.516300"><ele>1161.2</ele></trkpt>
      <trkpt lat="35.300005" lon="127.517276"><ele>1175.7</ele></trkpt>
      <trkpt lat="35.299549" lon="127.517613"><ele>1185.0</ele></trkpt>
      <trkpt lat="35.298947" lon="127.518260"><ele>1190.9</ele></trkpt>
      <trkpt lat="35.297933" lon="127.518701"><ele>1214.8</ele></trkpt>
      <trkpt lat="35.297696" lon="127.518882"><ele>1218.2</ele></trkpt>
      <trkpt lat="35.297246" lon="127.519454"><ele>1225.8</ele></trkpt>
      <trkpt lat="35.296886" lon="127.520087"><ele>1239.4</ele></trkpt>
      <trkpt lat="35.296789" lon="127.520376"><ele>1242.1</ele></trkpt>
      <trkpt lat="35.296758" lon="127.520767"><ele>1243.0</ele></trkpt>
      <trkpt lat="35.296705" lon="127.520946"><ele>1245.5</ele></trkpt>
      <trkpt lat="35.296590" lon="127.521109"><ele>1248.4</ele></trkpt>
      <trkpt lat="35.296408" lon="127.521174"><ele>1252.3</ele></trkpt>
      <trkpt lat="35.296296" lon="127.521068"><ele>1254.3</ele></trkpt>
      <trkpt lat="35.296058" lon="127.521151"><ele>1260.9</ele></trkpt>
      <trkpt lat="35.295950" lon="127.521038"><ele>1259.8</ele></trkpt>
      <trkpt lat="35.295727" lon="127.521552"><ele>1268.1</ele></trkpt>
      <trkpt lat="35.295630" lon="127.521880"><ele>1272.0</ele></trkpt>
      <trkpt lat="35.295543" lon="127.523031"><ele>1288.6</ele></trkpt>
      <trkpt lat="35.295551" lon="127.523564"><ele>1291.8</ele></trkpt>
      <trkpt lat="35.295660" lon="127.523724"><ele>1293.5</ele></trkpt>
      <trkpt lat="35.295835" lon="127.523649"><ele>1290.0</ele></trkpt>
      <trkpt lat="35.296110" lon="127.523742"><ele>1293.3</ele></trkpt>
      <trkpt lat="35.296106" lon="127.523864"><ele>1296.3</ele></trkpt>
      <trkpt lat="35.296385" lon="127.524528"><ele>1317.1</ele></trkpt>
      <trkpt lat="35.296404" lon="127.524871"><ele>1323.0</ele></trkpt>
      <trkpt lat="35.296282" lon="127.525781"><ele>1339.9</ele></trkpt>
      <trkpt lat="35.296097" lon="127.526102"><ele>1342.8</ele></trkpt>
      <trkpt lat="35.296131" lon="127.526156"><ele>1344.3</ele></trkpt>
      <trkpt lat="35.295976" lon="127.526416"><ele>1349.1</ele></trkpt>
      <trkpt lat="35.295979" lon="127.526485"><ele>1350.7</ele></trkpt>
      <trkpt lat="35.296023" lon="127.526569"><ele>1352.9</ele></trkpt>
      <trkpt lat="35.296046" lon="127.527036"><ele>1362.7</ele></trkpt>
      <trkpt lat="35.296417" lon="127.527453"><ele>1372.0</ele></trkpt>
      <trkpt lat="35.296531" lon="127.527866"><ele>1381.4</ele></trkpt>
      <trkpt lat="35.296730" lon="127.528100"><ele>1390.9</ele></trkpt>
      <trkpt lat="35.296768" lon="127.528462"><ele>1401.6</ele></trkpt>
      <trkpt lat="35.296866" lon="127.528672"><ele>1408.9</ele></trkpt>
      <trkpt lat="35.296830" lon="127.529151"><ele>1419.7</ele></trkpt>
      <trkpt lat="35.296874" lon="127.529772"><ele>1424.2</ele></trkpt>
      <trkpt lat="35.296745" lon="127.530107"><ele>1421.3</ele></trkpt>
      <trkpt lat="35.296669" lon="127.530490"><ele>1416.9</ele></trkpt>
      <trkpt lat="35.295732" lon="127.532302"><ele>1416.6</ele></trkpt>
      <trkpt lat="35.295480" lon="127.533008"><ele>1418.5</ele></trkpt>
      <trkpt lat="35.295387" lon="127.534211"><ele>1407.0</ele></trkpt>
      <trkpt lat="35.295420" lon="127.535346"><ele>1403.4</ele></trkpt>
      <trkpt lat="35.295539" lon="127.535993"><ele>1395.1</ele></trkpt>
      <trkpt lat="35.295757" lon="127.536738"><ele>1395.5</ele></trkpt>
      <trkpt lat="35.296143" lon="127.537748"><ele>1396.0</ele></trkpt>
      <trkpt lat="35.296040" lon="127.538246"><ele>1395.1</ele></trkpt>
      <trkpt lat="35.295859" lon="127.538685"><ele>1392.7</ele></trkpt>
      <trkpt lat="35.295663" lon="127.539701"><ele>1389.9</ele></trkpt>
      <trkpt lat="35.295224" lon="127.540951"><ele>1378.6</ele></trkpt>
      <trkpt lat="35.295188" lon="127.541172"><ele>1374.4</ele></trkpt>
      <trkpt lat="35.295399" lon="127.541758"><ele>1370.8</ele></trkpt>
      <trkpt lat="35.295434" lon="127.542042"><ele>1371.2</ele></trkpt>
      <trkpt lat="35.295616" lon="127.542572"><ele>1371.9</ele></trkpt>
      <trkpt lat="35.295719" lon="127.543081"><ele>1373.0</ele></trkpt>
      <trkpt lat="35.296112" lon="127.544470"><ele>1384.6</ele></trkpt>
      <trkpt lat="35.296234" lon="127.545456"><ele>1378.7</ele></trkpt>
      <trkpt lat="35.296170" lon="127.545721"><ele>1378.8</ele></trkpt>
      <trkpt lat="35.296146" lon="127.546123"><ele>1383.0</ele></trkpt>
      <trkpt lat="35.296204" lon="127.546423"><ele>1390.3</ele></trkpt>
      <trkpt lat="35.296507" lon="127.547196"><ele>1399.0</ele></trkpt>
      <trkpt lat="35.296686" lon="127.547443"><ele>1399.1</ele></trkpt>
      <trkpt lat="35.296928" lon="127.547506"><ele>1398.0</ele></trkpt>
      <trkpt lat="35.297743" lon="127.547990"><ele>1382.7</ele></trkpt>
      <trkpt lat="35.298076" lon="127.548109"><ele>1376.2</ele></trkpt>
      <trkpt lat="35.298744" lon="127.548478"><ele>1366.5</ele></trkpt>
      <trkpt lat="35.299257" lon="127.548904"><ele>1367.0</ele></trkpt>
      <trkpt lat="35.299668" lon="127.549399"><ele>1367.0</ele></trkpt>
      <trkpt lat="35.300148" lon="127.550376"><ele>1363.4</ele></trkpt>
      <trkpt lat="35.300332" lon="127.551050"><ele>1356.8</ele></trkpt>
      <trkpt lat="35.300449" lon="127.551689"><ele>1347.5</ele></trkpt>
      <trkpt lat="35.300785" lon="127.552061"><ele>1348.5</ele></trkpt>
      <trkpt lat="35.300914" lon="127.552740"><ele>1350.7</ele></trkpt>
      <trkpt lat="35.300926" lon="127.553139"><ele>1352.0</ele></trkpt>
      <trkpt lat="35.300998" lon="127.553443"><ele>1352.4</ele></trkpt>
      <trkpt lat="35.301204" lon="127.553936"><ele>1347.4</ele></trkpt>
      <trkpt lat="35.301235" lon="127.554156"><ele>1347.3</ele></trkpt>
      <trkpt lat="35.301057" lon="127.554842"><ele>1349.8</ele></trkpt>
      <trkpt lat="35.301005" lon="127.555237"><ele>1344.0</ele></trkpt>
      <trkpt lat="35.301016" lon="127.555618"><ele>1335.9</ele></trkpt>
      <trkpt lat="35.301194" lon="127.556162"><ele>1335.0</ele></trkpt>
      <trkpt lat="35.301398" lon="127.556551"><ele>1329.2</ele></trkpt>
      <trkpt lat="35.301609" lon="127.556870"><ele>1324.9</ele></trkpt>
      <trkpt lat="35.301848" lon="127.557124"><ele>1317.8</ele></trkpt>
      <trkpt lat="35.302205" lon="127.557702"><ele>1303.3</ele></trkpt>
      <trkpt lat="35.302670" lon="127.558721"><ele>1309.6</ele></trkpt>
      <trkpt lat="35.302887" lon="127.559476"><ele>1320.3</ele></trkpt>
      <trkpt lat="35.303007" lon="127.560089"><ele>1326.6</ele></trkpt>
      <trkpt lat="35.303026" lon="127.560410"><ele>1333.7</ele></trkpt>
      <trkpt lat="35.303547" lon="127.561415"><ele>1370.6</ele></trkpt>
      <trkpt lat="35.303654" lon="127.561765"><ele>1376.6</ele></trkpt>
      <trkpt lat="35.303824" lon="127.561982"><ele>1383.5</ele></trkpt>
      <trkpt lat="35.304134" lon="127.562242"><ele>1394.5</ele></trkpt>
      <trkpt lat="35.304361" lon="127.562598"><ele>1403.9</ele></trkpt>
      <trkpt lat="35.304706" lon="127.563714"><ele>1422.5</ele></trkpt>
      <trkpt lat="35.304980" lon="127.564209"><ele>1419.7</ele></trkpt>
      <trkpt lat="35.305173" lon="127.564477"><ele>1415.7</ele></trkpt>
      <trkpt lat="35.305568" lon="127.564815"><ele>1413.9</ele></trkpt>
      <trkpt lat="35.306048" lon="127.565379"><ele>1417.7</ele></trkpt>
      <trkpt lat="35.306413" lon="127.565978"><ele>1420.4</ele></trkpt>
      <trkpt lat="35.306618" lon="127.566452"><ele>1418.9</ele></trkpt>
      <trkpt lat="35.307163" lon="127.568041"><ele>1429.0</ele></trkpt>
      <trkpt lat="35.307493" lon="127.568320"><ele>1433.8</ele></trkpt>
      <trkpt lat="35.307680" lon="127.568693"><ele>1434.1</ele></trkpt>
      <trkpt lat="35.307903" lon="127.568896"><ele>1441.0</ele></trkpt>
      <trkpt lat="35.308251" lon="127.569019"><ele>1447.8</ele></trkpt>
      <trkpt lat="35.308944" lon="127.569474"><ele>1449.2</ele></trkpt>
      <trkpt lat="35.309590" lon="127.569722"><ele>1455.0</ele></trkpt>
      <trkpt lat="35.309897" lon="127.570096"><ele>1466.3</ele></trkpt>
      <trkpt lat="35.309984" lon="127.570386"><ele>1472.4</ele></trkpt>
      <trkpt lat="35.310156" lon="127.570501"><ele>1481.0</ele></trkpt>
      <trkpt lat="35.310603" lon="127.571220"><ele>1506.5</ele></trkpt>
      <trkpt lat="35.310865" lon="127.571423"><ele>1520.7</ele></trkpt>
      <trkpt lat="35.311021" lon="127.571851"><ele>1534.0</ele></trkpt>
      <trkpt lat="35.311184" lon="127.572143"><ele>1546.1</ele></trkpt>
      <trkpt lat="35.311334" lon="127.572288"><ele>1554.4</ele></trkpt>
      <trkpt lat="35.311703" lon="127.572296"><ele>1568.6</ele></trkpt>
      <trkpt lat="35.311969" lon="127.572396"><ele>1577.0</ele></trkpt>
      <trkpt lat="35.312173" lon="127.572379"><ele>1585.1</ele></trkpt>
      <trkpt lat="35.312435" lon="127.572263"><ele>1593.4</ele></trkpt>
      <trkpt lat="35.312720" lon="127.572323"><ele>1600.4</ele></trkpt>
      <trkpt lat="35.313342" lon="127.572204"><ele>1601.2</ele></trkpt>
      <trkpt lat="35.313544" lon="127.571993"><ele>1607.1</ele></trkpt>
      <trkpt lat="35.313916" lon="127.571317"><ele>1617.4</ele></trkpt>
      <trkpt lat="35.314052" lon="127.570935"><ele>1627.1</ele></trkpt>
      <trkpt lat="35.314305" lon="127.570529"><ele>1648.3</ele></trkpt>
      <trkpt lat="35.314706" lon="127.570272"><ele>1670.4</ele></trkpt>
      <trkpt lat="35.314915" lon="127.570258"><ele>1677.3</ele></trkpt>
      <trkpt lat="35.315307" lon="127.569971"><ele>1690.9</ele></trkpt>
      <trkpt lat="35.315509" lon="127.569945"><ele>1698.5</ele></trkpt>
      <trkpt lat="35.315969" lon="127.569616"><ele>1714.5</ele></trkpt>
      <trkpt lat="35.316690" lon="127.569391"><ele>1717.3</ele></trkpt>
      <trkpt lat="35.317213" lon="127.568683"><ele>1700.1</ele></trkpt>
      <trkpt lat="35.317732" lon="127.568301"><ele>1712.2</ele></trkpt>
      <trkpt lat="35.318308" lon="127.568241"><ele>1714.0</ele></trkpt>
      <trkpt lat="35.318990" lon="127.567757"><ele>1724.7</ele></trkpt>
      <trkpt lat="35.319268" lon="127.567832"><ele>1720.1</ele></trkpt>
      <trkpt lat="35.319432" lon="127.567753"><ele>1715.1</ele></trkpt>
      <trkpt lat="35.319617" lon="127.567774"><ele>1709.4</ele></trkpt>
      <trkpt lat="35.319802" lon="127.567985"><ele>1703.3</ele></trkpt>
      <trkpt lat="35.319791" lon="127.568087"><ele>1703.8</ele></trkpt>
      <trkpt lat="35.319970" lon="127.568208"><ele>1698.0</ele></trkpt>
      <trkpt lat="35.320003" lon="127.568328"><ele>1696.9</ele></trkpt>
      <trkpt lat="35.320171" lon="127.568573"><ele>1690.9</ele></trkpt>
      <trkpt lat="35.320247" lon="127.568586"><ele>1688.9</ele></trkpt>
      <trkpt lat="35.320385" lon="127.568466"><ele>1684.9</ele></trkpt>
      <trkpt lat="35.320619" lon="127.568559"><ele>1676.1</ele></trkpt>
      <trkpt lat="35.320740" lon="127.568441"><ele>1672.6</ele></trkpt>
      <trkpt lat="35.320837" lon="127.568538"><ele>1668.4</ele></trkpt>
      <trkpt lat="35.320942" lon="127.568538"><ele>1663.6</ele></trkpt>
      <trkpt lat="35.321091" lon="127.568724"><ele>1655.9</ele></trkpt>
      <trkpt lat="35.321124" lon="127.568862"><ele>1653.8</ele></trkpt>
      <trkpt lat="35.321078" lon="127.568928"><ele>1654.1</ele></trkpt>
      <trkpt lat="35.321183" lon="127.569168"><ele>1646.4</ele></trkpt>
      <trkpt lat="35.321156" lon="127.569352"><ele>1642.0</ele></trkpt>
      <trkpt lat="35.321306" lon="127.569514"><ele>1637.2</ele></trkpt>
      <trkpt lat="35.321354" lon="127.569830"><ele>1631.3</ele></trkpt>
      <trkpt lat="35.321450" lon="127.569967"><ele>1626.4</ele></trkpt>
      <trkpt lat="35.321444" lon="127.570163"><ele>1617.2</ele></trkpt>
      <trkpt lat="35.321730" lon="127.570482"><ele>1599.0</ele></trkpt>
      <trkpt lat="35.321718" lon="127.570574"><ele>1594.9</ele></trkpt>
      <trkpt lat="35.321829" lon="127.570665"><ele>1593.8</ele></trkpt>
      <trkpt lat="35.321789" lon="127.570801"><ele>1591.4</ele></trkpt>
      <trkpt lat="35.322000" lon="127.571094"><ele>1585.5</ele></trkpt>
      <trkpt lat="35.321932" lon="127.571212"><ele>1579.6</ele></trkpt>
      <trkpt lat="35.321980" lon="127.571276"><ele>1574.3</ele></trkpt>
      <trkpt lat="35.321931" lon="127.571363"><ele>1567.7</ele></trkpt>
      <trkpt lat="35.322074" lon="127.571508"><ele>1560.5</ele></trkpt>
      <trkpt lat="35.322008" lon="127.571625"><ele>1554.3</ele></trkpt>
      <trkpt lat="35.322016" lon="127.571807"><ele>1544.7</ele></trkpt>
      <trkpt lat="35.321885" lon="127.571857"><ele>1541.1</ele></trkpt>
      <trkpt lat="35.321802" lon="127.571955"><ele>1535.1</ele></trkpt>
      <trkpt lat="35.321693" lon="127.571967"><ele>1533.3</ele></trkpt>
      <trkpt lat="35.321551" lon="127.572083"><ele>1525.3</ele></trkpt>
      <trkpt lat="35.321457" lon="127.572252"><ele>1514.5</ele></trkpt>
      <trkpt lat="35.321752" lon="127.572727"><ele>1498.9</ele></trkpt>
      <trkpt lat="35.321743" lon="127.572875"><ele>1491.7</ele></trkpt>
      <trkpt lat="35.321658" lon="127.572945"><ele>1486.5</ele></trkpt>
      <trkpt lat="35.321605" lon="127.572931"><ele>1485.4</ele></trkpt>
      <trkpt lat="35.321574" lon="127.573010"><ele>1481.2</ele></trkpt>
      <trkpt lat="35.321712" lon="127.573041"><ele>1483.6</ele></trkpt>
      <trkpt lat="35.321737" lon="127.573223"><ele>1477.1</ele></trkpt>
      <trkpt lat="35.321805" lon="127.573331"><ele>1473.6</ele></trkpt>
      <trkpt lat="35.321961" lon="127.573367"><ele>1473.4</ele></trkpt>
      <trkpt lat="35.322321" lon="127.573213"><ele>1477.0</ele></trkpt>
      <trkpt lat="35.322713" lon="127.573207"><ele>1472.6</ele></trkpt>
      <trkpt lat="35.322819" lon="127.573468"><ele>1463.0</ele></trkpt>
      <trkpt lat="35.323008" lon="127.573628"><ele>1456.0</ele></trkpt>
      <trkpt lat="35.322979" lon="127.573803"><ele>1453.0</ele></trkpt>
      <trkpt lat="35.323129" lon="127.574095"><ele>1444.5</ele></trkpt>
      <trkpt lat="35.323250" lon="127.574105"><ele>1441.7</ele></trkpt>
      <trkpt lat="35.323535" lon="127.574440"><ele>1418.5</ele></trkpt>
      <trkpt lat="35.323593" lon="127.574448"><ele>1415.0</ele></trkpt>
      <trkpt lat="35.323602" lon="127.574563"><ele>1411.0</ele></trkpt>
      <trkpt lat="35.323715" lon="127.574747"><ele>1399.9</ele></trkpt>
      <trkpt lat="35.323691" lon="127.574911"><ele>1397.8</ele></trkpt>
      <trkpt lat="35.323837" lon="127.575168"><ele>1386.0</ele></trkpt>
      <trkpt lat="35.323875" lon="127.575436"><ele>1380.3</ele></trkpt>
      <trkpt lat="35.323981" lon="127.575467"><ele>1375.8</ele></trkpt>
      <trkpt lat="35.324066" lon="127.575658"><ele>1368.0</ele></trkpt>
      <trkpt lat="35.324182" lon="127.575656"><ele>1365.7</ele></trkpt>
      <trkpt lat="35.324310" lon="127.575836"><ele>1355.1</ele></trkpt>
      <trkpt lat="35.324234" lon="127.575948"><ele>1357.1</ele></trkpt>
      <trkpt lat="35.324270" lon="127.576116"><ele>1350.3</ele></trkpt>
      <trkpt lat="35.324676" lon="127.576323"><ele>1325.5</ele></trkpt>
      <trkpt lat="35.324832" lon="127.576242"><ele>1317.6</ele></trkpt>
      <trkpt lat="35.324899" lon="127.576275"><ele>1313.0</ele></trkpt>
      <trkpt lat="35.324981" lon="127.576197"><ele>1306.0</ele></trkpt>
      <trkpt lat="35.325027" lon="127.576035"><ele>1303.0</ele></trkpt>
      <trkpt lat="35.325134" lon="127.576096"><ele>1294.1</ele></trkpt>
      <trkpt lat="35.325110" lon="127.575955"><ele>1298.7</ele></trkpt>
      <trkpt lat="35.325236" lon="127.575850"><ele>1291.1</ele></trkpt>
      <trkpt lat="35.325289" lon="127.575902"><ele>1286.2</ele></trkpt>
      <trkpt lat="35.325508" lon="127.575837"><ele>1271.3</ele></trkpt>
      <trkpt lat="35.325773" lon="127.575985"><ele>1250.0</ele></trkpt>
      <trkpt lat="35.326059" lon="127.576003"><ele>1230.5</ele></trkpt>
      <trkpt lat="35.326408" lon="127.575883"><ele>1218.3</ele></trkpt>
      <trkpt lat="35.326521" lon="127.575748"><ele>1220.9</ele></trkpt>
      <trkpt lat="35.326555" lon="127.575821"><ele>1216.8</ele></trkpt>
      <trkpt lat="35.326621" lon="127.575672"><ele>1221.7</ele></trkpt>
      <trkpt lat="35.326736" lon="127.575652"><ele>1218.5</ele></trkpt>
      <trkpt lat="35.326786" lon="127.575712"><ele>1213.5</ele></trkpt>
      <trkpt lat="35.326737" lon="127.575808"><ele>1211.1</ele></trkpt>
      <trkpt lat="35.326757" lon="127.575961"><ele>1202.3</ele></trkpt>
      <trkpt lat="35.326905" lon="127.575934"><ele>1198.7</ele></trkpt>
      <trkpt lat="35.327015" lon="127.575980"><ele>1193.7</ele></trkpt>
      <trkpt lat="35.327472" lon="127.575571"><ele>1173.2</ele></trkpt>
      <trkpt lat="35.327546" lon="127.575681"><ele>1167.1</ele></trkpt>
      <trkpt lat="35.327677" lon="127.575639"><ele>1157.3</ele></trkpt>
      <trkpt lat="35.327824" lon="127.575710"><ele>1145.7</ele></trkpt>
      <trkpt lat="35.327864" lon="127.575655"><ele>1142.4</ele></trkpt>
      <trkpt lat="35.327985" lon="127.575637"><ele>1132.3</ele></trkpt>
      <trkpt lat="35.328036" lon="127.575696"><ele>1128.1</ele></trkpt>
      <trkpt lat="35.328136" lon="127.575570"><ele>1120.4</ele></trkpt>
      <trkpt lat="35.328251" lon="127.575610"><ele>1111.5</ele></trkpt>
      <trkpt lat="35.328322" lon="127.575482"><ele>1109.1</ele></trkpt>
      <trkpt lat="35.328437" lon="127.575479"><ele>1103.7</ele></trkpt>
      <trkpt lat="35.328481" lon="127.575393"><ele>1103.3</ele></trkpt>
      <trkpt lat="35.328527" lon="127.575434"><ele>1100.4</ele></trkpt>
      <trkpt lat="35.328724" lon="127.575676"><ele>1089.4</ele></trkpt>
      <trkpt lat="35.328862" lon="127.576190"><ele>1072.4</ele></trkpt>
      <trkpt lat="35.328845" lon="127.576408"><ele>1071.5</ele></trkpt>
      <trkpt lat="35.328987" lon="127.576618"><ele>1064.8</ele></trkpt>
      <trkpt lat="35.329004" lon="127.576775"><ele>1061.2</ele></trkpt>
      <trkpt lat="35.329112" lon="127.576904"><ele>1055.5</ele></trkpt>
      <trkpt lat="35.329176" lon="127.577263"><ele>1046.6</ele></trkpt>
      <trkpt lat="35.329356" lon="127.577673"><ele>1046.1</ele></trkpt>
      <trkpt lat="35.329299" lon="127.578038"><ele>1033.4</ele></trkpt>
      <trkpt lat="35.329210" lon="127.578014"><ele>1033.2</ele></trkpt>
      <trkpt lat="35.329151" lon="127.578097"><ele>1031.8</ele></trkpt>
      <trkpt lat="35.329257" lon="127.578373"><ele>1024.4</ele></trkpt>
      <trkpt lat="35.329420" lon="127.578446"><ele>1019.4</ele></trkpt>
      <trkpt lat="35.329477" lon="127.578655"><ele>1013.3</ele></trkpt>
      <trkpt lat="35.329422" lon="127.578832"><ele>1015.2</ele></trkpt>
      <trkpt lat="35.329514" lon="127.578850"><ele>1011.3</ele></trkpt>
      <trkpt lat="35.329662" lon="127.579140"><ele>1006.5</ele></trkpt>
      <trkpt lat="35.329899" lon="127.579237"><ele>998.1</ele></trkpt>
      <trkpt lat="35.329963" lon="127.579392"><ele>998.1</ele></trkpt>
      <trkpt lat="35.330133" lon="127.579422"><ele>990.3</ele></trkpt>
      <trkpt lat="35.330274" lon="127.579350"><ele>985.2</ele></trkpt>
      <trkpt lat="35.330823" lon="127.579685"><ele>968.7</ele></trkpt>
      <trkpt lat="35.331088" lon="127.579956"><ele>961.4</ele></trkpt>
      <trkpt lat="35.331476" lon="127.580243"><ele>953.9</ele></trkpt>
      <trkpt lat="35.331654" lon="127.580538"><ele>944.6</ele></trkpt>
      <trkpt lat="35.331731" lon="127.580814"><ele>938.0</ele></trkpt>
      <trkpt lat="35.331716" lon="127.581023"><ele>932.6</ele></trkpt>
      <trkpt lat="35.331887" lon="127.581258"><ele>928.1</ele></trkpt>
      <trkpt lat="35.332022" lon="127.581806"><ele>914.1</ele></trkpt>
      <trkpt lat="35.332030" lon="127.582037"><ele>908.9</ele></trkpt>
      <trkpt lat="35.332231" lon="127.582286"><ele>906.8</ele></trkpt>
      <trkpt lat="35.332286" lon="127.582498"><ele>908.4</ele></trkpt>
      <trkpt lat="35.332328" lon="127.582743"><ele>910.1</ele></trkpt>
      <trkpt lat="35.332336" lon="127.583507"><ele>889.2</ele></trkpt>
      <trkpt lat="35.332406" lon="127.583937"><ele>882.1</ele></trkpt>
      <trkpt lat="35.332497" lon="127.584043"><ele>883.1</ele></trkpt>
      <trkpt lat="35.332536" lon="127.584294"><ele>879.7</ele></trkpt>
      <trkpt lat="35.332498" lon="127.584587"><ele>867.9</ele></trkpt>
      <trkpt lat="35.332617" lon="127.584552"><ele>875.8</ele></trkpt>
      <trkpt lat="35.332676" lon="127.584832"><ele>869.8</ele></trkpt>
      <trkpt lat="35.332656" lon="127.584950"><ele>866.9</ele></trkpt>
      <trkpt lat="35.332824" lon="127.585080"><ele>872.8</ele></trkpt>
      <trkpt lat="35.332910" lon="127.585464"><ele>875.2</ele></trkpt>
      <trkpt lat="35.333045" lon="127.585609"><ele>879.2</ele></trkpt>
      <trkpt lat="35.333141" lon="127.585570"><ele>879.7</ele></trkpt>
      <trkpt lat="35.333275" lon="127.585672"><ele>875.7</ele></trkpt>
      <trkpt lat="35.333339" lon="127.585641"><ele>875.5</ele></trkpt>
      <trkpt lat="35.333422" lon="127.585729"><ele>868.1</ele></trkpt>
      <trkpt lat="35.333565" lon="127.585712"><ele>859.8</ele></trkpt>
      <trkpt lat="35.333868" lon="127.586010"><ele>832.0</ele></trkpt>
      <trkpt lat="35.334219" lon="127.586098"><ele>808.3</ele></trkpt>
      <trkpt lat="35.334427" lon="127.586205"><ele>795.3</ele></trkpt>
      <trkpt lat="35.334462" lon="127.586166"><ele>793.9</ele></trkpt>
      <trkpt lat="35.334596" lon="127.586319"><ele>788.2</ele></trkpt>
      <trkpt lat="35.334655" lon="127.586497"><ele>786.5</ele></trkpt>
      <trkpt lat="35.334814" lon="127.586543"><ele>782.6</ele></trkpt>
      <trkpt lat="35.334978" lon="127.586348"><ele>777.4</ele></trkpt>
      <trkpt lat="35.335195" lon="127.586348"><ele>771.0</ele></trkpt>
      <trkpt lat="35.335304" lon="127.586425"><ele>767.6</ele></trkpt>
      <trkpt lat="35.335621" lon="127.586889"><ele>758.0</ele></trkpt>
      <trkpt lat="35.335730" lon="127.587151"><ele>759.6</ele></trkpt>
      <trkpt lat="35.335900" lon="127.587946"><ele>763.6</ele></trkpt>
      <trkpt lat="35.336074" lon="127.587914"><ele>760.6</ele></trkpt>
      <trkpt lat="35.336168" lon="127.588115"><ele>757.8</ele></trkpt>
      <trkpt lat="35.336274" lon="127.588570"><ele>756.8</ele></trkpt>
      <trkpt lat="35.336441" lon="127.588686"><ele>753.8</ele></trkpt>
      <trkpt lat="35.336703" lon="127.588696"><ele>749.1</ele></trkpt>
      <trkpt lat="35.337640" lon="127.588555"><ele>739.4</ele></trkpt>
      <trkpt lat="35.338133" lon="127.588598"><ele>738.9</ele></trkpt>
      <trkpt lat="35.338407" lon="127.588567"><ele>734.6</ele></trkpt>
      <trkpt lat="35.338498" lon="127.588482"><ele>731.1</ele></trkpt>
      <trkpt lat="35.338890" lon="127.588468"><ele>728.5</ele></trkpt>
      <trkpt lat="35.339836" lon="127.588609"><ele>730.8</ele></trkpt>
      <trkpt lat="35.339929" lon="127.588563"><ele>730.3</ele></trkpt>
      <trkpt lat="35.340183" lon="127.588233"><ele>724.9</ele></trkpt>
      <trkpt lat="35.340443" lon="127.588243"><ele>724.3</ele></trkpt>
      <trkpt lat="35.340592" lon="127.588304"><ele>723.9</ele></trkpt>
      <trkpt lat="35.340730" lon="127.588122"><ele>718.9</ele></trkpt>
      <trkpt lat="35.341378" lon="127.588021"><ele>714.8</ele></trkpt>
      <trkpt lat="35.341477" lon="127.587871"><ele>713.1</ele></trkpt>
      <trkpt lat="35.341701" lon="127.587813"><ele>710.5</ele></trkpt>
      <trkpt lat="35.341846" lon="127.587370"><ele>710.1</ele></trkpt>
      <trkpt lat="35.342145" lon="127.587025"><ele>708.7</ele></trkpt>
      <trkpt lat="35.342647" lon="127.587077"><ele>699.3</ele></trkpt>
      <trkpt lat="35.342815" lon="127.587203"><ele>697.4</ele></trkpt>
      <trkpt lat="35.343440" lon="127.588393"><ele>691.8</ele></trkpt>
      <trkpt lat="35.343846" lon="127.588696"><ele>688.9</ele></trkpt>
      <trkpt lat="35.344073" lon="127.588732"><ele>686.1</ele></trkpt>
      <trkpt lat="35.344295" lon="127.588656"><ele>680.0</ele></trkpt>
      <trkpt lat="35.344432" lon="127.588523"><ele>677.4</ele></trkpt>
      <trkpt lat="35.344482" lon="127.588317"><ele>678.1</ele></trkpt>
      <trkpt lat="35.346678" lon="127.588352"><ele>664.2</ele></trkpt>
      <trkpt lat="35.347275" lon="127.587984"><ele>676.3</ele></trkpt>
      <trkpt lat="35.347668" lon="127.588010"><ele>670.9</ele></trkpt>
      <trkpt lat="35.347919" lon="127.587915"><ele>671.0</ele></trkpt>
      <trkpt lat="35.348689" lon="127.587812"><ele>664.3</ele></trkpt>
      <trkpt lat="35.348871" lon="127.587866"><ele>663.4</ele></trkpt>
      <trkpt lat="35.349071" lon="127.587789"><ele>664.4</ele></trkpt>
      <trkpt lat="35.349321" lon="127.588022"><ele>654.8</ele></trkpt>
      <trkpt lat="35.349838" lon="127.588287"><ele>642.7</ele></trkpt>
      <trkpt lat="35.350271" lon="127.588704"><ele>634.4</ele></trkpt>
      <trkpt lat="35.350468" lon="127.588745"><ele>634.8</ele></trkpt>
      <trkpt lat="35.350836" lon="127.588625"><ele>633.9</ele></trkpt>
      <trkpt lat="35.351072" lon="127.588625"><ele>632.1</ele></trkpt>
      <trkpt lat="35.352315" lon="127.588737"><ele>628.2</ele></trkpt>
      <trkpt lat="35.352748" lon="127.588989"><ele>623.2</ele></trkpt>
      <trkpt lat="35.352827" lon="127.588930"><ele>625.2</ele></trkpt>
      <trkpt lat="35.353008" lon="127.589085"><ele>623.5</ele></trkpt>
      <trkpt lat="35.353258" lon="127.589204"><ele>623.4</ele></trkpt>
      <trkpt lat="35.353946" lon="127.589306"><ele>622.2</ele></trkpt>
      <trkpt lat="35.354196" lon="127.589264"><ele>626.1</ele></trkpt>
      <trkpt lat="35.354675" lon="127.588960"><ele>621.6</ele></trkpt>
      <trkpt lat="35.354775" lon="127.589112"><ele>619.3</ele></trkpt>
      <trkpt lat="35.355060" lon="127.588902"><ele>613.9</ele></trkpt>
      <trkpt lat="35.355284" lon="127.588490"><ele>610.2</ele></trkpt>
      <trkpt lat="35.356187" lon="127.587632"><ele>604.9</ele></trkpt>
      <trkpt lat="35.356668" lon="127.587050"><ele>608.1</ele></trkpt>
      <trkpt lat="35.357241" lon="127.586482"><ele>599.0</ele></trkpt>
      <trkpt lat="35.357788" lon="127.586186"><ele>600.7</ele></trkpt>
      <trkpt lat="35.358246" lon="127.586099"><ele>594.4</ele></trkpt>
      <trkpt lat="35.358677" lon="127.585897"><ele>589.4</ele></trkpt>
      <trkpt lat="35.358943" lon="127.585948"><ele>588.3</ele></trkpt>
      <trkpt lat="35.359197" lon="127.585886"><ele>586.4</ele></trkpt>
      <trkpt lat="35.360909" lon="127.586088"><ele>573.8</ele></trkpt>
      <trkpt lat="35.361606" lon="127.585915"><ele>568.0</ele></trkpt>
      <trkpt lat="35.361662" lon="127.585748"><ele>561.0</ele></trkpt>
      <trkpt lat="35.361826" lon="127.585676"><ele>559.7</ele></trkpt>
      <trkpt lat="35.362083" lon="127.585768"><ele>566.6</ele></trkpt>
      <trkpt lat="35.362123" lon="127.586010"><ele>573.5</ele></trkpt>
      <trkpt lat="35.362087" lon="127.586619"><ele>588.5</ele></trkpt>
      <trkpt lat="35.362239" lon="127.587215"><ele>596.2</ele></trkpt>
      <trkpt lat="35.362563" lon="127.587463"><ele>592.8</ele></trkpt>
      <trkpt lat="35.362611" lon="127.587581"><ele>594.9</ele></trkpt>
      <trkpt lat="35.362614" lon="127.588013"><ele>598.2</ele></trkpt>
      <trkpt lat="35.362720" lon="127.588330"><ele>597.8</ele></trkpt>
      <trkpt lat="35.362666" lon="127.588863"><ele>602.9</ele></trkpt>
      <trkpt lat="35.362669" lon="127.589507"><ele>612.2</ele></trkpt>
      <trkpt lat="35.362872" lon="127.590781"><ele>634.0</ele></trkpt>
      <trkpt lat="35.362820" lon="127.591073"><ele>637.7</ele></trkpt>
      <trkpt lat="35.362912" lon="127.591489"><ele>643.7</ele></trkpt>
      <trkpt lat="35.362903" lon="127.591591"><ele>643.2</ele></trkpt>
      <trkpt lat="35.362716" lon="127.591836"><ele>641.0</ele></trkpt>
      <trkpt lat="35.362957" lon="127.592378"><ele>651.6</ele></trkpt>
      <trkpt lat="35.363059" lon="127.592425"><ele>654.3</ele></trkpt>
      <trkpt lat="35.363184" lon="127.592661"><ele>660.4</ele></trkpt>
      <trkpt lat="35.363204" lon="127.592887"><ele>663.1</ele></trkpt>
      <trkpt lat="35.363335" lon="127.593003"><ele>667.5</ele></trkpt>
      <trkpt lat="35.363406" lon="127.593218"><ele>673.0</ele></trkpt>
      <trkpt lat="35.363531" lon="127.593401"><ele>679.4</ele></trkpt>
      <trkpt lat="35.363623" lon="127.593744"><ele>689.4</ele></trkpt>
      <trkpt lat="35.363712" lon="127.594370"><ele>701.5</ele></trkpt>
      <trkpt lat="35.364055" lon="127.594818"><ele>723.1</ele></trkpt>
      <trkpt lat="35.364076" lon="127.595283"><ele>739.3</ele></trkpt>
      <trkpt lat="35.364150" lon="127.595547"><ele>753.7</ele></trkpt>
      <trkpt lat="35.364409" lon="127.595719"><ele>766.8</ele></trkpt>
      <trkpt lat="35.364455" lon="127.596108"><ele>775.8</ele></trkpt>
      <trkpt lat="35.364356" lon="127.596451"><ele>778.8</ele></trkpt>
      <trkpt lat="35.364366" lon="127.596711"><ele>786.6</ele></trkpt>
      <trkpt lat="35.364460" lon="127.597138"><ele>802.8</ele></trkpt>
      <trkpt lat="35.364775" lon="127.597846"><ele>812.7</ele></trkpt>
      <trkpt lat="35.364709" lon="127.598412"><ele>838.8</ele></trkpt>
      <trkpt lat="35.364796" lon="127.598739"><ele>854.9</ele></trkpt>
      <trkpt lat="35.364745" lon="127.598801"><ele>860.3</ele></trkpt>
      <trkpt lat="35.364696" lon="127.599079"><ele>869.2</ele></trkpt>
      <trkpt lat="35.364243" lon="127.600021"><ele>893.3</ele></trkpt>
      <trkpt lat="35.364224" lon="127.600163"><ele>898.0</ele></trkpt>
      <trkpt lat="35.363978" lon="127.600606"><ele>914.2</ele></trkpt>
      <trkpt lat="35.364025" lon="127.601559"><ele>947.7</ele></trkpt>
      <trkpt lat="35.364160" lon="127.602355"><ele>983.8</ele></trkpt>
      <trkpt lat="35.364162" lon="127.602626"><ele>987.3</ele></trkpt>
      <trkpt lat="35.363918" lon="127.603094"><ele>995.5</ele></trkpt>
      <trkpt lat="35.363942" lon="127.603921"><ele>1022.9</ele></trkpt>
      <trkpt lat="35.363803" lon="127.604063"><ele>1034.1</ele></trkpt>
      <trkpt lat="35.363591" lon="127.604164"><ele>1042.8</ele></trkpt>
      <trkpt lat="35.363434" lon="127.604783"><ele>1064.3</ele></trkpt>
      <trkpt lat="35.363453" lon="127.605010"><ele>1070.0</ele></trkpt>
      <trkpt lat="35.363506" lon="127.605116"><ele>1072.6</ele></trkpt>
      <trkpt lat="35.363505" lon="127.605686"><ele>1094.2</ele></trkpt>
      <trkpt lat="35.363151" lon="127.605958"><ele>1108.7</ele></trkpt>
      <trkpt lat="35.363427" lon="127.606409"><ele>1136.3</ele></trkpt>
      <trkpt lat="35.363439" lon="127.606653"><ele>1144.3</ele></trkpt>
      <trkpt lat="35.363526" lon="127.606807"><ele>1149.9</ele></trkpt>
      <trkpt lat="35.363491" lon="127.606976"><ele>1154.4</ele></trkpt>
      <trkpt lat="35.363574" lon="127.607057"><ele>1156.4</ele></trkpt>
      <trkpt lat="35.363632" lon="127.607353"><ele>1158.1</ele></trkpt>
      <trkpt lat="35.363837" lon="127.607832"><ele>1160.7</ele></trkpt>
      <trkpt lat="35.363916" lon="127.607978"><ele>1163.4</ele></trkpt>
      <trkpt lat="35.364001" lon="127.607993"><ele>1167.3</ele></trkpt>
      <trkpt lat="35.364306" lon="127.608305"><ele>1188.6</ele></trkpt>
      <trkpt lat="35.364412" lon="127.608650"><ele>1199.9</ele></trkpt>
      <trkpt lat="35.364643" lon="127.608767"><ele>1203.3</ele></trkpt>
      <trkpt lat="35.364689" lon="127.608912"><ele>1203.0</ele></trkpt>
      <trkpt lat="35.364635" lon="127.608965"><ele>1201.0</ele></trkpt>
      <trkpt lat="35.364643" lon="127.609028"><ele>1200.0</ele></trkpt>
      <trkpt lat="35.364783" lon="127.609118"><ele>1204.3</ele></trkpt>
      <trkpt lat="35.364870" lon="127.609248"><ele>1210.4</ele></trkpt>
      <trkpt lat="35.364888" lon="127.609492"><ele>1215.1</ele></trkpt>
      <trkpt lat="35.364772" lon="127.609607"><ele>1207.9</ele></trkpt>
      <trkpt lat="35.364877" lon="127.609766"><ele>1220.9</ele></trkpt>
      <trkpt lat="35.364954" lon="127.609766"><ele>1226.9</ele></trkpt>
      <trkpt lat="35.364886" lon="127.609626"><ele>1218.2</ele></trkpt>
      <trkpt lat="35.365301" lon="127.609983"><ele>1245.9</ele></trkpt>
      <trkpt lat="35.365715" lon="127.610130"><ele>1257.5</ele></trkpt>
      <trkpt lat="35.366348" lon="127.610565"><ele>1274.0</ele></trkpt>
      <trkpt lat="35.366699" lon="127.610748"><ele>1273.8</ele></trkpt>
      <trkpt lat="35.366901" lon="127.611068"><ele>1265.2</ele></trkpt>
      <trkpt lat="35.367366" lon="127.611602"><ele>1246.9</ele></trkpt>
      <trkpt lat="35.367683" lon="127.611869"><ele>1243.5</ele></trkpt>
      <trkpt lat="35.368064" lon="127.612464"><ele>1220.9</ele></trkpt>
      <trkpt lat="35.368618" lon="127.613052"><ele>1225.1</ele></trkpt>
      <trkpt lat="35.368831" lon="127.613418"><ele>1229.8</ele></trkpt>
      <trkpt lat="35.368999" lon="127.613929"><ele>1228.9</ele></trkpt>
      <trkpt lat="35.369167" lon="127.615135"><ele>1201.6</ele></trkpt>
      <trkpt lat="35.369365" lon="127.615501"><ele>1194.5</ele></trkpt>
      <trkpt lat="35.369716" lon="127.615982"><ele>1183.3</ele></trkpt>
      <trkpt lat="35.369949" lon="127.616798"><ele>1158.3</ele></trkpt>
      <trkpt lat="35.370098" lon="127.617103"><ele>1151.0</ele></trkpt>
      <trkpt lat="35.370483" lon="127.618286"><ele>1123.0</ele></trkpt>
      <trkpt lat="35.370651" lon="127.618515"><ele>1123.8</ele></trkpt>
      <trkpt lat="35.370765" lon="127.619018"><ele>1118.4</ele></trkpt>
      <trkpt lat="35.371436" lon="127.620029"><ele>1118.5</ele></trkpt>
      <trkpt lat="35.371308" lon="127.620127"><ele>1115.1</ele></trkpt>
      <trkpt lat="35.371282" lon="127.620264"><ele>1114.9</ele></trkpt>
      <trkpt lat="35.371345" lon="127.620331"><ele>1118.6</ele></trkpt>
      <trkpt lat="35.371516" lon="127.620354"><ele>1124.5</ele></trkpt>
      <trkpt lat="35.371631" lon="127.620468"><ele>1129.0</ele></trkpt>
      <trkpt lat="35.371669" lon="127.620540"><ele>1130.9</ele></trkpt>
      <trkpt lat="35.371637" lon="127.620676"><ele>1131.8</ele></trkpt>
      <trkpt lat="35.371897" lon="127.620875"><ele>1146.8</ele></trkpt>
      <trkpt lat="35.371982" lon="127.621063"><ele>1155.6</ele></trkpt>
      <trkpt lat="35.371939" lon="127.621203"><ele>1162.1</ele></trkpt>
      <trkpt lat="35.371997" lon="127.621413"><ele>1170.2</ele></trkpt>
      <trkpt lat="35.371962" lon="127.621512"><ele>1172.9</ele></trkpt>
      <trkpt lat="35.372184" lon="127.621718"><ele>1173.9</ele></trkpt>
      <trkpt lat="35.372296" lon="127.622037"><ele>1176.4</ele></trkpt>
      <trkpt lat="35.372451" lon="127.622192"><ele>1177.0</ele></trkpt>
      <trkpt lat="35.373020" lon="127.622367"><ele>1182.2</ele></trkpt>
      <trkpt lat="35.373182" lon="127.622493"><ele>1183.0</ele></trkpt>
      <trkpt lat="35.373509" lon="127.622583"><ele>1175.5</ele></trkpt>
      <trkpt lat="35.373641" lon="127.622799"><ele>1174.9</ele></trkpt>
      <trkpt lat="35.374081" lon="127.622785"><ele>1159.8</ele></trkpt>
      <trkpt lat="35.374243" lon="127.623059"><ele>1157.0</ele></trkpt>
      <trkpt lat="35.374573" lon="127.623263"><ele>1147.3</ele></trkpt>
      <trkpt lat="35.374853" lon="127.623205"><ele>1148.5</ele></trkpt>
      <trkpt lat="35.374980" lon="127.623456"><ele>1152.2</ele></trkpt>
      <trkpt lat="35.374992" lon="127.623750"><ele>1154.0</ele></trkpt>
      <trkpt lat="35.375030" lon="127.623834"><ele>1156.0</ele></trkpt>
      <trkpt lat="35.375174" lon="127.623882"><ele>1165.2</ele></trkpt>
      <trkpt lat="35.375286" lon="127.624035"><ele>1171.3</ele></trkpt>
      <trkpt lat="35.375387" lon="127.624268"><ele>1172.3</ele></trkpt>
      <trkpt lat="35.375372" lon="127.624408"><ele>1168.3</ele></trkpt>
      <trkpt lat="35.375435" lon="127.624405"><ele>1171.9</ele></trkpt>
      <trkpt lat="35.375529" lon="127.624561"><ele>1173.6</ele></trkpt>
      <trkpt lat="35.375553" lon="127.624792"><ele>1170.1</ele></trkpt>
      <trkpt lat="35.375518" lon="127.624934"><ele>1166.5</ele></trkpt>
      <trkpt lat="35.375636" lon="127.625001"><ele>1172.4</ele></trkpt>
      <trkpt lat="35.375642" lon="127.625153"><ele>1173.9</ele></trkpt>
      <trkpt lat="35.375551" lon="127.625475"><ele>1168.8</ele></trkpt>
      <trkpt lat="35.375347" lon="127.625685"><ele>1163.6</ele></trkpt>
      <trkpt lat="35.375262" lon="127.625661"><ele>1158.8</ele></trkpt>
      <trkpt lat="35.375084" lon="127.626534"><ele>1156.8</ele></trkpt>
      <trkpt lat="35.375172" lon="127.626731"><ele>1164.5</ele></trkpt>
      <trkpt lat="35.375409" lon="127.626894"><ele>1183.7</ele></trkpt>
      <trkpt lat="35.375338" lon="127.626996"><ele>1175.4</ele></trkpt>
      <trkpt lat="35.375382" lon="127.627037"><ele>1178.4</ele></trkpt>
      <trkpt lat="35.375344" lon="127.627168"><ele>1171.8</ele></trkpt>
      <trkpt lat="35.375253" lon="127.627171"><ele>1164.4</ele></trkpt>
      <trkpt lat="35.375173" lon="127.627297"><ele>1156.8</ele></trkpt>
      <trkpt lat="35.375211" lon="127.627563"><ele>1154.7</ele></trkpt>
      <trkpt lat="35.375169" lon="127.627853"><ele>1149.2</ele></trkpt>
      <trkpt lat="35.375833" lon="127.627815"><ele>1169.7</ele></trkpt>
      <trkpt lat="35.376020" lon="127.627935"><ele>1171.9</ele></trkpt>
      <trkpt lat="35.376165" lon="127.628169"><ele>1165.7</ele></trkpt>
      <trkpt lat="35.376570" lon="127.628356"><ele>1173.0</ele></trkpt>
      <trkpt lat="35.376754" lon="127.628627"><ele>1165.3</ele></trkpt>
      <trkpt lat="35.376931" lon="127.628775"><ele>1164.6</ele></trkpt>
      <trkpt lat="35.377015" lon="127.628717"><ele>1165.4</ele></trkpt>
      <trkpt lat="35.377084" lon="127.628759"><ele>1164.4</ele></trkpt>
      <trkpt lat="35.377128" lon="127.628439"><ele>1167.8</ele></trkpt>
      <trkpt lat="35.377173" lon="127.628380"><ele>1167.2</ele></trkpt>
      <trkpt lat="35.377491" lon="127.628246"><ele>1151.2</ele></trkpt>
      <trkpt lat="35.377620" lon="127.628332"><ele>1142.8</ele></trkpt>
      <trkpt lat="35.377698" lon="127.628329"><ele>1137.5</ele></trkpt>
      <trkpt lat="35.377773" lon="127.628248"><ele>1133.5</ele></trkpt>
      <trkpt lat="35.377930" lon="127.628233"><ele>1126.6</ele></trkpt>
      <trkpt lat="35.378586" lon="127.628396"><ele>1102.0</ele></trkpt>
      <trkpt lat="35.379048" lon="127.628396"><ele>1093.8</ele></trkpt>
      <trkpt lat="35.379182" lon="127.628467"><ele>1083.9</ele></trkpt>
      <trkpt lat="35.379402" lon="127.628426"><ele>1080.2</ele></trkpt>
      <trkpt lat="35.379546" lon="127.628324"><ele>1082.4</ele></trkpt>
      <trkpt lat="35.379731" lon="127.628318"><ele>1080.8</ele></trkpt>
      <trkpt lat="35.380010" lon="127.628528"><ele>1066.3</ele></trkpt>
      <trkpt lat="35.380106" lon="127.628416"><ele>1070.7</ele></trkpt>
      <trkpt lat="35.380387" lon="127.628495"><ele>1059.5</ele></trkpt>
      <trkpt lat="35.380492" lon="127.628476"><ele>1057.6</ele></trkpt>
      <trkpt lat="35.380549" lon="127.628641"><ele>1046.9</ele></trkpt>
      <trkpt lat="35.380704" lon="127.628779"><ele>1040.2</ele></trkpt>
      <trkpt lat="35.380976" lon="127.628836"><ele>1035.7</ele></trkpt>
      <trkpt lat="35.381031" lon="127.628903"><ele>1032.0</ele></trkpt>
      <trkpt lat="35.380943" lon="127.629303"><ele>1009.1</ele></trkpt>
      <trkpt lat="35.381114" lon="127.629642"><ele>987.3</ele></trkpt>
      <trkpt lat="35.381064" lon="127.629884"><ele>978.0</ele></trkpt>
      <trkpt lat="35.381437" lon="127.630269"><ele>960.3</ele></trkpt>
      <trkpt lat="35.381608" lon="127.630217"><ele>958.1</ele></trkpt>
      <trkpt lat="35.381776" lon="127.630341"><ele>948.8</ele></trkpt>
      <trkpt lat="35.382081" lon="127.630397"><ele>940.0</ele></trkpt>
      <trkpt lat="35.382308" lon="127.630592"><ele>930.9</ele></trkpt>
      <trkpt lat="35.382643" lon="127.630567"><ele>927.4</ele></trkpt>
      <trkpt lat="35.382869" lon="127.630623"><ele>919.0</ele></trkpt>
      <trkpt lat="35.383191" lon="127.630936"><ele>896.3</ele></trkpt>
      <trkpt lat="35.383333" lon="127.630905"><ele>892.4</ele></trkpt>
      <trkpt lat="35.383651" lon="127.631085"><ele>880.2</ele></trkpt>
      <trkpt lat="35.383752" lon="127.631249"><ele>874.3</ele></trkpt>
      <trkpt lat="35.384003" lon="127.631373"><ele>867.3</ele></trkpt>
      <trkpt lat="35.384192" lon="127.631748"><ele>855.5</ele></trkpt>
      <trkpt lat="35.384380" lon="127.631809"><ele>855.8</ele></trkpt>
      <trkpt lat="35.384493" lon="127.632056"><ele>846.9</ele></trkpt>
      <trkpt lat="35.384656" lon="127.632164"><ele>845.0</ele></trkpt>
      <trkpt lat="35.384753" lon="127.632538"><ele>830.1</ele></trkpt>
      <trkpt lat="35.385087" lon="127.632800"><ele>831.5</ele></trkpt>
      <trkpt lat="35.385146" lon="127.632970"><ele>825.2</ele></trkpt>
      <trkpt lat="35.385087" lon="127.633109"><ele>817.5</ele></trkpt>
      <trkpt lat="35.385230" lon="127.633422"><ele>804.3</ele></trkpt>
      <trkpt lat="35.385335" lon="127.633458"><ele>803.0</ele></trkpt>
      <trkpt lat="35.385506" lon="127.633668"><ele>791.2</ele></trkpt>
      <trkpt lat="35.386302" lon="127.634012"><ele>768.8</ele></trkpt>
      <trkpt lat="35.386565" lon="127.634058"><ele>761.4</ele></trkpt>
      <trkpt lat="35.386900" lon="127.634254"><ele>748.5</ele></trkpt>
      <trkpt lat="35.387172" lon="127.634285"><ele>742.8</ele></trkpt>
      <trkpt lat="35.387361" lon="127.634408"><ele>737.8</ele></trkpt>
      <trkpt lat="35.387650" lon="127.634485"><ele>730.8</ele></trkpt>
      <trkpt lat="35.387853" lon="127.634423"><ele>727.7</ele></trkpt>
      <trkpt lat="35.388158" lon="127.634659"><ele>717.8</ele></trkpt>
      <trkpt lat="35.388379" lon="127.634700"><ele>715.2</ele></trkpt>
      <trkpt lat="35.388629" lon="127.634880"><ele>710.8</ele></trkpt>
      <trkpt lat="35.389286" lon="127.635212"><ele>691.4</ele></trkpt>
      <trkpt lat="35.389588" lon="127.635287"><ele>685.8</ele></trkpt>
      <trkpt lat="35.390035" lon="127.635563"><ele>671.1</ele></trkpt>
      <trkpt lat="35.390374" lon="127.635920"><ele>659.2</ele></trkpt>
      <trkpt lat="35.390721" lon="127.636164"><ele>651.0</ele></trkpt>
      <trkpt lat="35.391102" lon="127.636273"><ele>645.3</ele></trkpt>
      <trkpt lat="35.391525" lon="127.636566"><ele>631.7</ele></trkpt>
      <trkpt lat="35.391982" lon="127.637103"><ele>608.5</ele></trkpt>
      <trkpt lat="35.392051" lon="127.637268"><ele>602.8</ele></trkpt>
      <trkpt lat="35.392485" lon="127.637695"><ele>592.8</ele></trkpt>
      <trkpt lat="35.392750" lon="127.638238"><ele>588.1</ele></trkpt>
      <trkpt lat="35.393026" lon="127.638506"><ele>573.9</ele></trkpt>
      <trkpt lat="35.393169" lon="127.638559"><ele>569.3</ele></trkpt>
      <trkpt lat="35.393524" lon="127.638847"><ele>560.8</ele></trkpt>
      <trkpt lat="35.393886" lon="127.639425"><ele>549.2</ele></trkpt>
      <trkpt lat="35.393981" lon="127.639798"><ele>545.3</ele></trkpt>
      <trkpt lat="35.394136" lon="127.640133"><ele>533.9</ele></trkpt>
      <trkpt lat="35.394294" lon="127.640351"><ele>528.3</ele></trkpt>
      <trkpt lat="35.394888" lon="127.640869"><ele>517.6</ele></trkpt>
      <trkpt lat="35.395333" lon="127.641389"><ele>512.6</ele></trkpt>
      <trkpt lat="35.395525" lon="127.641767"><ele>506.0</ele></trkpt>
      <trkpt lat="35.395836" lon="127.642598"><ele>483.5</ele></trkpt>
      <trkpt lat="35.396032" lon="127.642787"><ele>478.2</ele></trkpt>
      <trkpt lat="35.396100" lon="127.643048"><ele>470.3</ele></trkpt>
      <trkpt lat="35.396266" lon="127.643264"><ele>468.5</ele></trkpt>
      <trkpt lat="35.396301" lon="127.643615"><ele>464.0</ele></trkpt>
      <trkpt lat="35.396617" lon="127.644233"><ele>458.4</ele></trkpt>
      <trkpt lat="35.396900" lon="127.644096"><ele>451.2</ele></trkpt>
      <trkpt lat="35.397201" lon="127.644203"><ele>447.5</ele></trkpt>
      <trkpt lat="35.397617" lon="127.644149"><ele>455.6</ele></trkpt>
      <trkpt lat="35.397923" lon="127.644488"><ele>452.9</ele></trkpt>
      <trkpt lat="35.397869" lon="127.644972"><ele>440.1</ele></trkpt>
      <trkpt lat="35.397968" lon="127.645217"><ele>439.6</ele></trkpt>
      <trkpt lat="35.398334" lon="127.645683"><ele>436.9</ele></trkpt>
      <trkpt lat="35.398998" lon="127.646865"><ele>421.6</ele></trkpt>
      <trkpt lat="35.399017" lon="127.647201"><ele>416.3</ele></trkpt>
      <trkpt lat="35.399215" lon="127.647880"><ele>406.9</ele></trkpt>
      <trkpt lat="35.399583" lon="127.648633"><ele>394.7</ele></trkpt>
      <trkpt lat="35.399898" lon="127.648933"><ele>386.5</ele></trkpt>
      <trkpt lat="35.400088" lon="127.648915"><ele>391.5</ele></trkpt>
      <trkpt lat="35.400039" lon="127.649204"><ele>383.5</ele></trkpt>
      <trkpt lat="35.399860" lon="127.649569"><ele>376.8</ele></trkpt>
      <trkpt lat="35.399560" lon="127.649544"><ele>374.2</ele></trkpt>
      <trkpt lat="35.399435" lon="127.649424"><ele>375.2</ele></trkpt>
      <trkpt lat="35.399244" lon="127.649566"><ele>370.8</ele></trkpt>
      <trkpt lat="35.399163" lon="127.649734"><ele>367.7</ele></trkpt>
      <trkpt lat="35.398909" lon="127.649758"><ele>365.5</ele></trkpt>
      <trkpt lat="35.398882" lon="127.649845"><ele>363.8</ele></trkpt>
      <trkpt lat="35.398968" lon="127.650049"><ele>360.0</ele></trkpt>
      <trkpt lat="35.399017" lon="127.650373"><ele>354.5</ele></trkpt>
      <trkpt lat="35.398916" lon="127.650652"><ele>350.1</ele></trkpt>
      <trkpt lat="35.398712" lon="127.651741"><ele>352.3</ele></trkpt>
      <trkpt lat="35.398426" lon="127.651826"><ele>363.2</ele></trkpt>
      <trkpt lat="35.398166" lon="127.652430"><ele>370.8</ele></trkpt>
      <trkpt lat="35.398118" lon="127.652687"><ele>370.8</ele></trkpt>
      <trkpt lat="35.397788" lon="127.652837"><ele>369.8</ele></trkpt>
      <trkpt lat="35.397523" lon="127.653100"><ele>362.7</ele></trkpt>
      <trkpt lat="35.397370" lon="127.653163"><ele>361.7</ele></trkpt>
      <trkpt lat="35.397264" lon="127.653396"><ele>355.4</ele></trkpt>
      <trkpt lat="35.397225" lon="127.653902"><ele>345.8</ele></trkpt>
      <trkpt lat="35.397006" lon="127.654164"><ele>343.4</ele></trkpt>
      <trkpt lat="35.396905" lon="127.654465"><ele>341.2</ele></trkpt>
      <trkpt lat="35.396476" lon="127.654685"><ele>339.1</ele></trkpt>
      <trkpt lat="35.396373" lon="127.654630"><ele>339.9</ele></trkpt>
      <trkpt lat="35.396309" lon="127.654453"><ele>343.5</ele></trkpt>
      <trkpt lat="35.396028" lon="127.654432"><ele>343.7</ele></trkpt>
      <trkpt lat="35.395960" lon="127.654287"><ele>345.8</ele></trkpt>
      <trkpt lat="35.395904" lon="127.654265"><ele>346.4</ele></trkpt>
      <trkpt lat="35.395654" lon="127.654280"><ele>348.4</ele></trkpt>
      <trkpt lat="35.395197" lon="127.653946"><ele>361.8</ele></trkpt>
      <trkpt lat="35.394818" lon="127.653782"><ele>369.0</ele></trkpt>
      <trkpt lat="35.394737" lon="127.653688"><ele>371.1</ele></trkpt>
      <trkpt lat="35.394507" lon="127.653069"><ele>388.0</ele></trkpt>
      <trkpt lat="35.394354" lon="127.652943"><ele>391.0</ele></trkpt>
      <trkpt lat="35.394301" lon="127.652817"><ele>393.3</ele></trkpt>
      <trkpt lat="35.394247" lon="127.652441"><ele>400.3</ele></trkpt>
      <trkpt lat="35.394064" lon="127.652113"><ele>405.8</ele></trkpt>
      <trkpt lat="35.393975" lon="127.651815"><ele>411.4</ele></trkpt>
      <trkpt lat="35.393945" lon="127.651475"><ele>420.3</ele></trkpt>
      <trkpt lat="35.393855" lon="127.651166"><ele>429.9</ele></trkpt>
      <trkpt lat="35.393910" lon="127.650783"><ele>437.4</ele></trkpt>
      <trkpt lat="35.393891" lon="127.650612"><ele>441.6</ele></trkpt>
      <trkpt lat="35.393772" lon="127.650431"><ele>449.3</ele></trkpt>
      <trkpt lat="35.393699" lon="127.649881"><ele>466.1</ele></trkpt>
      <trkpt lat="35.393706" lon="127.649535"><ele>474.3</ele></trkpt>
      <trkpt lat="35.393640" lon="127.649324"><ele>481.2</ele></trkpt>
      <trkpt lat="35.393513" lon="127.649180"><ele>487.8</ele></trkpt>
      <trkpt lat="35.393389" lon="127.649099"><ele>492.1</ele></trkpt>
      <trkpt lat="35.393289" lon="127.649115"><ele>494.3</ele></trkpt>
      <trkpt lat="35.393200" lon="127.649279"><ele>493.6</ele></trkpt>
      <trkpt lat="35.392595" lon="127.650012"><ele>490.1</ele></trkpt>
      <trkpt lat="35.392281" lon="127.650143"><ele>486.0</ele></trkpt>
      <trkpt lat="35.391784" lon="127.650789"><ele>472.3</ele></trkpt>
      <trkpt lat="35.391741" lon="127.651122"><ele>463.7</ele></trkpt>
      <trkpt lat="35.391762" lon="127.651395"><ele>456.4</ele></trkpt>
      <trkpt lat="35.391962" lon="127.651903"><ele>441.2</ele></trkpt>
      <trkpt lat="35.391840" lon="127.652354"><ele>429.4</ele></trkpt>
      <trkpt lat="35.391726" lon="127.652561"><ele>425.1</ele></trkpt>
      <trkpt lat="35.391962" lon="127.653150"><ele>412.1</ele></trkpt>
      <trkpt lat="35.391982" lon="127.653306"><ele>409.3</ele></trkpt>
      <trkpt lat="35.391941" lon="127.653466"><ele>407.6</ele></trkpt>
      <trkpt lat="35.391605" lon="127.653700"><ele>398.7</ele></trkpt>
      <trkpt lat="35.391589" lon="127.653756"><ele>396.2</ele></trkpt>
      <trkpt lat="35.391777" lon="127.654217"><ele>389.7</ele></trkpt>
      <trkpt lat="35.391910" lon="127.654836"><ele>374.8</ele></trkpt>
      <trkpt lat="35.391784" lon="127.655163"><ele>364.8</ele></trkpt>
      <trkpt lat="35.391571" lon="127.655238"><ele>360.7</ele></trkpt>
      <trkpt lat="35.391441" lon="127.655522"><ele>355.4</ele></trkpt>
      <trkpt lat="35.391522" lon="127.655988"><ele>347.8</ele></trkpt>
      <trkpt lat="35.391431" lon="127.656258"><ele>342.2</ele></trkpt>
      <trkpt lat="35.391392" lon="127.656566"><ele>335.2</ele></trkpt>
      <trkpt lat="35.391389" lon="127.656898"><ele>330.5</ele></trkpt>
      <trkpt lat="35.391447" lon="127.657046"><ele>328.7</ele></trkpt>
      <trkpt lat="35.391263" lon="127.657295"><ele>324.2</ele></trkpt>
      <trkpt lat="35.390899" lon="127.657614"><ele>321.8</ele></trkpt>
      <trkpt lat="35.390805" lon="127.658235"><ele>314.0</ele></trkpt>
      <trkpt lat="35.390597" lon="127.658518"><ele>305.0</ele></trkpt>
      <trkpt lat="35.390150" lon="127.658734"><ele>304.6</ele></trkpt>
      <trkpt lat="35.389985" lon="127.658875"><ele>304.6</ele></trkpt>
      <trkpt lat="35.389545" lon="127.658981"><ele>306.1</ele></trkpt>
      <trkpt lat="35.389802" lon="127.659610"><ele>295.9</ele></trkpt>
      <trkpt lat="35.390043" lon="127.659959"><ele>289.7</ele></trkpt>
      <trkpt lat="35.390111" lon="127.660492"><ele>289.5</ele></trkpt>
      <trkpt lat="35.390468" lon="127.660677"><ele>291.1</ele></trkpt>
      <trkpt lat="35.390552" lon="127.661126"><ele>300.2</ele></trkpt>
      <trkpt lat="35.390633" lon="127.661251"><ele>302.2</ele></trkpt>
      <trkpt lat="35.390640" lon="127.662192"><ele>321.5</ele></trkpt>
      <trkpt lat="35.390491" lon="127.662359"><ele>325.7</ele></trkpt>
      <trkpt lat="35.390515" lon="127.662715"><ele>332.9</ele></trkpt>
      <trkpt lat="35.390401" lon="127.662935"><ele>336.5</ele></trkpt>
      <trkpt lat="35.390296" lon="127.662976"><ele>336.9</ele></trkpt>
      <trkpt lat="35.390082" lon="127.663253"><ele>342.8</ele></trkpt>
      <trkpt lat="35.390167" lon="127.663524"><ele>348.9</ele></trkpt>
      <trkpt lat="35.390170" lon="127.664407"><ele>360.9</ele></trkpt>
      <trkpt lat="35.390037" lon="127.664652"><ele>367.6</ele></trkpt>
      <trkpt lat="35.389977" lon="127.664949"><ele>373.8</ele></trkpt>
      <trkpt lat="35.390040" lon="127.665310"><ele>381.2</ele></trkpt>
      <trkpt lat="35.390207" lon="127.665532"><ele>385.4</ele></trkpt>
      <trkpt lat="35.390210" lon="127.665880"><ele>391.5</ele></trkpt>
      <trkpt lat="35.390290" lon="127.666420"><ele>396.7</ele></trkpt>
      <trkpt lat="35.390420" lon="127.666740"><ele>403.2</ele></trkpt>
      <trkpt lat="35.390410" lon="127.667050"><ele>410.3</ele></trkpt>
      <trkpt lat="35.389960" lon="127.668170"><ele>439.0</ele></trkpt>
      <trkpt lat="35.389770" lon="127.668760"><ele>451.4</ele></trkpt>
      <trkpt lat="35.389453" lon="127.668928"><ele>461.6</ele></trkpt>
      <trkpt lat="35.389354" lon="127.669102"><ele>468.4</ele></trkpt>
      <trkpt lat="35.389196" lon="127.669192"><ele>474.7</ele></trkpt>
      <trkpt lat="35.389192" lon="127.669381"><ele>479.1</ele></trkpt>
      <trkpt lat="35.389039" lon="127.669716"><ele>492.1</ele></trkpt>
      <trkpt lat="35.389081" lon="127.669852"><ele>494.0</ele></trkpt>
      <trkpt lat="35.389005" lon="127.670092"><ele>500.3</ele></trkpt>
      <trkpt lat="35.388718" lon="127.670400"><ele>511.3</ele></trkpt>
      <trkpt lat="35.388705" lon="127.670679"><ele>517.4</ele></trkpt>
      <trkpt lat="35.388653" lon="127.670798"><ele>520.3</ele></trkpt>
      <trkpt lat="35.388466" lon="127.670915"><ele>526.8</ele></trkpt>
      <trkpt lat="35.388460" lon="127.671237"><ele>535.9</ele></trkpt>
      <trkpt lat="35.388158" lon="127.671772"><ele>563.5</ele></trkpt>
      <trkpt lat="35.388155" lon="127.671863"><ele>567.2</ele></trkpt>
      <trkpt lat="35.388293" lon="127.671980"><ele>566.7</ele></trkpt>
      <trkpt lat="35.388358" lon="127.672139"><ele>570.5</ele></trkpt>
      <trkpt lat="35.388397" lon="127.672383"><ele>576.9</ele></trkpt>
      <trkpt lat="35.388318" lon="127.672609"><ele>584.6</ele></trkpt>
      <trkpt lat="35.388185" lon="127.672800"><ele>590.8</ele></trkpt>
      <trkpt lat="35.388242" lon="127.673061"><ele>597.2</ele></trkpt>
      <trkpt lat="35.388152" lon="127.673374"><ele>611.3</ele></trkpt>
      <trkpt lat="35.388233" lon="127.673639"><ele>617.6</ele></trkpt>
      <trkpt lat="35.387907" lon="127.673843"><ele>633.4</ele></trkpt>
      <trkpt lat="35.387928" lon="127.673969"><ele>637.5</ele></trkpt>
      <trkpt lat="35.387839" lon="127.674091"><ele>643.1</ele></trkpt>
      <trkpt lat="35.387849" lon="127.674181"><ele>646.4</ele></trkpt>
      <trkpt lat="35.387946" lon="127.674248"><ele>649.1</ele></trkpt>
      <trkpt lat="35.388042" lon="127.674466"><ele>658.4</ele></trkpt>
      <trkpt lat="35.387939" lon="127.674891"><ele>661.6</ele></trkpt>
      <trkpt lat="35.387577" lon="127.675089"><ele>672.3</ele></trkpt>
      <trkpt lat="35.387438" lon="127.675091"><ele>677.0</ele></trkpt>
      <trkpt lat="35.387150" lon="127.675450"><ele>687.9</ele></trkpt>
      <trkpt lat="35.387092" lon="127.675737"><ele>688.4</ele></trkpt>
      <trkpt lat="35.386950" lon="127.676030"><ele>693.5</ele></trkpt>
      <trkpt lat="35.386560" lon="127.676180"><ele>702.0</ele></trkpt>
      <trkpt lat="35.386370" lon="127.676360"><ele>706.8</ele></trkpt>
      <trkpt lat="35.386140" lon="127.676400"><ele>718.6</ele></trkpt>
      <trkpt lat="35.385670" lon="127.676210"><ele>733.5</ele></trkpt>
      <trkpt lat="35.385160" lon="127.676410"><ele>756.8</ele></trkpt>
      <trkpt lat="35.384610" lon="127.677090"><ele>782.4</ele></trkpt>
      <trkpt lat="35.384390" lon="127.677010"><ele>792.1</ele></trkpt>
      <trkpt lat="35.384130" lon="127.676810"><ele>805.6</ele></trkpt>
      <trkpt lat="35.383830" lon="127.676840"><ele>820.0</ele></trkpt>
      <trkpt lat="35.383538" lon="127.676793"><ele>831.7</ele></trkpt>
      <trkpt lat="35.383345" lon="127.676840"><ele>835.8</ele></trkpt>
      <trkpt lat="35.383250" lon="127.676997"><ele>841.5</ele></trkpt>
      <trkpt lat="35.383252" lon="127.677130"><ele>846.2</ele></trkpt>
      <trkpt lat="35.383300" lon="127.677210"><ele>848.8</ele></trkpt>
      <trkpt lat="35.383274" lon="127.677418"><ele>854.0</ele></trkpt>
      <trkpt lat="35.383238" lon="127.677427"><ele>854.6</ele></trkpt>
      <trkpt lat="35.383262" lon="127.677498"><ele>856.0</ele></trkpt>
      <trkpt lat="35.383091" lon="127.677694"><ele>862.1</ele></trkpt>
      <trkpt lat="35.383100" lon="127.677783"><ele>863.4</ele></trkpt>
      <trkpt lat="35.383026" lon="127.677820"><ele>865.7</ele></trkpt>
      <trkpt lat="35.382996" lon="127.677909"><ele>866.9</ele></trkpt>
      <trkpt lat="35.382823" lon="127.677987"><ele>869.6</ele></trkpt>
      <trkpt lat="35.382786" lon="127.678099"><ele>871.2</ele></trkpt>
      <trkpt lat="35.382761" lon="127.678465"><ele>872.8</ele></trkpt>
      <trkpt lat="35.382840" lon="127.678600"><ele>874.8</ele></trkpt>
      <trkpt lat="35.382842" lon="127.678770"><ele>876.9</ele></trkpt>
      <trkpt lat="35.382983" lon="127.679171"><ele>891.1</ele></trkpt>
      <trkpt lat="35.382981" lon="127.679400"><ele>894.1</ele></trkpt>
      <trkpt lat="35.382899" lon="127.679610"><ele>897.7</ele></trkpt>
      <trkpt lat="35.382816" lon="127.679654"><ele>899.7</ele></trkpt>
      <trkpt lat="35.382739" lon="127.679871"><ele>906.0</ele></trkpt>
      <trkpt lat="35.382634" lon="127.679973"><ele>907.5</ele></trkpt>
      <trkpt lat="35.382652" lon="127.680144"><ele>910.2</ele></trkpt>
      <trkpt lat="35.382588" lon="127.680305"><ele>911.1</ele></trkpt>
      <trkpt lat="35.382592" lon="127.680627"><ele>917.0</ele></trkpt>
      <trkpt lat="35.382516" lon="127.680818"><ele>919.8</ele></trkpt>
      <trkpt lat="35.382457" lon="127.680819"><ele>918.7</ele></trkpt>
      <trkpt lat="35.382475" lon="127.680926"><ele>918.9</ele></trkpt>
      <trkpt lat="35.382260" lon="127.681080"><ele>916.8</ele></trkpt>
      <trkpt lat="35.382236" lon="127.681273"><ele>915.2</ele></trkpt>
      <trkpt lat="35.382150" lon="127.681480"><ele>911.7</ele></trkpt>
      <trkpt lat="35.382059" lon="127.681561"><ele>909.8</ele></trkpt>
      <trkpt lat="35.381661" lon="127.681605"><ele>897.4</ele></trkpt>
      <trkpt lat="35.381569" lon="127.681756"><ele>890.7</ele></trkpt>
      <trkpt lat="35.381484" lon="127.682302"><ele>876.8</ele></trkpt>
      <trkpt lat="35.381182" lon="127.682432"><ele>864.3</ele></trkpt>
      <trkpt lat="35.380966" lon="127.682413"><ele>858.4</ele></trkpt>
      <trkpt lat="35.380457" lon="127.682812"><ele>846.8</ele></trkpt>
      <trkpt lat="35.380060" lon="127.682910"><ele>833.2</ele></trkpt>
      <trkpt lat="35.379929" lon="127.682987"><ele>829.6</ele></trkpt>
      <trkpt lat="35.379793" lon="127.683162"><ele>824.7</ele></trkpt>
      <trkpt lat="35.379166" lon="127.683438"><ele>809.9</ele></trkpt>
      <trkpt lat="35.379002" lon="127.683599"><ele>810.9</ele></trkpt>
      <trkpt lat="35.378710" lon="127.684020"><ele>812.3</ele></trkpt>
      <trkpt lat="35.378610" lon="127.684326"><ele>808.1</ele></trkpt>
      <trkpt lat="35.378453" lon="127.684465"><ele>796.8</ele></trkpt>
      <trkpt lat="35.378315" lon="127.684414"><ele>790.7</ele></trkpt>
      <trkpt lat="35.378271" lon="127.684310"><ele>791.0</ele></trkpt>
      <trkpt lat="35.377777" lon="127.683963"><ele>780.4</ele></trkpt>
      <trkpt lat="35.377464" lon="127.684026"><ele>781.7</ele></trkpt>
      <trkpt lat="35.377327" lon="127.684121"><ele>779.4</ele></trkpt>
      <trkpt lat="35.377170" lon="127.684390"><ele>770.5</ele></trkpt>
      <trkpt lat="35.376847" lon="127.684663"><ele>760.2</ele></trkpt>
      <trkpt lat="35.376570" lon="127.684650"><ele>749.2</ele></trkpt>
      <trkpt lat="35.376280" lon="127.684520"><ele>738.2</ele></trkpt>
      <trkpt lat="35.375944" lon="127.684489"><ele>736.5</ele></trkpt>
      <trkpt lat="35.375480" lon="127.684650"><ele>741.7</ele></trkpt>
      <trkpt lat="35.375177" lon="127.684575"><ele>745.1</ele></trkpt>
      <trkpt lat="35.374670" lon="127.684550"><ele>752.3</ele></trkpt>
      <trkpt lat="35.374384" lon="127.684571"><ele>755.8</ele></trkpt>
      <trkpt lat="35.374173" lon="127.684648"><ele>757.1</ele></trkpt>
      <trkpt lat="35.374011" lon="127.685255"><ele>751.7</ele></trkpt>
      <trkpt lat="35.373917" lon="127.685359"><ele>749.8</ele></trkpt>
      <trkpt lat="35.373890" lon="127.686230"><ele>745.4</ele></trkpt>
      <trkpt lat="35.373793" lon="127.686378"><ele>739.1</ele></trkpt>
      <trkpt lat="35.373894" lon="127.686869"><ele>730.8</ele></trkpt>
      <trkpt lat="35.373554" lon="127.687493"><ele>724.2</ele></trkpt>
      <trkpt lat="35.373260" lon="127.687789"><ele>735.1</ele></trkpt>
      <trkpt lat="35.373102" lon="127.688036"><ele>744.1</ele></trkpt>
      <trkpt lat="35.372874" lon="127.688566"><ele>754.9</ele></trkpt>
      <trkpt lat="35.372731" lon="127.689054"><ele>777.6</ele></trkpt>
      <trkpt lat="35.372352" lon="127.689748"><ele>807.4</ele></trkpt>
      <trkpt lat="35.372026" lon="127.690170"><ele>822.0</ele></trkpt>
      <trkpt lat="35.371608" lon="127.690223"><ele>831.7</ele></trkpt>
      <trkpt lat="35.371379" lon="127.690330"><ele>831.9</ele></trkpt>
      <trkpt lat="35.371143" lon="127.690475"><ele>832.1</ele></trkpt>
      <trkpt lat="35.370880" lon="127.690719"><ele>836.2</ele></trkpt>
      <trkpt lat="35.370336" lon="127.691006"><ele>848.5</ele></trkpt>
      <trkpt lat="35.370151" lon="127.690979"><ele>851.5</ele></trkpt>
      <trkpt lat="35.370009" lon="127.690873"><ele>855.8</ele></trkpt>
      <trkpt lat="35.369671" lon="127.690839"><ele>857.2</ele></trkpt>
      <trkpt lat="35.368857" lon="127.690799"><ele>889.2</ele></trkpt>
      <trkpt lat="35.368536" lon="127.690844"><ele>896.6</ele></trkpt>
      <trkpt lat="35.368091" lon="127.691139"><ele>895.5</ele></trkpt>
      <trkpt lat="35.367830" lon="127.691588"><ele>905.4</ele></trkpt>
      <trkpt lat="35.367177" lon="127.692005"><ele>911.5</ele></trkpt>
      <trkpt lat="35.366616" lon="127.692051"><ele>912.5</ele></trkpt>
      <trkpt lat="35.366383" lon="127.692126"><ele>909.6</ele></trkpt>
      <trkpt lat="35.365848" lon="127.692657"><ele>922.8</ele></trkpt>
      <trkpt lat="35.365683" lon="127.692923"><ele>929.0</ele></trkpt>
      <trkpt lat="35.365289" lon="127.693275"><ele>931.4</ele></trkpt>
      <trkpt lat="35.365023" lon="127.693664"><ele>939.0</ele></trkpt>
      <trkpt lat="35.364713" lon="127.693942"><ele>942.9</ele></trkpt>
      <trkpt lat="35.364371" lon="127.694142"><ele>943.0</ele></trkpt>
      <trkpt lat="35.363696" lon="127.694285"><ele>943.2</ele></trkpt>
      <trkpt lat="35.363298" lon="127.694430"><ele>941.2</ele></trkpt>
      <trkpt lat="35.362904" lon="127.694338"><ele>942.2</ele></trkpt>
      <trkpt lat="35.362720" lon="127.694376"><ele>943.6</ele></trkpt>
      <trkpt lat="35.362526" lon="127.694648"><ele>943.3</ele></trkpt>
      <trkpt lat="35.361940" lon="127.694875"><ele>949.9</ele></trkpt>
      <trkpt lat="35.361778" lon="127.694788"><ele>957.4</ele></trkpt>
      <trkpt lat="35.361701" lon="127.694864"><ele>955.2</ele></trkpt>
      <trkpt lat="35.361431" lon="127.695322"><ele>954.2</ele></trkpt>
      <trkpt lat="35.361456" lon="127.695481"><ele>949.3</ele></trkpt>
      <trkpt lat="35.361275" lon="127.695513"><ele>958.8</ele></trkpt>
      <trkpt lat="35.361300" lon="127.695683"><ele>952.7</ele></trkpt>
      <trkpt lat="35.361253" lon="127.695878"><ele>949.3</ele></trkpt>
      <trkpt lat="35.361079" lon="127.696112"><ele>951.8</ele></trkpt>
      <trkpt lat="35.360809" lon="127.696264"><ele>953.9</ele></trkpt>
      <trkpt lat="35.360598" lon="127.696518"><ele>951.0</ele></trkpt>
      <trkpt lat="35.360367" lon="127.696632"><ele>958.2</ele></trkpt>
      <trkpt lat="35.360028" lon="127.696956"><ele>959.3</ele></trkpt>
      <trkpt lat="35.359779" lon="127.697359"><ele>958.4</ele></trkpt>
      <trkpt lat="35.359617" lon="127.697713"><ele>958.6</ele></trkpt>
      <trkpt lat="35.359537" lon="127.698043"><ele>956.9</ele></trkpt>
      <trkpt lat="35.359437" lon="127.698115"><ele>960.6</ele></trkpt>
      <trkpt lat="35.359234" lon="127.698667"><ele>947.5</ele></trkpt>
      <trkpt lat="35.359219" lon="127.699006"><ele>932.1</ele></trkpt>
      <trkpt lat="35.359323" lon="127.699161"><ele>921.2</ele></trkpt>
      <trkpt lat="35.359192" lon="127.699204"><ele>923.6</ele></trkpt>
      <trkpt lat="35.359168" lon="127.699338"><ele>918.5</ele></trkpt>
      <trkpt lat="35.359086" lon="127.699365"><ele>918.2</ele></trkpt>
      <trkpt lat="35.359039" lon="127.699605"><ele>907.6</ele></trkpt>
      <trkpt lat="35.358790" lon="127.699612"><ele>906.3</ele></trkpt>
      <trkpt lat="35.358449" lon="127.699762"><ele>897.1</ele></trkpt>
      <trkpt lat="35.358217" lon="127.699928"><ele>894.2</ele></trkpt>
      <trkpt lat="35.358130" lon="127.700088"><ele>892.8</ele></trkpt>
      <trkpt lat="35.358138" lon="127.700331"><ele>884.8</ele></trkpt>
      <trkpt lat="35.358269" lon="127.700556"><ele>871.1</ele></trkpt>
      <trkpt lat="35.358221" lon="127.700819"><ele>875.2</ele></trkpt>
      <trkpt lat="35.358356" lon="127.701119"><ele>863.0</ele></trkpt>
      <trkpt lat="35.358339" lon="127.701194"><ele>863.1</ele></trkpt>
      <trkpt lat="35.358239" lon="127.701189"><ele>871.5</ele></trkpt>
      <trkpt lat="35.358096" lon="127.701303"><ele>880.1</ele></trkpt>
      <trkpt lat="35.357996" lon="127.701503"><ele>878.9</ele></trkpt>
      <trkpt lat="35.357876" lon="127.701575"><ele>883.0</ele></trkpt>
      <trkpt lat="35.357643" lon="127.702010"><ele>878.0</ele></trkpt>
      <trkpt lat="35.357495" lon="127.702066"><ele>886.6</ele></trkpt>
      <trkpt lat="35.357395" lon="127.702229"><ele>890.3</ele></trkpt>
      <trkpt lat="35.357331" lon="127.702423"><ele>891.3</ele></trkpt>
      <trkpt lat="35.357370" lon="127.702837"><ele>879.8</ele></trkpt>
      <trkpt lat="35.357211" lon="127.703044"><ele>887.7</ele></trkpt>
      <trkpt lat="35.357112" lon="127.703276"><ele>884.8</ele></trkpt>
      <trkpt lat="35.357096" lon="127.703531"><ele>878.2</ele></trkpt>
      <trkpt lat="35.356989" lon="127.703976"><ele>865.7</ele></trkpt>
      <trkpt lat="35.356895" lon="127.704192"><ele>859.5</ele></trkpt>
      <trkpt lat="35.356569" lon="127.704512"><ele>865.6</ele></trkpt>
      <trkpt lat="35.356551" lon="127.704615"><ele>864.3</ele></trkpt>
      <trkpt lat="35.356618" lon="127.704696"><ele>859.6</ele></trkpt>
      <trkpt lat="35.356603" lon="127.704756"><ele>859.9</ele></trkpt>
      <trkpt lat="35.356410" lon="127.704995"><ele>868.2</ele></trkpt>
      <trkpt lat="35.356138" lon="127.705502"><ele>883.3</ele></trkpt>
      <trkpt lat="35.355884" lon="127.705702"><ele>892.2</ele></trkpt>
      <trkpt lat="35.355805" lon="127.705896"><ele>891.4</ele></trkpt>
      <trkpt lat="35.355805" lon="127.706033"><ele>888.4</ele></trkpt>
      <trkpt lat="35.355710" lon="127.706233"><ele>888.9</ele></trkpt>
      <trkpt lat="35.355494" lon="127.706480"><ele>896.8</ele></trkpt>
      <trkpt lat="35.355212" lon="127.706647"><ele>911.6</ele></trkpt>
      <trkpt lat="35.355164" lon="127.706733"><ele>912.4</ele></trkpt>
      <trkpt lat="35.355052" lon="127.706763"><ele>918.2</ele></trkpt>
      <trkpt lat="35.354918" lon="127.706899"><ele>919.1</ele></trkpt>
      <trkpt lat="35.354883" lon="127.707017"><ele>916.9</ele></trkpt>
      <trkpt lat="35.354916" lon="127.707228"><ele>911.6</ele></trkpt>
      <trkpt lat="35.354846" lon="127.707283"><ele>913.8</ele></trkpt>
      <trkpt lat="35.354865" lon="127.707379"><ele>915.3</ele></trkpt>
      <trkpt lat="35.354798" lon="127.707535"><ele>918.3</ele></trkpt>
      <trkpt lat="35.354600" lon="127.707613"><ele>925.9</ele></trkpt>
      <trkpt lat="35.354520" lon="127.707891"><ele>939.3</ele></trkpt>
      <trkpt lat="35.354270" lon="127.708051"><ele>949.9</ele></trkpt>
      <trkpt lat="35.354156" lon="127.707990"><ele>948.1</ele></trkpt>
      <trkpt lat="35.353726" lon="127.707988"><ele>946.7</ele></trkpt>
      <trkpt lat="35.353529" lon="127.708560"><ele>968.9</ele></trkpt>
      <trkpt lat="35.353533" lon="127.708726"><ele>976.4</ele></trkpt>
      <trkpt lat="35.353378" lon="127.708790"><ele>971.6</ele></trkpt>
      <trkpt lat="35.353284" lon="127.709088"><ele>976.9</ele></trkpt>
      <trkpt lat="35.353109" lon="127.709016"><ele>971.4</ele></trkpt>
      <trkpt lat="35.353019" lon="127.709139"><ele>974.0</ele></trkpt>
      <trkpt lat="35.352933" lon="127.709176"><ele>976.3</ele></trkpt>
      <trkpt lat="35.352862" lon="127.709641"><ele>982.1</ele></trkpt>
      <trkpt lat="35.352942" lon="127.709653"><ele>983.0</ele></trkpt>
      <trkpt lat="35.353027" lon="127.709750"><ele>986.6</ele></trkpt>
      <trkpt lat="35.352932" lon="127.710366"><ele>1002.2</ele></trkpt>
      <trkpt lat="35.352846" lon="127.710492"><ele>1001.2</ele></trkpt>
      <trkpt lat="35.352818" lon="127.710684"><ele>1005.0</ele></trkpt>
      <trkpt lat="35.352854" lon="127.710984"><ele>1013.2</ele></trkpt>
      <trkpt lat="35.352774" lon="127.711307"><ele>1017.3</ele></trkpt>
      <trkpt lat="35.352890" lon="127.711405"><ele>1022.6</ele></trkpt>
      <trkpt lat="35.352839" lon="127.711540"><ele>1024.5</ele></trkpt>
      <trkpt lat="35.352932" lon="127.711675"><ele>1028.8</ele></trkpt>
      <trkpt lat="35.353048" lon="127.711688"><ele>1030.2</ele></trkpt>
      <trkpt lat="35.353037" lon="127.711931"><ele>1033.6</ele></trkpt>
      <trkpt lat="35.353087" lon="127.712057"><ele>1036.8</ele></trkpt>
      <trkpt lat="35.353054" lon="127.712256"><ele>1039.7</ele></trkpt>
      <trkpt lat="35.352878" lon="127.712363"><ele>1038.5</ele></trkpt>
      <trkpt lat="35.352899" lon="127.712428"><ele>1040.2</ele></trkpt>
      <trkpt lat="35.352679" lon="127.712713"><ele>1044.7</ele></trkpt>
      <trkpt lat="35.352519" lon="127.712838"><ele>1042.9</ele></trkpt>
      <trkpt lat="35.352407" lon="127.713058"><ele>1051.4</ele></trkpt>
      <trkpt lat="35.352476" lon="127.713144"><ele>1054.8</ele></trkpt>
      <trkpt lat="35.352447" lon="127.713239"><ele>1056.9</ele></trkpt>
      <trkpt lat="35.352251" lon="127.713382"><ele>1060.0</ele></trkpt>
      <trkpt lat="35.352165" lon="127.713370"><ele>1061.0</ele></trkpt>
      <trkpt lat="35.351528" lon="127.713638"><ele>1079.0</ele></trkpt>
      <trkpt lat="35.351290" lon="127.713760"><ele>1091.0</ele></trkpt>
      <trkpt lat="35.351139" lon="127.713915"><ele>1097.3</ele></trkpt>
      <trkpt lat="35.351025" lon="127.713938"><ele>1097.7</ele></trkpt>
      <trkpt lat="35.351061" lon="127.714062"><ele>1101.0</ele></trkpt>
      <trkpt lat="35.350914" lon="127.714273"><ele>1101.4</ele></trkpt>
      <trkpt lat="35.350613" lon="127.714308"><ele>1096.0</ele></trkpt>
      <trkpt lat="35.350471" lon="127.714446"><ele>1098.9</ele></trkpt>
      <trkpt lat="35.350177" lon="127.714570"><ele>1109.1</ele></trkpt>
      <trkpt lat="35.349926" lon="127.714764"><ele>1117.4</ele></trkpt>
      <trkpt lat="35.349753" lon="127.714722"><ele>1118.6</ele></trkpt>
      <trkpt lat="35.349392" lon="127.714966"><ele>1127.4</ele></trkpt>
      <trkpt lat="35.349287" lon="127.715110"><ele>1130.1</ele></trkpt>
      <trkpt lat="35.349117" lon="127.715132"><ele>1129.3</ele></trkpt>
      <trkpt lat="35.348713" lon="127.715375"><ele>1139.0</ele></trkpt>
      <trkpt lat="35.348568" lon="127.715601"><ele>1144.7</ele></trkpt>
      <trkpt lat="35.348526" lon="127.715880"><ele>1151.5</ele></trkpt>
      <trkpt lat="35.348379" lon="127.716141"><ele>1161.7</ele></trkpt>
      <trkpt lat="35.348106" lon="127.716215"><ele>1163.9</ele></trkpt>
      <trkpt lat="35.348023" lon="127.716278"><ele>1166.0</ele></trkpt>
      <trkpt lat="35.347976" lon="127.716437"><ele>1170.3</ele></trkpt>
      <trkpt lat="35.347857" lon="127.716434"><ele>1171.0</ele></trkpt>
      <trkpt lat="35.347725" lon="127.716556"><ele>1174.8</ele></trkpt>
      <trkpt lat="35.347623" lon="127.716890"><ele>1185.2</ele></trkpt>
      <trkpt lat="35.347105" lon="127.717645"><ele>1203.8</ele></trkpt>
      <trkpt lat="35.346903" lon="127.717767"><ele>1205.4</ele></trkpt>
      <trkpt lat="35.346605" lon="127.718065"><ele>1216.1</ele></trkpt>
      <trkpt lat="35.346498" lon="127.718344"><ele>1231.5</ele></trkpt>
      <trkpt lat="35.346332" lon="127.718477"><ele>1235.7</ele></trkpt>
      <trkpt lat="35.346222" lon="127.718440"><ele>1235.1</ele></trkpt>
      <trkpt lat="35.346148" lon="127.718507"><ele>1235.4</ele></trkpt>
      <trkpt lat="35.346018" lon="127.718818"><ele>1244.5</ele></trkpt>
      <trkpt lat="35.345881" lon="127.718961"><ele>1253.3</ele></trkpt>
      <trkpt lat="35.345830" lon="127.719213"><ele>1256.5</ele></trkpt>
      <trkpt lat="35.345960" lon="127.719335"><ele>1265.6</ele></trkpt>
      <trkpt lat="35.345840" lon="127.719490"><ele>1265.8</ele></trkpt>
      <trkpt lat="35.345466" lon="127.719786"><ele>1276.8</ele></trkpt>
      <trkpt lat="35.345369" lon="127.719787"><ele>1278.9</ele></trkpt>
      <trkpt lat="35.345253" lon="127.719892"><ele>1281.8</ele></trkpt>
      <trkpt lat="35.345172" lon="127.719877"><ele>1281.8</ele></trkpt>
      <trkpt lat="35.345119" lon="127.720002"><ele>1282.5</ele></trkpt>
      <trkpt lat="35.344998" lon="127.720037"><ele>1283.9</ele></trkpt>
      <trkpt lat="35.344872" lon="127.720200"><ele>1294.7</ele></trkpt>
      <trkpt lat="35.344753" lon="127.720182"><ele>1296.2</ele></trkpt>
      <trkpt lat="35.344539" lon="127.720290"><ele>1299.6</ele></trkpt>
      <trkpt lat="35.344415" lon="127.720273"><ele>1298.1</ele></trkpt>
      <trkpt lat="35.343764" lon="127.720871"><ele>1314.3</ele></trkpt>
      <trkpt lat="35.343402" lon="127.721827"><ele>1345.0</ele></trkpt>
      <trkpt lat="35.343325" lon="127.721914"><ele>1346.9</ele></trkpt>
      <trkpt lat="35.343173" lon="127.721907"><ele>1349.4</ele></trkpt>
      <trkpt lat="35.343115" lon="127.721975"><ele>1353.8</ele></trkpt>
      <trkpt lat="35.343187" lon="127.722055"><ele>1357.4</ele></trkpt>
      <trkpt lat="35.343183" lon="127.722240"><ele>1368.8</ele></trkpt>
      <trkpt lat="35.343277" lon="127.722437"><ele>1379.5</ele></trkpt>
      <trkpt lat="35.342938" lon="127.722755"><ele>1401.1</ele></trkpt>
      <trkpt lat="35.343016" lon="127.723060"><ele>1419.3</ele></trkpt>
      <trkpt lat="35.342984" lon="127.723240"><ele>1420.9</ele></trkpt>
      <trkpt lat="35.343039" lon="127.723315"><ele>1419.6</ele></trkpt>
      <trkpt lat="35.342985" lon="127.723450"><ele>1421.1</ele></trkpt>
      <trkpt lat="35.342878" lon="127.723601"><ele>1427.4</ele></trkpt>
      <trkpt lat="35.342457" lon="127.723791"><ele>1453.3</ele></trkpt>
      <trkpt lat="35.342432" lon="127.723990"><ele>1460.4</ele></trkpt>
      <trkpt lat="35.342297" lon="127.724004"><ele>1467.2</ele></trkpt>
      <trkpt lat="35.342152" lon="127.724260"><ele>1480.4</ele></trkpt>
      <trkpt lat="35.341864" lon="127.724431"><ele>1493.3</ele></trkpt>
      <trkpt lat="35.341751" lon="127.724578"><ele>1501.6</ele></trkpt>
      <trkpt lat="35.341615" lon="127.724662"><ele>1509.4</ele></trkpt>
      <trkpt lat="35.341508" lon="127.724783"><ele>1518.5</ele></trkpt>
      <trkpt lat="35.341472" lon="127.724927"><ele>1525.5</ele></trkpt>
      <trkpt lat="35.341355" lon="127.725006"><ele>1533.4</ele></trkpt>
      <trkpt lat="35.341332" lon="127.725116"><ele>1537.8</ele></trkpt>
      <trkpt lat="35.341152" lon="127.725203"><ele>1547.1</ele></trkpt>
      <trkpt lat="35.341039" lon="127.725353"><ele>1554.9</ele></trkpt>
      <trkpt lat="35.340944" lon="127.725396"><ele>1559.3</ele></trkpt>
      <trkpt lat="35.340865" lon="127.725472"><ele>1564.3</ele></trkpt>
      <trkpt lat="35.340866" lon="127.725545"><ele>1566.3</ele></trkpt>
      <trkpt lat="35.340746" lon="127.725619"><ele>1573.6</ele></trkpt>
      <trkpt lat="35.340695" lon="127.725716"><ele>1577.5</ele></trkpt>
      <trkpt lat="35.340427" lon="127.725772"><ele>1592.0</ele></trkpt>
      <trkpt lat="35.340301" lon="127.725853"><ele>1600.0</ele></trkpt>
      <trkpt lat="35.339836" lon="127.725719"><ele>1612.6</ele></trkpt>
      <trkpt lat="35.339270" lon="127.726600"><ele>1641.6</ele></trkpt>
      <trkpt lat="35.339145" lon="127.726942"><ele>1654.3</ele></trkpt>
      <trkpt lat="35.339011" lon="127.727134"><ele>1660.2</ele></trkpt>
      <trkpt lat="35.338939" lon="127.727447"><ele>1668.2</ele></trkpt>
      <trkpt lat="35.338842" lon="127.727504"><ele>1673.1</ele></trkpt>
      <trkpt lat="35.338705" lon="127.727710"><ele>1693.1</ele></trkpt>
      <trkpt lat="35.338771" lon="127.727829"><ele>1696.1</ele></trkpt>
      <trkpt lat="35.338669" lon="127.727917"><ele>1704.3</ele></trkpt>
      <trkpt lat="35.338680" lon="127.728145"><ele>1712.5</ele></trkpt>
      <trkpt lat="35.338517" lon="127.728511"><ele>1737.9</ele></trkpt>
      <trkpt lat="35.338562" lon="127.728574"><ele>1738.7</ele></trkpt>
      <trkpt lat="35.338415" lon="127.728784"><ele>1754.2</ele></trkpt>
      <trkpt lat="35.338326" lon="127.729060"><ele>1766.8</ele></trkpt>
      <trkpt lat="35.338338" lon="127.729163"><ele>1768.7</ele></trkpt>
      <trkpt lat="35.338189" lon="127.729397"><ele>1790.1</ele></trkpt>
      <trkpt lat="35.338125" lon="127.729467"><ele>1798.0</ele></trkpt>
      <trkpt lat="35.337808" lon="127.729462"><ele>1820.5</ele></trkpt>
      <trkpt lat="35.337755" lon="127.729294"><ele>1816.9</ele></trkpt>
      <trkpt lat="35.337562" lon="127.729171"><ele>1826.3</ele></trkpt>
      <trkpt lat="35.337511" lon="127.729257"><ele>1835.0</ele></trkpt>
      <trkpt lat="35.336855" lon="127.729176"><ele>1877.0</ele></trkpt>
      <trkpt lat="35.336734" lon="127.729301"><ele>1876.5</ele></trkpt>
      <trkpt lat="35.336872" lon="127.729807"><ele>1888.7</ele></trkpt>
      <trkpt lat="35.336880" lon="127.730125"><ele>1892.4</ele></trkpt>
      <trkpt lat="35.336984" lon="127.730310"><ele>1896.1</ele></trkpt>
      <trkpt lat="35.336958" lon="127.730585"><ele>1897.5</ele></trkpt>
    </trkseg>
  </trk>
</gpx>
