<?xml version="1.0" encoding="UTF-8"?>
<gpx version="1.1" creator="kr-100-mountains route-harvester"
     xmlns="http://www.topografix.com/GPX/1/1"
     xmlns:k100="https://github.com/jay-jang/kr-100-mountains/ns/1"
     xmlns:xsi="http://www.w3.org/2001/XMLSchema-instance"
     xsi:schemaLocation="http://www.topografix.com/GPX/1/1 http://www.topografix.com/GPX/1/1/gpx.xsd">
  <metadata>
    <name>지리산 · 중산리-천왕봉 코스 (대안 1) (OSM 계산 경로)</name>
    <desc>실제 GPS 기록이 아닙니다. OpenStreetMap에 등록된 등산로 선형 위에서 계산한 경로이며, 현장 통제·훼손·출입 제한·계절 통제를 반영하지 않을 수 있습니다. 산행 전 공식 안내를 확인하세요.</desc>
    <time>2026-08-04T05:29:57.255Z</time>
    <link href="https://www.openstreetmap.org/copyright"><text>© OpenStreetMap contributors (ODbL 1.0)</text></link>
    <link href="https://registry.opendata.aws/terrain-tiles/"><text>Elevation: SRTM 1 arc-second (NASA/USGS) via AWS Terrain Tiles</text></link>
    <extensions>
      <k100:provenance>osm-routed</k100:provenance>
      <k100:not_a_recorded_track>true</k100:not_a_recorded_track>
      <k100:mountain_id>jirisan</k100:mountain_id>
      <k100:mountain_name>지리산</k100:mountain_name>
      <k100:route_id>jirisan-dfba3885</k100:route_id>
      <k100:route_index>1</k100:route_index>
      <k100:route_name>중산리-천왕봉 코스</k100:route_name>
      <k100:variant>1</k100:variant>
      <k100:source>OpenStreetMap via Overpass API</k100:source>
      <k100:license>ODbL-1.0</k100:license>
      <k100:attribution>© OpenStreetMap contributors</k100:attribution>
      <k100:elevation_source>SRTM 1 arc-second (NASA/USGS) — AWS Terrain Tiles 배포본. 지형 DEM 추정 고도이며 실측 아님</k100:elevation_source>
      <k100:algorithm>dijkstra-grid-v1</k100:algorithm>
      <k100:osm_snapshot>2026-08-04</k100:osm_snapshot>
      <k100:snap_trailhead_m>208</k100:snap_trailhead_m>
      <k100:snap_summit_m>3</k100:snap_summit_m>
      <k100:validation_score>87</k100:validation_score>
      <k100:validation_status>accepted</k100:validation_status>
    </extensions>
  </metadata>
  <trk>
    <name>지리산 · 중산리-천왕봉 코스 (대안 1) (OSM 계산 경로)</name>
    <desc>실제 GPS 기록이 아닙니다. OpenStreetMap에 등록된 등산로 선형 위에서 계산한 경로이며, 현장 통제·훼손·출입 제한·계절 통제를 반영하지 않을 수 있습니다. 산행 전 공식 안내를 확인하세요.</desc>
    <trkseg>
      <trkpt lat="35.311319" lon="127.743085"><ele>764.8</ele></trkpt>
      <trkpt lat="35.311775" lon="127.742623"><ele>781.3</ele></trkpt>
      <trkpt lat="35.311946" lon="127.742516"><ele>785.3</ele></trkpt>
      <trkpt lat="35.312112" lon="127.742308"><ele>786.8</ele></trkpt>
      <trkpt lat="35.312482" lon="127.742181"><ele>798.5</ele></trkpt>
      <trkpt lat="35.312681" lon="127.742241"><ele>808.8</ele></trkpt>
      <trkpt lat="35.312784" lon="127.742175"><ele>812.5</ele></trkpt>
      <trkpt lat="35.312799" lon="127.742034"><ele>810.7</ele></trkpt>
      <trkpt lat="35.313102" lon="127.741788"><ele>821.4</ele></trkpt>
      <trkpt lat="35.313267" lon="127.741736"><ele>828.0</ele></trkpt>
      <trkpt lat="35.313315" lon="127.741625"><ele>826.9</ele></trkpt>
      <trkpt lat="35.313721" lon="127.741439"><ele>830.9</ele></trkpt>
      <trkpt lat="35.313816" lon="127.741462"><ele>833.4</ele></trkpt>
      <trkpt lat="35.313892" lon="127.741552"><ele>837.2</ele></trkpt>
      <trkpt lat="35.314114" lon="127.741430"><ele>837.4</ele></trkpt>
      <trkpt lat="35.314223" lon="127.741135"><ele>838.0</ele></trkpt>
      <trkpt lat="35.314172" lon="127.740828"><ele>835.2</ele></trkpt>
      <trkpt lat="35.314029" lon="127.740718"><ele>828.6</ele></trkpt>
      <trkpt lat="35.314152" lon="127.740416"><ele>829.7</ele></trkpt>
      <trkpt lat="35.314340" lon="127.740122"><ele>838.0</ele></trkpt>
      <trkpt lat="35.314413" lon="127.739853"><ele>840.8</ele></trkpt>
      <trkpt lat="35.314773" lon="127.739553"><ele>851.6</ele></trkpt>
      <trkpt lat="35.314835" lon="127.739426"><ele>850.3</ele></trkpt>
      <trkpt lat="35.314943" lon="127.739441"><ele>854.7</ele></trkpt>
      <trkpt lat="35.315113" lon="127.739363"><ele>863.2</ele></trkpt>
      <trkpt lat="35.315267" lon="127.738948"><ele>864.2</ele></trkpt>
      <trkpt lat="35.315475" lon="127.738572"><ele>873.1</ele></trkpt>
      <trkpt lat="35.315599" lon="127.738084"><ele>869.5</ele></trkpt>
      <trkpt lat="35.315762" lon="127.738005"><ele>875.7</ele></trkpt>
      <trkpt lat="35.315903" lon="127.737635"><ele>882.9</ele></trkpt>
      <trkpt lat="35.316385" lon="127.737208"><ele>904.7</ele></trkpt>
      <trkpt lat="35.316447" lon="127.736753"><ele>906.1</ele></trkpt>
      <trkpt lat="35.316305" lon="127.736547"><ele>906.9</ele></trkpt>
      <trkpt lat="35.316283" lon="127.736003"><ele>916.4</ele></trkpt>
      <trkpt lat="35.316237" lon="127.735839"><ele>919.0</ele></trkpt>
      <trkpt lat="35.316280" lon="127.735195"><ele>933.0</ele></trkpt>
      <trkpt lat="35.316398" lon="127.734877"><ele>938.5</ele></trkpt>
      <trkpt lat="35.316388" lon="127.734688"><ele>938.0</ele></trkpt>
      <trkpt lat="35.316505" lon="127.734424"><ele>946.4</ele></trkpt>
      <trkpt lat="35.316575" lon="127.734061"><ele>956.2</ele></trkpt>
      <trkpt lat="35.316698" lon="127.733941"><ele>961.4</ele></trkpt>
      <trkpt lat="35.316740" lon="127.733794"><ele>963.1</ele></trkpt>
      <trkpt lat="35.317173" lon="127.733202"><ele>972.7</ele></trkpt>
      <trkpt lat="35.317206" lon="127.733099"><ele>972.3</ele></trkpt>
      <trkpt lat="35.317510" lon="127.732842"><ele>982.9</ele></trkpt>
      <trkpt lat="35.317581" lon="127.732658"><ele>985.4</ele></trkpt>
      <trkpt lat="35.317751" lon="127.732547"><ele>991.3</ele></trkpt>
      <trkpt lat="35.317823" lon="127.732402"><ele>993.2</ele></trkpt>
      <trkpt lat="35.317917" lon="127.732349"><ele>996.6</ele></trkpt>
      <trkpt lat="35.317911" lon="127.732201"><ele>995.3</ele></trkpt>
      <trkpt lat="35.317973" lon="127.732107"><ele>997.7</ele></trkpt>
      <trkpt lat="35.317974" lon="127.731975"><ele>997.7</ele></trkpt>
      <trkpt lat="35.318242" lon="127.731068"><ele>1015.2</ele></trkpt>
      <trkpt lat="35.318725" lon="127.730600"><ele>1027.7</ele></trkpt>
      <trkpt lat="35.318685" lon="127.730412"><ele>1025.7</ele></trkpt>
      <trkpt lat="35.318792" lon="127.730036"><ele>1031.6</ele></trkpt>
      <trkpt lat="35.318927" lon="127.729943"><ele>1032.5</ele></trkpt>
      <trkpt lat="35.319216" lon="127.729528"><ele>1042.4</ele></trkpt>
      <trkpt lat="35.319273" lon="127.729316"><ele>1048.8</ele></trkpt>
      <trkpt lat="35.319535" lon="127.729160"><ele>1058.1</ele></trkpt>
      <trkpt lat="35.319691" lon="127.729165"><ele>1064.7</ele></trkpt>
      <trkpt lat="35.320049" lon="127.728706"><ele>1079.9</ele></trkpt>
      <trkpt lat="35.320265" lon="127.728605"><ele>1088.3</ele></trkpt>
      <trkpt lat="35.320344" lon="127.728249"><ele>1088.2</ele></trkpt>
      <trkpt lat="35.320354" lon="127.727996"><ele>1087.9</ele></trkpt>
      <trkpt lat="35.320785" lon="127.727613"><ele>1105.3</ele></trkpt>
      <trkpt lat="35.320923" lon="127.727558"><ele>1110.5</ele></trkpt>
      <trkpt lat="35.321014" lon="127.727380"><ele>1111.0</ele></trkpt>
      <trkpt lat="35.321610" lon="127.727338"><ele>1125.6</ele></trkpt>
      <trkpt lat="35.321989" lon="127.727166"><ele>1130.5</ele></trkpt>
      <trkpt lat="35.322075" lon="127.727079"><ele>1131.5</ele></trkpt>
      <trkpt lat="35.322161" lon="127.727077"><ele>1133.2</ele></trkpt>
      <trkpt lat="35.322245" lon="127.727212"><ele>1136.5</ele></trkpt>
      <trkpt lat="35.322730" lon="127.727247"><ele>1150.4</ele></trkpt>
      <trkpt lat="35.322793" lon="127.726923"><ele>1147.8</ele></trkpt>
      <trkpt lat="35.323134" lon="127.726885"><ele>1157.1</ele></trkpt>
      <trkpt lat="35.323186" lon="127.726764"><ele>1161.6</ele></trkpt>
      <trkpt lat="35.323598" lon="127.726718"><ele>1174.3</ele></trkpt>
      <trkpt lat="35.323717" lon="127.726634"><ele>1177.1</ele></trkpt>
      <trkpt lat="35.324348" lon="127.726567"><ele>1194.1</ele></trkpt>
      <trkpt lat="35.324469" lon="127.726470"><ele>1199.5</ele></trkpt>
      <trkpt lat="35.324549" lon="127.726235"><ele>1205.2</ele></trkpt>
      <trkpt lat="35.324756" lon="127.726048"><ele>1210.1</ele></trkpt>
      <trkpt lat="35.324772" lon="127.725904"><ele>1216.8</ele></trkpt>
      <trkpt lat="35.324943" lon="127.725633"><ele>1232.8</ele></trkpt>
      <trkpt lat="35.324934" lon="127.725541"><ele>1235.8</ele></trkpt>
      <trkpt lat="35.325210" lon="127.725036"><ele>1236.3</ele></trkpt>
      <trkpt lat="35.325700" lon="127.724734"><ele>1237.4</ele></trkpt>
      <trkpt lat="35.326149" lon="127.724617"><ele>1252.9</ele></trkpt>
      <trkpt lat="35.326690" lon="127.724723"><ele>1274.5</ele></trkpt>
      <trkpt lat="35.327478" lon="127.724768"><ele>1295.7</ele></trkpt>
      <trkpt lat="35.327798" lon="127.724838"><ele>1309.0</ele></trkpt>
      <trkpt lat="35.328279" lon="127.725073"><ele>1324.7</ele></trkpt>
      <trkpt lat="35.328794" lon="127.725080"><ele>1334.5</ele></trkpt>
      <trkpt lat="35.329184" lon="127.725333"><ele>1349.4</ele></trkpt>
      <trkpt lat="35.329775" lon="127.725391"><ele>1378.0</ele></trkpt>
      <trkpt lat="35.330108" lon="127.725563"><ele>1392.3</ele></trkpt>
      <trkpt lat="35.330262" lon="127.725703"><ele>1402.1</ele></trkpt>
      <trkpt lat="35.330558" lon="127.725830"><ele>1426.9</ele></trkpt>
      <trkpt lat="35.331144" lon="127.725819"><ele>1437.0</ele></trkpt>
      <trkpt lat="35.331890" lon="127.725959"><ele>1485.5</ele></trkpt>
      <trkpt lat="35.332158" lon="127.726155"><ele>1505.3</ele></trkpt>
      <trkpt lat="35.332427" lon="127.727035"><ele>1541.0</ele></trkpt>
      <trkpt lat="35.332550" lon="127.727192"><ele>1554.2</ele></trkpt>
      <trkpt lat="35.332641" lon="127.727493"><ele>1573.2</ele></trkpt>
      <trkpt lat="35.332866" lon="127.727825"><ele>1592.2</ele></trkpt>
      <trkpt lat="35.333149" lon="127.728022"><ele>1615.9</ele></trkpt>
      <trkpt lat="35.333416" lon="127.728104"><ele>1640.0</ele></trkpt>
      <trkpt lat="35.333652" lon="127.728357"><ele>1664.0</ele></trkpt>
      <trkpt lat="35.334184" lon="127.728527"><ele>1691.8</ele></trkpt>
      <trkpt lat="35.334640" lon="127.728523"><ele>1730.1</ele></trkpt>
      <trkpt lat="35.334766" lon="127.728573"><ele>1742.4</ele></trkpt>
      <trkpt lat="35.334904" lon="127.728842"><ele>1755.3</ele></trkpt>
      <trkpt lat="35.335113" lon="127.728907"><ele>1765.4</ele></trkpt>
      <trkpt lat="35.335189" lon="127.729103"><ele>1775.1</ele></trkpt>
      <trkpt lat="35.335327" lon="127.729158"><ele>1785.6</ele></trkpt>
      <trkpt lat="35.335443" lon="127.729333"><ele>1802.7</ele></trkpt>
      <trkpt lat="35.335579" lon="127.729379"><ele>1814.0</ele></trkpt>
      <trkpt lat="35.335657" lon="127.729492"><ele>1823.0</ele></trkpt>
      <trkpt lat="35.335781" lon="127.729576"><ele>1832.1</ele></trkpt>
      <trkpt lat="35.335912" lon="127.729575"><ele>1838.6</ele></trkpt>
      <trkpt lat="35.335998" lon="127.729728"><ele>1843.7</ele></trkpt>
      <trkpt lat="35.336189" lon="127.729873"><ele>1854.8</ele></trkpt>
      <trkpt lat="35.336248" lon="127.730045"><ele>1861.7</ele></trkpt>
      <trkpt lat="35.336475" lon="127.730237"><ele>1875.7</ele></trkpt>
      <trkpt lat="35.336780" lon="127.730316"><ele>1891.7</ele></trkpt>
      <trkpt lat="35.336868" lon="127.730506"><ele>1895.1</ele></trkpt>
      <trkpt lat="35.336958" lon="127.730585"><ele>1897.5</ele></trkpt>
    </trkseg>
  </trk>
</gpx>
