<?xml version="1.0" encoding="UTF-8"?>
<gpx version="1.1" creator="kr-100-mountains route-harvester"
     xmlns="http://www.topografix.com/GPX/1/1"
     xmlns:k100="https://github.com/jay-jang/kr-100-mountains/ns/1"
     xmlns:xsi="http://www.w3.org/2001/XMLSchema-instance"
     xsi:schemaLocation="http://www.topografix.com/GPX/1/1 http://www.topografix.com/GPX/1/1/gpx.xsd">
  <metadata>
    <name>선운산 · 선운사-마이재-수리봉-천마봉 (OSM 계산 경로)</name>
    <desc>실제 GPS 기록이 아닙니다. OpenStreetMap에 등록된 등산로 선형 위에서 계산한 경로이며, 현장 통제·훼손·출입 제한·계절 통제를 반영하지 않을 수 있습니다. 산행 전 공식 안내를 확인하세요.</desc>
    <time>2026-08-04T05:38:23.503Z</time>
    <link href="https://www.openstreetmap.org/copyright"><text>© OpenStreetMap contributors (ODbL 1.0)</text></link>
    <link href="https://registry.opendata.aws/terrain-tiles/"><text>Elevation: SRTM 1 arc-second (NASA/USGS) via AWS Terrain Tiles</text></link>
    <extensions>
      <k100:provenance>osm-routed</k100:provenance>
      <k100:not_a_recorded_track>true</k100:not_a_recorded_track>
      <k100:mountain_id>seonunsan</k100:mountain_id>
      <k100:mountain_name>선운산</k100:mountain_name>
      <k100:route_id>seonunsan-6e7288ac</k100:route_id>
      <k100:route_index>1</k100:route_index>
      <k100:route_name>선운사-마이재-수리봉-천마봉</k100:route_name>
      <k100:variant>0</k100:variant>
      <k100:source>OpenStreetMap via Overpass API</k100:source>
      <k100:license>ODbL-1.0</k100:license>
      <k100:attribution>© OpenStreetMap contributors</k100:attribution>
      <k100:elevation_source>SRTM 1 arc-second (NASA/USGS) — AWS Terrain Tiles 배포본. 지형 DEM 추정 고도이며 실측 아님</k100:elevation_source>
      <k100:algorithm>dijkstra-grid-v1</k100:algorithm>
      <k100:osm_snapshot>2026-08-04</k100:osm_snapshot>
      <k100:snap_trailhead_m>190</k100:snap_trailhead_m>
      <k100:snap_summit_m>43</k100:snap_summit_m>
      <k100:validation_score>69</k100:validation_score>
      <k100:validation_status>review</k100:validation_status>
    </extensions>
  </metadata>
  <trk>
    <name>선운산 · 선운사-마이재-수리봉-천마봉 (OSM 계산 경로)</name>
    <desc>실제 GPS 기록이 아닙니다. OpenStreetMap에 등록된 등산로 선형 위에서 계산한 경로이며, 현장 통제·훼손·출입 제한·계절 통제를 반영하지 않을 수 있습니다. 산행 전 공식 안내를 확인하세요.</desc>
    <trkseg>
      <trkpt lat="35.500694" lon="126.585313"><ele>20.1</ele></trkpt>
      <trkpt lat="35.499409" lon="126.584085"><ele>25.4</ele></trkpt>
      <trkpt lat="35.498649" lon="126.583236"><ele>21.6</ele></trkpt>
      <trkpt lat="35.498539" lon="126.582815"><ele>22.2</ele></trkpt>
      <trkpt lat="35.498275" lon="126.582477"><ele>23.3</ele></trkpt>
      <trkpt lat="35.498183" lon="126.582206"><ele>24.0</ele></trkpt>
      <trkpt lat="35.497666" lon="126.581710"><ele>26.2</ele></trkpt>
      <trkpt lat="35.497513" lon="126.581496"><ele>28.2</ele></trkpt>
      <trkpt lat="35.497369" lon="126.580687"><ele>31.5</ele></trkpt>
      <trkpt lat="35.497346" lon="126.580125"><ele>31.1</ele></trkpt>
      <trkpt lat="35.498191" lon="126.579338"><ele>33.3</ele></trkpt>
      <trkpt lat="35.498484" lon="126.578846"><ele>36.4</ele></trkpt>
      <trkpt lat="35.498723" lon="126.578566"><ele>40.0</ele></trkpt>
      <trkpt lat="35.498990" lon="126.578435"><ele>40.1</ele></trkpt>
      <trkpt lat="35.499696" lon="126.577919"><ele>43.2</ele></trkpt>
      <trkpt lat="35.499930" lon="126.577653"><ele>47.0</ele></trkpt>
    </trkseg>
  </trk>
</gpx>
