<?xml version="1.0" encoding="UTF-8"?>
<gpx version="1.1" creator="kr-100-mountains route-harvester"
     xmlns="http://www.topografix.com/GPX/1/1"
     xmlns:k100="https://github.com/jay-jang/kr-100-mountains/ns/1"
     xmlns:xsi="http://www.w3.org/2001/XMLSchema-instance"
     xsi:schemaLocation="http://www.topografix.com/GPX/1/1 http://www.topografix.com/GPX/1/1/gpx.xsd">
  <metadata>
    <name>일월산 · 자생화공원 코스 (대안 1) (OSM 계산 경로)</name>
    <desc>실제 GPS 기록이 아닙니다. OpenStreetMap에 등록된 등산로 선형 위에서 계산한 경로이며, 현장 통제·훼손·출입 제한·계절 통제를 반영하지 않을 수 있습니다. 산행 전 공식 안내를 확인하세요.</desc>
    <time>2026-08-04T05:39:27.487Z</time>
    <link href="https://www.openstreetmap.org/copyright"><text>© OpenStreetMap contributors (ODbL 1.0)</text></link>
    <link href="https://registry.opendata.aws/terrain-tiles/"><text>Elevation: SRTM 1 arc-second (NASA/USGS) via AWS Terrain Tiles</text></link>
    <extensions>
      <k100:provenance>osm-routed</k100:provenance>
      <k100:not_a_recorded_track>true</k100:not_a_recorded_track>
      <k100:mountain_id>ilwolsan</k100:mountain_id>
      <k100:mountain_name>일월산</k100:mountain_name>
      <k100:route_id>ilwolsan-87685e90</k100:route_id>
      <k100:route_index>2</k100:route_index>
      <k100:route_name>자생화공원 코스</k100:route_name>
      <k100:variant>1</k100:variant>
      <k100:source>OpenStreetMap via Overpass API</k100:source>
      <k100:license>ODbL-1.0</k100:license>
      <k100:attribution>© OpenStreetMap contributors</k100:attribution>
      <k100:elevation_source>SRTM 1 arc-second (NASA/USGS) — AWS Terrain Tiles 배포본. 지형 DEM 추정 고도이며 실측 아님</k100:elevation_source>
      <k100:algorithm>dijkstra-grid-v1</k100:algorithm>
      <k100:osm_snapshot>2026-08-04</k100:osm_snapshot>
      <k100:snap_trailhead_m>32</k100:snap_trailhead_m>
      <k100:snap_summit_m>7</k100:snap_summit_m>
      <k100:validation_score>100</k100:validation_score>
      <k100:validation_status>accepted</k100:validation_status>
    </extensions>
  </metadata>
  <trk>
    <name>일월산 · 자생화공원 코스 (대안 1) (OSM 계산 경로)</name>
    <desc>실제 GPS 기록이 아닙니다. OpenStreetMap에 등록된 등산로 선형 위에서 계산한 경로이며, 현장 통제·훼손·출입 제한·계절 통제를 반영하지 않을 수 있습니다. 산행 전 공식 안내를 확인하세요.</desc>
    <trkseg>
      <trkpt lat="36.786520" lon="129.073860"><ele>596.1</ele></trkpt>
      <trkpt lat="36.786716" lon="129.073852"><ele>590.8</ele></trkpt>
      <trkpt lat="36.786757" lon="129.073737"><ele>586.9</ele></trkpt>
      <trkpt lat="36.787051" lon="129.073415"><ele>571.7</ele></trkpt>
      <trkpt lat="36.787092" lon="129.073294"><ele>566.8</ele></trkpt>
      <trkpt lat="36.787283" lon="129.073166"><ele>562.1</ele></trkpt>
      <trkpt lat="36.787318" lon="129.073038"><ele>559.6</ele></trkpt>
      <trkpt lat="36.787470" lon="129.072887"><ele>557.1</ele></trkpt>
      <trkpt lat="36.787481" lon="129.072785"><ele>555.6</ele></trkpt>
      <trkpt lat="36.787936" lon="129.072458"><ele>537.8</ele></trkpt>
      <trkpt lat="36.788099" lon="129.072278"><ele>528.8</ele></trkpt>
      <trkpt lat="36.788330" lon="129.072225"><ele>518.2</ele></trkpt>
      <trkpt lat="36.788488" lon="129.072653"><ele>513.2</ele></trkpt>
      <trkpt lat="36.788695" lon="129.073699"><ele>520.1</ele></trkpt>
      <trkpt lat="36.788834" lon="129.074072"><ele>516.0</ele></trkpt>
      <trkpt lat="36.789057" lon="129.074366"><ele>518.4</ele></trkpt>
      <trkpt lat="36.789011" lon="129.074932"><ele>524.8</ele></trkpt>
      <trkpt lat="36.789082" lon="129.075197"><ele>527.8</ele></trkpt>
      <trkpt lat="36.789195" lon="129.075345"><ele>528.8</ele></trkpt>
      <trkpt lat="36.789325" lon="129.075903"><ele>533.8</ele></trkpt>
      <trkpt lat="36.789680" lon="129.076682"><ele>540.7</ele></trkpt>
      <trkpt lat="36.789695" lon="129.076899"><ele>543.6</ele></trkpt>
      <trkpt lat="36.789792" lon="129.077082"><ele>544.5</ele></trkpt>
      <trkpt lat="36.790390" lon="129.077491"><ele>546.7</ele></trkpt>
      <trkpt lat="36.790678" lon="129.077597"><ele>551.3</ele></trkpt>
      <trkpt lat="36.791178" lon="129.078365"><ele>558.9</ele></trkpt>
      <trkpt lat="36.791371" lon="129.078513"><ele>562.6</ele></trkpt>
      <trkpt lat="36.791576" lon="129.078779"><ele>568.3</ele></trkpt>
      <trkpt lat="36.792113" lon="129.078895"><ele>571.3</ele></trkpt>
      <trkpt lat="36.792310" lon="129.078879"><ele>575.1</ele></trkpt>
      <trkpt lat="36.792473" lon="129.078979"><ele>578.4</ele></trkpt>
      <trkpt lat="36.792723" lon="129.079447"><ele>583.8</ele></trkpt>
      <trkpt lat="36.793178" lon="129.079953"><ele>593.9</ele></trkpt>
      <trkpt lat="36.793427" lon="129.080409"><ele>598.9</ele></trkpt>
      <trkpt lat="36.793629" lon="129.080904"><ele>606.7</ele></trkpt>
      <trkpt lat="36.793912" lon="129.081101"><ele>609.3</ele></trkpt>
      <trkpt lat="36.794066" lon="129.081352"><ele>611.4</ele></trkpt>
      <trkpt lat="36.794485" lon="129.081755"><ele>617.8</ele></trkpt>
      <trkpt lat="36.794664" lon="129.082034"><ele>624.9</ele></trkpt>
      <trkpt lat="36.794700" lon="129.082387"><ele>631.0</ele></trkpt>
      <trkpt lat="36.794863" lon="129.082729"><ele>639.4</ele></trkpt>
      <trkpt lat="36.794903" lon="129.083192"><ele>646.9</ele></trkpt>
      <trkpt lat="36.795380" lon="129.084397"><ele>662.7</ele></trkpt>
      <trkpt lat="36.795774" lon="129.084549"><ele>675.0</ele></trkpt>
      <trkpt lat="36.796201" lon="129.085152"><ele>689.4</ele></trkpt>
      <trkpt lat="36.796641" lon="129.085568"><ele>704.7</ele></trkpt>
      <trkpt lat="36.796706" lon="129.085834"><ele>703.4</ele></trkpt>
      <trkpt lat="36.796873" lon="129.085914"><ele>708.9</ele></trkpt>
      <trkpt lat="36.796996" lon="129.086180"><ele>710.6</ele></trkpt>
      <trkpt lat="36.797348" lon="129.086426"><ele>719.7</ele></trkpt>
      <trkpt lat="36.797350" lon="129.086536"><ele>719.3</ele></trkpt>
      <trkpt lat="36.797526" lon="129.086662"><ele>723.2</ele></trkpt>
      <trkpt lat="36.797745" lon="129.086762"><ele>731.4</ele></trkpt>
      <trkpt lat="36.798048" lon="129.086764"><ele>742.2</ele></trkpt>
      <trkpt lat="36.798358" lon="129.087054"><ele>741.7</ele></trkpt>
      <trkpt lat="36.798837" lon="129.087207"><ele>754.5</ele></trkpt>
      <trkpt lat="36.798918" lon="129.087304"><ele>756.9</ele></trkpt>
      <trkpt lat="36.799043" lon="129.087263"><ele>761.9</ele></trkpt>
      <trkpt lat="36.799144" lon="129.087398"><ele>765.5</ele></trkpt>
      <trkpt lat="36.799421" lon="129.087199"><ele>780.0</ele></trkpt>
      <trkpt lat="36.799500" lon="129.087210"><ele>784.1</ele></trkpt>
      <trkpt lat="36.799685" lon="129.087086"><ele>793.3</ele></trkpt>
      <trkpt lat="36.799833" lon="129.087132"><ele>801.9</ele></trkpt>
      <trkpt lat="36.799900" lon="129.087231"><ele>806.2</ele></trkpt>
      <trkpt lat="36.800422" lon="129.087172"><ele>830.2</ele></trkpt>
      <trkpt lat="36.800602" lon="129.086944"><ele>838.7</ele></trkpt>
      <trkpt lat="36.801180" lon="129.086510"><ele>876.1</ele></trkpt>
      <trkpt lat="36.801315" lon="129.086011"><ele>888.9</ele></trkpt>
      <trkpt lat="36.801543" lon="129.085912"><ele>897.7</ele></trkpt>
      <trkpt lat="36.801961" lon="129.086005"><ele>914.7</ele></trkpt>
      <trkpt lat="36.802243" lon="129.086236"><ele>925.1</ele></trkpt>
      <trkpt lat="36.802595" lon="129.086099"><ele>936.2</ele></trkpt>
      <trkpt lat="36.803007" lon="129.086217"><ele>947.2</ele></trkpt>
      <trkpt lat="36.803304" lon="129.086180"><ele>956.2</ele></trkpt>
      <trkpt lat="36.803551" lon="129.086295"><ele>965.0</ele></trkpt>
      <trkpt lat="36.804010" lon="129.086295"><ele>983.2</ele></trkpt>
      <trkpt lat="36.804152" lon="129.086164"><ele>990.5</ele></trkpt>
      <trkpt lat="36.804210" lon="129.086204"><ele>992.0</ele></trkpt>
      <trkpt lat="36.804468" lon="129.086134"><ele>1003.3</ele></trkpt>
      <trkpt lat="36.805153" lon="129.086325"><ele>1021.7</ele></trkpt>
      <trkpt lat="36.805509" lon="129.086086"><ele>1037.0</ele></trkpt>
      <trkpt lat="36.805769" lon="129.086081"><ele>1045.6</ele></trkpt>
      <trkpt lat="36.805952" lon="129.086013"><ele>1052.1</ele></trkpt>
      <trkpt lat="36.806124" lon="129.086086"><ele>1055.0</ele></trkpt>
      <trkpt lat="36.806598" lon="129.085979"><ele>1075.2</ele></trkpt>
      <trkpt lat="36.806856" lon="129.085984"><ele>1084.6</ele></trkpt>
      <trkpt lat="36.807663" lon="129.086386"><ele>1105.8</ele></trkpt>
      <trkpt lat="36.807979" lon="129.086426"><ele>1115.4</ele></trkpt>
      <trkpt lat="36.808136" lon="129.086582"><ele>1117.7</ele></trkpt>
      <trkpt lat="36.808445" lon="129.087759"><ele>1123.9</ele></trkpt>
      <trkpt lat="36.808520" lon="129.089924"><ele>1136.7</ele></trkpt>
      <trkpt lat="36.808956" lon="129.090200"><ele>1135.9</ele></trkpt>
      <trkpt lat="36.809012" lon="129.090382"><ele>1133.3</ele></trkpt>
      <trkpt lat="36.809012" lon="129.090613"><ele>1131.9</ele></trkpt>
      <trkpt lat="36.808962" lon="129.090786"><ele>1133.3</ele></trkpt>
      <trkpt lat="36.808419" lon="129.091654"><ele>1130.8</ele></trkpt>
      <trkpt lat="36.808389" lon="129.091806"><ele>1127.7</ele></trkpt>
      <trkpt lat="36.808226" lon="129.091918"><ele>1130.5</ele></trkpt>
      <trkpt lat="36.807672" lon="129.092657"><ele>1134.6</ele></trkpt>
      <trkpt lat="36.807424" lon="129.093331"><ele>1129.5</ele></trkpt>
      <trkpt lat="36.807071" lon="129.093794"><ele>1133.7</ele></trkpt>
      <trkpt lat="36.806928" lon="129.094258"><ele>1129.7</ele></trkpt>
      <trkpt lat="36.806850" lon="129.094823"><ele>1119.2</ele></trkpt>
      <trkpt lat="36.806663" lon="129.095454"><ele>1117.6</ele></trkpt>
      <trkpt lat="36.806474" lon="129.095800"><ele>1123.1</ele></trkpt>
      <trkpt lat="36.806278" lon="129.096560"><ele>1130.1</ele></trkpt>
      <trkpt lat="36.806259" lon="129.097168"><ele>1130.8</ele></trkpt>
      <trkpt lat="36.806373" lon="129.097726"><ele>1124.2</ele></trkpt>
      <trkpt lat="36.806311" lon="129.097962"><ele>1125.7</ele></trkpt>
      <trkpt lat="36.806141" lon="129.098161"><ele>1130.2</ele></trkpt>
      <trkpt lat="36.805870" lon="129.098349"><ele>1134.6</ele></trkpt>
      <trkpt lat="36.805728" lon="129.098657"><ele>1121.4</ele></trkpt>
      <trkpt lat="36.805550" lon="129.098778"><ele>1117.4</ele></trkpt>
      <trkpt lat="36.805342" lon="129.098780"><ele>1126.0</ele></trkpt>
      <trkpt lat="36.805267" lon="129.098923"><ele>1123.6</ele></trkpt>
      <trkpt lat="36.804936" lon="129.099255"><ele>1132.5</ele></trkpt>
      <trkpt lat="36.804657" lon="129.099735"><ele>1135.5</ele></trkpt>
      <trkpt lat="36.804545" lon="129.100146"><ele>1140.4</ele></trkpt>
      <trkpt lat="36.804502" lon="129.101267"><ele>1144.4</ele></trkpt>
      <trkpt lat="36.804469" lon="129.101324"><ele>1148.0</ele></trkpt>
      <trkpt lat="36.804323" lon="129.101204"><ele>1158.4</ele></trkpt>
      <trkpt lat="36.804271" lon="129.101295"><ele>1163.4</ele></trkpt>
      <trkpt lat="36.804236" lon="129.101782"><ele>1168.6</ele></trkpt>
      <trkpt lat="36.804177" lon="129.101801"><ele>1172.8</ele></trkpt>
      <trkpt lat="36.803983" lon="129.102138"><ele>1182.1</ele></trkpt>
      <trkpt lat="36.803857" lon="129.102206"><ele>1187.6</ele></trkpt>
      <trkpt lat="36.803828" lon="129.102324"><ele>1187.8</ele></trkpt>
      <trkpt lat="36.803478" lon="129.102737"><ele>1199.1</ele></trkpt>
      <trkpt lat="36.803314" lon="129.102823"><ele>1204.1</ele></trkpt>
    </trkseg>
  </trk>
</gpx>
