<?xml version="1.0" encoding="UTF-8"?>
<gpx version="1.1" creator="kr-100-mountains route-harvester"
     xmlns="http://www.topografix.com/GPX/1/1"
     xmlns:k100="https://github.com/jay-jang/kr-100-mountains/ns/1"
     xmlns:xsi="http://www.w3.org/2001/XMLSchema-instance"
     xsi:schemaLocation="http://www.topografix.com/GPX/1/1 http://www.topografix.com/GPX/1/1/gpx.xsd">
  <metadata>
    <name>불암산 · 중계동 능선(암릉) 코스 (대안 2) (OSM 계산 경로)</name>
    <desc>실제 GPS 기록이 아닙니다. OpenStreetMap에 등록된 등산로 선형 위에서 계산한 경로이며, 현장 통제·훼손·출입 제한·계절 통제를 반영하지 않을 수 있습니다. 산행 전 공식 안내를 확인하세요.</desc>
    <time>2026-08-04T05:18:37.243Z</time>
    <link href="https://www.openstreetmap.org/copyright"><text>© OpenStreetMap contributors (ODbL 1.0)</text></link>
    <link href="https://registry.opendata.aws/terrain-tiles/"><text>Elevation: SRTM 1 arc-second (NASA/USGS) via AWS Terrain Tiles</text></link>
    <extensions>
      <k100:provenance>osm-routed</k100:provenance>
      <k100:not_a_recorded_track>true</k100:not_a_recorded_track>
      <k100:mountain_id>bulamsan</k100:mountain_id>
      <k100:mountain_name>불암산</k100:mountain_name>
      <k100:route_id>bulamsan-ab1c6bef</k100:route_id>
      <k100:route_index>3</k100:route_index>
      <k100:route_name>중계동 능선(암릉) 코스</k100:route_name>
      <k100:variant>2</k100:variant>
      <k100:source>OpenStreetMap via Overpass API</k100:source>
      <k100:license>ODbL-1.0</k100:license>
      <k100:attribution>© OpenStreetMap contributors</k100:attribution>
      <k100:elevation_source>SRTM 1 arc-second (NASA/USGS) — AWS Terrain Tiles 배포본. 지형 DEM 추정 고도이며 실측 아님</k100:elevation_source>
      <k100:algorithm>dijkstra-grid-v1</k100:algorithm>
      <k100:osm_snapshot>2026-08-04</k100:osm_snapshot>
      <k100:snap_trailhead_m>26</k100:snap_trailhead_m>
      <k100:snap_summit_m>115</k100:snap_summit_m>
      <k100:validation_score>73</k100:validation_score>
      <k100:validation_status>review</k100:validation_status>
    </extensions>
  </metadata>
  <trk>
    <name>불암산 · 중계동 능선(암릉) 코스 (대안 2) (OSM 계산 경로)</name>
    <desc>실제 GPS 기록이 아닙니다. OpenStreetMap에 등록된 등산로 선형 위에서 계산한 경로이며, 현장 통제·훼손·출입 제한·계절 통제를 반영하지 않을 수 있습니다. 산행 전 공식 안내를 확인하세요.</desc>
    <trkseg>
      <trkpt lat="37.648050" lon="127.079230"><ele>44.1</ele></trkpt>
      <trkpt lat="37.648010" lon="127.080670"><ele>44.3</ele></trkpt>
      <trkpt lat="37.649300" lon="127.080910"><ele>42.8</ele></trkpt>
      <trkpt lat="37.649058" lon="127.081166"><ele>44.4</ele></trkpt>
      <trkpt lat="37.649625" lon="127.081928"><ele>45.2</ele></trkpt>
      <trkpt lat="37.649524" lon="127.082085"><ele>46.7</ele></trkpt>
      <trkpt lat="37.649613" lon="127.082273"><ele>46.1</ele></trkpt>
      <trkpt lat="37.649554" lon="127.082793"><ele>48.5</ele></trkpt>
      <trkpt lat="37.648974" lon="127.083724"><ele>52.3</ele></trkpt>
      <trkpt lat="37.649117" lon="127.084255"><ele>51.6</ele></trkpt>
      <trkpt lat="37.649133" lon="127.085476"><ele>56.2</ele></trkpt>
      <trkpt lat="37.649287" lon="127.085878"><ele>61.2</ele></trkpt>
      <trkpt lat="37.649071" lon="127.086087"><ele>63.2</ele></trkpt>
      <trkpt lat="37.649002" lon="127.086346"><ele>66.9</ele></trkpt>
      <trkpt lat="37.649032" lon="127.086783"><ele>73.7</ele></trkpt>
      <trkpt lat="37.649123" lon="127.086977"><ele>76.4</ele></trkpt>
      <trkpt lat="37.649412" lon="127.087419"><ele>88.4</ele></trkpt>
      <trkpt lat="37.649801" lon="127.087537"><ele>91.0</ele></trkpt>
      <trkpt lat="37.649974" lon="127.088202"><ele>100.9</ele></trkpt>
      <trkpt lat="37.649625" lon="127.088337"><ele>101.4</ele></trkpt>
      <trkpt lat="37.649149" lon="127.088429"><ele>106.2</ele></trkpt>
      <trkpt lat="37.648450" lon="127.088381"><ele>98.8</ele></trkpt>
      <trkpt lat="37.648226" lon="127.088513"><ele>98.4</ele></trkpt>
      <trkpt lat="37.647987" lon="127.088863"><ele>101.6</ele></trkpt>
      <trkpt lat="37.647812" lon="127.088962"><ele>104.1</ele></trkpt>
      <trkpt lat="37.647085" lon="127.088889"><ele>112.0</ele></trkpt>
      <trkpt lat="37.646851" lon="127.088749"><ele>109.8</ele></trkpt>
      <trkpt lat="37.646352" lon="127.088618"><ele>102.9</ele></trkpt>
      <trkpt lat="37.646133" lon="127.088645"><ele>102.0</ele></trkpt>
      <trkpt lat="37.645709" lon="127.088914"><ele>102.1</ele></trkpt>
      <trkpt lat="37.645654" lon="127.089176"><ele>106.5</ele></trkpt>
      <trkpt lat="37.645921" lon="127.089356"><ele>111.1</ele></trkpt>
      <trkpt lat="37.646214" lon="127.090209"><ele>126.5</ele></trkpt>
      <trkpt lat="37.646549" lon="127.090605"><ele>137.9</ele></trkpt>
      <trkpt lat="37.646609" lon="127.090949"><ele>145.4</ele></trkpt>
      <trkpt lat="37.646817" lon="127.091507"><ele>162.3</ele></trkpt>
      <trkpt lat="37.647067" lon="127.091678"><ele>173.0</ele></trkpt>
      <trkpt lat="37.647709" lon="127.091871"><ele>191.2</ele></trkpt>
      <trkpt lat="37.647807" lon="127.092011"><ele>196.3</ele></trkpt>
      <trkpt lat="37.647951" lon="127.092563"><ele>211.4</ele></trkpt>
      <trkpt lat="37.648152" lon="127.092906"><ele>217.7</ele></trkpt>
      <trkpt lat="37.648049" lon="127.092964"><ele>215.2</ele></trkpt>
      <trkpt lat="37.647913" lon="127.093197"><ele>210.4</ele></trkpt>
      <trkpt lat="37.647809" lon="127.093516"><ele>204.2</ele></trkpt>
      <trkpt lat="37.647480" lon="127.093604"><ele>197.2</ele></trkpt>
      <trkpt lat="37.647182" lon="127.093470"><ele>196.1</ele></trkpt>
      <trkpt lat="37.646620" lon="127.093585"><ele>199.1</ele></trkpt>
      <trkpt lat="37.646383" lon="127.093835"><ele>202.6</ele></trkpt>
      <trkpt lat="37.646000" lon="127.094382"><ele>193.6</ele></trkpt>
      <trkpt lat="37.645615" lon="127.094503"><ele>192.9</ele></trkpt>
      <trkpt lat="37.645468" lon="127.095348"><ele>178.7</ele></trkpt>
      <trkpt lat="37.645450" lon="127.096985"><ele>159.5</ele></trkpt>
      <trkpt lat="37.645227" lon="127.098000"><ele>155.0</ele></trkpt>
      <trkpt lat="37.645041" lon="127.098089"><ele>154.9</ele></trkpt>
      <trkpt lat="37.644723" lon="127.097982"><ele>151.7</ele></trkpt>
      <trkpt lat="37.644239" lon="127.098306"><ele>144.8</ele></trkpt>
      <trkpt lat="37.643481" lon="127.098276"><ele>140.0</ele></trkpt>
      <trkpt lat="37.643126" lon="127.098427"><ele>135.1</ele></trkpt>
      <trkpt lat="37.642278" lon="127.099270"><ele>111.3</ele></trkpt>
      <trkpt lat="37.641793" lon="127.099447"><ele>104.9</ele></trkpt>
      <trkpt lat="37.641562" lon="127.099701"><ele>103.6</ele></trkpt>
      <trkpt lat="37.641266" lon="127.099764"><ele>102.4</ele></trkpt>
      <trkpt lat="37.641084" lon="127.099681"><ele>101.2</ele></trkpt>
      <trkpt lat="37.640841" lon="127.099337"><ele>104.9</ele></trkpt>
      <trkpt lat="37.640711" lon="127.099280"><ele>107.1</ele></trkpt>
      <trkpt lat="37.640872" lon="127.098719"><ele>112.6</ele></trkpt>
      <trkpt lat="37.641006" lon="127.098612"><ele>113.4</ele></trkpt>
      <trkpt lat="37.641155" lon="127.098636"><ele>112.7</ele></trkpt>
      <trkpt lat="37.641296" lon="127.098566"><ele>113.5</ele></trkpt>
      <trkpt lat="37.641441" lon="127.098611"><ele>113.0</ele></trkpt>
      <trkpt lat="37.641583" lon="127.098557"><ele>113.4</ele></trkpt>
      <trkpt lat="37.642035" lon="127.098004"><ele>119.0</ele></trkpt>
      <trkpt lat="37.642078" lon="127.097869"><ele>120.8</ele></trkpt>
      <trkpt lat="37.642040" lon="127.097670"><ele>124.8</ele></trkpt>
      <trkpt lat="37.642221" lon="127.097225"><ele>132.0</ele></trkpt>
      <trkpt lat="37.642234" lon="127.097056"><ele>135.4</ele></trkpt>
      <trkpt lat="37.642200" lon="127.096702"><ele>146.0</ele></trkpt>
      <trkpt lat="37.642055" lon="127.096069"><ele>166.2</ele></trkpt>
      <trkpt lat="37.642187" lon="127.095511"><ele>177.1</ele></trkpt>
    </trkseg>
  </trk>
</gpx>
