<?xml version="1.0" encoding="UTF-8"?>
<gpx version="1.1" creator="kr-100-mountains route-harvester"
     xmlns="http://www.topografix.com/GPX/1/1"
     xmlns:k100="https://github.com/jay-jang/kr-100-mountains/ns/1"
     xmlns:xsi="http://www.w3.org/2001/XMLSchema-instance"
     xsi:schemaLocation="http://www.topografix.com/GPX/1/1 http://www.topografix.com/GPX/1/1/gpx.xsd">
  <metadata>
    <name>불암산 · 상계역 코스 (OSM 계산 경로)</name>
    <desc>실제 GPS 기록이 아닙니다. OpenStreetMap에 등록된 등산로 선형 위에서 계산한 경로이며, 현장 통제·훼손·출입 제한·계절 통제를 반영하지 않을 수 있습니다. 산행 전 공식 안내를 확인하세요.</desc>
    <time>2026-08-04T05:18:36.993Z</time>
    <link href="https://www.openstreetmap.org/copyright"><text>© OpenStreetMap contributors (ODbL 1.0)</text></link>
    <link href="https://registry.opendata.aws/terrain-tiles/"><text>Elevation: SRTM 1 arc-second (NASA/USGS) via AWS Terrain Tiles</text></link>
    <extensions>
      <k100:provenance>osm-routed</k100:provenance>
      <k100:not_a_recorded_track>true</k100:not_a_recorded_track>
      <k100:mountain_id>bulamsan</k100:mountain_id>
      <k100:mountain_name>불암산</k100:mountain_name>
      <k100:route_id>bulamsan-17847f7a</k100:route_id>
      <k100:route_index>1</k100:route_index>
      <k100:route_name>상계역 코스</k100:route_name>
      <k100:variant>0</k100:variant>
      <k100:source>OpenStreetMap via Overpass API</k100:source>
      <k100:license>ODbL-1.0</k100:license>
      <k100:attribution>© OpenStreetMap contributors</k100:attribution>
      <k100:elevation_source>SRTM 1 arc-second (NASA/USGS) — AWS Terrain Tiles 배포본. 지형 DEM 추정 고도이며 실측 아님</k100:elevation_source>
      <k100:algorithm>dijkstra-grid-v1</k100:algorithm>
      <k100:osm_snapshot>2026-08-04</k100:osm_snapshot>
      <k100:snap_trailhead_m>3</k100:snap_trailhead_m>
      <k100:snap_summit_m>115</k100:snap_summit_m>
      <k100:validation_score>73</k100:validation_score>
      <k100:validation_status>review</k100:validation_status>
    </extensions>
  </metadata>
  <trk>
    <name>불암산 · 상계역 코스 (OSM 계산 경로)</name>
    <desc>실제 GPS 기록이 아닙니다. OpenStreetMap에 등록된 등산로 선형 위에서 계산한 경로이며, 현장 통제·훼손·출입 제한·계절 통제를 반영하지 않을 수 있습니다. 산행 전 공식 안내를 확인하세요.</desc>
    <trkseg>
      <trkpt lat="37.660103" lon="127.073066"><ele>46.6</ele></trkpt>
      <trkpt lat="37.660216" lon="127.073176"><ele>45.5</ele></trkpt>
      <trkpt lat="37.659903" lon="127.073715"><ele>44.1</ele></trkpt>
      <trkpt lat="37.660221" lon="127.073886"><ele>43.2</ele></trkpt>
      <trkpt lat="37.659703" lon="127.075375"><ele>37.7</ele></trkpt>
      <trkpt lat="37.659661" lon="127.076891"><ele>43.0</ele></trkpt>
      <trkpt lat="37.657420" lon="127.076917"><ele>42.3</ele></trkpt>
      <trkpt lat="37.657137" lon="127.076831"><ele>42.0</ele></trkpt>
      <trkpt lat="37.656847" lon="127.077656"><ele>41.1</ele></trkpt>
      <trkpt lat="37.656585" lon="127.077953"><ele>40.0</ele></trkpt>
      <trkpt lat="37.656328" lon="127.078082"><ele>40.5</ele></trkpt>
      <trkpt lat="37.656367" lon="127.079984"><ele>48.9</ele></trkpt>
      <trkpt lat="37.655438" lon="127.080007"><ele>45.2</ele></trkpt>
      <trkpt lat="37.655328" lon="127.080587"><ele>52.2</ele></trkpt>
      <trkpt lat="37.655152" lon="127.080617"><ele>54.9</ele></trkpt>
      <trkpt lat="37.655065" lon="127.080708"><ele>58.1</ele></trkpt>
      <trkpt lat="37.654969" lon="127.080955"><ele>63.8</ele></trkpt>
      <trkpt lat="37.654861" lon="127.081381"><ele>69.9</ele></trkpt>
      <trkpt lat="37.654925" lon="127.081913"><ele>69.8</ele></trkpt>
      <trkpt lat="37.655114" lon="127.082427"><ele>76.2</ele></trkpt>
      <trkpt lat="37.655091" lon="127.083246"><ele>88.2</ele></trkpt>
      <trkpt lat="37.655042" lon="127.083367"><ele>89.5</ele></trkpt>
      <trkpt lat="37.654918" lon="127.083252"><ele>85.1</ele></trkpt>
      <trkpt lat="37.654689" lon="127.083294"><ele>80.9</ele></trkpt>
      <trkpt lat="37.654107" lon="127.083569"><ele>77.5</ele></trkpt>
      <trkpt lat="37.653925" lon="127.083825"><ele>81.3</ele></trkpt>
      <trkpt lat="37.653671" lon="127.083818"><ele>76.5</ele></trkpt>
      <trkpt lat="37.653624" lon="127.084034"><ele>80.9</ele></trkpt>
      <trkpt lat="37.653235" lon="127.084211"><ele>78.0</ele></trkpt>
      <trkpt lat="37.653205" lon="127.084450"><ele>83.4</ele></trkpt>
      <trkpt lat="37.652786" lon="127.084852"><ele>81.7</ele></trkpt>
      <trkpt lat="37.652540" lon="127.084919"><ele>73.0</ele></trkpt>
      <trkpt lat="37.651901" lon="127.085413"><ele>72.9</ele></trkpt>
      <trkpt lat="37.651755" lon="127.085440"><ele>72.9</ele></trkpt>
      <trkpt lat="37.651559" lon="127.085702"><ele>76.4</ele></trkpt>
      <trkpt lat="37.651353" lon="127.086472"><ele>83.1</ele></trkpt>
      <trkpt lat="37.651261" lon="127.086613"><ele>83.4</ele></trkpt>
      <trkpt lat="37.651020" lon="127.086775"><ele>86.1</ele></trkpt>
      <trkpt lat="37.650684" lon="127.087280"><ele>97.3</ele></trkpt>
      <trkpt lat="37.650529" lon="127.087658"><ele>94.6</ele></trkpt>
      <trkpt lat="37.650542" lon="127.087868"><ele>95.3</ele></trkpt>
      <trkpt lat="37.650467" lon="127.088090"><ele>98.8</ele></trkpt>
      <trkpt lat="37.650045" lon="127.088149"><ele>100.2</ele></trkpt>
      <trkpt lat="37.649625" lon="127.088337"><ele>101.4</ele></trkpt>
      <trkpt lat="37.649149" lon="127.088429"><ele>106.2</ele></trkpt>
      <trkpt lat="37.648450" lon="127.088381"><ele>98.8</ele></trkpt>
      <trkpt lat="37.648226" lon="127.088513"><ele>98.4</ele></trkpt>
      <trkpt lat="37.647987" lon="127.088863"><ele>101.6</ele></trkpt>
      <trkpt lat="37.647812" lon="127.088962"><ele>104.1</ele></trkpt>
      <trkpt lat="37.647085" lon="127.088889"><ele>112.0</ele></trkpt>
      <trkpt lat="37.646851" lon="127.088749"><ele>109.8</ele></trkpt>
      <trkpt lat="37.646352" lon="127.088618"><ele>102.9</ele></trkpt>
      <trkpt lat="37.646133" lon="127.088645"><ele>102.0</ele></trkpt>
      <trkpt lat="37.645709" lon="127.088914"><ele>102.1</ele></trkpt>
      <trkpt lat="37.645555" lon="127.089785"><ele>114.9</ele></trkpt>
      <trkpt lat="37.645301" lon="127.090155"><ele>118.3</ele></trkpt>
      <trkpt lat="37.645080" lon="127.090756"><ele>119.0</ele></trkpt>
      <trkpt lat="37.644855" lon="127.090777"><ele>115.4</ele></trkpt>
      <trkpt lat="37.644246" lon="127.091155"><ele>120.7</ele></trkpt>
      <trkpt lat="37.643746" lon="127.091571"><ele>135.2</ele></trkpt>
      <trkpt lat="37.643503" lon="127.091845"><ele>142.1</ele></trkpt>
      <trkpt lat="37.643279" lon="127.091957"><ele>151.8</ele></trkpt>
      <trkpt lat="37.643042" lon="127.091951"><ele>163.2</ele></trkpt>
      <trkpt lat="37.642998" lon="127.091705"><ele>167.3</ele></trkpt>
      <trkpt lat="37.642561" lon="127.091315"><ele>171.1</ele></trkpt>
      <trkpt lat="37.642352" lon="127.091323"><ele>171.9</ele></trkpt>
      <trkpt lat="37.642147" lon="127.091560"><ele>169.0</ele></trkpt>
      <trkpt lat="37.642291" lon="127.091974"><ele>169.1</ele></trkpt>
      <trkpt lat="37.642317" lon="127.092242"><ele>170.1</ele></trkpt>
      <trkpt lat="37.642439" lon="127.092315"><ele>171.9</ele></trkpt>
      <trkpt lat="37.642404" lon="127.092549"><ele>173.8</ele></trkpt>
      <trkpt lat="37.642480" lon="127.092588"><ele>176.2</ele></trkpt>
      <trkpt lat="37.642481" lon="127.092692"><ele>179.1</ele></trkpt>
      <trkpt lat="37.642319" lon="127.092801"><ele>178.2</ele></trkpt>
      <trkpt lat="37.642308" lon="127.093007"><ele>184.6</ele></trkpt>
      <trkpt lat="37.642476" lon="127.093213"><ele>194.4</ele></trkpt>
      <trkpt lat="37.642451" lon="127.093692"><ele>200.2</ele></trkpt>
      <trkpt lat="37.642568" lon="127.093888"><ele>202.7</ele></trkpt>
      <trkpt lat="37.642776" lon="127.094039"><ele>204.5</ele></trkpt>
      <trkpt lat="37.642011" lon="127.094618"><ele>199.0</ele></trkpt>
      <trkpt lat="37.642053" lon="127.094983"><ele>190.9</ele></trkpt>
      <trkpt lat="37.642206" lon="127.095270"><ele>179.3</ele></trkpt>
      <trkpt lat="37.642187" lon="127.095511"><ele>177.1</ele></trkpt>
    </trkseg>
  </trk>
</gpx>
