<?xml version="1.0" encoding="UTF-8"?>
<gpx version="1.1" creator="kr-100-mountains route-harvester"
     xmlns="http://www.topografix.com/GPX/1/1"
     xmlns:k100="https://github.com/jay-jang/kr-100-mountains/ns/1"
     xmlns:xsi="http://www.w3.org/2001/XMLSchema-instance"
     xsi:schemaLocation="http://www.topografix.com/GPX/1/1 http://www.topografix.com/GPX/1/1/gpx.xsd">
  <metadata>
    <name>불암산 · 중계본동-학도암-정상 코스 (대안 1) (OSM 계산 경로)</name>
    <desc>실제 GPS 기록이 아닙니다. OpenStreetMap에 등록된 등산로 선형 위에서 계산한 경로이며, 현장 통제·훼손·출입 제한·계절 통제를 반영하지 않을 수 있습니다. 산행 전 공식 안내를 확인하세요.</desc>
    <time>2026-08-04T05:18:37.264Z</time>
    <link href="https://www.openstreetmap.org/copyright"><text>© OpenStreetMap contributors (ODbL 1.0)</text></link>
    <link href="https://registry.opendata.aws/terrain-tiles/"><text>Elevation: SRTM 1 arc-second (NASA/USGS) via AWS Terrain Tiles</text></link>
    <extensions>
      <k100:provenance>osm-routed</k100:provenance>
      <k100:not_a_recorded_track>true</k100:not_a_recorded_track>
      <k100:mountain_id>bulamsan</k100:mountain_id>
      <k100:mountain_name>불암산</k100:mountain_name>
      <k100:route_id>bulamsan-68d99871</k100:route_id>
      <k100:route_index>4</k100:route_index>
      <k100:route_name>중계본동-학도암-정상 코스</k100:route_name>
      <k100:variant>1</k100:variant>
      <k100:source>OpenStreetMap via Overpass API</k100:source>
      <k100:license>ODbL-1.0</k100:license>
      <k100:attribution>© OpenStreetMap contributors</k100:attribution>
      <k100:elevation_source>SRTM 1 arc-second (NASA/USGS) — AWS Terrain Tiles 배포본. 지형 DEM 추정 고도이며 실측 아님</k100:elevation_source>
      <k100:algorithm>dijkstra-grid-v1</k100:algorithm>
      <k100:osm_snapshot>2026-08-04</k100:osm_snapshot>
      <k100:snap_trailhead_m>5</k100:snap_trailhead_m>
      <k100:snap_summit_m>115</k100:snap_summit_m>
      <k100:validation_score>82</k100:validation_score>
      <k100:validation_status>accepted</k100:validation_status>
    </extensions>
  </metadata>
  <trk>
    <name>불암산 · 중계본동-학도암-정상 코스 (대안 1) (OSM 계산 경로)</name>
    <desc>실제 GPS 기록이 아닙니다. OpenStreetMap에 등록된 등산로 선형 위에서 계산한 경로이며, 현장 통제·훼손·출입 제한·계절 통제를 반영하지 않을 수 있습니다. 산행 전 공식 안내를 확인하세요.</desc>
    <trkseg>
      <trkpt lat="37.645177" lon="127.086571"><ele>82.4</ele></trkpt>
      <trkpt lat="37.645462" lon="127.088304"><ele>94.5</ele></trkpt>
      <trkpt lat="37.645709" lon="127.088914"><ele>102.1</ele></trkpt>
      <trkpt lat="37.645654" lon="127.089176"><ele>106.5</ele></trkpt>
      <trkpt lat="37.645921" lon="127.089356"><ele>111.1</ele></trkpt>
      <trkpt lat="37.646214" lon="127.090209"><ele>126.5</ele></trkpt>
      <trkpt lat="37.646549" lon="127.090605"><ele>137.9</ele></trkpt>
      <trkpt lat="37.646609" lon="127.090949"><ele>145.4</ele></trkpt>
      <trkpt lat="37.646817" lon="127.091507"><ele>162.3</ele></trkpt>
      <trkpt lat="37.647067" lon="127.091678"><ele>173.0</ele></trkpt>
      <trkpt lat="37.647709" lon="127.091871"><ele>191.2</ele></trkpt>
      <trkpt lat="37.647807" lon="127.092011"><ele>196.3</ele></trkpt>
      <trkpt lat="37.647951" lon="127.092563"><ele>211.4</ele></trkpt>
      <trkpt lat="37.648152" lon="127.092906"><ele>217.7</ele></trkpt>
      <trkpt lat="37.648049" lon="127.092964"><ele>215.2</ele></trkpt>
      <trkpt lat="37.647913" lon="127.093197"><ele>210.4</ele></trkpt>
      <trkpt lat="37.647809" lon="127.093516"><ele>204.2</ele></trkpt>
      <trkpt lat="37.647480" lon="127.093604"><ele>197.2</ele></trkpt>
      <trkpt lat="37.647182" lon="127.093470"><ele>196.1</ele></trkpt>
      <trkpt lat="37.646620" lon="127.093585"><ele>199.1</ele></trkpt>
      <trkpt lat="37.646383" lon="127.093835"><ele>202.6</ele></trkpt>
      <trkpt lat="37.646000" lon="127.094382"><ele>193.6</ele></trkpt>
      <trkpt lat="37.645799" lon="127.094467"><ele>192.5</ele></trkpt>
      <trkpt lat="37.645615" lon="127.094503"><ele>192.9</ele></trkpt>
      <trkpt lat="37.645303" lon="127.094318"><ele>197.8</ele></trkpt>
      <trkpt lat="37.645182" lon="127.094302"><ele>200.6</ele></trkpt>
      <trkpt lat="37.644908" lon="127.094353"><ele>204.9</ele></trkpt>
      <trkpt lat="37.644740" lon="127.094497"><ele>202.4</ele></trkpt>
      <trkpt lat="37.644132" lon="127.094546"><ele>203.6</ele></trkpt>
      <trkpt lat="37.643973" lon="127.094602"><ele>203.5</ele></trkpt>
      <trkpt lat="37.643670" lon="127.094516"><ele>204.6</ele></trkpt>
      <trkpt lat="37.643429" lon="127.094302"><ele>204.5</ele></trkpt>
      <trkpt lat="37.643302" lon="127.094295"><ele>204.7</ele></trkpt>
      <trkpt lat="37.643206" lon="127.094218"><ele>204.3</ele></trkpt>
      <trkpt lat="37.643035" lon="127.094227"><ele>203.3</ele></trkpt>
      <trkpt lat="37.642776" lon="127.094039"><ele>204.5</ele></trkpt>
      <trkpt lat="37.642011" lon="127.094618"><ele>199.0</ele></trkpt>
      <trkpt lat="37.642053" lon="127.094983"><ele>190.9</ele></trkpt>
      <trkpt lat="37.642206" lon="127.095270"><ele>179.3</ele></trkpt>
      <trkpt lat="37.642187" lon="127.095511"><ele>177.1</ele></trkpt>
    </trkseg>
  </trk>
</gpx>
