<?xml version="1.0" encoding="UTF-8"?>
<gpx version="1.1" creator="kr-100-mountains route-harvester"
     xmlns="http://www.topografix.com/GPX/1/1"
     xmlns:k100="https://github.com/jay-jang/kr-100-mountains/ns/1"
     xmlns:xsi="http://www.w3.org/2001/XMLSchema-instance"
     xsi:schemaLocation="http://www.topografix.com/GPX/1/1 http://www.topografix.com/GPX/1/1/gpx.xsd">
  <metadata>
    <name>불암산 · 공릉(백세문) 코스 (대안 2) (OSM 계산 경로)</name>
    <desc>실제 GPS 기록이 아닙니다. OpenStreetMap에 등록된 등산로 선형 위에서 계산한 경로이며, 현장 통제·훼손·출입 제한·계절 통제를 반영하지 않을 수 있습니다. 산행 전 공식 안내를 확인하세요.</desc>
    <time>2026-08-04T05:18:37.180Z</time>
    <link href="https://www.openstreetmap.org/copyright"><text>© OpenStreetMap contributors (ODbL 1.0)</text></link>
    <link href="https://registry.opendata.aws/terrain-tiles/"><text>Elevation: SRTM 1 arc-second (NASA/USGS) via AWS Terrain Tiles</text></link>
    <extensions>
      <k100:provenance>osm-routed</k100:provenance>
      <k100:not_a_recorded_track>true</k100:not_a_recorded_track>
      <k100:mountain_id>bulamsan</k100:mountain_id>
      <k100:mountain_name>불암산</k100:mountain_name>
      <k100:route_id>bulamsan-733402c1</k100:route_id>
      <k100:route_index>2</k100:route_index>
      <k100:route_name>공릉(백세문) 코스</k100:route_name>
      <k100:variant>2</k100:variant>
      <k100:source>OpenStreetMap via Overpass API</k100:source>
      <k100:license>ODbL-1.0</k100:license>
      <k100:attribution>© OpenStreetMap contributors</k100:attribution>
      <k100:elevation_source>SRTM 1 arc-second (NASA/USGS) — AWS Terrain Tiles 배포본. 지형 DEM 추정 고도이며 실측 아님</k100:elevation_source>
      <k100:algorithm>dijkstra-grid-v1</k100:algorithm>
      <k100:osm_snapshot>2026-08-04</k100:osm_snapshot>
      <k100:snap_trailhead_m>53</k100:snap_trailhead_m>
      <k100:snap_summit_m>115</k100:snap_summit_m>
      <k100:validation_score>89</k100:validation_score>
      <k100:validation_status>accepted</k100:validation_status>
    </extensions>
  </metadata>
  <trk>
    <name>불암산 · 공릉(백세문) 코스 (대안 2) (OSM 계산 경로)</name>
    <desc>실제 GPS 기록이 아닙니다. OpenStreetMap에 등록된 등산로 선형 위에서 계산한 경로이며, 현장 통제·훼손·출입 제한·계절 통제를 반영하지 않을 수 있습니다. 산행 전 공식 안내를 확인하세요.</desc>
    <trkseg>
      <trkpt lat="37.626910" lon="127.085731"><ele>60.1</ele></trkpt>
      <trkpt lat="37.628004" lon="127.085179"><ele>60.9</ele></trkpt>
      <trkpt lat="37.628031" lon="127.084990"><ele>60.1</ele></trkpt>
      <trkpt lat="37.628150" lon="127.084787"><ele>56.5</ele></trkpt>
      <trkpt lat="37.631349" lon="127.083021"><ele>37.6</ele></trkpt>
      <trkpt lat="37.631486" lon="127.082720"><ele>38.0</ele></trkpt>
      <trkpt lat="37.631594" lon="127.082685"><ele>39.0</ele></trkpt>
      <trkpt lat="37.632156" lon="127.082857"><ele>42.7</ele></trkpt>
      <trkpt lat="37.633097" lon="127.082826"><ele>52.4</ele></trkpt>
      <trkpt lat="37.633176" lon="127.082690"><ele>54.6</ele></trkpt>
      <trkpt lat="37.633280" lon="127.082215"><ele>58.2</ele></trkpt>
      <trkpt lat="37.633518" lon="127.081993"><ele>57.3</ele></trkpt>
      <trkpt lat="37.633830" lon="127.081804"><ele>55.2</ele></trkpt>
      <trkpt lat="37.633933" lon="127.081589"><ele>55.3</ele></trkpt>
      <trkpt lat="37.634301" lon="127.079967"><ele>51.7</ele></trkpt>
      <trkpt lat="37.634336" lon="127.079630"><ele>48.2</ele></trkpt>
      <trkpt lat="37.634434" lon="127.079464"><ele>46.3</ele></trkpt>
      <trkpt lat="37.634387" lon="127.079373"><ele>47.1</ele></trkpt>
      <trkpt lat="37.634401" lon="127.078573"><ele>44.9</ele></trkpt>
      <trkpt lat="37.634811" lon="127.077062"><ele>43.6</ele></trkpt>
      <trkpt lat="37.634861" lon="127.077021"><ele>44.4</ele></trkpt>
      <trkpt lat="37.634903" lon="127.076865"><ele>45.5</ele></trkpt>
      <trkpt lat="37.635204" lon="127.076976"><ele>50.3</ele></trkpt>
      <trkpt lat="37.635304" lon="127.076905"><ele>52.0</ele></trkpt>
      <trkpt lat="37.635732" lon="127.077052"><ele>50.0</ele></trkpt>
      <trkpt lat="37.635863" lon="127.076678"><ele>48.8</ele></trkpt>
      <trkpt lat="37.635956" lon="127.076541"><ele>47.0</ele></trkpt>
      <trkpt lat="37.636159" lon="127.075779"><ele>40.1</ele></trkpt>
      <trkpt lat="37.636383" lon="127.075534"><ele>36.9</ele></trkpt>
      <trkpt lat="37.636601" lon="127.075889"><ele>38.8</ele></trkpt>
      <trkpt lat="37.637043" lon="127.076447"><ele>39.3</ele></trkpt>
      <trkpt lat="37.637263" lon="127.076605"><ele>39.8</ele></trkpt>
      <trkpt lat="37.637044" lon="127.077173"><ele>41.5</ele></trkpt>
      <trkpt lat="37.636846" lon="127.078485"><ele>38.6</ele></trkpt>
      <trkpt lat="37.636924" lon="127.078638"><ele>38.8</ele></trkpt>
      <trkpt lat="37.636858" lon="127.079001"><ele>39.1</ele></trkpt>
      <trkpt lat="37.636873" lon="127.079396"><ele>42.3</ele></trkpt>
      <trkpt lat="37.637193" lon="127.080262"><ele>44.2</ele></trkpt>
      <trkpt lat="37.637760" lon="127.081327"><ele>58.6</ele></trkpt>
      <trkpt lat="37.637878" lon="127.081686"><ele>62.2</ele></trkpt>
      <trkpt lat="37.638203" lon="127.082112"><ele>67.9</ele></trkpt>
      <trkpt lat="37.638590" lon="127.082480"><ele>72.8</ele></trkpt>
      <trkpt lat="37.638910" lon="127.082680"><ele>70.5</ele></trkpt>
      <trkpt lat="37.639645" lon="127.082884"><ele>75.9</ele></trkpt>
      <trkpt lat="37.639603" lon="127.083065"><ele>77.3</ele></trkpt>
      <trkpt lat="37.639660" lon="127.083141"><ele>78.9</ele></trkpt>
      <trkpt lat="37.639611" lon="127.085507"><ele>90.8</ele></trkpt>
      <trkpt lat="37.639639" lon="127.085563"><ele>90.7</ele></trkpt>
      <trkpt lat="37.640045" lon="127.085567"><ele>93.1</ele></trkpt>
      <trkpt lat="37.640327" lon="127.085694"><ele>99.5</ele></trkpt>
      <trkpt lat="37.640752" lon="127.085643"><ele>106.7</ele></trkpt>
      <trkpt lat="37.640844" lon="127.085702"><ele>107.4</ele></trkpt>
      <trkpt lat="37.640934" lon="127.085936"><ele>105.1</ele></trkpt>
      <trkpt lat="37.640941" lon="127.086125"><ele>102.2</ele></trkpt>
      <trkpt lat="37.640703" lon="127.086736"><ele>95.7</ele></trkpt>
      <trkpt lat="37.640908" lon="127.087186"><ele>99.4</ele></trkpt>
      <trkpt lat="37.640986" lon="127.087985"><ele>99.2</ele></trkpt>
      <trkpt lat="37.640913" lon="127.088244"><ele>102.2</ele></trkpt>
      <trkpt lat="37.640974" lon="127.088403"><ele>104.4</ele></trkpt>
      <trkpt lat="37.640951" lon="127.088564"><ele>107.8</ele></trkpt>
      <trkpt lat="37.641113" lon="127.088873"><ele>112.6</ele></trkpt>
      <trkpt lat="37.641327" lon="127.088917"><ele>107.3</ele></trkpt>
      <trkpt lat="37.641339" lon="127.089003"><ele>108.6</ele></trkpt>
      <trkpt lat="37.641250" lon="127.089254"><ele>116.1</ele></trkpt>
      <trkpt lat="37.641274" lon="127.089298"><ele>116.2</ele></trkpt>
      <trkpt lat="37.641378" lon="127.089294"><ele>113.1</ele></trkpt>
      <trkpt lat="37.641340" lon="127.089445"><ele>117.3</ele></trkpt>
      <trkpt lat="37.641391" lon="127.089778"><ele>126.0</ele></trkpt>
      <trkpt lat="37.641549" lon="127.089797"><ele>126.6</ele></trkpt>
      <trkpt lat="37.641579" lon="127.089855"><ele>129.1</ele></trkpt>
      <trkpt lat="37.641572" lon="127.089946"><ele>133.0</ele></trkpt>
      <trkpt lat="37.641642" lon="127.089991"><ele>135.4</ele></trkpt>
      <trkpt lat="37.641706" lon="127.090187"><ele>144.4</ele></trkpt>
      <trkpt lat="37.641751" lon="127.090210"><ele>145.1</ele></trkpt>
      <trkpt lat="37.641743" lon="127.090375"><ele>152.1</ele></trkpt>
      <trkpt lat="37.641815" lon="127.090459"><ele>155.2</ele></trkpt>
      <trkpt lat="37.641929" lon="127.091028"><ele>165.4</ele></trkpt>
      <trkpt lat="37.642103" lon="127.091179"><ele>169.5</ele></trkpt>
      <trkpt lat="37.642193" lon="127.091363"><ele>171.5</ele></trkpt>
      <trkpt lat="37.642147" lon="127.091560"><ele>169.0</ele></trkpt>
      <trkpt lat="37.642291" lon="127.091974"><ele>169.1</ele></trkpt>
      <trkpt lat="37.642317" lon="127.092242"><ele>170.1</ele></trkpt>
      <trkpt lat="37.642439" lon="127.092315"><ele>171.9</ele></trkpt>
      <trkpt lat="37.642404" lon="127.092549"><ele>173.8</ele></trkpt>
      <trkpt lat="37.642480" lon="127.092588"><ele>176.2</ele></trkpt>
      <trkpt lat="37.642481" lon="127.092692"><ele>179.1</ele></trkpt>
      <trkpt lat="37.642319" lon="127.092801"><ele>178.2</ele></trkpt>
      <trkpt lat="37.642308" lon="127.093007"><ele>184.6</ele></trkpt>
      <trkpt lat="37.642476" lon="127.093213"><ele>194.4</ele></trkpt>
      <trkpt lat="37.642451" lon="127.093692"><ele>200.2</ele></trkpt>
      <trkpt lat="37.642568" lon="127.093888"><ele>202.7</ele></trkpt>
      <trkpt lat="37.642776" lon="127.094039"><ele>204.5</ele></trkpt>
      <trkpt lat="37.642011" lon="127.094618"><ele>199.0</ele></trkpt>
      <trkpt lat="37.642053" lon="127.094983"><ele>190.9</ele></trkpt>
      <trkpt lat="37.642206" lon="127.095270"><ele>179.3</ele></trkpt>
      <trkpt lat="37.642187" lon="127.095511"><ele>177.1</ele></trkpt>
    </trkseg>
  </trk>
</gpx>
