<?xml version="1.0" encoding="UTF-8"?>
<gpx version="1.1" creator="kr-100-mountains route-harvester"
     xmlns="http://www.topografix.com/GPX/1/1"
     xmlns:k100="https://github.com/jay-jang/kr-100-mountains/ns/1"
     xmlns:xsi="http://www.w3.org/2001/XMLSchema-instance"
     xsi:schemaLocation="http://www.topografix.com/GPX/1/1 http://www.topografix.com/GPX/1/1/gpx.xsd">
  <metadata>
    <name>불암산 · 공릉(백세문) 코스 (대안 1) (OSM 계산 경로)</name>
    <desc>실제 GPS 기록이 아닙니다. OpenStreetMap에 등록된 등산로 선형 위에서 계산한 경로이며, 현장 통제·훼손·출입 제한·계절 통제를 반영하지 않을 수 있습니다. 산행 전 공식 안내를 확인하세요.</desc>
    <time>2026-08-04T05:18:37.179Z</time>
    <link href="https://www.openstreetmap.org/copyright"><text>© OpenStreetMap contributors (ODbL 1.0)</text></link>
    <link href="https://registry.opendata.aws/terrain-tiles/"><text>Elevation: SRTM 1 arc-second (NASA/USGS) via AWS Terrain Tiles</text></link>
    <extensions>
      <k100:provenance>osm-routed</k100:provenance>
      <k100:not_a_recorded_track>true</k100:not_a_recorded_track>
      <k100:mountain_id>bulamsan</k100:mountain_id>
      <k100:mountain_name>불암산</k100:mountain_name>
      <k100:route_id>bulamsan-733402c1</k100:route_id>
      <k100:route_index>2</k100:route_index>
      <k100:route_name>공릉(백세문) 코스</k100:route_name>
      <k100:variant>1</k100:variant>
      <k100:source>OpenStreetMap via Overpass API</k100:source>
      <k100:license>ODbL-1.0</k100:license>
      <k100:attribution>© OpenStreetMap contributors</k100:attribution>
      <k100:elevation_source>SRTM 1 arc-second (NASA/USGS) — AWS Terrain Tiles 배포본. 지형 DEM 추정 고도이며 실측 아님</k100:elevation_source>
      <k100:algorithm>dijkstra-grid-v1</k100:algorithm>
      <k100:osm_snapshot>2026-08-04</k100:osm_snapshot>
      <k100:snap_trailhead_m>53</k100:snap_trailhead_m>
      <k100:snap_summit_m>115</k100:snap_summit_m>
      <k100:validation_score>82</k100:validation_score>
      <k100:validation_status>accepted</k100:validation_status>
    </extensions>
  </metadata>
  <trk>
    <name>불암산 · 공릉(백세문) 코스 (대안 1) (OSM 계산 경로)</name>
    <desc>실제 GPS 기록이 아닙니다. OpenStreetMap에 등록된 등산로 선형 위에서 계산한 경로이며, 현장 통제·훼손·출입 제한·계절 통제를 반영하지 않을 수 있습니다. 산행 전 공식 안내를 확인하세요.</desc>
    <trkseg>
      <trkpt lat="37.626910" lon="127.085731"><ele>60.1</ele></trkpt>
      <trkpt lat="37.624994" lon="127.086435"><ele>44.1</ele></trkpt>
      <trkpt lat="37.625226" lon="127.087855"><ele>49.2</ele></trkpt>
      <trkpt lat="37.625243" lon="127.088182"><ele>48.2</ele></trkpt>
      <trkpt lat="37.625144" lon="127.088583"><ele>42.9</ele></trkpt>
      <trkpt lat="37.624779" lon="127.089022"><ele>41.3</ele></trkpt>
      <trkpt lat="37.624783" lon="127.089147"><ele>40.0</ele></trkpt>
      <trkpt lat="37.625168" lon="127.090233"><ele>36.2</ele></trkpt>
      <trkpt lat="37.625347" lon="127.090536"><ele>38.5</ele></trkpt>
      <trkpt lat="37.625403" lon="127.090760"><ele>37.1</ele></trkpt>
      <trkpt lat="37.625201" lon="127.090907"><ele>34.9</ele></trkpt>
      <trkpt lat="37.625261" lon="127.091032"><ele>34.5</ele></trkpt>
      <trkpt lat="37.625250" lon="127.091155"><ele>33.5</ele></trkpt>
      <trkpt lat="37.625560" lon="127.091694"><ele>33.9</ele></trkpt>
      <trkpt lat="37.624890" lon="127.092297"><ele>28.7</ele></trkpt>
      <trkpt lat="37.626227" lon="127.094577"><ele>35.0</ele></trkpt>
      <trkpt lat="37.626508" lon="127.095006"><ele>35.4</ele></trkpt>
      <trkpt lat="37.626740" lon="127.095261"><ele>36.0</ele></trkpt>
      <trkpt lat="37.628039" lon="127.096070"><ele>36.4</ele></trkpt>
      <trkpt lat="37.629295" lon="127.096933"><ele>37.0</ele></trkpt>
      <trkpt lat="37.629800" lon="127.097370"><ele>36.5</ele></trkpt>
      <trkpt lat="37.630359" lon="127.098097"><ele>33.1</ele></trkpt>
      <trkpt lat="37.631122" lon="127.099485"><ele>39.9</ele></trkpt>
      <trkpt lat="37.631301" lon="127.099738"><ele>40.9</ele></trkpt>
      <trkpt lat="37.632309" lon="127.100820"><ele>40.0</ele></trkpt>
      <trkpt lat="37.632598" lon="127.101197"><ele>41.5</ele></trkpt>
      <trkpt lat="37.634045" lon="127.103857"><ele>44.9</ele></trkpt>
      <trkpt lat="37.634477" lon="127.104535"><ele>41.6</ele></trkpt>
      <trkpt lat="37.634771" lon="127.104935"><ele>41.0</ele></trkpt>
      <trkpt lat="37.635343" lon="127.105539"><ele>42.1</ele></trkpt>
      <trkpt lat="37.636510" lon="127.106537"><ele>47.4</ele></trkpt>
      <trkpt lat="37.637489" lon="127.107052"><ele>54.1</ele></trkpt>
      <trkpt lat="37.638081" lon="127.107237"><ele>46.0</ele></trkpt>
      <trkpt lat="37.639478" lon="127.107331"><ele>51.3</ele></trkpt>
      <trkpt lat="37.639576" lon="127.107433"><ele>51.0</ele></trkpt>
      <trkpt lat="37.639823" lon="127.107365"><ele>52.0</ele></trkpt>
      <trkpt lat="37.640178" lon="127.107053"><ele>52.8</ele></trkpt>
      <trkpt lat="37.640472" lon="127.106694"><ele>58.5</ele></trkpt>
      <trkpt lat="37.641813" lon="127.105837"><ele>60.9</ele></trkpt>
      <trkpt lat="37.642030" lon="127.105130"><ele>59.4</ele></trkpt>
      <trkpt lat="37.641958" lon="127.104753"><ele>60.0</ele></trkpt>
      <trkpt lat="37.642054" lon="127.104688"><ele>60.4</ele></trkpt>
      <trkpt lat="37.641964" lon="127.104304"><ele>64.6</ele></trkpt>
      <trkpt lat="37.641867" lon="127.103285"><ele>72.0</ele></trkpt>
      <trkpt lat="37.641573" lon="127.102456"><ele>73.3</ele></trkpt>
      <trkpt lat="37.641231" lon="127.101922"><ele>76.1</ele></trkpt>
      <trkpt lat="37.641059" lon="127.101289"><ele>85.6</ele></trkpt>
      <trkpt lat="37.640938" lon="127.101014"><ele>88.0</ele></trkpt>
      <trkpt lat="37.640677" lon="127.100715"><ele>89.9</ele></trkpt>
      <trkpt lat="37.640471" lon="127.100334"><ele>95.2</ele></trkpt>
      <trkpt lat="37.640373" lon="127.100063"><ele>100.8</ele></trkpt>
      <trkpt lat="37.640363" lon="127.099746"><ele>103.9</ele></trkpt>
      <trkpt lat="37.640420" lon="127.099414"><ele>106.9</ele></trkpt>
      <trkpt lat="37.640711" lon="127.099280"><ele>107.1</ele></trkpt>
      <trkpt lat="37.640872" lon="127.098719"><ele>112.6</ele></trkpt>
      <trkpt lat="37.641006" lon="127.098612"><ele>113.4</ele></trkpt>
      <trkpt lat="37.641155" lon="127.098636"><ele>112.7</ele></trkpt>
      <trkpt lat="37.641296" lon="127.098566"><ele>113.5</ele></trkpt>
      <trkpt lat="37.641441" lon="127.098611"><ele>113.0</ele></trkpt>
      <trkpt lat="37.641583" lon="127.098557"><ele>113.4</ele></trkpt>
      <trkpt lat="37.642035" lon="127.098004"><ele>119.0</ele></trkpt>
      <trkpt lat="37.642078" lon="127.097869"><ele>120.8</ele></trkpt>
      <trkpt lat="37.642040" lon="127.097670"><ele>124.8</ele></trkpt>
      <trkpt lat="37.642221" lon="127.097225"><ele>132.0</ele></trkpt>
      <trkpt lat="37.642234" lon="127.097056"><ele>135.4</ele></trkpt>
      <trkpt lat="37.642200" lon="127.096702"><ele>146.0</ele></trkpt>
      <trkpt lat="37.642055" lon="127.096069"><ele>166.2</ele></trkpt>
      <trkpt lat="37.642187" lon="127.095511"><ele>177.1</ele></trkpt>
    </trkseg>
  </trk>
</gpx>
