<?xml version="1.0" encoding="UTF-8"?>
<gpx version="1.1" creator="kr-100-mountains route-harvester"
     xmlns="http://www.topografix.com/GPX/1/1"
     xmlns:k100="https://github.com/jay-jang/kr-100-mountains/ns/1"
     xmlns:xsi="http://www.w3.org/2001/XMLSchema-instance"
     xsi:schemaLocation="http://www.topografix.com/GPX/1/1 http://www.topografix.com/GPX/1/1/gpx.xsd">
  <metadata>
    <name>화왕산 · 관룡사-화왕산성 코스 (대안 2) (OSM 계산 경로)</name>
    <desc>실제 GPS 기록이 아닙니다. OpenStreetMap에 등록된 등산로 선형 위에서 계산한 경로이며, 현장 통제·훼손·출입 제한·계절 통제를 반영하지 않을 수 있습니다. 산행 전 공식 안내를 확인하세요.</desc>
    <time>2026-08-04T05:46:43.998Z</time>
    <link href="https://www.openstreetmap.org/copyright"><text>© OpenStreetMap contributors (ODbL 1.0)</text></link>
    <link href="https://registry.opendata.aws/terrain-tiles/"><text>Elevation: SRTM 1 arc-second (NASA/USGS) via AWS Terrain Tiles</text></link>
    <extensions>
      <k100:provenance>osm-routed</k100:provenance>
      <k100:not_a_recorded_track>true</k100:not_a_recorded_track>
      <k100:mountain_id>hwawangsan</k100:mountain_id>
      <k100:mountain_name>화왕산</k100:mountain_name>
      <k100:route_id>hwawangsan-00804ce6</k100:route_id>
      <k100:route_index>2</k100:route_index>
      <k100:route_name>관룡사-화왕산성 코스</k100:route_name>
      <k100:variant>2</k100:variant>
      <k100:source>OpenStreetMap via Overpass API</k100:source>
      <k100:license>ODbL-1.0</k100:license>
      <k100:attribution>© OpenStreetMap contributors</k100:attribution>
      <k100:elevation_source>SRTM 1 arc-second (NASA/USGS) — AWS Terrain Tiles 배포본. 지형 DEM 추정 고도이며 실측 아님</k100:elevation_source>
      <k100:algorithm>dijkstra-grid-v1</k100:algorithm>
      <k100:osm_snapshot>2026-08-04</k100:osm_snapshot>
      <k100:snap_trailhead_m>15</k100:snap_trailhead_m>
      <k100:snap_summit_m>219</k100:snap_summit_m>
      <k100:validation_score>89</k100:validation_score>
      <k100:validation_status>accepted</k100:validation_status>
    </extensions>
  </metadata>
  <trk>
    <name>화왕산 · 관룡사-화왕산성 코스 (대안 2) (OSM 계산 경로)</name>
    <desc>실제 GPS 기록이 아닙니다. OpenStreetMap에 등록된 등산로 선형 위에서 계산한 경로이며, 현장 통제·훼손·출입 제한·계절 통제를 반영하지 않을 수 있습니다. 산행 전 공식 안내를 확인하세요.</desc>
    <trkseg>
      <trkpt lat="35.531904" lon="128.553249"><ele>388.8</ele></trkpt>
      <trkpt lat="35.531818" lon="128.553539"><ele>383.9</ele></trkpt>
      <trkpt lat="35.531759" lon="128.554005"><ele>380.1</ele></trkpt>
      <trkpt lat="35.532141" lon="128.554150"><ele>384.9</ele></trkpt>
      <trkpt lat="35.532290" lon="128.554125"><ele>387.4</ele></trkpt>
      <trkpt lat="35.532619" lon="128.553938"><ele>396.4</ele></trkpt>
      <trkpt lat="35.533339" lon="128.554024"><ele>414.2</ele></trkpt>
      <trkpt lat="35.533746" lon="128.554328"><ele>425.6</ele></trkpt>
      <trkpt lat="35.534096" lon="128.554347"><ele>435.7</ele></trkpt>
      <trkpt lat="35.534419" lon="128.554584"><ele>441.8</ele></trkpt>
      <trkpt lat="35.534540" lon="128.554582"><ele>445.1</ele></trkpt>
      <trkpt lat="35.534816" lon="128.554773"><ele>451.7</ele></trkpt>
      <trkpt lat="35.535313" lon="128.554062"><ele>472.0</ele></trkpt>
      <trkpt lat="35.535544" lon="128.553927"><ele>480.2</ele></trkpt>
      <trkpt lat="35.535812" lon="128.553785"><ele>489.2</ele></trkpt>
      <trkpt lat="35.536633" lon="128.553777"><ele>532.9</ele></trkpt>
      <trkpt lat="35.536921" lon="128.553603"><ele>553.0</ele></trkpt>
      <trkpt lat="35.537115" lon="128.553244"><ele>574.1</ele></trkpt>
      <trkpt lat="35.537391" lon="128.552965"><ele>600.2</ele></trkpt>
      <trkpt lat="35.537509" lon="128.552470"><ele>613.0</ele></trkpt>
      <trkpt lat="35.537782" lon="128.552539"><ele>626.2</ele></trkpt>
      <trkpt lat="35.537865" lon="128.552495"><ele>630.3</ele></trkpt>
      <trkpt lat="35.537947" lon="128.552634"><ele>634.2</ele></trkpt>
      <trkpt lat="35.538032" lon="128.552597"><ele>638.5</ele></trkpt>
      <trkpt lat="35.538272" lon="128.552696"><ele>651.1</ele></trkpt>
      <trkpt lat="35.538379" lon="128.552614"><ele>657.3</ele></trkpt>
      <trkpt lat="35.538775" lon="128.552691"><ele>686.2</ele></trkpt>
      <trkpt lat="35.538951" lon="128.552661"><ele>696.5</ele></trkpt>
      <trkpt lat="35.539154" lon="128.552857"><ele>709.4</ele></trkpt>
      <trkpt lat="35.539283" lon="128.552882"><ele>717.4</ele></trkpt>
      <trkpt lat="35.539564" lon="128.553125"><ele>734.3</ele></trkpt>
      <trkpt lat="35.539621" lon="128.553410"><ele>737.1</ele></trkpt>
      <trkpt lat="35.539799" lon="128.553805"><ele>736.3</ele></trkpt>
      <trkpt lat="35.540995" lon="128.554079"><ele>709.8</ele></trkpt>
      <trkpt lat="35.541636" lon="128.554114"><ele>696.7</ele></trkpt>
      <trkpt lat="35.541827" lon="128.554267"><ele>694.0</ele></trkpt>
      <trkpt lat="35.542080" lon="128.554366"><ele>690.2</ele></trkpt>
      <trkpt lat="35.542377" lon="128.554343"><ele>685.7</ele></trkpt>
      <trkpt lat="35.542997" lon="128.554089"><ele>668.5</ele></trkpt>
      <trkpt lat="35.543455" lon="128.553594"><ele>665.4</ele></trkpt>
      <trkpt lat="35.544126" lon="128.553136"><ele>667.4</ele></trkpt>
      <trkpt lat="35.544691" lon="128.552635"><ele>673.8</ele></trkpt>
      <trkpt lat="35.544911" lon="128.552332"><ele>670.1</ele></trkpt>
      <trkpt lat="35.545096" lon="128.552167"><ele>664.1</ele></trkpt>
      <trkpt lat="35.546174" lon="128.551524"><ele>651.7</ele></trkpt>
      <trkpt lat="35.546383" lon="128.551338"><ele>647.2</ele></trkpt>
      <trkpt lat="35.546749" lon="128.551168"><ele>635.1</ele></trkpt>
      <trkpt lat="35.547105" lon="128.550916"><ele>621.0</ele></trkpt>
      <trkpt lat="35.547531" lon="128.550814"><ele>609.8</ele></trkpt>
      <trkpt lat="35.547967" lon="128.550891"><ele>614.4</ele></trkpt>
      <trkpt lat="35.548117" lon="128.550815"><ele>619.4</ele></trkpt>
      <trkpt lat="35.548300" lon="128.550620"><ele>623.3</ele></trkpt>
      <trkpt lat="35.548560" lon="128.549966"><ele>618.7</ele></trkpt>
      <trkpt lat="35.549050" lon="128.549193"><ele>632.9</ele></trkpt>
      <trkpt lat="35.549168" lon="128.548861"><ele>634.9</ele></trkpt>
      <trkpt lat="35.549162" lon="128.548476"><ele>635.4</ele></trkpt>
      <trkpt lat="35.549099" lon="128.548265"><ele>637.5</ele></trkpt>
      <trkpt lat="35.548806" lon="128.547843"><ele>642.9</ele></trkpt>
      <trkpt lat="35.548364" lon="128.547587"><ele>646.0</ele></trkpt>
      <trkpt lat="35.548263" lon="128.547453"><ele>648.7</ele></trkpt>
      <trkpt lat="35.548146" lon="128.547136"><ele>657.3</ele></trkpt>
      <trkpt lat="35.547904" lon="128.546972"><ele>657.3</ele></trkpt>
      <trkpt lat="35.547685" lon="128.546558"><ele>662.3</ele></trkpt>
      <trkpt lat="35.547384" lon="128.546130"><ele>670.0</ele></trkpt>
      <trkpt lat="35.547049" lon="128.544918"><ele>685.9</ele></trkpt>
      <trkpt lat="35.546927" lon="128.544637"><ele>689.6</ele></trkpt>
      <trkpt lat="35.546928" lon="128.544067"><ele>686.8</ele></trkpt>
      <trkpt lat="35.546857" lon="128.543631"><ele>678.8</ele></trkpt>
      <trkpt lat="35.546864" lon="128.543010"><ele>674.2</ele></trkpt>
      <trkpt lat="35.546923" lon="128.542501"><ele>676.5</ele></trkpt>
      <trkpt lat="35.546844" lon="128.542238"><ele>674.2</ele></trkpt>
      <trkpt lat="35.546840" lon="128.541940"><ele>672.6</ele></trkpt>
      <trkpt lat="35.546911" lon="128.541664"><ele>672.8</ele></trkpt>
      <trkpt lat="35.546821" lon="128.541317"><ele>667.9</ele></trkpt>
      <trkpt lat="35.546810" lon="128.540787"><ele>664.3</ele></trkpt>
      <trkpt lat="35.546868" lon="128.540600"><ele>663.0</ele></trkpt>
      <trkpt lat="35.546853" lon="128.540208"><ele>656.4</ele></trkpt>
      <trkpt lat="35.546908" lon="128.539986"><ele>654.8</ele></trkpt>
      <trkpt lat="35.547070" lon="128.539832"><ele>659.3</ele></trkpt>
      <trkpt lat="35.547143" lon="128.539674"><ele>661.4</ele></trkpt>
      <trkpt lat="35.547005" lon="128.539139"><ele>667.4</ele></trkpt>
      <trkpt lat="35.546715" lon="128.539117"><ele>659.7</ele></trkpt>
      <trkpt lat="35.546516" lon="128.538910"><ele>660.2</ele></trkpt>
      <trkpt lat="35.545987" lon="128.538048"><ele>671.6</ele></trkpt>
      <trkpt lat="35.545723" lon="128.537781"><ele>671.6</ele></trkpt>
      <trkpt lat="35.545721" lon="128.537698"><ele>671.7</ele></trkpt>
      <trkpt lat="35.545464" lon="128.537659"><ele>665.6</ele></trkpt>
      <trkpt lat="35.545280" lon="128.537554"><ele>659.7</ele></trkpt>
      <trkpt lat="35.545122" lon="128.537298"><ele>652.6</ele></trkpt>
      <trkpt lat="35.545037" lon="128.536688"><ele>651.5</ele></trkpt>
      <trkpt lat="35.544911" lon="128.536465"><ele>652.8</ele></trkpt>
      <trkpt lat="35.544826" lon="128.536406"><ele>654.0</ele></trkpt>
      <trkpt lat="35.544201" lon="128.536477"><ele>669.0</ele></trkpt>
      <trkpt lat="35.543918" lon="128.536189"><ele>678.1</ele></trkpt>
      <trkpt lat="35.543700" lon="128.536133"><ele>682.5</ele></trkpt>
      <trkpt lat="35.543494" lon="128.535942"><ele>693.3</ele></trkpt>
      <trkpt lat="35.542866" lon="128.535602"><ele>720.8</ele></trkpt>
      <trkpt lat="35.542166" lon="128.535100"><ele>725.9</ele></trkpt>
      <trkpt lat="35.542005" lon="128.535134"><ele>727.2</ele></trkpt>
      <trkpt lat="35.541924" lon="128.535024"><ele>729.0</ele></trkpt>
      <trkpt lat="35.541760" lon="128.534923"><ele>732.6</ele></trkpt>
      <trkpt lat="35.541723" lon="128.534775"><ele>734.8</ele></trkpt>
      <trkpt lat="35.541589" lon="128.534663"><ele>735.1</ele></trkpt>
      <trkpt lat="35.541459" lon="128.534353"><ele>734.2</ele></trkpt>
      <trkpt lat="35.540909" lon="128.533923"><ele>725.7</ele></trkpt>
      <trkpt lat="35.540703" lon="128.533899"><ele>726.1</ele></trkpt>
      <trkpt lat="35.540490" lon="128.533802"><ele>724.8</ele></trkpt>
      <trkpt lat="35.539762" lon="128.533226"><ele>733.0</ele></trkpt>
      <trkpt lat="35.539653" lon="128.533358"><ele>733.3</ele></trkpt>
      <trkpt lat="35.539422" lon="128.533458"><ele>723.3</ele></trkpt>
      <trkpt lat="35.539343" lon="128.533720"><ele>725.3</ele></trkpt>
      <trkpt lat="35.539155" lon="128.533935"><ele>722.9</ele></trkpt>
      <trkpt lat="35.538838" lon="128.534075"><ele>723.0</ele></trkpt>
      <trkpt lat="35.538679" lon="128.534002"><ele>720.1</ele></trkpt>
      <trkpt lat="35.538407" lon="128.534034"><ele>714.7</ele></trkpt>
      <trkpt lat="35.537891" lon="128.533480"><ele>713.4</ele></trkpt>
      <trkpt lat="35.537670" lon="128.533320"><ele>709.7</ele></trkpt>
      <trkpt lat="35.537103" lon="128.533222"><ele>706.3</ele></trkpt>
      <trkpt lat="35.536871" lon="128.533294"><ele>705.9</ele></trkpt>
      <trkpt lat="35.536461" lon="128.533011"><ele>713.1</ele></trkpt>
      <trkpt lat="35.536251" lon="128.532767"><ele>716.6</ele></trkpt>
      <trkpt lat="35.536068" lon="128.532680"><ele>719.9</ele></trkpt>
      <trkpt lat="35.535728" lon="128.532729"><ele>730.7</ele></trkpt>
      <trkpt lat="35.535453" lon="128.532598"><ele>729.8</ele></trkpt>
      <trkpt lat="35.535377" lon="128.532472"><ele>726.8</ele></trkpt>
      <trkpt lat="35.535093" lon="128.532511"><ele>714.0</ele></trkpt>
      <trkpt lat="35.534960" lon="128.532581"><ele>707.6</ele></trkpt>
      <trkpt lat="35.534774" lon="128.532508"><ele>699.3</ele></trkpt>
      <trkpt lat="35.534616" lon="128.532552"><ele>691.7</ele></trkpt>
      <trkpt lat="35.534349" lon="128.532498"><ele>679.2</ele></trkpt>
      <trkpt lat="35.533982" lon="128.532711"><ele>664.7</ele></trkpt>
      <trkpt lat="35.533530" lon="128.532630"><ele>667.8</ele></trkpt>
      <trkpt lat="35.533435" lon="128.532732"><ele>668.2</ele></trkpt>
      <trkpt lat="35.533131" lon="128.532823"><ele>674.0</ele></trkpt>
      <trkpt lat="35.533001" lon="128.533011"><ele>676.0</ele></trkpt>
      <trkpt lat="35.532818" lon="128.533146"><ele>678.8</ele></trkpt>
      <trkpt lat="35.532583" lon="128.533218"><ele>687.5</ele></trkpt>
      <trkpt lat="35.532038" lon="128.533218"><ele>689.1</ele></trkpt>
      <trkpt lat="35.531416" lon="128.533075"><ele>702.8</ele></trkpt>
      <trkpt lat="35.531121" lon="128.533176"><ele>712.6</ele></trkpt>
      <trkpt lat="35.530789" lon="128.532768"><ele>704.5</ele></trkpt>
      <trkpt lat="35.530256" lon="128.532790"><ele>687.8</ele></trkpt>
      <trkpt lat="35.530029" lon="128.532984"><ele>675.0</ele></trkpt>
      <trkpt lat="35.529316" lon="128.532848"><ele>655.4</ele></trkpt>
      <trkpt lat="35.529049" lon="128.532676"><ele>654.8</ele></trkpt>
      <trkpt lat="35.528874" lon="128.532701"><ele>656.9</ele></trkpt>
    </trkseg>
  </trk>
</gpx>
