<?xml version="1.0" encoding="UTF-8"?>
<gpx version="1.1" creator="kr-100-mountains route-harvester"
     xmlns="http://www.topografix.com/GPX/1/1"
     xmlns:k100="https://github.com/jay-jang/kr-100-mountains/ns/1"
     xmlns:xsi="http://www.w3.org/2001/XMLSchema-instance"
     xsi:schemaLocation="http://www.topografix.com/GPX/1/1 http://www.topografix.com/GPX/1/1/gpx.xsd">
  <metadata>
    <name>화왕산 · 관룡사-화왕산성 코스 (OSM 계산 경로)</name>
    <desc>실제 GPS 기록이 아닙니다. OpenStreetMap에 등록된 등산로 선형 위에서 계산한 경로이며, 현장 통제·훼손·출입 제한·계절 통제를 반영하지 않을 수 있습니다. 산행 전 공식 안내를 확인하세요.</desc>
    <time>2026-08-04T05:46:43.997Z</time>
    <link href="https://www.openstreetmap.org/copyright"><text>© OpenStreetMap contributors (ODbL 1.0)</text></link>
    <link href="https://registry.opendata.aws/terrain-tiles/"><text>Elevation: SRTM 1 arc-second (NASA/USGS) via AWS Terrain Tiles</text></link>
    <extensions>
      <k100:provenance>osm-routed</k100:provenance>
      <k100:not_a_recorded_track>true</k100:not_a_recorded_track>
      <k100:mountain_id>hwawangsan</k100:mountain_id>
      <k100:mountain_name>화왕산</k100:mountain_name>
      <k100:route_id>hwawangsan-00804ce6</k100:route_id>
      <k100:route_index>2</k100:route_index>
      <k100:route_name>관룡사-화왕산성 코스</k100:route_name>
      <k100:variant>0</k100:variant>
      <k100:source>OpenStreetMap via Overpass API</k100:source>
      <k100:license>ODbL-1.0</k100:license>
      <k100:attribution>© OpenStreetMap contributors</k100:attribution>
      <k100:elevation_source>SRTM 1 arc-second (NASA/USGS) — AWS Terrain Tiles 배포본. 지형 DEM 추정 고도이며 실측 아님</k100:elevation_source>
      <k100:algorithm>dijkstra-grid-v1</k100:algorithm>
      <k100:osm_snapshot>2026-08-04</k100:osm_snapshot>
      <k100:snap_trailhead_m>15</k100:snap_trailhead_m>
      <k100:snap_summit_m>219</k100:snap_summit_m>
      <k100:validation_score>82</k100:validation_score>
      <k100:validation_status>accepted</k100:validation_status>
    </extensions>
  </metadata>
  <trk>
    <name>화왕산 · 관룡사-화왕산성 코스 (OSM 계산 경로)</name>
    <desc>실제 GPS 기록이 아닙니다. OpenStreetMap에 등록된 등산로 선형 위에서 계산한 경로이며, 현장 통제·훼손·출입 제한·계절 통제를 반영하지 않을 수 있습니다. 산행 전 공식 안내를 확인하세요.</desc>
    <trkseg>
      <trkpt lat="35.531904" lon="128.553249"><ele>388.8</ele></trkpt>
      <trkpt lat="35.531818" lon="128.553539"><ele>383.9</ele></trkpt>
      <trkpt lat="35.531759" lon="128.554005"><ele>380.1</ele></trkpt>
      <trkpt lat="35.531427" lon="128.554046"><ele>376.3</ele></trkpt>
      <trkpt lat="35.531342" lon="128.553959"><ele>375.9</ele></trkpt>
      <trkpt lat="35.531185" lon="128.553627"><ele>374.1</ele></trkpt>
      <trkpt lat="35.531202" lon="128.553135"><ele>371.3</ele></trkpt>
      <trkpt lat="35.531100" lon="128.552992"><ele>369.7</ele></trkpt>
      <trkpt lat="35.530710" lon="128.552918"><ele>362.3</ele></trkpt>
      <trkpt lat="35.530420" lon="128.552672"><ele>358.2</ele></trkpt>
      <trkpt lat="35.530264" lon="128.552600"><ele>356.3</ele></trkpt>
      <trkpt lat="35.529582" lon="128.552623"><ele>343.1</ele></trkpt>
      <trkpt lat="35.528973" lon="128.552208"><ele>325.5</ele></trkpt>
      <trkpt lat="35.528284" lon="128.551933"><ele>311.7</ele></trkpt>
      <trkpt lat="35.528205" lon="128.551889"><ele>311.1</ele></trkpt>
      <trkpt lat="35.528018" lon="128.551493"><ele>310.2</ele></trkpt>
      <trkpt lat="35.527616" lon="128.551202"><ele>302.4</ele></trkpt>
      <trkpt lat="35.527088" lon="128.550945"><ele>290.6</ele></trkpt>
      <trkpt lat="35.526862" lon="128.550679"><ele>284.9</ele></trkpt>
      <trkpt lat="35.526498" lon="128.550504"><ele>275.6</ele></trkpt>
      <trkpt lat="35.525935" lon="128.550470"><ele>271.0</ele></trkpt>
      <trkpt lat="35.525320" lon="128.550320"><ele>262.5</ele></trkpt>
      <trkpt lat="35.525095" lon="128.549826"><ele>252.2</ele></trkpt>
      <trkpt lat="35.524839" lon="128.549627"><ele>249.5</ele></trkpt>
      <trkpt lat="35.524468" lon="128.549035"><ele>239.2</ele></trkpt>
      <trkpt lat="35.524154" lon="128.548979"><ele>237.2</ele></trkpt>
      <trkpt lat="35.523644" lon="128.548736"><ele>230.6</ele></trkpt>
      <trkpt lat="35.523324" lon="128.548649"><ele>225.2</ele></trkpt>
      <trkpt lat="35.523898" lon="128.548360"><ele>231.1</ele></trkpt>
      <trkpt lat="35.524669" lon="128.548349"><ele>237.7</ele></trkpt>
      <trkpt lat="35.525172" lon="128.548209"><ele>252.9</ele></trkpt>
      <trkpt lat="35.526022" lon="128.548137"><ele>259.5</ele></trkpt>
      <trkpt lat="35.526152" lon="128.548054"><ele>262.1</ele></trkpt>
      <trkpt lat="35.526601" lon="128.547460"><ele>272.0</ele></trkpt>
      <trkpt lat="35.526943" lon="128.547257"><ele>268.8</ele></trkpt>
      <trkpt lat="35.527577" lon="128.547064"><ele>280.1</ele></trkpt>
      <trkpt lat="35.528111" lon="128.546377"><ele>297.1</ele></trkpt>
      <trkpt lat="35.528804" lon="128.546062"><ele>301.2</ele></trkpt>
      <trkpt lat="35.529116" lon="128.546239"><ele>307.1</ele></trkpt>
      <trkpt lat="35.529307" lon="128.546091"><ele>309.1</ele></trkpt>
      <trkpt lat="35.529628" lon="128.546016"><ele>317.0</ele></trkpt>
      <trkpt lat="35.530104" lon="128.545662"><ele>323.2</ele></trkpt>
      <trkpt lat="35.530209" lon="128.545650"><ele>325.2</ele></trkpt>
      <trkpt lat="35.530942" lon="128.545721"><ele>334.4</ele></trkpt>
      <trkpt lat="35.531501" lon="128.545949"><ele>344.4</ele></trkpt>
      <trkpt lat="35.531765" lon="128.546002"><ele>349.1</ele></trkpt>
      <trkpt lat="35.532690" lon="128.545866"><ele>358.5</ele></trkpt>
      <trkpt lat="35.532944" lon="128.545663"><ele>360.9</ele></trkpt>
      <trkpt lat="35.532538" lon="128.544945"><ele>373.3</ele></trkpt>
      <trkpt lat="35.532344" lon="128.544840"><ele>383.9</ele></trkpt>
      <trkpt lat="35.532250" lon="128.544717"><ele>393.2</ele></trkpt>
      <trkpt lat="35.531999" lon="128.543885"><ele>426.7</ele></trkpt>
      <trkpt lat="35.531670" lon="128.543499"><ele>440.6</ele></trkpt>
      <trkpt lat="35.531491" lon="128.542402"><ele>457.8</ele></trkpt>
      <trkpt lat="35.531248" lon="128.542180"><ele>459.6</ele></trkpt>
      <trkpt lat="35.531209" lon="128.542051"><ele>459.9</ele></trkpt>
      <trkpt lat="35.531202" lon="128.541504"><ele>463.4</ele></trkpt>
      <trkpt lat="35.530997" lon="128.541040"><ele>465.8</ele></trkpt>
      <trkpt lat="35.530997" lon="128.540761"><ele>470.3</ele></trkpt>
      <trkpt lat="35.531063" lon="128.540399"><ele>479.0</ele></trkpt>
      <trkpt lat="35.531056" lon="128.539604"><ele>493.4</ele></trkpt>
      <trkpt lat="35.531124" lon="128.539315"><ele>499.1</ele></trkpt>
      <trkpt lat="35.531030" lon="128.538494"><ele>516.4</ele></trkpt>
      <trkpt lat="35.531371" lon="128.537630"><ele>551.9</ele></trkpt>
      <trkpt lat="35.531353" lon="128.537346"><ele>563.3</ele></trkpt>
      <trkpt lat="35.531275" lon="128.537244"><ele>567.9</ele></trkpt>
      <trkpt lat="35.531244" lon="128.536885"><ele>579.1</ele></trkpt>
      <trkpt lat="35.531179" lon="128.536745"><ele>582.9</ele></trkpt>
      <trkpt lat="35.531165" lon="128.536166"><ele>600.8</ele></trkpt>
      <trkpt lat="35.531467" lon="128.534986"><ele>652.9</ele></trkpt>
      <trkpt lat="35.531419" lon="128.534718"><ele>662.1</ele></trkpt>
      <trkpt lat="35.531082" lon="128.533854"><ele>702.4</ele></trkpt>
      <trkpt lat="35.531121" lon="128.533176"><ele>712.6</ele></trkpt>
      <trkpt lat="35.530789" lon="128.532768"><ele>704.5</ele></trkpt>
      <trkpt lat="35.530256" lon="128.532790"><ele>687.8</ele></trkpt>
      <trkpt lat="35.530029" lon="128.532984"><ele>675.0</ele></trkpt>
      <trkpt lat="35.529316" lon="128.532848"><ele>655.4</ele></trkpt>
      <trkpt lat="35.529049" lon="128.532676"><ele>654.8</ele></trkpt>
      <trkpt lat="35.528874" lon="128.532701"><ele>656.9</ele></trkpt>
    </trkseg>
  </trk>
</gpx>
