<?xml version="1.0" encoding="UTF-8"?>
<gpx version="1.1" creator="kr-100-mountains route-harvester"
     xmlns="http://www.topografix.com/GPX/1/1"
     xmlns:k100="https://github.com/jay-jang/kr-100-mountains/ns/1"
     xmlns:xsi="http://www.w3.org/2001/XMLSchema-instance"
     xsi:schemaLocation="http://www.topografix.com/GPX/1/1 http://www.topografix.com/GPX/1/1/gpx.xsd">
  <metadata>
    <name>화왕산 · 자하곡 코스 (대안 1) (OSM 계산 경로)</name>
    <desc>실제 GPS 기록이 아닙니다. OpenStreetMap에 등록된 등산로 선형 위에서 계산한 경로이며, 현장 통제·훼손·출입 제한·계절 통제를 반영하지 않을 수 있습니다. 산행 전 공식 안내를 확인하세요.</desc>
    <time>2026-08-04T05:46:43.973Z</time>
    <link href="https://www.openstreetmap.org/copyright"><text>© OpenStreetMap contributors (ODbL 1.0)</text></link>
    <link href="https://registry.opendata.aws/terrain-tiles/"><text>Elevation: SRTM 1 arc-second (NASA/USGS) via AWS Terrain Tiles</text></link>
    <extensions>
      <k100:provenance>osm-routed</k100:provenance>
      <k100:not_a_recorded_track>true</k100:not_a_recorded_track>
      <k100:mountain_id>hwawangsan</k100:mountain_id>
      <k100:mountain_name>화왕산</k100:mountain_name>
      <k100:route_id>hwawangsan-f2cc5ee4</k100:route_id>
      <k100:route_index>1</k100:route_index>
      <k100:route_name>자하곡 코스</k100:route_name>
      <k100:variant>1</k100:variant>
      <k100:source>OpenStreetMap via Overpass API</k100:source>
      <k100:license>ODbL-1.0</k100:license>
      <k100:attribution>© OpenStreetMap contributors</k100:attribution>
      <k100:elevation_source>SRTM 1 arc-second (NASA/USGS) — AWS Terrain Tiles 배포본. 지형 DEM 추정 고도이며 실측 아님</k100:elevation_source>
      <k100:algorithm>dijkstra-grid-v1</k100:algorithm>
      <k100:osm_snapshot>2026-08-04</k100:osm_snapshot>
      <k100:snap_trailhead_m>20</k100:snap_trailhead_m>
      <k100:snap_summit_m>219</k100:snap_summit_m>
      <k100:validation_score>64</k100:validation_score>
      <k100:validation_status>review</k100:validation_status>
    </extensions>
  </metadata>
  <trk>
    <name>화왕산 · 자하곡 코스 (대안 1) (OSM 계산 경로)</name>
    <desc>실제 GPS 기록이 아닙니다. OpenStreetMap에 등록된 등산로 선형 위에서 계산한 경로이며, 현장 통제·훼손·출입 제한·계절 통제를 반영하지 않을 수 있습니다. 산행 전 공식 안내를 확인하세요.</desc>
    <trkseg>
      <trkpt lat="35.540563" lon="128.507596"><ele>141.5</ele></trkpt>
      <trkpt lat="35.540551" lon="128.506588"><ele>127.9</ele></trkpt>
      <trkpt lat="35.541326" lon="128.506611"><ele>124.4</ele></trkpt>
      <trkpt lat="35.542978" lon="128.506558"><ele>121.9</ele></trkpt>
      <trkpt lat="35.543099" lon="128.506513"><ele>120.8</ele></trkpt>
      <trkpt lat="35.543342" lon="128.506809"><ele>123.6</ele></trkpt>
      <trkpt lat="35.543327" lon="128.507163"><ele>127.3</ele></trkpt>
      <trkpt lat="35.543626" lon="128.507609"><ele>145.1</ele></trkpt>
      <trkpt lat="35.543667" lon="128.507987"><ele>158.5</ele></trkpt>
      <trkpt lat="35.543633" lon="128.508164"><ele>164.3</ele></trkpt>
      <trkpt lat="35.543469" lon="128.508351"><ele>167.0</ele></trkpt>
      <trkpt lat="35.543453" lon="128.508491"><ele>171.6</ele></trkpt>
      <trkpt lat="35.543504" lon="128.508609"><ele>177.4</ele></trkpt>
      <trkpt lat="35.543912" lon="128.508923"><ele>194.2</ele></trkpt>
      <trkpt lat="35.544549" lon="128.509162"><ele>208.1</ele></trkpt>
      <trkpt lat="35.544759" lon="128.509298"><ele>211.1</ele></trkpt>
      <trkpt lat="35.545121" lon="128.509684"><ele>222.2</ele></trkpt>
      <trkpt lat="35.545370" lon="128.509861"><ele>225.3</ele></trkpt>
      <trkpt lat="35.545941" lon="128.510055"><ele>238.4</ele></trkpt>
      <trkpt lat="35.546134" lon="128.510181"><ele>242.9</ele></trkpt>
      <trkpt lat="35.546332" lon="128.510403"><ele>245.7</ele></trkpt>
      <trkpt lat="35.546843" lon="128.511168"><ele>255.3</ele></trkpt>
      <trkpt lat="35.547967" lon="128.512238"><ele>304.7</ele></trkpt>
      <trkpt lat="35.547871" lon="128.512680"><ele>318.7</ele></trkpt>
      <trkpt lat="35.547740" lon="128.512777"><ele>322.6</ele></trkpt>
      <trkpt lat="35.547650" lon="128.513295"><ele>338.9</ele></trkpt>
      <trkpt lat="35.547655" lon="128.513560"><ele>346.8</ele></trkpt>
      <trkpt lat="35.547552" lon="128.513952"><ele>360.4</ele></trkpt>
      <trkpt lat="35.547526" lon="128.514252"><ele>366.6</ele></trkpt>
      <trkpt lat="35.547556" lon="128.514467"><ele>368.5</ele></trkpt>
      <trkpt lat="35.547432" lon="128.514791"><ele>373.5</ele></trkpt>
      <trkpt lat="35.547430" lon="128.515089"><ele>378.6</ele></trkpt>
      <trkpt lat="35.547253" lon="128.515451"><ele>390.9</ele></trkpt>
      <trkpt lat="35.547035" lon="128.515746"><ele>400.8</ele></trkpt>
      <trkpt lat="35.546943" lon="128.516098"><ele>412.6</ele></trkpt>
      <trkpt lat="35.546801" lon="128.516240"><ele>418.7</ele></trkpt>
      <trkpt lat="35.546665" lon="128.516598"><ele>436.8</ele></trkpt>
      <trkpt lat="35.546592" lon="128.516607"><ele>437.9</ele></trkpt>
      <trkpt lat="35.546405" lon="128.516779"><ele>443.5</ele></trkpt>
      <trkpt lat="35.546593" lon="128.517274"><ele>451.9</ele></trkpt>
      <trkpt lat="35.546736" lon="128.518168"><ele>460.6</ele></trkpt>
      <trkpt lat="35.546692" lon="128.518361"><ele>458.4</ele></trkpt>
      <trkpt lat="35.546742" lon="128.518525"><ele>459.6</ele></trkpt>
      <trkpt lat="35.546690" lon="128.518732"><ele>461.9</ele></trkpt>
      <trkpt lat="35.546753" lon="128.519386"><ele>463.3</ele></trkpt>
      <trkpt lat="35.546642" lon="128.519898"><ele>474.6</ele></trkpt>
      <trkpt lat="35.546603" lon="128.520810"><ele>485.7</ele></trkpt>
      <trkpt lat="35.546680" lon="128.521044"><ele>490.4</ele></trkpt>
      <trkpt lat="35.546819" lon="128.521219"><ele>493.9</ele></trkpt>
      <trkpt lat="35.547029" lon="128.521752"><ele>506.8</ele></trkpt>
      <trkpt lat="35.547036" lon="128.521871"><ele>509.0</ele></trkpt>
      <trkpt lat="35.546784" lon="128.522896"><ele>516.6</ele></trkpt>
      <trkpt lat="35.546797" lon="128.523167"><ele>528.4</ele></trkpt>
      <trkpt lat="35.546608" lon="128.523711"><ele>528.3</ele></trkpt>
      <trkpt lat="35.546579" lon="128.523978"><ele>527.8</ele></trkpt>
      <trkpt lat="35.546982" lon="128.524694"><ele>550.3</ele></trkpt>
      <trkpt lat="35.547109" lon="128.524662"><ele>557.4</ele></trkpt>
      <trkpt lat="35.547364" lon="128.524901"><ele>563.0</ele></trkpt>
      <trkpt lat="35.547683" lon="128.524999"><ele>572.0</ele></trkpt>
      <trkpt lat="35.547927" lon="128.525169"><ele>579.0</ele></trkpt>
      <trkpt lat="35.548141" lon="128.525609"><ele>584.7</ele></trkpt>
      <trkpt lat="35.548437" lon="128.526022"><ele>602.9</ele></trkpt>
      <trkpt lat="35.548568" lon="128.526400"><ele>611.1</ele></trkpt>
      <trkpt lat="35.548484" lon="128.526765"><ele>618.6</ele></trkpt>
      <trkpt lat="35.548222" lon="128.527154"><ele>616.5</ele></trkpt>
      <trkpt lat="35.548472" lon="128.527473"><ele>635.2</ele></trkpt>
      <trkpt lat="35.548506" lon="128.527753"><ele>638.9</ele></trkpt>
      <trkpt lat="35.548482" lon="128.527936"><ele>642.1</ele></trkpt>
      <trkpt lat="35.548287" lon="128.528505"><ele>662.6</ele></trkpt>
      <trkpt lat="35.548334" lon="128.528562"><ele>668.0</ele></trkpt>
      <trkpt lat="35.548395" lon="128.528998"><ele>685.7</ele></trkpt>
      <trkpt lat="35.548177" lon="128.529606"><ele>695.7</ele></trkpt>
      <trkpt lat="35.547672" lon="128.530201"><ele>704.9</ele></trkpt>
      <trkpt lat="35.547564" lon="128.530482"><ele>705.9</ele></trkpt>
      <trkpt lat="35.547544" lon="128.530786"><ele>710.8</ele></trkpt>
      <trkpt lat="35.547434" lon="128.531106"><ele>722.5</ele></trkpt>
      <trkpt lat="35.547141" lon="128.531350"><ele>724.0</ele></trkpt>
      <trkpt lat="35.547078" lon="128.531643"><ele>727.1</ele></trkpt>
      <trkpt lat="35.547100" lon="128.531716"><ele>727.6</ele></trkpt>
      <trkpt lat="35.546894" lon="128.531877"><ele>728.4</ele></trkpt>
      <trkpt lat="35.546677" lon="128.532208"><ele>729.9</ele></trkpt>
      <trkpt lat="35.546350" lon="128.532395"><ele>718.1</ele></trkpt>
      <trkpt lat="35.546106" lon="128.532728"><ele>711.7</ele></trkpt>
      <trkpt lat="35.545766" lon="128.532962"><ele>699.1</ele></trkpt>
      <trkpt lat="35.545697" lon="128.533103"><ele>698.5</ele></trkpt>
      <trkpt lat="35.545529" lon="128.533114"><ele>692.6</ele></trkpt>
      <trkpt lat="35.545396" lon="128.533234"><ele>689.2</ele></trkpt>
      <trkpt lat="35.545221" lon="128.533257"><ele>684.1</ele></trkpt>
      <trkpt lat="35.545086" lon="128.533386"><ele>683.7</ele></trkpt>
      <trkpt lat="35.544551" lon="128.533639"><ele>677.7</ele></trkpt>
      <trkpt lat="35.544189" lon="128.533709"><ele>679.3</ele></trkpt>
      <trkpt lat="35.543817" lon="128.533605"><ele>682.3</ele></trkpt>
      <trkpt lat="35.543133" lon="128.533607"><ele>694.6</ele></trkpt>
      <trkpt lat="35.543001" lon="128.533669"><ele>694.8</ele></trkpt>
      <trkpt lat="35.542762" lon="128.534010"><ele>699.7</ele></trkpt>
      <trkpt lat="35.542657" lon="128.534058"><ele>702.7</ele></trkpt>
      <trkpt lat="35.542238" lon="128.533913"><ele>707.7</ele></trkpt>
      <trkpt lat="35.542141" lon="128.534049"><ele>714.4</ele></trkpt>
      <trkpt lat="35.541863" lon="128.534196"><ele>727.2</ele></trkpt>
      <trkpt lat="35.541380" lon="128.534294"><ele>733.3</ele></trkpt>
      <trkpt lat="35.540909" lon="128.533923"><ele>725.7</ele></trkpt>
      <trkpt lat="35.540703" lon="128.533899"><ele>726.1</ele></trkpt>
      <trkpt lat="35.540490" lon="128.533802"><ele>724.8</ele></trkpt>
      <trkpt lat="35.539762" lon="128.533226"><ele>733.0</ele></trkpt>
      <trkpt lat="35.539653" lon="128.533358"><ele>733.3</ele></trkpt>
      <trkpt lat="35.539422" lon="128.533458"><ele>723.3</ele></trkpt>
      <trkpt lat="35.539343" lon="128.533720"><ele>725.3</ele></trkpt>
      <trkpt lat="35.539155" lon="128.533935"><ele>722.9</ele></trkpt>
      <trkpt lat="35.538838" lon="128.534075"><ele>723.0</ele></trkpt>
      <trkpt lat="35.538679" lon="128.534002"><ele>720.1</ele></trkpt>
      <trkpt lat="35.538407" lon="128.534034"><ele>714.7</ele></trkpt>
      <trkpt lat="35.537891" lon="128.533480"><ele>713.4</ele></trkpt>
      <trkpt lat="35.537670" lon="128.533320"><ele>709.7</ele></trkpt>
      <trkpt lat="35.537103" lon="128.533222"><ele>706.3</ele></trkpt>
      <trkpt lat="35.536871" lon="128.533294"><ele>705.9</ele></trkpt>
      <trkpt lat="35.536461" lon="128.533011"><ele>713.1</ele></trkpt>
      <trkpt lat="35.536251" lon="128.532767"><ele>716.6</ele></trkpt>
      <trkpt lat="35.536068" lon="128.532680"><ele>719.9</ele></trkpt>
      <trkpt lat="35.535728" lon="128.532729"><ele>730.7</ele></trkpt>
      <trkpt lat="35.535453" lon="128.532598"><ele>729.8</ele></trkpt>
      <trkpt lat="35.535377" lon="128.532472"><ele>726.8</ele></trkpt>
      <trkpt lat="35.535093" lon="128.532511"><ele>714.0</ele></trkpt>
      <trkpt lat="35.534960" lon="128.532581"><ele>707.6</ele></trkpt>
      <trkpt lat="35.534774" lon="128.532508"><ele>699.3</ele></trkpt>
      <trkpt lat="35.534616" lon="128.532552"><ele>691.7</ele></trkpt>
      <trkpt lat="35.534349" lon="128.532498"><ele>679.2</ele></trkpt>
      <trkpt lat="35.533982" lon="128.532711"><ele>664.7</ele></trkpt>
      <trkpt lat="35.533530" lon="128.532630"><ele>667.8</ele></trkpt>
      <trkpt lat="35.533435" lon="128.532732"><ele>668.2</ele></trkpt>
      <trkpt lat="35.533131" lon="128.532823"><ele>674.0</ele></trkpt>
      <trkpt lat="35.533001" lon="128.533011"><ele>676.0</ele></trkpt>
      <trkpt lat="35.532818" lon="128.533146"><ele>678.8</ele></trkpt>
      <trkpt lat="35.532583" lon="128.533218"><ele>687.5</ele></trkpt>
      <trkpt lat="35.532038" lon="128.533218"><ele>689.1</ele></trkpt>
      <trkpt lat="35.531416" lon="128.533075"><ele>702.8</ele></trkpt>
      <trkpt lat="35.531121" lon="128.533176"><ele>712.6</ele></trkpt>
      <trkpt lat="35.530789" lon="128.532768"><ele>704.5</ele></trkpt>
      <trkpt lat="35.530256" lon="128.532790"><ele>687.8</ele></trkpt>
      <trkpt lat="35.530029" lon="128.532984"><ele>675.0</ele></trkpt>
      <trkpt lat="35.529316" lon="128.532848"><ele>655.4</ele></trkpt>
      <trkpt lat="35.529049" lon="128.532676"><ele>654.8</ele></trkpt>
      <trkpt lat="35.528874" lon="128.532701"><ele>656.9</ele></trkpt>
    </trkseg>
  </trk>
</gpx>
