<?xml version="1.0" encoding="UTF-8"?>
<gpx version="1.1" creator="kr-100-mountains route-harvester"
     xmlns="http://www.topografix.com/GPX/1/1"
     xmlns:k100="https://github.com/jay-jang/kr-100-mountains/ns/1"
     xmlns:xsi="http://www.w3.org/2001/XMLSchema-instance"
     xsi:schemaLocation="http://www.topografix.com/GPX/1/1 http://www.topografix.com/GPX/1/1/gpx.xsd">
  <metadata>
    <name>화왕산 · 관룡사-화왕산성 코스 (대안 1) (OSM 계산 경로)</name>
    <desc>실제 GPS 기록이 아닙니다. OpenStreetMap에 등록된 등산로 선형 위에서 계산한 경로이며, 현장 통제·훼손·출입 제한·계절 통제를 반영하지 않을 수 있습니다. 산행 전 공식 안내를 확인하세요.</desc>
    <time>2026-08-04T05:46:43.997Z</time>
    <link href="https://www.openstreetmap.org/copyright"><text>© OpenStreetMap contributors (ODbL 1.0)</text></link>
    <link href="https://registry.opendata.aws/terrain-tiles/"><text>Elevation: SRTM 1 arc-second (NASA/USGS) via AWS Terrain Tiles</text></link>
    <extensions>
      <k100:provenance>osm-routed</k100:provenance>
      <k100:not_a_recorded_track>true</k100:not_a_recorded_track>
      <k100:mountain_id>hwawangsan</k100:mountain_id>
      <k100:mountain_name>화왕산</k100:mountain_name>
      <k100:route_id>hwawangsan-00804ce6</k100:route_id>
      <k100:route_index>2</k100:route_index>
      <k100:route_name>관룡사-화왕산성 코스</k100:route_name>
      <k100:variant>1</k100:variant>
      <k100:source>OpenStreetMap via Overpass API</k100:source>
      <k100:license>ODbL-1.0</k100:license>
      <k100:attribution>© OpenStreetMap contributors</k100:attribution>
      <k100:elevation_source>SRTM 1 arc-second (NASA/USGS) — AWS Terrain Tiles 배포본. 지형 DEM 추정 고도이며 실측 아님</k100:elevation_source>
      <k100:algorithm>dijkstra-grid-v1</k100:algorithm>
      <k100:osm_snapshot>2026-08-04</k100:osm_snapshot>
      <k100:snap_trailhead_m>15</k100:snap_trailhead_m>
      <k100:snap_summit_m>219</k100:snap_summit_m>
      <k100:validation_score>82</k100:validation_score>
      <k100:validation_status>accepted</k100:validation_status>
    </extensions>
  </metadata>
  <trk>
    <name>화왕산 · 관룡사-화왕산성 코스 (대안 1) (OSM 계산 경로)</name>
    <desc>실제 GPS 기록이 아닙니다. OpenStreetMap에 등록된 등산로 선형 위에서 계산한 경로이며, 현장 통제·훼손·출입 제한·계절 통제를 반영하지 않을 수 있습니다. 산행 전 공식 안내를 확인하세요.</desc>
    <trkseg>
      <trkpt lat="35.531904" lon="128.553249"><ele>388.8</ele></trkpt>
      <trkpt lat="35.531818" lon="128.553539"><ele>383.9</ele></trkpt>
      <trkpt lat="35.531759" lon="128.554005"><ele>380.1</ele></trkpt>
      <trkpt lat="35.532053" lon="128.554088"><ele>384.1</ele></trkpt>
      <trkpt lat="35.532198" lon="128.554190"><ele>385.8</ele></trkpt>
      <trkpt lat="35.532235" lon="128.554483"><ele>388.7</ele></trkpt>
      <trkpt lat="35.532582" lon="128.555085"><ele>399.5</ele></trkpt>
      <trkpt lat="35.532642" lon="128.555280"><ele>403.6</ele></trkpt>
      <trkpt lat="35.532633" lon="128.555546"><ele>404.4</ele></trkpt>
      <trkpt lat="35.532463" lon="128.555375"><ele>401.6</ele></trkpt>
      <trkpt lat="35.531912" lon="128.555151"><ele>396.9</ele></trkpt>
      <trkpt lat="35.531644" lon="128.554981"><ele>392.6</ele></trkpt>
      <trkpt lat="35.531500" lon="128.554970"><ele>391.9</ele></trkpt>
      <trkpt lat="35.531324" lon="128.555052"><ele>392.1</ele></trkpt>
      <trkpt lat="35.531166" lon="128.555035"><ele>393.1</ele></trkpt>
      <trkpt lat="35.530607" lon="128.554827"><ele>393.4</ele></trkpt>
      <trkpt lat="35.530462" lon="128.554355"><ele>391.6</ele></trkpt>
      <trkpt lat="35.530339" lon="128.554167"><ele>390.9</ele></trkpt>
      <trkpt lat="35.530240" lon="128.554126"><ele>390.7</ele></trkpt>
      <trkpt lat="35.529982" lon="128.554094"><ele>389.1</ele></trkpt>
      <trkpt lat="35.529888" lon="128.554131"><ele>387.9</ele></trkpt>
      <trkpt lat="35.529446" lon="128.554044"><ele>378.7</ele></trkpt>
      <trkpt lat="35.529358" lon="128.554136"><ele>378.8</ele></trkpt>
      <trkpt lat="35.529171" lon="128.554188"><ele>377.0</ele></trkpt>
      <trkpt lat="35.529007" lon="128.554444"><ele>376.4</ele></trkpt>
      <trkpt lat="35.528645" lon="128.554584"><ele>378.1</ele></trkpt>
      <trkpt lat="35.528484" lon="128.554588"><ele>378.7</ele></trkpt>
      <trkpt lat="35.528250" lon="128.554352"><ele>375.4</ele></trkpt>
      <trkpt lat="35.528060" lon="128.553921"><ele>367.3</ele></trkpt>
      <trkpt lat="35.528037" lon="128.553759"><ele>367.0</ele></trkpt>
      <trkpt lat="35.527875" lon="128.553501"><ele>364.2</ele></trkpt>
      <trkpt lat="35.527477" lon="128.553128"><ele>353.3</ele></trkpt>
      <trkpt lat="35.527299" lon="128.552653"><ele>343.8</ele></trkpt>
      <trkpt lat="35.527160" lon="128.552557"><ele>340.4</ele></trkpt>
      <trkpt lat="35.527076" lon="128.552417"><ele>336.2</ele></trkpt>
      <trkpt lat="35.527069" lon="128.552105"><ele>328.3</ele></trkpt>
      <trkpt lat="35.526767" lon="128.552068"><ele>320.9</ele></trkpt>
      <trkpt lat="35.526631" lon="128.551644"><ele>311.1</ele></trkpt>
      <trkpt lat="35.525927" lon="128.551306"><ele>291.9</ele></trkpt>
      <trkpt lat="35.525409" lon="128.551259"><ele>280.3</ele></trkpt>
      <trkpt lat="35.525073" lon="128.551122"><ele>275.1</ele></trkpt>
      <trkpt lat="35.524940" lon="128.551125"><ele>274.0</ele></trkpt>
      <trkpt lat="35.524583" lon="128.551258"><ele>274.7</ele></trkpt>
      <trkpt lat="35.524477" lon="128.551227"><ele>275.2</ele></trkpt>
      <trkpt lat="35.524297" lon="128.551278"><ele>272.7</ele></trkpt>
      <trkpt lat="35.524021" lon="128.550950"><ele>268.9</ele></trkpt>
      <trkpt lat="35.524016" lon="128.550718"><ele>264.2</ele></trkpt>
      <trkpt lat="35.523951" lon="128.550631"><ele>262.2</ele></trkpt>
      <trkpt lat="35.523735" lon="128.550513"><ele>257.3</ele></trkpt>
      <trkpt lat="35.523515" lon="128.550273"><ele>245.8</ele></trkpt>
      <trkpt lat="35.523392" lon="128.550277"><ele>244.6</ele></trkpt>
      <trkpt lat="35.523342" lon="128.550355"><ele>246.1</ele></trkpt>
      <trkpt lat="35.523139" lon="128.550280"><ele>240.6</ele></trkpt>
      <trkpt lat="35.522917" lon="128.550397"><ele>237.8</ele></trkpt>
      <trkpt lat="35.522700" lon="128.550280"><ele>229.4</ele></trkpt>
      <trkpt lat="35.522566" lon="128.550055"><ele>223.6</ele></trkpt>
      <trkpt lat="35.522610" lon="128.549724"><ele>218.6</ele></trkpt>
      <trkpt lat="35.522216" lon="128.549510"><ele>211.2</ele></trkpt>
      <trkpt lat="35.521711" lon="128.550039"><ele>203.9</ele></trkpt>
      <trkpt lat="35.521352" lon="128.549856"><ele>203.7</ele></trkpt>
      <trkpt lat="35.520885" lon="128.550296"><ele>198.8</ele></trkpt>
      <trkpt lat="35.520515" lon="128.550388"><ele>195.2</ele></trkpt>
      <trkpt lat="35.520078" lon="128.550408"><ele>192.6</ele></trkpt>
      <trkpt lat="35.519894" lon="128.550485"><ele>191.5</ele></trkpt>
      <trkpt lat="35.519731" lon="128.549796"><ele>194.7</ele></trkpt>
      <trkpt lat="35.519759" lon="128.549494"><ele>198.3</ele></trkpt>
      <trkpt lat="35.519517" lon="128.548797"><ele>197.8</ele></trkpt>
      <trkpt lat="35.519335" lon="128.548578"><ele>197.3</ele></trkpt>
      <trkpt lat="35.519585" lon="128.548457"><ele>202.0</ele></trkpt>
      <trkpt lat="35.520070" lon="128.548685"><ele>204.2</ele></trkpt>
      <trkpt lat="35.520272" lon="128.548504"><ele>209.3</ele></trkpt>
      <trkpt lat="35.520396" lon="128.548506"><ele>209.4</ele></trkpt>
      <trkpt lat="35.520861" lon="128.548318"><ele>214.9</ele></trkpt>
      <trkpt lat="35.521327" lon="128.548364"><ele>217.4</ele></trkpt>
      <trkpt lat="35.521933" lon="128.548274"><ele>219.1</ele></trkpt>
      <trkpt lat="35.522011" lon="128.548133"><ele>224.7</ele></trkpt>
      <trkpt lat="35.522019" lon="128.547998"><ele>229.0</ele></trkpt>
      <trkpt lat="35.521913" lon="128.547710"><ele>237.0</ele></trkpt>
      <trkpt lat="35.522119" lon="128.547430"><ele>241.9</ele></trkpt>
      <trkpt lat="35.522199" lon="128.547404"><ele>241.1</ele></trkpt>
      <trkpt lat="35.522314" lon="128.547019"><ele>245.4</ele></trkpt>
      <trkpt lat="35.522332" lon="128.546725"><ele>251.4</ele></trkpt>
      <trkpt lat="35.522404" lon="128.546438"><ele>257.3</ele></trkpt>
      <trkpt lat="35.522541" lon="128.546418"><ele>256.5</ele></trkpt>
      <trkpt lat="35.522626" lon="128.546301"><ele>259.3</ele></trkpt>
      <trkpt lat="35.522792" lon="128.545407"><ele>280.9</ele></trkpt>
      <trkpt lat="35.522870" lon="128.545182"><ele>288.1</ele></trkpt>
      <trkpt lat="35.522849" lon="128.544915"><ele>289.8</ele></trkpt>
      <trkpt lat="35.522887" lon="128.544823"><ele>291.8</ele></trkpt>
      <trkpt lat="35.523098" lon="128.544569"><ele>297.5</ele></trkpt>
      <trkpt lat="35.523265" lon="128.544487"><ele>301.0</ele></trkpt>
      <trkpt lat="35.523397" lon="128.544311"><ele>305.2</ele></trkpt>
      <trkpt lat="35.523550" lon="128.544237"><ele>309.1</ele></trkpt>
      <trkpt lat="35.523613" lon="128.544145"><ele>311.8</ele></trkpt>
      <trkpt lat="35.523658" lon="128.543929"><ele>320.5</ele></trkpt>
      <trkpt lat="35.524061" lon="128.543881"><ele>332.9</ele></trkpt>
      <trkpt lat="35.524192" lon="128.543746"><ele>341.7</ele></trkpt>
      <trkpt lat="35.524612" lon="128.543542"><ele>358.4</ele></trkpt>
      <trkpt lat="35.524997" lon="128.543278"><ele>365.7</ele></trkpt>
      <trkpt lat="35.525561" lon="128.543384"><ele>375.7</ele></trkpt>
      <trkpt lat="35.525647" lon="128.543352"><ele>379.1</ele></trkpt>
      <trkpt lat="35.525815" lon="128.543016"><ele>394.1</ele></trkpt>
      <trkpt lat="35.525855" lon="128.542839"><ele>402.0</ele></trkpt>
      <trkpt lat="35.525969" lon="128.542702"><ele>410.0</ele></trkpt>
      <trkpt lat="35.526004" lon="128.542367"><ele>426.5</ele></trkpt>
      <trkpt lat="35.526101" lon="128.542056"><ele>440.2</ele></trkpt>
      <trkpt lat="35.526220" lon="128.541958"><ele>446.2</ele></trkpt>
      <trkpt lat="35.526313" lon="128.541753"><ele>462.8</ele></trkpt>
      <trkpt lat="35.526555" lon="128.541474"><ele>476.3</ele></trkpt>
      <trkpt lat="35.526537" lon="128.541237"><ele>484.2</ele></trkpt>
      <trkpt lat="35.526606" lon="128.541034"><ele>490.7</ele></trkpt>
      <trkpt lat="35.526565" lon="128.540936"><ele>495.3</ele></trkpt>
      <trkpt lat="35.526315" lon="128.540698"><ele>505.4</ele></trkpt>
      <trkpt lat="35.526198" lon="128.540350"><ele>503.0</ele></trkpt>
      <trkpt lat="35.526333" lon="128.540125"><ele>504.1</ele></trkpt>
      <trkpt lat="35.526275" lon="128.539893"><ele>503.9</ele></trkpt>
      <trkpt lat="35.526302" lon="128.539620"><ele>509.0</ele></trkpt>
      <trkpt lat="35.526440" lon="128.539402"><ele>514.3</ele></trkpt>
      <trkpt lat="35.526492" lon="128.539225"><ele>514.9</ele></trkpt>
      <trkpt lat="35.526404" lon="128.538873"><ele>522.0</ele></trkpt>
      <trkpt lat="35.526396" lon="128.538579"><ele>528.3</ele></trkpt>
      <trkpt lat="35.526698" lon="128.538355"><ele>525.9</ele></trkpt>
      <trkpt lat="35.526631" lon="128.538128"><ele>529.9</ele></trkpt>
      <trkpt lat="35.526648" lon="128.537792"><ele>534.8</ele></trkpt>
      <trkpt lat="35.526603" lon="128.537577"><ele>542.1</ele></trkpt>
      <trkpt lat="35.526637" lon="128.537488"><ele>545.7</ele></trkpt>
      <trkpt lat="35.526768" lon="128.537383"><ele>550.2</ele></trkpt>
      <trkpt lat="35.526679" lon="128.537220"><ele>562.7</ele></trkpt>
      <trkpt lat="35.526740" lon="128.536871"><ele>575.9</ele></trkpt>
      <trkpt lat="35.526716" lon="128.536407"><ele>592.9</ele></trkpt>
      <trkpt lat="35.526754" lon="128.536242"><ele>597.2</ele></trkpt>
      <trkpt lat="35.526677" lon="128.535810"><ele>617.3</ele></trkpt>
      <trkpt lat="35.526488" lon="128.535645"><ele>624.6</ele></trkpt>
      <trkpt lat="35.526499" lon="128.535403"><ele>632.4</ele></trkpt>
      <trkpt lat="35.526572" lon="128.535193"><ele>638.9</ele></trkpt>
      <trkpt lat="35.526431" lon="128.534826"><ele>649.7</ele></trkpt>
      <trkpt lat="35.526432" lon="128.534668"><ele>652.9</ele></trkpt>
      <trkpt lat="35.526504" lon="128.534494"><ele>655.4</ele></trkpt>
      <trkpt lat="35.526392" lon="128.534349"><ele>661.2</ele></trkpt>
      <trkpt lat="35.526350" lon="128.534111"><ele>661.0</ele></trkpt>
      <trkpt lat="35.526529" lon="128.533713"><ele>670.0</ele></trkpt>
      <trkpt lat="35.526493" lon="128.533584"><ele>670.1</ele></trkpt>
      <trkpt lat="35.527009" lon="128.533677"><ele>651.1</ele></trkpt>
      <trkpt lat="35.527414" lon="128.533463"><ele>642.3</ele></trkpt>
      <trkpt lat="35.527674" lon="128.533389"><ele>645.1</ele></trkpt>
      <trkpt lat="35.527940" lon="128.533175"><ele>651.7</ele></trkpt>
      <trkpt lat="35.528874" lon="128.532701"><ele>656.9</ele></trkpt>
    </trkseg>
  </trk>
</gpx>
