<?xml version="1.0" encoding="UTF-8"?>
<gpx version="1.1" creator="kr-100-mountains route-harvester"
     xmlns="http://www.topografix.com/GPX/1/1"
     xmlns:k100="https://github.com/jay-jang/kr-100-mountains/ns/1"
     xmlns:xsi="http://www.w3.org/2001/XMLSchema-instance"
     xsi:schemaLocation="http://www.topografix.com/GPX/1/1 http://www.topografix.com/GPX/1/1/gpx.xsd">
  <metadata>
    <name>화왕산 · 자하곡 코스 (대안 2) (OSM 계산 경로)</name>
    <desc>실제 GPS 기록이 아닙니다. OpenStreetMap에 등록된 등산로 선형 위에서 계산한 경로이며, 현장 통제·훼손·출입 제한·계절 통제를 반영하지 않을 수 있습니다. 산행 전 공식 안내를 확인하세요.</desc>
    <time>2026-08-04T05:46:43.974Z</time>
    <link href="https://www.openstreetmap.org/copyright"><text>© OpenStreetMap contributors (ODbL 1.0)</text></link>
    <link href="https://registry.opendata.aws/terrain-tiles/"><text>Elevation: SRTM 1 arc-second (NASA/USGS) via AWS Terrain Tiles</text></link>
    <extensions>
      <k100:provenance>osm-routed</k100:provenance>
      <k100:not_a_recorded_track>true</k100:not_a_recorded_track>
      <k100:mountain_id>hwawangsan</k100:mountain_id>
      <k100:mountain_name>화왕산</k100:mountain_name>
      <k100:route_id>hwawangsan-f2cc5ee4</k100:route_id>
      <k100:route_index>1</k100:route_index>
      <k100:route_name>자하곡 코스</k100:route_name>
      <k100:variant>2</k100:variant>
      <k100:source>OpenStreetMap via Overpass API</k100:source>
      <k100:license>ODbL-1.0</k100:license>
      <k100:attribution>© OpenStreetMap contributors</k100:attribution>
      <k100:elevation_source>SRTM 1 arc-second (NASA/USGS) — AWS Terrain Tiles 배포본. 지형 DEM 추정 고도이며 실측 아님</k100:elevation_source>
      <k100:algorithm>dijkstra-grid-v1</k100:algorithm>
      <k100:osm_snapshot>2026-08-04</k100:osm_snapshot>
      <k100:snap_trailhead_m>20</k100:snap_trailhead_m>
      <k100:snap_summit_m>219</k100:snap_summit_m>
      <k100:validation_score>64</k100:validation_score>
      <k100:validation_status>review</k100:validation_status>
    </extensions>
  </metadata>
  <trk>
    <name>화왕산 · 자하곡 코스 (대안 2) (OSM 계산 경로)</name>
    <desc>실제 GPS 기록이 아닙니다. OpenStreetMap에 등록된 등산로 선형 위에서 계산한 경로이며, 현장 통제·훼손·출입 제한·계절 통제를 반영하지 않을 수 있습니다. 산행 전 공식 안내를 확인하세요.</desc>
    <trkseg>
      <trkpt lat="35.540563" lon="128.507596"><ele>141.5</ele></trkpt>
      <trkpt lat="35.540535" lon="128.508117"><ele>140.5</ele></trkpt>
      <trkpt lat="35.540731" lon="128.508782"><ele>146.7</ele></trkpt>
      <trkpt lat="35.540733" lon="128.508964"><ele>148.9</ele></trkpt>
      <trkpt lat="35.540365" lon="128.509740"><ele>160.2</ele></trkpt>
      <trkpt lat="35.540279" lon="128.510018"><ele>168.3</ele></trkpt>
      <trkpt lat="35.540294" lon="128.510252"><ele>172.8</ele></trkpt>
      <trkpt lat="35.540470" lon="128.511043"><ele>181.7</ele></trkpt>
      <trkpt lat="35.540850" lon="128.511868"><ele>189.9</ele></trkpt>
      <trkpt lat="35.540932" lon="128.512158"><ele>193.3</ele></trkpt>
      <trkpt lat="35.541148" lon="128.513725"><ele>214.0</ele></trkpt>
      <trkpt lat="35.541249" lon="128.514090"><ele>219.2</ele></trkpt>
      <trkpt lat="35.541277" lon="128.514618"><ele>227.3</ele></trkpt>
      <trkpt lat="35.541338" lon="128.514793"><ele>229.5</ele></trkpt>
      <trkpt lat="35.541485" lon="128.514970"><ele>228.8</ele></trkpt>
      <trkpt lat="35.541777" lon="128.515669"><ele>231.4</ele></trkpt>
      <trkpt lat="35.541836" lon="128.515910"><ele>233.8</ele></trkpt>
      <trkpt lat="35.541749" lon="128.516293"><ele>242.4</ele></trkpt>
      <trkpt lat="35.541836" lon="128.516740"><ele>245.2</ele></trkpt>
      <trkpt lat="35.541806" lon="128.517836"><ele>258.2</ele></trkpt>
      <trkpt lat="35.541735" lon="128.518317"><ele>261.7</ele></trkpt>
      <trkpt lat="35.541836" lon="128.518463"><ele>262.0</ele></trkpt>
      <trkpt lat="35.542155" lon="128.518552"><ele>265.0</ele></trkpt>
      <trkpt lat="35.542318" lon="128.518650"><ele>270.0</ele></trkpt>
      <trkpt lat="35.542455" lon="128.519360"><ele>280.6</ele></trkpt>
      <trkpt lat="35.542358" lon="128.519486"><ele>280.9</ele></trkpt>
      <trkpt lat="35.542311" lon="128.519731"><ele>283.5</ele></trkpt>
      <trkpt lat="35.542316" lon="128.520002"><ele>288.4</ele></trkpt>
      <trkpt lat="35.542498" lon="128.520550"><ele>297.9</ele></trkpt>
      <trkpt lat="35.542721" lon="128.520674"><ele>299.8</ele></trkpt>
      <trkpt lat="35.542787" lon="128.520815"><ele>301.9</ele></trkpt>
      <trkpt lat="35.542836" lon="128.521205"><ele>309.0</ele></trkpt>
      <trkpt lat="35.542799" lon="128.521604"><ele>314.9</ele></trkpt>
      <trkpt lat="35.542533" lon="128.521811"><ele>317.8</ele></trkpt>
      <trkpt lat="35.542519" lon="128.521958"><ele>320.4</ele></trkpt>
      <trkpt lat="35.542594" lon="128.522161"><ele>325.3</ele></trkpt>
      <trkpt lat="35.542523" lon="128.522212"><ele>325.9</ele></trkpt>
      <trkpt lat="35.542412" lon="128.522451"><ele>332.5</ele></trkpt>
      <trkpt lat="35.542511" lon="128.523020"><ele>342.5</ele></trkpt>
      <trkpt lat="35.542611" lon="128.523230"><ele>346.0</ele></trkpt>
      <trkpt lat="35.542642" lon="128.523490"><ele>350.5</ele></trkpt>
      <trkpt lat="35.542616" lon="128.523597"><ele>352.2</ele></trkpt>
      <trkpt lat="35.542827" lon="128.523889"><ele>360.8</ele></trkpt>
      <trkpt lat="35.543028" lon="128.524297"><ele>373.0</ele></trkpt>
      <trkpt lat="35.543114" lon="128.524628"><ele>378.9</ele></trkpt>
      <trkpt lat="35.543373" lon="128.525095"><ele>385.6</ele></trkpt>
      <trkpt lat="35.543323" lon="128.525384"><ele>389.3</ele></trkpt>
      <trkpt lat="35.543445" lon="128.526033"><ele>405.7</ele></trkpt>
      <trkpt lat="35.543576" lon="128.526196"><ele>410.3</ele></trkpt>
      <trkpt lat="35.543790" lon="128.526621"><ele>417.7</ele></trkpt>
      <trkpt lat="35.543927" lon="128.527435"><ele>442.8</ele></trkpt>
      <trkpt lat="35.543826" lon="128.528191"><ele>465.7</ele></trkpt>
      <trkpt lat="35.544004" lon="128.528800"><ele>475.7</ele></trkpt>
      <trkpt lat="35.543993" lon="128.529452"><ele>496.6</ele></trkpt>
      <trkpt lat="35.544036" lon="128.529978"><ele>520.8</ele></trkpt>
      <trkpt lat="35.544143" lon="128.530641"><ele>537.9</ele></trkpt>
      <trkpt lat="35.544281" lon="128.531142"><ele>562.6</ele></trkpt>
      <trkpt lat="35.544249" lon="128.531478"><ele>571.6</ele></trkpt>
      <trkpt lat="35.544626" lon="128.532220"><ele>616.8</ele></trkpt>
      <trkpt lat="35.544636" lon="128.532447"><ele>632.5</ele></trkpt>
      <trkpt lat="35.544700" lon="128.532521"><ele>638.8</ele></trkpt>
      <trkpt lat="35.544708" lon="128.532663"><ele>647.6</ele></trkpt>
      <trkpt lat="35.544834" lon="128.532944"><ele>664.7</ele></trkpt>
      <trkpt lat="35.544995" lon="128.532927"><ele>669.3</ele></trkpt>
      <trkpt lat="35.544935" lon="128.533299"><ele>679.4</ele></trkpt>
      <trkpt lat="35.544960" lon="128.533434"><ele>681.2</ele></trkpt>
      <trkpt lat="35.544517" lon="128.533647"><ele>677.5</ele></trkpt>
      <trkpt lat="35.544945" lon="128.534032"><ele>674.2</ele></trkpt>
      <trkpt lat="35.545146" lon="128.534377"><ele>669.9</ele></trkpt>
      <trkpt lat="35.545319" lon="128.535093"><ele>662.8</ele></trkpt>
      <trkpt lat="35.545166" lon="128.536376"><ele>656.0</ele></trkpt>
      <trkpt lat="35.545001" lon="128.536590"><ele>651.6</ele></trkpt>
      <trkpt lat="35.544837" lon="128.536661"><ele>650.5</ele></trkpt>
      <trkpt lat="35.544885" lon="128.536935"><ele>647.9</ele></trkpt>
      <trkpt lat="35.544837" lon="128.537035"><ele>646.5</ele></trkpt>
      <trkpt lat="35.544719" lon="128.537116"><ele>644.1</ele></trkpt>
      <trkpt lat="35.544613" lon="128.537639"><ele>638.3</ele></trkpt>
      <trkpt lat="35.544421" lon="128.537838"><ele>631.3</ele></trkpt>
      <trkpt lat="35.544342" lon="128.538510"><ele>621.8</ele></trkpt>
      <trkpt lat="35.544112" lon="128.538715"><ele>618.8</ele></trkpt>
      <trkpt lat="35.544042" lon="128.538885"><ele>613.8</ele></trkpt>
      <trkpt lat="35.543948" lon="128.538909"><ele>611.6</ele></trkpt>
      <trkpt lat="35.543846" lon="128.539267"><ele>593.3</ele></trkpt>
      <trkpt lat="35.543672" lon="128.539416"><ele>585.3</ele></trkpt>
      <trkpt lat="35.543657" lon="128.539663"><ele>577.7</ele></trkpt>
      <trkpt lat="35.543571" lon="128.539988"><ele>570.9</ele></trkpt>
      <trkpt lat="35.543423" lon="128.540006"><ele>565.9</ele></trkpt>
      <trkpt lat="35.543094" lon="128.540282"><ele>557.5</ele></trkpt>
      <trkpt lat="35.542846" lon="128.540884"><ele>549.2</ele></trkpt>
      <trkpt lat="35.542679" lon="128.540941"><ele>547.3</ele></trkpt>
      <trkpt lat="35.542422" lon="128.541336"><ele>535.2</ele></trkpt>
      <trkpt lat="35.542135" lon="128.541490"><ele>530.2</ele></trkpt>
      <trkpt lat="35.542093" lon="128.541610"><ele>527.5</ele></trkpt>
      <trkpt lat="35.542001" lon="128.541562"><ele>527.7</ele></trkpt>
      <trkpt lat="35.541838" lon="128.541796"><ele>521.1</ele></trkpt>
      <trkpt lat="35.541387" lon="128.541980"><ele>512.7</ele></trkpt>
      <trkpt lat="35.541336" lon="128.542236"><ele>510.3</ele></trkpt>
      <trkpt lat="35.541109" lon="128.542583"><ele>503.0</ele></trkpt>
      <trkpt lat="35.540850" lon="128.543527"><ele>488.9</ele></trkpt>
      <trkpt lat="35.540737" lon="128.543595"><ele>486.1</ele></trkpt>
      <trkpt lat="35.540677" lon="128.543878"><ele>480.3</ele></trkpt>
      <trkpt lat="35.540701" lon="128.544091"><ele>479.6</ele></trkpt>
      <trkpt lat="35.540527" lon="128.544301"><ele>474.4</ele></trkpt>
      <trkpt lat="35.540200" lon="128.544457"><ele>466.6</ele></trkpt>
      <trkpt lat="35.540049" lon="128.544860"><ele>463.6</ele></trkpt>
      <trkpt lat="35.539854" lon="128.545115"><ele>458.2</ele></trkpt>
      <trkpt lat="35.539832" lon="128.545259"><ele>455.7</ele></trkpt>
      <trkpt lat="35.539631" lon="128.545393"><ele>454.0</ele></trkpt>
      <trkpt lat="35.539064" lon="128.545270"><ele>449.5</ele></trkpt>
      <trkpt lat="35.538627" lon="128.545286"><ele>442.5</ele></trkpt>
      <trkpt lat="35.538543" lon="128.545201"><ele>439.5</ele></trkpt>
      <trkpt lat="35.538407" lon="128.544911"><ele>435.3</ele></trkpt>
      <trkpt lat="35.538066" lon="128.544857"><ele>432.1</ele></trkpt>
      <trkpt lat="35.537571" lon="128.544471"><ele>426.9</ele></trkpt>
      <trkpt lat="35.537418" lon="128.544551"><ele>424.5</ele></trkpt>
      <trkpt lat="35.537030" lon="128.544529"><ele>420.1</ele></trkpt>
      <trkpt lat="35.536712" lon="128.544693"><ele>415.0</ele></trkpt>
      <trkpt lat="35.536156" lon="128.545086"><ele>406.9</ele></trkpt>
      <trkpt lat="35.535581" lon="128.545021"><ele>402.5</ele></trkpt>
      <trkpt lat="35.535010" lon="128.545053"><ele>393.6</ele></trkpt>
      <trkpt lat="35.534639" lon="128.545230"><ele>389.5</ele></trkpt>
      <trkpt lat="35.533892" lon="128.545286"><ele>372.3</ele></trkpt>
      <trkpt lat="35.533707" lon="128.545397"><ele>371.4</ele></trkpt>
      <trkpt lat="35.532944" lon="128.545663"><ele>360.9</ele></trkpt>
      <trkpt lat="35.532538" lon="128.544945"><ele>373.3</ele></trkpt>
      <trkpt lat="35.532344" lon="128.544840"><ele>383.9</ele></trkpt>
      <trkpt lat="35.532250" lon="128.544717"><ele>393.2</ele></trkpt>
      <trkpt lat="35.531999" lon="128.543885"><ele>426.7</ele></trkpt>
      <trkpt lat="35.531670" lon="128.543499"><ele>440.6</ele></trkpt>
      <trkpt lat="35.531491" lon="128.542402"><ele>457.8</ele></trkpt>
      <trkpt lat="35.531248" lon="128.542180"><ele>459.6</ele></trkpt>
      <trkpt lat="35.531209" lon="128.542051"><ele>459.9</ele></trkpt>
      <trkpt lat="35.531202" lon="128.541504"><ele>463.4</ele></trkpt>
      <trkpt lat="35.530997" lon="128.541040"><ele>465.8</ele></trkpt>
      <trkpt lat="35.530997" lon="128.540761"><ele>470.3</ele></trkpt>
      <trkpt lat="35.531063" lon="128.540399"><ele>479.0</ele></trkpt>
      <trkpt lat="35.531056" lon="128.539604"><ele>493.4</ele></trkpt>
      <trkpt lat="35.531124" lon="128.539315"><ele>499.1</ele></trkpt>
      <trkpt lat="35.531030" lon="128.538494"><ele>516.4</ele></trkpt>
      <trkpt lat="35.531371" lon="128.537630"><ele>551.9</ele></trkpt>
      <trkpt lat="35.531353" lon="128.537346"><ele>563.3</ele></trkpt>
      <trkpt lat="35.531275" lon="128.537244"><ele>567.9</ele></trkpt>
      <trkpt lat="35.531244" lon="128.536885"><ele>579.1</ele></trkpt>
      <trkpt lat="35.531179" lon="128.536745"><ele>582.9</ele></trkpt>
      <trkpt lat="35.531165" lon="128.536166"><ele>600.8</ele></trkpt>
      <trkpt lat="35.531467" lon="128.534986"><ele>652.9</ele></trkpt>
      <trkpt lat="35.531419" lon="128.534718"><ele>662.1</ele></trkpt>
      <trkpt lat="35.531082" lon="128.533854"><ele>702.4</ele></trkpt>
      <trkpt lat="35.531121" lon="128.533176"><ele>712.6</ele></trkpt>
      <trkpt lat="35.530789" lon="128.532768"><ele>704.5</ele></trkpt>
      <trkpt lat="35.530256" lon="128.532790"><ele>687.8</ele></trkpt>
      <trkpt lat="35.530029" lon="128.532984"><ele>675.0</ele></trkpt>
      <trkpt lat="35.529316" lon="128.532848"><ele>655.4</ele></trkpt>
      <trkpt lat="35.529049" lon="128.532676"><ele>654.8</ele></trkpt>
      <trkpt lat="35.528874" lon="128.532701"><ele>656.9</ele></trkpt>
    </trkseg>
  </trk>
</gpx>
