<?xml version="1.0" encoding="UTF-8"?>
<gpx version="1.1" creator="kr-100-mountains route-harvester"
     xmlns="http://www.topografix.com/GPX/1/1"
     xmlns:k100="https://github.com/jay-jang/kr-100-mountains/ns/1"
     xmlns:xsi="http://www.w3.org/2001/XMLSchema-instance"
     xsi:schemaLocation="http://www.topografix.com/GPX/1/1 http://www.topografix.com/GPX/1/1/gpx.xsd">
  <metadata>
    <name>월출산 · 경포대-천황봉 코스 (대안 1) (OSM 계산 경로)</name>
    <desc>실제 GPS 기록이 아닙니다. OpenStreetMap에 등록된 등산로 선형 위에서 계산한 경로이며, 현장 통제·훼손·출입 제한·계절 통제를 반영하지 않을 수 있습니다. 산행 전 공식 안내를 확인하세요.</desc>
    <time>2026-08-04T05:32:08.272Z</time>
    <link href="https://www.openstreetmap.org/copyright"><text>© OpenStreetMap contributors (ODbL 1.0)</text></link>
    <link href="https://registry.opendata.aws/terrain-tiles/"><text>Elevation: SRTM 1 arc-second (NASA/USGS) via AWS Terrain Tiles</text></link>
    <extensions>
      <k100:provenance>osm-routed</k100:provenance>
      <k100:not_a_recorded_track>true</k100:not_a_recorded_track>
      <k100:mountain_id>wolchulsan</k100:mountain_id>
      <k100:mountain_name>월출산</k100:mountain_name>
      <k100:route_id>wolchulsan-7c7c45d3</k100:route_id>
      <k100:route_index>2</k100:route_index>
      <k100:route_name>경포대-천황봉 코스</k100:route_name>
      <k100:variant>1</k100:variant>
      <k100:source>OpenStreetMap via Overpass API</k100:source>
      <k100:license>ODbL-1.0</k100:license>
      <k100:attribution>© OpenStreetMap contributors</k100:attribution>
      <k100:elevation_source>SRTM 1 arc-second (NASA/USGS) — AWS Terrain Tiles 배포본. 지형 DEM 추정 고도이며 실측 아님</k100:elevation_source>
      <k100:algorithm>dijkstra-grid-v1</k100:algorithm>
      <k100:osm_snapshot>2026-08-04</k100:osm_snapshot>
      <k100:snap_trailhead_m>8</k100:snap_trailhead_m>
      <k100:snap_summit_m>65</k100:snap_summit_m>
      <k100:validation_score>93</k100:validation_score>
      <k100:validation_status>accepted</k100:validation_status>
    </extensions>
  </metadata>
  <trk>
    <name>월출산 · 경포대-천황봉 코스 (대안 1) (OSM 계산 경로)</name>
    <desc>실제 GPS 기록이 아닙니다. OpenStreetMap에 등록된 등산로 선형 위에서 계산한 경로이며, 현장 통제·훼손·출입 제한·계절 통제를 반영하지 않을 수 있습니다. 산행 전 공식 안내를 확인하세요.</desc>
    <trkseg>
      <trkpt lat="34.745740" lon="126.709262"><ele>169.0</ele></trkpt>
      <trkpt lat="34.745654" lon="126.709041"><ele>169.9</ele></trkpt>
      <trkpt lat="34.745715" lon="126.709027"><ele>170.7</ele></trkpt>
      <trkpt lat="34.745808" lon="126.708836"><ele>173.3</ele></trkpt>
      <trkpt lat="34.745927" lon="126.708831"><ele>174.2</ele></trkpt>
      <trkpt lat="34.746130" lon="126.708951"><ele>176.0</ele></trkpt>
      <trkpt lat="34.746481" lon="126.708840"><ele>175.6</ele></trkpt>
      <trkpt lat="34.747063" lon="126.708406"><ele>184.2</ele></trkpt>
      <trkpt lat="34.747911" lon="126.708278"><ele>190.2</ele></trkpt>
      <trkpt lat="34.748256" lon="126.708643"><ele>192.5</ele></trkpt>
      <trkpt lat="34.748213" lon="126.708844"><ele>192.0</ele></trkpt>
      <trkpt lat="34.748246" lon="126.709013"><ele>195.5</ele></trkpt>
      <trkpt lat="34.748379" lon="126.709262"><ele>203.8</ele></trkpt>
      <trkpt lat="34.748651" lon="126.709442"><ele>211.5</ele></trkpt>
      <trkpt lat="34.748885" lon="126.709505"><ele>215.4</ele></trkpt>
      <trkpt lat="34.749237" lon="126.709846"><ele>233.3</ele></trkpt>
      <trkpt lat="34.749290" lon="126.709964"><ele>239.9</ele></trkpt>
      <trkpt lat="34.749383" lon="126.709973"><ele>244.9</ele></trkpt>
      <trkpt lat="34.749481" lon="126.710076"><ele>252.7</ele></trkpt>
      <trkpt lat="34.749560" lon="126.710280"><ele>261.8</ele></trkpt>
      <trkpt lat="34.749656" lon="126.710305"><ele>265.1</ele></trkpt>
      <trkpt lat="34.749703" lon="126.710426"><ele>268.0</ele></trkpt>
      <trkpt lat="34.749919" lon="126.710598"><ele>278.4</ele></trkpt>
      <trkpt lat="34.750157" lon="126.710912"><ele>294.1</ele></trkpt>
      <trkpt lat="34.750371" lon="126.711009"><ele>303.9</ele></trkpt>
      <trkpt lat="34.750424" lon="126.711118"><ele>307.9</ele></trkpt>
      <trkpt lat="34.750530" lon="126.711169"><ele>312.4</ele></trkpt>
      <trkpt lat="34.750682" lon="126.711424"><ele>320.8</ele></trkpt>
      <trkpt lat="34.750724" lon="126.711424"><ele>321.6</ele></trkpt>
      <trkpt lat="34.750803" lon="126.712044"><ele>331.2</ele></trkpt>
      <trkpt lat="34.750959" lon="126.712227"><ele>336.3</ele></trkpt>
      <trkpt lat="34.751036" lon="126.712629"><ele>347.4</ele></trkpt>
      <trkpt lat="34.751137" lon="126.712761"><ele>354.5</ele></trkpt>
      <trkpt lat="34.751272" lon="126.713111"><ele>365.8</ele></trkpt>
      <trkpt lat="34.751282" lon="126.713250"><ele>366.1</ele></trkpt>
      <trkpt lat="34.751914" lon="126.713337"><ele>389.6</ele></trkpt>
      <trkpt lat="34.752222" lon="126.713658"><ele>397.8</ele></trkpt>
      <trkpt lat="34.752445" lon="126.713779"><ele>401.7</ele></trkpt>
      <trkpt lat="34.752835" lon="126.713879"><ele>405.8</ele></trkpt>
      <trkpt lat="34.753247" lon="126.713779"><ele>428.6</ele></trkpt>
      <trkpt lat="34.754108" lon="126.713335"><ele>477.8</ele></trkpt>
      <trkpt lat="34.754341" lon="126.713618"><ele>496.6</ele></trkpt>
      <trkpt lat="34.754562" lon="126.713774"><ele>504.2</ele></trkpt>
      <trkpt lat="34.754863" lon="126.713650"><ele>525.7</ele></trkpt>
      <trkpt lat="34.755062" lon="126.713703"><ele>536.1</ele></trkpt>
      <trkpt lat="34.755160" lon="126.713680"><ele>539.5</ele></trkpt>
      <trkpt lat="34.755487" lon="126.713178"><ele>550.2</ele></trkpt>
      <trkpt lat="34.755817" lon="126.713216"><ele>551.9</ele></trkpt>
      <trkpt lat="34.755947" lon="126.713055"><ele>551.5</ele></trkpt>
      <trkpt lat="34.756200" lon="126.712902"><ele>539.8</ele></trkpt>
      <trkpt lat="34.756356" lon="126.712902"><ele>531.6</ele></trkpt>
      <trkpt lat="34.756415" lon="126.712803"><ele>532.2</ele></trkpt>
      <trkpt lat="34.757063" lon="126.712358"><ele>534.5</ele></trkpt>
      <trkpt lat="34.757167" lon="126.712019"><ele>538.9</ele></trkpt>
      <trkpt lat="34.757482" lon="126.711538"><ele>538.1</ele></trkpt>
      <trkpt lat="34.757689" lon="126.711478"><ele>534.1</ele></trkpt>
      <trkpt lat="34.757903" lon="126.711296"><ele>531.2</ele></trkpt>
      <trkpt lat="34.758261" lon="126.711212"><ele>535.2</ele></trkpt>
      <trkpt lat="34.758906" lon="126.711540"><ele>542.3</ele></trkpt>
      <trkpt lat="34.759177" lon="126.711405"><ele>541.8</ele></trkpt>
      <trkpt lat="34.759296" lon="126.711268"><ele>542.8</ele></trkpt>
      <trkpt lat="34.760248" lon="126.710925"><ele>561.1</ele></trkpt>
      <trkpt lat="34.761099" lon="126.710900"><ele>574.6</ele></trkpt>
      <trkpt lat="34.761761" lon="126.710645"><ele>605.4</ele></trkpt>
      <trkpt lat="34.762358" lon="126.710495"><ele>629.8</ele></trkpt>
      <trkpt lat="34.762731" lon="126.710489"><ele>643.2</ele></trkpt>
      <trkpt lat="34.763122" lon="126.710405"><ele>644.3</ele></trkpt>
      <trkpt lat="34.763258" lon="126.710539"><ele>646.8</ele></trkpt>
      <trkpt lat="34.763238" lon="126.710645"><ele>646.6</ele></trkpt>
      <trkpt lat="34.763621" lon="126.710239"><ele>640.8</ele></trkpt>
      <trkpt lat="34.763646" lon="126.710122"><ele>640.6</ele></trkpt>
      <trkpt lat="34.763804" lon="126.709981"><ele>640.0</ele></trkpt>
      <trkpt lat="34.764401" lon="126.710008"><ele>636.9</ele></trkpt>
      <trkpt lat="34.764902" lon="126.709952"><ele>639.7</ele></trkpt>
      <trkpt lat="34.765208" lon="126.709678"><ele>650.2</ele></trkpt>
      <trkpt lat="34.765293" lon="126.709463"><ele>651.0</ele></trkpt>
      <trkpt lat="34.765661" lon="126.709045"><ele>666.6</ele></trkpt>
      <trkpt lat="34.765717" lon="126.708839"><ele>668.4</ele></trkpt>
      <trkpt lat="34.765700" lon="126.708652"><ele>662.8</ele></trkpt>
      <trkpt lat="34.765800" lon="126.708500"><ele>664.0</ele></trkpt>
      <trkpt lat="34.766069" lon="126.708260"><ele>668.9</ele></trkpt>
      <trkpt lat="34.766175" lon="126.708042"><ele>670.5</ele></trkpt>
      <trkpt lat="34.766224" lon="126.707801"><ele>670.0</ele></trkpt>
      <trkpt lat="34.766524" lon="126.707258"><ele>672.3</ele></trkpt>
      <trkpt lat="34.766661" lon="126.706531"><ele>689.2</ele></trkpt>
      <trkpt lat="34.766661" lon="126.706029"><ele>712.9</ele></trkpt>
      <trkpt lat="34.766776" lon="126.705779"><ele>725.2</ele></trkpt>
      <trkpt lat="34.767096" lon="126.705525"><ele>730.8</ele></trkpt>
      <trkpt lat="34.767090" lon="126.705265"><ele>741.7</ele></trkpt>
      <trkpt lat="34.766939" lon="126.705079"><ele>752.4</ele></trkpt>
      <trkpt lat="34.767011" lon="126.704908"><ele>755.4</ele></trkpt>
      <trkpt lat="34.767002" lon="126.704811"><ele>758.5</ele></trkpt>
      <trkpt lat="34.767183" lon="126.704744"><ele>757.6</ele></trkpt>
      <trkpt lat="34.767245" lon="126.704635"><ele>757.6</ele></trkpt>
    </trkseg>
  </trk>
</gpx>
