<?xml version="1.0" encoding="UTF-8"?>
<gpx version="1.1" creator="kr-100-mountains route-harvester"
     xmlns="http://www.topografix.com/GPX/1/1"
     xmlns:k100="https://github.com/jay-jang/kr-100-mountains/ns/1"
     xmlns:xsi="http://www.w3.org/2001/XMLSchema-instance"
     xsi:schemaLocation="http://www.topografix.com/GPX/1/1 http://www.topografix.com/GPX/1/1/gpx.xsd">
  <metadata>
    <name>월출산 · 천황사-천황봉 코스 (OSM 계산 경로)</name>
    <desc>실제 GPS 기록이 아닙니다. OpenStreetMap에 등록된 등산로 선형 위에서 계산한 경로이며, 현장 통제·훼손·출입 제한·계절 통제를 반영하지 않을 수 있습니다. 산행 전 공식 안내를 확인하세요.</desc>
    <time>2026-08-04T05:32:08.225Z</time>
    <link href="https://www.openstreetmap.org/copyright"><text>© OpenStreetMap contributors (ODbL 1.0)</text></link>
    <link href="https://registry.opendata.aws/terrain-tiles/"><text>Elevation: SRTM 1 arc-second (NASA/USGS) via AWS Terrain Tiles</text></link>
    <extensions>
      <k100:provenance>osm-routed</k100:provenance>
      <k100:not_a_recorded_track>true</k100:not_a_recorded_track>
      <k100:mountain_id>wolchulsan</k100:mountain_id>
      <k100:mountain_name>월출산</k100:mountain_name>
      <k100:route_id>wolchulsan-4a82bc6d</k100:route_id>
      <k100:route_index>1</k100:route_index>
      <k100:route_name>천황사-천황봉 코스</k100:route_name>
      <k100:variant>0</k100:variant>
      <k100:source>OpenStreetMap via Overpass API</k100:source>
      <k100:license>ODbL-1.0</k100:license>
      <k100:attribution>© OpenStreetMap contributors</k100:attribution>
      <k100:elevation_source>SRTM 1 arc-second (NASA/USGS) — AWS Terrain Tiles 배포본. 지형 DEM 추정 고도이며 실측 아님</k100:elevation_source>
      <k100:algorithm>dijkstra-grid-v1</k100:algorithm>
      <k100:osm_snapshot>2026-08-04</k100:osm_snapshot>
      <k100:snap_trailhead_m>13</k100:snap_trailhead_m>
      <k100:snap_summit_m>65</k100:snap_summit_m>
      <k100:validation_score>100</k100:validation_score>
      <k100:validation_status>accepted</k100:validation_status>
    </extensions>
  </metadata>
  <trk>
    <name>월출산 · 천황사-천황봉 코스 (OSM 계산 경로)</name>
    <desc>실제 GPS 기록이 아닙니다. OpenStreetMap에 등록된 등산로 선형 위에서 계산한 경로이며, 현장 통제·훼손·출입 제한·계절 통제를 반영하지 않을 수 있습니다. 산행 전 공식 안내를 확인하세요.</desc>
    <trkseg>
      <trkpt lat="34.774012" lon="126.719312"><ele>112.7</ele></trkpt>
      <trkpt lat="34.774094" lon="126.719193"><ele>112.2</ele></trkpt>
      <trkpt lat="34.773712" lon="126.718964"><ele>121.0</ele></trkpt>
      <trkpt lat="34.773371" lon="126.718636"><ele>129.2</ele></trkpt>
      <trkpt lat="34.772820" lon="126.718403"><ele>140.4</ele></trkpt>
      <trkpt lat="34.772696" lon="126.718337"><ele>142.8</ele></trkpt>
      <trkpt lat="34.772567" lon="126.718165"><ele>147.8</ele></trkpt>
      <trkpt lat="34.772441" lon="126.718149"><ele>149.5</ele></trkpt>
      <trkpt lat="34.772294" lon="126.717853"><ele>156.9</ele></trkpt>
      <trkpt lat="34.772144" lon="126.717683"><ele>161.4</ele></trkpt>
      <trkpt lat="34.772074" lon="126.717515"><ele>165.4</ele></trkpt>
      <trkpt lat="34.772053" lon="126.717137"><ele>174.3</ele></trkpt>
      <trkpt lat="34.771978" lon="126.716959"><ele>178.2</ele></trkpt>
      <trkpt lat="34.771988" lon="126.716751"><ele>179.7</ele></trkpt>
      <trkpt lat="34.772069" lon="126.716651"><ele>179.6</ele></trkpt>
      <trkpt lat="34.771855" lon="126.715885"><ele>200.7</ele></trkpt>
      <trkpt lat="34.771849" lon="126.715733"><ele>204.0</ele></trkpt>
      <trkpt lat="34.771481" lon="126.714557"><ele>242.1</ele></trkpt>
      <trkpt lat="34.771344" lon="126.714401"><ele>246.6</ele></trkpt>
      <trkpt lat="34.771318" lon="126.714196"><ele>250.1</ele></trkpt>
      <trkpt lat="34.771080" lon="126.713689"><ele>269.4</ele></trkpt>
      <trkpt lat="34.770851" lon="126.713418"><ele>279.7</ele></trkpt>
      <trkpt lat="34.770739" lon="126.713115"><ele>294.3</ele></trkpt>
      <trkpt lat="34.770604" lon="126.712960"><ele>306.6</ele></trkpt>
      <trkpt lat="34.770548" lon="126.712701"><ele>317.0</ele></trkpt>
      <trkpt lat="34.770317" lon="126.712353"><ele>328.4</ele></trkpt>
      <trkpt lat="34.770102" lon="126.711844"><ele>340.1</ele></trkpt>
      <trkpt lat="34.770092" lon="126.711665"><ele>344.7</ele></trkpt>
      <trkpt lat="34.769918" lon="126.711183"><ele>371.2</ele></trkpt>
      <trkpt lat="34.769937" lon="126.710993"><ele>373.5</ele></trkpt>
      <trkpt lat="34.769847" lon="126.710539"><ele>391.0</ele></trkpt>
      <trkpt lat="34.769762" lon="126.710226"><ele>407.5</ele></trkpt>
      <trkpt lat="34.769673" lon="126.710117"><ele>412.9</ele></trkpt>
      <trkpt lat="34.769748" lon="126.709759"><ele>422.7</ele></trkpt>
      <trkpt lat="34.769879" lon="126.709664"><ele>435.3</ele></trkpt>
      <trkpt lat="34.769737" lon="126.709404"><ele>454.6</ele></trkpt>
      <trkpt lat="34.769717" lon="126.709026"><ele>479.6</ele></trkpt>
      <trkpt lat="34.769645" lon="126.708843"><ele>488.8</ele></trkpt>
      <trkpt lat="34.769385" lon="126.708458"><ele>518.2</ele></trkpt>
      <trkpt lat="34.769369" lon="126.707891"><ele>540.8</ele></trkpt>
      <trkpt lat="34.769447" lon="126.707804"><ele>546.7</ele></trkpt>
      <trkpt lat="34.769718" lon="126.707705"><ele>556.1</ele></trkpt>
      <trkpt lat="34.769814" lon="126.707763"><ele>553.3</ele></trkpt>
      <trkpt lat="34.769821" lon="126.707850"><ele>550.7</ele></trkpt>
      <trkpt lat="34.769887" lon="126.707917"><ele>549.0</ele></trkpt>
      <trkpt lat="34.770195" lon="126.707769"><ele>552.9</ele></trkpt>
      <trkpt lat="34.770398" lon="126.707751"><ele>552.7</ele></trkpt>
      <trkpt lat="34.770167" lon="126.707590"><ele>557.5</ele></trkpt>
      <trkpt lat="34.770041" lon="126.707347"><ele>568.4</ele></trkpt>
      <trkpt lat="34.770052" lon="126.706904"><ele>577.4</ele></trkpt>
      <trkpt lat="34.769955" lon="126.706830"><ele>583.2</ele></trkpt>
      <trkpt lat="34.769791" lon="126.706821"><ele>586.9</ele></trkpt>
      <trkpt lat="34.769741" lon="126.706658"><ele>596.2</ele></trkpt>
      <trkpt lat="34.769846" lon="126.706431"><ele>608.6</ele></trkpt>
      <trkpt lat="34.769667" lon="126.706331"><ele>614.3</ele></trkpt>
      <trkpt lat="34.769582" lon="126.706338"><ele>614.1</ele></trkpt>
      <trkpt lat="34.769439" lon="126.706403"><ele>612.7</ele></trkpt>
      <trkpt lat="34.769299" lon="126.706579"><ele>614.0</ele></trkpt>
      <trkpt lat="34.769056" lon="126.706541"><ele>626.2</ele></trkpt>
      <trkpt lat="34.767978" lon="126.706235"><ele>653.8</ele></trkpt>
      <trkpt lat="34.767336" lon="126.705867"><ele>701.1</ele></trkpt>
      <trkpt lat="34.767247" lon="126.705685"><ele>716.6</ele></trkpt>
      <trkpt lat="34.767096" lon="126.705525"><ele>730.8</ele></trkpt>
      <trkpt lat="34.767090" lon="126.705265"><ele>741.7</ele></trkpt>
      <trkpt lat="34.766939" lon="126.705079"><ele>752.4</ele></trkpt>
      <trkpt lat="34.767011" lon="126.704908"><ele>755.4</ele></trkpt>
      <trkpt lat="34.767002" lon="126.704811"><ele>758.5</ele></trkpt>
      <trkpt lat="34.767183" lon="126.704744"><ele>757.6</ele></trkpt>
      <trkpt lat="34.767245" lon="126.704635"><ele>757.6</ele></trkpt>
    </trkseg>
  </trk>
</gpx>
