<?xml version="1.0" encoding="UTF-8"?>
<gpx version="1.1" creator="kr-100-mountains route-harvester"
     xmlns="http://www.topografix.com/GPX/1/1"
     xmlns:k100="https://github.com/jay-jang/kr-100-mountains/ns/1"
     xmlns:xsi="http://www.w3.org/2001/XMLSchema-instance"
     xsi:schemaLocation="http://www.topografix.com/GPX/1/1 http://www.topografix.com/GPX/1/1/gpx.xsd">
  <metadata>
    <name>관악산 · 사당역-관음사-연주대 능선 코스 (OSM 계산 경로)</name>
    <desc>실제 GPS 기록이 아닙니다. OpenStreetMap에 등록된 등산로 선형 위에서 계산한 경로이며, 현장 통제·훼손·출입 제한·계절 통제를 반영하지 않을 수 있습니다. 산행 전 공식 안내를 확인하세요.</desc>
    <time>2026-08-04T05:16:26.380Z</time>
    <link href="https://www.openstreetmap.org/copyright"><text>© OpenStreetMap contributors (ODbL 1.0)</text></link>
    <link href="https://registry.opendata.aws/terrain-tiles/"><text>Elevation: SRTM 1 arc-second (NASA/USGS) via AWS Terrain Tiles</text></link>
    <extensions>
      <k100:provenance>osm-routed</k100:provenance>
      <k100:not_a_recorded_track>true</k100:not_a_recorded_track>
      <k100:mountain_id>gwanaksan</k100:mountain_id>
      <k100:mountain_name>관악산</k100:mountain_name>
      <k100:route_id>gwanaksan-6a332673</k100:route_id>
      <k100:route_index>2</k100:route_index>
      <k100:route_name>사당역-관음사-연주대 능선 코스</k100:route_name>
      <k100:variant>0</k100:variant>
      <k100:source>OpenStreetMap via Overpass API</k100:source>
      <k100:license>ODbL-1.0</k100:license>
      <k100:attribution>© OpenStreetMap contributors</k100:attribution>
      <k100:elevation_source>SRTM 1 arc-second (NASA/USGS) — AWS Terrain Tiles 배포본. 지형 DEM 추정 고도이며 실측 아님</k100:elevation_source>
      <k100:algorithm>dijkstra-grid-v1</k100:algorithm>
      <k100:osm_snapshot>2026-08-04</k100:osm_snapshot>
      <k100:snap_trailhead_m>6</k100:snap_trailhead_m>
      <k100:snap_summit_m>22</k100:snap_summit_m>
      <k100:validation_score>100</k100:validation_score>
      <k100:validation_status>accepted</k100:validation_status>
    </extensions>
  </metadata>
  <trk>
    <name>관악산 · 사당역-관음사-연주대 능선 코스 (OSM 계산 경로)</name>
    <desc>실제 GPS 기록이 아닙니다. OpenStreetMap에 등록된 등산로 선형 위에서 계산한 경로이며, 현장 통제·훼손·출입 제한·계절 통제를 반영하지 않을 수 있습니다. 산행 전 공식 안내를 확인하세요.</desc>
    <trkseg>
      <trkpt lat="37.476596" lon="126.981662"><ele>23.5</ele></trkpt>
      <trkpt lat="37.476688" lon="126.980284"><ele>26.9</ele></trkpt>
      <trkpt lat="37.476708" lon="126.977885"><ele>28.0</ele></trkpt>
      <trkpt lat="37.476563" lon="126.977705"><ele>27.7</ele></trkpt>
      <trkpt lat="37.476559" lon="126.977598"><ele>27.9</ele></trkpt>
      <trkpt lat="37.476516" lon="126.977598"><ele>27.8</ele></trkpt>
      <trkpt lat="37.476492" lon="126.978330"><ele>27.4</ele></trkpt>
      <trkpt lat="37.474770" lon="126.978361"><ele>37.8</ele></trkpt>
      <trkpt lat="37.474768" lon="126.978475"><ele>38.6</ele></trkpt>
      <trkpt lat="37.474461" lon="126.978475"><ele>39.5</ele></trkpt>
      <trkpt lat="37.474430" lon="126.978647"><ele>40.5</ele></trkpt>
      <trkpt lat="37.474251" lon="126.978716"><ele>43.0</ele></trkpt>
      <trkpt lat="37.473647" lon="126.978719"><ele>45.0</ele></trkpt>
      <trkpt lat="37.473145" lon="126.978600"><ele>50.6</ele></trkpt>
      <trkpt lat="37.472913" lon="126.978675"><ele>54.3</ele></trkpt>
      <trkpt lat="37.472501" lon="126.978114"><ele>57.4</ele></trkpt>
      <trkpt lat="37.472345" lon="126.977970"><ele>58.7</ele></trkpt>
      <trkpt lat="37.471442" lon="126.977490"><ele>64.3</ele></trkpt>
      <trkpt lat="37.470962" lon="126.977461"><ele>68.9</ele></trkpt>
      <trkpt lat="37.470811" lon="126.977281"><ele>68.6</ele></trkpt>
      <trkpt lat="37.470542" lon="126.977336"><ele>70.8</ele></trkpt>
      <trkpt lat="37.470335" lon="126.977192"><ele>76.3</ele></trkpt>
      <trkpt lat="37.470222" lon="126.976993"><ele>80.2</ele></trkpt>
      <trkpt lat="37.469967" lon="126.976790"><ele>90.3</ele></trkpt>
      <trkpt lat="37.469782" lon="126.976829"><ele>97.5</ele></trkpt>
      <trkpt lat="37.469651" lon="126.976917"><ele>101.7</ele></trkpt>
      <trkpt lat="37.469612" lon="126.977023"><ele>102.8</ele></trkpt>
      <trkpt lat="37.469201" lon="126.977039"><ele>114.3</ele></trkpt>
      <trkpt lat="37.468924" lon="126.977187"><ele>122.1</ele></trkpt>
      <trkpt lat="37.468632" lon="126.977170"><ele>126.7</ele></trkpt>
      <trkpt lat="37.468551" lon="126.977097"><ele>127.9</ele></trkpt>
      <trkpt lat="37.468396" lon="126.976618"><ele>135.6</ele></trkpt>
      <trkpt lat="37.468390" lon="126.976482"><ele>137.6</ele></trkpt>
      <trkpt lat="37.467930" lon="126.976243"><ele>156.8</ele></trkpt>
      <trkpt lat="37.467753" lon="126.975984"><ele>164.1</ele></trkpt>
      <trkpt lat="37.467770" lon="126.975914"><ele>164.5</ele></trkpt>
      <trkpt lat="37.467471" lon="126.975545"><ele>179.1</ele></trkpt>
      <trkpt lat="37.467411" lon="126.975539"><ele>181.0</ele></trkpt>
      <trkpt lat="37.467200" lon="126.975332"><ele>191.5</ele></trkpt>
      <trkpt lat="37.467141" lon="126.975351"><ele>192.8</ele></trkpt>
      <trkpt lat="37.467151" lon="126.975252"><ele>194.6</ele></trkpt>
      <trkpt lat="37.467009" lon="126.975152"><ele>199.9</ele></trkpt>
      <trkpt lat="37.466928" lon="126.974952"><ele>203.2</ele></trkpt>
      <trkpt lat="37.466431" lon="126.974801"><ele>215.1</ele></trkpt>
      <trkpt lat="37.466224" lon="126.974809"><ele>219.6</ele></trkpt>
      <trkpt lat="37.465959" lon="126.974702"><ele>225.8</ele></trkpt>
      <trkpt lat="37.465242" lon="126.974254"><ele>263.0</ele></trkpt>
      <trkpt lat="37.465050" lon="126.974024"><ele>272.0</ele></trkpt>
      <trkpt lat="37.464861" lon="126.974143"><ele>279.3</ele></trkpt>
      <trkpt lat="37.464802" lon="126.974111"><ele>280.9</ele></trkpt>
      <trkpt lat="37.464785" lon="126.974231"><ele>283.2</ele></trkpt>
      <trkpt lat="37.464669" lon="126.974318"><ele>289.3</ele></trkpt>
      <trkpt lat="37.464529" lon="126.974318"><ele>294.4</ele></trkpt>
      <trkpt lat="37.464277" lon="126.973985"><ele>295.3</ele></trkpt>
      <trkpt lat="37.463880" lon="126.973913"><ele>301.4</ele></trkpt>
      <trkpt lat="37.463597" lon="126.973771"><ele>309.1</ele></trkpt>
      <trkpt lat="37.463515" lon="126.973691"><ele>310.6</ele></trkpt>
      <trkpt lat="37.463502" lon="126.973578"><ele>311.2</ele></trkpt>
      <trkpt lat="37.463404" lon="126.973511"><ele>313.0</ele></trkpt>
      <trkpt lat="37.463190" lon="126.973541"><ele>315.5</ele></trkpt>
      <trkpt lat="37.462992" lon="126.973453"><ele>315.4</ele></trkpt>
      <trkpt lat="37.462907" lon="126.973122"><ele>317.9</ele></trkpt>
      <trkpt lat="37.462711" lon="126.972661"><ele>319.4</ele></trkpt>
      <trkpt lat="37.462767" lon="126.972438"><ele>318.1</ele></trkpt>
      <trkpt lat="37.462701" lon="126.972350"><ele>316.7</ele></trkpt>
      <trkpt lat="37.462712" lon="126.972291"><ele>316.0</ele></trkpt>
      <trkpt lat="37.462654" lon="126.972263"><ele>315.8</ele></trkpt>
      <trkpt lat="37.462649" lon="126.972045"><ele>314.1</ele></trkpt>
      <trkpt lat="37.462141" lon="126.971463"><ele>318.4</ele></trkpt>
      <trkpt lat="37.462168" lon="126.971328"><ele>319.3</ele></trkpt>
      <trkpt lat="37.462114" lon="126.971076"><ele>318.6</ele></trkpt>
      <trkpt lat="37.461514" lon="126.970542"><ele>316.1</ele></trkpt>
      <trkpt lat="37.461144" lon="126.969931"><ele>317.7</ele></trkpt>
      <trkpt lat="37.460903" lon="126.969860"><ele>318.5</ele></trkpt>
      <trkpt lat="37.460689" lon="126.969678"><ele>321.0</ele></trkpt>
      <trkpt lat="37.460232" lon="126.969569"><ele>334.2</ele></trkpt>
      <trkpt lat="37.460090" lon="126.969461"><ele>339.8</ele></trkpt>
      <trkpt lat="37.459398" lon="126.969319"><ele>354.6</ele></trkpt>
      <trkpt lat="37.459085" lon="126.969163"><ele>351.0</ele></trkpt>
      <trkpt lat="37.458331" lon="126.968926"><ele>336.8</ele></trkpt>
      <trkpt lat="37.458248" lon="126.968848"><ele>337.7</ele></trkpt>
      <trkpt lat="37.458188" lon="126.968875"><ele>335.4</ele></trkpt>
      <trkpt lat="37.457721" lon="126.968561"><ele>334.1</ele></trkpt>
      <trkpt lat="37.457580" lon="126.968382"><ele>333.4</ele></trkpt>
      <trkpt lat="37.457416" lon="126.968308"><ele>329.2</ele></trkpt>
      <trkpt lat="37.456762" lon="126.968385"><ele>309.1</ele></trkpt>
      <trkpt lat="37.456471" lon="126.968587"><ele>306.7</ele></trkpt>
      <trkpt lat="37.456172" lon="126.968321"><ele>312.6</ele></trkpt>
      <trkpt lat="37.455638" lon="126.968077"><ele>329.3</ele></trkpt>
      <trkpt lat="37.454754" lon="126.967929"><ele>348.2</ele></trkpt>
      <trkpt lat="37.454271" lon="126.968045"><ele>361.1</ele></trkpt>
      <trkpt lat="37.453743" lon="126.968187"><ele>378.0</ele></trkpt>
      <trkpt lat="37.453664" lon="126.968297"><ele>381.2</ele></trkpt>
      <trkpt lat="37.453138" lon="126.968452"><ele>391.5</ele></trkpt>
      <trkpt lat="37.452666" lon="126.968750"><ele>405.4</ele></trkpt>
      <trkpt lat="37.452093" lon="126.968954"><ele>422.9</ele></trkpt>
      <trkpt lat="37.451607" lon="126.969493"><ele>433.2</ele></trkpt>
      <trkpt lat="37.451273" lon="126.969633"><ele>443.7</ele></trkpt>
      <trkpt lat="37.450960" lon="126.969903"><ele>457.5</ele></trkpt>
      <trkpt lat="37.450472" lon="126.970118"><ele>475.5</ele></trkpt>
      <trkpt lat="37.450038" lon="126.970156"><ele>487.9</ele></trkpt>
      <trkpt lat="37.449891" lon="126.970243"><ele>489.2</ele></trkpt>
      <trkpt lat="37.449628" lon="126.969827"><ele>497.8</ele></trkpt>
      <trkpt lat="37.449457" lon="126.969741"><ele>500.6</ele></trkpt>
      <trkpt lat="37.449373" lon="126.969829"><ele>499.8</ele></trkpt>
      <trkpt lat="37.449140" lon="126.969899"><ele>500.6</ele></trkpt>
      <trkpt lat="37.448688" lon="126.969843"><ele>502.8</ele></trkpt>
      <trkpt lat="37.448497" lon="126.969761"><ele>503.2</ele></trkpt>
      <trkpt lat="37.447876" lon="126.969811"><ele>518.1</ele></trkpt>
      <trkpt lat="37.447853" lon="126.969758"><ele>517.5</ele></trkpt>
      <trkpt lat="37.447636" lon="126.969754"><ele>524.4</ele></trkpt>
      <trkpt lat="37.447554" lon="126.969649"><ele>524.0</ele></trkpt>
      <trkpt lat="37.447099" lon="126.969443"><ele>532.3</ele></trkpt>
      <trkpt lat="37.446955" lon="126.969322"><ele>531.6</ele></trkpt>
      <trkpt lat="37.446881" lon="126.969008"><ele>527.1</ele></trkpt>
      <trkpt lat="37.446800" lon="126.968926"><ele>526.0</ele></trkpt>
      <trkpt lat="37.446824" lon="126.968818"><ele>527.8</ele></trkpt>
      <trkpt lat="37.446738" lon="126.968561"><ele>532.7</ele></trkpt>
      <trkpt lat="37.446702" lon="126.968176"><ele>543.6</ele></trkpt>
      <trkpt lat="37.446638" lon="126.968116"><ele>546.1</ele></trkpt>
      <trkpt lat="37.446587" lon="126.967884"><ele>548.6</ele></trkpt>
      <trkpt lat="37.446624" lon="126.967864"><ele>548.1</ele></trkpt>
      <trkpt lat="37.446475" lon="126.967766"><ele>551.8</ele></trkpt>
      <trkpt lat="37.446383" lon="126.967528"><ele>553.9</ele></trkpt>
      <trkpt lat="37.446226" lon="126.967435"><ele>551.5</ele></trkpt>
      <trkpt lat="37.446230" lon="126.967346"><ele>551.3</ele></trkpt>
      <trkpt lat="37.446156" lon="126.967278"><ele>550.9</ele></trkpt>
      <trkpt lat="37.446076" lon="126.967075"><ele>548.0</ele></trkpt>
      <trkpt lat="37.446092" lon="126.966844"><ele>547.4</ele></trkpt>
      <trkpt lat="37.446027" lon="126.966647"><ele>546.0</ele></trkpt>
      <trkpt lat="37.446043" lon="126.966416"><ele>547.7</ele></trkpt>
      <trkpt lat="37.446113" lon="126.966181"><ele>553.0</ele></trkpt>
      <trkpt lat="37.446273" lon="126.966082"><ele>551.7</ele></trkpt>
      <trkpt lat="37.446345" lon="126.965914"><ele>550.8</ele></trkpt>
      <trkpt lat="37.446191" lon="126.965707"><ele>555.0</ele></trkpt>
      <trkpt lat="37.446138" lon="126.965507"><ele>558.6</ele></trkpt>
      <trkpt lat="37.445933" lon="126.965307"><ele>563.1</ele></trkpt>
      <trkpt lat="37.445817" lon="126.965120"><ele>567.5</ele></trkpt>
      <trkpt lat="37.445805" lon="126.965001"><ele>569.9</ele></trkpt>
      <trkpt lat="37.445745" lon="126.964923"><ele>574.1</ele></trkpt>
      <trkpt lat="37.445800" lon="126.964913"><ele>572.2</ele></trkpt>
      <trkpt lat="37.445799" lon="126.964811"><ele>574.8</ele></trkpt>
      <trkpt lat="37.445720" lon="126.964769"><ele>580.0</ele></trkpt>
      <trkpt lat="37.445781" lon="126.964644"><ele>578.7</ele></trkpt>
      <trkpt lat="37.445615" lon="126.964623"><ele>589.1</ele></trkpt>
      <trkpt lat="37.445601" lon="126.964548"><ele>591.2</ele></trkpt>
      <trkpt lat="37.445467" lon="126.964508"><ele>599.2</ele></trkpt>
      <trkpt lat="37.445479" lon="126.964438"><ele>600.0</ele></trkpt>
      <trkpt lat="37.445398" lon="126.964430"><ele>604.2</ele></trkpt>
      <trkpt lat="37.445457" lon="126.964410"><ele>601.6</ele></trkpt>
      <trkpt lat="37.445417" lon="126.964293"><ele>605.9</ele></trkpt>
      <trkpt lat="37.445364" lon="126.964332"><ele>608.1</ele></trkpt>
      <trkpt lat="37.445320" lon="126.964248"><ele>612.5</ele></trkpt>
      <trkpt lat="37.444961" lon="126.964163"><ele>617.0</ele></trkpt>
      <trkpt lat="37.444965" lon="126.964401"><ele>613.5</ele></trkpt>
      <trkpt lat="37.444826" lon="126.964696"><ele>594.8</ele></trkpt>
    </trkseg>
  </trk>
</gpx>
