<?xml version="1.0" encoding="UTF-8"?>
<gpx version="1.1" creator="kr-100-mountains route-harvester"
     xmlns="http://www.topografix.com/GPX/1/1"
     xmlns:k100="https://github.com/jay-jang/kr-100-mountains/ns/1"
     xmlns:xsi="http://www.w3.org/2001/XMLSchema-instance"
     xsi:schemaLocation="http://www.topografix.com/GPX/1/1 http://www.topografix.com/GPX/1/1/gpx.xsd">
  <metadata>
    <name>관악산 · 사당역-관음사-연주대 능선 코스 (대안 2) (OSM 계산 경로)</name>
    <desc>실제 GPS 기록이 아닙니다. OpenStreetMap에 등록된 등산로 선형 위에서 계산한 경로이며, 현장 통제·훼손·출입 제한·계절 통제를 반영하지 않을 수 있습니다. 산행 전 공식 안내를 확인하세요.</desc>
    <time>2026-08-04T05:16:26.381Z</time>
    <link href="https://www.openstreetmap.org/copyright"><text>© OpenStreetMap contributors (ODbL 1.0)</text></link>
    <link href="https://registry.opendata.aws/terrain-tiles/"><text>Elevation: SRTM 1 arc-second (NASA/USGS) via AWS Terrain Tiles</text></link>
    <extensions>
      <k100:provenance>osm-routed</k100:provenance>
      <k100:not_a_recorded_track>true</k100:not_a_recorded_track>
      <k100:mountain_id>gwanaksan</k100:mountain_id>
      <k100:mountain_name>관악산</k100:mountain_name>
      <k100:route_id>gwanaksan-6a332673</k100:route_id>
      <k100:route_index>2</k100:route_index>
      <k100:route_name>사당역-관음사-연주대 능선 코스</k100:route_name>
      <k100:variant>2</k100:variant>
      <k100:source>OpenStreetMap via Overpass API</k100:source>
      <k100:license>ODbL-1.0</k100:license>
      <k100:attribution>© OpenStreetMap contributors</k100:attribution>
      <k100:elevation_source>SRTM 1 arc-second (NASA/USGS) — AWS Terrain Tiles 배포본. 지형 DEM 추정 고도이며 실측 아님</k100:elevation_source>
      <k100:algorithm>dijkstra-grid-v1</k100:algorithm>
      <k100:osm_snapshot>2026-08-04</k100:osm_snapshot>
      <k100:snap_trailhead_m>6</k100:snap_trailhead_m>
      <k100:snap_summit_m>22</k100:snap_summit_m>
      <k100:validation_score>93</k100:validation_score>
      <k100:validation_status>accepted</k100:validation_status>
    </extensions>
  </metadata>
  <trk>
    <name>관악산 · 사당역-관음사-연주대 능선 코스 (대안 2) (OSM 계산 경로)</name>
    <desc>실제 GPS 기록이 아닙니다. OpenStreetMap에 등록된 등산로 선형 위에서 계산한 경로이며, 현장 통제·훼손·출입 제한·계절 통제를 반영하지 않을 수 있습니다. 산행 전 공식 안내를 확인하세요.</desc>
    <trkseg>
      <trkpt lat="37.476596" lon="126.981662"><ele>23.5</ele></trkpt>
      <trkpt lat="37.476688" lon="126.980284"><ele>26.9</ele></trkpt>
      <trkpt lat="37.476703" lon="126.978901"><ele>27.8</ele></trkpt>
      <trkpt lat="37.476613" lon="126.978904"><ele>27.9</ele></trkpt>
      <trkpt lat="37.476563" lon="126.977705"><ele>27.7</ele></trkpt>
      <trkpt lat="37.476688" lon="126.977595"><ele>28.0</ele></trkpt>
      <trkpt lat="37.476805" lon="126.977599"><ele>28.0</ele></trkpt>
      <trkpt lat="37.476649" lon="126.975760"><ele>35.7</ele></trkpt>
      <trkpt lat="37.476512" lon="126.974865"><ele>38.8</ele></trkpt>
      <trkpt lat="37.476396" lon="126.974898"><ele>39.0</ele></trkpt>
      <trkpt lat="37.476197" lon="126.974861"><ele>40.0</ele></trkpt>
      <trkpt lat="37.475353" lon="126.971227"><ele>67.2</ele></trkpt>
      <trkpt lat="37.475305" lon="126.971316"><ele>66.5</ele></trkpt>
      <trkpt lat="37.475123" lon="126.971254"><ele>68.1</ele></trkpt>
      <trkpt lat="37.474835" lon="126.970959"><ele>73.3</ele></trkpt>
      <trkpt lat="37.474716" lon="126.970711"><ele>77.3</ele></trkpt>
      <trkpt lat="37.474538" lon="126.969019"><ele>74.2</ele></trkpt>
      <trkpt lat="37.473995" lon="126.968819"><ele>69.5</ele></trkpt>
      <trkpt lat="37.472720" lon="126.968712"><ele>75.3</ele></trkpt>
      <trkpt lat="37.472795" lon="126.967549"><ele>71.9</ele></trkpt>
      <trkpt lat="37.472137" lon="126.966824"><ele>74.6</ele></trkpt>
      <trkpt lat="37.471355" lon="126.965637"><ele>79.0</ele></trkpt>
      <trkpt lat="37.470628" lon="126.965095"><ele>86.3</ele></trkpt>
      <trkpt lat="37.469333" lon="126.965300"><ele>94.2</ele></trkpt>
      <trkpt lat="37.469073" lon="126.964591"><ele>95.3</ele></trkpt>
      <trkpt lat="37.468986" lon="126.963799"><ele>109.5</ele></trkpt>
      <trkpt lat="37.468731" lon="126.962288"><ele>101.1</ele></trkpt>
      <trkpt lat="37.468624" lon="126.962040"><ele>94.0</ele></trkpt>
      <trkpt lat="37.468398" lon="126.961796"><ele>89.7</ele></trkpt>
      <trkpt lat="37.468157" lon="126.961346"><ele>86.9</ele></trkpt>
      <trkpt lat="37.468266" lon="126.959985"><ele>76.6</ele></trkpt>
      <trkpt lat="37.468459" lon="126.958751"><ele>64.0</ele></trkpt>
      <trkpt lat="37.467801" lon="126.958652"><ele>70.8</ele></trkpt>
      <trkpt lat="37.467759" lon="126.958588"><ele>71.3</ele></trkpt>
      <trkpt lat="37.467822" lon="126.958000"><ele>71.1</ele></trkpt>
      <trkpt lat="37.467782" lon="126.957957"><ele>72.0</ele></trkpt>
      <trkpt lat="37.466409" lon="126.957852"><ele>84.6</ele></trkpt>
      <trkpt lat="37.464877" lon="126.957968"><ele>95.6</ele></trkpt>
      <trkpt lat="37.464643" lon="126.957915"><ele>100.4</ele></trkpt>
      <trkpt lat="37.463900" lon="126.958025"><ele>109.6</ele></trkpt>
      <trkpt lat="37.463098" lon="126.957811"><ele>121.3</ele></trkpt>
      <trkpt lat="37.462781" lon="126.957673"><ele>125.9</ele></trkpt>
      <trkpt lat="37.462266" lon="126.957160"><ele>129.3</ele></trkpt>
      <trkpt lat="37.462071" lon="126.957097"><ele>129.6</ele></trkpt>
      <trkpt lat="37.461786" lon="126.956815"><ele>133.4</ele></trkpt>
      <trkpt lat="37.461367" lon="126.956595"><ele>133.2</ele></trkpt>
      <trkpt lat="37.461166" lon="126.956560"><ele>132.5</ele></trkpt>
      <trkpt lat="37.460624" lon="126.956799"><ele>140.6</ele></trkpt>
      <trkpt lat="37.460367" lon="126.956732"><ele>142.1</ele></trkpt>
      <trkpt lat="37.460151" lon="126.956913"><ele>143.4</ele></trkpt>
      <trkpt lat="37.459729" lon="126.957111"><ele>144.4</ele></trkpt>
      <trkpt lat="37.459392" lon="126.957100"><ele>149.0</ele></trkpt>
      <trkpt lat="37.458494" lon="126.956520"><ele>151.3</ele></trkpt>
      <trkpt lat="37.457329" lon="126.956197"><ele>154.8</ele></trkpt>
      <trkpt lat="37.456101" lon="126.955206"><ele>166.3</ele></trkpt>
      <trkpt lat="37.455989" lon="126.955211"><ele>167.1</ele></trkpt>
      <trkpt lat="37.453680" lon="126.953572"><ele>157.9</ele></trkpt>
      <trkpt lat="37.453158" lon="126.953846"><ele>174.6</ele></trkpt>
      <trkpt lat="37.452953" lon="126.954251"><ele>188.6</ele></trkpt>
      <trkpt lat="37.452498" lon="126.954540"><ele>212.1</ele></trkpt>
      <trkpt lat="37.452364" lon="126.954489"><ele>213.9</ele></trkpt>
      <trkpt lat="37.452196" lon="126.954619"><ele>220.1</ele></trkpt>
      <trkpt lat="37.452107" lon="126.954803"><ele>226.2</ele></trkpt>
      <trkpt lat="37.451961" lon="126.954910"><ele>233.0</ele></trkpt>
      <trkpt lat="37.451881" lon="126.955177"><ele>243.8</ele></trkpt>
      <trkpt lat="37.451752" lon="126.955363"><ele>252.7</ele></trkpt>
      <trkpt lat="37.451738" lon="126.955605"><ele>259.9</ele></trkpt>
      <trkpt lat="37.451618" lon="126.955707"><ele>267.5</ele></trkpt>
      <trkpt lat="37.451000" lon="126.955800"><ele>291.5</ele></trkpt>
      <trkpt lat="37.450879" lon="126.955904"><ele>297.0</ele></trkpt>
      <trkpt lat="37.450697" lon="126.956444"><ele>314.3</ele></trkpt>
      <trkpt lat="37.450494" lon="126.956640"><ele>329.3</ele></trkpt>
      <trkpt lat="37.450434" lon="126.956794"><ele>334.6</ele></trkpt>
      <trkpt lat="37.450481" lon="126.956873"><ele>333.7</ele></trkpt>
      <trkpt lat="37.450468" lon="126.957036"><ele>334.2</ele></trkpt>
      <trkpt lat="37.450127" lon="126.956974"><ele>349.4</ele></trkpt>
      <trkpt lat="37.450010" lon="126.957007"><ele>353.1</ele></trkpt>
      <trkpt lat="37.449969" lon="126.956936"><ele>352.4</ele></trkpt>
      <trkpt lat="37.449820" lon="126.957037"><ele>357.5</ele></trkpt>
      <trkpt lat="37.449757" lon="126.957011"><ele>358.0</ele></trkpt>
      <trkpt lat="37.449578" lon="126.957187"><ele>369.2</ele></trkpt>
      <trkpt lat="37.449289" lon="126.957268"><ele>381.7</ele></trkpt>
      <trkpt lat="37.449243" lon="126.957205"><ele>381.5</ele></trkpt>
      <trkpt lat="37.449116" lon="126.957305"><ele>389.3</ele></trkpt>
      <trkpt lat="37.448854" lon="126.957286"><ele>401.2</ele></trkpt>
      <trkpt lat="37.448760" lon="126.957348"><ele>405.8</ele></trkpt>
      <trkpt lat="37.448623" lon="126.957521"><ele>415.2</ele></trkpt>
      <trkpt lat="37.448516" lon="126.957844"><ele>426.6</ele></trkpt>
      <trkpt lat="37.447965" lon="126.958465"><ele>455.7</ele></trkpt>
      <trkpt lat="37.447819" lon="126.958893"><ele>459.5</ele></trkpt>
      <trkpt lat="37.447447" lon="126.959473"><ele>468.4</ele></trkpt>
      <trkpt lat="37.447361" lon="126.959770"><ele>477.4</ele></trkpt>
      <trkpt lat="37.446744" lon="126.960250"><ele>478.2</ele></trkpt>
      <trkpt lat="37.446584" lon="126.960473"><ele>480.7</ele></trkpt>
      <trkpt lat="37.446352" lon="126.961068"><ele>497.2</ele></trkpt>
      <trkpt lat="37.446336" lon="126.961337"><ele>502.8</ele></trkpt>
      <trkpt lat="37.446247" lon="126.961496"><ele>503.5</ele></trkpt>
      <trkpt lat="37.446251" lon="126.961619"><ele>503.5</ele></trkpt>
      <trkpt lat="37.446171" lon="126.961855"><ele>505.0</ele></trkpt>
      <trkpt lat="37.446022" lon="126.962013"><ele>509.8</ele></trkpt>
      <trkpt lat="37.445740" lon="126.962176"><ele>520.7</ele></trkpt>
      <trkpt lat="37.445645" lon="126.962411"><ele>534.7</ele></trkpt>
      <trkpt lat="37.445507" lon="126.962558"><ele>546.7</ele></trkpt>
      <trkpt lat="37.445596" lon="126.962833"><ele>560.6</ele></trkpt>
      <trkpt lat="37.445592" lon="126.962958"><ele>566.1</ele></trkpt>
      <trkpt lat="37.445529" lon="126.963068"><ele>574.3</ele></trkpt>
      <trkpt lat="37.445422" lon="126.963099"><ele>578.5</ele></trkpt>
      <trkpt lat="37.444908" lon="126.963836"><ele>613.7</ele></trkpt>
      <trkpt lat="37.444727" lon="126.964013"><ele>612.2</ele></trkpt>
      <trkpt lat="37.444683" lon="126.964130"><ele>610.1</ele></trkpt>
      <trkpt lat="37.444854" lon="126.964109"><ele>614.3</ele></trkpt>
      <trkpt lat="37.444961" lon="126.964163"><ele>617.0</ele></trkpt>
      <trkpt lat="37.444965" lon="126.964401"><ele>613.5</ele></trkpt>
      <trkpt lat="37.444826" lon="126.964696"><ele>594.8</ele></trkpt>
    </trkseg>
  </trk>
</gpx>
