<?xml version="1.0" encoding="UTF-8"?>
<gpx version="1.1" creator="kr-100-mountains route-harvester"
     xmlns="http://www.topografix.com/GPX/1/1"
     xmlns:k100="https://github.com/jay-jang/kr-100-mountains/ns/1"
     xmlns:xsi="http://www.w3.org/2001/XMLSchema-instance"
     xsi:schemaLocation="http://www.topografix.com/GPX/1/1 http://www.topografix.com/GPX/1/1/gpx.xsd">
  <metadata>
    <name>관악산 · 과천향교-연주대 코스 (대안 1) (OSM 계산 경로)</name>
    <desc>실제 GPS 기록이 아닙니다. OpenStreetMap에 등록된 등산로 선형 위에서 계산한 경로이며, 현장 통제·훼손·출입 제한·계절 통제를 반영하지 않을 수 있습니다. 산행 전 공식 안내를 확인하세요.</desc>
    <time>2026-08-04T05:16:25.997Z</time>
    <link href="https://www.openstreetmap.org/copyright"><text>© OpenStreetMap contributors (ODbL 1.0)</text></link>
    <link href="https://registry.opendata.aws/terrain-tiles/"><text>Elevation: SRTM 1 arc-second (NASA/USGS) via AWS Terrain Tiles</text></link>
    <extensions>
      <k100:provenance>osm-routed</k100:provenance>
      <k100:not_a_recorded_track>true</k100:not_a_recorded_track>
      <k100:mountain_id>gwanaksan</k100:mountain_id>
      <k100:mountain_name>관악산</k100:mountain_name>
      <k100:route_id>gwanaksan-23eb2c7f</k100:route_id>
      <k100:route_index>1</k100:route_index>
      <k100:route_name>과천향교-연주대 코스</k100:route_name>
      <k100:variant>1</k100:variant>
      <k100:source>OpenStreetMap via Overpass API</k100:source>
      <k100:license>ODbL-1.0</k100:license>
      <k100:attribution>© OpenStreetMap contributors</k100:attribution>
      <k100:elevation_source>SRTM 1 arc-second (NASA/USGS) — AWS Terrain Tiles 배포본. 지형 DEM 추정 고도이며 실측 아님</k100:elevation_source>
      <k100:algorithm>dijkstra-grid-v1</k100:algorithm>
      <k100:osm_snapshot>2026-08-04</k100:osm_snapshot>
      <k100:snap_trailhead_m>85</k100:snap_trailhead_m>
      <k100:snap_summit_m>22</k100:snap_summit_m>
      <k100:validation_score>100</k100:validation_score>
      <k100:validation_status>accepted</k100:validation_status>
    </extensions>
  </metadata>
  <trk>
    <name>관악산 · 과천향교-연주대 코스 (대안 1) (OSM 계산 경로)</name>
    <desc>실제 GPS 기록이 아닙니다. OpenStreetMap에 등록된 등산로 선형 위에서 계산한 경로이며, 현장 통제·훼손·출입 제한·계절 통제를 반영하지 않을 수 있습니다. 산행 전 공식 안내를 확인하세요.</desc>
    <trkseg>
      <trkpt lat="37.441942" lon="126.990593"><ele>109.3</ele></trkpt>
      <trkpt lat="37.441276" lon="126.990135"><ele>120.5</ele></trkpt>
      <trkpt lat="37.440759" lon="126.990018"><ele>127.7</ele></trkpt>
      <trkpt lat="37.440365" lon="126.989777"><ele>133.5</ele></trkpt>
      <trkpt lat="37.440116" lon="126.989749"><ele>138.6</ele></trkpt>
      <trkpt lat="37.439490" lon="126.989504"><ele>138.1</ele></trkpt>
      <trkpt lat="37.439035" lon="126.989045"><ele>146.9</ele></trkpt>
      <trkpt lat="37.438754" lon="126.988592"><ele>159.5</ele></trkpt>
      <trkpt lat="37.438359" lon="126.988271"><ele>171.4</ele></trkpt>
      <trkpt lat="37.438317" lon="126.988100"><ele>172.8</ele></trkpt>
      <trkpt lat="37.438246" lon="126.988039"><ele>172.8</ele></trkpt>
      <trkpt lat="37.438377" lon="126.987788"><ele>175.6</ele></trkpt>
      <trkpt lat="37.438442" lon="126.987024"><ele>185.9</ele></trkpt>
      <trkpt lat="37.438505" lon="126.986772"><ele>191.8</ele></trkpt>
      <trkpt lat="37.438353" lon="126.986302"><ele>207.6</ele></trkpt>
      <trkpt lat="37.438384" lon="126.985737"><ele>221.6</ele></trkpt>
      <trkpt lat="37.438145" lon="126.985015"><ele>235.5</ele></trkpt>
      <trkpt lat="37.438486" lon="126.984666"><ele>226.7</ele></trkpt>
      <trkpt lat="37.438738" lon="126.984125"><ele>224.1</ele></trkpt>
      <trkpt lat="37.438771" lon="126.983923"><ele>225.7</ele></trkpt>
      <trkpt lat="37.438746" lon="126.983455"><ele>230.5</ele></trkpt>
      <trkpt lat="37.438678" lon="126.983001"><ele>242.3</ele></trkpt>
      <trkpt lat="37.438576" lon="126.982688"><ele>248.2</ele></trkpt>
      <trkpt lat="37.438562" lon="126.982459"><ele>253.8</ele></trkpt>
      <trkpt lat="37.438598" lon="126.982372"><ele>256.8</ele></trkpt>
      <trkpt lat="37.439387" lon="126.981642"><ele>266.0</ele></trkpt>
      <trkpt lat="37.439556" lon="126.981592"><ele>265.7</ele></trkpt>
      <trkpt lat="37.440145" lon="126.981607"><ele>276.2</ele></trkpt>
      <trkpt lat="37.440587" lon="126.981413"><ele>288.2</ele></trkpt>
      <trkpt lat="37.440995" lon="126.980293"><ele>291.4</ele></trkpt>
      <trkpt lat="37.441663" lon="126.979474"><ele>305.4</ele></trkpt>
      <trkpt lat="37.441900" lon="126.979388"><ele>309.0</ele></trkpt>
      <trkpt lat="37.442039" lon="126.979269"><ele>312.2</ele></trkpt>
      <trkpt lat="37.442287" lon="126.978902"><ele>321.9</ele></trkpt>
      <trkpt lat="37.442279" lon="126.978343"><ele>338.5</ele></trkpt>
      <trkpt lat="37.442447" lon="126.978055"><ele>347.7</ele></trkpt>
      <trkpt lat="37.443050" lon="126.977614"><ele>364.5</ele></trkpt>
      <trkpt lat="37.443108" lon="126.977492"><ele>364.6</ele></trkpt>
      <trkpt lat="37.443279" lon="126.977327"><ele>364.5</ele></trkpt>
      <trkpt lat="37.443432" lon="126.976842"><ele>368.7</ele></trkpt>
      <trkpt lat="37.443458" lon="126.976459"><ele>377.9</ele></trkpt>
      <trkpt lat="37.443656" lon="126.976095"><ele>391.6</ele></trkpt>
      <trkpt lat="37.443707" lon="126.975844"><ele>395.1</ele></trkpt>
      <trkpt lat="37.443656" lon="126.975584"><ele>399.8</ele></trkpt>
      <trkpt lat="37.443761" lon="126.975161"><ele>405.1</ele></trkpt>
      <trkpt lat="37.444569" lon="126.974253"><ele>427.7</ele></trkpt>
      <trkpt lat="37.444726" lon="126.973843"><ele>432.2</ele></trkpt>
      <trkpt lat="37.445223" lon="126.973452"><ele>444.1</ele></trkpt>
      <trkpt lat="37.445321" lon="126.973242"><ele>448.1</ele></trkpt>
      <trkpt lat="37.445364" lon="126.973020"><ele>450.6</ele></trkpt>
      <trkpt lat="37.445492" lon="126.972783"><ele>452.1</ele></trkpt>
      <trkpt lat="37.446068" lon="126.972016"><ele>469.6</ele></trkpt>
      <trkpt lat="37.446160" lon="126.971520"><ele>481.3</ele></trkpt>
      <trkpt lat="37.446383" lon="126.971180"><ele>500.2</ele></trkpt>
      <trkpt lat="37.446382" lon="126.970842"><ele>509.3</ele></trkpt>
      <trkpt lat="37.446520" lon="126.969858"><ele>519.0</ele></trkpt>
      <trkpt lat="37.446435" lon="126.969576"><ele>512.7</ele></trkpt>
      <trkpt lat="37.446445" lon="126.969460"><ele>512.9</ele></trkpt>
      <trkpt lat="37.446815" lon="126.968967"><ele>526.2</ele></trkpt>
      <trkpt lat="37.446800" lon="126.968926"><ele>526.0</ele></trkpt>
      <trkpt lat="37.446133" lon="126.968371"><ele>523.6</ele></trkpt>
      <trkpt lat="37.445828" lon="126.968242"><ele>514.7</ele></trkpt>
      <trkpt lat="37.445701" lon="126.968287"><ele>507.0</ele></trkpt>
      <trkpt lat="37.445324" lon="126.968265"><ele>493.5</ele></trkpt>
      <trkpt lat="37.445066" lon="126.967975"><ele>491.8</ele></trkpt>
      <trkpt lat="37.445123" lon="126.967783"><ele>495.4</ele></trkpt>
      <trkpt lat="37.445138" lon="126.967365"><ele>500.4</ele></trkpt>
      <trkpt lat="37.445003" lon="126.966913"><ele>500.7</ele></trkpt>
      <trkpt lat="37.444935" lon="126.966856"><ele>500.6</ele></trkpt>
      <trkpt lat="37.444604" lon="126.967026"><ele>490.0</ele></trkpt>
      <trkpt lat="37.444277" lon="126.967061"><ele>484.5</ele></trkpt>
      <trkpt lat="37.444187" lon="126.967027"><ele>484.6</ele></trkpt>
      <trkpt lat="37.444141" lon="126.966170"><ele>504.2</ele></trkpt>
      <trkpt lat="37.443845" lon="126.965772"><ele>503.7</ele></trkpt>
      <trkpt lat="37.443863" lon="126.965678"><ele>507.2</ele></trkpt>
      <trkpt lat="37.443669" lon="126.965642"><ele>505.4</ele></trkpt>
      <trkpt lat="37.443546" lon="126.965727"><ele>504.0</ele></trkpt>
      <trkpt lat="37.443322" lon="126.965487"><ele>516.4</ele></trkpt>
      <trkpt lat="37.443134" lon="126.965543"><ele>521.3</ele></trkpt>
      <trkpt lat="37.443082" lon="126.965373"><ele>528.5</ele></trkpt>
      <trkpt lat="37.442921" lon="126.965454"><ele>534.5</ele></trkpt>
      <trkpt lat="37.442862" lon="126.965294"><ele>543.3</ele></trkpt>
      <trkpt lat="37.442812" lon="126.965318"><ele>545.5</ele></trkpt>
      <trkpt lat="37.442648" lon="126.965219"><ele>549.6</ele></trkpt>
      <trkpt lat="37.442844" lon="126.965083"><ele>549.1</ele></trkpt>
      <trkpt lat="37.442882" lon="126.964976"><ele>550.5</ele></trkpt>
      <trkpt lat="37.443398" lon="126.964494"><ele>571.0</ele></trkpt>
      <trkpt lat="37.443579" lon="126.964536"><ele>570.7</ele></trkpt>
      <trkpt lat="37.444156" lon="126.964463"><ele>587.6</ele></trkpt>
      <trkpt lat="37.444333" lon="126.964180"><ele>601.5</ele></trkpt>
      <trkpt lat="37.444477" lon="126.964210"><ele>603.1</ele></trkpt>
      <trkpt lat="37.444854" lon="126.964109"><ele>614.3</ele></trkpt>
      <trkpt lat="37.444961" lon="126.964163"><ele>617.0</ele></trkpt>
      <trkpt lat="37.444965" lon="126.964401"><ele>613.5</ele></trkpt>
      <trkpt lat="37.444826" lon="126.964696"><ele>594.8</ele></trkpt>
    </trkseg>
  </trk>
</gpx>
