<?xml version="1.0" encoding="UTF-8"?>
<gpx version="1.1" creator="kr-100-mountains route-harvester"
     xmlns="http://www.topografix.com/GPX/1/1"
     xmlns:k100="https://github.com/jay-jang/kr-100-mountains/ns/1"
     xmlns:xsi="http://www.w3.org/2001/XMLSchema-instance"
     xsi:schemaLocation="http://www.topografix.com/GPX/1/1 http://www.topografix.com/GPX/1/1/gpx.xsd">
  <metadata>
    <name>관악산 · 관악산공원 입구-제4야영장-연주대 (대안 2) (OSM 계산 경로)</name>
    <desc>실제 GPS 기록이 아닙니다. OpenStreetMap에 등록된 등산로 선형 위에서 계산한 경로이며, 현장 통제·훼손·출입 제한·계절 통제를 반영하지 않을 수 있습니다. 산행 전 공식 안내를 확인하세요.</desc>
    <time>2026-08-04T05:16:26.983Z</time>
    <link href="https://www.openstreetmap.org/copyright"><text>© OpenStreetMap contributors (ODbL 1.0)</text></link>
    <link href="https://registry.opendata.aws/terrain-tiles/"><text>Elevation: SRTM 1 arc-second (NASA/USGS) via AWS Terrain Tiles</text></link>
    <extensions>
      <k100:provenance>osm-routed</k100:provenance>
      <k100:not_a_recorded_track>true</k100:not_a_recorded_track>
      <k100:mountain_id>gwanaksan</k100:mountain_id>
      <k100:mountain_name>관악산</k100:mountain_name>
      <k100:route_id>gwanaksan-5373570d</k100:route_id>
      <k100:route_index>4</k100:route_index>
      <k100:route_name>관악산공원 입구-제4야영장-연주대</k100:route_name>
      <k100:variant>2</k100:variant>
      <k100:source>OpenStreetMap via Overpass API</k100:source>
      <k100:license>ODbL-1.0</k100:license>
      <k100:attribution>© OpenStreetMap contributors</k100:attribution>
      <k100:elevation_source>SRTM 1 arc-second (NASA/USGS) — AWS Terrain Tiles 배포본. 지형 DEM 추정 고도이며 실측 아님</k100:elevation_source>
      <k100:algorithm>dijkstra-grid-v1</k100:algorithm>
      <k100:osm_snapshot>2026-08-04</k100:osm_snapshot>
      <k100:snap_trailhead_m>47</k100:snap_trailhead_m>
      <k100:snap_summit_m>22</k100:snap_summit_m>
      <k100:validation_score>100</k100:validation_score>
      <k100:validation_status>accepted</k100:validation_status>
    </extensions>
  </metadata>
  <trk>
    <name>관악산 · 관악산공원 입구-제4야영장-연주대 (대안 2) (OSM 계산 경로)</name>
    <desc>실제 GPS 기록이 아닙니다. OpenStreetMap에 등록된 등산로 선형 위에서 계산한 경로이며, 현장 통제·훼손·출입 제한·계절 통제를 반영하지 않을 수 있습니다. 산행 전 공식 안내를 확인하세요.</desc>
    <trkseg>
      <trkpt lat="37.468590" lon="126.944630"><ele>59.2</ele></trkpt>
      <trkpt lat="37.469525" lon="126.944880"><ele>52.2</ele></trkpt>
      <trkpt lat="37.469744" lon="126.944997"><ele>51.8</ele></trkpt>
      <trkpt lat="37.469645" lon="126.945299"><ele>55.1</ele></trkpt>
      <trkpt lat="37.468963" lon="126.946295"><ele>55.9</ele></trkpt>
      <trkpt lat="37.468736" lon="126.946478"><ele>55.9</ele></trkpt>
      <trkpt lat="37.468229" lon="126.947242"><ele>56.4</ele></trkpt>
      <trkpt lat="37.468126" lon="126.947502"><ele>56.7</ele></trkpt>
      <trkpt lat="37.468220" lon="126.947897"><ele>57.3</ele></trkpt>
      <trkpt lat="37.467988" lon="126.948084"><ele>59.6</ele></trkpt>
      <trkpt lat="37.467881" lon="126.948359"><ele>64.3</ele></trkpt>
      <trkpt lat="37.467736" lon="126.949289"><ele>72.4</ele></trkpt>
      <trkpt lat="37.467248" lon="126.949586"><ele>70.5</ele></trkpt>
      <trkpt lat="37.466890" lon="126.949001"><ele>66.3</ele></trkpt>
      <trkpt lat="37.466702" lon="126.948529"><ele>65.6</ele></trkpt>
      <trkpt lat="37.466650" lon="126.948599"><ele>66.1</ele></trkpt>
      <trkpt lat="37.465791" lon="126.948668"><ele>63.8</ele></trkpt>
      <trkpt lat="37.465724" lon="126.948733"><ele>64.6</ele></trkpt>
      <trkpt lat="37.465396" lon="126.948774"><ele>65.3</ele></trkpt>
      <trkpt lat="37.465187" lon="126.948705"><ele>64.8</ele></trkpt>
      <trkpt lat="37.461823" lon="126.949417"><ele>73.2</ele></trkpt>
      <trkpt lat="37.461685" lon="126.949345"><ele>71.3</ele></trkpt>
      <trkpt lat="37.461281" lon="126.949327"><ele>73.7</ele></trkpt>
      <trkpt lat="37.460546" lon="126.949059"><ele>81.6</ele></trkpt>
      <trkpt lat="37.460404" lon="126.949106"><ele>84.4</ele></trkpt>
      <trkpt lat="37.459604" lon="126.948838"><ele>90.9</ele></trkpt>
      <trkpt lat="37.459315" lon="126.948835"><ele>92.3</ele></trkpt>
      <trkpt lat="37.456066" lon="126.949642"><ele>107.8</ele></trkpt>
      <trkpt lat="37.453991" lon="126.950293"><ele>128.0</ele></trkpt>
      <trkpt lat="37.453944" lon="126.950409"><ele>129.7</ele></trkpt>
      <trkpt lat="37.453918" lon="126.951490"><ele>135.7</ele></trkpt>
      <trkpt lat="37.453857" lon="126.951755"><ele>137.6</ele></trkpt>
      <trkpt lat="37.453746" lon="126.951988"><ele>140.9</ele></trkpt>
      <trkpt lat="37.453668" lon="126.952079"><ele>143.5</ele></trkpt>
      <trkpt lat="37.452965" lon="126.952141"><ele>158.8</ele></trkpt>
      <trkpt lat="37.452450" lon="126.952029"><ele>165.8</ele></trkpt>
      <trkpt lat="37.452213" lon="126.952226"><ele>167.2</ele></trkpt>
      <trkpt lat="37.452066" lon="126.952797"><ele>168.8</ele></trkpt>
      <trkpt lat="37.450473" lon="126.952102"><ele>187.9</ele></trkpt>
      <trkpt lat="37.450161" lon="126.952051"><ele>194.8</ele></trkpt>
      <trkpt lat="37.449115" lon="126.952080"><ele>226.2</ele></trkpt>
      <trkpt lat="37.448001" lon="126.952116"><ele>232.2</ele></trkpt>
      <trkpt lat="37.447973" lon="126.952242"><ele>235.2</ele></trkpt>
      <trkpt lat="37.447689" lon="126.952467"><ele>239.2</ele></trkpt>
      <trkpt lat="37.446899" lon="126.952888"><ele>260.7</ele></trkpt>
      <trkpt lat="37.446586" lon="126.953016"><ele>265.5</ele></trkpt>
      <trkpt lat="37.446269" lon="126.952979"><ele>258.5</ele></trkpt>
      <trkpt lat="37.445970" lon="126.953268"><ele>262.7</ele></trkpt>
      <trkpt lat="37.445898" lon="126.953528"><ele>267.0</ele></trkpt>
      <trkpt lat="37.445908" lon="126.954040"><ele>276.0</ele></trkpt>
      <trkpt lat="37.445699" lon="126.954603"><ele>291.2</ele></trkpt>
      <trkpt lat="37.445510" lon="126.955337"><ele>298.3</ele></trkpt>
      <trkpt lat="37.445399" lon="126.955539"><ele>305.2</ele></trkpt>
      <trkpt lat="37.445269" lon="126.956054"><ele>315.3</ele></trkpt>
      <trkpt lat="37.445215" lon="126.956487"><ele>322.5</ele></trkpt>
      <trkpt lat="37.445268" lon="126.956598"><ele>323.0</ele></trkpt>
      <trkpt lat="37.445262" lon="126.956999"><ele>333.2</ele></trkpt>
      <trkpt lat="37.445109" lon="126.957336"><ele>341.9</ele></trkpt>
      <trkpt lat="37.445132" lon="126.957498"><ele>343.9</ele></trkpt>
      <trkpt lat="37.445185" lon="126.957545"><ele>345.1</ele></trkpt>
      <trkpt lat="37.445122" lon="126.957683"><ele>346.8</ele></trkpt>
      <trkpt lat="37.445118" lon="126.957829"><ele>349.9</ele></trkpt>
      <trkpt lat="37.445059" lon="126.957904"><ele>350.9</ele></trkpt>
      <trkpt lat="37.445013" lon="126.958218"><ele>359.3</ele></trkpt>
      <trkpt lat="37.444856" lon="126.958293"><ele>358.4</ele></trkpt>
      <trkpt lat="37.444812" lon="126.958475"><ele>363.9</ele></trkpt>
      <trkpt lat="37.444768" lon="126.958479"><ele>363.2</ele></trkpt>
      <trkpt lat="37.444612" lon="126.958739"><ele>374.7</ele></trkpt>
      <trkpt lat="37.444375" lon="126.958839"><ele>379.0</ele></trkpt>
      <trkpt lat="37.444356" lon="126.958927"><ele>381.3</ele></trkpt>
      <trkpt lat="37.444091" lon="126.959055"><ele>387.2</ele></trkpt>
      <trkpt lat="37.444013" lon="126.959276"><ele>393.9</ele></trkpt>
      <trkpt lat="37.443665" lon="126.959594"><ele>405.9</ele></trkpt>
      <trkpt lat="37.443463" lon="126.959615"><ele>409.5</ele></trkpt>
      <trkpt lat="37.443398" lon="126.960419"><ele>429.9</ele></trkpt>
      <trkpt lat="37.443273" lon="126.960589"><ele>438.5</ele></trkpt>
      <trkpt lat="37.443129" lon="126.960990"><ele>450.1</ele></trkpt>
      <trkpt lat="37.442986" lon="126.961086"><ele>453.2</ele></trkpt>
      <trkpt lat="37.442826" lon="126.960988"><ele>452.2</ele></trkpt>
      <trkpt lat="37.442841" lon="126.961445"><ele>465.1</ele></trkpt>
      <trkpt lat="37.442739" lon="126.961697"><ele>473.4</ele></trkpt>
      <trkpt lat="37.442770" lon="126.962014"><ele>485.0</ele></trkpt>
      <trkpt lat="37.442663" lon="126.962325"><ele>496.9</ele></trkpt>
      <trkpt lat="37.442711" lon="126.962462"><ele>497.4</ele></trkpt>
      <trkpt lat="37.442607" lon="126.962516"><ele>503.6</ele></trkpt>
      <trkpt lat="37.442621" lon="126.962706"><ele>510.3</ele></trkpt>
      <trkpt lat="37.442525" lon="126.962753"><ele>517.5</ele></trkpt>
      <trkpt lat="37.442512" lon="126.963028"><ele>525.8</ele></trkpt>
      <trkpt lat="37.442448" lon="126.963025"><ele>529.2</ele></trkpt>
      <trkpt lat="37.442441" lon="126.963083"><ele>531.0</ele></trkpt>
      <trkpt lat="37.442505" lon="126.963209"><ele>530.7</ele></trkpt>
      <trkpt lat="37.442474" lon="126.963331"><ele>535.0</ele></trkpt>
      <trkpt lat="37.442398" lon="126.963341"><ele>538.3</ele></trkpt>
      <trkpt lat="37.442352" lon="126.963602"><ele>548.9</ele></trkpt>
      <trkpt lat="37.442298" lon="126.963617"><ele>550.5</ele></trkpt>
      <trkpt lat="37.442343" lon="126.963786"><ele>554.3</ele></trkpt>
      <trkpt lat="37.442194" lon="126.963831"><ele>558.8</ele></trkpt>
      <trkpt lat="37.442224" lon="126.963870"><ele>558.5</ele></trkpt>
      <trkpt lat="37.442136" lon="126.964192"><ele>566.1</ele></trkpt>
      <trkpt lat="37.442496" lon="126.964332"><ele>563.6</ele></trkpt>
      <trkpt lat="37.443041" lon="126.964226"><ele>571.1</ele></trkpt>
      <trkpt lat="37.443143" lon="126.964129"><ele>572.8</ele></trkpt>
      <trkpt lat="37.443694" lon="126.964151"><ele>585.7</ele></trkpt>
      <trkpt lat="37.443987" lon="126.964399"><ele>584.9</ele></trkpt>
      <trkpt lat="37.444156" lon="126.964463"><ele>587.6</ele></trkpt>
      <trkpt lat="37.444333" lon="126.964180"><ele>601.5</ele></trkpt>
      <trkpt lat="37.444477" lon="126.964210"><ele>603.1</ele></trkpt>
      <trkpt lat="37.444854" lon="126.964109"><ele>614.3</ele></trkpt>
      <trkpt lat="37.444961" lon="126.964163"><ele>617.0</ele></trkpt>
      <trkpt lat="37.444965" lon="126.964401"><ele>613.5</ele></trkpt>
      <trkpt lat="37.444826" lon="126.964696"><ele>594.8</ele></trkpt>
    </trkseg>
  </trk>
</gpx>
