<?xml version="1.0" encoding="UTF-8"?>
<gpx version="1.1" creator="kr-100-mountains route-harvester"
     xmlns="http://www.topografix.com/GPX/1/1"
     xmlns:k100="https://github.com/jay-jang/kr-100-mountains/ns/1"
     xmlns:xsi="http://www.w3.org/2001/XMLSchema-instance"
     xsi:schemaLocation="http://www.topografix.com/GPX/1/1 http://www.topografix.com/GPX/1/1/gpx.xsd">
  <metadata>
    <name>관악산 · 과천향교-연주대 코스 (대안 2) (OSM 계산 경로)</name>
    <desc>실제 GPS 기록이 아닙니다. OpenStreetMap에 등록된 등산로 선형 위에서 계산한 경로이며, 현장 통제·훼손·출입 제한·계절 통제를 반영하지 않을 수 있습니다. 산행 전 공식 안내를 확인하세요.</desc>
    <time>2026-08-04T05:16:25.998Z</time>
    <link href="https://www.openstreetmap.org/copyright"><text>© OpenStreetMap contributors (ODbL 1.0)</text></link>
    <link href="https://registry.opendata.aws/terrain-tiles/"><text>Elevation: SRTM 1 arc-second (NASA/USGS) via AWS Terrain Tiles</text></link>
    <extensions>
      <k100:provenance>osm-routed</k100:provenance>
      <k100:not_a_recorded_track>true</k100:not_a_recorded_track>
      <k100:mountain_id>gwanaksan</k100:mountain_id>
      <k100:mountain_name>관악산</k100:mountain_name>
      <k100:route_id>gwanaksan-23eb2c7f</k100:route_id>
      <k100:route_index>1</k100:route_index>
      <k100:route_name>과천향교-연주대 코스</k100:route_name>
      <k100:variant>2</k100:variant>
      <k100:source>OpenStreetMap via Overpass API</k100:source>
      <k100:license>ODbL-1.0</k100:license>
      <k100:attribution>© OpenStreetMap contributors</k100:attribution>
      <k100:elevation_source>SRTM 1 arc-second (NASA/USGS) — AWS Terrain Tiles 배포본. 지형 DEM 추정 고도이며 실측 아님</k100:elevation_source>
      <k100:algorithm>dijkstra-grid-v1</k100:algorithm>
      <k100:osm_snapshot>2026-08-04</k100:osm_snapshot>
      <k100:snap_trailhead_m>85</k100:snap_trailhead_m>
      <k100:snap_summit_m>22</k100:snap_summit_m>
      <k100:validation_score>93</k100:validation_score>
      <k100:validation_status>accepted</k100:validation_status>
    </extensions>
  </metadata>
  <trk>
    <name>관악산 · 과천향교-연주대 코스 (대안 2) (OSM 계산 경로)</name>
    <desc>실제 GPS 기록이 아닙니다. OpenStreetMap에 등록된 등산로 선형 위에서 계산한 경로이며, 현장 통제·훼손·출입 제한·계절 통제를 반영하지 않을 수 있습니다. 산행 전 공식 안내를 확인하세요.</desc>
    <trkseg>
      <trkpt lat="37.441942" lon="126.990593"><ele>109.3</ele></trkpt>
      <trkpt lat="37.441276" lon="126.990135"><ele>120.5</ele></trkpt>
      <trkpt lat="37.440759" lon="126.990018"><ele>127.7</ele></trkpt>
      <trkpt lat="37.440365" lon="126.989777"><ele>133.5</ele></trkpt>
      <trkpt lat="37.440116" lon="126.989749"><ele>138.6</ele></trkpt>
      <trkpt lat="37.439490" lon="126.989504"><ele>138.1</ele></trkpt>
      <trkpt lat="37.439035" lon="126.989045"><ele>146.9</ele></trkpt>
      <trkpt lat="37.438754" lon="126.988592"><ele>159.5</ele></trkpt>
      <trkpt lat="37.438359" lon="126.988271"><ele>171.4</ele></trkpt>
      <trkpt lat="37.438317" lon="126.988100"><ele>172.8</ele></trkpt>
      <trkpt lat="37.438246" lon="126.988039"><ele>172.8</ele></trkpt>
      <trkpt lat="37.437928" lon="126.988230"><ele>169.6</ele></trkpt>
      <trkpt lat="37.437730" lon="126.988275"><ele>165.1</ele></trkpt>
      <trkpt lat="37.437119" lon="126.988315"><ele>152.0</ele></trkpt>
      <trkpt lat="37.436762" lon="126.988425"><ele>141.0</ele></trkpt>
      <trkpt lat="37.436284" lon="126.988293"><ele>127.6</ele></trkpt>
      <trkpt lat="37.435821" lon="126.988576"><ele>113.9</ele></trkpt>
      <trkpt lat="37.435461" lon="126.988483"><ele>107.2</ele></trkpt>
      <trkpt lat="37.434740" lon="126.988871"><ele>89.6</ele></trkpt>
      <trkpt lat="37.434477" lon="126.989339"><ele>77.2</ele></trkpt>
      <trkpt lat="37.434301" lon="126.989339"><ele>73.6</ele></trkpt>
      <trkpt lat="37.433981" lon="126.988921"><ele>74.0</ele></trkpt>
      <trkpt lat="37.433993" lon="126.988713"><ele>75.4</ele></trkpt>
      <trkpt lat="37.433911" lon="126.988523"><ele>74.7</ele></trkpt>
      <trkpt lat="37.433599" lon="126.988276"><ele>72.6</ele></trkpt>
      <trkpt lat="37.433396" lon="126.987994"><ele>74.1</ele></trkpt>
      <trkpt lat="37.433323" lon="126.986511"><ele>83.7</ele></trkpt>
      <trkpt lat="37.433436" lon="126.986075"><ele>89.2</ele></trkpt>
      <trkpt lat="37.433709" lon="126.985406"><ele>95.9</ele></trkpt>
      <trkpt lat="37.433827" lon="126.985524"><ele>96.2</ele></trkpt>
      <trkpt lat="37.434535" lon="126.984480"><ele>110.2</ele></trkpt>
      <trkpt lat="37.435109" lon="126.983442"><ele>118.9</ele></trkpt>
      <trkpt lat="37.435278" lon="126.983017"><ele>122.3</ele></trkpt>
      <trkpt lat="37.435284" lon="126.982848"><ele>123.6</ele></trkpt>
      <trkpt lat="37.435514" lon="126.982529"><ele>128.5</ele></trkpt>
      <trkpt lat="37.435555" lon="126.982185"><ele>132.9</ele></trkpt>
      <trkpt lat="37.435702" lon="126.981778"><ele>139.7</ele></trkpt>
      <trkpt lat="37.436070" lon="126.981238"><ele>143.5</ele></trkpt>
      <trkpt lat="37.436753" lon="126.980516"><ele>155.0</ele></trkpt>
      <trkpt lat="37.437147" lon="126.980408"><ele>157.3</ele></trkpt>
      <trkpt lat="37.437276" lon="126.980291"><ele>155.4</ele></trkpt>
      <trkpt lat="37.437697" lon="126.980138"><ele>165.0</ele></trkpt>
      <trkpt lat="37.437883" lon="126.979908"><ele>170.2</ele></trkpt>
      <trkpt lat="37.438364" lon="126.979621"><ele>180.9</ele></trkpt>
      <trkpt lat="37.438507" lon="126.979422"><ele>186.3</ele></trkpt>
      <trkpt lat="37.438640" lon="126.978999"><ele>192.9</ele></trkpt>
      <trkpt lat="37.439112" lon="126.978538"><ele>200.5</ele></trkpt>
      <trkpt lat="37.439310" lon="126.978433"><ele>207.0</ele></trkpt>
      <trkpt lat="37.439540" lon="126.977272"><ele>227.0</ele></trkpt>
      <trkpt lat="37.439770" lon="126.976912"><ele>231.5</ele></trkpt>
      <trkpt lat="37.439946" lon="126.976789"><ele>235.7</ele></trkpt>
      <trkpt lat="37.440360" lon="126.976810"><ele>244.5</ele></trkpt>
      <trkpt lat="37.440718" lon="126.976757"><ele>254.2</ele></trkpt>
      <trkpt lat="37.440895" lon="126.976652"><ele>257.9</ele></trkpt>
      <trkpt lat="37.441028" lon="126.976462"><ele>261.8</ele></trkpt>
      <trkpt lat="37.441099" lon="126.976260"><ele>264.7</ele></trkpt>
      <trkpt lat="37.441153" lon="126.975702"><ele>272.0</ele></trkpt>
      <trkpt lat="37.441264" lon="126.975236"><ele>277.5</ele></trkpt>
      <trkpt lat="37.441440" lon="126.974942"><ele>282.7</ele></trkpt>
      <trkpt lat="37.441665" lon="126.974150"><ele>298.2</ele></trkpt>
      <trkpt lat="37.441587" lon="126.973995"><ele>300.4</ele></trkpt>
      <trkpt lat="37.441587" lon="126.973872"><ele>302.9</ele></trkpt>
      <trkpt lat="37.441701" lon="126.973512"><ele>313.1</ele></trkpt>
      <trkpt lat="37.441807" lon="126.972906"><ele>323.2</ele></trkpt>
      <trkpt lat="37.441999" lon="126.972706"><ele>325.8</ele></trkpt>
      <trkpt lat="37.442145" lon="126.972259"><ele>340.5</ele></trkpt>
      <trkpt lat="37.442268" lon="126.972156"><ele>345.5</ele></trkpt>
      <trkpt lat="37.442431" lon="126.972110"><ele>347.4</ele></trkpt>
      <trkpt lat="37.442565" lon="126.971910"><ele>354.1</ele></trkpt>
      <trkpt lat="37.442863" lon="126.971658"><ele>359.1</ele></trkpt>
      <trkpt lat="37.442965" lon="126.971448"><ele>363.2</ele></trkpt>
      <trkpt lat="37.443091" lon="126.971360"><ele>364.9</ele></trkpt>
      <trkpt lat="37.443254" lon="126.970980"><ele>371.0</ele></trkpt>
      <trkpt lat="37.443218" lon="126.970564"><ele>379.6</ele></trkpt>
      <trkpt lat="37.443042" lon="126.969804"><ele>397.1</ele></trkpt>
      <trkpt lat="37.442814" lon="126.969558"><ele>408.3</ele></trkpt>
      <trkpt lat="37.442594" lon="126.969455"><ele>418.0</ele></trkpt>
      <trkpt lat="37.442516" lon="126.969245"><ele>422.2</ele></trkpt>
      <trkpt lat="37.442382" lon="126.969168"><ele>427.3</ele></trkpt>
      <trkpt lat="37.442215" lon="126.968870"><ele>435.7</ele></trkpt>
      <trkpt lat="37.441725" lon="126.968367"><ele>462.1</ele></trkpt>
      <trkpt lat="37.441697" lon="126.968254"><ele>463.8</ele></trkpt>
      <trkpt lat="37.441526" lon="126.968156"><ele>469.4</ele></trkpt>
      <trkpt lat="37.441371" lon="126.967904"><ele>476.5</ele></trkpt>
      <trkpt lat="37.441248" lon="126.967879"><ele>482.1</ele></trkpt>
      <trkpt lat="37.441146" lon="126.967668"><ele>486.7</ele></trkpt>
      <trkpt lat="37.441093" lon="126.967412"><ele>487.7</ele></trkpt>
      <trkpt lat="37.441124" lon="126.967091"><ele>490.8</ele></trkpt>
      <trkpt lat="37.441192" lon="126.966897"><ele>496.2</ele></trkpt>
      <trkpt lat="37.441399" lon="126.966575"><ele>508.5</ele></trkpt>
      <trkpt lat="37.441417" lon="126.966320"><ele>514.9</ele></trkpt>
      <trkpt lat="37.441600" lon="126.966030"><ele>522.4</ele></trkpt>
      <trkpt lat="37.441547" lon="126.965353"><ele>537.5</ele></trkpt>
      <trkpt lat="37.441730" lon="126.965088"><ele>541.8</ele></trkpt>
      <trkpt lat="37.441975" lon="126.965039"><ele>541.7</ele></trkpt>
      <trkpt lat="37.441811" lon="126.964713"><ele>550.9</ele></trkpt>
      <trkpt lat="37.441893" lon="126.964671"><ele>552.2</ele></trkpt>
      <trkpt lat="37.441971" lon="126.964713"><ele>550.5</ele></trkpt>
      <trkpt lat="37.442065" lon="126.964628"><ele>554.2</ele></trkpt>
      <trkpt lat="37.442083" lon="126.964306"><ele>564.5</ele></trkpt>
      <trkpt lat="37.442136" lon="126.964192"><ele>566.1</ele></trkpt>
      <trkpt lat="37.442496" lon="126.964332"><ele>563.6</ele></trkpt>
      <trkpt lat="37.443041" lon="126.964226"><ele>571.1</ele></trkpt>
      <trkpt lat="37.443143" lon="126.964129"><ele>572.8</ele></trkpt>
      <trkpt lat="37.443368" lon="126.964113"><ele>578.4</ele></trkpt>
      <trkpt lat="37.443570" lon="126.964175"><ele>583.0</ele></trkpt>
      <trkpt lat="37.443694" lon="126.964151"><ele>585.7</ele></trkpt>
      <trkpt lat="37.443987" lon="126.964399"><ele>584.9</ele></trkpt>
      <trkpt lat="37.444156" lon="126.964463"><ele>587.6</ele></trkpt>
      <trkpt lat="37.444333" lon="126.964180"><ele>601.5</ele></trkpt>
      <trkpt lat="37.444477" lon="126.964210"><ele>603.1</ele></trkpt>
      <trkpt lat="37.444683" lon="126.964130"><ele>610.1</ele></trkpt>
      <trkpt lat="37.444908" lon="126.964119"><ele>615.6</ele></trkpt>
      <trkpt lat="37.444961" lon="126.964163"><ele>617.0</ele></trkpt>
      <trkpt lat="37.444965" lon="126.964401"><ele>613.5</ele></trkpt>
      <trkpt lat="37.444826" lon="126.964696"><ele>594.8</ele></trkpt>
    </trkseg>
  </trk>
</gpx>
