<?xml version="1.0" encoding="UTF-8"?>
<gpx version="1.1" creator="kr-100-mountains route-harvester"
     xmlns="http://www.topografix.com/GPX/1/1"
     xmlns:k100="https://github.com/jay-jang/kr-100-mountains/ns/1"
     xmlns:xsi="http://www.w3.org/2001/XMLSchema-instance"
     xsi:schemaLocation="http://www.topografix.com/GPX/1/1 http://www.topografix.com/GPX/1/1/gpx.xsd">
  <metadata>
    <name>관악산 · 과천향교-연주대 코스 (OSM 계산 경로)</name>
    <desc>실제 GPS 기록이 아닙니다. OpenStreetMap에 등록된 등산로 선형 위에서 계산한 경로이며, 현장 통제·훼손·출입 제한·계절 통제를 반영하지 않을 수 있습니다. 산행 전 공식 안내를 확인하세요.</desc>
    <time>2026-08-04T05:16:25.996Z</time>
    <link href="https://www.openstreetmap.org/copyright"><text>© OpenStreetMap contributors (ODbL 1.0)</text></link>
    <link href="https://registry.opendata.aws/terrain-tiles/"><text>Elevation: SRTM 1 arc-second (NASA/USGS) via AWS Terrain Tiles</text></link>
    <extensions>
      <k100:provenance>osm-routed</k100:provenance>
      <k100:not_a_recorded_track>true</k100:not_a_recorded_track>
      <k100:mountain_id>gwanaksan</k100:mountain_id>
      <k100:mountain_name>관악산</k100:mountain_name>
      <k100:route_id>gwanaksan-23eb2c7f</k100:route_id>
      <k100:route_index>1</k100:route_index>
      <k100:route_name>과천향교-연주대 코스</k100:route_name>
      <k100:variant>0</k100:variant>
      <k100:source>OpenStreetMap via Overpass API</k100:source>
      <k100:license>ODbL-1.0</k100:license>
      <k100:attribution>© OpenStreetMap contributors</k100:attribution>
      <k100:elevation_source>SRTM 1 arc-second (NASA/USGS) — AWS Terrain Tiles 배포본. 지형 DEM 추정 고도이며 실측 아님</k100:elevation_source>
      <k100:algorithm>dijkstra-grid-v1</k100:algorithm>
      <k100:osm_snapshot>2026-08-04</k100:osm_snapshot>
      <k100:snap_trailhead_m>85</k100:snap_trailhead_m>
      <k100:snap_summit_m>22</k100:snap_summit_m>
      <k100:validation_score>100</k100:validation_score>
      <k100:validation_status>accepted</k100:validation_status>
    </extensions>
  </metadata>
  <trk>
    <name>관악산 · 과천향교-연주대 코스 (OSM 계산 경로)</name>
    <desc>실제 GPS 기록이 아닙니다. OpenStreetMap에 등록된 등산로 선형 위에서 계산한 경로이며, 현장 통제·훼손·출입 제한·계절 통제를 반영하지 않을 수 있습니다. 산행 전 공식 안내를 확인하세요.</desc>
    <trkseg>
      <trkpt lat="37.441942" lon="126.990593"><ele>109.3</ele></trkpt>
      <trkpt lat="37.442313" lon="126.990760"><ele>105.7</ele></trkpt>
      <trkpt lat="37.442539" lon="126.990980"><ele>101.1</ele></trkpt>
      <trkpt lat="37.442725" lon="126.991070"><ele>98.8</ele></trkpt>
      <trkpt lat="37.442982" lon="126.990885"><ele>98.8</ele></trkpt>
      <trkpt lat="37.443452" lon="126.990927"><ele>93.8</ele></trkpt>
      <trkpt lat="37.443636" lon="126.990788"><ele>91.1</ele></trkpt>
      <trkpt lat="37.443986" lon="126.990997"><ele>86.4</ele></trkpt>
      <trkpt lat="37.444002" lon="126.990946"><ele>86.4</ele></trkpt>
      <trkpt lat="37.443836" lon="126.990715"><ele>89.4</ele></trkpt>
      <trkpt lat="37.444023" lon="126.990429"><ele>93.7</ele></trkpt>
      <trkpt lat="37.444259" lon="126.990354"><ele>94.9</ele></trkpt>
      <trkpt lat="37.443701" lon="126.989684"><ele>105.8</ele></trkpt>
      <trkpt lat="37.443500" lon="126.989278"><ele>108.1</ele></trkpt>
      <trkpt lat="37.443475" lon="126.988847"><ele>114.4</ele></trkpt>
      <trkpt lat="37.443346" lon="126.988363"><ele>116.1</ele></trkpt>
      <trkpt lat="37.443430" lon="126.987986"><ele>121.2</ele></trkpt>
      <trkpt lat="37.443533" lon="126.987813"><ele>127.3</ele></trkpt>
      <trkpt lat="37.443604" lon="126.987319"><ele>132.9</ele></trkpt>
      <trkpt lat="37.443765" lon="126.986932"><ele>137.5</ele></trkpt>
      <trkpt lat="37.443840" lon="126.986419"><ele>143.7</ele></trkpt>
      <trkpt lat="37.443963" lon="126.986090"><ele>151.7</ele></trkpt>
      <trkpt lat="37.443969" lon="126.985596"><ele>152.6</ele></trkpt>
      <trkpt lat="37.444031" lon="126.985330"><ele>155.1</ele></trkpt>
      <trkpt lat="37.444133" lon="126.985117"><ele>159.4</ele></trkpt>
      <trkpt lat="37.444257" lon="126.984575"><ele>172.2</ele></trkpt>
      <trkpt lat="37.444478" lon="126.984252"><ele>180.9</ele></trkpt>
      <trkpt lat="37.444598" lon="126.983486"><ele>192.9</ele></trkpt>
      <trkpt lat="37.444797" lon="126.982980"><ele>200.8</ele></trkpt>
      <trkpt lat="37.444789" lon="126.982567"><ele>210.4</ele></trkpt>
      <trkpt lat="37.444712" lon="126.982282"><ele>215.0</ele></trkpt>
      <trkpt lat="37.444819" lon="126.981837"><ele>221.3</ele></trkpt>
      <trkpt lat="37.444793" lon="126.980871"><ele>237.6</ele></trkpt>
      <trkpt lat="37.445014" lon="126.979984"><ele>251.7</ele></trkpt>
      <trkpt lat="37.445004" lon="126.979729"><ele>256.9</ele></trkpt>
      <trkpt lat="37.445212" lon="126.979467"><ele>267.5</ele></trkpt>
      <trkpt lat="37.445588" lon="126.978139"><ele>287.2</ele></trkpt>
      <trkpt lat="37.445802" lon="126.977883"><ele>294.5</ele></trkpt>
      <trkpt lat="37.445921" lon="126.977502"><ele>305.2</ele></trkpt>
      <trkpt lat="37.445966" lon="126.976850"><ele>323.7</ele></trkpt>
      <trkpt lat="37.445930" lon="126.976410"><ele>340.2</ele></trkpt>
      <trkpt lat="37.446033" lon="126.976054"><ele>348.2</ele></trkpt>
      <trkpt lat="37.446110" lon="126.975512"><ele>356.8</ele></trkpt>
      <trkpt lat="37.446315" lon="126.975050"><ele>372.1</ele></trkpt>
      <trkpt lat="37.446433" lon="126.974587"><ele>386.6</ele></trkpt>
      <trkpt lat="37.446516" lon="126.973844"><ele>405.6</ele></trkpt>
      <trkpt lat="37.446624" lon="126.973787"><ele>408.9</ele></trkpt>
      <trkpt lat="37.446757" lon="126.973837"><ele>413.2</ele></trkpt>
      <trkpt lat="37.447041" lon="126.973775"><ele>428.7</ele></trkpt>
      <trkpt lat="37.447447" lon="126.973971"><ele>445.9</ele></trkpt>
      <trkpt lat="37.447721" lon="126.974029"><ele>453.0</ele></trkpt>
      <trkpt lat="37.447732" lon="126.973772"><ele>459.5</ele></trkpt>
      <trkpt lat="37.447882" lon="126.973394"><ele>468.8</ele></trkpt>
      <trkpt lat="37.447790" lon="126.973217"><ele>474.7</ele></trkpt>
      <trkpt lat="37.447797" lon="126.973108"><ele>477.3</ele></trkpt>
      <trkpt lat="37.447943" lon="126.972885"><ele>479.5</ele></trkpt>
      <trkpt lat="37.447875" lon="126.972690"><ele>486.1</ele></trkpt>
      <trkpt lat="37.447697" lon="126.972502"><ele>491.5</ele></trkpt>
      <trkpt lat="37.447712" lon="126.972217"><ele>493.5</ele></trkpt>
      <trkpt lat="37.447639" lon="126.972024"><ele>493.7</ele></trkpt>
      <trkpt lat="37.447644" lon="126.971762"><ele>497.9</ele></trkpt>
      <trkpt lat="37.447591" lon="126.971532"><ele>503.2</ele></trkpt>
      <trkpt lat="37.447643" lon="126.970983"><ele>518.9</ele></trkpt>
      <trkpt lat="37.447415" lon="126.970634"><ele>532.3</ele></trkpt>
      <trkpt lat="37.447228" lon="126.970495"><ele>539.2</ele></trkpt>
      <trkpt lat="37.447139" lon="126.970318"><ele>542.8</ele></trkpt>
      <trkpt lat="37.447156" lon="126.970246"><ele>543.8</ele></trkpt>
      <trkpt lat="37.447095" lon="126.970110"><ele>543.5</ele></trkpt>
      <trkpt lat="37.447119" lon="126.969881"><ele>541.4</ele></trkpt>
      <trkpt lat="37.446937" lon="126.969721"><ele>538.7</ele></trkpt>
      <trkpt lat="37.446855" lon="126.969575"><ele>533.1</ele></trkpt>
      <trkpt lat="37.446945" lon="126.969286"><ele>531.1</ele></trkpt>
      <trkpt lat="37.446881" lon="126.969008"><ele>527.1</ele></trkpt>
      <trkpt lat="37.446800" lon="126.968926"><ele>526.0</ele></trkpt>
      <trkpt lat="37.446824" lon="126.968818"><ele>527.8</ele></trkpt>
      <trkpt lat="37.446738" lon="126.968561"><ele>532.7</ele></trkpt>
      <trkpt lat="37.446702" lon="126.968176"><ele>543.6</ele></trkpt>
      <trkpt lat="37.446638" lon="126.968116"><ele>546.1</ele></trkpt>
      <trkpt lat="37.446587" lon="126.967884"><ele>548.6</ele></trkpt>
      <trkpt lat="37.446624" lon="126.967864"><ele>548.1</ele></trkpt>
      <trkpt lat="37.446475" lon="126.967766"><ele>551.8</ele></trkpt>
      <trkpt lat="37.446383" lon="126.967528"><ele>553.9</ele></trkpt>
      <trkpt lat="37.446226" lon="126.967435"><ele>551.5</ele></trkpt>
      <trkpt lat="37.446230" lon="126.967346"><ele>551.3</ele></trkpt>
      <trkpt lat="37.446156" lon="126.967278"><ele>550.9</ele></trkpt>
      <trkpt lat="37.446076" lon="126.967075"><ele>548.0</ele></trkpt>
      <trkpt lat="37.446092" lon="126.966844"><ele>547.4</ele></trkpt>
      <trkpt lat="37.446027" lon="126.966647"><ele>546.0</ele></trkpt>
      <trkpt lat="37.446043" lon="126.966416"><ele>547.7</ele></trkpt>
      <trkpt lat="37.446113" lon="126.966181"><ele>553.0</ele></trkpt>
      <trkpt lat="37.446273" lon="126.966082"><ele>551.7</ele></trkpt>
      <trkpt lat="37.446335" lon="126.965976"><ele>550.9</ele></trkpt>
      <trkpt lat="37.446338" lon="126.965872"><ele>550.9</ele></trkpt>
      <trkpt lat="37.446191" lon="126.965707"><ele>555.0</ele></trkpt>
      <trkpt lat="37.446138" lon="126.965507"><ele>558.6</ele></trkpt>
      <trkpt lat="37.445933" lon="126.965307"><ele>563.1</ele></trkpt>
      <trkpt lat="37.445817" lon="126.965120"><ele>567.5</ele></trkpt>
      <trkpt lat="37.445805" lon="126.965001"><ele>569.9</ele></trkpt>
      <trkpt lat="37.445745" lon="126.964923"><ele>574.1</ele></trkpt>
      <trkpt lat="37.445800" lon="126.964913"><ele>572.2</ele></trkpt>
      <trkpt lat="37.445799" lon="126.964811"><ele>574.8</ele></trkpt>
      <trkpt lat="37.445720" lon="126.964769"><ele>580.0</ele></trkpt>
      <trkpt lat="37.445781" lon="126.964644"><ele>578.7</ele></trkpt>
      <trkpt lat="37.445615" lon="126.964623"><ele>589.1</ele></trkpt>
      <trkpt lat="37.445601" lon="126.964548"><ele>591.2</ele></trkpt>
      <trkpt lat="37.445467" lon="126.964508"><ele>599.2</ele></trkpt>
      <trkpt lat="37.445479" lon="126.964438"><ele>600.0</ele></trkpt>
      <trkpt lat="37.445398" lon="126.964430"><ele>604.2</ele></trkpt>
      <trkpt lat="37.445457" lon="126.964410"><ele>601.6</ele></trkpt>
      <trkpt lat="37.445417" lon="126.964293"><ele>605.9</ele></trkpt>
      <trkpt lat="37.445364" lon="126.964332"><ele>608.1</ele></trkpt>
      <trkpt lat="37.445320" lon="126.964248"><ele>612.5</ele></trkpt>
      <trkpt lat="37.444961" lon="126.964163"><ele>617.0</ele></trkpt>
      <trkpt lat="37.444965" lon="126.964401"><ele>613.5</ele></trkpt>
      <trkpt lat="37.444826" lon="126.964696"><ele>594.8</ele></trkpt>
    </trkseg>
  </trk>
</gpx>
