<?xml version="1.0" encoding="UTF-8"?>
<gpx version="1.1" creator="kr-100-mountains route-harvester"
     xmlns="http://www.topografix.com/GPX/1/1"
     xmlns:k100="https://github.com/jay-jang/kr-100-mountains/ns/1"
     xmlns:xsi="http://www.w3.org/2001/XMLSchema-instance"
     xsi:schemaLocation="http://www.topografix.com/GPX/1/1 http://www.topografix.com/GPX/1/1/gpx.xsd">
  <metadata>
    <name>달마산 · 달마고도 둘레길 (대안 2) (OSM 계산 경로)</name>
    <desc>실제 GPS 기록이 아닙니다. OpenStreetMap에 등록된 등산로 선형 위에서 계산한 경로이며, 현장 통제·훼손·출입 제한·계절 통제를 반영하지 않을 수 있습니다. 산행 전 공식 안내를 확인하세요.</desc>
    <time>2026-08-04T05:38:03.434Z</time>
    <link href="https://www.openstreetmap.org/copyright"><text>© OpenStreetMap contributors (ODbL 1.0)</text></link>
    <link href="https://registry.opendata.aws/terrain-tiles/"><text>Elevation: SRTM 1 arc-second (NASA/USGS) via AWS Terrain Tiles</text></link>
    <extensions>
      <k100:provenance>osm-routed</k100:provenance>
      <k100:not_a_recorded_track>true</k100:not_a_recorded_track>
      <k100:mountain_id>dalmasan-haenam</k100:mountain_id>
      <k100:mountain_name>달마산(해남)</k100:mountain_name>
      <k100:route_id>dalmasan-haenam-7f08cb04</k100:route_id>
      <k100:route_index>2</k100:route_index>
      <k100:route_name>달마고도 둘레길</k100:route_name>
      <k100:variant>2</k100:variant>
      <k100:source>OpenStreetMap via Overpass API</k100:source>
      <k100:license>ODbL-1.0</k100:license>
      <k100:attribution>© OpenStreetMap contributors</k100:attribution>
      <k100:elevation_source>SRTM 1 arc-second (NASA/USGS) — AWS Terrain Tiles 배포본. 지형 DEM 추정 고도이며 실측 아님</k100:elevation_source>
      <k100:algorithm>dijkstra-grid-v1</k100:algorithm>
      <k100:osm_snapshot>2026-08-04</k100:osm_snapshot>
      <k100:snap_trailhead_m>4</k100:snap_trailhead_m>
      <k100:snap_summit_m>224</k100:snap_summit_m>
      <k100:validation_score>73</k100:validation_score>
      <k100:validation_status>review</k100:validation_status>
    </extensions>
  </metadata>
  <trk>
    <name>달마산 · 달마고도 둘레길 (대안 2) (OSM 계산 경로)</name>
    <desc>실제 GPS 기록이 아닙니다. OpenStreetMap에 등록된 등산로 선형 위에서 계산한 경로이며, 현장 통제·훼손·출입 제한·계절 통제를 반영하지 않을 수 있습니다. 산행 전 공식 안내를 확인하세요.</desc>
    <trkseg>
      <trkpt lat="34.383035" lon="126.577537"><ele>205.6</ele></trkpt>
      <trkpt lat="34.383354" lon="126.577537"><ele>207.6</ele></trkpt>
      <trkpt lat="34.383505" lon="126.577350"><ele>205.5</ele></trkpt>
      <trkpt lat="34.383693" lon="126.577330"><ele>204.8</ele></trkpt>
      <trkpt lat="34.383940" lon="126.577516"><ele>204.3</ele></trkpt>
      <trkpt lat="34.383966" lon="126.577696"><ele>205.6</ele></trkpt>
      <trkpt lat="34.383864" lon="126.578254"><ele>215.2</ele></trkpt>
      <trkpt lat="34.383599" lon="126.578334"><ele>220.1</ele></trkpt>
      <trkpt lat="34.383311" lon="126.579139"><ele>242.6</ele></trkpt>
      <trkpt lat="34.383236" lon="126.579466"><ele>253.7</ele></trkpt>
      <trkpt lat="34.382957" lon="126.579987"><ele>270.3</ele></trkpt>
      <trkpt lat="34.383014" lon="126.580453"><ele>279.2</ele></trkpt>
      <trkpt lat="34.382966" lon="126.580657"><ele>282.5</ele></trkpt>
      <trkpt lat="34.383019" lon="126.580813"><ele>286.3</ele></trkpt>
      <trkpt lat="34.382970" lon="126.580968"><ele>291.4</ele></trkpt>
      <trkpt lat="34.382866" lon="126.581097"><ele>296.8</ele></trkpt>
      <trkpt lat="34.382908" lon="126.581247"><ele>300.5</ele></trkpt>
      <trkpt lat="34.382846" lon="126.581381"><ele>304.3</ele></trkpt>
      <trkpt lat="34.382718" lon="126.581469"><ele>307.7</ele></trkpt>
      <trkpt lat="34.382757" lon="126.581564"><ele>310.2</ele></trkpt>
      <trkpt lat="34.382380" lon="126.581512"><ele>311.8</ele></trkpt>
      <trkpt lat="34.381953" lon="126.581565"><ele>319.3</ele></trkpt>
      <trkpt lat="34.381800" lon="126.581656"><ele>324.8</ele></trkpt>
      <trkpt lat="34.381572" lon="126.582257"><ele>347.0</ele></trkpt>
      <trkpt lat="34.381036" lon="126.582713"><ele>372.0</ele></trkpt>
      <trkpt lat="34.380802" lon="126.583030"><ele>391.3</ele></trkpt>
      <trkpt lat="34.380563" lon="126.583239"><ele>413.0</ele></trkpt>
      <trkpt lat="34.380443" lon="126.583231"><ele>415.8</ele></trkpt>
      <trkpt lat="34.380200" lon="126.583531"><ele>437.0</ele></trkpt>
      <trkpt lat="34.380111" lon="126.583872"><ele>445.9</ele></trkpt>
      <trkpt lat="34.379886" lon="126.584159"><ele>427.1</ele></trkpt>
      <trkpt lat="34.379909" lon="126.584298"><ele>422.3</ele></trkpt>
      <trkpt lat="34.379839" lon="126.584405"><ele>411.6</ele></trkpt>
      <trkpt lat="34.379802" lon="126.584709"><ele>395.9</ele></trkpt>
      <trkpt lat="34.379630" lon="126.584971"><ele>381.0</ele></trkpt>
      <trkpt lat="34.379404" lon="126.585089"><ele>370.2</ele></trkpt>
      <trkpt lat="34.379348" lon="126.585173"><ele>367.0</ele></trkpt>
      <trkpt lat="34.379273" lon="126.585442"><ele>359.6</ele></trkpt>
      <trkpt lat="34.379282" lon="126.585560"><ele>357.5</ele></trkpt>
      <trkpt lat="34.379595" lon="126.586112"><ele>346.7</ele></trkpt>
      <trkpt lat="34.379452" lon="126.586233"><ele>341.0</ele></trkpt>
      <trkpt lat="34.379414" lon="126.586358"><ele>336.3</ele></trkpt>
      <trkpt lat="34.379632" lon="126.586236"><ele>343.0</ele></trkpt>
      <trkpt lat="34.379833" lon="126.586202"><ele>344.4</ele></trkpt>
      <trkpt lat="34.379908" lon="126.586260"><ele>340.7</ele></trkpt>
      <trkpt lat="34.380112" lon="126.586283"><ele>336.8</ele></trkpt>
      <trkpt lat="34.380253" lon="126.586388"><ele>330.2</ele></trkpt>
      <trkpt lat="34.380395" lon="126.586670"><ele>317.0</ele></trkpt>
      <trkpt lat="34.380997" lon="126.587046"><ele>316.3</ele></trkpt>
      <trkpt lat="34.381058" lon="126.587125"><ele>316.5</ele></trkpt>
      <trkpt lat="34.381046" lon="126.587361"><ele>310.7</ele></trkpt>
      <trkpt lat="34.381141" lon="126.587773"><ele>301.0</ele></trkpt>
      <trkpt lat="34.381305" lon="126.588142"><ele>297.4</ele></trkpt>
      <trkpt lat="34.381377" lon="126.588188"><ele>298.7</ele></trkpt>
      <trkpt lat="34.381568" lon="126.588110"><ele>299.2</ele></trkpt>
      <trkpt lat="34.381713" lon="126.588110"><ele>297.9</ele></trkpt>
      <trkpt lat="34.381850" lon="126.588175"><ele>294.3</ele></trkpt>
      <trkpt lat="34.382010" lon="126.588156"><ele>294.9</ele></trkpt>
      <trkpt lat="34.382497" lon="126.588289"><ele>292.9</ele></trkpt>
      <trkpt lat="34.382594" lon="126.588236"><ele>296.7</ele></trkpt>
      <trkpt lat="34.382927" lon="126.588276"><ele>302.4</ele></trkpt>
      <trkpt lat="34.383134" lon="126.588423"><ele>306.8</ele></trkpt>
      <trkpt lat="34.383248" lon="126.588699"><ele>312.2</ele></trkpt>
      <trkpt lat="34.383234" lon="126.588812"><ele>309.6</ele></trkpt>
      <trkpt lat="34.383381" lon="126.589339"><ele>309.4</ele></trkpt>
      <trkpt lat="34.383362" lon="126.589601"><ele>308.2</ele></trkpt>
      <trkpt lat="34.383308" lon="126.589712"><ele>305.6</ele></trkpt>
      <trkpt lat="34.383359" lon="126.589909"><ele>314.4</ele></trkpt>
      <trkpt lat="34.383537" lon="126.589921"><ele>318.9</ele></trkpt>
      <trkpt lat="34.383817" lon="126.589798"><ele>322.6</ele></trkpt>
      <trkpt lat="34.384246" lon="126.589868"><ele>305.6</ele></trkpt>
      <trkpt lat="34.384429" lon="126.589960"><ele>294.4</ele></trkpt>
      <trkpt lat="34.384671" lon="126.589751"><ele>302.2</ele></trkpt>
      <trkpt lat="34.384801" lon="126.589802"><ele>302.2</ele></trkpt>
      <trkpt lat="34.385091" lon="126.590279"><ele>300.9</ele></trkpt>
      <trkpt lat="34.385140" lon="126.590526"><ele>301.8</ele></trkpt>
      <trkpt lat="34.385064" lon="126.590827"><ele>290.2</ele></trkpt>
      <trkpt lat="34.385197" lon="126.591368"><ele>290.5</ele></trkpt>
      <trkpt lat="34.385321" lon="126.591647"><ele>286.2</ele></trkpt>
      <trkpt lat="34.385453" lon="126.591783"><ele>284.3</ele></trkpt>
      <trkpt lat="34.385760" lon="126.591913"><ele>283.9</ele></trkpt>
      <trkpt lat="34.386097" lon="126.591736"><ele>296.3</ele></trkpt>
      <trkpt lat="34.386190" lon="126.591629"><ele>303.1</ele></trkpt>
      <trkpt lat="34.386516" lon="126.591567"><ele>300.4</ele></trkpt>
      <trkpt lat="34.386734" lon="126.591436"><ele>299.5</ele></trkpt>
      <trkpt lat="34.387037" lon="126.591364"><ele>298.6</ele></trkpt>
      <trkpt lat="34.387145" lon="126.591519"><ele>296.1</ele></trkpt>
      <trkpt lat="34.387344" lon="126.591588"><ele>305.7</ele></trkpt>
      <trkpt lat="34.387265" lon="126.592103"><ele>284.9</ele></trkpt>
      <trkpt lat="34.387291" lon="126.592259"><ele>282.4</ele></trkpt>
      <trkpt lat="34.387601" lon="126.592870"><ele>280.1</ele></trkpt>
      <trkpt lat="34.388206" lon="126.593355"><ele>273.4</ele></trkpt>
      <trkpt lat="34.388595" lon="126.593121"><ele>280.1</ele></trkpt>
      <trkpt lat="34.389469" lon="126.593398"><ele>272.0</ele></trkpt>
      <trkpt lat="34.390066" lon="126.594130"><ele>255.0</ele></trkpt>
      <trkpt lat="34.390304" lon="126.594277"><ele>252.1</ele></trkpt>
      <trkpt lat="34.390687" lon="126.594118"><ele>258.1</ele></trkpt>
      <trkpt lat="34.391199" lon="126.594656"><ele>243.3</ele></trkpt>
      <trkpt lat="34.391307" lon="126.594841"><ele>236.8</ele></trkpt>
      <trkpt lat="34.391479" lon="126.594952"><ele>235.3</ele></trkpt>
      <trkpt lat="34.391648" lon="126.594997"><ele>236.7</ele></trkpt>
      <trkpt lat="34.391787" lon="126.595118"><ele>232.7</ele></trkpt>
      <trkpt lat="34.392420" lon="126.595227"><ele>229.1</ele></trkpt>
      <trkpt lat="34.392909" lon="126.595553"><ele>224.5</ele></trkpt>
      <trkpt lat="34.392935" lon="126.595740"><ele>216.5</ele></trkpt>
      <trkpt lat="34.393086" lon="126.596003"><ele>207.4</ele></trkpt>
      <trkpt lat="34.392724" lon="126.596609"><ele>189.1</ele></trkpt>
      <trkpt lat="34.392927" lon="126.596545"><ele>190.9</ele></trkpt>
      <trkpt lat="34.393633" lon="126.596509"><ele>201.3</ele></trkpt>
      <trkpt lat="34.393757" lon="126.596545"><ele>202.8</ele></trkpt>
      <trkpt lat="34.393967" lon="126.597055"><ele>201.4</ele></trkpt>
      <trkpt lat="34.394043" lon="126.597127"><ele>202.2</ele></trkpt>
      <trkpt lat="34.394189" lon="126.597066"><ele>204.4</ele></trkpt>
      <trkpt lat="34.394834" lon="126.596488"><ele>212.4</ele></trkpt>
      <trkpt lat="34.395015" lon="126.596162"><ele>218.1</ele></trkpt>
      <trkpt lat="34.395252" lon="126.595931"><ele>213.7</ele></trkpt>
      <trkpt lat="34.395785" lon="126.595767"><ele>207.4</ele></trkpt>
      <trkpt lat="34.396241" lon="126.595837"><ele>209.9</ele></trkpt>
      <trkpt lat="34.397480" lon="126.595754"><ele>203.0</ele></trkpt>
      <trkpt lat="34.397722" lon="126.595690"><ele>201.9</ele></trkpt>
      <trkpt lat="34.397815" lon="126.596053"><ele>200.5</ele></trkpt>
      <trkpt lat="34.398479" lon="126.595913"><ele>186.9</ele></trkpt>
      <trkpt lat="34.398607" lon="126.595983"><ele>182.1</ele></trkpt>
      <trkpt lat="34.398594" lon="126.596036"><ele>179.8</ele></trkpt>
      <trkpt lat="34.398282" lon="126.596224"><ele>183.5</ele></trkpt>
      <trkpt lat="34.398103" lon="126.596476"><ele>186.8</ele></trkpt>
      <trkpt lat="34.398076" lon="126.596634"><ele>184.0</ele></trkpt>
      <trkpt lat="34.398173" lon="126.597219"><ele>168.8</ele></trkpt>
      <trkpt lat="34.398033" lon="126.597331"><ele>171.6</ele></trkpt>
      <trkpt lat="34.398000" lon="126.597428"><ele>170.6</ele></trkpt>
      <trkpt lat="34.398116" lon="126.597491"><ele>166.2</ele></trkpt>
      <trkpt lat="34.398239" lon="126.597531"><ele>160.9</ele></trkpt>
      <trkpt lat="34.398390" lon="126.597433"><ele>157.1</ele></trkpt>
      <trkpt lat="34.398563" lon="126.597206"><ele>151.7</ele></trkpt>
      <trkpt lat="34.398593" lon="126.597090"><ele>152.7</ele></trkpt>
      <trkpt lat="34.398764" lon="126.596957"><ele>151.4</ele></trkpt>
      <trkpt lat="34.399187" lon="126.596967"><ele>147.2</ele></trkpt>
      <trkpt lat="34.399452" lon="126.596848"><ele>150.8</ele></trkpt>
      <trkpt lat="34.400037" lon="126.596945"><ele>144.6</ele></trkpt>
      <trkpt lat="34.400526" lon="126.596828"><ele>139.3</ele></trkpt>
      <trkpt lat="34.400629" lon="126.596336"><ele>142.7</ele></trkpt>
      <trkpt lat="34.400739" lon="126.596247"><ele>140.4</ele></trkpt>
      <trkpt lat="34.401117" lon="126.596191"><ele>134.1</ele></trkpt>
      <trkpt lat="34.401179" lon="126.596142"><ele>134.9</ele></trkpt>
      <trkpt lat="34.401395" lon="126.596199"><ele>130.5</ele></trkpt>
      <trkpt lat="34.401791" lon="126.596543"><ele>126.1</ele></trkpt>
      <trkpt lat="34.402021" lon="126.596832"><ele>120.6</ele></trkpt>
      <trkpt lat="34.402353" lon="126.597379"><ele>110.9</ele></trkpt>
      <trkpt lat="34.402693" lon="126.597347"><ele>116.0</ele></trkpt>
      <trkpt lat="34.403009" lon="126.597503"><ele>112.7</ele></trkpt>
      <trkpt lat="34.403131" lon="126.597664"><ele>109.0</ele></trkpt>
      <trkpt lat="34.403323" lon="126.598157"><ele>100.3</ele></trkpt>
      <trkpt lat="34.403398" lon="126.598238"><ele>100.2</ele></trkpt>
      <trkpt lat="34.403588" lon="126.598275"><ele>102.0</ele></trkpt>
      <trkpt lat="34.403739" lon="126.598184"><ele>101.9</ele></trkpt>
      <trkpt lat="34.403792" lon="126.598034"><ele>104.0</ele></trkpt>
      <trkpt lat="34.403836" lon="126.597691"><ele>107.0</ele></trkpt>
      <trkpt lat="34.403850" lon="126.596779"><ele>106.4</ele></trkpt>
      <trkpt lat="34.403914" lon="126.596629"><ele>105.9</ele></trkpt>
      <trkpt lat="34.404226" lon="126.596596"><ele>100.2</ele></trkpt>
      <trkpt lat="34.404707" lon="126.596951"><ele>89.9</ele></trkpt>
      <trkpt lat="34.404943" lon="126.597052"><ele>89.4</ele></trkpt>
      <trkpt lat="34.405331" lon="126.597069"><ele>88.8</ele></trkpt>
      <trkpt lat="34.406085" lon="126.596639"><ele>94.3</ele></trkpt>
      <trkpt lat="34.406322" lon="126.595974"><ele>82.5</ele></trkpt>
      <trkpt lat="34.406420" lon="126.595867"><ele>80.8</ele></trkpt>
      <trkpt lat="34.406605" lon="126.595813"><ele>77.9</ele></trkpt>
      <trkpt lat="34.406975" lon="126.596054"><ele>69.4</ele></trkpt>
      <trkpt lat="34.407256" lon="126.596516"><ele>64.1</ele></trkpt>
      <trkpt lat="34.407789" lon="126.596940"><ele>56.7</ele></trkpt>
      <trkpt lat="34.408086" lon="126.597503"><ele>42.7</ele></trkpt>
      <trkpt lat="34.408722" lon="126.598281"><ele>41.7</ele></trkpt>
      <trkpt lat="34.409140" lon="126.598989"><ele>52.1</ele></trkpt>
      <trkpt lat="34.409282" lon="126.599000"><ele>54.9</ele></trkpt>
      <trkpt lat="34.409468" lon="126.599289"><ele>61.4</ele></trkpt>
      <trkpt lat="34.409857" lon="126.599418"><ele>72.7</ele></trkpt>
      <trkpt lat="34.410238" lon="126.599332"><ele>84.0</ele></trkpt>
      <trkpt lat="34.410486" lon="126.599493"><ele>90.3</ele></trkpt>
      <trkpt lat="34.411238" lon="126.599574"><ele>103.6</ele></trkpt>
      <trkpt lat="34.411579" lon="126.599756"><ele>97.1</ele></trkpt>
      <trkpt lat="34.412068" lon="126.600317"><ele>69.6</ele></trkpt>
      <trkpt lat="34.412252" lon="126.600619"><ele>61.3</ele></trkpt>
      <trkpt lat="34.412497" lon="126.600717"><ele>53.7</ele></trkpt>
      <trkpt lat="34.412946" lon="126.599751"><ele>49.5</ele></trkpt>
      <trkpt lat="34.413098" lon="126.599320"><ele>47.6</ele></trkpt>
      <trkpt lat="34.414039" lon="126.596228"><ele>37.4</ele></trkpt>
      <trkpt lat="34.414093" lon="126.595731"><ele>40.0</ele></trkpt>
      <trkpt lat="34.413983" lon="126.594696"><ele>35.8</ele></trkpt>
      <trkpt lat="34.414010" lon="126.594391"><ele>33.8</ele></trkpt>
      <trkpt lat="34.414272" lon="126.593706"><ele>31.4</ele></trkpt>
      <trkpt lat="34.414762" lon="126.592691"><ele>32.1</ele></trkpt>
      <trkpt lat="34.415331" lon="126.590988"><ele>25.6</ele></trkpt>
      <trkpt lat="34.415395" lon="126.590625"><ele>28.0</ele></trkpt>
      <trkpt lat="34.415392" lon="126.589972"><ele>25.7</ele></trkpt>
      <trkpt lat="34.415438" lon="126.589753"><ele>24.9</ele></trkpt>
      <trkpt lat="34.415642" lon="126.589380"><ele>25.0</ele></trkpt>
      <trkpt lat="34.416052" lon="126.588902"><ele>25.8</ele></trkpt>
      <trkpt lat="34.417473" lon="126.587823"><ele>26.0</ele></trkpt>
      <trkpt lat="34.417950" lon="126.587357"><ele>22.2</ele></trkpt>
      <trkpt lat="34.419841" lon="126.585113"><ele>17.6</ele></trkpt>
      <trkpt lat="34.420575" lon="126.583993"><ele>15.5</ele></trkpt>
      <trkpt lat="34.420941" lon="126.583592"><ele>13.6</ele></trkpt>
      <trkpt lat="34.421241" lon="126.583360"><ele>10.7</ele></trkpt>
      <trkpt lat="34.421409" lon="126.583593"><ele>9.8</ele></trkpt>
      <trkpt lat="34.421530" lon="126.584101"><ele>10.5</ele></trkpt>
      <trkpt lat="34.421798" lon="126.584408"><ele>12.8</ele></trkpt>
      <trkpt lat="34.421998" lon="126.584521"><ele>14.1</ele></trkpt>
      <trkpt lat="34.422440" lon="126.585082"><ele>13.2</ele></trkpt>
      <trkpt lat="34.422469" lon="126.585427"><ele>13.4</ele></trkpt>
      <trkpt lat="34.422584" lon="126.585861"><ele>15.3</ele></trkpt>
      <trkpt lat="34.422719" lon="126.585967"><ele>14.3</ele></trkpt>
      <trkpt lat="34.423074" lon="126.585934"><ele>10.9</ele></trkpt>
      <trkpt lat="34.423214" lon="126.587997"><ele>15.6</ele></trkpt>
      <trkpt lat="34.423291" lon="126.588007"><ele>15.8</ele></trkpt>
      <trkpt lat="34.423457" lon="126.588276"><ele>16.0</ele></trkpt>
      <trkpt lat="34.423630" lon="126.588290"><ele>15.9</ele></trkpt>
      <trkpt lat="34.423688" lon="126.588384"><ele>15.8</ele></trkpt>
      <trkpt lat="34.423738" lon="126.588754"><ele>16.2</ele></trkpt>
      <trkpt lat="34.423849" lon="126.588990"><ele>16.5</ele></trkpt>
      <trkpt lat="34.424020" lon="126.589163"><ele>15.5</ele></trkpt>
      <trkpt lat="34.424277" lon="126.589694"><ele>16.9</ele></trkpt>
      <trkpt lat="34.424196" lon="126.590384"><ele>19.2</ele></trkpt>
      <trkpt lat="34.424230" lon="126.590606"><ele>18.1</ele></trkpt>
      <trkpt lat="34.424024" lon="126.590953"><ele>19.8</ele></trkpt>
      <trkpt lat="34.423982" lon="126.591108"><ele>20.6</ele></trkpt>
      <trkpt lat="34.424104" lon="126.591576"><ele>21.2</ele></trkpt>
      <trkpt lat="34.424677" lon="126.592630"><ele>18.5</ele></trkpt>
      <trkpt lat="34.424646" lon="126.592707"><ele>19.6</ele></trkpt>
      <trkpt lat="34.425015" lon="126.593468"><ele>19.2</ele></trkpt>
      <trkpt lat="34.425181" lon="126.593723"><ele>23.7</ele></trkpt>
      <trkpt lat="34.426736" lon="126.595240"><ele>33.2</ele></trkpt>
      <trkpt lat="34.427235" lon="126.596473"><ele>40.1</ele></trkpt>
      <trkpt lat="34.427396" lon="126.596734"><ele>42.3</ele></trkpt>
      <trkpt lat="34.427582" lon="126.597427"><ele>43.6</ele></trkpt>
      <trkpt lat="34.427587" lon="126.597504"><ele>43.3</ele></trkpt>
      <trkpt lat="34.427302" lon="126.597465"><ele>40.4</ele></trkpt>
      <trkpt lat="34.427116" lon="126.597224"><ele>39.1</ele></trkpt>
      <trkpt lat="34.426789" lon="126.597035"><ele>37.4</ele></trkpt>
      <trkpt lat="34.426612" lon="126.596821"><ele>37.7</ele></trkpt>
      <trkpt lat="34.426448" lon="126.596428"><ele>34.6</ele></trkpt>
      <trkpt lat="34.426271" lon="126.596442"><ele>33.3</ele></trkpt>
      <trkpt lat="34.426052" lon="126.596593"><ele>32.9</ele></trkpt>
      <trkpt lat="34.425330" lon="126.596580"><ele>30.6</ele></trkpt>
      <trkpt lat="34.425152" lon="126.596748"><ele>28.0</ele></trkpt>
      <trkpt lat="34.425252" lon="126.596825"><ele>29.1</ele></trkpt>
      <trkpt lat="34.425324" lon="126.596980"><ele>29.5</ele></trkpt>
      <trkpt lat="34.425419" lon="126.597566"><ele>30.3</ele></trkpt>
      <trkpt lat="34.425747" lon="126.598041"><ele>32.4</ele></trkpt>
      <trkpt lat="34.425810" lon="126.598640"><ele>34.9</ele></trkpt>
      <trkpt lat="34.425774" lon="126.599145"><ele>33.8</ele></trkpt>
      <trkpt lat="34.425844" lon="126.599623"><ele>34.0</ele></trkpt>
      <trkpt lat="34.425802" lon="126.600226"><ele>33.6</ele></trkpt>
      <trkpt lat="34.425683" lon="126.600519"><ele>36.0</ele></trkpt>
      <trkpt lat="34.425778" lon="126.600479"><ele>35.9</ele></trkpt>
      <trkpt lat="34.425652" lon="126.600817"><ele>40.2</ele></trkpt>
      <trkpt lat="34.425644" lon="126.601073"><ele>42.3</ele></trkpt>
      <trkpt lat="34.425766" lon="126.601416"><ele>47.3</ele></trkpt>
      <trkpt lat="34.425721" lon="126.601760"><ele>52.1</ele></trkpt>
      <trkpt lat="34.425738" lon="126.602026"><ele>56.0</ele></trkpt>
      <trkpt lat="34.425632" lon="126.602895"><ele>59.5</ele></trkpt>
      <trkpt lat="34.425863" lon="126.603740"><ele>56.8</ele></trkpt>
      <trkpt lat="34.426013" lon="126.604548"><ele>53.7</ele></trkpt>
      <trkpt lat="34.425799" lon="126.604773"><ele>55.6</ele></trkpt>
      <trkpt lat="34.425755" lon="126.605019"><ele>57.8</ele></trkpt>
      <trkpt lat="34.425641" lon="126.605126"><ele>57.6</ele></trkpt>
      <trkpt lat="34.425424" lon="126.605157"><ele>56.8</ele></trkpt>
      <trkpt lat="34.425072" lon="126.605193"><ele>56.2</ele></trkpt>
      <trkpt lat="34.424707" lon="126.605110"><ele>55.8</ele></trkpt>
      <trkpt lat="34.424558" lon="126.605162"><ele>55.8</ele></trkpt>
      <trkpt lat="34.424333" lon="126.605450"><ele>58.3</ele></trkpt>
      <trkpt lat="34.424095" lon="126.605656"><ele>61.6</ele></trkpt>
      <trkpt lat="34.423654" lon="126.605362"><ele>57.2</ele></trkpt>
      <trkpt lat="34.423405" lon="126.605288"><ele>57.8</ele></trkpt>
      <trkpt lat="34.423055" lon="126.605059"><ele>60.0</ele></trkpt>
      <trkpt lat="34.422597" lon="126.605015"><ele>63.6</ele></trkpt>
      <trkpt lat="34.422641" lon="126.604414"><ele>66.3</ele></trkpt>
      <trkpt lat="34.422758" lon="126.604111"><ele>62.5</ele></trkpt>
      <trkpt lat="34.422802" lon="126.603558"><ele>62.3</ele></trkpt>
      <trkpt lat="34.422771" lon="126.603164"><ele>61.5</ele></trkpt>
    </trkseg>
  </trk>
</gpx>
