<?xml version="1.0" encoding="UTF-8"?>
<gpx version="1.1" creator="kr-100-mountains route-harvester"
     xmlns="http://www.topografix.com/GPX/1/1"
     xmlns:k100="https://github.com/jay-jang/kr-100-mountains/ns/1"
     xmlns:xsi="http://www.w3.org/2001/XMLSchema-instance"
     xsi:schemaLocation="http://www.topografix.com/GPX/1/1 http://www.topografix.com/GPX/1/1/gpx.xsd">
  <metadata>
    <name>달마산 · 미황사-불썬봉(달마산 정상) 코스 (OSM 계산 경로)</name>
    <desc>실제 GPS 기록이 아닙니다. OpenStreetMap에 등록된 등산로 선형 위에서 계산한 경로이며, 현장 통제·훼손·출입 제한·계절 통제를 반영하지 않을 수 있습니다. 산행 전 공식 안내를 확인하세요.</desc>
    <time>2026-08-04T05:38:03.385Z</time>
    <link href="https://www.openstreetmap.org/copyright"><text>© OpenStreetMap contributors (ODbL 1.0)</text></link>
    <link href="https://registry.opendata.aws/terrain-tiles/"><text>Elevation: SRTM 1 arc-second (NASA/USGS) via AWS Terrain Tiles</text></link>
    <extensions>
      <k100:provenance>osm-routed</k100:provenance>
      <k100:not_a_recorded_track>true</k100:not_a_recorded_track>
      <k100:mountain_id>dalmasan-haenam</k100:mountain_id>
      <k100:mountain_name>달마산(해남)</k100:mountain_name>
      <k100:route_id>dalmasan-haenam-30b1a98d</k100:route_id>
      <k100:route_index>1</k100:route_index>
      <k100:route_name>미황사-불썬봉(달마산 정상) 코스</k100:route_name>
      <k100:variant>0</k100:variant>
      <k100:source>OpenStreetMap via Overpass API</k100:source>
      <k100:license>ODbL-1.0</k100:license>
      <k100:attribution>© OpenStreetMap contributors</k100:attribution>
      <k100:elevation_source>SRTM 1 arc-second (NASA/USGS) — AWS Terrain Tiles 배포본. 지형 DEM 추정 고도이며 실측 아님</k100:elevation_source>
      <k100:algorithm>dijkstra-grid-v1</k100:algorithm>
      <k100:osm_snapshot>2026-08-04</k100:osm_snapshot>
      <k100:snap_trailhead_m>11</k100:snap_trailhead_m>
      <k100:snap_summit_m>224</k100:snap_summit_m>
      <k100:validation_score>64</k100:validation_score>
      <k100:validation_status>review</k100:validation_status>
    </extensions>
  </metadata>
  <trk>
    <name>달마산 · 미황사-불썬봉(달마산 정상) 코스 (OSM 계산 경로)</name>
    <desc>실제 GPS 기록이 아닙니다. OpenStreetMap에 등록된 등산로 선형 위에서 계산한 경로이며, 현장 통제·훼손·출입 제한·계절 통제를 반영하지 않을 수 있습니다. 산행 전 공식 안내를 확인하세요.</desc>
    <trkseg>
      <trkpt lat="34.383061" lon="126.576462"><ele>189.1</ele></trkpt>
      <trkpt lat="34.382963" lon="126.577153"><ele>199.5</ele></trkpt>
      <trkpt lat="34.382871" lon="126.577149"><ele>199.2</ele></trkpt>
      <trkpt lat="34.382807" lon="126.577685"><ele>208.6</ele></trkpt>
      <trkpt lat="34.382972" lon="126.577675"><ele>207.8</ele></trkpt>
      <trkpt lat="34.383035" lon="126.577537"><ele>205.6</ele></trkpt>
      <trkpt lat="34.383354" lon="126.577537"><ele>207.6</ele></trkpt>
      <trkpt lat="34.383505" lon="126.577350"><ele>205.5</ele></trkpt>
      <trkpt lat="34.383693" lon="126.577330"><ele>204.8</ele></trkpt>
      <trkpt lat="34.383940" lon="126.577516"><ele>204.3</ele></trkpt>
      <trkpt lat="34.383953" lon="126.577857"><ele>207.8</ele></trkpt>
      <trkpt lat="34.383853" lon="126.578401"><ele>217.8</ele></trkpt>
      <trkpt lat="34.383991" lon="126.578923"><ele>226.9</ele></trkpt>
      <trkpt lat="34.384181" lon="126.579174"><ele>229.0</ele></trkpt>
      <trkpt lat="34.384631" lon="126.579559"><ele>233.8</ele></trkpt>
      <trkpt lat="34.384972" lon="126.580160"><ele>236.5</ele></trkpt>
      <trkpt lat="34.385374" lon="126.580701"><ele>235.9</ele></trkpt>
      <trkpt lat="34.385429" lon="126.580956"><ele>239.5</ele></trkpt>
      <trkpt lat="34.385765" lon="126.581492"><ele>242.5</ele></trkpt>
      <trkpt lat="34.385880" lon="126.581534"><ele>240.7</ele></trkpt>
      <trkpt lat="34.386159" lon="126.581784"><ele>237.7</ele></trkpt>
      <trkpt lat="34.386300" lon="126.582067"><ele>241.4</ele></trkpt>
      <trkpt lat="34.386385" lon="126.582114"><ele>241.6</ele></trkpt>
      <trkpt lat="34.386995" lon="126.582313"><ele>241.8</ele></trkpt>
      <trkpt lat="34.387195" lon="126.582289"><ele>240.5</ele></trkpt>
      <trkpt lat="34.387419" lon="126.582143"><ele>234.7</ele></trkpt>
      <trkpt lat="34.387780" lon="126.582063"><ele>233.1</ele></trkpt>
      <trkpt lat="34.387949" lon="126.582172"><ele>235.2</ele></trkpt>
      <trkpt lat="34.388059" lon="126.582331"><ele>237.1</ele></trkpt>
      <trkpt lat="34.388092" lon="126.582479"><ele>237.9</ele></trkpt>
      <trkpt lat="34.388218" lon="126.582515"><ele>234.9</ele></trkpt>
      <trkpt lat="34.388056" lon="126.582764"><ele>239.0</ele></trkpt>
      <trkpt lat="34.387959" lon="126.583196"><ele>242.0</ele></trkpt>
      <trkpt lat="34.387968" lon="126.583341"><ele>241.5</ele></trkpt>
      <trkpt lat="34.388087" lon="126.583537"><ele>238.9</ele></trkpt>
      <trkpt lat="34.388162" lon="126.583816"><ele>241.0</ele></trkpt>
      <trkpt lat="34.388530" lon="126.584430"><ele>246.6</ele></trkpt>
      <trkpt lat="34.388771" lon="126.584642"><ele>248.0</ele></trkpt>
      <trkpt lat="34.389012" lon="126.585073"><ele>254.6</ele></trkpt>
      <trkpt lat="34.389183" lon="126.585149"><ele>254.0</ele></trkpt>
      <trkpt lat="34.389641" lon="126.585028"><ele>246.7</ele></trkpt>
      <trkpt lat="34.389889" lon="126.585251"><ele>252.0</ele></trkpt>
      <trkpt lat="34.390059" lon="126.585881"><ele>247.8</ele></trkpt>
      <trkpt lat="34.390208" lon="126.585991"><ele>244.2</ele></trkpt>
      <trkpt lat="34.390194" lon="126.586058"><ele>244.5</ele></trkpt>
      <trkpt lat="34.390311" lon="126.586287"><ele>243.7</ele></trkpt>
      <trkpt lat="34.390322" lon="126.586440"><ele>245.8</ele></trkpt>
      <trkpt lat="34.390456" lon="126.586563"><ele>245.1</ele></trkpt>
      <trkpt lat="34.390488" lon="126.586698"><ele>247.3</ele></trkpt>
      <trkpt lat="34.390583" lon="126.586829"><ele>248.2</ele></trkpt>
      <trkpt lat="34.390690" lon="126.587115"><ele>250.8</ele></trkpt>
      <trkpt lat="34.390819" lon="126.587820"><ele>257.5</ele></trkpt>
      <trkpt lat="34.390893" lon="126.588056"><ele>256.3</ele></trkpt>
      <trkpt lat="34.391041" lon="126.588296"><ele>252.0</ele></trkpt>
      <trkpt lat="34.390890" lon="126.588619"><ele>258.0</ele></trkpt>
      <trkpt lat="34.390884" lon="126.588806"><ele>258.7</ele></trkpt>
      <trkpt lat="34.390847" lon="126.588845"><ele>259.7</ele></trkpt>
      <trkpt lat="34.390896" lon="126.589258"><ele>266.5</ele></trkpt>
      <trkpt lat="34.390971" lon="126.589342"><ele>267.4</ele></trkpt>
      <trkpt lat="34.391059" lon="126.589299"><ele>264.0</ele></trkpt>
      <trkpt lat="34.391327" lon="126.589357"><ele>260.3</ele></trkpt>
      <trkpt lat="34.391495" lon="126.589577"><ele>261.6</ele></trkpt>
      <trkpt lat="34.391644" lon="126.589629"><ele>259.2</ele></trkpt>
      <trkpt lat="34.391885" lon="126.589856"><ele>257.8</ele></trkpt>
      <trkpt lat="34.392082" lon="126.590528"><ele>258.2</ele></trkpt>
      <trkpt lat="34.392272" lon="126.590683"><ele>255.1</ele></trkpt>
      <trkpt lat="34.392667" lon="126.591346"><ele>256.2</ele></trkpt>
      <trkpt lat="34.392811" lon="126.591464"><ele>252.5</ele></trkpt>
      <trkpt lat="34.392887" lon="126.591728"><ele>252.7</ele></trkpt>
      <trkpt lat="34.393457" lon="126.592747"><ele>241.8</ele></trkpt>
      <trkpt lat="34.393464" lon="126.592993"><ele>242.5</ele></trkpt>
      <trkpt lat="34.393637" lon="126.593847"><ele>236.6</ele></trkpt>
      <trkpt lat="34.393669" lon="126.594480"><ele>235.7</ele></trkpt>
      <trkpt lat="34.393851" lon="126.594721"><ele>233.2</ele></trkpt>
      <trkpt lat="34.393952" lon="126.594722"><ele>230.9</ele></trkpt>
      <trkpt lat="34.394092" lon="126.594954"><ele>231.9</ele></trkpt>
      <trkpt lat="34.394264" lon="126.595321"><ele>236.3</ele></trkpt>
      <trkpt lat="34.394239" lon="126.595453"><ele>237.3</ele></trkpt>
      <trkpt lat="34.394543" lon="126.595577"><ele>236.5</ele></trkpt>
      <trkpt lat="34.394746" lon="126.595588"><ele>233.7</ele></trkpt>
      <trkpt lat="34.394915" lon="126.595513"><ele>230.5</ele></trkpt>
      <trkpt lat="34.395317" lon="126.595491"><ele>220.9</ele></trkpt>
      <trkpt lat="34.395880" lon="126.595588"><ele>210.0</ele></trkpt>
      <trkpt lat="34.396074" lon="126.595716"><ele>208.5</ele></trkpt>
      <trkpt lat="34.396152" lon="126.595827"><ele>209.3</ele></trkpt>
      <trkpt lat="34.396096" lon="126.596076"><ele>205.3</ele></trkpt>
      <trkpt lat="34.396158" lon="126.596301"><ele>204.4</ele></trkpt>
      <trkpt lat="34.396566" lon="126.596639"><ele>214.5</ele></trkpt>
      <trkpt lat="34.396749" lon="126.596868"><ele>215.0</ele></trkpt>
      <trkpt lat="34.396734" lon="126.597267"><ele>205.6</ele></trkpt>
      <trkpt lat="34.396628" lon="126.597873"><ele>200.3</ele></trkpt>
      <trkpt lat="34.396641" lon="126.598109"><ele>200.6</ele></trkpt>
      <trkpt lat="34.396838" lon="126.598733"><ele>201.4</ele></trkpt>
      <trkpt lat="34.397057" lon="126.599000"><ele>195.0</ele></trkpt>
      <trkpt lat="34.397213" lon="126.599064"><ele>190.6</ele></trkpt>
      <trkpt lat="34.397512" lon="126.599594"><ele>170.8</ele></trkpt>
      <trkpt lat="34.397771" lon="126.599937"><ele>156.2</ele></trkpt>
      <trkpt lat="34.398270" lon="126.600244"><ele>145.6</ele></trkpt>
      <trkpt lat="34.398492" lon="126.600785"><ele>143.2</ele></trkpt>
      <trkpt lat="34.398682" lon="126.601089"><ele>142.8</ele></trkpt>
      <trkpt lat="34.398994" lon="126.601346"><ele>138.7</ele></trkpt>
      <trkpt lat="34.399598" lon="126.601596"><ele>119.6</ele></trkpt>
      <trkpt lat="34.399895" lon="126.601590"><ele>112.8</ele></trkpt>
      <trkpt lat="34.399997" lon="126.601765"><ele>111.0</ele></trkpt>
      <trkpt lat="34.400612" lon="126.602299"><ele>102.4</ele></trkpt>
      <trkpt lat="34.400871" lon="126.602218"><ele>102.1</ele></trkpt>
      <trkpt lat="34.400855" lon="126.601422"><ele>96.3</ele></trkpt>
      <trkpt lat="34.401362" lon="126.601038"><ele>84.1</ele></trkpt>
      <trkpt lat="34.402172" lon="126.601059"><ele>72.4</ele></trkpt>
      <trkpt lat="34.402724" lon="126.600963"><ele>65.7</ele></trkpt>
      <trkpt lat="34.403140" lon="126.600775"><ele>56.9</ele></trkpt>
      <trkpt lat="34.403225" lon="126.600442"><ele>55.7</ele></trkpt>
      <trkpt lat="34.403343" lon="126.600250"><ele>56.3</ele></trkpt>
      <trkpt lat="34.403513" lon="126.600137"><ele>59.0</ele></trkpt>
      <trkpt lat="34.404111" lon="126.599944"><ele>61.7</ele></trkpt>
      <trkpt lat="34.404730" lon="126.599917"><ele>55.9</ele></trkpt>
      <trkpt lat="34.405189" lon="126.600003"><ele>55.0</ele></trkpt>
      <trkpt lat="34.405822" lon="126.599799"><ele>53.9</ele></trkpt>
      <trkpt lat="34.406399" lon="126.599531"><ele>48.0</ele></trkpt>
      <trkpt lat="34.406607" lon="126.599574"><ele>47.3</ele></trkpt>
      <trkpt lat="34.406864" lon="126.599354"><ele>49.1</ele></trkpt>
      <trkpt lat="34.406995" lon="126.599107"><ele>51.7</ele></trkpt>
      <trkpt lat="34.407132" lon="126.598595"><ele>52.5</ele></trkpt>
      <trkpt lat="34.408146" lon="126.597149"><ele>45.3</ele></trkpt>
      <trkpt lat="34.408453" lon="126.596473"><ele>44.4</ele></trkpt>
      <trkpt lat="34.408847" lon="126.595781"><ele>42.3</ele></trkpt>
      <trkpt lat="34.409037" lon="126.595142"><ele>36.5</ele></trkpt>
      <trkpt lat="34.409135" lon="126.594129"><ele>37.0</ele></trkpt>
      <trkpt lat="34.409346" lon="126.593694"><ele>36.9</ele></trkpt>
      <trkpt lat="34.409549" lon="126.593126"><ele>35.1</ele></trkpt>
      <trkpt lat="34.409596" lon="126.592812"><ele>32.8</ele></trkpt>
      <trkpt lat="34.409574" lon="126.592482"><ele>33.8</ele></trkpt>
      <trkpt lat="34.409605" lon="126.592232"><ele>32.9</ele></trkpt>
      <trkpt lat="34.409875" lon="126.591658"><ele>31.9</ele></trkpt>
      <trkpt lat="34.410523" lon="126.590585"><ele>28.3</ele></trkpt>
      <trkpt lat="34.410791" lon="126.589977"><ele>25.9</ele></trkpt>
      <trkpt lat="34.410866" lon="126.589590"><ele>25.3</ele></trkpt>
      <trkpt lat="34.411046" lon="126.589424"><ele>21.9</ele></trkpt>
      <trkpt lat="34.411306" lon="126.589040"><ele>19.7</ele></trkpt>
      <trkpt lat="34.411981" lon="126.589405"><ele>19.4</ele></trkpt>
      <trkpt lat="34.412473" lon="126.589072"><ele>20.3</ele></trkpt>
      <trkpt lat="34.412543" lon="126.589064"><ele>20.4</ele></trkpt>
      <trkpt lat="34.412596" lon="126.589142"><ele>21.1</ele></trkpt>
      <trkpt lat="34.413055" lon="126.589037"><ele>21.6</ele></trkpt>
      <trkpt lat="34.413568" lon="126.588992"><ele>20.5</ele></trkpt>
      <trkpt lat="34.413696" lon="126.589027"><ele>20.7</ele></trkpt>
      <trkpt lat="34.413780" lon="126.589112"><ele>21.6</ele></trkpt>
      <trkpt lat="34.414716" lon="126.589303"><ele>18.5</ele></trkpt>
      <trkpt lat="34.414774" lon="126.589163"><ele>17.8</ele></trkpt>
      <trkpt lat="34.414871" lon="126.589094"><ele>17.6</ele></trkpt>
      <trkpt lat="34.415037" lon="126.589088"><ele>17.6</ele></trkpt>
      <trkpt lat="34.415123" lon="126.589008"><ele>18.7</ele></trkpt>
      <trkpt lat="34.415198" lon="126.588674"><ele>20.2</ele></trkpt>
      <trkpt lat="34.415334" lon="126.589436"><ele>20.8</ele></trkpt>
      <trkpt lat="34.415438" lon="126.589753"><ele>24.9</ele></trkpt>
      <trkpt lat="34.415779" lon="126.589207"><ele>26.4</ele></trkpt>
      <trkpt lat="34.416217" lon="126.588776"><ele>25.1</ele></trkpt>
      <trkpt lat="34.416588" lon="126.589381"><ele>26.1</ele></trkpt>
      <trkpt lat="34.416603" lon="126.590069"><ele>26.7</ele></trkpt>
      <trkpt lat="34.416660" lon="126.590209"><ele>25.6</ele></trkpt>
      <trkpt lat="34.416898" lon="126.590373"><ele>26.4</ele></trkpt>
      <trkpt lat="34.416993" lon="126.591025"><ele>28.6</ele></trkpt>
      <trkpt lat="34.417203" lon="126.591418"><ele>29.8</ele></trkpt>
      <trkpt lat="34.417285" lon="126.591418"><ele>31.0</ele></trkpt>
      <trkpt lat="34.417550" lon="126.591762"><ele>32.8</ele></trkpt>
      <trkpt lat="34.418062" lon="126.592106"><ele>40.6</ele></trkpt>
      <trkpt lat="34.418217" lon="126.592111"><ele>41.5</ele></trkpt>
      <trkpt lat="34.418771" lon="126.592318"><ele>39.4</ele></trkpt>
      <trkpt lat="34.418907" lon="126.592472"><ele>39.1</ele></trkpt>
      <trkpt lat="34.419029" lon="126.592844"><ele>44.4</ele></trkpt>
      <trkpt lat="34.419253" lon="126.593051"><ele>45.0</ele></trkpt>
      <trkpt lat="34.420072" lon="126.593468"><ele>38.7</ele></trkpt>
      <trkpt lat="34.420135" lon="126.593547"><ele>36.3</ele></trkpt>
      <trkpt lat="34.420946" lon="126.593185"><ele>30.8</ele></trkpt>
      <trkpt lat="34.421683" lon="126.592596"><ele>30.7</ele></trkpt>
      <trkpt lat="34.422041" lon="126.592041"><ele>27.3</ele></trkpt>
      <trkpt lat="34.422107" lon="126.591840"><ele>25.6</ele></trkpt>
      <trkpt lat="34.422144" lon="126.591103"><ele>21.1</ele></trkpt>
      <trkpt lat="34.422074" lon="126.590723"><ele>19.5</ele></trkpt>
      <trkpt lat="34.422645" lon="126.591032"><ele>16.6</ele></trkpt>
      <trkpt lat="34.423411" lon="126.591203"><ele>23.4</ele></trkpt>
      <trkpt lat="34.423827" lon="126.591435"><ele>23.7</ele></trkpt>
      <trkpt lat="34.424008" lon="126.591654"><ele>23.2</ele></trkpt>
      <trkpt lat="34.424120" lon="126.591867"><ele>23.8</ele></trkpt>
      <trkpt lat="34.424159" lon="126.592063"><ele>25.4</ele></trkpt>
      <trkpt lat="34.424646" lon="126.592707"><ele>19.6</ele></trkpt>
      <trkpt lat="34.425015" lon="126.593468"><ele>19.2</ele></trkpt>
      <trkpt lat="34.424919" lon="126.593735"><ele>19.6</ele></trkpt>
      <trkpt lat="34.424738" lon="126.594007"><ele>20.4</ele></trkpt>
      <trkpt lat="34.424697" lon="126.594226"><ele>22.2</ele></trkpt>
      <trkpt lat="34.424791" lon="126.594623"><ele>24.1</ele></trkpt>
      <trkpt lat="34.425274" lon="126.595354"><ele>26.0</ele></trkpt>
      <trkpt lat="34.425291" lon="126.595438"><ele>26.2</ele></trkpt>
      <trkpt lat="34.425205" lon="126.595735"><ele>26.1</ele></trkpt>
      <trkpt lat="34.425316" lon="126.595997"><ele>27.9</ele></trkpt>
      <trkpt lat="34.425302" lon="126.596078"><ele>28.1</ele></trkpt>
      <trkpt lat="34.425094" lon="126.596307"><ele>27.2</ele></trkpt>
      <trkpt lat="34.425055" lon="126.596516"><ele>26.8</ele></trkpt>
      <trkpt lat="34.425077" lon="126.596623"><ele>27.1</ele></trkpt>
      <trkpt lat="34.425324" lon="126.596980"><ele>29.5</ele></trkpt>
      <trkpt lat="34.425419" lon="126.597566"><ele>30.3</ele></trkpt>
      <trkpt lat="34.425747" lon="126.598041"><ele>32.4</ele></trkpt>
      <trkpt lat="34.425772" lon="126.598165"><ele>33.1</ele></trkpt>
      <trkpt lat="34.425810" lon="126.598640"><ele>34.9</ele></trkpt>
      <trkpt lat="34.425774" lon="126.599145"><ele>33.8</ele></trkpt>
      <trkpt lat="34.425844" lon="126.599623"><ele>34.0</ele></trkpt>
      <trkpt lat="34.425802" lon="126.600226"><ele>33.6</ele></trkpt>
      <trkpt lat="34.425683" lon="126.600519"><ele>36.0</ele></trkpt>
      <trkpt lat="34.425778" lon="126.600479"><ele>35.9</ele></trkpt>
      <trkpt lat="34.425652" lon="126.600817"><ele>40.2</ele></trkpt>
      <trkpt lat="34.425644" lon="126.601073"><ele>42.3</ele></trkpt>
      <trkpt lat="34.425766" lon="126.601416"><ele>47.3</ele></trkpt>
      <trkpt lat="34.425721" lon="126.601760"><ele>52.1</ele></trkpt>
      <trkpt lat="34.425738" lon="126.602026"><ele>56.0</ele></trkpt>
      <trkpt lat="34.425632" lon="126.602895"><ele>59.5</ele></trkpt>
      <trkpt lat="34.425863" lon="126.603740"><ele>56.8</ele></trkpt>
      <trkpt lat="34.426013" lon="126.604548"><ele>53.7</ele></trkpt>
      <trkpt lat="34.425799" lon="126.604773"><ele>55.6</ele></trkpt>
      <trkpt lat="34.425755" lon="126.605019"><ele>57.8</ele></trkpt>
      <trkpt lat="34.425641" lon="126.605126"><ele>57.6</ele></trkpt>
      <trkpt lat="34.425072" lon="126.605193"><ele>56.2</ele></trkpt>
      <trkpt lat="34.424707" lon="126.605110"><ele>55.8</ele></trkpt>
      <trkpt lat="34.424558" lon="126.605162"><ele>55.8</ele></trkpt>
      <trkpt lat="34.424333" lon="126.605450"><ele>58.3</ele></trkpt>
      <trkpt lat="34.424095" lon="126.605656"><ele>61.6</ele></trkpt>
      <trkpt lat="34.423654" lon="126.605362"><ele>57.2</ele></trkpt>
      <trkpt lat="34.423405" lon="126.605288"><ele>57.8</ele></trkpt>
      <trkpt lat="34.423055" lon="126.605059"><ele>60.0</ele></trkpt>
      <trkpt lat="34.422597" lon="126.605015"><ele>63.6</ele></trkpt>
      <trkpt lat="34.422641" lon="126.604414"><ele>66.3</ele></trkpt>
      <trkpt lat="34.422758" lon="126.604111"><ele>62.5</ele></trkpt>
      <trkpt lat="34.422802" lon="126.603558"><ele>62.3</ele></trkpt>
      <trkpt lat="34.422771" lon="126.603164"><ele>61.5</ele></trkpt>
    </trkseg>
  </trk>
</gpx>
