<?xml version="1.0" encoding="UTF-8"?>
<gpx version="1.1" creator="kr-100-mountains route-harvester"
     xmlns="http://www.topografix.com/GPX/1/1"
     xmlns:k100="https://github.com/jay-jang/kr-100-mountains/ns/1"
     xmlns:xsi="http://www.w3.org/2001/XMLSchema-instance"
     xsi:schemaLocation="http://www.topografix.com/GPX/1/1 http://www.topografix.com/GPX/1/1/gpx.xsd">
  <metadata>
    <name>용문산 · 상원사-장군봉-가섭봉 코스 (OSM 계산 경로)</name>
    <desc>실제 GPS 기록이 아닙니다. OpenStreetMap에 등록된 등산로 선형 위에서 계산한 경로이며, 현장 통제·훼손·출입 제한·계절 통제를 반영하지 않을 수 있습니다. 산행 전 공식 안내를 확인하세요.</desc>
    <time>2026-08-04T05:13:37.782Z</time>
    <link href="https://www.openstreetmap.org/copyright"><text>© OpenStreetMap contributors (ODbL 1.0)</text></link>
    <link href="https://registry.opendata.aws/terrain-tiles/"><text>Elevation: SRTM 1 arc-second (NASA/USGS) via AWS Terrain Tiles</text></link>
    <extensions>
      <k100:provenance>osm-routed</k100:provenance>
      <k100:not_a_recorded_track>true</k100:not_a_recorded_track>
      <k100:mountain_id>yongmunsan</k100:mountain_id>
      <k100:mountain_name>용문산</k100:mountain_name>
      <k100:route_id>yongmunsan-7dcbc73e</k100:route_id>
      <k100:route_index>4</k100:route_index>
      <k100:route_name>상원사-장군봉-가섭봉 코스</k100:route_name>
      <k100:variant>0</k100:variant>
      <k100:source>OpenStreetMap via Overpass API</k100:source>
      <k100:license>ODbL-1.0</k100:license>
      <k100:attribution>© OpenStreetMap contributors</k100:attribution>
      <k100:elevation_source>SRTM 1 arc-second (NASA/USGS) — AWS Terrain Tiles 배포본. 지형 DEM 추정 고도이며 실측 아님</k100:elevation_source>
      <k100:algorithm>dijkstra-grid-v1</k100:algorithm>
      <k100:osm_snapshot>2026-08-04</k100:osm_snapshot>
      <k100:snap_trailhead_m>8</k100:snap_trailhead_m>
      <k100:snap_summit_m>69</k100:snap_summit_m>
      <k100:validation_score>100</k100:validation_score>
      <k100:validation_status>accepted</k100:validation_status>
    </extensions>
  </metadata>
  <trk>
    <name>용문산 · 상원사-장군봉-가섭봉 코스 (OSM 계산 경로)</name>
    <desc>실제 GPS 기록이 아닙니다. OpenStreetMap에 등록된 등산로 선형 위에서 계산한 경로이며, 현장 통제·훼손·출입 제한·계절 통제를 반영하지 않을 수 있습니다. 산행 전 공식 안내를 확인하세요.</desc>
    <trkseg>
      <trkpt lat="37.547804" lon="127.553863"><ele>467.6</ele></trkpt>
      <trkpt lat="37.547889" lon="127.554051"><ele>465.6</ele></trkpt>
      <trkpt lat="37.548059" lon="127.554212"><ele>466.9</ele></trkpt>
      <trkpt lat="37.548077" lon="127.554468"><ele>466.2</ele></trkpt>
      <trkpt lat="37.547984" lon="127.554781"><ele>461.3</ele></trkpt>
      <trkpt lat="37.548031" lon="127.554950"><ele>460.0</ele></trkpt>
      <trkpt lat="37.548184" lon="127.554995"><ele>462.8</ele></trkpt>
      <trkpt lat="37.548189" lon="127.555128"><ele>461.3</ele></trkpt>
      <trkpt lat="37.548109" lon="127.555308"><ele>457.8</ele></trkpt>
      <trkpt lat="37.548135" lon="127.555644"><ele>457.2</ele></trkpt>
      <trkpt lat="37.548644" lon="127.555955"><ele>479.5</ele></trkpt>
      <trkpt lat="37.548769" lon="127.555959"><ele>482.8</ele></trkpt>
      <trkpt lat="37.548845" lon="127.556048"><ele>486.1</ele></trkpt>
      <trkpt lat="37.548899" lon="127.556044"><ele>487.4</ele></trkpt>
      <trkpt lat="37.549050" lon="127.556242"><ele>494.4</ele></trkpt>
      <trkpt lat="37.549192" lon="127.556620"><ele>497.2</ele></trkpt>
      <trkpt lat="37.549311" lon="127.556757"><ele>500.0</ele></trkpt>
      <trkpt lat="37.549558" lon="127.556883"><ele>509.4</ele></trkpt>
      <trkpt lat="37.549690" lon="127.557248"><ele>510.4</ele></trkpt>
      <trkpt lat="37.550047" lon="127.557634"><ele>516.3</ele></trkpt>
      <trkpt lat="37.549919" lon="127.557930"><ele>498.9</ele></trkpt>
      <trkpt lat="37.549947" lon="127.558200"><ele>491.6</ele></trkpt>
      <trkpt lat="37.550087" lon="127.558297"><ele>494.4</ele></trkpt>
      <trkpt lat="37.550232" lon="127.558565"><ele>495.3</ele></trkpt>
      <trkpt lat="37.550117" lon="127.558747"><ele>488.5</ele></trkpt>
      <trkpt lat="37.550072" lon="127.559088"><ele>481.2</ele></trkpt>
      <trkpt lat="37.550430" lon="127.559751"><ele>486.1</ele></trkpt>
      <trkpt lat="37.550381" lon="127.559895"><ele>483.8</ele></trkpt>
      <trkpt lat="37.550268" lon="127.560008"><ele>478.6</ele></trkpt>
      <trkpt lat="37.550255" lon="127.560405"><ele>479.0</ele></trkpt>
      <trkpt lat="37.550336" lon="127.560563"><ele>483.0</ele></trkpt>
      <trkpt lat="37.550387" lon="127.560574"><ele>485.6</ele></trkpt>
      <trkpt lat="37.550561" lon="127.561017"><ele>481.5</ele></trkpt>
      <trkpt lat="37.550671" lon="127.561108"><ele>481.0</ele></trkpt>
      <trkpt lat="37.550604" lon="127.561251"><ele>474.4</ele></trkpt>
      <trkpt lat="37.550674" lon="127.561293"><ele>474.3</ele></trkpt>
      <trkpt lat="37.550844" lon="127.561192"><ele>481.5</ele></trkpt>
      <trkpt lat="37.550960" lon="127.561294"><ele>477.5</ele></trkpt>
      <trkpt lat="37.551348" lon="127.561347"><ele>477.9</ele></trkpt>
      <trkpt lat="37.551618" lon="127.561222"><ele>486.4</ele></trkpt>
      <trkpt lat="37.551681" lon="127.561376"><ele>485.7</ele></trkpt>
      <trkpt lat="37.551698" lon="127.561576"><ele>487.0</ele></trkpt>
      <trkpt lat="37.551606" lon="127.561856"><ele>487.1</ele></trkpt>
      <trkpt lat="37.551676" lon="127.562082"><ele>496.9</ele></trkpt>
      <trkpt lat="37.551761" lon="127.562191"><ele>505.9</ele></trkpt>
      <trkpt lat="37.551724" lon="127.562329"><ele>510.0</ele></trkpt>
      <trkpt lat="37.551637" lon="127.562350"><ele>507.3</ele></trkpt>
      <trkpt lat="37.551521" lon="127.562618"><ele>514.1</ele></trkpt>
      <trkpt lat="37.551511" lon="127.562844"><ele>520.8</ele></trkpt>
      <trkpt lat="37.551648" lon="127.562784"><ele>520.9</ele></trkpt>
      <trkpt lat="37.551882" lon="127.562838"><ele>528.1</ele></trkpt>
      <trkpt lat="37.552116" lon="127.562784"><ele>535.8</ele></trkpt>
      <trkpt lat="37.552309" lon="127.562519"><ele>540.5</ele></trkpt>
      <trkpt lat="37.553011" lon="127.562280"><ele>560.3</ele></trkpt>
      <trkpt lat="37.553264" lon="127.562114"><ele>568.0</ele></trkpt>
      <trkpt lat="37.553434" lon="127.562133"><ele>574.6</ele></trkpt>
      <trkpt lat="37.553615" lon="127.562082"><ele>585.8</ele></trkpt>
      <trkpt lat="37.553709" lon="127.562130"><ele>591.0</ele></trkpt>
      <trkpt lat="37.553817" lon="127.562015"><ele>602.6</ele></trkpt>
      <trkpt lat="37.553934" lon="127.561980"><ele>610.9</ele></trkpt>
      <trkpt lat="37.554219" lon="127.562109"><ele>616.9</ele></trkpt>
      <trkpt lat="37.554261" lon="127.561919"><ele>625.4</ele></trkpt>
      <trkpt lat="37.554390" lon="127.561766"><ele>631.6</ele></trkpt>
      <trkpt lat="37.554436" lon="127.561188"><ele>635.9</ele></trkpt>
      <trkpt lat="37.554550" lon="127.561151"><ele>638.1</ele></trkpt>
      <trkpt lat="37.554695" lon="127.560961"><ele>641.3</ele></trkpt>
      <trkpt lat="37.554866" lon="127.560977"><ele>645.1</ele></trkpt>
      <trkpt lat="37.554928" lon="127.560888"><ele>646.9</ele></trkpt>
      <trkpt lat="37.554993" lon="127.560950"><ele>648.0</ele></trkpt>
      <trkpt lat="37.555180" lon="127.560775"><ele>657.2</ele></trkpt>
      <trkpt lat="37.555516" lon="127.560715"><ele>669.3</ele></trkpt>
      <trkpt lat="37.555622" lon="127.560622"><ele>673.1</ele></trkpt>
      <trkpt lat="37.555709" lon="127.560641"><ele>676.7</ele></trkpt>
      <trkpt lat="37.555938" lon="127.560520"><ele>685.6</ele></trkpt>
      <trkpt lat="37.556210" lon="127.560510"><ele>696.2</ele></trkpt>
      <trkpt lat="37.556297" lon="127.560577"><ele>700.3</ele></trkpt>
      <trkpt lat="37.556352" lon="127.560487"><ele>701.9</ele></trkpt>
      <trkpt lat="37.556631" lon="127.560478"><ele>712.0</ele></trkpt>
      <trkpt lat="37.556801" lon="127.560401"><ele>716.1</ele></trkpt>
      <trkpt lat="37.556924" lon="127.560110"><ele>720.0</ele></trkpt>
      <trkpt lat="37.557107" lon="127.559858"><ele>725.3</ele></trkpt>
      <trkpt lat="37.557340" lon="127.559710"><ele>732.8</ele></trkpt>
      <trkpt lat="37.557361" lon="127.559625"><ele>734.2</ele></trkpt>
      <trkpt lat="37.557538" lon="127.559467"><ele>743.6</ele></trkpt>
      <trkpt lat="37.557636" lon="127.559144"><ele>752.4</ele></trkpt>
      <trkpt lat="37.557786" lon="127.558993"><ele>763.6</ele></trkpt>
      <trkpt lat="37.557838" lon="127.558780"><ele>772.3</ele></trkpt>
      <trkpt lat="37.558019" lon="127.558662"><ele>784.8</ele></trkpt>
      <trkpt lat="37.558146" lon="127.558719"><ele>787.5</ele></trkpt>
      <trkpt lat="37.558207" lon="127.558614"><ele>792.3</ele></trkpt>
      <trkpt lat="37.558222" lon="127.558436"><ele>794.4</ele></trkpt>
      <trkpt lat="37.558269" lon="127.558415"><ele>796.1</ele></trkpt>
      <trkpt lat="37.558249" lon="127.558326"><ele>796.3</ele></trkpt>
      <trkpt lat="37.558354" lon="127.557983"><ele>803.1</ele></trkpt>
      <trkpt lat="37.558440" lon="127.557958"><ele>806.4</ele></trkpt>
      <trkpt lat="37.558476" lon="127.557861"><ele>807.8</ele></trkpt>
      <trkpt lat="37.558550" lon="127.557833"><ele>811.5</ele></trkpt>
      <trkpt lat="37.558605" lon="127.557670"><ele>817.4</ele></trkpt>
      <trkpt lat="37.558738" lon="127.557554"><ele>824.4</ele></trkpt>
      <trkpt lat="37.558818" lon="127.557547"><ele>826.9</ele></trkpt>
      <trkpt lat="37.558902" lon="127.557386"><ele>832.4</ele></trkpt>
      <trkpt lat="37.559011" lon="127.556735"><ele>837.0</ele></trkpt>
      <trkpt lat="37.558983" lon="127.556654"><ele>836.5</ele></trkpt>
      <trkpt lat="37.559398" lon="127.556198"><ele>859.2</ele></trkpt>
      <trkpt lat="37.559582" lon="127.555195"><ele>898.3</ele></trkpt>
      <trkpt lat="37.559930" lon="127.554943"><ele>910.3</ele></trkpt>
      <trkpt lat="37.560101" lon="127.554700"><ele>916.7</ele></trkpt>
      <trkpt lat="37.560213" lon="127.554461"><ele>921.6</ele></trkpt>
      <trkpt lat="37.560243" lon="127.554193"><ele>922.0</ele></trkpt>
      <trkpt lat="37.560568" lon="127.553685"><ele>928.1</ele></trkpt>
      <trkpt lat="37.560693" lon="127.553205"><ele>937.7</ele></trkpt>
      <trkpt lat="37.561059" lon="127.552687"><ele>957.8</ele></trkpt>
      <trkpt lat="37.561192" lon="127.552263"><ele>974.8</ele></trkpt>
      <trkpt lat="37.561469" lon="127.552006"><ele>999.3</ele></trkpt>
      <trkpt lat="37.561627" lon="127.551589"><ele>1028.7</ele></trkpt>
    </trkseg>
  </trk>
</gpx>
