<?xml version="1.0" encoding="UTF-8"?>
<gpx version="1.1" creator="kr-100-mountains route-harvester"
     xmlns="http://www.topografix.com/GPX/1/1"
     xmlns:k100="https://github.com/jay-jang/kr-100-mountains/ns/1"
     xmlns:xsi="http://www.w3.org/2001/XMLSchema-instance"
     xsi:schemaLocation="http://www.topografix.com/GPX/1/1 http://www.topografix.com/GPX/1/1/gpx.xsd">
  <metadata>
    <name>용문산 · 상원사-장군봉-가섭봉 코스 (대안 1) (OSM 계산 경로)</name>
    <desc>실제 GPS 기록이 아닙니다. OpenStreetMap에 등록된 등산로 선형 위에서 계산한 경로이며, 현장 통제·훼손·출입 제한·계절 통제를 반영하지 않을 수 있습니다. 산행 전 공식 안내를 확인하세요.</desc>
    <time>2026-08-04T05:13:37.783Z</time>
    <link href="https://www.openstreetmap.org/copyright"><text>© OpenStreetMap contributors (ODbL 1.0)</text></link>
    <link href="https://registry.opendata.aws/terrain-tiles/"><text>Elevation: SRTM 1 arc-second (NASA/USGS) via AWS Terrain Tiles</text></link>
    <extensions>
      <k100:provenance>osm-routed</k100:provenance>
      <k100:not_a_recorded_track>true</k100:not_a_recorded_track>
      <k100:mountain_id>yongmunsan</k100:mountain_id>
      <k100:mountain_name>용문산</k100:mountain_name>
      <k100:route_id>yongmunsan-7dcbc73e</k100:route_id>
      <k100:route_index>4</k100:route_index>
      <k100:route_name>상원사-장군봉-가섭봉 코스</k100:route_name>
      <k100:variant>1</k100:variant>
      <k100:source>OpenStreetMap via Overpass API</k100:source>
      <k100:license>ODbL-1.0</k100:license>
      <k100:attribution>© OpenStreetMap contributors</k100:attribution>
      <k100:elevation_source>SRTM 1 arc-second (NASA/USGS) — AWS Terrain Tiles 배포본. 지형 DEM 추정 고도이며 실측 아님</k100:elevation_source>
      <k100:algorithm>dijkstra-grid-v1</k100:algorithm>
      <k100:osm_snapshot>2026-08-04</k100:osm_snapshot>
      <k100:snap_trailhead_m>8</k100:snap_trailhead_m>
      <k100:snap_summit_m>69</k100:snap_summit_m>
      <k100:validation_score>100</k100:validation_score>
      <k100:validation_status>accepted</k100:validation_status>
    </extensions>
  </metadata>
  <trk>
    <name>용문산 · 상원사-장군봉-가섭봉 코스 (대안 1) (OSM 계산 경로)</name>
    <desc>실제 GPS 기록이 아닙니다. OpenStreetMap에 등록된 등산로 선형 위에서 계산한 경로이며, 현장 통제·훼손·출입 제한·계절 통제를 반영하지 않을 수 있습니다. 산행 전 공식 안내를 확인하세요.</desc>
    <trkseg>
      <trkpt lat="37.547804" lon="127.553863"><ele>467.6</ele></trkpt>
      <trkpt lat="37.547779" lon="127.553623"><ele>471.8</ele></trkpt>
      <trkpt lat="37.548049" lon="127.553238"><ele>480.8</ele></trkpt>
      <trkpt lat="37.548313" lon="127.553010"><ele>485.6</ele></trkpt>
      <trkpt lat="37.548608" lon="127.552888"><ele>491.6</ele></trkpt>
      <trkpt lat="37.548686" lon="127.553066"><ele>494.5</ele></trkpt>
      <trkpt lat="37.548743" lon="127.553092"><ele>497.2</ele></trkpt>
      <trkpt lat="37.548707" lon="127.552829"><ele>496.3</ele></trkpt>
      <trkpt lat="37.548933" lon="127.552691"><ele>507.1</ele></trkpt>
      <trkpt lat="37.549115" lon="127.552716"><ele>514.5</ele></trkpt>
      <trkpt lat="37.549198" lon="127.552668"><ele>516.9</ele></trkpt>
      <trkpt lat="37.549235" lon="127.552565"><ele>516.6</ele></trkpt>
      <trkpt lat="37.549216" lon="127.552438"><ele>515.3</ele></trkpt>
      <trkpt lat="37.549352" lon="127.552131"><ele>517.3</ele></trkpt>
      <trkpt lat="37.549515" lon="127.552000"><ele>523.1</ele></trkpt>
      <trkpt lat="37.549783" lon="127.551632"><ele>538.1</ele></trkpt>
      <trkpt lat="37.549978" lon="127.551480"><ele>548.7</ele></trkpt>
      <trkpt lat="37.550043" lon="127.551363"><ele>553.2</ele></trkpt>
      <trkpt lat="37.550053" lon="127.551195"><ele>555.8</ele></trkpt>
      <trkpt lat="37.550146" lon="127.551128"><ele>560.1</ele></trkpt>
      <trkpt lat="37.550420" lon="127.550524"><ele>572.4</ele></trkpt>
      <trkpt lat="37.550446" lon="127.550294"><ele>578.6</ele></trkpt>
      <trkpt lat="37.550565" lon="127.550208"><ele>581.1</ele></trkpt>
      <trkpt lat="37.550559" lon="127.550065"><ele>585.2</ele></trkpt>
      <trkpt lat="37.550779" lon="127.549542"><ele>604.3</ele></trkpt>
      <trkpt lat="37.550748" lon="127.549430"><ele>607.5</ele></trkpt>
      <trkpt lat="37.550822" lon="127.548916"><ele>619.5</ele></trkpt>
      <trkpt lat="37.550865" lon="127.548815"><ele>621.5</ele></trkpt>
      <trkpt lat="37.550975" lon="127.548776"><ele>623.3</ele></trkpt>
      <trkpt lat="37.551123" lon="127.548305"><ele>631.1</ele></trkpt>
      <trkpt lat="37.551066" lon="127.548162"><ele>635.4</ele></trkpt>
      <trkpt lat="37.551102" lon="127.547997"><ele>640.2</ele></trkpt>
      <trkpt lat="37.551188" lon="127.547938"><ele>644.0</ele></trkpt>
      <trkpt lat="37.551225" lon="127.547819"><ele>648.4</ele></trkpt>
      <trkpt lat="37.551324" lon="127.547815"><ele>650.1</ele></trkpt>
      <trkpt lat="37.551363" lon="127.547696"><ele>653.4</ele></trkpt>
      <trkpt lat="37.551581" lon="127.547459"><ele>667.1</ele></trkpt>
      <trkpt lat="37.551564" lon="127.547343"><ele>668.6</ele></trkpt>
      <trkpt lat="37.551658" lon="127.547138"><ele>674.8</ele></trkpt>
      <trkpt lat="37.551910" lon="127.547044"><ele>681.5</ele></trkpt>
      <trkpt lat="37.551871" lon="127.546942"><ele>680.2</ele></trkpt>
      <trkpt lat="37.551902" lon="127.546836"><ele>682.7</ele></trkpt>
      <trkpt lat="37.552215" lon="127.546396"><ele>711.4</ele></trkpt>
      <trkpt lat="37.552337" lon="127.546307"><ele>720.2</ele></trkpt>
      <trkpt lat="37.552353" lon="127.546085"><ele>726.7</ele></trkpt>
      <trkpt lat="37.552428" lon="127.546049"><ele>731.2</ele></trkpt>
      <trkpt lat="37.552888" lon="127.546100"><ele>757.0</ele></trkpt>
      <trkpt lat="37.553224" lon="127.545653"><ele>786.8</ele></trkpt>
      <trkpt lat="37.553336" lon="127.545564"><ele>792.3</ele></trkpt>
      <trkpt lat="37.553446" lon="127.545629"><ele>802.7</ele></trkpt>
      <trkpt lat="37.553573" lon="127.545418"><ele>816.7</ele></trkpt>
      <trkpt lat="37.553626" lon="127.545281"><ele>822.0</ele></trkpt>
      <trkpt lat="37.553593" lon="127.545002"><ele>819.7</ele></trkpt>
      <trkpt lat="37.553640" lon="127.544850"><ele>826.7</ele></trkpt>
      <trkpt lat="37.553667" lon="127.544125"><ele>854.2</ele></trkpt>
      <trkpt lat="37.553663" lon="127.544008"><ele>859.2</ele></trkpt>
      <trkpt lat="37.553580" lon="127.543874"><ele>864.9</ele></trkpt>
      <trkpt lat="37.553536" lon="127.543670"><ele>876.9</ele></trkpt>
      <trkpt lat="37.553604" lon="127.543490"><ele>885.9</ele></trkpt>
      <trkpt lat="37.553601" lon="127.543321"><ele>896.8</ele></trkpt>
      <trkpt lat="37.553750" lon="127.543199"><ele>910.0</ele></trkpt>
      <trkpt lat="37.553707" lon="127.543056"><ele>917.4</ele></trkpt>
      <trkpt lat="37.553836" lon="127.542670"><ele>937.1</ele></trkpt>
      <trkpt lat="37.553790" lon="127.542373"><ele>953.4</ele></trkpt>
      <trkpt lat="37.553871" lon="127.542242"><ele>962.4</ele></trkpt>
      <trkpt lat="37.554209" lon="127.542051"><ele>982.6</ele></trkpt>
      <trkpt lat="37.554205" lon="127.541528"><ele>1009.4</ele></trkpt>
      <trkpt lat="37.554307" lon="127.541446"><ele>1017.0</ele></trkpt>
      <trkpt lat="37.554334" lon="127.541295"><ele>1025.6</ele></trkpt>
      <trkpt lat="37.554394" lon="127.541260"><ele>1029.1</ele></trkpt>
      <trkpt lat="37.554510" lon="127.541344"><ele>1029.5</ele></trkpt>
      <trkpt lat="37.554634" lon="127.541175"><ele>1041.3</ele></trkpt>
      <trkpt lat="37.554762" lon="127.541180"><ele>1044.9</ele></trkpt>
      <trkpt lat="37.554762" lon="127.541103"><ele>1046.3</ele></trkpt>
      <trkpt lat="37.554871" lon="127.541050"><ele>1046.3</ele></trkpt>
      <trkpt lat="37.555159" lon="127.541471"><ele>1046.4</ele></trkpt>
      <trkpt lat="37.555410" lon="127.541543"><ele>1046.1</ele></trkpt>
      <trkpt lat="37.555649" lon="127.541498"><ele>1046.4</ele></trkpt>
      <trkpt lat="37.555721" lon="127.541521"><ele>1047.7</ele></trkpt>
      <trkpt lat="37.555701" lon="127.541577"><ele>1048.5</ele></trkpt>
      <trkpt lat="37.555759" lon="127.541638"><ele>1050.8</ele></trkpt>
      <trkpt lat="37.556845" lon="127.541950"><ele>1078.2</ele></trkpt>
      <trkpt lat="37.556883" lon="127.542112"><ele>1079.7</ele></trkpt>
      <trkpt lat="37.557106" lon="127.542483"><ele>1087.4</ele></trkpt>
      <trkpt lat="37.557096" lon="127.542844"><ele>1077.5</ele></trkpt>
      <trkpt lat="37.557586" lon="127.543390"><ele>1080.9</ele></trkpt>
      <trkpt lat="37.557678" lon="127.543428"><ele>1085.3</ele></trkpt>
      <trkpt lat="37.557905" lon="127.543783"><ele>1081.4</ele></trkpt>
      <trkpt lat="37.558166" lon="127.543836"><ele>1092.1</ele></trkpt>
      <trkpt lat="37.558236" lon="127.543911"><ele>1091.1</ele></trkpt>
      <trkpt lat="37.558262" lon="127.544030"><ele>1086.8</ele></trkpt>
      <trkpt lat="37.558570" lon="127.544269"><ele>1089.2</ele></trkpt>
      <trkpt lat="37.558679" lon="127.544793"><ele>1073.7</ele></trkpt>
      <trkpt lat="37.558970" lon="127.544959"><ele>1079.6</ele></trkpt>
      <trkpt lat="37.559055" lon="127.545099"><ele>1077.6</ele></trkpt>
      <trkpt lat="37.559133" lon="127.545037"><ele>1083.7</ele></trkpt>
      <trkpt lat="37.559311" lon="127.545108"><ele>1088.7</ele></trkpt>
      <trkpt lat="37.559692" lon="127.545563"><ele>1085.8</ele></trkpt>
      <trkpt lat="37.559928" lon="127.546057"><ele>1085.1</ele></trkpt>
      <trkpt lat="37.560104" lon="127.546101"><ele>1095.9</ele></trkpt>
      <trkpt lat="37.560278" lon="127.546488"><ele>1098.9</ele></trkpt>
      <trkpt lat="37.560375" lon="127.546918"><ele>1101.5</ele></trkpt>
      <trkpt lat="37.560639" lon="127.547388"><ele>1112.7</ele></trkpt>
      <trkpt lat="37.560673" lon="127.547770"><ele>1109.6</ele></trkpt>
      <trkpt lat="37.560786" lon="127.547760"><ele>1117.7</ele></trkpt>
      <trkpt lat="37.560922" lon="127.547922"><ele>1120.6</ele></trkpt>
      <trkpt lat="37.561132" lon="127.548879"><ele>1120.0</ele></trkpt>
      <trkpt lat="37.561111" lon="127.549328"><ele>1115.8</ele></trkpt>
      <trkpt lat="37.561320" lon="127.549474"><ele>1122.8</ele></trkpt>
      <trkpt lat="37.561448" lon="127.549673"><ele>1117.6</ele></trkpt>
      <trkpt lat="37.561654" lon="127.549771"><ele>1116.2</ele></trkpt>
      <trkpt lat="37.561921" lon="127.550015"><ele>1106.4</ele></trkpt>
      <trkpt lat="37.561867" lon="127.550454"><ele>1078.7</ele></trkpt>
      <trkpt lat="37.561771" lon="127.550815"><ele>1064.7</ele></trkpt>
      <trkpt lat="37.561603" lon="127.551021"><ele>1053.0</ele></trkpt>
      <trkpt lat="37.561547" lon="127.551336"><ele>1037.7</ele></trkpt>
      <trkpt lat="37.561627" lon="127.551589"><ele>1028.7</ele></trkpt>
    </trkseg>
  </trk>
</gpx>
