<?xml version="1.0" encoding="UTF-8"?>
<gpx version="1.1" creator="kr-100-mountains route-harvester"
     xmlns="http://www.topografix.com/GPX/1/1"
     xmlns:k100="https://github.com/jay-jang/kr-100-mountains/ns/1"
     xmlns:xsi="http://www.w3.org/2001/XMLSchema-instance"
     xsi:schemaLocation="http://www.topografix.com/GPX/1/1 http://www.topografix.com/GPX/1/1/gpx.xsd">
  <metadata>
    <name>용문산 · 사나사-장군봉-가섭봉 (대안 2) (OSM 계산 경로)</name>
    <desc>실제 GPS 기록이 아닙니다. OpenStreetMap에 등록된 등산로 선형 위에서 계산한 경로이며, 현장 통제·훼손·출입 제한·계절 통제를 반영하지 않을 수 있습니다. 산행 전 공식 안내를 확인하세요.</desc>
    <time>2026-08-04T05:13:37.758Z</time>
    <link href="https://www.openstreetmap.org/copyright"><text>© OpenStreetMap contributors (ODbL 1.0)</text></link>
    <link href="https://registry.opendata.aws/terrain-tiles/"><text>Elevation: SRTM 1 arc-second (NASA/USGS) via AWS Terrain Tiles</text></link>
    <extensions>
      <k100:provenance>osm-routed</k100:provenance>
      <k100:not_a_recorded_track>true</k100:not_a_recorded_track>
      <k100:mountain_id>yongmunsan</k100:mountain_id>
      <k100:mountain_name>용문산</k100:mountain_name>
      <k100:route_id>yongmunsan-7ad3a523</k100:route_id>
      <k100:route_index>3</k100:route_index>
      <k100:route_name>사나사-장군봉-가섭봉</k100:route_name>
      <k100:variant>2</k100:variant>
      <k100:source>OpenStreetMap via Overpass API</k100:source>
      <k100:license>ODbL-1.0</k100:license>
      <k100:attribution>© OpenStreetMap contributors</k100:attribution>
      <k100:elevation_source>SRTM 1 arc-second (NASA/USGS) — AWS Terrain Tiles 배포본. 지형 DEM 추정 고도이며 실측 아님</k100:elevation_source>
      <k100:algorithm>dijkstra-grid-v1</k100:algorithm>
      <k100:osm_snapshot>2026-08-04</k100:osm_snapshot>
      <k100:snap_trailhead_m>3</k100:snap_trailhead_m>
      <k100:snap_summit_m>69</k100:snap_summit_m>
      <k100:validation_score>75</k100:validation_score>
      <k100:validation_status>review</k100:validation_status>
    </extensions>
  </metadata>
  <trk>
    <name>용문산 · 사나사-장군봉-가섭봉 (대안 2) (OSM 계산 경로)</name>
    <desc>실제 GPS 기록이 아닙니다. OpenStreetMap에 등록된 등산로 선형 위에서 계산한 경로이며, 현장 통제·훼손·출입 제한·계절 통제를 반영하지 않을 수 있습니다. 산행 전 공식 안내를 확인하세요.</desc>
    <trkseg>
      <trkpt lat="37.539493" lon="127.507555"><ele>229.6</ele></trkpt>
      <trkpt lat="37.539477" lon="127.507655"><ele>229.5</ele></trkpt>
      <trkpt lat="37.539935" lon="127.508421"><ele>233.9</ele></trkpt>
      <trkpt lat="37.540060" lon="127.508354"><ele>234.2</ele></trkpt>
      <trkpt lat="37.540146" lon="127.508428"><ele>234.5</ele></trkpt>
      <trkpt lat="37.540351" lon="127.508430"><ele>236.4</ele></trkpt>
      <trkpt lat="37.540551" lon="127.508519"><ele>239.6</ele></trkpt>
      <trkpt lat="37.540678" lon="127.508632"><ele>241.1</ele></trkpt>
      <trkpt lat="37.541018" lon="127.509152"><ele>245.3</ele></trkpt>
      <trkpt lat="37.540880" lon="127.509495"><ele>247.6</ele></trkpt>
      <trkpt lat="37.540627" lon="127.509597"><ele>249.0</ele></trkpt>
      <trkpt lat="37.540551" lon="127.509550"><ele>247.7</ele></trkpt>
      <trkpt lat="37.540375" lon="127.509564"><ele>249.0</ele></trkpt>
      <trkpt lat="37.540101" lon="127.510089"><ele>265.8</ele></trkpt>
      <trkpt lat="37.540156" lon="127.510674"><ele>274.5</ele></trkpt>
      <trkpt lat="37.540103" lon="127.511028"><ele>276.7</ele></trkpt>
      <trkpt lat="37.540033" lon="127.511417"><ele>283.1</ele></trkpt>
      <trkpt lat="37.539876" lon="127.511770"><ele>287.1</ele></trkpt>
      <trkpt lat="37.539771" lon="127.512247"><ele>299.1</ele></trkpt>
      <trkpt lat="37.539865" lon="127.513174"><ele>321.4</ele></trkpt>
      <trkpt lat="37.539819" lon="127.513650"><ele>327.8</ele></trkpt>
      <trkpt lat="37.539978" lon="127.514012"><ele>332.7</ele></trkpt>
      <trkpt lat="37.540022" lon="127.514394"><ele>337.9</ele></trkpt>
      <trkpt lat="37.539932" lon="127.514867"><ele>348.6</ele></trkpt>
      <trkpt lat="37.539944" lon="127.515280"><ele>358.0</ele></trkpt>
      <trkpt lat="37.539840" lon="127.515482"><ele>359.3</ele></trkpt>
      <trkpt lat="37.539748" lon="127.515903"><ele>366.2</ele></trkpt>
      <trkpt lat="37.539766" lon="127.516550"><ele>382.9</ele></trkpt>
      <trkpt lat="37.539837" lon="127.516604"><ele>384.6</ele></trkpt>
      <trkpt lat="37.539861" lon="127.516942"><ele>396.4</ele></trkpt>
      <trkpt lat="37.539710" lon="127.517311"><ele>398.4</ele></trkpt>
      <trkpt lat="37.539704" lon="127.517718"><ele>402.9</ele></trkpt>
      <trkpt lat="37.539758" lon="127.517960"><ele>407.7</ele></trkpt>
      <trkpt lat="37.539647" lon="127.518344"><ele>416.3</ele></trkpt>
      <trkpt lat="37.539698" lon="127.518659"><ele>428.3</ele></trkpt>
      <trkpt lat="37.539600" lon="127.518788"><ele>433.6</ele></trkpt>
      <trkpt lat="37.539536" lon="127.519366"><ele>447.8</ele></trkpt>
      <trkpt lat="37.539403" lon="127.519815"><ele>458.2</ele></trkpt>
      <trkpt lat="37.539492" lon="127.520340"><ele>468.8</ele></trkpt>
      <trkpt lat="37.539475" lon="127.520704"><ele>480.5</ele></trkpt>
      <trkpt lat="37.539444" lon="127.520835"><ele>486.1</ele></trkpt>
      <trkpt lat="37.539396" lon="127.520868"><ele>489.6</ele></trkpt>
      <trkpt lat="37.539196" lon="127.521818"><ele>509.1</ele></trkpt>
      <trkpt lat="37.539271" lon="127.522492"><ele>527.0</ele></trkpt>
      <trkpt lat="37.539233" lon="127.522590"><ele>529.4</ele></trkpt>
      <trkpt lat="37.539271" lon="127.522704"><ele>531.8</ele></trkpt>
      <trkpt lat="37.539264" lon="127.522946"><ele>537.4</ele></trkpt>
      <trkpt lat="37.539075" lon="127.523220"><ele>546.8</ele></trkpt>
      <trkpt lat="37.539135" lon="127.523423"><ele>553.7</ele></trkpt>
      <trkpt lat="37.539001" lon="127.523613"><ele>564.5</ele></trkpt>
      <trkpt lat="37.538736" lon="127.523709"><ele>571.0</ele></trkpt>
      <trkpt lat="37.538505" lon="127.523892"><ele>574.1</ele></trkpt>
      <trkpt lat="37.538496" lon="127.524345"><ele>588.6</ele></trkpt>
      <trkpt lat="37.538570" lon="127.524547"><ele>596.5</ele></trkpt>
      <trkpt lat="37.538496" lon="127.524602"><ele>598.3</ele></trkpt>
      <trkpt lat="37.538284" lon="127.524974"><ele>609.7</ele></trkpt>
      <trkpt lat="37.538357" lon="127.525038"><ele>613.1</ele></trkpt>
      <trkpt lat="37.538319" lon="127.525141"><ele>616.9</ele></trkpt>
      <trkpt lat="37.538382" lon="127.525216"><ele>622.0</ele></trkpt>
      <trkpt lat="37.538461" lon="127.525551"><ele>642.8</ele></trkpt>
      <trkpt lat="37.538439" lon="127.526141"><ele>676.7</ele></trkpt>
      <trkpt lat="37.538350" lon="127.526451"><ele>691.8</ele></trkpt>
      <trkpt lat="37.538344" lon="127.526665"><ele>705.6</ele></trkpt>
      <trkpt lat="37.538289" lon="127.526768"><ele>708.5</ele></trkpt>
      <trkpt lat="37.538467" lon="127.527135"><ele>732.6</ele></trkpt>
      <trkpt lat="37.538524" lon="127.527511"><ele>753.3</ele></trkpt>
      <trkpt lat="37.538372" lon="127.528074"><ele>767.2</ele></trkpt>
      <trkpt lat="37.538351" lon="127.528418"><ele>768.6</ele></trkpt>
      <trkpt lat="37.538273" lon="127.528605"><ele>768.8</ele></trkpt>
      <trkpt lat="37.538057" lon="127.528476"><ele>769.0</ele></trkpt>
      <trkpt lat="37.537734" lon="127.528547"><ele>766.3</ele></trkpt>
      <trkpt lat="37.537495" lon="127.528483"><ele>766.0</ele></trkpt>
      <trkpt lat="37.537214" lon="127.528515"><ele>763.8</ele></trkpt>
      <trkpt lat="37.537133" lon="127.528443"><ele>766.4</ele></trkpt>
      <trkpt lat="37.536880" lon="127.528374"><ele>771.1</ele></trkpt>
      <trkpt lat="37.536241" lon="127.528558"><ele>773.7</ele></trkpt>
      <trkpt lat="37.535788" lon="127.528830"><ele>773.3</ele></trkpt>
      <trkpt lat="37.535682" lon="127.529013"><ele>768.4</ele></trkpt>
      <trkpt lat="37.535657" lon="127.529259"><ele>755.5</ele></trkpt>
      <trkpt lat="37.535605" lon="127.529347"><ele>751.8</ele></trkpt>
      <trkpt lat="37.535249" lon="127.529411"><ele>766.4</ele></trkpt>
      <trkpt lat="37.535059" lon="127.529383"><ele>777.3</ele></trkpt>
      <trkpt lat="37.534755" lon="127.529606"><ele>775.6</ele></trkpt>
      <trkpt lat="37.534694" lon="127.529731"><ele>770.4</ele></trkpt>
      <trkpt lat="37.534738" lon="127.530054"><ele>750.5</ele></trkpt>
      <trkpt lat="37.534684" lon="127.530644"><ele>723.0</ele></trkpt>
      <trkpt lat="37.534456" lon="127.531504"><ele>674.0</ele></trkpt>
      <trkpt lat="37.534428" lon="127.531966"><ele>656.0</ele></trkpt>
      <trkpt lat="37.534153" lon="127.532774"><ele>609.4</ele></trkpt>
      <trkpt lat="37.534041" lon="127.533334"><ele>587.7</ele></trkpt>
      <trkpt lat="37.534118" lon="127.533787"><ele>570.9</ele></trkpt>
      <trkpt lat="37.534069" lon="127.534018"><ele>561.4</ele></trkpt>
      <trkpt lat="37.534086" lon="127.534577"><ele>542.1</ele></trkpt>
      <trkpt lat="37.534019" lon="127.534745"><ele>536.1</ele></trkpt>
      <trkpt lat="37.534046" lon="127.534953"><ele>530.0</ele></trkpt>
      <trkpt lat="37.533960" lon="127.535589"><ele>504.4</ele></trkpt>
      <trkpt lat="37.534086" lon="127.535964"><ele>499.9</ele></trkpt>
      <trkpt lat="37.534081" lon="127.536285"><ele>495.8</ele></trkpt>
      <trkpt lat="37.533972" lon="127.536927"><ele>481.6</ele></trkpt>
      <trkpt lat="37.533934" lon="127.537799"><ele>459.9</ele></trkpt>
      <trkpt lat="37.533836" lon="127.538036"><ele>451.3</ele></trkpt>
      <trkpt lat="37.533707" lon="127.538668"><ele>438.0</ele></trkpt>
      <trkpt lat="37.533785" lon="127.538984"><ele>427.0</ele></trkpt>
      <trkpt lat="37.534071" lon="127.539689"><ele>407.1</ele></trkpt>
      <trkpt lat="37.534102" lon="127.540328"><ele>390.6</ele></trkpt>
      <trkpt lat="37.534185" lon="127.540339"><ele>389.1</ele></trkpt>
      <trkpt lat="37.534172" lon="127.540625"><ele>378.8</ele></trkpt>
      <trkpt lat="37.534261" lon="127.540781"><ele>375.0</ele></trkpt>
      <trkpt lat="37.534236" lon="127.540918"><ele>371.3</ele></trkpt>
      <trkpt lat="37.534109" lon="127.541092"><ele>369.6</ele></trkpt>
      <trkpt lat="37.534034" lon="127.541565"><ele>363.5</ele></trkpt>
      <trkpt lat="37.534323" lon="127.541938"><ele>350.8</ele></trkpt>
      <trkpt lat="37.534420" lon="127.541976"><ele>348.8</ele></trkpt>
      <trkpt lat="37.534795" lon="127.541805"><ele>342.1</ele></trkpt>
      <trkpt lat="37.534929" lon="127.541885"><ele>335.5</ele></trkpt>
      <trkpt lat="37.535106" lon="127.542159"><ele>332.1</ele></trkpt>
      <trkpt lat="37.535114" lon="127.542282"><ele>331.5</ele></trkpt>
      <trkpt lat="37.535044" lon="127.542411"><ele>328.5</ele></trkpt>
      <trkpt lat="37.535251" lon="127.543363"><ele>318.4</ele></trkpt>
      <trkpt lat="37.535592" lon="127.544035"><ele>310.0</ele></trkpt>
      <trkpt lat="37.535733" lon="127.544158"><ele>309.7</ele></trkpt>
      <trkpt lat="37.535792" lon="127.544276"><ele>308.5</ele></trkpt>
      <trkpt lat="37.535748" lon="127.544617"><ele>302.7</ele></trkpt>
      <trkpt lat="37.535799" lon="127.544810"><ele>299.5</ele></trkpt>
      <trkpt lat="37.535897" lon="127.544864"><ele>299.8</ele></trkpt>
      <trkpt lat="37.535956" lon="127.544967"><ele>299.6</ele></trkpt>
      <trkpt lat="37.536007" lon="127.545308"><ele>295.1</ele></trkpt>
      <trkpt lat="37.536005" lon="127.546800"><ele>284.3</ele></trkpt>
      <trkpt lat="37.535905" lon="127.546977"><ele>279.4</ele></trkpt>
      <trkpt lat="37.535780" lon="127.547599"><ele>274.4</ele></trkpt>
      <trkpt lat="37.535208" lon="127.548997"><ele>255.4</ele></trkpt>
      <trkpt lat="37.535166" lon="127.549609"><ele>246.3</ele></trkpt>
      <trkpt lat="37.535091" lon="127.549766"><ele>243.6</ele></trkpt>
      <trkpt lat="37.535174" lon="127.549936"><ele>241.3</ele></trkpt>
      <trkpt lat="37.535196" lon="127.550130"><ele>239.0</ele></trkpt>
      <trkpt lat="37.535126" lon="127.550285"><ele>236.9</ele></trkpt>
      <trkpt lat="37.535031" lon="127.550328"><ele>236.1</ele></trkpt>
      <trkpt lat="37.534793" lon="127.550752"><ele>233.5</ele></trkpt>
      <trkpt lat="37.534750" lon="127.551336"><ele>229.6</ele></trkpt>
      <trkpt lat="37.534609" lon="127.551644"><ele>225.9</ele></trkpt>
      <trkpt lat="37.535135" lon="127.552434"><ele>233.3</ele></trkpt>
      <trkpt lat="37.535183" lon="127.552753"><ele>238.0</ele></trkpt>
      <trkpt lat="37.535419" lon="127.552817"><ele>251.3</ele></trkpt>
      <trkpt lat="37.535613" lon="127.553037"><ele>266.2</ele></trkpt>
      <trkpt lat="37.535692" lon="127.553678"><ele>285.2</ele></trkpt>
      <trkpt lat="37.535862" lon="127.553716"><ele>289.9</ele></trkpt>
      <trkpt lat="37.535930" lon="127.553630"><ele>288.5</ele></trkpt>
      <trkpt lat="37.536023" lon="127.553614"><ele>289.1</ele></trkpt>
      <trkpt lat="37.536100" lon="127.553694"><ele>291.7</ele></trkpt>
      <trkpt lat="37.535743" lon="127.554220"><ele>298.7</ele></trkpt>
      <trkpt lat="37.535615" lon="127.554596"><ele>299.0</ele></trkpt>
      <trkpt lat="37.535653" lon="127.555358"><ele>292.9</ele></trkpt>
      <trkpt lat="37.535772" lon="127.555565"><ele>291.5</ele></trkpt>
      <trkpt lat="37.535934" lon="127.556046"><ele>286.2</ele></trkpt>
      <trkpt lat="37.536053" lon="127.556194"><ele>284.6</ele></trkpt>
      <trkpt lat="37.536285" lon="127.556278"><ele>282.2</ele></trkpt>
      <trkpt lat="37.536620" lon="127.556351"><ele>276.7</ele></trkpt>
      <trkpt lat="37.536820" lon="127.556262"><ele>276.7</ele></trkpt>
      <trkpt lat="37.536930" lon="127.556278"><ele>274.4</ele></trkpt>
      <trkpt lat="37.537155" lon="127.556680"><ele>265.2</ele></trkpt>
      <trkpt lat="37.537400" lon="127.557355"><ele>256.6</ele></trkpt>
      <trkpt lat="37.537794" lon="127.558224"><ele>243.1</ele></trkpt>
      <trkpt lat="37.538139" lon="127.558653"><ele>240.4</ele></trkpt>
      <trkpt lat="37.538185" lon="127.558945"><ele>235.6</ele></trkpt>
      <trkpt lat="37.539132" lon="127.558860"><ele>247.5</ele></trkpt>
      <trkpt lat="37.539780" lon="127.558880"><ele>252.5</ele></trkpt>
      <trkpt lat="37.540568" lon="127.558779"><ele>263.1</ele></trkpt>
      <trkpt lat="37.541303" lon="127.558501"><ele>272.4</ele></trkpt>
      <trkpt lat="37.541700" lon="127.558542"><ele>269.8</ele></trkpt>
      <trkpt lat="37.542374" lon="127.558744"><ele>278.9</ele></trkpt>
      <trkpt lat="37.542501" lon="127.558803"><ele>282.0</ele></trkpt>
      <trkpt lat="37.542600" lon="127.558925"><ele>284.3</ele></trkpt>
      <trkpt lat="37.542638" lon="127.559315"><ele>282.6</ele></trkpt>
      <trkpt lat="37.542744" lon="127.559537"><ele>284.8</ele></trkpt>
      <trkpt lat="37.542829" lon="127.559956"><ele>290.5</ele></trkpt>
      <trkpt lat="37.542933" lon="127.560146"><ele>295.6</ele></trkpt>
      <trkpt lat="37.543854" lon="127.561035"><ele>313.1</ele></trkpt>
      <trkpt lat="37.543941" lon="127.561060"><ele>314.1</ele></trkpt>
      <trkpt lat="37.544382" lon="127.561035"><ele>320.9</ele></trkpt>
      <trkpt lat="37.545044" lon="127.561148"><ele>330.0</ele></trkpt>
      <trkpt lat="37.545290" lon="127.561131"><ele>335.1</ele></trkpt>
      <trkpt lat="37.545580" lon="127.560980"><ele>334.9</ele></trkpt>
      <trkpt lat="37.545981" lon="127.561036"><ele>338.7</ele></trkpt>
      <trkpt lat="37.546256" lon="127.560882"><ele>343.8</ele></trkpt>
      <trkpt lat="37.546498" lon="127.560559"><ele>351.3</ele></trkpt>
      <trkpt lat="37.546734" lon="127.560461"><ele>359.3</ele></trkpt>
      <trkpt lat="37.546843" lon="127.560636"><ele>359.2</ele></trkpt>
      <trkpt lat="37.546942" lon="127.560679"><ele>361.5</ele></trkpt>
      <trkpt lat="37.547475" lon="127.560712"><ele>376.8</ele></trkpt>
      <trkpt lat="37.547595" lon="127.560598"><ele>379.1</ele></trkpt>
      <trkpt lat="37.547772" lon="127.560612"><ele>381.3</ele></trkpt>
      <trkpt lat="37.548042" lon="127.560531"><ele>388.7</ele></trkpt>
      <trkpt lat="37.548233" lon="127.560778"><ele>392.3</ele></trkpt>
      <trkpt lat="37.548421" lon="127.560913"><ele>399.5</ele></trkpt>
      <trkpt lat="37.548482" lon="127.560649"><ele>402.4</ele></trkpt>
      <trkpt lat="37.548853" lon="127.560366"><ele>417.7</ele></trkpt>
      <trkpt lat="37.548985" lon="127.560351"><ele>422.1</ele></trkpt>
      <trkpt lat="37.549081" lon="127.560673"><ele>423.8</ele></trkpt>
      <trkpt lat="37.549213" lon="127.560877"><ele>427.5</ele></trkpt>
      <trkpt lat="37.549723" lon="127.561321"><ele>441.2</ele></trkpt>
      <trkpt lat="37.549925" lon="127.561391"><ele>448.4</ele></trkpt>
      <trkpt lat="37.550143" lon="127.561654"><ele>449.1</ele></trkpt>
      <trkpt lat="37.550391" lon="127.561807"><ele>456.3</ele></trkpt>
      <trkpt lat="37.550448" lon="127.561771"><ele>458.2</ele></trkpt>
      <trkpt lat="37.550603" lon="127.561868"><ele>460.7</ele></trkpt>
      <trkpt lat="37.551016" lon="127.561858"><ele>468.0</ele></trkpt>
      <trkpt lat="37.551697" lon="127.561508"><ele>486.7</ele></trkpt>
      <trkpt lat="37.551606" lon="127.561856"><ele>487.1</ele></trkpt>
      <trkpt lat="37.551676" lon="127.562082"><ele>496.9</ele></trkpt>
      <trkpt lat="37.551761" lon="127.562191"><ele>505.9</ele></trkpt>
      <trkpt lat="37.551724" lon="127.562329"><ele>510.0</ele></trkpt>
      <trkpt lat="37.551637" lon="127.562350"><ele>507.3</ele></trkpt>
      <trkpt lat="37.551521" lon="127.562618"><ele>514.1</ele></trkpt>
      <trkpt lat="37.551511" lon="127.562844"><ele>520.8</ele></trkpt>
      <trkpt lat="37.551648" lon="127.562784"><ele>520.9</ele></trkpt>
      <trkpt lat="37.551882" lon="127.562838"><ele>528.1</ele></trkpt>
      <trkpt lat="37.552116" lon="127.562784"><ele>535.8</ele></trkpt>
      <trkpt lat="37.552309" lon="127.562519"><ele>540.5</ele></trkpt>
      <trkpt lat="37.553011" lon="127.562280"><ele>560.3</ele></trkpt>
      <trkpt lat="37.553264" lon="127.562114"><ele>568.0</ele></trkpt>
      <trkpt lat="37.553434" lon="127.562133"><ele>574.6</ele></trkpt>
      <trkpt lat="37.553615" lon="127.562082"><ele>585.8</ele></trkpt>
      <trkpt lat="37.553709" lon="127.562130"><ele>591.0</ele></trkpt>
      <trkpt lat="37.553817" lon="127.562015"><ele>602.6</ele></trkpt>
      <trkpt lat="37.553934" lon="127.561980"><ele>610.9</ele></trkpt>
      <trkpt lat="37.554219" lon="127.562109"><ele>616.9</ele></trkpt>
      <trkpt lat="37.554261" lon="127.561919"><ele>625.4</ele></trkpt>
      <trkpt lat="37.554390" lon="127.561766"><ele>631.6</ele></trkpt>
      <trkpt lat="37.554436" lon="127.561188"><ele>635.9</ele></trkpt>
      <trkpt lat="37.554550" lon="127.561151"><ele>638.1</ele></trkpt>
      <trkpt lat="37.554695" lon="127.560961"><ele>641.3</ele></trkpt>
      <trkpt lat="37.554866" lon="127.560977"><ele>645.1</ele></trkpt>
      <trkpt lat="37.554928" lon="127.560888"><ele>646.9</ele></trkpt>
      <trkpt lat="37.554993" lon="127.560950"><ele>648.0</ele></trkpt>
      <trkpt lat="37.555180" lon="127.560775"><ele>657.2</ele></trkpt>
      <trkpt lat="37.555516" lon="127.560715"><ele>669.3</ele></trkpt>
      <trkpt lat="37.555622" lon="127.560622"><ele>673.1</ele></trkpt>
      <trkpt lat="37.555709" lon="127.560641"><ele>676.7</ele></trkpt>
      <trkpt lat="37.555938" lon="127.560520"><ele>685.6</ele></trkpt>
      <trkpt lat="37.556210" lon="127.560510"><ele>696.2</ele></trkpt>
      <trkpt lat="37.556297" lon="127.560577"><ele>700.3</ele></trkpt>
      <trkpt lat="37.556352" lon="127.560487"><ele>701.9</ele></trkpt>
      <trkpt lat="37.556631" lon="127.560478"><ele>712.0</ele></trkpt>
      <trkpt lat="37.556801" lon="127.560401"><ele>716.1</ele></trkpt>
      <trkpt lat="37.556924" lon="127.560110"><ele>720.0</ele></trkpt>
      <trkpt lat="37.557107" lon="127.559858"><ele>725.3</ele></trkpt>
      <trkpt lat="37.557340" lon="127.559710"><ele>732.8</ele></trkpt>
      <trkpt lat="37.557361" lon="127.559625"><ele>734.2</ele></trkpt>
      <trkpt lat="37.557538" lon="127.559467"><ele>743.6</ele></trkpt>
      <trkpt lat="37.557636" lon="127.559144"><ele>752.4</ele></trkpt>
      <trkpt lat="37.557786" lon="127.558993"><ele>763.6</ele></trkpt>
      <trkpt lat="37.557838" lon="127.558780"><ele>772.3</ele></trkpt>
      <trkpt lat="37.558019" lon="127.558662"><ele>784.8</ele></trkpt>
      <trkpt lat="37.558146" lon="127.558719"><ele>787.5</ele></trkpt>
      <trkpt lat="37.558207" lon="127.558614"><ele>792.3</ele></trkpt>
      <trkpt lat="37.558222" lon="127.558436"><ele>794.4</ele></trkpt>
      <trkpt lat="37.558269" lon="127.558415"><ele>796.1</ele></trkpt>
      <trkpt lat="37.558249" lon="127.558326"><ele>796.3</ele></trkpt>
      <trkpt lat="37.558354" lon="127.557983"><ele>803.1</ele></trkpt>
      <trkpt lat="37.558440" lon="127.557958"><ele>806.4</ele></trkpt>
      <trkpt lat="37.558476" lon="127.557861"><ele>807.8</ele></trkpt>
      <trkpt lat="37.558550" lon="127.557833"><ele>811.5</ele></trkpt>
      <trkpt lat="37.558605" lon="127.557670"><ele>817.4</ele></trkpt>
      <trkpt lat="37.558738" lon="127.557554"><ele>824.4</ele></trkpt>
      <trkpt lat="37.558818" lon="127.557547"><ele>826.9</ele></trkpt>
      <trkpt lat="37.558902" lon="127.557386"><ele>832.4</ele></trkpt>
      <trkpt lat="37.559011" lon="127.556735"><ele>837.0</ele></trkpt>
      <trkpt lat="37.558983" lon="127.556654"><ele>836.5</ele></trkpt>
      <trkpt lat="37.559398" lon="127.556198"><ele>859.2</ele></trkpt>
      <trkpt lat="37.559582" lon="127.555195"><ele>898.3</ele></trkpt>
      <trkpt lat="37.559930" lon="127.554943"><ele>910.3</ele></trkpt>
      <trkpt lat="37.560101" lon="127.554700"><ele>916.7</ele></trkpt>
      <trkpt lat="37.560213" lon="127.554461"><ele>921.6</ele></trkpt>
      <trkpt lat="37.560243" lon="127.554193"><ele>922.0</ele></trkpt>
      <trkpt lat="37.560568" lon="127.553685"><ele>928.1</ele></trkpt>
      <trkpt lat="37.560693" lon="127.553205"><ele>937.7</ele></trkpt>
      <trkpt lat="37.561059" lon="127.552687"><ele>957.8</ele></trkpt>
      <trkpt lat="37.561192" lon="127.552263"><ele>974.8</ele></trkpt>
      <trkpt lat="37.561469" lon="127.552006"><ele>999.3</ele></trkpt>
      <trkpt lat="37.561627" lon="127.551589"><ele>1028.7</ele></trkpt>
    </trkseg>
  </trk>
</gpx>
