<?xml version="1.0" encoding="UTF-8"?>
<gpx version="1.1" creator="kr-100-mountains route-harvester"
     xmlns="http://www.topografix.com/GPX/1/1"
     xmlns:k100="https://github.com/jay-jang/kr-100-mountains/ns/1"
     xmlns:xsi="http://www.w3.org/2001/XMLSchema-instance"
     xsi:schemaLocation="http://www.topografix.com/GPX/1/1 http://www.topografix.com/GPX/1/1/gpx.xsd">
  <metadata>
    <name>용문산 · 사나사-장군봉-가섭봉 (OSM 계산 경로)</name>
    <desc>실제 GPS 기록이 아닙니다. OpenStreetMap에 등록된 등산로 선형 위에서 계산한 경로이며, 현장 통제·훼손·출입 제한·계절 통제를 반영하지 않을 수 있습니다. 산행 전 공식 안내를 확인하세요.</desc>
    <time>2026-08-04T05:13:37.756Z</time>
    <link href="https://www.openstreetmap.org/copyright"><text>© OpenStreetMap contributors (ODbL 1.0)</text></link>
    <link href="https://registry.opendata.aws/terrain-tiles/"><text>Elevation: SRTM 1 arc-second (NASA/USGS) via AWS Terrain Tiles</text></link>
    <extensions>
      <k100:provenance>osm-routed</k100:provenance>
      <k100:not_a_recorded_track>true</k100:not_a_recorded_track>
      <k100:mountain_id>yongmunsan</k100:mountain_id>
      <k100:mountain_name>용문산</k100:mountain_name>
      <k100:route_id>yongmunsan-7ad3a523</k100:route_id>
      <k100:route_index>3</k100:route_index>
      <k100:route_name>사나사-장군봉-가섭봉</k100:route_name>
      <k100:variant>0</k100:variant>
      <k100:source>OpenStreetMap via Overpass API</k100:source>
      <k100:license>ODbL-1.0</k100:license>
      <k100:attribution>© OpenStreetMap contributors</k100:attribution>
      <k100:elevation_source>SRTM 1 arc-second (NASA/USGS) — AWS Terrain Tiles 배포본. 지형 DEM 추정 고도이며 실측 아님</k100:elevation_source>
      <k100:algorithm>dijkstra-grid-v1</k100:algorithm>
      <k100:osm_snapshot>2026-08-04</k100:osm_snapshot>
      <k100:snap_trailhead_m>3</k100:snap_trailhead_m>
      <k100:snap_summit_m>69</k100:snap_summit_m>
      <k100:validation_score>100</k100:validation_score>
      <k100:validation_status>accepted</k100:validation_status>
    </extensions>
  </metadata>
  <trk>
    <name>용문산 · 사나사-장군봉-가섭봉 (OSM 계산 경로)</name>
    <desc>실제 GPS 기록이 아닙니다. OpenStreetMap에 등록된 등산로 선형 위에서 계산한 경로이며, 현장 통제·훼손·출입 제한·계절 통제를 반영하지 않을 수 있습니다. 산행 전 공식 안내를 확인하세요.</desc>
    <trkseg>
      <trkpt lat="37.539493" lon="127.507555"><ele>229.6</ele></trkpt>
      <trkpt lat="37.539477" lon="127.507655"><ele>229.5</ele></trkpt>
      <trkpt lat="37.539935" lon="127.508421"><ele>233.9</ele></trkpt>
      <trkpt lat="37.540060" lon="127.508354"><ele>234.2</ele></trkpt>
      <trkpt lat="37.540146" lon="127.508428"><ele>234.5</ele></trkpt>
      <trkpt lat="37.540351" lon="127.508430"><ele>236.4</ele></trkpt>
      <trkpt lat="37.540551" lon="127.508519"><ele>239.6</ele></trkpt>
      <trkpt lat="37.540678" lon="127.508632"><ele>241.1</ele></trkpt>
      <trkpt lat="37.541018" lon="127.509152"><ele>245.3</ele></trkpt>
      <trkpt lat="37.540880" lon="127.509495"><ele>247.6</ele></trkpt>
      <trkpt lat="37.540721" lon="127.509538"><ele>247.8</ele></trkpt>
      <trkpt lat="37.540802" lon="127.509850"><ele>254.6</ele></trkpt>
      <trkpt lat="37.540803" lon="127.510148"><ele>261.9</ele></trkpt>
      <trkpt lat="37.540695" lon="127.510414"><ele>268.4</ele></trkpt>
      <trkpt lat="37.540662" lon="127.510736"><ele>281.1</ele></trkpt>
      <trkpt lat="37.540716" lon="127.510823"><ele>286.5</ele></trkpt>
      <trkpt lat="37.540729" lon="127.511693"><ele>321.7</ele></trkpt>
      <trkpt lat="37.540802" lon="127.511918"><ele>330.9</ele></trkpt>
      <trkpt lat="37.540806" lon="127.512162"><ele>341.8</ele></trkpt>
      <trkpt lat="37.540602" lon="127.512551"><ele>352.2</ele></trkpt>
      <trkpt lat="37.540763" lon="127.513379"><ele>374.2</ele></trkpt>
      <trkpt lat="37.540968" lon="127.513598"><ele>386.6</ele></trkpt>
      <trkpt lat="37.541367" lon="127.514453"><ele>412.6</ele></trkpt>
      <trkpt lat="37.541377" lon="127.515006"><ele>419.0</ele></trkpt>
      <trkpt lat="37.541296" lon="127.515647"><ele>436.1</ele></trkpt>
      <trkpt lat="37.541222" lon="127.515720"><ele>439.5</ele></trkpt>
      <trkpt lat="37.541156" lon="127.515934"><ele>447.6</ele></trkpt>
      <trkpt lat="37.541124" lon="127.516412"><ele>462.8</ele></trkpt>
      <trkpt lat="37.541051" lon="127.516454"><ele>461.0</ele></trkpt>
      <trkpt lat="37.540990" lon="127.516636"><ele>461.9</ele></trkpt>
      <trkpt lat="37.540996" lon="127.516730"><ele>464.8</ele></trkpt>
      <trkpt lat="37.541082" lon="127.516752"><ele>470.7</ele></trkpt>
      <trkpt lat="37.541135" lon="127.516985"><ele>479.1</ele></trkpt>
      <trkpt lat="37.541181" lon="127.517813"><ele>487.2</ele></trkpt>
      <trkpt lat="37.541494" lon="127.518474"><ele>511.4</ele></trkpt>
      <trkpt lat="37.541646" lon="127.519020"><ele>530.5</ele></trkpt>
      <trkpt lat="37.542034" lon="127.519654"><ele>555.2</ele></trkpt>
      <trkpt lat="37.542129" lon="127.519897"><ele>566.3</ele></trkpt>
      <trkpt lat="37.542533" lon="127.520413"><ele>597.8</ele></trkpt>
      <trkpt lat="37.542743" lon="127.520970"><ele>617.5</ele></trkpt>
      <trkpt lat="37.542840" lon="127.521117"><ele>621.6</ele></trkpt>
      <trkpt lat="37.542842" lon="127.521229"><ele>623.8</ele></trkpt>
      <trkpt lat="37.542970" lon="127.521578"><ele>633.1</ele></trkpt>
      <trkpt lat="37.543037" lon="127.522475"><ele>648.8</ele></trkpt>
      <trkpt lat="37.543155" lon="127.522757"><ele>661.4</ele></trkpt>
      <trkpt lat="37.543174" lon="127.523468"><ele>680.9</ele></trkpt>
      <trkpt lat="37.543718" lon="127.524427"><ele>689.2</ele></trkpt>
      <trkpt lat="37.543718" lon="127.524937"><ele>700.9</ele></trkpt>
      <trkpt lat="37.543622" lon="127.525629"><ele>715.9</ele></trkpt>
      <trkpt lat="37.543422" lon="127.526235"><ele>725.8</ele></trkpt>
      <trkpt lat="37.543381" lon="127.526602"><ele>738.3</ele></trkpt>
      <trkpt lat="37.543614" lon="127.527207"><ele>751.8</ele></trkpt>
      <trkpt lat="37.543693" lon="127.527289"><ele>755.3</ele></trkpt>
      <trkpt lat="37.544099" lon="127.527381"><ele>765.0</ele></trkpt>
      <trkpt lat="37.544178" lon="127.527575"><ele>768.3</ele></trkpt>
      <trkpt lat="37.544222" lon="127.527901"><ele>766.8</ele></trkpt>
      <trkpt lat="37.544147" lon="127.528106"><ele>772.8</ele></trkpt>
      <trkpt lat="37.543908" lon="127.528284"><ele>783.2</ele></trkpt>
      <trkpt lat="37.543793" lon="127.528466"><ele>793.8</ele></trkpt>
      <trkpt lat="37.543720" lon="127.528887"><ele>809.2</ele></trkpt>
      <trkpt lat="37.543558" lon="127.529296"><ele>821.0</ele></trkpt>
      <trkpt lat="37.543351" lon="127.529528"><ele>831.1</ele></trkpt>
      <trkpt lat="37.543213" lon="127.529585"><ele>833.7</ele></trkpt>
      <trkpt lat="37.543568" lon="127.529988"><ele>840.4</ele></trkpt>
      <trkpt lat="37.543602" lon="127.530287"><ele>838.8</ele></trkpt>
      <trkpt lat="37.543664" lon="127.530300"><ele>837.8</ele></trkpt>
      <trkpt lat="37.543774" lon="127.530512"><ele>833.7</ele></trkpt>
      <trkpt lat="37.543940" lon="127.530571"><ele>831.7</ele></trkpt>
      <trkpt lat="37.544105" lon="127.530853"><ele>836.3</ele></trkpt>
      <trkpt lat="37.544444" lon="127.531054"><ele>838.9</ele></trkpt>
      <trkpt lat="37.544511" lon="127.531140"><ele>841.0</ele></trkpt>
      <trkpt lat="37.544665" lon="127.531550"><ele>844.1</ele></trkpt>
      <trkpt lat="37.544744" lon="127.531509"><ele>845.4</ele></trkpt>
      <trkpt lat="37.544745" lon="127.531623"><ele>846.0</ele></trkpt>
      <trkpt lat="37.544883" lon="127.531775"><ele>849.2</ele></trkpt>
      <trkpt lat="37.544957" lon="127.531994"><ele>853.9</ele></trkpt>
      <trkpt lat="37.545025" lon="127.532065"><ele>856.1</ele></trkpt>
      <trkpt lat="37.545073" lon="127.532518"><ele>847.7</ele></trkpt>
      <trkpt lat="37.545231" lon="127.532447"><ele>855.0</ele></trkpt>
      <trkpt lat="37.545286" lon="127.532342"><ele>858.0</ele></trkpt>
      <trkpt lat="37.545836" lon="127.532619"><ele>873.0</ele></trkpt>
      <trkpt lat="37.546192" lon="127.532558"><ele>872.6</ele></trkpt>
      <trkpt lat="37.546369" lon="127.532662"><ele>876.0</ele></trkpt>
      <trkpt lat="37.546651" lon="127.532966"><ele>883.4</ele></trkpt>
      <trkpt lat="37.546651" lon="127.533084"><ele>886.1</ele></trkpt>
      <trkpt lat="37.546726" lon="127.533153"><ele>885.0</ele></trkpt>
      <trkpt lat="37.546756" lon="127.533336"><ele>886.4</ele></trkpt>
      <trkpt lat="37.546888" lon="127.533503"><ele>885.2</ele></trkpt>
      <trkpt lat="37.547234" lon="127.533685"><ele>878.0</ele></trkpt>
      <trkpt lat="37.547509" lon="127.533771"><ele>878.3</ele></trkpt>
      <trkpt lat="37.547610" lon="127.533736"><ele>879.4</ele></trkpt>
      <trkpt lat="37.547941" lon="127.533944"><ele>890.6</ele></trkpt>
      <trkpt lat="37.548133" lon="127.533975"><ele>896.0</ele></trkpt>
      <trkpt lat="37.548253" lon="127.534145"><ele>897.9</ele></trkpt>
      <trkpt lat="37.548522" lon="127.534275"><ele>903.7</ele></trkpt>
      <trkpt lat="37.548717" lon="127.534314"><ele>910.4</ele></trkpt>
      <trkpt lat="37.548873" lon="127.534194"><ele>914.7</ele></trkpt>
      <trkpt lat="37.549152" lon="127.534143"><ele>926.6</ele></trkpt>
      <trkpt lat="37.549209" lon="127.534059"><ele>930.5</ele></trkpt>
      <trkpt lat="37.549267" lon="127.534143"><ele>933.3</ele></trkpt>
      <trkpt lat="37.549436" lon="127.534226"><ele>943.9</ele></trkpt>
      <trkpt lat="37.549622" lon="127.534257"><ele>950.8</ele></trkpt>
      <trkpt lat="37.549701" lon="127.534323"><ele>954.5</ele></trkpt>
      <trkpt lat="37.549715" lon="127.534440"><ele>956.6</ele></trkpt>
      <trkpt lat="37.550123" lon="127.534884"><ele>954.2</ele></trkpt>
      <trkpt lat="37.550272" lon="127.535195"><ele>949.7</ele></trkpt>
      <trkpt lat="37.550698" lon="127.535843"><ele>942.5</ele></trkpt>
      <trkpt lat="37.550811" lon="127.536305"><ele>947.6</ele></trkpt>
      <trkpt lat="37.551271" lon="127.536923"><ele>955.9</ele></trkpt>
      <trkpt lat="37.551279" lon="127.537176"><ele>959.9</ele></trkpt>
      <trkpt lat="37.551375" lon="127.537382"><ele>966.7</ele></trkpt>
      <trkpt lat="37.551408" lon="127.537601"><ele>969.0</ele></trkpt>
      <trkpt lat="37.551639" lon="127.537801"><ele>976.1</ele></trkpt>
      <trkpt lat="37.551680" lon="127.537911"><ele>977.4</ele></trkpt>
      <trkpt lat="37.551910" lon="127.538076"><ele>985.6</ele></trkpt>
      <trkpt lat="37.551928" lon="127.538194"><ele>985.4</ele></trkpt>
      <trkpt lat="37.552199" lon="127.538227"><ele>995.4</ele></trkpt>
      <trkpt lat="37.552205" lon="127.538345"><ele>996.2</ele></trkpt>
      <trkpt lat="37.552392" lon="127.538379"><ele>1006.0</ele></trkpt>
      <trkpt lat="37.552512" lon="127.538537"><ele>1014.9</ele></trkpt>
      <trkpt lat="37.552610" lon="127.538547"><ele>1017.1</ele></trkpt>
      <trkpt lat="37.552666" lon="127.538627"><ele>1019.8</ele></trkpt>
      <trkpt lat="37.552659" lon="127.538765"><ele>1021.5</ele></trkpt>
      <trkpt lat="37.552787" lon="127.539072"><ele>1028.4</ele></trkpt>
      <trkpt lat="37.552894" lon="127.539156"><ele>1030.9</ele></trkpt>
      <trkpt lat="37.553033" lon="127.539598"><ele>1040.2</ele></trkpt>
      <trkpt lat="37.553233" lon="127.539832"><ele>1044.7</ele></trkpt>
      <trkpt lat="37.553543" lon="127.540099"><ele>1046.8</ele></trkpt>
      <trkpt lat="37.554470" lon="127.540724"><ele>1043.7</ele></trkpt>
      <trkpt lat="37.554663" lon="127.540785"><ele>1043.0</ele></trkpt>
      <trkpt lat="37.554692" lon="127.540899"><ele>1044.4</ele></trkpt>
      <trkpt lat="37.554802" lon="127.540950"><ele>1044.5</ele></trkpt>
      <trkpt lat="37.555159" lon="127.541471"><ele>1046.4</ele></trkpt>
      <trkpt lat="37.555410" lon="127.541543"><ele>1046.1</ele></trkpt>
      <trkpt lat="37.555649" lon="127.541498"><ele>1046.4</ele></trkpt>
      <trkpt lat="37.555721" lon="127.541521"><ele>1047.7</ele></trkpt>
      <trkpt lat="37.555701" lon="127.541577"><ele>1048.5</ele></trkpt>
      <trkpt lat="37.555759" lon="127.541638"><ele>1050.8</ele></trkpt>
      <trkpt lat="37.556845" lon="127.541950"><ele>1078.2</ele></trkpt>
      <trkpt lat="37.556883" lon="127.542112"><ele>1079.7</ele></trkpt>
      <trkpt lat="37.557106" lon="127.542483"><ele>1087.4</ele></trkpt>
      <trkpt lat="37.557096" lon="127.542844"><ele>1077.5</ele></trkpt>
      <trkpt lat="37.557586" lon="127.543390"><ele>1080.9</ele></trkpt>
      <trkpt lat="37.557678" lon="127.543428"><ele>1085.3</ele></trkpt>
      <trkpt lat="37.557905" lon="127.543783"><ele>1081.4</ele></trkpt>
      <trkpt lat="37.558166" lon="127.543836"><ele>1092.1</ele></trkpt>
      <trkpt lat="37.558236" lon="127.543911"><ele>1091.1</ele></trkpt>
      <trkpt lat="37.558262" lon="127.544030"><ele>1086.8</ele></trkpt>
      <trkpt lat="37.558570" lon="127.544269"><ele>1089.2</ele></trkpt>
      <trkpt lat="37.558679" lon="127.544793"><ele>1073.7</ele></trkpt>
      <trkpt lat="37.558970" lon="127.544959"><ele>1079.6</ele></trkpt>
      <trkpt lat="37.559055" lon="127.545099"><ele>1077.6</ele></trkpt>
      <trkpt lat="37.559133" lon="127.545037"><ele>1083.7</ele></trkpt>
      <trkpt lat="37.559311" lon="127.545108"><ele>1088.7</ele></trkpt>
      <trkpt lat="37.559692" lon="127.545563"><ele>1085.8</ele></trkpt>
      <trkpt lat="37.559928" lon="127.546057"><ele>1085.1</ele></trkpt>
      <trkpt lat="37.560104" lon="127.546101"><ele>1095.9</ele></trkpt>
      <trkpt lat="37.560205" lon="127.546282"><ele>1098.3</ele></trkpt>
      <trkpt lat="37.560375" lon="127.546918"><ele>1101.5</ele></trkpt>
      <trkpt lat="37.560639" lon="127.547388"><ele>1112.7</ele></trkpt>
      <trkpt lat="37.560673" lon="127.547770"><ele>1109.6</ele></trkpt>
      <trkpt lat="37.560786" lon="127.547760"><ele>1117.7</ele></trkpt>
      <trkpt lat="37.560954" lon="127.548025"><ele>1119.5</ele></trkpt>
      <trkpt lat="37.561132" lon="127.548879"><ele>1120.0</ele></trkpt>
      <trkpt lat="37.561111" lon="127.549328"><ele>1115.8</ele></trkpt>
      <trkpt lat="37.561320" lon="127.549474"><ele>1122.8</ele></trkpt>
      <trkpt lat="37.561448" lon="127.549673"><ele>1117.6</ele></trkpt>
      <trkpt lat="37.561654" lon="127.549771"><ele>1116.2</ele></trkpt>
      <trkpt lat="37.561921" lon="127.550015"><ele>1106.4</ele></trkpt>
      <trkpt lat="37.561867" lon="127.550454"><ele>1078.7</ele></trkpt>
      <trkpt lat="37.561771" lon="127.550815"><ele>1064.7</ele></trkpt>
      <trkpt lat="37.561603" lon="127.551021"><ele>1053.0</ele></trkpt>
      <trkpt lat="37.561547" lon="127.551336"><ele>1037.7</ele></trkpt>
      <trkpt lat="37.561627" lon="127.551589"><ele>1028.7</ele></trkpt>
    </trkseg>
  </trk>
</gpx>
