<?xml version="1.0" encoding="UTF-8"?>
<gpx version="1.1" creator="kr-100-mountains route-harvester"
     xmlns="http://www.topografix.com/GPX/1/1"
     xmlns:k100="https://github.com/jay-jang/kr-100-mountains/ns/1"
     xmlns:xsi="http://www.w3.org/2001/XMLSchema-instance"
     xsi:schemaLocation="http://www.topografix.com/GPX/1/1 http://www.topografix.com/GPX/1/1/gpx.xsd">
  <metadata>
    <name>용문산 · 용문사-마당바위-가섭봉 코스 (대안 1) (OSM 계산 경로)</name>
    <desc>실제 GPS 기록이 아닙니다. OpenStreetMap에 등록된 등산로 선형 위에서 계산한 경로이며, 현장 통제·훼손·출입 제한·계절 통제를 반영하지 않을 수 있습니다. 산행 전 공식 안내를 확인하세요.</desc>
    <time>2026-08-04T05:13:37.647Z</time>
    <link href="https://www.openstreetmap.org/copyright"><text>© OpenStreetMap contributors (ODbL 1.0)</text></link>
    <link href="https://registry.opendata.aws/terrain-tiles/"><text>Elevation: SRTM 1 arc-second (NASA/USGS) via AWS Terrain Tiles</text></link>
    <extensions>
      <k100:provenance>osm-routed</k100:provenance>
      <k100:not_a_recorded_track>true</k100:not_a_recorded_track>
      <k100:mountain_id>yongmunsan</k100:mountain_id>
      <k100:mountain_name>용문산</k100:mountain_name>
      <k100:route_id>yongmunsan-18a9d68f</k100:route_id>
      <k100:route_index>1</k100:route_index>
      <k100:route_name>용문사-마당바위-가섭봉 코스</k100:route_name>
      <k100:variant>1</k100:variant>
      <k100:source>OpenStreetMap via Overpass API</k100:source>
      <k100:license>ODbL-1.0</k100:license>
      <k100:attribution>© OpenStreetMap contributors</k100:attribution>
      <k100:elevation_source>SRTM 1 arc-second (NASA/USGS) — AWS Terrain Tiles 배포본. 지형 DEM 추정 고도이며 실측 아님</k100:elevation_source>
      <k100:algorithm>dijkstra-grid-v1</k100:algorithm>
      <k100:osm_snapshot>2026-08-04</k100:osm_snapshot>
      <k100:snap_trailhead_m>195</k100:snap_trailhead_m>
      <k100:snap_summit_m>69</k100:snap_summit_m>
      <k100:validation_score>69</k100:validation_score>
      <k100:validation_status>review</k100:validation_status>
    </extensions>
  </metadata>
  <trk>
    <name>용문산 · 용문사-마당바위-가섭봉 코스 (대안 1) (OSM 계산 경로)</name>
    <desc>실제 GPS 기록이 아닙니다. OpenStreetMap에 등록된 등산로 선형 위에서 계산한 경로이며, 현장 통제·훼손·출입 제한·계절 통제를 반영하지 않을 수 있습니다. 산행 전 공식 안내를 확인하세요.</desc>
    <trkseg>
      <trkpt lat="37.537110" lon="127.579446"><ele>316.8</ele></trkpt>
      <trkpt lat="37.537214" lon="127.580122"><ele>303.8</ele></trkpt>
      <trkpt lat="37.537092" lon="127.580233"><ele>301.3</ele></trkpt>
      <trkpt lat="37.537399" lon="127.580635"><ele>291.4</ele></trkpt>
      <trkpt lat="37.537640" lon="127.581416"><ele>276.4</ele></trkpt>
      <trkpt lat="37.537665" lon="127.581696"><ele>275.2</ele></trkpt>
      <trkpt lat="37.537883" lon="127.582148"><ele>272.2</ele></trkpt>
      <trkpt lat="37.538225" lon="127.582463"><ele>263.6</ele></trkpt>
      <trkpt lat="37.538520" lon="127.583471"><ele>244.0</ele></trkpt>
      <trkpt lat="37.538479" lon="127.583707"><ele>242.3</ele></trkpt>
      <trkpt lat="37.538188" lon="127.584107"><ele>237.0</ele></trkpt>
      <trkpt lat="37.538162" lon="127.584284"><ele>234.9</ele></trkpt>
      <trkpt lat="37.538220" lon="127.584538"><ele>232.9</ele></trkpt>
      <trkpt lat="37.538139" lon="127.584929"><ele>226.8</ele></trkpt>
      <trkpt lat="37.537938" lon="127.585325"><ele>221.0</ele></trkpt>
      <trkpt lat="37.537707" lon="127.585485"><ele>213.6</ele></trkpt>
      <trkpt lat="37.537399" lon="127.585239"><ele>202.6</ele></trkpt>
      <trkpt lat="37.537410" lon="127.585195"><ele>202.6</ele></trkpt>
      <trkpt lat="37.537033" lon="127.585163"><ele>197.0</ele></trkpt>
      <trkpt lat="37.536651" lon="127.584897"><ele>203.0</ele></trkpt>
      <trkpt lat="37.536424" lon="127.584900"><ele>205.2</ele></trkpt>
      <trkpt lat="37.536107" lon="127.585233"><ele>195.9</ele></trkpt>
      <trkpt lat="37.535978" lon="127.585212"><ele>194.4</ele></trkpt>
      <trkpt lat="37.535576" lon="127.584530"><ele>197.9</ele></trkpt>
      <trkpt lat="37.535488" lon="127.584473"><ele>198.8</ele></trkpt>
      <trkpt lat="37.535440" lon="127.584841"><ele>193.8</ele></trkpt>
      <trkpt lat="37.535263" lon="127.585071"><ele>192.2</ele></trkpt>
      <trkpt lat="37.535275" lon="127.585270"><ele>189.2</ele></trkpt>
      <trkpt lat="37.535221" lon="127.585471"><ele>187.8</ele></trkpt>
      <trkpt lat="37.535081" lon="127.585609"><ele>186.3</ele></trkpt>
      <trkpt lat="37.534887" lon="127.585938"><ele>180.4</ele></trkpt>
      <trkpt lat="37.534868" lon="127.586331"><ele>176.8</ele></trkpt>
      <trkpt lat="37.534784" lon="127.586604"><ele>176.7</ele></trkpt>
      <trkpt lat="37.535272" lon="127.587099"><ele>178.5</ele></trkpt>
      <trkpt lat="37.535132" lon="127.587545"><ele>173.6</ele></trkpt>
      <trkpt lat="37.535227" lon="127.588267"><ele>174.6</ele></trkpt>
      <trkpt lat="37.535064" lon="127.588536"><ele>168.2</ele></trkpt>
      <trkpt lat="37.535033" lon="127.588699"><ele>165.9</ele></trkpt>
      <trkpt lat="37.535188" lon="127.589421"><ele>165.3</ele></trkpt>
      <trkpt lat="37.535308" lon="127.589704"><ele>164.1</ele></trkpt>
      <trkpt lat="37.535491" lon="127.589860"><ele>162.7</ele></trkpt>
      <trkpt lat="37.535763" lon="127.589987"><ele>162.0</ele></trkpt>
      <trkpt lat="37.536479" lon="127.590079"><ele>166.0</ele></trkpt>
      <trkpt lat="37.536771" lon="127.590026"><ele>166.9</ele></trkpt>
      <trkpt lat="37.537012" lon="127.590228"><ele>160.2</ele></trkpt>
      <trkpt lat="37.537096" lon="127.590228"><ele>159.4</ele></trkpt>
      <trkpt lat="37.537714" lon="127.589662"><ele>159.3</ele></trkpt>
      <trkpt lat="37.537990" lon="127.589227"><ele>164.0</ele></trkpt>
      <trkpt lat="37.538184" lon="127.589023"><ele>165.5</ele></trkpt>
      <trkpt lat="37.539375" lon="127.588451"><ele>166.5</ele></trkpt>
      <trkpt lat="37.539620" lon="127.588264"><ele>165.4</ele></trkpt>
      <trkpt lat="37.539895" lon="127.587961"><ele>168.1</ele></trkpt>
      <trkpt lat="37.540374" lon="127.587671"><ele>173.1</ele></trkpt>
      <trkpt lat="37.541313" lon="127.587434"><ele>171.0</ele></trkpt>
      <trkpt lat="37.541669" lon="127.587248"><ele>173.0</ele></trkpt>
      <trkpt lat="37.542048" lon="127.586960"><ele>174.8</ele></trkpt>
      <trkpt lat="37.542331" lon="127.586669"><ele>175.6</ele></trkpt>
      <trkpt lat="37.542841" lon="127.585904"><ele>179.7</ele></trkpt>
      <trkpt lat="37.543076" lon="127.585660"><ele>181.1</ele></trkpt>
      <trkpt lat="37.543360" lon="127.585490"><ele>180.7</ele></trkpt>
      <trkpt lat="37.543814" lon="127.585352"><ele>178.2</ele></trkpt>
      <trkpt lat="37.543987" lon="127.585170"><ele>182.3</ele></trkpt>
      <trkpt lat="37.544290" lon="127.585057"><ele>188.7</ele></trkpt>
      <trkpt lat="37.544674" lon="127.584534"><ele>190.1</ele></trkpt>
      <trkpt lat="37.545074" lon="127.583701"><ele>191.5</ele></trkpt>
      <trkpt lat="37.545721" lon="127.582724"><ele>194.7</ele></trkpt>
      <trkpt lat="37.546404" lon="127.582175"><ele>198.4</ele></trkpt>
      <trkpt lat="37.546290" lon="127.582014"><ele>198.8</ele></trkpt>
      <trkpt lat="37.546228" lon="127.581805"><ele>199.7</ele></trkpt>
      <trkpt lat="37.546385" lon="127.581470"><ele>201.7</ele></trkpt>
      <trkpt lat="37.546295" lon="127.581328"><ele>201.7</ele></trkpt>
      <trkpt lat="37.546310" lon="127.580895"><ele>202.2</ele></trkpt>
      <trkpt lat="37.546430" lon="127.580658"><ele>203.2</ele></trkpt>
      <trkpt lat="37.546893" lon="127.580226"><ele>206.7</ele></trkpt>
      <trkpt lat="37.547198" lon="127.579795"><ele>216.3</ele></trkpt>
      <trkpt lat="37.547306" lon="127.579461"><ele>219.6</ele></trkpt>
      <trkpt lat="37.547228" lon="127.578895"><ele>227.8</ele></trkpt>
      <trkpt lat="37.547288" lon="127.578527"><ele>230.2</ele></trkpt>
      <trkpt lat="37.547537" lon="127.578191"><ele>232.2</ele></trkpt>
      <trkpt lat="37.548163" lon="127.577647"><ele>240.1</ele></trkpt>
      <trkpt lat="37.548626" lon="127.577423"><ele>240.6</ele></trkpt>
      <trkpt lat="37.548781" lon="127.577282"><ele>243.5</ele></trkpt>
      <trkpt lat="37.548968" lon="127.576951"><ele>244.8</ele></trkpt>
      <trkpt lat="37.548870" lon="127.576455"><ele>241.6</ele></trkpt>
      <trkpt lat="37.548740" lon="127.576089"><ele>249.7</ele></trkpt>
      <trkpt lat="37.548772" lon="127.575744"><ele>254.8</ele></trkpt>
      <trkpt lat="37.548751" lon="127.575122"><ele>257.7</ele></trkpt>
      <trkpt lat="37.548538" lon="127.574212"><ele>264.3</ele></trkpt>
      <trkpt lat="37.548677" lon="127.572998"><ele>275.3</ele></trkpt>
      <trkpt lat="37.548659" lon="127.572596"><ele>281.1</ele></trkpt>
      <trkpt lat="37.548830" lon="127.572127"><ele>281.7</ele></trkpt>
      <trkpt lat="37.548925" lon="127.571955"><ele>281.9</ele></trkpt>
      <trkpt lat="37.549062" lon="127.571865"><ele>280.3</ele></trkpt>
      <trkpt lat="37.549141" lon="127.571646"><ele>284.1</ele></trkpt>
      <trkpt lat="37.549374" lon="127.571394"><ele>292.1</ele></trkpt>
      <trkpt lat="37.549509" lon="127.570908"><ele>302.8</ele></trkpt>
      <trkpt lat="37.549815" lon="127.570398"><ele>305.4</ele></trkpt>
      <trkpt lat="37.550004" lon="127.570190"><ele>300.3</ele></trkpt>
      <trkpt lat="37.550160" lon="127.570150"><ele>301.1</ele></trkpt>
      <trkpt lat="37.550312" lon="127.570009"><ele>305.2</ele></trkpt>
      <trkpt lat="37.550338" lon="127.569891"><ele>308.4</ele></trkpt>
      <trkpt lat="37.550711" lon="127.569781"><ele>310.7</ele></trkpt>
      <trkpt lat="37.551260" lon="127.569306"><ele>322.3</ele></trkpt>
      <trkpt lat="37.551407" lon="127.568790"><ele>337.4</ele></trkpt>
      <trkpt lat="37.551761" lon="127.568308"><ele>356.3</ele></trkpt>
      <trkpt lat="37.551808" lon="127.568224"><ele>358.6</ele></trkpt>
      <trkpt lat="37.551783" lon="127.568079"><ele>361.7</ele></trkpt>
      <trkpt lat="37.551868" lon="127.567880"><ele>366.8</ele></trkpt>
      <trkpt lat="37.551940" lon="127.567828"><ele>368.8</ele></trkpt>
      <trkpt lat="37.551903" lon="127.567661"><ele>372.1</ele></trkpt>
      <trkpt lat="37.552009" lon="127.567342"><ele>381.6</ele></trkpt>
      <trkpt lat="37.551943" lon="127.567192"><ele>381.7</ele></trkpt>
      <trkpt lat="37.552097" lon="127.566802"><ele>396.5</ele></trkpt>
      <trkpt lat="37.551974" lon="127.566622"><ele>399.0</ele></trkpt>
      <trkpt lat="37.551982" lon="127.566446"><ele>405.2</ele></trkpt>
      <trkpt lat="37.551857" lon="127.565576"><ele>433.8</ele></trkpt>
      <trkpt lat="37.551967" lon="127.565394"><ele>435.6</ele></trkpt>
      <trkpt lat="37.551925" lon="127.565043"><ele>449.0</ele></trkpt>
      <trkpt lat="37.551978" lon="127.564627"><ele>467.1</ele></trkpt>
      <trkpt lat="37.551812" lon="127.564496"><ele>473.0</ele></trkpt>
      <trkpt lat="37.551752" lon="127.564198"><ele>481.5</ele></trkpt>
      <trkpt lat="37.551767" lon="127.564042"><ele>486.7</ele></trkpt>
      <trkpt lat="37.551667" lon="127.563956"><ele>488.8</ele></trkpt>
      <trkpt lat="37.551687" lon="127.563709"><ele>499.1</ele></trkpt>
      <trkpt lat="37.551616" lon="127.563530"><ele>508.1</ele></trkpt>
      <trkpt lat="37.551732" lon="127.563471"><ele>511.0</ele></trkpt>
      <trkpt lat="37.551732" lon="127.563356"><ele>516.6</ele></trkpt>
      <trkpt lat="37.551618" lon="127.563170"><ele>521.6</ele></trkpt>
      <trkpt lat="37.551654" lon="127.563117"><ele>522.6</ele></trkpt>
      <trkpt lat="37.551527" lon="127.562975"><ele>523.8</ele></trkpt>
      <trkpt lat="37.551511" lon="127.562844"><ele>520.8</ele></trkpt>
      <trkpt lat="37.551521" lon="127.562618"><ele>514.1</ele></trkpt>
      <trkpt lat="37.551637" lon="127.562350"><ele>507.3</ele></trkpt>
      <trkpt lat="37.551724" lon="127.562329"><ele>510.0</ele></trkpt>
      <trkpt lat="37.551761" lon="127.562191"><ele>505.9</ele></trkpt>
      <trkpt lat="37.551676" lon="127.562082"><ele>496.9</ele></trkpt>
      <trkpt lat="37.551606" lon="127.561856"><ele>487.1</ele></trkpt>
      <trkpt lat="37.551697" lon="127.561508"><ele>486.7</ele></trkpt>
      <trkpt lat="37.552073" lon="127.561262"><ele>497.9</ele></trkpt>
      <trkpt lat="37.552409" lon="127.560795"><ele>509.0</ele></trkpt>
      <trkpt lat="37.552644" lon="127.560594"><ele>521.6</ele></trkpt>
      <trkpt lat="37.552719" lon="127.560451"><ele>525.4</ele></trkpt>
      <trkpt lat="37.553198" lon="127.559972"><ele>544.4</ele></trkpt>
      <trkpt lat="37.553277" lon="127.559807"><ele>548.1</ele></trkpt>
      <trkpt lat="37.553697" lon="127.559428"><ele>562.4</ele></trkpt>
      <trkpt lat="37.553693" lon="127.559307"><ele>563.8</ele></trkpt>
      <trkpt lat="37.553626" lon="127.559253"><ele>563.6</ele></trkpt>
      <trkpt lat="37.553736" lon="127.559096"><ele>568.4</ele></trkpt>
      <trkpt lat="37.553845" lon="127.559037"><ele>571.7</ele></trkpt>
      <trkpt lat="37.553970" lon="127.559090"><ele>572.6</ele></trkpt>
      <trkpt lat="37.554918" lon="127.558960"><ele>596.0</ele></trkpt>
      <trkpt lat="37.554944" lon="127.558886"><ele>594.5</ele></trkpt>
      <trkpt lat="37.555146" lon="127.558809"><ele>603.5</ele></trkpt>
      <trkpt lat="37.555268" lon="127.558907"><ele>607.0</ele></trkpt>
      <trkpt lat="37.555562" lon="127.558888"><ele>619.3</ele></trkpt>
      <trkpt lat="37.555660" lon="127.559019"><ele>624.5</ele></trkpt>
      <trkpt lat="37.555750" lon="127.559039"><ele>629.0</ele></trkpt>
      <trkpt lat="37.555965" lon="127.558840"><ele>640.6</ele></trkpt>
      <trkpt lat="37.556053" lon="127.558571"><ele>648.1</ele></trkpt>
      <trkpt lat="37.556145" lon="127.558451"><ele>655.6</ele></trkpt>
      <trkpt lat="37.556271" lon="127.558017"><ele>668.8</ele></trkpt>
      <trkpt lat="37.556421" lon="127.557835"><ele>676.0</ele></trkpt>
      <trkpt lat="37.556522" lon="127.557804"><ele>679.5</ele></trkpt>
      <trkpt lat="37.556661" lon="127.557611"><ele>686.3</ele></trkpt>
      <trkpt lat="37.556897" lon="127.556973"><ele>701.3</ele></trkpt>
      <trkpt lat="37.556936" lon="127.556537"><ele>711.9</ele></trkpt>
      <trkpt lat="37.557040" lon="127.556239"><ele>723.4</ele></trkpt>
      <trkpt lat="37.557251" lon="127.556195"><ele>726.3</ele></trkpt>
      <trkpt lat="37.557310" lon="127.556064"><ele>731.8</ele></trkpt>
      <trkpt lat="37.557416" lon="127.555342"><ele>754.1</ele></trkpt>
      <trkpt lat="37.557409" lon="127.554785"><ele>767.7</ele></trkpt>
      <trkpt lat="37.557542" lon="127.554027"><ele>783.3</ele></trkpt>
      <trkpt lat="37.557515" lon="127.553513"><ele>799.1</ele></trkpt>
      <trkpt lat="37.557587" lon="127.553532"><ele>799.4</ele></trkpt>
      <trkpt lat="37.557732" lon="127.552961"><ele>823.4</ele></trkpt>
      <trkpt lat="37.557713" lon="127.552658"><ele>830.2</ele></trkpt>
      <trkpt lat="37.557896" lon="127.552274"><ele>848.6</ele></trkpt>
      <trkpt lat="37.558079" lon="127.551391"><ele>878.9</ele></trkpt>
      <trkpt lat="37.558136" lon="127.551218"><ele>886.5</ele></trkpt>
      <trkpt lat="37.558212" lon="127.551141"><ele>891.7</ele></trkpt>
      <trkpt lat="37.558809" lon="127.550786"><ele>935.9</ele></trkpt>
      <trkpt lat="37.559475" lon="127.550228"><ele>1001.7</ele></trkpt>
      <trkpt lat="37.559915" lon="127.549932"><ele>1040.8</ele></trkpt>
      <trkpt lat="37.560742" lon="127.549500"><ele>1100.9</ele></trkpt>
      <trkpt lat="37.561103" lon="127.549190"><ele>1116.3</ele></trkpt>
      <trkpt lat="37.561111" lon="127.549328"><ele>1115.8</ele></trkpt>
      <trkpt lat="37.561320" lon="127.549474"><ele>1122.8</ele></trkpt>
      <trkpt lat="37.561448" lon="127.549673"><ele>1117.6</ele></trkpt>
      <trkpt lat="37.561654" lon="127.549771"><ele>1116.2</ele></trkpt>
      <trkpt lat="37.561921" lon="127.550015"><ele>1106.4</ele></trkpt>
      <trkpt lat="37.561867" lon="127.550454"><ele>1078.7</ele></trkpt>
      <trkpt lat="37.561771" lon="127.550815"><ele>1064.7</ele></trkpt>
      <trkpt lat="37.561603" lon="127.551021"><ele>1053.0</ele></trkpt>
      <trkpt lat="37.561547" lon="127.551336"><ele>1037.7</ele></trkpt>
      <trkpt lat="37.561627" lon="127.551589"><ele>1028.7</ele></trkpt>
    </trkseg>
  </trk>
</gpx>
