<?xml version="1.0" encoding="UTF-8"?>
<gpx version="1.1" creator="kr-100-mountains route-harvester"
     xmlns="http://www.topografix.com/GPX/1/1"
     xmlns:k100="https://github.com/jay-jang/kr-100-mountains/ns/1"
     xmlns:xsi="http://www.w3.org/2001/XMLSchema-instance"
     xsi:schemaLocation="http://www.topografix.com/GPX/1/1 http://www.topografix.com/GPX/1/1/gpx.xsd">
  <metadata>
    <name>용문산 · 용문사-마당바위-가섭봉 코스 (대안 2) (OSM 계산 경로)</name>
    <desc>실제 GPS 기록이 아닙니다. OpenStreetMap에 등록된 등산로 선형 위에서 계산한 경로이며, 현장 통제·훼손·출입 제한·계절 통제를 반영하지 않을 수 있습니다. 산행 전 공식 안내를 확인하세요.</desc>
    <time>2026-08-04T05:13:37.650Z</time>
    <link href="https://www.openstreetmap.org/copyright"><text>© OpenStreetMap contributors (ODbL 1.0)</text></link>
    <link href="https://registry.opendata.aws/terrain-tiles/"><text>Elevation: SRTM 1 arc-second (NASA/USGS) via AWS Terrain Tiles</text></link>
    <extensions>
      <k100:provenance>osm-routed</k100:provenance>
      <k100:not_a_recorded_track>true</k100:not_a_recorded_track>
      <k100:mountain_id>yongmunsan</k100:mountain_id>
      <k100:mountain_name>용문산</k100:mountain_name>
      <k100:route_id>yongmunsan-18a9d68f</k100:route_id>
      <k100:route_index>1</k100:route_index>
      <k100:route_name>용문사-마당바위-가섭봉 코스</k100:route_name>
      <k100:variant>2</k100:variant>
      <k100:source>OpenStreetMap via Overpass API</k100:source>
      <k100:license>ODbL-1.0</k100:license>
      <k100:attribution>© OpenStreetMap contributors</k100:attribution>
      <k100:elevation_source>SRTM 1 arc-second (NASA/USGS) — AWS Terrain Tiles 배포본. 지형 DEM 추정 고도이며 실측 아님</k100:elevation_source>
      <k100:algorithm>dijkstra-grid-v1</k100:algorithm>
      <k100:osm_snapshot>2026-08-04</k100:osm_snapshot>
      <k100:snap_trailhead_m>195</k100:snap_trailhead_m>
      <k100:snap_summit_m>69</k100:snap_summit_m>
      <k100:validation_score>69</k100:validation_score>
      <k100:validation_status>review</k100:validation_status>
    </extensions>
  </metadata>
  <trk>
    <name>용문산 · 용문사-마당바위-가섭봉 코스 (대안 2) (OSM 계산 경로)</name>
    <desc>실제 GPS 기록이 아닙니다. OpenStreetMap에 등록된 등산로 선형 위에서 계산한 경로이며, 현장 통제·훼손·출입 제한·계절 통제를 반영하지 않을 수 있습니다. 산행 전 공식 안내를 확인하세요.</desc>
    <trkseg>
      <trkpt lat="37.537110" lon="127.579446"><ele>316.8</ele></trkpt>
      <trkpt lat="37.537249" lon="127.578758"><ele>334.5</ele></trkpt>
      <trkpt lat="37.537113" lon="127.578070"><ele>353.0</ele></trkpt>
      <trkpt lat="37.537036" lon="127.576338"><ele>393.3</ele></trkpt>
      <trkpt lat="37.536776" lon="127.576098"><ele>394.6</ele></trkpt>
      <trkpt lat="37.537179" lon="127.575758"><ele>409.8</ele></trkpt>
      <trkpt lat="37.537099" lon="127.575378"><ele>420.9</ele></trkpt>
      <trkpt lat="37.537148" lon="127.575123"><ele>429.9</ele></trkpt>
      <trkpt lat="37.537121" lon="127.574827"><ele>435.8</ele></trkpt>
      <trkpt lat="37.537170" lon="127.574427"><ele>445.6</ele></trkpt>
      <trkpt lat="37.536999" lon="127.573615"><ele>460.7</ele></trkpt>
      <trkpt lat="37.536966" lon="127.572801"><ele>476.6</ele></trkpt>
      <trkpt lat="37.536817" lon="127.572443"><ele>481.5</ele></trkpt>
      <trkpt lat="37.536772" lon="127.571673"><ele>503.1</ele></trkpt>
      <trkpt lat="37.536657" lon="127.571399"><ele>509.6</ele></trkpt>
      <trkpt lat="37.536736" lon="127.571351"><ele>509.6</ele></trkpt>
      <trkpt lat="37.536761" lon="127.571000"><ele>508.0</ele></trkpt>
      <trkpt lat="37.536966" lon="127.570700"><ele>509.6</ele></trkpt>
      <trkpt lat="37.536993" lon="127.570469"><ele>503.3</ele></trkpt>
      <trkpt lat="37.537684" lon="127.569879"><ele>495.1</ele></trkpt>
      <trkpt lat="37.537982" lon="127.569549"><ele>497.2</ele></trkpt>
      <trkpt lat="37.538257" lon="127.568851"><ele>493.1</ele></trkpt>
      <trkpt lat="37.538958" lon="127.568082"><ele>492.6</ele></trkpt>
      <trkpt lat="37.539550" lon="127.567223"><ele>508.7</ele></trkpt>
      <trkpt lat="37.539635" lon="127.567186"><ele>509.3</ele></trkpt>
      <trkpt lat="37.539769" lon="127.567210"><ele>511.1</ele></trkpt>
      <trkpt lat="37.540390" lon="127.567639"><ele>525.4</ele></trkpt>
      <trkpt lat="37.540583" lon="127.567677"><ele>530.5</ele></trkpt>
      <trkpt lat="37.541207" lon="127.566920"><ele>528.8</ele></trkpt>
      <trkpt lat="37.541638" lon="127.566593"><ele>518.2</ele></trkpt>
      <trkpt lat="37.542251" lon="127.566542"><ele>514.7</ele></trkpt>
      <trkpt lat="37.542404" lon="127.566365"><ele>513.1</ele></trkpt>
      <trkpt lat="37.542944" lon="127.566231"><ele>512.0</ele></trkpt>
      <trkpt lat="37.543289" lon="127.566215"><ele>517.3</ele></trkpt>
      <trkpt lat="37.543924" lon="127.565821"><ele>521.0</ele></trkpt>
      <trkpt lat="37.544265" lon="127.565947"><ele>518.8</ele></trkpt>
      <trkpt lat="37.544565" lon="127.565960"><ele>514.3</ele></trkpt>
      <trkpt lat="37.544611" lon="127.565909"><ele>513.9</ele></trkpt>
      <trkpt lat="37.545388" lon="127.565979"><ele>504.5</ele></trkpt>
      <trkpt lat="37.545494" lon="127.565898"><ele>506.6</ele></trkpt>
      <trkpt lat="37.545639" lon="127.565877"><ele>504.7</ele></trkpt>
      <trkpt lat="37.545877" lon="127.565960"><ele>497.3</ele></trkpt>
      <trkpt lat="37.546023" lon="127.565952"><ele>494.6</ele></trkpt>
      <trkpt lat="37.546570" lon="127.565399"><ele>485.8</ele></trkpt>
      <trkpt lat="37.547010" lon="127.565153"><ele>485.7</ele></trkpt>
      <trkpt lat="37.547312" lon="127.564839"><ele>479.7</ele></trkpt>
      <trkpt lat="37.547531" lon="127.564855"><ele>478.1</ele></trkpt>
      <trkpt lat="37.547927" lon="127.564699"><ele>484.9</ele></trkpt>
      <trkpt lat="37.548578" lon="127.564715"><ele>504.1</ele></trkpt>
      <trkpt lat="37.548930" lon="127.564855"><ele>513.1</ele></trkpt>
      <trkpt lat="37.549161" lon="127.565516"><ele>500.3</ele></trkpt>
      <trkpt lat="37.549132" lon="127.565686"><ele>493.8</ele></trkpt>
      <trkpt lat="37.549157" lon="127.565972"><ele>485.3</ele></trkpt>
      <trkpt lat="37.549234" lon="127.566127"><ele>479.6</ele></trkpt>
      <trkpt lat="37.549217" lon="127.566185"><ele>479.1</ele></trkpt>
      <trkpt lat="37.549360" lon="127.566340"><ele>474.8</ele></trkpt>
      <trkpt lat="37.549357" lon="127.566404"><ele>474.0</ele></trkpt>
      <trkpt lat="37.549457" lon="127.566534"><ele>470.0</ele></trkpt>
      <trkpt lat="37.549454" lon="127.566796"><ele>464.9</ele></trkpt>
      <trkpt lat="37.549515" lon="127.566887"><ele>460.8</ele></trkpt>
      <trkpt lat="37.549553" lon="127.567112"><ele>453.9</ele></trkpt>
      <trkpt lat="37.549471" lon="127.567186"><ele>453.0</ele></trkpt>
      <trkpt lat="37.549469" lon="127.567458"><ele>444.5</ele></trkpt>
      <trkpt lat="37.549361" lon="127.567935"><ele>422.6</ele></trkpt>
      <trkpt lat="37.549252" lon="127.568048"><ele>416.2</ele></trkpt>
      <trkpt lat="37.549200" lon="127.568305"><ele>406.8</ele></trkpt>
      <trkpt lat="37.549040" lon="127.568439"><ele>396.6</ele></trkpt>
      <trkpt lat="37.548930" lon="127.568685"><ele>384.8</ele></trkpt>
      <trkpt lat="37.548970" lon="127.568793"><ele>382.2</ele></trkpt>
      <trkpt lat="37.549053" lon="127.568855"><ele>381.8</ele></trkpt>
      <trkpt lat="37.549100" lon="127.569017"><ele>376.6</ele></trkpt>
      <trkpt lat="37.549097" lon="127.569546"><ele>357.2</ele></trkpt>
      <trkpt lat="37.549155" lon="127.569776"><ele>349.0</ele></trkpt>
      <trkpt lat="37.549096" lon="127.569943"><ele>339.5</ele></trkpt>
      <trkpt lat="37.549196" lon="127.570152"><ele>331.1</ele></trkpt>
      <trkpt lat="37.549170" lon="127.570200"><ele>329.3</ele></trkpt>
      <trkpt lat="37.549325" lon="127.569993"><ele>336.0</ele></trkpt>
      <trkpt lat="37.549463" lon="127.569927"><ele>336.0</ele></trkpt>
      <trkpt lat="37.549519" lon="127.569837"><ele>336.8</ele></trkpt>
      <trkpt lat="37.549607" lon="127.569825"><ele>333.0</ele></trkpt>
      <trkpt lat="37.549682" lon="127.569982"><ele>323.5</ele></trkpt>
      <trkpt lat="37.549683" lon="127.570090"><ele>319.5</ele></trkpt>
      <trkpt lat="37.549882" lon="127.570138"><ele>307.4</ele></trkpt>
      <trkpt lat="37.549952" lon="127.570212"><ele>302.3</ele></trkpt>
      <trkpt lat="37.549823" lon="127.570446"><ele>304.5</ele></trkpt>
      <trkpt lat="37.549996" lon="127.571791"><ele>289.4</ele></trkpt>
      <trkpt lat="37.550230" lon="127.571958"><ele>302.4</ele></trkpt>
      <trkpt lat="37.550274" lon="127.572203"><ele>303.9</ele></trkpt>
      <trkpt lat="37.550368" lon="127.572234"><ele>306.7</ele></trkpt>
      <trkpt lat="37.550461" lon="127.572238"><ele>309.4</ele></trkpt>
      <trkpt lat="37.550730" lon="127.572100"><ele>319.5</ele></trkpt>
      <trkpt lat="37.551017" lon="127.572090"><ele>333.4</ele></trkpt>
      <trkpt lat="37.551319" lon="127.571972"><ele>347.1</ele></trkpt>
      <trkpt lat="37.551502" lon="127.571980"><ele>353.6</ele></trkpt>
      <trkpt lat="37.551687" lon="127.571816"><ele>365.5</ele></trkpt>
      <trkpt lat="37.551731" lon="127.571605"><ele>373.2</ele></trkpt>
      <trkpt lat="37.551939" lon="127.571146"><ele>383.9</ele></trkpt>
      <trkpt lat="37.552056" lon="127.570991"><ele>387.8</ele></trkpt>
      <trkpt lat="37.552301" lon="127.570940"><ele>400.7</ele></trkpt>
      <trkpt lat="37.552566" lon="127.570959"><ele>416.7</ele></trkpt>
      <trkpt lat="37.552968" lon="127.571195"><ele>432.4</ele></trkpt>
      <trkpt lat="37.553222" lon="127.571128"><ele>439.2</ele></trkpt>
      <trkpt lat="37.553449" lon="127.571002"><ele>447.3</ele></trkpt>
      <trkpt lat="37.553642" lon="127.570684"><ele>463.5</ele></trkpt>
      <trkpt lat="37.553653" lon="127.570516"><ele>469.6</ele></trkpt>
      <trkpt lat="37.553725" lon="127.570463"><ele>472.4</ele></trkpt>
      <trkpt lat="37.553798" lon="127.570513"><ele>474.5</ele></trkpt>
      <trkpt lat="37.554108" lon="127.570189"><ele>485.5</ele></trkpt>
      <trkpt lat="37.554443" lon="127.569997"><ele>497.0</ele></trkpt>
      <trkpt lat="37.554518" lon="127.570037"><ele>498.2</ele></trkpt>
      <trkpt lat="37.554710" lon="127.569943"><ele>506.0</ele></trkpt>
      <trkpt lat="37.554943" lon="127.569767"><ele>518.4</ele></trkpt>
      <trkpt lat="37.555035" lon="127.569819"><ele>519.7</ele></trkpt>
      <trkpt lat="37.555166" lon="127.569797"><ele>525.0</ele></trkpt>
      <trkpt lat="37.555551" lon="127.569456"><ele>557.2</ele></trkpt>
      <trkpt lat="37.555763" lon="127.569361"><ele>558.7</ele></trkpt>
      <trkpt lat="37.555996" lon="127.569407"><ele>566.2</ele></trkpt>
      <trkpt lat="37.556137" lon="127.569252"><ele>578.6</ele></trkpt>
      <trkpt lat="37.556244" lon="127.569343"><ele>579.1</ele></trkpt>
      <trkpt lat="37.556307" lon="127.569216"><ele>586.2</ele></trkpt>
      <trkpt lat="37.556606" lon="127.569132"><ele>593.0</ele></trkpt>
      <trkpt lat="37.556777" lon="127.568967"><ele>598.1</ele></trkpt>
      <trkpt lat="37.556782" lon="127.568879"><ele>599.8</ele></trkpt>
      <trkpt lat="37.557438" lon="127.568448"><ele>620.7</ele></trkpt>
      <trkpt lat="37.557802" lon="127.568408"><ele>621.0</ele></trkpt>
      <trkpt lat="37.558323" lon="127.568617"><ele>635.7</ele></trkpt>
      <trkpt lat="37.558381" lon="127.568824"><ele>637.7</ele></trkpt>
      <trkpt lat="37.558525" lon="127.568954"><ele>646.0</ele></trkpt>
      <trkpt lat="37.558675" lon="127.568926"><ele>654.3</ele></trkpt>
      <trkpt lat="37.558845" lon="127.568680"><ele>663.5</ele></trkpt>
      <trkpt lat="37.559545" lon="127.568901"><ele>716.3</ele></trkpt>
      <trkpt lat="37.560270" lon="127.569298"><ele>768.4</ele></trkpt>
      <trkpt lat="37.560463" lon="127.569446"><ele>785.1</ele></trkpt>
      <trkpt lat="37.560532" lon="127.569628"><ele>798.1</ele></trkpt>
      <trkpt lat="37.560618" lon="127.569663"><ele>805.5</ele></trkpt>
      <trkpt lat="37.560617" lon="127.569721"><ele>807.9</ele></trkpt>
      <trkpt lat="37.560999" lon="127.569848"><ele>825.9</ele></trkpt>
      <trkpt lat="37.561095" lon="127.569807"><ele>826.8</ele></trkpt>
      <trkpt lat="37.561188" lon="127.569873"><ele>827.4</ele></trkpt>
      <trkpt lat="37.561332" lon="127.569643"><ele>829.5</ele></trkpt>
      <trkpt lat="37.561508" lon="127.569607"><ele>836.7</ele></trkpt>
      <trkpt lat="37.561606" lon="127.569645"><ele>840.8</ele></trkpt>
      <trkpt lat="37.561816" lon="127.569571"><ele>848.0</ele></trkpt>
      <trkpt lat="37.561977" lon="127.569448"><ele>856.3</ele></trkpt>
      <trkpt lat="37.562051" lon="127.569251"><ele>861.7</ele></trkpt>
      <trkpt lat="37.562064" lon="127.569020"><ele>860.4</ele></trkpt>
      <trkpt lat="37.562243" lon="127.568968"><ele>871.0</ele></trkpt>
      <trkpt lat="37.562499" lon="127.569020"><ele>874.1</ele></trkpt>
      <trkpt lat="37.562690" lon="127.568949"><ele>871.1</ele></trkpt>
      <trkpt lat="37.562730" lon="127.568697"><ele>879.9</ele></trkpt>
      <trkpt lat="37.562858" lon="127.568601"><ele>889.5</ele></trkpt>
      <trkpt lat="37.563003" lon="127.568558"><ele>899.4</ele></trkpt>
      <trkpt lat="37.563168" lon="127.568638"><ele>899.6</ele></trkpt>
      <trkpt lat="37.563180" lon="127.568574"><ele>904.1</ele></trkpt>
      <trkpt lat="37.563305" lon="127.568559"><ele>908.1</ele></trkpt>
      <trkpt lat="37.563253" lon="127.568421"><ele>916.4</ele></trkpt>
      <trkpt lat="37.563387" lon="127.568313"><ele>926.2</ele></trkpt>
      <trkpt lat="37.563442" lon="127.568145"><ele>933.1</ele></trkpt>
      <trkpt lat="37.563382" lon="127.567913"><ele>938.5</ele></trkpt>
      <trkpt lat="37.563445" lon="127.567769"><ele>941.5</ele></trkpt>
      <trkpt lat="37.563408" lon="127.567685"><ele>941.0</ele></trkpt>
      <trkpt lat="37.563461" lon="127.567659"><ele>942.4</ele></trkpt>
      <trkpt lat="37.563427" lon="127.567560"><ele>942.1</ele></trkpt>
      <trkpt lat="37.563538" lon="127.567540"><ele>944.9</ele></trkpt>
      <trkpt lat="37.563541" lon="127.567438"><ele>945.6</ele></trkpt>
      <trkpt lat="37.563618" lon="127.567400"><ele>947.6</ele></trkpt>
      <trkpt lat="37.563634" lon="127.567014"><ele>952.4</ele></trkpt>
      <trkpt lat="37.563767" lon="127.566752"><ele>954.5</ele></trkpt>
      <trkpt lat="37.563731" lon="127.566701"><ele>955.9</ele></trkpt>
      <trkpt lat="37.563748" lon="127.566630"><ele>954.8</ele></trkpt>
      <trkpt lat="37.563828" lon="127.566637"><ele>953.5</ele></trkpt>
      <trkpt lat="37.563783" lon="127.566428"><ele>947.8</ele></trkpt>
      <trkpt lat="37.563883" lon="127.566379"><ele>946.8</ele></trkpt>
      <trkpt lat="37.563981" lon="127.566201"><ele>941.3</ele></trkpt>
      <trkpt lat="37.563835" lon="127.565957"><ele>937.5</ele></trkpt>
      <trkpt lat="37.563814" lon="127.565870"><ele>935.4</ele></trkpt>
      <trkpt lat="37.563862" lon="127.565724"><ele>936.3</ele></trkpt>
      <trkpt lat="37.563764" lon="127.565602"><ele>929.0</ele></trkpt>
      <trkpt lat="37.563996" lon="127.565363"><ele>925.8</ele></trkpt>
      <trkpt lat="37.564060" lon="127.565010"><ele>916.8</ele></trkpt>
      <trkpt lat="37.564125" lon="127.564981"><ele>918.7</ele></trkpt>
      <trkpt lat="37.564134" lon="127.565041"><ele>919.7</ele></trkpt>
      <trkpt lat="37.564210" lon="127.565058"><ele>920.8</ele></trkpt>
      <trkpt lat="37.564275" lon="127.564621"><ele>923.2</ele></trkpt>
      <trkpt lat="37.564431" lon="127.564455"><ele>928.4</ele></trkpt>
      <trkpt lat="37.564521" lon="127.564229"><ele>933.9</ele></trkpt>
      <trkpt lat="37.564549" lon="127.563962"><ele>937.3</ele></trkpt>
      <trkpt lat="37.564523" lon="127.563608"><ele>937.4</ele></trkpt>
      <trkpt lat="37.564673" lon="127.563464"><ele>938.7</ele></trkpt>
      <trkpt lat="37.564735" lon="127.563170"><ele>934.2</ele></trkpt>
      <trkpt lat="37.564863" lon="127.563020"><ele>929.5</ele></trkpt>
      <trkpt lat="37.564859" lon="127.562213"><ele>908.2</ele></trkpt>
      <trkpt lat="37.565108" lon="127.561738"><ele>906.4</ele></trkpt>
      <trkpt lat="37.565466" lon="127.561451"><ele>895.4</ele></trkpt>
      <trkpt lat="37.565508" lon="127.560851"><ele>899.4</ele></trkpt>
      <trkpt lat="37.565427" lon="127.560190"><ele>905.8</ele></trkpt>
      <trkpt lat="37.565918" lon="127.559342"><ele>912.8</ele></trkpt>
      <trkpt lat="37.565942" lon="127.559101"><ele>912.6</ele></trkpt>
      <trkpt lat="37.566026" lon="127.559051"><ele>914.4</ele></trkpt>
      <trkpt lat="37.566056" lon="127.558492"><ele>917.7</ele></trkpt>
      <trkpt lat="37.566147" lon="127.558285"><ele>921.5</ele></trkpt>
      <trkpt lat="37.566020" lon="127.557970"><ele>918.3</ele></trkpt>
      <trkpt lat="37.565993" lon="127.557783"><ele>919.8</ele></trkpt>
      <trkpt lat="37.566060" lon="127.557702"><ele>924.9</ele></trkpt>
      <trkpt lat="37.566120" lon="127.557071"><ele>938.2</ele></trkpt>
      <trkpt lat="37.566046" lon="127.556863"><ele>940.4</ele></trkpt>
      <trkpt lat="37.566079" lon="127.556410"><ele>953.8</ele></trkpt>
      <trkpt lat="37.566004" lon="127.556201"><ele>956.2</ele></trkpt>
      <trkpt lat="37.566028" lon="127.555967"><ele>957.8</ele></trkpt>
      <trkpt lat="37.565894" lon="127.555667"><ele>959.2</ele></trkpt>
      <trkpt lat="37.565739" lon="127.555487"><ele>960.0</ele></trkpt>
      <trkpt lat="37.565678" lon="127.555274"><ele>960.0</ele></trkpt>
      <trkpt lat="37.565453" lon="127.555083"><ele>959.7</ele></trkpt>
      <trkpt lat="37.565386" lon="127.554727"><ele>958.8</ele></trkpt>
      <trkpt lat="37.565168" lon="127.554508"><ele>956.3</ele></trkpt>
      <trkpt lat="37.564579" lon="127.554159"><ele>959.0</ele></trkpt>
      <trkpt lat="37.564394" lon="127.553742"><ele>963.5</ele></trkpt>
      <trkpt lat="37.564236" lon="127.553636"><ele>967.9</ele></trkpt>
      <trkpt lat="37.564108" lon="127.553461"><ele>976.5</ele></trkpt>
      <trkpt lat="37.564011" lon="127.553474"><ele>979.8</ele></trkpt>
      <trkpt lat="37.563933" lon="127.553422"><ele>984.1</ele></trkpt>
      <trkpt lat="37.563862" lon="127.553078"><ele>997.9</ele></trkpt>
      <trkpt lat="37.563583" lon="127.552633"><ele>1014.6</ele></trkpt>
      <trkpt lat="37.563451" lon="127.552545"><ele>1016.5</ele></trkpt>
      <trkpt lat="37.563231" lon="127.551991"><ele>1038.7</ele></trkpt>
      <trkpt lat="37.562968" lon="127.551939"><ele>1032.1</ele></trkpt>
      <trkpt lat="37.562811" lon="127.551447"><ele>1046.9</ele></trkpt>
      <trkpt lat="37.562725" lon="127.551401"><ele>1046.6</ele></trkpt>
      <trkpt lat="37.562507" lon="127.551008"><ele>1055.9</ele></trkpt>
      <trkpt lat="37.562276" lon="127.550819"><ele>1063.4</ele></trkpt>
      <trkpt lat="37.562238" lon="127.550706"><ele>1067.7</ele></trkpt>
      <trkpt lat="37.562069" lon="127.550659"><ele>1070.2</ele></trkpt>
      <trkpt lat="37.561893" lon="127.550934"><ele>1061.4</ele></trkpt>
      <trkpt lat="37.561709" lon="127.550905"><ele>1060.4</ele></trkpt>
      <trkpt lat="37.561603" lon="127.551021"><ele>1053.0</ele></trkpt>
      <trkpt lat="37.561547" lon="127.551336"><ele>1037.7</ele></trkpt>
      <trkpt lat="37.561627" lon="127.551589"><ele>1028.7</ele></trkpt>
    </trkseg>
  </trk>
</gpx>
