<?xml version="1.0" encoding="UTF-8"?>
<gpx version="1.1" creator="kr-100-mountains route-harvester"
     xmlns="http://www.topografix.com/GPX/1/1"
     xmlns:k100="https://github.com/jay-jang/kr-100-mountains/ns/1"
     xmlns:xsi="http://www.w3.org/2001/XMLSchema-instance"
     xsi:schemaLocation="http://www.topografix.com/GPX/1/1 http://www.topografix.com/GPX/1/1/gpx.xsd">
  <metadata>
    <name>방장산 · 능선 종주 코스 (대안 2) (OSM 계산 경로)</name>
    <desc>실제 GPS 기록이 아닙니다. OpenStreetMap에 등록된 등산로 선형 위에서 계산한 경로이며, 현장 통제·훼손·출입 제한·계절 통제를 반영하지 않을 수 있습니다. 산행 전 공식 안내를 확인하세요.</desc>
    <time>2026-08-04T05:35:44.428Z</time>
    <link href="https://www.openstreetmap.org/copyright"><text>© OpenStreetMap contributors (ODbL 1.0)</text></link>
    <link href="https://registry.opendata.aws/terrain-tiles/"><text>Elevation: SRTM 1 arc-second (NASA/USGS) via AWS Terrain Tiles</text></link>
    <extensions>
      <k100:provenance>osm-routed</k100:provenance>
      <k100:not_a_recorded_track>true</k100:not_a_recorded_track>
      <k100:mountain_id>bangjangsan</k100:mountain_id>
      <k100:mountain_name>방장산</k100:mountain_name>
      <k100:route_id>bangjangsan-8bdb2d23</k100:route_id>
      <k100:route_index>2</k100:route_index>
      <k100:route_name>능선 종주 코스</k100:route_name>
      <k100:variant>2</k100:variant>
      <k100:source>OpenStreetMap via Overpass API</k100:source>
      <k100:license>ODbL-1.0</k100:license>
      <k100:attribution>© OpenStreetMap contributors</k100:attribution>
      <k100:elevation_source>SRTM 1 arc-second (NASA/USGS) — AWS Terrain Tiles 배포본. 지형 DEM 추정 고도이며 실측 아님</k100:elevation_source>
      <k100:algorithm>dijkstra-grid-v1</k100:algorithm>
      <k100:osm_snapshot>2026-08-04</k100:osm_snapshot>
      <k100:snap_trailhead_m>305</k100:snap_trailhead_m>
      <k100:snap_summit_m>92</k100:snap_summit_m>
      <k100:validation_score>69</k100:validation_score>
      <k100:validation_status>review</k100:validation_status>
    </extensions>
  </metadata>
  <trk>
    <name>방장산 · 능선 종주 코스 (대안 2) (OSM 계산 경로)</name>
    <desc>실제 GPS 기록이 아닙니다. OpenStreetMap에 등록된 등산로 선형 위에서 계산한 경로이며, 현장 통제·훼손·출입 제한·계절 통제를 반영하지 않을 수 있습니다. 산행 전 공식 안내를 확인하세요.</desc>
    <trkseg>
      <trkpt lat="35.464069" lon="126.776568"><ele>400.6</ele></trkpt>
      <trkpt lat="35.463343" lon="126.776562"><ele>401.5</ele></trkpt>
      <trkpt lat="35.462957" lon="126.776709"><ele>396.3</ele></trkpt>
      <trkpt lat="35.462821" lon="126.776715"><ele>395.1</ele></trkpt>
      <trkpt lat="35.462502" lon="126.776505"><ele>395.5</ele></trkpt>
      <trkpt lat="35.462201" lon="126.775956"><ele>406.6</ele></trkpt>
      <trkpt lat="35.462055" lon="126.775808"><ele>409.2</ele></trkpt>
      <trkpt lat="35.461511" lon="126.775596"><ele>414.7</ele></trkpt>
      <trkpt lat="35.461310" lon="126.775441"><ele>420.4</ele></trkpt>
      <trkpt lat="35.461091" lon="126.775387"><ele>420.4</ele></trkpt>
      <trkpt lat="35.460226" lon="126.775445"><ele>421.9</ele></trkpt>
      <trkpt lat="35.459899" lon="126.775552"><ele>415.8</ele></trkpt>
      <trkpt lat="35.459693" lon="126.775396"><ele>419.4</ele></trkpt>
      <trkpt lat="35.459483" lon="126.775031"><ele>425.9</ele></trkpt>
      <trkpt lat="35.458998" lon="126.774812"><ele>426.7</ele></trkpt>
      <trkpt lat="35.458832" lon="126.774656"><ele>426.9</ele></trkpt>
      <trkpt lat="35.458810" lon="126.774565"><ele>426.4</ele></trkpt>
      <trkpt lat="35.458846" lon="126.774458"><ele>427.1</ele></trkpt>
      <trkpt lat="35.458998" lon="126.774364"><ele>425.2</ele></trkpt>
      <trkpt lat="35.459540" lon="126.774479"><ele>426.7</ele></trkpt>
      <trkpt lat="35.460233" lon="126.774226"><ele>425.3</ele></trkpt>
      <trkpt lat="35.460635" lon="126.774147"><ele>423.6</ele></trkpt>
      <trkpt lat="35.461325" lon="126.774185"><ele>425.2</ele></trkpt>
      <trkpt lat="35.462072" lon="126.773802"><ele>428.5</ele></trkpt>
      <trkpt lat="35.462225" lon="126.773582"><ele>429.2</ele></trkpt>
      <trkpt lat="35.462011" lon="126.772753"><ele>427.6</ele></trkpt>
      <trkpt lat="35.462024" lon="126.772394"><ele>432.5</ele></trkpt>
      <trkpt lat="35.461976" lon="126.772233"><ele>435.4</ele></trkpt>
      <trkpt lat="35.461351" lon="126.771702"><ele>432.3</ele></trkpt>
      <trkpt lat="35.461181" lon="126.771417"><ele>431.9</ele></trkpt>
      <trkpt lat="35.461142" lon="126.771165"><ele>429.8</ele></trkpt>
      <trkpt lat="35.461133" lon="126.770768"><ele>428.6</ele></trkpt>
      <trkpt lat="35.461181" lon="126.770473"><ele>427.9</ele></trkpt>
      <trkpt lat="35.461155" lon="126.770320"><ele>424.3</ele></trkpt>
      <trkpt lat="35.461644" lon="126.769846"><ele>432.1</ele></trkpt>
      <trkpt lat="35.461696" lon="126.769685"><ele>432.3</ele></trkpt>
      <trkpt lat="35.461495" lon="126.769314"><ele>421.6</ele></trkpt>
      <trkpt lat="35.461395" lon="126.768853"><ele>412.5</ele></trkpt>
      <trkpt lat="35.461054" lon="126.768526"><ele>400.6</ele></trkpt>
      <trkpt lat="35.460919" lon="126.768204"><ele>396.4</ele></trkpt>
      <trkpt lat="35.460897" lon="126.767973"><ele>394.3</ele></trkpt>
      <trkpt lat="35.460954" lon="126.767512"><ele>389.9</ele></trkpt>
      <trkpt lat="35.461107" lon="126.767019"><ele>383.0</ele></trkpt>
      <trkpt lat="35.461365" lon="126.766643"><ele>383.9</ele></trkpt>
      <trkpt lat="35.461395" lon="126.766455"><ele>382.2</ele></trkpt>
      <trkpt lat="35.461351" lon="126.766300"><ele>380.1</ele></trkpt>
      <trkpt lat="35.461242" lon="126.766096"><ele>377.5</ele></trkpt>
      <trkpt lat="35.460882" lon="126.765860"><ele>370.5</ele></trkpt>
      <trkpt lat="35.460436" lon="126.765331"><ele>366.9</ele></trkpt>
      <trkpt lat="35.460270" lon="126.765240"><ele>364.3</ele></trkpt>
      <trkpt lat="35.459737" lon="126.765117"><ele>357.0</ele></trkpt>
      <trkpt lat="35.459309" lon="126.764932"><ele>355.0</ele></trkpt>
      <trkpt lat="35.458889" lon="126.765208"><ele>345.0</ele></trkpt>
      <trkpt lat="35.458580" lon="126.765220"><ele>341.2</ele></trkpt>
      <trkpt lat="35.458082" lon="126.764804"><ele>342.1</ele></trkpt>
      <trkpt lat="35.458040" lon="126.764922"><ele>339.2</ele></trkpt>
      <trkpt lat="35.458214" lon="126.765236"><ele>335.2</ele></trkpt>
      <trkpt lat="35.458522" lon="126.765473"><ele>334.2</ele></trkpt>
      <trkpt lat="35.458743" lon="126.765506"><ele>335.7</ele></trkpt>
      <trkpt lat="35.458843" lon="126.765570"><ele>335.1</ele></trkpt>
      <trkpt lat="35.459298" lon="126.766208"><ele>327.0</ele></trkpt>
      <trkpt lat="35.459381" lon="126.766407"><ele>325.7</ele></trkpt>
      <trkpt lat="35.459486" lon="126.767244"><ele>322.6</ele></trkpt>
      <trkpt lat="35.459508" lon="126.767490"><ele>326.4</ele></trkpt>
      <trkpt lat="35.459468" lon="126.767700"><ele>326.5</ele></trkpt>
      <trkpt lat="35.459066" lon="126.768545"><ele>316.6</ele></trkpt>
      <trkpt lat="35.458671" lon="126.770259"><ele>312.7</ele></trkpt>
      <trkpt lat="35.458669" lon="126.770693"><ele>311.8</ele></trkpt>
      <trkpt lat="35.458749" lon="126.771128"><ele>315.1</ele></trkpt>
      <trkpt lat="35.458719" lon="126.771262"><ele>315.1</ele></trkpt>
      <trkpt lat="35.458583" lon="126.771396"><ele>313.7</ele></trkpt>
      <trkpt lat="35.458439" lon="126.771439"><ele>312.4</ele></trkpt>
      <trkpt lat="35.457185" lon="126.771385"><ele>285.1</ele></trkpt>
      <trkpt lat="35.456169" lon="126.771970"><ele>264.2</ele></trkpt>
      <trkpt lat="35.455758" lon="126.772522"><ele>257.8</ele></trkpt>
      <trkpt lat="35.455452" lon="126.772705"><ele>248.5</ele></trkpt>
      <trkpt lat="35.454981" lon="126.773351"><ele>240.1</ele></trkpt>
      <trkpt lat="35.454723" lon="126.773450"><ele>236.4</ele></trkpt>
      <trkpt lat="35.454351" lon="126.773472"><ele>228.3</ele></trkpt>
      <trkpt lat="35.453997" lon="126.773582"><ele>222.0</ele></trkpt>
      <trkpt lat="35.453561" lon="126.773885"><ele>222.2</ele></trkpt>
      <trkpt lat="35.453309" lon="126.774160"><ele>221.2</ele></trkpt>
      <trkpt lat="35.452665" lon="126.774529"><ele>221.1</ele></trkpt>
      <trkpt lat="35.452383" lon="126.774594"><ele>220.4</ele></trkpt>
      <trkpt lat="35.451813" lon="126.774444"><ele>220.4</ele></trkpt>
      <trkpt lat="35.451476" lon="126.774289"><ele>217.7</ele></trkpt>
      <trkpt lat="35.449950" lon="126.774193"><ele>207.8</ele></trkpt>
      <trkpt lat="35.449212" lon="126.774515"><ele>207.4</ele></trkpt>
      <trkpt lat="35.448932" lon="126.774708"><ele>209.0</ele></trkpt>
      <trkpt lat="35.448574" lon="126.774789"><ele>210.0</ele></trkpt>
      <trkpt lat="35.447916" lon="126.775231"><ele>211.0</ele></trkpt>
      <trkpt lat="35.447401" lon="126.775462"><ele>206.5</ele></trkpt>
      <trkpt lat="35.446649" lon="126.776009"><ele>197.3</ele></trkpt>
      <trkpt lat="35.446173" lon="126.776111"><ele>196.0</ele></trkpt>
      <trkpt lat="35.446011" lon="126.776009"><ele>192.3</ele></trkpt>
      <trkpt lat="35.445963" lon="126.775843"><ele>188.6</ele></trkpt>
      <trkpt lat="35.445976" lon="126.775521"><ele>181.3</ele></trkpt>
      <trkpt lat="35.446074" lon="126.775293"><ele>179.2</ele></trkpt>
      <trkpt lat="35.446101" lon="126.775084"><ele>176.2</ele></trkpt>
      <trkpt lat="35.446066" lon="126.774491"><ele>168.9</ele></trkpt>
      <trkpt lat="35.446004" lon="126.774325"><ele>166.7</ele></trkpt>
      <trkpt lat="35.445786" lon="126.774044"><ele>164.2</ele></trkpt>
      <trkpt lat="35.445572" lon="126.773890"><ele>165.9</ele></trkpt>
      <trkpt lat="35.443705" lon="126.773777"><ele>161.3</ele></trkpt>
      <trkpt lat="35.443337" lon="126.774145"><ele>158.1</ele></trkpt>
      <trkpt lat="35.442965" lon="126.774744"><ele>154.8</ele></trkpt>
      <trkpt lat="35.442756" lon="126.774899"><ele>153.1</ele></trkpt>
      <trkpt lat="35.442320" lon="126.775026"><ele>151.2</ele></trkpt>
      <trkpt lat="35.441850" lon="126.775081"><ele>150.4</ele></trkpt>
      <trkpt lat="35.441395" lon="126.775305"><ele>148.0</ele></trkpt>
      <trkpt lat="35.440985" lon="126.775803"><ele>146.5</ele></trkpt>
      <trkpt lat="35.440744" lon="126.775865"><ele>145.7</ele></trkpt>
      <trkpt lat="35.440473" lon="126.776140"><ele>144.7</ele></trkpt>
      <trkpt lat="35.438967" lon="126.777208"><ele>138.0</ele></trkpt>
      <trkpt lat="35.437993" lon="126.775183"><ele>142.1</ele></trkpt>
      <trkpt lat="35.435454" lon="126.777010"><ele>135.9</ele></trkpt>
      <trkpt lat="35.435410" lon="126.777102"><ele>136.6</ele></trkpt>
      <trkpt lat="35.435437" lon="126.777309"><ele>134.6</ele></trkpt>
      <trkpt lat="35.435381" lon="126.777403"><ele>134.7</ele></trkpt>
      <trkpt lat="35.435088" lon="126.777519"><ele>142.2</ele></trkpt>
      <trkpt lat="35.434963" lon="126.777753"><ele>143.2</ele></trkpt>
      <trkpt lat="35.434759" lon="126.778717"><ele>133.7</ele></trkpt>
      <trkpt lat="35.434123" lon="126.779187"><ele>132.1</ele></trkpt>
      <trkpt lat="35.433853" lon="126.779312"><ele>132.5</ele></trkpt>
      <trkpt lat="35.433547" lon="126.779153"><ele>134.9</ele></trkpt>
      <trkpt lat="35.433443" lon="126.779198"><ele>134.2</ele></trkpt>
      <trkpt lat="35.433233" lon="126.779447"><ele>132.3</ele></trkpt>
      <trkpt lat="35.432980" lon="126.779383"><ele>131.4</ele></trkpt>
      <trkpt lat="35.432608" lon="126.779404"><ele>131.3</ele></trkpt>
      <trkpt lat="35.432366" lon="126.779488"><ele>131.7</ele></trkpt>
      <trkpt lat="35.432245" lon="126.779620"><ele>131.6</ele></trkpt>
      <trkpt lat="35.432173" lon="126.780022"><ele>129.5</ele></trkpt>
      <trkpt lat="35.432108" lon="126.780083"><ele>130.2</ele></trkpt>
      <trkpt lat="35.431768" lon="126.781047"><ele>132.8</ele></trkpt>
      <trkpt lat="35.431705" lon="126.781497"><ele>132.5</ele></trkpt>
      <trkpt lat="35.430556" lon="126.780725"><ele>139.8</ele></trkpt>
      <trkpt lat="35.429688" lon="126.780237"><ele>146.6</ele></trkpt>
      <trkpt lat="35.428456" lon="126.779814"><ele>165.9</ele></trkpt>
      <trkpt lat="35.427317" lon="126.779546"><ele>192.9</ele></trkpt>
      <trkpt lat="35.426117" lon="126.778757"><ele>185.4</ele></trkpt>
      <trkpt lat="35.425521" lon="126.778432"><ele>185.5</ele></trkpt>
      <trkpt lat="35.424693" lon="126.778464"><ele>190.5</ele></trkpt>
      <trkpt lat="35.424149" lon="126.778619"><ele>188.0</ele></trkpt>
      <trkpt lat="35.422950" lon="126.779228"><ele>182.7</ele></trkpt>
      <trkpt lat="35.421307" lon="126.779790"><ele>161.0</ele></trkpt>
      <trkpt lat="35.420850" lon="126.780294"><ele>155.1</ele></trkpt>
      <trkpt lat="35.420525" lon="126.780513"><ele>151.5</ele></trkpt>
      <trkpt lat="35.420227" lon="126.780513"><ele>147.1</ele></trkpt>
      <trkpt lat="35.419962" lon="126.780383"><ele>144.1</ele></trkpt>
      <trkpt lat="35.419697" lon="126.780001"><ele>143.9</ele></trkpt>
      <trkpt lat="35.419432" lon="126.779879"><ele>143.0</ele></trkpt>
      <trkpt lat="35.418140" lon="126.779554"><ele>139.1</ele></trkpt>
      <trkpt lat="35.417808" lon="126.779546"><ele>139.2</ele></trkpt>
      <trkpt lat="35.417378" lon="126.779659"><ele>135.7</ele></trkpt>
      <trkpt lat="35.416761" lon="126.780017"><ele>133.0</ele></trkpt>
      <trkpt lat="35.414698" lon="126.781480"><ele>124.0</ele></trkpt>
      <trkpt lat="35.414193" lon="126.780323"><ele>124.9</ele></trkpt>
      <trkpt lat="35.413881" lon="126.779737"><ele>123.9</ele></trkpt>
      <trkpt lat="35.413835" lon="126.779544"><ele>124.1</ele></trkpt>
      <trkpt lat="35.413894" lon="126.778885"><ele>127.1</ele></trkpt>
      <trkpt lat="35.414079" lon="126.778157"><ele>130.4</ele></trkpt>
      <trkpt lat="35.414245" lon="126.777701"><ele>129.4</ele></trkpt>
      <trkpt lat="35.415585" lon="126.775296"><ele>131.9</ele></trkpt>
      <trkpt lat="35.415765" lon="126.775123"><ele>132.6</ele></trkpt>
      <trkpt lat="35.416591" lon="126.774792"><ele>136.1</ele></trkpt>
      <trkpt lat="35.416981" lon="126.774380"><ele>138.1</ele></trkpt>
      <trkpt lat="35.417864" lon="126.774236"><ele>136.1</ele></trkpt>
      <trkpt lat="35.419553" lon="126.773663"><ele>137.9</ele></trkpt>
      <trkpt lat="35.420358" lon="126.773559"><ele>141.8</ele></trkpt>
      <trkpt lat="35.420346" lon="126.773040"><ele>142.2</ele></trkpt>
      <trkpt lat="35.420215" lon="126.771956"><ele>148.7</ele></trkpt>
      <trkpt lat="35.420165" lon="126.771859"><ele>149.5</ele></trkpt>
      <trkpt lat="35.419893" lon="126.771839"><ele>149.4</ele></trkpt>
      <trkpt lat="35.419784" lon="126.771725"><ele>150.5</ele></trkpt>
      <trkpt lat="35.419746" lon="126.771564"><ele>152.6</ele></trkpt>
      <trkpt lat="35.419758" lon="126.771079"><ele>158.9</ele></trkpt>
      <trkpt lat="35.419436" lon="126.770383"><ele>160.7</ele></trkpt>
      <trkpt lat="35.419019" lon="126.769971"><ele>157.4</ele></trkpt>
      <trkpt lat="35.418709" lon="126.769410"><ele>157.6</ele></trkpt>
      <trkpt lat="35.418369" lon="126.769027"><ele>160.8</ele></trkpt>
      <trkpt lat="35.417845" lon="126.768194"><ele>173.5</ele></trkpt>
      <trkpt lat="35.417459" lon="126.767893"><ele>177.8</ele></trkpt>
      <trkpt lat="35.417264" lon="126.767627"><ele>181.0</ele></trkpt>
      <trkpt lat="35.417092" lon="126.767542"><ele>180.0</ele></trkpt>
      <trkpt lat="35.416906" lon="126.767355"><ele>183.9</ele></trkpt>
      <trkpt lat="35.416420" lon="126.767586"><ele>176.9</ele></trkpt>
      <trkpt lat="35.416304" lon="126.767580"><ele>179.1</ele></trkpt>
      <trkpt lat="35.415575" lon="126.767156"><ele>190.6</ele></trkpt>
      <trkpt lat="35.415335" lon="126.765628"><ele>191.3</ele></trkpt>
      <trkpt lat="35.415028" lon="126.765005"><ele>198.6</ele></trkpt>
      <trkpt lat="35.414927" lon="126.764376"><ele>197.8</ele></trkpt>
      <trkpt lat="35.414853" lon="126.764130"><ele>197.8</ele></trkpt>
      <trkpt lat="35.414749" lon="126.764005"><ele>197.2</ele></trkpt>
      <trkpt lat="35.414312" lon="126.763891"><ele>199.4</ele></trkpt>
      <trkpt lat="35.414052" lon="126.763904"><ele>205.3</ele></trkpt>
      <trkpt lat="35.413904" lon="126.763834"><ele>208.2</ele></trkpt>
      <trkpt lat="35.413053" lon="126.764187"><ele>223.6</ele></trkpt>
      <trkpt lat="35.412600" lon="126.764204"><ele>228.7</ele></trkpt>
      <trkpt lat="35.412364" lon="126.764275"><ele>232.2</ele></trkpt>
      <trkpt lat="35.412101" lon="126.764190"><ele>234.6</ele></trkpt>
      <trkpt lat="35.411941" lon="126.764197"><ele>237.9</ele></trkpt>
      <trkpt lat="35.411876" lon="126.764258"><ele>241.3</ele></trkpt>
      <trkpt lat="35.411481" lon="126.764035"><ele>246.5</ele></trkpt>
      <trkpt lat="35.411436" lon="126.763840"><ele>246.0</ele></trkpt>
      <trkpt lat="35.411686" lon="126.763606"><ele>247.8</ele></trkpt>
      <trkpt lat="35.412450" lon="126.763416"><ele>246.4</ele></trkpt>
      <trkpt lat="35.412555" lon="126.763264"><ele>249.8</ele></trkpt>
      <trkpt lat="35.413027" lon="126.763018"><ele>241.5</ele></trkpt>
      <trkpt lat="35.413039" lon="126.762951"><ele>240.4</ele></trkpt>
      <trkpt lat="35.412200" lon="126.762133"><ele>270.3</ele></trkpt>
      <trkpt lat="35.412042" lon="126.761925"><ele>272.2</ele></trkpt>
      <trkpt lat="35.412001" lon="126.761726"><ele>273.4</ele></trkpt>
      <trkpt lat="35.412037" lon="126.761640"><ele>272.6</ele></trkpt>
      <trkpt lat="35.412465" lon="126.761495"><ele>265.4</ele></trkpt>
      <trkpt lat="35.412558" lon="126.761414"><ele>264.5</ele></trkpt>
      <trkpt lat="35.412586" lon="126.761330"><ele>264.4</ele></trkpt>
      <trkpt lat="35.412534" lon="126.761040"><ele>266.3</ele></trkpt>
      <trkpt lat="35.412429" lon="126.760939"><ele>268.6</ele></trkpt>
      <trkpt lat="35.412152" lon="126.760889"><ele>276.5</ele></trkpt>
      <trkpt lat="35.412081" lon="126.760818"><ele>279.0</ele></trkpt>
      <trkpt lat="35.412051" lon="126.760582"><ele>278.6</ele></trkpt>
      <trkpt lat="35.411669" lon="126.760306"><ele>288.3</ele></trkpt>
      <trkpt lat="35.411524" lon="126.760098"><ele>286.2</ele></trkpt>
      <trkpt lat="35.411428" lon="126.760067"><ele>287.7</ele></trkpt>
      <trkpt lat="35.410989" lon="126.760226"><ele>294.0</ele></trkpt>
      <trkpt lat="35.410739" lon="126.760630"><ele>301.6</ele></trkpt>
      <trkpt lat="35.410585" lon="126.760643"><ele>302.2</ele></trkpt>
      <trkpt lat="35.410067" lon="126.760899"><ele>307.7</ele></trkpt>
      <trkpt lat="35.409919" lon="126.760731"><ele>305.7</ele></trkpt>
      <trkpt lat="35.409770" lon="126.760343"><ele>298.3</ele></trkpt>
      <trkpt lat="35.409567" lon="126.760071"><ele>293.3</ele></trkpt>
      <trkpt lat="35.409438" lon="126.759983"><ele>292.4</ele></trkpt>
      <trkpt lat="35.409340" lon="126.760000"><ele>292.2</ele></trkpt>
      <trkpt lat="35.409126" lon="126.760172"><ele>295.9</ele></trkpt>
      <trkpt lat="35.409035" lon="126.760158"><ele>295.6</ele></trkpt>
      <trkpt lat="35.408758" lon="126.759950"><ele>289.5</ele></trkpt>
      <trkpt lat="35.408475" lon="126.759966"><ele>288.7</ele></trkpt>
      <trkpt lat="35.408179" lon="126.760064"><ele>289.7</ele></trkpt>
      <trkpt lat="35.407924" lon="126.760057"><ele>291.2</ele></trkpt>
      <trkpt lat="35.407773" lon="126.760007"><ele>291.3</ele></trkpt>
      <trkpt lat="35.407449" lon="126.759700"><ele>286.2</ele></trkpt>
      <trkpt lat="35.406911" lon="126.759606"><ele>284.6</ele></trkpt>
      <trkpt lat="35.406765" lon="126.759694"><ele>284.8</ele></trkpt>
      <trkpt lat="35.406691" lon="126.759875"><ele>288.8</ele></trkpt>
      <trkpt lat="35.406411" lon="126.760135"><ele>285.8</ele></trkpt>
      <trkpt lat="35.406208" lon="126.760064"><ele>277.6</ele></trkpt>
      <trkpt lat="35.406071" lon="126.760087"><ele>274.0</ele></trkpt>
      <trkpt lat="35.405753" lon="126.760670"><ele>283.9</ele></trkpt>
      <trkpt lat="35.405651" lon="126.760764"><ele>287.0</ele></trkpt>
      <trkpt lat="35.405555" lon="126.760757"><ele>286.7</ele></trkpt>
      <trkpt lat="35.405451" lon="126.760596"><ele>280.8</ele></trkpt>
      <trkpt lat="35.405380" lon="126.760168"><ele>267.5</ele></trkpt>
      <trkpt lat="35.405284" lon="126.759882"><ele>263.4</ele></trkpt>
      <trkpt lat="35.405034" lon="126.759633"><ele>256.6</ele></trkpt>
      <trkpt lat="35.405075" lon="126.759572"><ele>254.0</ele></trkpt>
      <trkpt lat="35.405171" lon="126.759579"><ele>253.6</ele></trkpt>
      <trkpt lat="35.405286" lon="126.759667"><ele>256.4</ele></trkpt>
      <trkpt lat="35.405380" lon="126.759798"><ele>258.5</ele></trkpt>
      <trkpt lat="35.405520" lon="126.760162"><ele>263.0</ele></trkpt>
      <trkpt lat="35.405629" lon="126.760091"><ele>261.8</ele></trkpt>
      <trkpt lat="35.405808" lon="126.759660"><ele>253.8</ele></trkpt>
      <trkpt lat="35.406005" lon="126.759471"><ele>255.4</ele></trkpt>
      <trkpt lat="35.406060" lon="126.759131"><ele>251.8</ele></trkpt>
      <trkpt lat="35.406005" lon="126.758983"><ele>248.7</ele></trkpt>
      <trkpt lat="35.405827" lon="126.758808"><ele>241.8</ele></trkpt>
      <trkpt lat="35.405679" lon="126.758572"><ele>238.0</ele></trkpt>
      <trkpt lat="35.405670" lon="126.758471"><ele>236.1</ele></trkpt>
      <trkpt lat="35.405753" lon="126.758333"><ele>234.8</ele></trkpt>
      <trkpt lat="35.405986" lon="126.758280"><ele>235.7</ele></trkpt>
      <trkpt lat="35.406376" lon="126.758020"><ele>236.1</ele></trkpt>
      <trkpt lat="35.406461" lon="126.757909"><ele>236.2</ele></trkpt>
      <trkpt lat="35.406447" lon="126.757488"><ele>230.8</ele></trkpt>
      <trkpt lat="35.406594" lon="126.757342"><ele>230.4</ele></trkpt>
      <trkpt lat="35.406950" lon="126.757244"><ele>231.6</ele></trkpt>
      <trkpt lat="35.407566" lon="126.757557"><ele>227.7</ele></trkpt>
      <trkpt lat="35.408210" lon="126.757441"><ele>219.7</ele></trkpt>
      <trkpt lat="35.408709" lon="126.757570"><ele>223.3</ele></trkpt>
      <trkpt lat="35.408811" lon="126.757508"><ele>221.9</ele></trkpt>
      <trkpt lat="35.408756" lon="126.757351"><ele>220.8</ele></trkpt>
      <trkpt lat="35.408260" lon="126.756966"><ele>211.1</ele></trkpt>
      <trkpt lat="35.408269" lon="126.756692"><ele>214.6</ele></trkpt>
      <trkpt lat="35.407674" lon="126.755523"><ele>212.6</ele></trkpt>
      <trkpt lat="35.407705" lon="126.755362"><ele>212.2</ele></trkpt>
      <trkpt lat="35.407849" lon="126.755281"><ele>214.3</ele></trkpt>
      <trkpt lat="35.408077" lon="126.755249"><ele>218.1</ele></trkpt>
      <trkpt lat="35.408698" lon="126.755464"><ele>233.9</ele></trkpt>
      <trkpt lat="35.408942" lon="126.755335"><ele>234.8</ele></trkpt>
      <trkpt lat="35.409012" lon="126.755158"><ele>233.5</ele></trkpt>
      <trkpt lat="35.409152" lon="126.754348"><ele>238.2</ele></trkpt>
      <trkpt lat="35.409248" lon="126.754176"><ele>239.8</ele></trkpt>
      <trkpt lat="35.409856" lon="126.753785"><ele>246.7</ele></trkpt>
      <trkpt lat="35.409974" lon="126.753619"><ele>249.2</ele></trkpt>
      <trkpt lat="35.410123" lon="126.752578"><ele>243.1</ele></trkpt>
      <trkpt lat="35.410184" lon="126.752385"><ele>244.2</ele></trkpt>
      <trkpt lat="35.410298" lon="126.752213"><ele>247.6</ele></trkpt>
      <trkpt lat="35.410477" lon="126.752133"><ele>252.2</ele></trkpt>
      <trkpt lat="35.410648" lon="126.752138"><ele>255.1</ele></trkpt>
      <trkpt lat="35.410932" lon="126.752315"><ele>260.6</ele></trkpt>
      <trkpt lat="35.411321" lon="126.752449"><ele>263.3</ele></trkpt>
      <trkpt lat="35.411434" lon="126.752374"><ele>262.7</ele></trkpt>
      <trkpt lat="35.411697" lon="126.751816"><ele>260.4</ele></trkpt>
      <trkpt lat="35.411876" lon="126.751709"><ele>263.2</ele></trkpt>
      <trkpt lat="35.412326" lon="126.751591"><ele>268.2</ele></trkpt>
      <trkpt lat="35.412562" lon="126.751360"><ele>268.7</ele></trkpt>
      <trkpt lat="35.412772" lon="126.750995"><ele>272.8</ele></trkpt>
      <trkpt lat="35.412768" lon="126.750770"><ele>273.1</ele></trkpt>
      <trkpt lat="35.412681" lon="126.750427"><ele>270.1</ele></trkpt>
      <trkpt lat="35.412698" lon="126.750185"><ele>267.9</ele></trkpt>
      <trkpt lat="35.412842" lon="126.749896"><ele>266.7</ele></trkpt>
      <trkpt lat="35.413122" lon="126.749740"><ele>271.3</ele></trkpt>
      <trkpt lat="35.413769" lon="126.749788"><ele>285.9</ele></trkpt>
      <trkpt lat="35.413900" lon="126.749697"><ele>285.8</ele></trkpt>
      <trkpt lat="35.413944" lon="126.749515"><ele>284.2</ele></trkpt>
      <trkpt lat="35.413634" lon="126.748506"><ele>282.0</ele></trkpt>
      <trkpt lat="35.413625" lon="126.748351"><ele>283.4</ele></trkpt>
      <trkpt lat="35.413653" lon="126.748255"><ele>285.7</ele></trkpt>
      <trkpt lat="35.413716" lon="126.748338"><ele>287.1</ele></trkpt>
      <trkpt lat="35.413785" lon="126.748326"><ele>289.9</ele></trkpt>
      <trkpt lat="35.413890" lon="126.747962"><ele>295.0</ele></trkpt>
      <trkpt lat="35.414137" lon="126.747965"><ele>301.8</ele></trkpt>
      <trkpt lat="35.414268" lon="126.747911"><ele>305.4</ele></trkpt>
      <trkpt lat="35.414439" lon="126.748011"><ele>311.3</ele></trkpt>
      <trkpt lat="35.414580" lon="126.748021"><ele>313.5</ele></trkpt>
      <trkpt lat="35.414701" lon="126.748002"><ele>314.8</ele></trkpt>
      <trkpt lat="35.414742" lon="126.747919"><ele>313.3</ele></trkpt>
      <trkpt lat="35.414828" lon="126.747951"><ele>313.0</ele></trkpt>
      <trkpt lat="35.414873" lon="126.748126"><ele>314.9</ele></trkpt>
      <trkpt lat="35.415358" lon="126.748607"><ele>321.6</ele></trkpt>
      <trkpt lat="35.415414" lon="126.748811"><ele>324.4</ele></trkpt>
      <trkpt lat="35.415823" lon="126.749423"><ele>338.4</ele></trkpt>
      <trkpt lat="35.415976" lon="126.749790"><ele>344.2</ele></trkpt>
      <trkpt lat="35.416051" lon="126.750383"><ele>353.5</ele></trkpt>
      <trkpt lat="35.416020" lon="126.750587"><ele>357.1</ele></trkpt>
      <trkpt lat="35.416348" lon="126.751638"><ele>370.2</ele></trkpt>
      <trkpt lat="35.416363" lon="126.752185"><ele>379.0</ele></trkpt>
      <trkpt lat="35.416313" lon="126.752671"><ele>387.4</ele></trkpt>
      <trkpt lat="35.416112" lon="126.753197"><ele>403.1</ele></trkpt>
      <trkpt lat="35.416197" lon="126.753532"><ele>413.3</ele></trkpt>
      <trkpt lat="35.416446" lon="126.753931"><ele>415.1</ele></trkpt>
      <trkpt lat="35.416619" lon="126.754122"><ele>414.6</ele></trkpt>
      <trkpt lat="35.417408" lon="126.754476"><ele>411.6</ele></trkpt>
      <trkpt lat="35.417718" lon="126.754524"><ele>408.1</ele></trkpt>
    </trkseg>
  </trk>
</gpx>
