<?xml version="1.0" encoding="UTF-8"?>
<gpx version="1.1" creator="kr-100-mountains route-harvester"
     xmlns="http://www.topografix.com/GPX/1/1"
     xmlns:k100="https://github.com/jay-jang/kr-100-mountains/ns/1"
     xmlns:xsi="http://www.w3.org/2001/XMLSchema-instance"
     xsi:schemaLocation="http://www.topografix.com/GPX/1/1 http://www.topografix.com/GPX/1/1/gpx.xsd">
  <metadata>
    <name>방장산 · 자연휴양림 코스 (대안 1) (OSM 계산 경로)</name>
    <desc>실제 GPS 기록이 아닙니다. OpenStreetMap에 등록된 등산로 선형 위에서 계산한 경로이며, 현장 통제·훼손·출입 제한·계절 통제를 반영하지 않을 수 있습니다. 산행 전 공식 안내를 확인하세요.</desc>
    <time>2026-08-04T05:35:44.377Z</time>
    <link href="https://www.openstreetmap.org/copyright"><text>© OpenStreetMap contributors (ODbL 1.0)</text></link>
    <link href="https://registry.opendata.aws/terrain-tiles/"><text>Elevation: SRTM 1 arc-second (NASA/USGS) via AWS Terrain Tiles</text></link>
    <extensions>
      <k100:provenance>osm-routed</k100:provenance>
      <k100:not_a_recorded_track>true</k100:not_a_recorded_track>
      <k100:mountain_id>bangjangsan</k100:mountain_id>
      <k100:mountain_name>방장산</k100:mountain_name>
      <k100:route_id>bangjangsan-fe9da6bf</k100:route_id>
      <k100:route_index>1</k100:route_index>
      <k100:route_name>자연휴양림 코스</k100:route_name>
      <k100:variant>1</k100:variant>
      <k100:source>OpenStreetMap via Overpass API</k100:source>
      <k100:license>ODbL-1.0</k100:license>
      <k100:attribution>© OpenStreetMap contributors</k100:attribution>
      <k100:elevation_source>SRTM 1 arc-second (NASA/USGS) — AWS Terrain Tiles 배포본. 지형 DEM 추정 고도이며 실측 아님</k100:elevation_source>
      <k100:algorithm>dijkstra-grid-v1</k100:algorithm>
      <k100:osm_snapshot>2026-08-04</k100:osm_snapshot>
      <k100:snap_trailhead_m>10</k100:snap_trailhead_m>
      <k100:snap_summit_m>92</k100:snap_summit_m>
      <k100:validation_score>93</k100:validation_score>
      <k100:validation_status>accepted</k100:validation_status>
    </extensions>
  </metadata>
  <trk>
    <name>방장산 · 자연휴양림 코스 (대안 1) (OSM 계산 경로)</name>
    <desc>실제 GPS 기록이 아닙니다. OpenStreetMap에 등록된 등산로 선형 위에서 계산한 경로이며, 현장 통제·훼손·출입 제한·계절 통제를 반영하지 않을 수 있습니다. 산행 전 공식 안내를 확인하세요.</desc>
    <trkseg>
      <trkpt lat="35.443999" lon="126.751574"><ele>280.4</ele></trkpt>
      <trkpt lat="35.443888" lon="126.751412"><ele>280.6</ele></trkpt>
      <trkpt lat="35.443623" lon="126.751515"><ele>277.4</ele></trkpt>
      <trkpt lat="35.443136" lon="126.752277"><ele>268.8</ele></trkpt>
      <trkpt lat="35.443074" lon="126.752206"><ele>271.3</ele></trkpt>
      <trkpt lat="35.442861" lon="126.752180"><ele>275.3</ele></trkpt>
      <trkpt lat="35.442711" lon="126.752240"><ele>276.2</ele></trkpt>
      <trkpt lat="35.441443" lon="126.753296"><ele>281.4</ele></trkpt>
      <trkpt lat="35.440623" lon="126.753536"><ele>289.2</ele></trkpt>
      <trkpt lat="35.440389" lon="126.753912"><ele>287.6</ele></trkpt>
      <trkpt lat="35.440159" lon="126.754172"><ele>284.5</ele></trkpt>
      <trkpt lat="35.439979" lon="126.754272"><ele>282.7</ele></trkpt>
      <trkpt lat="35.439809" lon="126.754212"><ele>283.5</ele></trkpt>
      <trkpt lat="35.439413" lon="126.753614"><ele>293.4</ele></trkpt>
      <trkpt lat="35.439253" lon="126.753461"><ele>297.3</ele></trkpt>
      <trkpt lat="35.438996" lon="126.753352"><ele>298.8</ele></trkpt>
      <trkpt lat="35.438604" lon="126.753402"><ele>297.9</ele></trkpt>
      <trkpt lat="35.438438" lon="126.753341"><ele>296.7</ele></trkpt>
      <trkpt lat="35.437068" lon="126.752350"><ele>304.5</ele></trkpt>
      <trkpt lat="35.436277" lon="126.751582"><ele>312.7</ele></trkpt>
      <trkpt lat="35.436160" lon="126.751523"><ele>313.1</ele></trkpt>
      <trkpt lat="35.435639" lon="126.751589"><ele>308.9</ele></trkpt>
      <trkpt lat="35.435122" lon="126.751542"><ele>304.9</ele></trkpt>
      <trkpt lat="35.434701" lon="126.751617"><ele>306.4</ele></trkpt>
      <trkpt lat="35.434519" lon="126.751518"><ele>305.4</ele></trkpt>
      <trkpt lat="35.434257" lon="126.751472"><ele>303.8</ele></trkpt>
      <trkpt lat="35.433713" lon="126.751601"><ele>299.9</ele></trkpt>
      <trkpt lat="35.433304" lon="126.751496"><ele>300.1</ele></trkpt>
      <trkpt lat="35.432537" lon="126.751477"><ele>300.5</ele></trkpt>
      <trkpt lat="35.431073" lon="126.751872"><ele>329.7</ele></trkpt>
      <trkpt lat="35.430210" lon="126.752432"><ele>366.3</ele></trkpt>
      <trkpt lat="35.430022" lon="126.752443"><ele>369.6</ele></trkpt>
      <trkpt lat="35.429869" lon="126.752344"><ele>369.4</ele></trkpt>
      <trkpt lat="35.429333" lon="126.751721"><ele>355.7</ele></trkpt>
      <trkpt lat="35.429224" lon="126.751703"><ele>356.2</ele></trkpt>
      <trkpt lat="35.428964" lon="126.751998"><ele>371.4</ele></trkpt>
      <trkpt lat="35.428717" lon="126.752185"><ele>373.8</ele></trkpt>
      <trkpt lat="35.428511" lon="126.752448"><ele>374.2</ele></trkpt>
      <trkpt lat="35.428323" lon="126.752572"><ele>370.4</ele></trkpt>
      <trkpt lat="35.427858" lon="126.752553"><ele>367.5</ele></trkpt>
      <trkpt lat="35.427519" lon="126.752285"><ele>364.8</ele></trkpt>
      <trkpt lat="35.427169" lon="126.752164"><ele>366.9</ele></trkpt>
      <trkpt lat="35.426931" lon="126.752215"><ele>367.7</ele></trkpt>
      <trkpt lat="35.426481" lon="126.752113"><ele>361.5</ele></trkpt>
      <trkpt lat="35.426024" lon="126.752132"><ele>366.0</ele></trkpt>
      <trkpt lat="35.425906" lon="126.752188"><ele>368.4</ele></trkpt>
      <trkpt lat="35.425259" lon="126.752252"><ele>370.7</ele></trkpt>
      <trkpt lat="35.425119" lon="126.752161"><ele>373.0</ele></trkpt>
      <trkpt lat="35.425021" lon="126.752180"><ele>374.7</ele></trkpt>
      <trkpt lat="35.424669" lon="126.751941"><ele>379.7</ele></trkpt>
      <trkpt lat="35.424282" lon="126.751995"><ele>376.3</ele></trkpt>
      <trkpt lat="35.423867" lon="126.751936"><ele>372.1</ele></trkpt>
      <trkpt lat="35.422820" lon="126.752011"><ele>369.9</ele></trkpt>
      <trkpt lat="35.422650" lon="126.752199"><ele>366.2</ele></trkpt>
      <trkpt lat="35.422210" lon="126.752478"><ele>359.9</ele></trkpt>
      <trkpt lat="35.422051" lon="126.752521"><ele>359.3</ele></trkpt>
      <trkpt lat="35.421797" lon="126.752861"><ele>357.8</ele></trkpt>
      <trkpt lat="35.421552" lon="126.752982"><ele>359.2</ele></trkpt>
      <trkpt lat="35.421465" lon="126.753111"><ele>360.0</ele></trkpt>
      <trkpt lat="35.420951" lon="126.753218"><ele>364.8</ele></trkpt>
      <trkpt lat="35.420792" lon="126.753478"><ele>368.9</ele></trkpt>
      <trkpt lat="35.420250" lon="126.753846"><ele>387.9</ele></trkpt>
      <trkpt lat="35.419688" lon="126.754626"><ele>400.6</ele></trkpt>
      <trkpt lat="35.419170" lon="126.754674"><ele>405.0</ele></trkpt>
      <trkpt lat="35.418967" lon="126.754479"><ele>407.3</ele></trkpt>
      <trkpt lat="35.418796" lon="126.754197"><ele>404.3</ele></trkpt>
      <trkpt lat="35.418674" lon="126.754133"><ele>402.2</ele></trkpt>
      <trkpt lat="35.418532" lon="126.754200"><ele>401.8</ele></trkpt>
      <trkpt lat="35.418418" lon="126.754181"><ele>400.8</ele></trkpt>
      <trkpt lat="35.417718" lon="126.754524"><ele>408.1</ele></trkpt>
    </trkseg>
  </trk>
</gpx>
