<?xml version="1.0" encoding="UTF-8"?>
<gpx version="1.1" creator="kr-100-mountains route-harvester"
     xmlns="http://www.topografix.com/GPX/1/1"
     xmlns:k100="https://github.com/jay-jang/kr-100-mountains/ns/1"
     xmlns:xsi="http://www.w3.org/2001/XMLSchema-instance"
     xsi:schemaLocation="http://www.topografix.com/GPX/1/1 http://www.topografix.com/GPX/1/1/gpx.xsd">
  <metadata>
    <name>병풍산 · 한재-투구봉-병풍산 원점회귀 (대안 1) (OSM 계산 경로)</name>
    <desc>실제 GPS 기록이 아닙니다. OpenStreetMap에 등록된 등산로 선형 위에서 계산한 경로이며, 현장 통제·훼손·출입 제한·계절 통제를 반영하지 않을 수 있습니다. 산행 전 공식 안내를 확인하세요.</desc>
    <time>2026-08-04T05:32:04.026Z</time>
    <link href="https://www.openstreetmap.org/copyright"><text>© OpenStreetMap contributors (ODbL 1.0)</text></link>
    <link href="https://registry.opendata.aws/terrain-tiles/"><text>Elevation: SRTM 1 arc-second (NASA/USGS) via AWS Terrain Tiles</text></link>
    <extensions>
      <k100:provenance>osm-routed</k100:provenance>
      <k100:not_a_recorded_track>true</k100:not_a_recorded_track>
      <k100:mountain_id>byeongpungsan</k100:mountain_id>
      <k100:mountain_name>병풍산</k100:mountain_name>
      <k100:route_id>byeongpungsan-3dc37fa7</k100:route_id>
      <k100:route_index>2</k100:route_index>
      <k100:route_name>한재-투구봉-병풍산 원점회귀</k100:route_name>
      <k100:variant>1</k100:variant>
      <k100:source>OpenStreetMap via Overpass API</k100:source>
      <k100:license>ODbL-1.0</k100:license>
      <k100:attribution>© OpenStreetMap contributors</k100:attribution>
      <k100:elevation_source>SRTM 1 arc-second (NASA/USGS) — AWS Terrain Tiles 배포본. 지형 DEM 추정 고도이며 실측 아님</k100:elevation_source>
      <k100:algorithm>dijkstra-grid-v1</k100:algorithm>
      <k100:osm_snapshot>2026-08-04</k100:osm_snapshot>
      <k100:snap_trailhead_m>40</k100:snap_trailhead_m>
      <k100:snap_summit_m>16</k100:snap_summit_m>
      <k100:validation_score>75</k100:validation_score>
      <k100:validation_status>review</k100:validation_status>
    </extensions>
  </metadata>
  <trk>
    <name>병풍산 · 한재-투구봉-병풍산 원점회귀 (대안 1) (OSM 계산 경로)</name>
    <desc>실제 GPS 기록이 아닙니다. OpenStreetMap에 등록된 등산로 선형 위에서 계산한 경로이며, 현장 통제·훼손·출입 제한·계절 통제를 반영하지 않을 수 있습니다. 산행 전 공식 안내를 확인하세요.</desc>
    <trkseg>
      <trkpt lat="35.309865" lon="126.877314"><ele>308.0</ele></trkpt>
      <trkpt lat="35.309801" lon="126.877235"><ele>306.3</ele></trkpt>
      <trkpt lat="35.309691" lon="126.876791"><ele>298.2</ele></trkpt>
      <trkpt lat="35.309778" lon="126.876417"><ele>289.7</ele></trkpt>
      <trkpt lat="35.309625" lon="126.875712"><ele>276.5</ele></trkpt>
      <trkpt lat="35.309770" lon="126.875436"><ele>271.0</ele></trkpt>
      <trkpt lat="35.309691" lon="126.875246"><ele>265.4</ele></trkpt>
      <trkpt lat="35.309630" lon="126.874720"><ele>251.6</ele></trkpt>
      <trkpt lat="35.310164" lon="126.874552"><ele>258.2</ele></trkpt>
      <trkpt lat="35.310542" lon="126.874529"><ele>260.3</ele></trkpt>
      <trkpt lat="35.310778" lon="126.874588"><ele>261.9</ele></trkpt>
      <trkpt lat="35.311053" lon="126.874701"><ele>265.4</ele></trkpt>
      <trkpt lat="35.311780" lon="126.875263"><ele>273.2</ele></trkpt>
      <trkpt lat="35.312191" lon="126.875510"><ele>281.1</ele></trkpt>
      <trkpt lat="35.312337" lon="126.875493"><ele>281.1</ele></trkpt>
      <trkpt lat="35.312678" lon="126.875711"><ele>286.6</ele></trkpt>
      <trkpt lat="35.313096" lon="126.875724"><ele>292.1</ele></trkpt>
      <trkpt lat="35.313403" lon="126.875858"><ele>299.3</ele></trkpt>
      <trkpt lat="35.313669" lon="126.876235"><ele>307.8</ele></trkpt>
      <trkpt lat="35.313753" lon="126.876482"><ele>312.8</ele></trkpt>
      <trkpt lat="35.314053" lon="126.877030"><ele>328.7</ele></trkpt>
      <trkpt lat="35.314517" lon="126.877371"><ele>342.4</ele></trkpt>
      <trkpt lat="35.315021" lon="126.877957"><ele>359.6</ele></trkpt>
      <trkpt lat="35.315138" lon="126.878336"><ele>370.0</ele></trkpt>
      <trkpt lat="35.315422" lon="126.878922"><ele>386.0</ele></trkpt>
      <trkpt lat="35.315590" lon="126.879093"><ele>392.8</ele></trkpt>
      <trkpt lat="35.315614" lon="126.879274"><ele>395.3</ele></trkpt>
      <trkpt lat="35.315796" lon="126.879327"><ele>401.0</ele></trkpt>
      <trkpt lat="35.315878" lon="126.879433"><ele>403.9</ele></trkpt>
      <trkpt lat="35.315893" lon="126.879601"><ele>407.5</ele></trkpt>
      <trkpt lat="35.315721" lon="126.880020"><ele>415.3</ele></trkpt>
      <trkpt lat="35.315782" lon="126.880359"><ele>426.1</ele></trkpt>
      <trkpt lat="35.315806" lon="126.880997"><ele>444.2</ele></trkpt>
      <trkpt lat="35.315888" lon="126.881134"><ele>450.0</ele></trkpt>
      <trkpt lat="35.315928" lon="126.881404"><ele>455.3</ele></trkpt>
      <trkpt lat="35.315851" lon="126.881700"><ele>453.1</ele></trkpt>
      <trkpt lat="35.315940" lon="126.881785"><ele>453.6</ele></trkpt>
      <trkpt lat="35.316117" lon="126.882127"><ele>447.5</ele></trkpt>
      <trkpt lat="35.316665" lon="126.882710"><ele>446.6</ele></trkpt>
      <trkpt lat="35.316789" lon="126.883035"><ele>442.9</ele></trkpt>
      <trkpt lat="35.317174" lon="126.883598"><ele>441.2</ele></trkpt>
      <trkpt lat="35.317279" lon="126.884004"><ele>432.8</ele></trkpt>
      <trkpt lat="35.317283" lon="126.884274"><ele>427.2</ele></trkpt>
      <trkpt lat="35.317580" lon="126.884805"><ele>431.5</ele></trkpt>
      <trkpt lat="35.317587" lon="126.884920"><ele>431.4</ele></trkpt>
      <trkpt lat="35.317519" lon="126.885048"><ele>428.4</ele></trkpt>
      <trkpt lat="35.316908" lon="126.885640"><ele>411.2</ele></trkpt>
      <trkpt lat="35.316843" lon="126.885845"><ele>407.8</ele></trkpt>
      <trkpt lat="35.316843" lon="126.886063"><ele>403.9</ele></trkpt>
      <trkpt lat="35.317102" lon="126.886449"><ele>402.2</ele></trkpt>
      <trkpt lat="35.317298" lon="126.887465"><ele>386.4</ele></trkpt>
      <trkpt lat="35.317647" lon="126.888534"><ele>369.3</ele></trkpt>
      <trkpt lat="35.317818" lon="126.888866"><ele>367.7</ele></trkpt>
      <trkpt lat="35.317756" lon="126.889717"><ele>353.4</ele></trkpt>
      <trkpt lat="35.317930" lon="126.890135"><ele>354.0</ele></trkpt>
      <trkpt lat="35.318072" lon="126.890907"><ele>345.5</ele></trkpt>
      <trkpt lat="35.318256" lon="126.891112"><ele>344.7</ele></trkpt>
      <trkpt lat="35.318682" lon="126.891210"><ele>350.0</ele></trkpt>
      <trkpt lat="35.318794" lon="126.891394"><ele>347.6</ele></trkpt>
      <trkpt lat="35.318544" lon="126.892166"><ele>338.5</ele></trkpt>
      <trkpt lat="35.318351" lon="126.892550"><ele>327.1</ele></trkpt>
      <trkpt lat="35.318604" lon="126.893041"><ele>331.8</ele></trkpt>
      <trkpt lat="35.318521" lon="126.894100"><ele>323.3</ele></trkpt>
      <trkpt lat="35.318734" lon="126.894993"><ele>313.3</ele></trkpt>
      <trkpt lat="35.318676" lon="126.894947"><ele>311.5</ele></trkpt>
      <trkpt lat="35.318398" lon="126.894370"><ele>313.3</ele></trkpt>
      <trkpt lat="35.318190" lon="126.893184"><ele>313.7</ele></trkpt>
      <trkpt lat="35.318066" lon="126.893025"><ele>310.6</ele></trkpt>
      <trkpt lat="35.317749" lon="126.892835"><ele>301.4</ele></trkpt>
      <trkpt lat="35.317767" lon="126.892648"><ele>304.5</ele></trkpt>
      <trkpt lat="35.317922" lon="126.892347"><ele>311.8</ele></trkpt>
      <trkpt lat="35.317917" lon="126.892148"><ele>312.5</ele></trkpt>
      <trkpt lat="35.317559" lon="126.891794"><ele>305.6</ele></trkpt>
      <trkpt lat="35.317297" lon="126.891157"><ele>308.4</ele></trkpt>
      <trkpt lat="35.317059" lon="126.890999"><ele>305.7</ele></trkpt>
      <trkpt lat="35.316741" lon="126.891104"><ele>298.3</ele></trkpt>
      <trkpt lat="35.316358" lon="126.891047"><ele>291.2</ele></trkpt>
      <trkpt lat="35.316282" lon="126.891081"><ele>289.2</ele></trkpt>
      <trkpt lat="35.316322" lon="126.891187"><ele>287.2</ele></trkpt>
      <trkpt lat="35.316791" lon="126.891377"><ele>290.2</ele></trkpt>
      <trkpt lat="35.316903" lon="126.891665"><ele>288.1</ele></trkpt>
      <trkpt lat="35.316946" lon="126.892001"><ele>286.4</ele></trkpt>
      <trkpt lat="35.316715" lon="126.892283"><ele>278.4</ele></trkpt>
      <trkpt lat="35.316639" lon="126.892487"><ele>274.5</ele></trkpt>
      <trkpt lat="35.316646" lon="126.892664"><ele>272.6</ele></trkpt>
      <trkpt lat="35.316786" lon="126.892812"><ele>272.4</ele></trkpt>
      <trkpt lat="35.317142" lon="126.892950"><ele>278.5</ele></trkpt>
      <trkpt lat="35.317225" lon="126.893033"><ele>279.5</ele></trkpt>
      <trkpt lat="35.317012" lon="126.893447"><ele>266.7</ele></trkpt>
      <trkpt lat="35.317014" lon="126.893521"><ele>266.1</ele></trkpt>
      <trkpt lat="35.317169" lon="126.893792"><ele>268.6</ele></trkpt>
      <trkpt lat="35.317290" lon="126.894183"><ele>266.4</ele></trkpt>
      <trkpt lat="35.317138" lon="126.894797"><ele>249.5</ele></trkpt>
      <trkpt lat="35.317124" lon="126.895035"><ele>246.7</ele></trkpt>
      <trkpt lat="35.317173" lon="126.895173"><ele>247.7</ele></trkpt>
      <trkpt lat="35.317433" lon="126.895482"><ele>253.3</ele></trkpt>
      <trkpt lat="35.317400" lon="126.895868"><ele>248.2</ele></trkpt>
      <trkpt lat="35.317313" lon="126.895873"><ele>245.0</ele></trkpt>
      <trkpt lat="35.317090" lon="126.895639"><ele>240.2</ele></trkpt>
      <trkpt lat="35.316947" lon="126.895415"><ele>237.6</ele></trkpt>
      <trkpt lat="35.316878" lon="126.895164"><ele>238.4</ele></trkpt>
    </trkseg>
  </trk>
</gpx>
