<?xml version="1.0" encoding="UTF-8"?>
<gpx version="1.1" creator="kr-100-mountains route-harvester"
     xmlns="http://www.topografix.com/GPX/1/1"
     xmlns:k100="https://github.com/jay-jang/kr-100-mountains/ns/1"
     xmlns:xsi="http://www.w3.org/2001/XMLSchema-instance"
     xsi:schemaLocation="http://www.topografix.com/GPX/1/1 http://www.topografix.com/GPX/1/1/gpx.xsd">
  <metadata>
    <name>병풍산 · 대방저수지-정상 순환코스 (OSM 계산 경로)</name>
    <desc>실제 GPS 기록이 아닙니다. OpenStreetMap에 등록된 등산로 선형 위에서 계산한 경로이며, 현장 통제·훼손·출입 제한·계절 통제를 반영하지 않을 수 있습니다. 산행 전 공식 안내를 확인하세요.</desc>
    <time>2026-08-04T05:32:03.963Z</time>
    <link href="https://www.openstreetmap.org/copyright"><text>© OpenStreetMap contributors (ODbL 1.0)</text></link>
    <link href="https://registry.opendata.aws/terrain-tiles/"><text>Elevation: SRTM 1 arc-second (NASA/USGS) via AWS Terrain Tiles</text></link>
    <extensions>
      <k100:provenance>osm-routed</k100:provenance>
      <k100:not_a_recorded_track>true</k100:not_a_recorded_track>
      <k100:mountain_id>byeongpungsan</k100:mountain_id>
      <k100:mountain_name>병풍산</k100:mountain_name>
      <k100:route_id>byeongpungsan-f9717756</k100:route_id>
      <k100:route_index>1</k100:route_index>
      <k100:route_name>대방저수지-정상 순환코스</k100:route_name>
      <k100:variant>0</k100:variant>
      <k100:source>OpenStreetMap via Overpass API</k100:source>
      <k100:license>ODbL-1.0</k100:license>
      <k100:attribution>© OpenStreetMap contributors</k100:attribution>
      <k100:elevation_source>SRTM 1 arc-second (NASA/USGS) — AWS Terrain Tiles 배포본. 지형 DEM 추정 고도이며 실측 아님</k100:elevation_source>
      <k100:algorithm>dijkstra-grid-v1</k100:algorithm>
      <k100:osm_snapshot>2026-08-04</k100:osm_snapshot>
      <k100:snap_trailhead_m>26</k100:snap_trailhead_m>
      <k100:snap_summit_m>16</k100:snap_summit_m>
      <k100:validation_score>84</k100:validation_score>
      <k100:validation_status>accepted</k100:validation_status>
    </extensions>
  </metadata>
  <trk>
    <name>병풍산 · 대방저수지-정상 순환코스 (OSM 계산 경로)</name>
    <desc>실제 GPS 기록이 아닙니다. OpenStreetMap에 등록된 등산로 선형 위에서 계산한 경로이며, 현장 통제·훼손·출입 제한·계절 통제를 반영하지 않을 수 있습니다. 산행 전 공식 안내를 확인하세요.</desc>
    <trkseg>
      <trkpt lat="35.269619" lon="126.915096"><ele>30.4</ele></trkpt>
      <trkpt lat="35.269591" lon="126.915269"><ele>30.0</ele></trkpt>
      <trkpt lat="35.269087" lon="126.916438"><ele>29.1</ele></trkpt>
      <trkpt lat="35.276347" lon="126.916425"><ele>32.3</ele></trkpt>
      <trkpt lat="35.276441" lon="126.917068"><ele>33.0</ele></trkpt>
      <trkpt lat="35.276855" lon="126.916983"><ele>33.0</ele></trkpt>
      <trkpt lat="35.277346" lon="126.916463"><ele>33.4</ele></trkpt>
      <trkpt lat="35.277582" lon="126.916363"><ele>34.3</ele></trkpt>
      <trkpt lat="35.277915" lon="126.916496"><ele>34.8</ele></trkpt>
      <trkpt lat="35.278367" lon="126.916947"><ele>34.8</ele></trkpt>
      <trkpt lat="35.278453" lon="126.917251"><ele>34.6</ele></trkpt>
      <trkpt lat="35.279443" lon="126.917031"><ele>35.0</ele></trkpt>
      <trkpt lat="35.279560" lon="126.917096"><ele>35.4</ele></trkpt>
      <trkpt lat="35.279762" lon="126.917424"><ele>34.3</ele></trkpt>
      <trkpt lat="35.279886" lon="126.917849"><ele>35.2</ele></trkpt>
      <trkpt lat="35.280075" lon="126.918105"><ele>36.0</ele></trkpt>
      <trkpt lat="35.281152" lon="126.918717"><ele>37.4</ele></trkpt>
      <trkpt lat="35.281427" lon="126.918739"><ele>37.3</ele></trkpt>
      <trkpt lat="35.281623" lon="126.918930"><ele>37.3</ele></trkpt>
      <trkpt lat="35.283468" lon="126.918490"><ele>40.7</ele></trkpt>
      <trkpt lat="35.283827" lon="126.918672"><ele>40.0</ele></trkpt>
      <trkpt lat="35.284531" lon="126.918657"><ele>41.7</ele></trkpt>
      <trkpt lat="35.284893" lon="126.918830"><ele>41.3</ele></trkpt>
      <trkpt lat="35.285195" lon="126.918065"><ele>42.0</ele></trkpt>
      <trkpt lat="35.285795" lon="126.917781"><ele>42.9</ele></trkpt>
      <trkpt lat="35.286302" lon="126.917450"><ele>45.0</ele></trkpt>
      <trkpt lat="35.286424" lon="126.917457"><ele>45.3</ele></trkpt>
      <trkpt lat="35.286584" lon="126.917649"><ele>44.8</ele></trkpt>
      <trkpt lat="35.286748" lon="126.917646"><ele>45.0</ele></trkpt>
      <trkpt lat="35.286846" lon="126.917546"><ele>45.0</ele></trkpt>
      <trkpt lat="35.286920" lon="126.917550"><ele>45.0</ele></trkpt>
      <trkpt lat="35.287109" lon="126.917678"><ele>45.2</ele></trkpt>
      <trkpt lat="35.287208" lon="126.917833"><ele>45.0</ele></trkpt>
      <trkpt lat="35.287528" lon="126.917844"><ele>46.2</ele></trkpt>
      <trkpt lat="35.287861" lon="126.917705"><ele>48.1</ele></trkpt>
      <trkpt lat="35.288112" lon="126.917725"><ele>48.2</ele></trkpt>
      <trkpt lat="35.288312" lon="126.917851"><ele>47.7</ele></trkpt>
      <trkpt lat="35.288571" lon="126.917904"><ele>47.5</ele></trkpt>
      <trkpt lat="35.289428" lon="126.917895"><ele>51.5</ele></trkpt>
      <trkpt lat="35.290048" lon="126.917667"><ele>54.6</ele></trkpt>
      <trkpt lat="35.289923" lon="126.917542"><ele>54.3</ele></trkpt>
      <trkpt lat="35.290324" lon="126.917342"><ele>55.0</ele></trkpt>
      <trkpt lat="35.290633" lon="126.917114"><ele>55.8</ele></trkpt>
      <trkpt lat="35.292079" lon="126.916523"><ele>61.3</ele></trkpt>
      <trkpt lat="35.292198" lon="126.916672"><ele>61.0</ele></trkpt>
      <trkpt lat="35.292443" lon="126.916766"><ele>59.1</ele></trkpt>
      <trkpt lat="35.292711" lon="126.916510"><ele>59.6</ele></trkpt>
      <trkpt lat="35.292938" lon="126.916389"><ele>59.8</ele></trkpt>
      <trkpt lat="35.292956" lon="126.916547"><ele>58.2</ele></trkpt>
      <trkpt lat="35.293366" lon="126.916449"><ele>56.9</ele></trkpt>
      <trkpt lat="35.293453" lon="126.916393"><ele>56.6</ele></trkpt>
      <trkpt lat="35.293585" lon="126.916099"><ele>57.3</ele></trkpt>
      <trkpt lat="35.293997" lon="126.916008"><ele>57.6</ele></trkpt>
      <trkpt lat="35.294092" lon="126.915847"><ele>58.0</ele></trkpt>
      <trkpt lat="35.294306" lon="126.915729"><ele>58.6</ele></trkpt>
      <trkpt lat="35.294766" lon="126.915282"><ele>59.3</ele></trkpt>
      <trkpt lat="35.294914" lon="126.915313"><ele>60.2</ele></trkpt>
      <trkpt lat="35.295094" lon="126.915475"><ele>60.1</ele></trkpt>
      <trkpt lat="35.295269" lon="126.915502"><ele>60.9</ele></trkpt>
      <trkpt lat="35.295302" lon="126.915652"><ele>60.7</ele></trkpt>
      <trkpt lat="35.295870" lon="126.915360"><ele>62.2</ele></trkpt>
      <trkpt lat="35.296133" lon="126.915444"><ele>63.7</ele></trkpt>
      <trkpt lat="35.296260" lon="126.915636"><ele>64.2</ele></trkpt>
      <trkpt lat="35.297312" lon="126.915703"><ele>67.0</ele></trkpt>
      <trkpt lat="35.297375" lon="126.914288"><ele>69.9</ele></trkpt>
      <trkpt lat="35.297434" lon="126.914243"><ele>70.3</ele></trkpt>
      <trkpt lat="35.297581" lon="126.914537"><ele>70.7</ele></trkpt>
      <trkpt lat="35.297751" lon="126.914494"><ele>71.7</ele></trkpt>
      <trkpt lat="35.297828" lon="126.914274"><ele>72.3</ele></trkpt>
      <trkpt lat="35.297906" lon="126.914184"><ele>72.9</ele></trkpt>
      <trkpt lat="35.298176" lon="126.914070"><ele>74.5</ele></trkpt>
      <trkpt lat="35.298410" lon="126.913871"><ele>76.3</ele></trkpt>
      <trkpt lat="35.298836" lon="126.914380"><ele>77.0</ele></trkpt>
      <trkpt lat="35.298942" lon="126.914297"><ele>78.3</ele></trkpt>
      <trkpt lat="35.300644" lon="126.914034"><ele>87.6</ele></trkpt>
      <trkpt lat="35.301108" lon="126.913823"><ele>90.5</ele></trkpt>
      <trkpt lat="35.301579" lon="126.913734"><ele>94.8</ele></trkpt>
      <trkpt lat="35.301729" lon="126.913760"><ele>95.9</ele></trkpt>
      <trkpt lat="35.302101" lon="126.914087"><ele>94.6</ele></trkpt>
      <trkpt lat="35.302184" lon="126.914281"><ele>92.6</ele></trkpt>
      <trkpt lat="35.302342" lon="126.914420"><ele>92.0</ele></trkpt>
      <trkpt lat="35.302699" lon="126.914317"><ele>94.2</ele></trkpt>
      <trkpt lat="35.303222" lon="126.914753"><ele>97.2</ele></trkpt>
      <trkpt lat="35.303274" lon="126.914855"><ele>97.6</ele></trkpt>
      <trkpt lat="35.303953" lon="126.915509"><ele>98.0</ele></trkpt>
      <trkpt lat="35.304338" lon="126.915707"><ele>97.8</ele></trkpt>
      <trkpt lat="35.304525" lon="126.915742"><ele>98.6</ele></trkpt>
      <trkpt lat="35.304838" lon="126.915937"><ele>99.9</ele></trkpt>
      <trkpt lat="35.305116" lon="126.915132"><ele>104.0</ele></trkpt>
      <trkpt lat="35.305301" lon="126.915089"><ele>106.3</ele></trkpt>
      <trkpt lat="35.305526" lon="126.914917"><ele>108.9</ele></trkpt>
      <trkpt lat="35.305963" lon="126.914254"><ele>124.2</ele></trkpt>
      <trkpt lat="35.306309" lon="126.914302"><ele>128.4</ele></trkpt>
      <trkpt lat="35.306478" lon="126.914275"><ele>129.7</ele></trkpt>
      <trkpt lat="35.306760" lon="126.914035"><ele>134.0</ele></trkpt>
      <trkpt lat="35.306976" lon="126.913665"><ele>143.9</ele></trkpt>
      <trkpt lat="35.307136" lon="126.913223"><ele>161.2</ele></trkpt>
      <trkpt lat="35.307289" lon="126.913134"><ele>168.4</ele></trkpt>
      <trkpt lat="35.307527" lon="126.913143"><ele>173.7</ele></trkpt>
      <trkpt lat="35.307693" lon="126.912666"><ele>190.8</ele></trkpt>
      <trkpt lat="35.307747" lon="126.912602"><ele>194.7</ele></trkpt>
      <trkpt lat="35.307914" lon="126.912554"><ele>201.5</ele></trkpt>
      <trkpt lat="35.308002" lon="126.912453"><ele>206.4</ele></trkpt>
      <trkpt lat="35.308608" lon="126.911428"><ele>247.6</ele></trkpt>
      <trkpt lat="35.308614" lon="126.910964"><ele>259.2</ele></trkpt>
      <trkpt lat="35.308696" lon="126.910543"><ele>276.4</ele></trkpt>
      <trkpt lat="35.308659" lon="126.910391"><ele>282.1</ele></trkpt>
      <trkpt lat="35.308708" lon="126.910258"><ele>286.6</ele></trkpt>
      <trkpt lat="35.308688" lon="126.910126"><ele>288.8</ele></trkpt>
      <trkpt lat="35.308552" lon="126.910028"><ele>291.7</ele></trkpt>
      <trkpt lat="35.308425" lon="126.909801"><ele>293.6</ele></trkpt>
      <trkpt lat="35.308415" lon="126.909526"><ele>295.7</ele></trkpt>
      <trkpt lat="35.308313" lon="126.909359"><ele>296.6</ele></trkpt>
      <trkpt lat="35.308288" lon="126.909102"><ele>296.5</ele></trkpt>
      <trkpt lat="35.308476" lon="126.908389"><ele>313.7</ele></trkpt>
      <trkpt lat="35.308477" lon="126.908264"><ele>319.0</ele></trkpt>
      <trkpt lat="35.308419" lon="126.908213"><ele>321.7</ele></trkpt>
      <trkpt lat="35.308404" lon="126.908089"><ele>326.7</ele></trkpt>
      <trkpt lat="35.308429" lon="126.907873"><ele>330.7</ele></trkpt>
      <trkpt lat="35.308370" lon="126.907608"><ele>334.1</ele></trkpt>
      <trkpt lat="35.308222" lon="126.907361"><ele>338.9</ele></trkpt>
      <trkpt lat="35.308212" lon="126.907221"><ele>340.5</ele></trkpt>
      <trkpt lat="35.307892" lon="126.906979"><ele>349.1</ele></trkpt>
      <trkpt lat="35.307843" lon="126.906813"><ele>352.2</ele></trkpt>
      <trkpt lat="35.307622" lon="126.906563"><ele>359.6</ele></trkpt>
      <trkpt lat="35.307598" lon="126.906354"><ele>365.0</ele></trkpt>
      <trkpt lat="35.307493" lon="126.906168"><ele>371.5</ele></trkpt>
      <trkpt lat="35.307504" lon="126.906066"><ele>374.0</ele></trkpt>
      <trkpt lat="35.307436" lon="126.906044"><ele>374.5</ele></trkpt>
      <trkpt lat="35.307345" lon="126.905594"><ele>384.8</ele></trkpt>
      <trkpt lat="35.307346" lon="126.905207"><ele>393.0</ele></trkpt>
      <trkpt lat="35.307219" lon="126.904799"><ele>409.6</ele></trkpt>
      <trkpt lat="35.307259" lon="126.904504"><ele>423.1</ele></trkpt>
      <trkpt lat="35.307196" lon="126.904275"><ele>433.8</ele></trkpt>
      <trkpt lat="35.307228" lon="126.902593"><ele>502.6</ele></trkpt>
      <trkpt lat="35.307200" lon="126.902336"><ele>511.7</ele></trkpt>
      <trkpt lat="35.306844" lon="126.901391"><ele>543.6</ele></trkpt>
      <trkpt lat="35.306666" lon="126.901094"><ele>545.5</ele></trkpt>
      <trkpt lat="35.306689" lon="126.900954"><ele>549.3</ele></trkpt>
      <trkpt lat="35.307252" lon="126.900837"><ele>522.3</ele></trkpt>
      <trkpt lat="35.307343" lon="126.900937"><ele>513.5</ele></trkpt>
      <trkpt lat="35.307400" lon="126.900932"><ele>509.1</ele></trkpt>
      <trkpt lat="35.307421" lon="126.900999"><ele>507.2</ele></trkpt>
      <trkpt lat="35.307509" lon="126.900996"><ele>500.8</ele></trkpt>
      <trkpt lat="35.307575" lon="126.901067"><ele>495.2</ele></trkpt>
      <trkpt lat="35.308142" lon="126.900829"><ele>452.3</ele></trkpt>
      <trkpt lat="35.308165" lon="126.900876"><ele>451.2</ele></trkpt>
      <trkpt lat="35.308198" lon="126.900855"><ele>449.3</ele></trkpt>
      <trkpt lat="35.308225" lon="126.900953"><ele>447.9</ele></trkpt>
      <trkpt lat="35.308385" lon="126.900927"><ele>438.5</ele></trkpt>
      <trkpt lat="35.308466" lon="126.900988"><ele>433.3</ele></trkpt>
      <trkpt lat="35.308678" lon="126.900979"><ele>421.2</ele></trkpt>
      <trkpt lat="35.309041" lon="126.901185"><ele>401.6</ele></trkpt>
      <trkpt lat="35.309134" lon="126.901185"><ele>396.9</ele></trkpt>
      <trkpt lat="35.309702" lon="126.901716"><ele>352.7</ele></trkpt>
      <trkpt lat="35.309866" lon="126.901703"><ele>342.9</ele></trkpt>
      <trkpt lat="35.310055" lon="126.901818"><ele>329.1</ele></trkpt>
      <trkpt lat="35.310131" lon="126.901789"><ele>325.2</ele></trkpt>
      <trkpt lat="35.310188" lon="126.901852"><ele>321.3</ele></trkpt>
      <trkpt lat="35.310585" lon="126.901909"><ele>301.6</ele></trkpt>
      <trkpt lat="35.310592" lon="126.901998"><ele>300.7</ele></trkpt>
      <trkpt lat="35.310813" lon="126.902093"><ele>291.2</ele></trkpt>
      <trkpt lat="35.310961" lon="126.902265"><ele>283.0</ele></trkpt>
      <trkpt lat="35.311036" lon="126.902479"><ele>274.7</ele></trkpt>
      <trkpt lat="35.311332" lon="126.902650"><ele>259.6</ele></trkpt>
      <trkpt lat="35.311405" lon="126.902663"><ele>257.1</ele></trkpt>
      <trkpt lat="35.311438" lon="126.902614"><ele>257.3</ele></trkpt>
      <trkpt lat="35.311526" lon="126.902660"><ele>254.2</ele></trkpt>
      <trkpt lat="35.311538" lon="126.902768"><ele>252.0</ele></trkpt>
      <trkpt lat="35.311458" lon="126.902841"><ele>252.4</ele></trkpt>
      <trkpt lat="35.311317" lon="126.903135"><ele>251.2</ele></trkpt>
      <trkpt lat="35.311279" lon="126.903116"><ele>252.6</ele></trkpt>
      <trkpt lat="35.311256" lon="126.903245"><ele>250.9</ele></trkpt>
      <trkpt lat="35.311429" lon="126.903571"><ele>238.5</ele></trkpt>
      <trkpt lat="35.311431" lon="126.903715"><ele>237.3</ele></trkpt>
      <trkpt lat="35.311588" lon="126.904041"><ele>231.9</ele></trkpt>
      <trkpt lat="35.311778" lon="126.904172"><ele>224.6</ele></trkpt>
      <trkpt lat="35.312023" lon="126.904452"><ele>213.2</ele></trkpt>
      <trkpt lat="35.312162" lon="126.904938"><ele>205.6</ele></trkpt>
      <trkpt lat="35.312472" lon="126.905179"><ele>194.4</ele></trkpt>
      <trkpt lat="35.312678" lon="126.905265"><ele>189.2</ele></trkpt>
      <trkpt lat="35.312868" lon="126.905028"><ele>185.1</ele></trkpt>
      <trkpt lat="35.312963" lon="126.905045"><ele>183.0</ele></trkpt>
      <trkpt lat="35.312950" lon="126.904814"><ele>184.4</ele></trkpt>
      <trkpt lat="35.313411" lon="126.904164"><ele>180.3</ele></trkpt>
      <trkpt lat="35.313563" lon="126.903631"><ele>181.1</ele></trkpt>
      <trkpt lat="35.313604" lon="126.903208"><ele>181.1</ele></trkpt>
      <trkpt lat="35.313509" lon="126.902770"><ele>184.6</ele></trkpt>
      <trkpt lat="35.314064" lon="126.900293"><ele>189.9</ele></trkpt>
      <trkpt lat="35.314356" lon="126.898640"><ele>192.7</ele></trkpt>
      <trkpt lat="35.314751" lon="126.894390"><ele>224.4</ele></trkpt>
      <trkpt lat="35.314964" lon="126.893476"><ele>229.1</ele></trkpt>
      <trkpt lat="35.314848" lon="126.892943"><ele>234.0</ele></trkpt>
      <trkpt lat="35.315138" lon="126.893023"><ele>233.6</ele></trkpt>
      <trkpt lat="35.315497" lon="126.893353"><ele>238.8</ele></trkpt>
      <trkpt lat="35.315447" lon="126.893726"><ele>230.7</ele></trkpt>
      <trkpt lat="35.315602" lon="126.894421"><ele>221.4</ele></trkpt>
      <trkpt lat="35.315591" lon="126.894582"><ele>218.9</ele></trkpt>
      <trkpt lat="35.315620" lon="126.894692"><ele>217.9</ele></trkpt>
      <trkpt lat="35.315789" lon="126.894928"><ele>215.8</ele></trkpt>
      <trkpt lat="35.315795" lon="126.894862"><ele>217.6</ele></trkpt>
      <trkpt lat="35.315856" lon="126.894841"><ele>219.6</ele></trkpt>
      <trkpt lat="35.315923" lon="126.894897"><ele>219.8</ele></trkpt>
      <trkpt lat="35.316020" lon="126.895042"><ele>218.2</ele></trkpt>
      <trkpt lat="35.316469" lon="126.895388"><ele>222.6</ele></trkpt>
      <trkpt lat="35.316626" lon="126.895778"><ele>220.5</ele></trkpt>
      <trkpt lat="35.316704" lon="126.895740"><ele>224.8</ele></trkpt>
      <trkpt lat="35.316710" lon="126.895639"><ele>227.4</ele></trkpt>
      <trkpt lat="35.316544" lon="126.895177"><ele>229.5</ele></trkpt>
      <trkpt lat="35.316239" lon="126.894801"><ele>229.8</ele></trkpt>
      <trkpt lat="35.316199" lon="126.894647"><ele>232.2</ele></trkpt>
      <trkpt lat="35.316232" lon="126.894482"><ele>235.9</ele></trkpt>
      <trkpt lat="35.316159" lon="126.894300"><ele>236.0</ele></trkpt>
      <trkpt lat="35.316208" lon="126.894152"><ele>237.7</ele></trkpt>
      <trkpt lat="35.316352" lon="126.894116"><ele>240.3</ele></trkpt>
      <trkpt lat="35.316912" lon="126.894397"><ele>251.2</ele></trkpt>
      <trkpt lat="35.316878" lon="126.895164"><ele>238.4</ele></trkpt>
    </trkseg>
  </trk>
</gpx>
