<?xml version="1.0" encoding="UTF-8"?>
<gpx version="1.1" creator="kr-100-mountains route-harvester"
     xmlns="http://www.topografix.com/GPX/1/1"
     xmlns:k100="https://github.com/jay-jang/kr-100-mountains/ns/1"
     xmlns:xsi="http://www.w3.org/2001/XMLSchema-instance"
     xsi:schemaLocation="http://www.topografix.com/GPX/1/1 http://www.topografix.com/GPX/1/1/gpx.xsd">
  <metadata>
    <name>병풍산 · 한재-투구봉-병풍산 원점회귀 (OSM 계산 경로)</name>
    <desc>실제 GPS 기록이 아닙니다. OpenStreetMap에 등록된 등산로 선형 위에서 계산한 경로이며, 현장 통제·훼손·출입 제한·계절 통제를 반영하지 않을 수 있습니다. 산행 전 공식 안내를 확인하세요.</desc>
    <time>2026-08-04T05:32:04.025Z</time>
    <link href="https://www.openstreetmap.org/copyright"><text>© OpenStreetMap contributors (ODbL 1.0)</text></link>
    <link href="https://registry.opendata.aws/terrain-tiles/"><text>Elevation: SRTM 1 arc-second (NASA/USGS) via AWS Terrain Tiles</text></link>
    <extensions>
      <k100:provenance>osm-routed</k100:provenance>
      <k100:not_a_recorded_track>true</k100:not_a_recorded_track>
      <k100:mountain_id>byeongpungsan</k100:mountain_id>
      <k100:mountain_name>병풍산</k100:mountain_name>
      <k100:route_id>byeongpungsan-3dc37fa7</k100:route_id>
      <k100:route_index>2</k100:route_index>
      <k100:route_name>한재-투구봉-병풍산 원점회귀</k100:route_name>
      <k100:variant>0</k100:variant>
      <k100:source>OpenStreetMap via Overpass API</k100:source>
      <k100:license>ODbL-1.0</k100:license>
      <k100:attribution>© OpenStreetMap contributors</k100:attribution>
      <k100:elevation_source>SRTM 1 arc-second (NASA/USGS) — AWS Terrain Tiles 배포본. 지형 DEM 추정 고도이며 실측 아님</k100:elevation_source>
      <k100:algorithm>dijkstra-grid-v1</k100:algorithm>
      <k100:osm_snapshot>2026-08-04</k100:osm_snapshot>
      <k100:snap_trailhead_m>40</k100:snap_trailhead_m>
      <k100:snap_summit_m>16</k100:snap_summit_m>
      <k100:validation_score>93</k100:validation_score>
      <k100:validation_status>accepted</k100:validation_status>
    </extensions>
  </metadata>
  <trk>
    <name>병풍산 · 한재-투구봉-병풍산 원점회귀 (OSM 계산 경로)</name>
    <desc>실제 GPS 기록이 아닙니다. OpenStreetMap에 등록된 등산로 선형 위에서 계산한 경로이며, 현장 통제·훼손·출입 제한·계절 통제를 반영하지 않을 수 있습니다. 산행 전 공식 안내를 확인하세요.</desc>
    <trkseg>
      <trkpt lat="35.309865" lon="126.877314"><ele>308.0</ele></trkpt>
      <trkpt lat="35.310001" lon="126.877301"><ele>307.7</ele></trkpt>
      <trkpt lat="35.310190" lon="126.877116"><ele>309.1</ele></trkpt>
      <trkpt lat="35.310290" lon="126.877163"><ele>312.6</ele></trkpt>
      <trkpt lat="35.310417" lon="126.877014"><ele>315.5</ele></trkpt>
      <trkpt lat="35.310641" lon="126.876949"><ele>323.4</ele></trkpt>
      <trkpt lat="35.310736" lon="126.877050"><ele>328.4</ele></trkpt>
      <trkpt lat="35.310991" lon="126.877100"><ele>335.8</ele></trkpt>
      <trkpt lat="35.311243" lon="126.877330"><ele>342.5</ele></trkpt>
      <trkpt lat="35.311466" lon="126.877360"><ele>345.9</ele></trkpt>
      <trkpt lat="35.311700" lon="126.877813"><ele>360.2</ele></trkpt>
      <trkpt lat="35.311839" lon="126.877906"><ele>364.2</ele></trkpt>
      <trkpt lat="35.312131" lon="126.877861"><ele>367.5</ele></trkpt>
      <trkpt lat="35.312233" lon="126.877695"><ele>365.0</ele></trkpt>
      <trkpt lat="35.312558" lon="126.877804"><ele>370.0</ele></trkpt>
      <trkpt lat="35.312612" lon="126.878042"><ele>377.0</ele></trkpt>
      <trkpt lat="35.312587" lon="126.878170"><ele>380.5</ele></trkpt>
      <trkpt lat="35.312630" lon="126.878265"><ele>383.2</ele></trkpt>
      <trkpt lat="35.312541" lon="126.878529"><ele>389.9</ele></trkpt>
      <trkpt lat="35.312587" lon="126.878780"><ele>394.6</ele></trkpt>
      <trkpt lat="35.312706" lon="126.879138"><ele>402.2</ele></trkpt>
      <trkpt lat="35.312851" lon="126.879360"><ele>410.1</ele></trkpt>
      <trkpt lat="35.313071" lon="126.879550"><ele>419.7</ele></trkpt>
      <trkpt lat="35.313134" lon="126.879785"><ele>428.2</ele></trkpt>
      <trkpt lat="35.313268" lon="126.879953"><ele>436.2</ele></trkpt>
      <trkpt lat="35.313213" lon="126.880117"><ele>441.0</ele></trkpt>
      <trkpt lat="35.313276" lon="126.880226"><ele>446.1</ele></trkpt>
      <trkpt lat="35.313257" lon="126.880348"><ele>450.1</ele></trkpt>
      <trkpt lat="35.313499" lon="126.880622"><ele>467.6</ele></trkpt>
      <trkpt lat="35.313894" lon="126.880621"><ele>477.1</ele></trkpt>
      <trkpt lat="35.314105" lon="126.880926"><ele>491.8</ele></trkpt>
      <trkpt lat="35.314234" lon="126.881012"><ele>493.6</ele></trkpt>
      <trkpt lat="35.314459" lon="126.881028"><ele>489.5</ele></trkpt>
      <trkpt lat="35.314441" lon="126.881141"><ele>494.8</ele></trkpt>
      <trkpt lat="35.314367" lon="126.881227"><ele>498.3</ele></trkpt>
      <trkpt lat="35.314331" lon="126.881445"><ele>504.8</ele></trkpt>
      <trkpt lat="35.314187" lon="126.881642"><ele>513.7</ele></trkpt>
      <trkpt lat="35.314221" lon="126.881754"><ele>514.3</ele></trkpt>
      <trkpt lat="35.314200" lon="126.881877"><ele>516.2</ele></trkpt>
      <trkpt lat="35.314296" lon="126.881935"><ele>513.7</ele></trkpt>
      <trkpt lat="35.314624" lon="126.881900"><ele>497.2</ele></trkpt>
      <trkpt lat="35.314775" lon="126.881781"><ele>486.5</ele></trkpt>
      <trkpt lat="35.314913" lon="126.881807"><ele>476.1</ele></trkpt>
      <trkpt lat="35.315226" lon="126.881661"><ele>461.8</ele></trkpt>
      <trkpt lat="35.315338" lon="126.881710"><ele>458.4</ele></trkpt>
      <trkpt lat="35.315575" lon="126.881492"><ele>452.8</ele></trkpt>
      <trkpt lat="35.315729" lon="126.881518"><ele>453.3</ele></trkpt>
      <trkpt lat="35.315940" lon="126.881785"><ele>453.6</ele></trkpt>
      <trkpt lat="35.315884" lon="126.882668"><ele>434.0</ele></trkpt>
      <trkpt lat="35.315946" lon="126.883070"><ele>424.9</ele></trkpt>
      <trkpt lat="35.315900" lon="126.883238"><ele>420.5</ele></trkpt>
      <trkpt lat="35.315968" lon="126.883459"><ele>415.1</ele></trkpt>
      <trkpt lat="35.315788" lon="126.883793"><ele>404.3</ele></trkpt>
      <trkpt lat="35.315923" lon="126.884041"><ele>397.2</ele></trkpt>
      <trkpt lat="35.315591" lon="126.885148"><ele>372.3</ele></trkpt>
      <trkpt lat="35.315208" lon="126.886027"><ele>348.4</ele></trkpt>
      <trkpt lat="35.315275" lon="126.886523"><ele>340.0</ele></trkpt>
      <trkpt lat="35.315208" lon="126.886788"><ele>335.6</ele></trkpt>
      <trkpt lat="35.315205" lon="126.887022"><ele>332.4</ele></trkpt>
      <trkpt lat="35.315092" lon="126.887368"><ele>325.1</ele></trkpt>
      <trkpt lat="35.315112" lon="126.887603"><ele>323.0</ele></trkpt>
      <trkpt lat="35.314878" lon="126.888308"><ele>308.3</ele></trkpt>
      <trkpt lat="35.314866" lon="126.888495"><ele>305.6</ele></trkpt>
      <trkpt lat="35.314692" lon="126.889149"><ele>292.0</ele></trkpt>
      <trkpt lat="35.314700" lon="126.889786"><ele>279.9</ele></trkpt>
      <trkpt lat="35.314663" lon="126.889926"><ele>277.6</ele></trkpt>
      <trkpt lat="35.314713" lon="126.890207"><ele>272.5</ele></trkpt>
      <trkpt lat="35.314561" lon="126.890901"><ele>264.4</ele></trkpt>
      <trkpt lat="35.314679" lon="126.891613"><ele>254.8</ele></trkpt>
      <trkpt lat="35.314640" lon="126.892077"><ele>245.7</ele></trkpt>
      <trkpt lat="35.314848" lon="126.892943"><ele>234.0</ele></trkpt>
      <trkpt lat="35.315138" lon="126.893023"><ele>233.6</ele></trkpt>
      <trkpt lat="35.315497" lon="126.893353"><ele>238.8</ele></trkpt>
      <trkpt lat="35.315447" lon="126.893726"><ele>230.7</ele></trkpt>
      <trkpt lat="35.315602" lon="126.894421"><ele>221.4</ele></trkpt>
      <trkpt lat="35.315591" lon="126.894582"><ele>218.9</ele></trkpt>
      <trkpt lat="35.315620" lon="126.894692"><ele>217.9</ele></trkpt>
      <trkpt lat="35.315789" lon="126.894928"><ele>215.8</ele></trkpt>
      <trkpt lat="35.315795" lon="126.894862"><ele>217.6</ele></trkpt>
      <trkpt lat="35.315856" lon="126.894841"><ele>219.6</ele></trkpt>
      <trkpt lat="35.315923" lon="126.894897"><ele>219.8</ele></trkpt>
      <trkpt lat="35.316020" lon="126.895042"><ele>218.2</ele></trkpt>
      <trkpt lat="35.316469" lon="126.895388"><ele>222.6</ele></trkpt>
      <trkpt lat="35.316626" lon="126.895778"><ele>220.5</ele></trkpt>
      <trkpt lat="35.316704" lon="126.895740"><ele>224.8</ele></trkpt>
      <trkpt lat="35.316710" lon="126.895639"><ele>227.4</ele></trkpt>
      <trkpt lat="35.316544" lon="126.895177"><ele>229.5</ele></trkpt>
      <trkpt lat="35.316239" lon="126.894801"><ele>229.8</ele></trkpt>
      <trkpt lat="35.316199" lon="126.894647"><ele>232.2</ele></trkpt>
      <trkpt lat="35.316232" lon="126.894482"><ele>235.9</ele></trkpt>
      <trkpt lat="35.316159" lon="126.894300"><ele>236.0</ele></trkpt>
      <trkpt lat="35.316208" lon="126.894152"><ele>237.7</ele></trkpt>
      <trkpt lat="35.316352" lon="126.894116"><ele>240.3</ele></trkpt>
      <trkpt lat="35.316912" lon="126.894397"><ele>251.2</ele></trkpt>
      <trkpt lat="35.316878" lon="126.895164"><ele>238.4</ele></trkpt>
    </trkseg>
  </trk>
</gpx>
