<?xml version="1.0" encoding="UTF-8"?>
<gpx version="1.1" creator="kr-100-mountains route-harvester"
     xmlns="http://www.topografix.com/GPX/1/1"
     xmlns:k100="https://github.com/jay-jang/kr-100-mountains/ns/1"
     xmlns:xsi="http://www.w3.org/2001/XMLSchema-instance"
     xsi:schemaLocation="http://www.topografix.com/GPX/1/1 http://www.topografix.com/GPX/1/1/gpx.xsd">
  <metadata>
    <name>병풍산 · 대방저수지-정상 순환코스 (대안 1) (OSM 계산 경로)</name>
    <desc>실제 GPS 기록이 아닙니다. OpenStreetMap에 등록된 등산로 선형 위에서 계산한 경로이며, 현장 통제·훼손·출입 제한·계절 통제를 반영하지 않을 수 있습니다. 산행 전 공식 안내를 확인하세요.</desc>
    <time>2026-08-04T05:32:03.964Z</time>
    <link href="https://www.openstreetmap.org/copyright"><text>© OpenStreetMap contributors (ODbL 1.0)</text></link>
    <link href="https://registry.opendata.aws/terrain-tiles/"><text>Elevation: SRTM 1 arc-second (NASA/USGS) via AWS Terrain Tiles</text></link>
    <extensions>
      <k100:provenance>osm-routed</k100:provenance>
      <k100:not_a_recorded_track>true</k100:not_a_recorded_track>
      <k100:mountain_id>byeongpungsan</k100:mountain_id>
      <k100:mountain_name>병풍산</k100:mountain_name>
      <k100:route_id>byeongpungsan-f9717756</k100:route_id>
      <k100:route_index>1</k100:route_index>
      <k100:route_name>대방저수지-정상 순환코스</k100:route_name>
      <k100:variant>1</k100:variant>
      <k100:source>OpenStreetMap via Overpass API</k100:source>
      <k100:license>ODbL-1.0</k100:license>
      <k100:attribution>© OpenStreetMap contributors</k100:attribution>
      <k100:elevation_source>SRTM 1 arc-second (NASA/USGS) — AWS Terrain Tiles 배포본. 지형 DEM 추정 고도이며 실측 아님</k100:elevation_source>
      <k100:algorithm>dijkstra-grid-v1</k100:algorithm>
      <k100:osm_snapshot>2026-08-04</k100:osm_snapshot>
      <k100:snap_trailhead_m>26</k100:snap_trailhead_m>
      <k100:snap_summit_m>16</k100:snap_summit_m>
      <k100:validation_score>75</k100:validation_score>
      <k100:validation_status>review</k100:validation_status>
    </extensions>
  </metadata>
  <trk>
    <name>병풍산 · 대방저수지-정상 순환코스 (대안 1) (OSM 계산 경로)</name>
    <desc>실제 GPS 기록이 아닙니다. OpenStreetMap에 등록된 등산로 선형 위에서 계산한 경로이며, 현장 통제·훼손·출입 제한·계절 통제를 반영하지 않을 수 있습니다. 산행 전 공식 안내를 확인하세요.</desc>
    <trkseg>
      <trkpt lat="35.269619" lon="126.915096"><ele>30.4</ele></trkpt>
      <trkpt lat="35.269621" lon="126.914091"><ele>30.4</ele></trkpt>
      <trkpt lat="35.275965" lon="126.914090"><ele>33.0</ele></trkpt>
      <trkpt lat="35.276143" lon="126.914102"><ele>33.0</ele></trkpt>
      <trkpt lat="35.276278" lon="126.914425"><ele>33.0</ele></trkpt>
      <trkpt lat="35.276422" lon="126.914389"><ele>33.1</ele></trkpt>
      <trkpt lat="35.276586" lon="126.914269"><ele>33.7</ele></trkpt>
      <trkpt lat="35.276795" lon="126.914346"><ele>33.5</ele></trkpt>
      <trkpt lat="35.276880" lon="126.914327"><ele>33.2</ele></trkpt>
      <trkpt lat="35.280325" lon="126.909216"><ele>47.0</ele></trkpt>
      <trkpt lat="35.279853" lon="126.908014"><ele>47.9</ele></trkpt>
      <trkpt lat="35.280602" lon="126.907082"><ele>49.1</ele></trkpt>
      <trkpt lat="35.281525" lon="126.905715"><ele>52.5</ele></trkpt>
      <trkpt lat="35.281805" lon="126.905464"><ele>52.0</ele></trkpt>
      <trkpt lat="35.282569" lon="126.904614"><ele>56.7</ele></trkpt>
      <trkpt lat="35.292176" lon="126.898302"><ele>86.6</ele></trkpt>
      <trkpt lat="35.292412" lon="126.898264"><ele>88.3</ele></trkpt>
      <trkpt lat="35.292604" lon="126.898444"><ele>89.6</ele></trkpt>
      <trkpt lat="35.292772" lon="126.898470"><ele>90.5</ele></trkpt>
      <trkpt lat="35.293155" lon="126.898444"><ele>91.7</ele></trkpt>
      <trkpt lat="35.293378" lon="126.898358"><ele>94.6</ele></trkpt>
      <trkpt lat="35.293776" lon="126.898372"><ele>93.9</ele></trkpt>
      <trkpt lat="35.294807" lon="126.897903"><ele>103.2</ele></trkpt>
      <trkpt lat="35.295017" lon="126.897970"><ele>100.8</ele></trkpt>
      <trkpt lat="35.295192" lon="126.898111"><ele>98.4</ele></trkpt>
      <trkpt lat="35.295474" lon="126.898167"><ele>98.4</ele></trkpt>
      <trkpt lat="35.295590" lon="126.898142"><ele>98.8</ele></trkpt>
      <trkpt lat="35.295792" lon="126.897993"><ele>100.5</ele></trkpt>
      <trkpt lat="35.295933" lon="126.897752"><ele>103.9</ele></trkpt>
      <trkpt lat="35.296069" lon="126.897630"><ele>105.8</ele></trkpt>
      <trkpt lat="35.296385" lon="126.897530"><ele>108.8</ele></trkpt>
      <trkpt lat="35.297248" lon="126.896951"><ele>119.4</ele></trkpt>
      <trkpt lat="35.297462" lon="126.896626"><ele>123.7</ele></trkpt>
      <trkpt lat="35.297679" lon="126.895835"><ele>131.2</ele></trkpt>
      <trkpt lat="35.298043" lon="126.895361"><ele>141.0</ele></trkpt>
      <trkpt lat="35.299132" lon="126.894599"><ele>164.2</ele></trkpt>
      <trkpt lat="35.299681" lon="126.894323"><ele>176.1</ele></trkpt>
      <trkpt lat="35.300464" lon="126.893589"><ele>184.7</ele></trkpt>
      <trkpt lat="35.301161" lon="126.893127"><ele>198.3</ele></trkpt>
      <trkpt lat="35.301261" lon="126.893141"><ele>203.2</ele></trkpt>
      <trkpt lat="35.301237" lon="126.893277"><ele>204.7</ele></trkpt>
      <trkpt lat="35.300576" lon="126.894509"><ele>213.4</ele></trkpt>
      <trkpt lat="35.300031" lon="126.895184"><ele>214.1</ele></trkpt>
      <trkpt lat="35.299987" lon="126.895425"><ele>218.9</ele></trkpt>
      <trkpt lat="35.300059" lon="126.895411"><ele>222.6</ele></trkpt>
      <trkpt lat="35.300266" lon="126.895157"><ele>226.4</ele></trkpt>
      <trkpt lat="35.300800" lon="126.894714"><ele>230.4</ele></trkpt>
      <trkpt lat="35.301496" lon="126.894358"><ele>252.3</ele></trkpt>
      <trkpt lat="35.301907" lon="126.893816"><ele>249.9</ele></trkpt>
      <trkpt lat="35.301990" lon="126.893763"><ele>249.5</ele></trkpt>
      <trkpt lat="35.302129" lon="126.893770"><ele>252.2</ele></trkpt>
      <trkpt lat="35.302406" lon="126.894122"><ele>266.6</ele></trkpt>
      <trkpt lat="35.302609" lon="126.894497"><ele>275.8</ele></trkpt>
      <trkpt lat="35.302980" lon="126.894573"><ele>280.5</ele></trkpt>
      <trkpt lat="35.303280" lon="126.894259"><ele>277.4</ele></trkpt>
      <trkpt lat="35.303514" lon="126.894219"><ele>282.0</ele></trkpt>
      <trkpt lat="35.303938" lon="126.893642"><ele>284.3</ele></trkpt>
      <trkpt lat="35.304087" lon="126.893513"><ele>287.1</ele></trkpt>
      <trkpt lat="35.304273" lon="126.893441"><ele>292.3</ele></trkpt>
      <trkpt lat="35.304424" lon="126.893259"><ele>293.2</ele></trkpt>
      <trkpt lat="35.304645" lon="126.893119"><ele>295.4</ele></trkpt>
      <trkpt lat="35.304823" lon="126.893087"><ele>299.8</ele></trkpt>
      <trkpt lat="35.305276" lon="126.893124"><ele>315.7</ele></trkpt>
      <trkpt lat="35.305328" lon="126.892919"><ele>315.0</ele></trkpt>
      <trkpt lat="35.305236" lon="126.892474"><ele>311.3</ele></trkpt>
      <trkpt lat="35.305277" lon="126.892337"><ele>312.2</ele></trkpt>
      <trkpt lat="35.306261" lon="126.891317"><ele>330.5</ele></trkpt>
      <trkpt lat="35.306518" lon="126.890828"><ele>339.1</ele></trkpt>
      <trkpt lat="35.306519" lon="126.890555"><ele>338.7</ele></trkpt>
      <trkpt lat="35.306364" lon="126.890157"><ele>339.0</ele></trkpt>
      <trkpt lat="35.306091" lon="126.889785"><ele>346.2</ele></trkpt>
      <trkpt lat="35.306100" lon="126.889716"><ele>349.1</ele></trkpt>
      <trkpt lat="35.306155" lon="126.889703"><ele>350.4</ele></trkpt>
      <trkpt lat="35.306484" lon="126.889895"><ele>349.3</ele></trkpt>
      <trkpt lat="35.306830" lon="126.889887"><ele>356.4</ele></trkpt>
      <trkpt lat="35.307086" lon="126.890107"><ele>357.5</ele></trkpt>
      <trkpt lat="35.307163" lon="126.890354"><ele>359.8</ele></trkpt>
      <trkpt lat="35.307086" lon="126.891000"><ele>365.3</ele></trkpt>
      <trkpt lat="35.307202" lon="126.891322"><ele>372.8</ele></trkpt>
      <trkpt lat="35.307228" lon="126.891459"><ele>375.1</ele></trkpt>
      <trkpt lat="35.307199" lon="126.891555"><ele>374.9</ele></trkpt>
      <trkpt lat="35.306505" lon="126.892237"><ele>373.6</ele></trkpt>
      <trkpt lat="35.306422" lon="126.892432"><ele>376.1</ele></trkpt>
      <trkpt lat="35.306444" lon="126.892489"><ele>378.5</ele></trkpt>
      <trkpt lat="35.307187" lon="126.892003"><ele>385.4</ele></trkpt>
      <trkpt lat="35.307633" lon="126.891883"><ele>403.4</ele></trkpt>
      <trkpt lat="35.307786" lon="126.891596"><ele>409.7</ele></trkpt>
      <trkpt lat="35.307811" lon="126.891400"><ele>411.7</ele></trkpt>
      <trkpt lat="35.307752" lon="126.891076"><ele>406.5</ele></trkpt>
      <trkpt lat="35.307839" lon="126.890776"><ele>405.1</ele></trkpt>
      <trkpt lat="35.308105" lon="126.890555"><ele>414.5</ele></trkpt>
      <trkpt lat="35.308244" lon="126.890311"><ele>419.1</ele></trkpt>
      <trkpt lat="35.308522" lon="126.890037"><ele>428.4</ele></trkpt>
      <trkpt lat="35.308625" lon="126.890031"><ele>432.1</ele></trkpt>
      <trkpt lat="35.308834" lon="126.890186"><ele>431.1</ele></trkpt>
      <trkpt lat="35.308932" lon="126.890153"><ele>429.0</ele></trkpt>
      <trkpt lat="35.309000" lon="126.889986"><ele>427.8</ele></trkpt>
      <trkpt lat="35.308999" lon="126.889831"><ele>429.8</ele></trkpt>
      <trkpt lat="35.309091" lon="126.889579"><ele>429.8</ele></trkpt>
      <trkpt lat="35.309148" lon="126.889235"><ele>433.8</ele></trkpt>
      <trkpt lat="35.309244" lon="126.889064"><ele>431.7</ele></trkpt>
      <trkpt lat="35.309277" lon="126.888886"><ele>432.9</ele></trkpt>
      <trkpt lat="35.309504" lon="126.888577"><ele>424.5</ele></trkpt>
      <trkpt lat="35.309661" lon="126.888154"><ele>430.8</ele></trkpt>
      <trkpt lat="35.309737" lon="126.888039"><ele>431.7</ele></trkpt>
      <trkpt lat="35.309872" lon="126.887967"><ele>427.4</ele></trkpt>
      <trkpt lat="35.310203" lon="126.887918"><ele>413.8</ele></trkpt>
      <trkpt lat="35.310284" lon="126.887854"><ele>411.8</ele></trkpt>
      <trkpt lat="35.310328" lon="126.887739"><ele>412.7</ele></trkpt>
      <trkpt lat="35.310297" lon="126.887312"><ele>424.3</ele></trkpt>
      <trkpt lat="35.310374" lon="126.887189"><ele>422.1</ele></trkpt>
      <trkpt lat="35.310568" lon="126.887090"><ele>412.8</ele></trkpt>
      <trkpt lat="35.310610" lon="126.886977"><ele>413.0</ele></trkpt>
      <trkpt lat="35.310639" lon="126.886478"><ele>424.3</ele></trkpt>
      <trkpt lat="35.310702" lon="126.886379"><ele>425.1</ele></trkpt>
      <trkpt lat="35.311116" lon="126.886379"><ele>408.4</ele></trkpt>
      <trkpt lat="35.311271" lon="126.886038"><ele>419.7</ele></trkpt>
      <trkpt lat="35.311385" lon="126.885987"><ele>418.5</ele></trkpt>
      <trkpt lat="35.312114" lon="126.885944"><ele>422.0</ele></trkpt>
      <trkpt lat="35.312350" lon="126.886014"><ele>422.1</ele></trkpt>
      <trkpt lat="35.312978" lon="126.886405"><ele>416.8</ele></trkpt>
      <trkpt lat="35.313125" lon="126.886390"><ele>417.2</ele></trkpt>
      <trkpt lat="35.313418" lon="126.886215"><ele>422.3</ele></trkpt>
      <trkpt lat="35.314488" lon="126.884354"><ele>432.5</ele></trkpt>
      <trkpt lat="35.314731" lon="126.883549"><ele>443.3</ele></trkpt>
      <trkpt lat="35.315344" lon="126.882471"><ele>444.4</ele></trkpt>
      <trkpt lat="35.315554" lon="126.881932"><ele>453.1</ele></trkpt>
      <trkpt lat="35.315851" lon="126.881700"><ele>453.1</ele></trkpt>
      <trkpt lat="35.315940" lon="126.881785"><ele>453.6</ele></trkpt>
      <trkpt lat="35.316117" lon="126.882127"><ele>447.5</ele></trkpt>
      <trkpt lat="35.316665" lon="126.882710"><ele>446.6</ele></trkpt>
      <trkpt lat="35.316789" lon="126.883035"><ele>442.9</ele></trkpt>
      <trkpt lat="35.317174" lon="126.883598"><ele>441.2</ele></trkpt>
      <trkpt lat="35.317279" lon="126.884004"><ele>432.8</ele></trkpt>
      <trkpt lat="35.317283" lon="126.884274"><ele>427.2</ele></trkpt>
      <trkpt lat="35.317580" lon="126.884805"><ele>431.5</ele></trkpt>
      <trkpt lat="35.317587" lon="126.884920"><ele>431.4</ele></trkpt>
      <trkpt lat="35.317519" lon="126.885048"><ele>428.4</ele></trkpt>
      <trkpt lat="35.316908" lon="126.885640"><ele>411.2</ele></trkpt>
      <trkpt lat="35.316843" lon="126.885845"><ele>407.8</ele></trkpt>
      <trkpt lat="35.316843" lon="126.886063"><ele>403.9</ele></trkpt>
      <trkpt lat="35.317102" lon="126.886449"><ele>402.2</ele></trkpt>
      <trkpt lat="35.317298" lon="126.887465"><ele>386.4</ele></trkpt>
      <trkpt lat="35.317647" lon="126.888534"><ele>369.3</ele></trkpt>
      <trkpt lat="35.317818" lon="126.888866"><ele>367.7</ele></trkpt>
      <trkpt lat="35.317756" lon="126.889717"><ele>353.4</ele></trkpt>
      <trkpt lat="35.317930" lon="126.890135"><ele>354.0</ele></trkpt>
      <trkpt lat="35.318072" lon="126.890907"><ele>345.5</ele></trkpt>
      <trkpt lat="35.318256" lon="126.891112"><ele>344.7</ele></trkpt>
      <trkpt lat="35.318682" lon="126.891210"><ele>350.0</ele></trkpt>
      <trkpt lat="35.318794" lon="126.891394"><ele>347.6</ele></trkpt>
      <trkpt lat="35.318544" lon="126.892166"><ele>338.5</ele></trkpt>
      <trkpt lat="35.318351" lon="126.892550"><ele>327.1</ele></trkpt>
      <trkpt lat="35.318604" lon="126.893041"><ele>331.8</ele></trkpt>
      <trkpt lat="35.318521" lon="126.894100"><ele>323.3</ele></trkpt>
      <trkpt lat="35.318734" lon="126.894993"><ele>313.3</ele></trkpt>
      <trkpt lat="35.318676" lon="126.894947"><ele>311.5</ele></trkpt>
      <trkpt lat="35.318398" lon="126.894370"><ele>313.3</ele></trkpt>
      <trkpt lat="35.318190" lon="126.893184"><ele>313.7</ele></trkpt>
      <trkpt lat="35.318066" lon="126.893025"><ele>310.6</ele></trkpt>
      <trkpt lat="35.317749" lon="126.892835"><ele>301.4</ele></trkpt>
      <trkpt lat="35.317767" lon="126.892648"><ele>304.5</ele></trkpt>
      <trkpt lat="35.317922" lon="126.892347"><ele>311.8</ele></trkpt>
      <trkpt lat="35.317917" lon="126.892148"><ele>312.5</ele></trkpt>
      <trkpt lat="35.317559" lon="126.891794"><ele>305.6</ele></trkpt>
      <trkpt lat="35.317297" lon="126.891157"><ele>308.4</ele></trkpt>
      <trkpt lat="35.317059" lon="126.890999"><ele>305.7</ele></trkpt>
      <trkpt lat="35.316741" lon="126.891104"><ele>298.3</ele></trkpt>
      <trkpt lat="35.316358" lon="126.891047"><ele>291.2</ele></trkpt>
      <trkpt lat="35.316282" lon="126.891081"><ele>289.2</ele></trkpt>
      <trkpt lat="35.316322" lon="126.891187"><ele>287.2</ele></trkpt>
      <trkpt lat="35.316791" lon="126.891377"><ele>290.2</ele></trkpt>
      <trkpt lat="35.316903" lon="126.891665"><ele>288.1</ele></trkpt>
      <trkpt lat="35.316946" lon="126.892001"><ele>286.4</ele></trkpt>
      <trkpt lat="35.316715" lon="126.892283"><ele>278.4</ele></trkpt>
      <trkpt lat="35.316639" lon="126.892487"><ele>274.5</ele></trkpt>
      <trkpt lat="35.316646" lon="126.892664"><ele>272.6</ele></trkpt>
      <trkpt lat="35.316786" lon="126.892812"><ele>272.4</ele></trkpt>
      <trkpt lat="35.317142" lon="126.892950"><ele>278.5</ele></trkpt>
      <trkpt lat="35.317225" lon="126.893033"><ele>279.5</ele></trkpt>
      <trkpt lat="35.317012" lon="126.893447"><ele>266.7</ele></trkpt>
      <trkpt lat="35.317014" lon="126.893521"><ele>266.1</ele></trkpt>
      <trkpt lat="35.317169" lon="126.893792"><ele>268.6</ele></trkpt>
      <trkpt lat="35.317290" lon="126.894183"><ele>266.4</ele></trkpt>
      <trkpt lat="35.317138" lon="126.894797"><ele>249.5</ele></trkpt>
      <trkpt lat="35.317124" lon="126.895035"><ele>246.7</ele></trkpt>
      <trkpt lat="35.317173" lon="126.895173"><ele>247.7</ele></trkpt>
      <trkpt lat="35.317433" lon="126.895482"><ele>253.3</ele></trkpt>
      <trkpt lat="35.317400" lon="126.895868"><ele>248.2</ele></trkpt>
      <trkpt lat="35.317313" lon="126.895873"><ele>245.0</ele></trkpt>
      <trkpt lat="35.317090" lon="126.895639"><ele>240.2</ele></trkpt>
      <trkpt lat="35.316947" lon="126.895415"><ele>237.6</ele></trkpt>
      <trkpt lat="35.316878" lon="126.895164"><ele>238.4</ele></trkpt>
    </trkseg>
  </trk>
</gpx>
