<?xml version="1.0" encoding="UTF-8"?>
<gpx version="1.1" creator="kr-100-mountains route-harvester"
     xmlns="http://www.topografix.com/GPX/1/1"
     xmlns:k100="https://github.com/jay-jang/kr-100-mountains/ns/1"
     xmlns:xsi="http://www.w3.org/2001/XMLSchema-instance"
     xsi:schemaLocation="http://www.topografix.com/GPX/1/1 http://www.topografix.com/GPX/1/1/gpx.xsd">
  <metadata>
    <name>병풍산 · 대방저수지-정상 순환코스 (대안 2) (OSM 계산 경로)</name>
    <desc>실제 GPS 기록이 아닙니다. OpenStreetMap에 등록된 등산로 선형 위에서 계산한 경로이며, 현장 통제·훼손·출입 제한·계절 통제를 반영하지 않을 수 있습니다. 산행 전 공식 안내를 확인하세요.</desc>
    <time>2026-08-04T05:32:03.965Z</time>
    <link href="https://www.openstreetmap.org/copyright"><text>© OpenStreetMap contributors (ODbL 1.0)</text></link>
    <link href="https://registry.opendata.aws/terrain-tiles/"><text>Elevation: SRTM 1 arc-second (NASA/USGS) via AWS Terrain Tiles</text></link>
    <extensions>
      <k100:provenance>osm-routed</k100:provenance>
      <k100:not_a_recorded_track>true</k100:not_a_recorded_track>
      <k100:mountain_id>byeongpungsan</k100:mountain_id>
      <k100:mountain_name>병풍산</k100:mountain_name>
      <k100:route_id>byeongpungsan-f9717756</k100:route_id>
      <k100:route_index>1</k100:route_index>
      <k100:route_name>대방저수지-정상 순환코스</k100:route_name>
      <k100:variant>2</k100:variant>
      <k100:source>OpenStreetMap via Overpass API</k100:source>
      <k100:license>ODbL-1.0</k100:license>
      <k100:attribution>© OpenStreetMap contributors</k100:attribution>
      <k100:elevation_source>SRTM 1 arc-second (NASA/USGS) — AWS Terrain Tiles 배포본. 지형 DEM 추정 고도이며 실측 아님</k100:elevation_source>
      <k100:algorithm>dijkstra-grid-v1</k100:algorithm>
      <k100:osm_snapshot>2026-08-04</k100:osm_snapshot>
      <k100:snap_trailhead_m>26</k100:snap_trailhead_m>
      <k100:snap_summit_m>16</k100:snap_summit_m>
      <k100:validation_score>84</k100:validation_score>
      <k100:validation_status>accepted</k100:validation_status>
    </extensions>
  </metadata>
  <trk>
    <name>병풍산 · 대방저수지-정상 순환코스 (대안 2) (OSM 계산 경로)</name>
    <desc>실제 GPS 기록이 아닙니다. OpenStreetMap에 등록된 등산로 선형 위에서 계산한 경로이며, 현장 통제·훼손·출입 제한·계절 통제를 반영하지 않을 수 있습니다. 산행 전 공식 안내를 확인하세요.</desc>
    <trkseg>
      <trkpt lat="35.269619" lon="126.915096"><ele>30.4</ele></trkpt>
      <trkpt lat="35.269591" lon="126.915269"><ele>30.0</ele></trkpt>
      <trkpt lat="35.268852" lon="126.917035"><ele>28.0</ele></trkpt>
      <trkpt lat="35.270051" lon="126.917088"><ele>30.6</ele></trkpt>
      <trkpt lat="35.271171" lon="126.917505"><ele>30.8</ele></trkpt>
      <trkpt lat="35.271288" lon="126.917510"><ele>30.4</ele></trkpt>
      <trkpt lat="35.271612" lon="126.917466"><ele>29.2</ele></trkpt>
      <trkpt lat="35.272139" lon="126.917037"><ele>30.7</ele></trkpt>
      <trkpt lat="35.272395" lon="126.916990"><ele>31.0</ele></trkpt>
      <trkpt lat="35.273687" lon="126.917482"><ele>32.2</ele></trkpt>
      <trkpt lat="35.274775" lon="126.917340"><ele>32.0</ele></trkpt>
      <trkpt lat="35.274809" lon="126.917642"><ele>32.0</ele></trkpt>
      <trkpt lat="35.276875" lon="126.917304"><ele>33.2</ele></trkpt>
      <trkpt lat="35.277117" lon="126.917123"><ele>33.0</ele></trkpt>
      <trkpt lat="35.277436" lon="126.916758"><ele>33.8</ele></trkpt>
      <trkpt lat="35.277639" lon="126.916687"><ele>34.0</ele></trkpt>
      <trkpt lat="35.277901" lon="126.916850"><ele>34.4</ele></trkpt>
      <trkpt lat="35.278177" lon="126.917156"><ele>35.0</ele></trkpt>
      <trkpt lat="35.278353" lon="126.917271"><ele>34.9</ele></trkpt>
      <trkpt lat="35.278453" lon="126.917251"><ele>34.6</ele></trkpt>
      <trkpt lat="35.278458" lon="126.917304"><ele>34.7</ele></trkpt>
      <trkpt lat="35.279464" lon="126.917082"><ele>35.1</ele></trkpt>
      <trkpt lat="35.279789" lon="126.917409"><ele>34.3</ele></trkpt>
      <trkpt lat="35.279975" lon="126.917266"><ele>34.8</ele></trkpt>
      <trkpt lat="35.280068" lon="126.917598"><ele>34.4</ele></trkpt>
      <trkpt lat="35.280184" lon="126.917804"><ele>35.1</ele></trkpt>
      <trkpt lat="35.281295" lon="126.918462"><ele>36.6</ele></trkpt>
      <trkpt lat="35.281402" lon="126.918424"><ele>36.3</ele></trkpt>
      <trkpt lat="35.282161" lon="126.917371"><ele>37.6</ele></trkpt>
      <trkpt lat="35.282320" lon="126.917214"><ele>37.7</ele></trkpt>
      <trkpt lat="35.282579" lon="126.917131"><ele>39.0</ele></trkpt>
      <trkpt lat="35.282820" lon="126.917147"><ele>40.2</ele></trkpt>
      <trkpt lat="35.283296" lon="126.917669"><ele>41.1</ele></trkpt>
      <trkpt lat="35.283482" lon="126.918157"><ele>40.7</ele></trkpt>
      <trkpt lat="35.283547" lon="126.918209"><ele>40.7</ele></trkpt>
      <trkpt lat="35.283877" lon="126.918410"><ele>40.0</ele></trkpt>
      <trkpt lat="35.284104" lon="126.918477"><ele>41.1</ele></trkpt>
      <trkpt lat="35.284537" lon="126.918478"><ele>41.7</ele></trkpt>
      <trkpt lat="35.284672" lon="126.918525"><ele>41.2</ele></trkpt>
      <trkpt lat="35.284943" lon="126.918656"><ele>41.0</ele></trkpt>
      <trkpt lat="35.284893" lon="126.918830"><ele>41.3</ele></trkpt>
      <trkpt lat="35.288656" lon="126.918982"><ele>45.4</ele></trkpt>
      <trkpt lat="35.288616" lon="126.920071"><ele>47.3</ele></trkpt>
      <trkpt lat="35.289183" lon="126.920421"><ele>49.5</ele></trkpt>
      <trkpt lat="35.289772" lon="126.920289"><ele>50.3</ele></trkpt>
      <trkpt lat="35.290093" lon="126.920340"><ele>51.4</ele></trkpt>
      <trkpt lat="35.290211" lon="126.920311"><ele>51.1</ele></trkpt>
      <trkpt lat="35.291386" lon="126.919423"><ele>51.1</ele></trkpt>
      <trkpt lat="35.291740" lon="126.919770"><ele>52.4</ele></trkpt>
      <trkpt lat="35.292380" lon="126.920140"><ele>57.4</ele></trkpt>
      <trkpt lat="35.292551" lon="126.920045"><ele>58.2</ele></trkpt>
      <trkpt lat="35.293046" lon="126.920177"><ele>59.3</ele></trkpt>
      <trkpt lat="35.293358" lon="126.919992"><ele>57.9</ele></trkpt>
      <trkpt lat="35.293689" lon="126.919246"><ele>58.0</ele></trkpt>
      <trkpt lat="35.293945" lon="126.919159"><ele>60.5</ele></trkpt>
      <trkpt lat="35.294448" lon="126.919304"><ele>60.0</ele></trkpt>
      <trkpt lat="35.294658" lon="126.919198"><ele>60.8</ele></trkpt>
      <trkpt lat="35.294773" lon="126.919008"><ele>61.6</ele></trkpt>
      <trkpt lat="35.294850" lon="126.918983"><ele>61.7</ele></trkpt>
      <trkpt lat="35.295287" lon="126.919348"><ele>62.0</ele></trkpt>
      <trkpt lat="35.295951" lon="126.919451"><ele>61.4</ele></trkpt>
      <trkpt lat="35.296220" lon="126.919366"><ele>63.2</ele></trkpt>
      <trkpt lat="35.296437" lon="126.919429"><ele>63.3</ele></trkpt>
      <trkpt lat="35.296792" lon="126.919219"><ele>67.0</ele></trkpt>
      <trkpt lat="35.297152" lon="126.919329"><ele>67.3</ele></trkpt>
      <trkpt lat="35.297799" lon="126.920338"><ele>69.3</ele></trkpt>
      <trkpt lat="35.299724" lon="126.918544"><ele>76.2</ele></trkpt>
      <trkpt lat="35.299771" lon="126.918631"><ele>76.2</ele></trkpt>
      <trkpt lat="35.299893" lon="126.918562"><ele>76.7</ele></trkpt>
      <trkpt lat="35.300791" lon="126.917779"><ele>81.8</ele></trkpt>
      <trkpt lat="35.301995" lon="126.917308"><ele>86.9</ele></trkpt>
      <trkpt lat="35.302740" lon="126.917123"><ele>88.0</ele></trkpt>
      <trkpt lat="35.304165" lon="126.916993"><ele>93.8</ele></trkpt>
      <trkpt lat="35.304512" lon="126.916993"><ele>93.8</ele></trkpt>
      <trkpt lat="35.304911" lon="126.917113"><ele>91.8</ele></trkpt>
      <trkpt lat="35.305157" lon="126.916694"><ele>93.8</ele></trkpt>
      <trkpt lat="35.305679" lon="126.915992"><ele>101.4</ele></trkpt>
      <trkpt lat="35.305789" lon="126.915868"><ele>103.5</ele></trkpt>
      <trkpt lat="35.305962" lon="126.915801"><ele>104.6</ele></trkpt>
      <trkpt lat="35.306095" lon="126.915815"><ele>104.3</ele></trkpt>
      <trkpt lat="35.306255" lon="126.916003"><ele>101.2</ele></trkpt>
      <trkpt lat="35.306479" lon="126.915921"><ele>103.7</ele></trkpt>
      <trkpt lat="35.307174" lon="126.916530"><ele>101.2</ele></trkpt>
      <trkpt lat="35.307900" lon="126.916992"><ele>101.6</ele></trkpt>
      <trkpt lat="35.308233" lon="126.916898"><ele>103.3</ele></trkpt>
      <trkpt lat="35.308384" lon="126.916925"><ele>103.5</ele></trkpt>
      <trkpt lat="35.308631" lon="126.917142"><ele>102.5</ele></trkpt>
      <trkpt lat="35.309035" lon="126.917896"><ele>100.8</ele></trkpt>
      <trkpt lat="35.309459" lon="126.917396"><ele>101.3</ele></trkpt>
      <trkpt lat="35.310563" lon="126.917000"><ele>96.8</ele></trkpt>
      <trkpt lat="35.311044" lon="126.916608"><ele>97.5</ele></trkpt>
      <trkpt lat="35.311438" lon="126.916627"><ele>97.2</ele></trkpt>
      <trkpt lat="35.311584" lon="126.916683"><ele>97.8</ele></trkpt>
      <trkpt lat="35.311626" lon="126.916608"><ele>97.9</ele></trkpt>
      <trkpt lat="35.312144" lon="126.916265"><ele>98.0</ele></trkpt>
      <trkpt lat="35.312504" lon="126.915694"><ele>100.0</ele></trkpt>
      <trkpt lat="35.312587" lon="126.915629"><ele>100.0</ele></trkpt>
      <trkpt lat="35.312734" lon="126.915554"><ele>100.0</ele></trkpt>
      <trkpt lat="35.313402" lon="126.915439"><ele>101.2</ele></trkpt>
      <trkpt lat="35.313603" lon="126.915485"><ele>102.0</ele></trkpt>
      <trkpt lat="35.313636" lon="126.914932"><ele>102.5</ele></trkpt>
      <trkpt lat="35.313947" lon="126.914761"><ele>106.5</ele></trkpt>
      <trkpt lat="35.314019" lon="126.914519"><ele>108.5</ele></trkpt>
      <trkpt lat="35.313967" lon="126.914202"><ele>110.1</ele></trkpt>
      <trkpt lat="35.314116" lon="126.912974"><ele>119.5</ele></trkpt>
      <trkpt lat="35.314061" lon="126.912448"><ele>119.3</ele></trkpt>
      <trkpt lat="35.314279" lon="126.911214"><ele>128.0</ele></trkpt>
      <trkpt lat="35.314409" lon="126.911045"><ele>132.2</ele></trkpt>
      <trkpt lat="35.314532" lon="126.910598"><ele>131.8</ele></trkpt>
      <trkpt lat="35.314946" lon="126.909955"><ele>131.2</ele></trkpt>
      <trkpt lat="35.315049" lon="126.909653"><ele>130.9</ele></trkpt>
      <trkpt lat="35.315337" lon="126.909617"><ele>135.1</ele></trkpt>
      <trkpt lat="35.315724" lon="126.909790"><ele>145.5</ele></trkpt>
      <trkpt lat="35.315942" lon="126.909797"><ele>150.1</ele></trkpt>
      <trkpt lat="35.316158" lon="126.909679"><ele>154.5</ele></trkpt>
      <trkpt lat="35.316662" lon="126.909599"><ele>163.6</ele></trkpt>
      <trkpt lat="35.316972" lon="126.909417"><ele>171.4</ele></trkpt>
      <trkpt lat="35.317232" lon="126.909368"><ele>178.1</ele></trkpt>
      <trkpt lat="35.317591" lon="126.909120"><ele>191.2</ele></trkpt>
      <trkpt lat="35.317867" lon="126.909125"><ele>201.0</ele></trkpt>
      <trkpt lat="35.318025" lon="126.909197"><ele>206.9</ele></trkpt>
      <trkpt lat="35.318120" lon="126.909039"><ele>208.8</ele></trkpt>
      <trkpt lat="35.318623" lon="126.908693"><ele>229.7</ele></trkpt>
      <trkpt lat="35.319193" lon="126.908600"><ele>256.4</ele></trkpt>
      <trkpt lat="35.319498" lon="126.908676"><ele>269.5</ele></trkpt>
      <trkpt lat="35.319438" lon="126.908427"><ele>272.6</ele></trkpt>
      <trkpt lat="35.319204" lon="126.908029"><ele>273.7</ele></trkpt>
      <trkpt lat="35.319182" lon="126.907775"><ele>274.8</ele></trkpt>
      <trkpt lat="35.319663" lon="126.906330"><ele>286.5</ele></trkpt>
      <trkpt lat="35.319652" lon="126.905804"><ele>284.8</ele></trkpt>
      <trkpt lat="35.319501" lon="126.905179"><ele>289.5</ele></trkpt>
      <trkpt lat="35.319563" lon="126.904778"><ele>292.3</ele></trkpt>
      <trkpt lat="35.319680" lon="126.904511"><ele>301.2</ele></trkpt>
      <trkpt lat="35.319555" lon="126.903993"><ele>294.1</ele></trkpt>
      <trkpt lat="35.319597" lon="126.903610"><ele>297.6</ele></trkpt>
      <trkpt lat="35.319821" lon="126.903122"><ele>306.2</ele></trkpt>
      <trkpt lat="35.319860" lon="126.902870"><ele>305.3</ele></trkpt>
      <trkpt lat="35.319729" lon="126.902469"><ele>300.0</ele></trkpt>
      <trkpt lat="35.319706" lon="126.902137"><ele>304.0</ele></trkpt>
      <trkpt lat="35.319577" lon="126.901630"><ele>300.3</ele></trkpt>
      <trkpt lat="35.319658" lon="126.901234"><ele>306.8</ele></trkpt>
      <trkpt lat="35.319533" lon="126.900851"><ele>299.7</ele></trkpt>
      <trkpt lat="35.319646" lon="126.900335"><ele>305.3</ele></trkpt>
      <trkpt lat="35.319454" lon="126.899978"><ele>298.4</ele></trkpt>
      <trkpt lat="35.319441" lon="126.899844"><ele>297.9</ele></trkpt>
      <trkpt lat="35.320080" lon="126.897794"><ele>298.5</ele></trkpt>
      <trkpt lat="35.320012" lon="126.897621"><ele>298.6</ele></trkpt>
      <trkpt lat="35.319527" lon="126.897122"><ele>303.4</ele></trkpt>
      <trkpt lat="35.319210" lon="126.897155"><ele>298.4</ele></trkpt>
      <trkpt lat="35.319115" lon="126.897092"><ele>298.6</ele></trkpt>
      <trkpt lat="35.318794" lon="126.896554"><ele>306.1</ele></trkpt>
      <trkpt lat="35.318774" lon="126.896398"><ele>309.2</ele></trkpt>
      <trkpt lat="35.318934" lon="126.896132"><ele>317.1</ele></trkpt>
      <trkpt lat="35.318936" lon="126.895503"><ele>314.0</ele></trkpt>
      <trkpt lat="35.318800" lon="126.895084"><ele>314.6</ele></trkpt>
      <trkpt lat="35.318676" lon="126.894947"><ele>311.5</ele></trkpt>
      <trkpt lat="35.318398" lon="126.894370"><ele>313.3</ele></trkpt>
      <trkpt lat="35.318190" lon="126.893184"><ele>313.7</ele></trkpt>
      <trkpt lat="35.318066" lon="126.893025"><ele>310.6</ele></trkpt>
      <trkpt lat="35.317749" lon="126.892835"><ele>301.4</ele></trkpt>
      <trkpt lat="35.317767" lon="126.892648"><ele>304.5</ele></trkpt>
      <trkpt lat="35.317922" lon="126.892347"><ele>311.8</ele></trkpt>
      <trkpt lat="35.317917" lon="126.892148"><ele>312.5</ele></trkpt>
      <trkpt lat="35.317559" lon="126.891794"><ele>305.6</ele></trkpt>
      <trkpt lat="35.317297" lon="126.891157"><ele>308.4</ele></trkpt>
      <trkpt lat="35.317059" lon="126.890999"><ele>305.7</ele></trkpt>
      <trkpt lat="35.316741" lon="126.891104"><ele>298.3</ele></trkpt>
      <trkpt lat="35.316311" lon="126.891054"><ele>290.3</ele></trkpt>
      <trkpt lat="35.316285" lon="126.891136"><ele>287.9</ele></trkpt>
      <trkpt lat="35.316791" lon="126.891377"><ele>290.2</ele></trkpt>
      <trkpt lat="35.316903" lon="126.891665"><ele>288.1</ele></trkpt>
      <trkpt lat="35.316946" lon="126.892001"><ele>286.4</ele></trkpt>
      <trkpt lat="35.316715" lon="126.892283"><ele>278.4</ele></trkpt>
      <trkpt lat="35.316634" lon="126.892593"><ele>273.1</ele></trkpt>
      <trkpt lat="35.316646" lon="126.892664"><ele>272.6</ele></trkpt>
      <trkpt lat="35.316786" lon="126.892812"><ele>272.4</ele></trkpt>
      <trkpt lat="35.317142" lon="126.892950"><ele>278.5</ele></trkpt>
      <trkpt lat="35.317225" lon="126.893033"><ele>279.5</ele></trkpt>
      <trkpt lat="35.317012" lon="126.893447"><ele>266.7</ele></trkpt>
      <trkpt lat="35.317014" lon="126.893521"><ele>266.1</ele></trkpt>
      <trkpt lat="35.317169" lon="126.893792"><ele>268.6</ele></trkpt>
      <trkpt lat="35.317290" lon="126.894183"><ele>266.4</ele></trkpt>
      <trkpt lat="35.317138" lon="126.894797"><ele>249.5</ele></trkpt>
      <trkpt lat="35.317124" lon="126.895035"><ele>246.7</ele></trkpt>
      <trkpt lat="35.317173" lon="126.895173"><ele>247.7</ele></trkpt>
      <trkpt lat="35.317433" lon="126.895482"><ele>253.3</ele></trkpt>
      <trkpt lat="35.317400" lon="126.895868"><ele>248.2</ele></trkpt>
      <trkpt lat="35.317313" lon="126.895873"><ele>245.0</ele></trkpt>
      <trkpt lat="35.317090" lon="126.895639"><ele>240.2</ele></trkpt>
      <trkpt lat="35.316947" lon="126.895415"><ele>237.6</ele></trkpt>
      <trkpt lat="35.316878" lon="126.895164"><ele>238.4</ele></trkpt>
    </trkseg>
  </trk>
</gpx>
