<?xml version="1.0" encoding="UTF-8"?>
<gpx version="1.1" creator="kr-100-mountains route-harvester"
     xmlns="http://www.topografix.com/GPX/1/1"
     xmlns:k100="https://github.com/jay-jang/kr-100-mountains/ns/1"
     xmlns:xsi="http://www.w3.org/2001/XMLSchema-instance"
     xsi:schemaLocation="http://www.topografix.com/GPX/1/1 http://www.topografix.com/GPX/1/1/gpx.xsd">
  <metadata>
    <name>병풍산 · 한재-투구봉-병풍산 원점회귀 (대안 2) (OSM 계산 경로)</name>
    <desc>실제 GPS 기록이 아닙니다. OpenStreetMap에 등록된 등산로 선형 위에서 계산한 경로이며, 현장 통제·훼손·출입 제한·계절 통제를 반영하지 않을 수 있습니다. 산행 전 공식 안내를 확인하세요.</desc>
    <time>2026-08-04T05:32:04.026Z</time>
    <link href="https://www.openstreetmap.org/copyright"><text>© OpenStreetMap contributors (ODbL 1.0)</text></link>
    <link href="https://registry.opendata.aws/terrain-tiles/"><text>Elevation: SRTM 1 arc-second (NASA/USGS) via AWS Terrain Tiles</text></link>
    <extensions>
      <k100:provenance>osm-routed</k100:provenance>
      <k100:not_a_recorded_track>true</k100:not_a_recorded_track>
      <k100:mountain_id>byeongpungsan</k100:mountain_id>
      <k100:mountain_name>병풍산</k100:mountain_name>
      <k100:route_id>byeongpungsan-3dc37fa7</k100:route_id>
      <k100:route_index>2</k100:route_index>
      <k100:route_name>한재-투구봉-병풍산 원점회귀</k100:route_name>
      <k100:variant>2</k100:variant>
      <k100:source>OpenStreetMap via Overpass API</k100:source>
      <k100:license>ODbL-1.0</k100:license>
      <k100:attribution>© OpenStreetMap contributors</k100:attribution>
      <k100:elevation_source>SRTM 1 arc-second (NASA/USGS) — AWS Terrain Tiles 배포본. 지형 DEM 추정 고도이며 실측 아님</k100:elevation_source>
      <k100:algorithm>dijkstra-grid-v1</k100:algorithm>
      <k100:osm_snapshot>2026-08-04</k100:osm_snapshot>
      <k100:snap_trailhead_m>40</k100:snap_trailhead_m>
      <k100:snap_summit_m>16</k100:snap_summit_m>
      <k100:validation_score>84</k100:validation_score>
      <k100:validation_status>accepted</k100:validation_status>
    </extensions>
  </metadata>
  <trk>
    <name>병풍산 · 한재-투구봉-병풍산 원점회귀 (대안 2) (OSM 계산 경로)</name>
    <desc>실제 GPS 기록이 아닙니다. OpenStreetMap에 등록된 등산로 선형 위에서 계산한 경로이며, 현장 통제·훼손·출입 제한·계절 통제를 반영하지 않을 수 있습니다. 산행 전 공식 안내를 확인하세요.</desc>
    <trkseg>
      <trkpt lat="35.309865" lon="126.877314"><ele>308.0</ele></trkpt>
      <trkpt lat="35.310001" lon="126.877301"><ele>307.7</ele></trkpt>
      <trkpt lat="35.310190" lon="126.877116"><ele>309.1</ele></trkpt>
      <trkpt lat="35.310290" lon="126.877163"><ele>312.6</ele></trkpt>
      <trkpt lat="35.310417" lon="126.877014"><ele>315.5</ele></trkpt>
      <trkpt lat="35.310641" lon="126.876949"><ele>323.4</ele></trkpt>
      <trkpt lat="35.310736" lon="126.877050"><ele>328.4</ele></trkpt>
      <trkpt lat="35.310991" lon="126.877100"><ele>335.8</ele></trkpt>
      <trkpt lat="35.311243" lon="126.877330"><ele>342.5</ele></trkpt>
      <trkpt lat="35.311466" lon="126.877360"><ele>345.9</ele></trkpt>
      <trkpt lat="35.311700" lon="126.877813"><ele>360.2</ele></trkpt>
      <trkpt lat="35.311839" lon="126.877906"><ele>364.2</ele></trkpt>
      <trkpt lat="35.312131" lon="126.877861"><ele>367.5</ele></trkpt>
      <trkpt lat="35.312233" lon="126.877695"><ele>365.0</ele></trkpt>
      <trkpt lat="35.312558" lon="126.877804"><ele>370.0</ele></trkpt>
      <trkpt lat="35.312612" lon="126.878042"><ele>377.0</ele></trkpt>
      <trkpt lat="35.312587" lon="126.878170"><ele>380.5</ele></trkpt>
      <trkpt lat="35.312630" lon="126.878265"><ele>383.2</ele></trkpt>
      <trkpt lat="35.312590" lon="126.878453"><ele>388.0</ele></trkpt>
      <trkpt lat="35.312805" lon="126.878525"><ele>389.3</ele></trkpt>
      <trkpt lat="35.313008" lon="126.878414"><ele>381.4</ele></trkpt>
      <trkpt lat="35.313140" lon="126.878188"><ele>371.4</ele></trkpt>
      <trkpt lat="35.313310" lon="126.877320"><ele>336.2</ele></trkpt>
      <trkpt lat="35.313245" lon="126.877206"><ele>334.7</ele></trkpt>
      <trkpt lat="35.313247" lon="126.877095"><ele>331.1</ele></trkpt>
      <trkpt lat="35.313283" lon="126.876937"><ele>325.1</ele></trkpt>
      <trkpt lat="35.313405" lon="126.876763"><ele>318.3</ele></trkpt>
      <trkpt lat="35.313388" lon="126.876428"><ele>308.4</ele></trkpt>
      <trkpt lat="35.313341" lon="126.876386"><ele>307.0</ele></trkpt>
      <trkpt lat="35.313352" lon="126.876288"><ele>305.0</ele></trkpt>
      <trkpt lat="35.313290" lon="126.876098"><ele>300.6</ele></trkpt>
      <trkpt lat="35.312889" lon="126.875496"><ele>288.1</ele></trkpt>
      <trkpt lat="35.312913" lon="126.875539"><ele>288.1</ele></trkpt>
      <trkpt lat="35.313020" lon="126.875479"><ele>290.5</ele></trkpt>
      <trkpt lat="35.313446" lon="126.875481"><ele>302.3</ele></trkpt>
      <trkpt lat="35.313664" lon="126.875670"><ele>307.9</ele></trkpt>
      <trkpt lat="35.313869" lon="126.875699"><ele>314.3</ele></trkpt>
      <trkpt lat="35.314088" lon="126.875920"><ele>321.6</ele></trkpt>
      <trkpt lat="35.314285" lon="126.876017"><ele>327.8</ele></trkpt>
      <trkpt lat="35.314697" lon="126.876082"><ele>341.7</ele></trkpt>
      <trkpt lat="35.314931" lon="126.876052"><ele>350.3</ele></trkpt>
      <trkpt lat="35.315312" lon="126.876136"><ele>360.9</ele></trkpt>
      <trkpt lat="35.315492" lon="126.876339"><ele>365.9</ele></trkpt>
      <trkpt lat="35.315783" lon="126.876505"><ele>377.7</ele></trkpt>
      <trkpt lat="35.315867" lon="126.876493"><ele>380.7</ele></trkpt>
      <trkpt lat="35.315976" lon="126.876390"><ele>383.2</ele></trkpt>
      <trkpt lat="35.316144" lon="126.876071"><ele>387.0</ele></trkpt>
      <trkpt lat="35.316309" lon="126.875995"><ele>392.7</ele></trkpt>
      <trkpt lat="35.316684" lon="126.876541"><ele>416.7</ele></trkpt>
      <trkpt lat="35.316561" lon="126.877023"><ele>421.8</ele></trkpt>
      <trkpt lat="35.316502" lon="126.877766"><ele>426.4</ele></trkpt>
      <trkpt lat="35.316511" lon="126.877970"><ele>428.4</ele></trkpt>
      <trkpt lat="35.316727" lon="126.878657"><ele>439.4</ele></trkpt>
      <trkpt lat="35.316705" lon="126.879091"><ele>438.8</ele></trkpt>
      <trkpt lat="35.316607" lon="126.879413"><ele>433.7</ele></trkpt>
      <trkpt lat="35.316675" lon="126.879770"><ele>439.9</ele></trkpt>
      <trkpt lat="35.316390" lon="126.880521"><ele>450.0</ele></trkpt>
      <trkpt lat="35.316073" lon="126.880995"><ele>451.5</ele></trkpt>
      <trkpt lat="35.315851" lon="126.881700"><ele>453.1</ele></trkpt>
      <trkpt lat="35.315940" lon="126.881785"><ele>453.6</ele></trkpt>
      <trkpt lat="35.315884" lon="126.882668"><ele>434.0</ele></trkpt>
      <trkpt lat="35.315946" lon="126.883070"><ele>424.9</ele></trkpt>
      <trkpt lat="35.315900" lon="126.883238"><ele>420.5</ele></trkpt>
      <trkpt lat="35.315968" lon="126.883459"><ele>415.1</ele></trkpt>
      <trkpt lat="35.315788" lon="126.883793"><ele>404.3</ele></trkpt>
      <trkpt lat="35.315923" lon="126.884041"><ele>397.2</ele></trkpt>
      <trkpt lat="35.315591" lon="126.885148"><ele>372.3</ele></trkpt>
      <trkpt lat="35.315208" lon="126.886027"><ele>348.4</ele></trkpt>
      <trkpt lat="35.315275" lon="126.886523"><ele>340.0</ele></trkpt>
      <trkpt lat="35.315208" lon="126.886788"><ele>335.6</ele></trkpt>
      <trkpt lat="35.315205" lon="126.887022"><ele>332.4</ele></trkpt>
      <trkpt lat="35.315092" lon="126.887368"><ele>325.1</ele></trkpt>
      <trkpt lat="35.315112" lon="126.887603"><ele>323.0</ele></trkpt>
      <trkpt lat="35.314878" lon="126.888308"><ele>308.3</ele></trkpt>
      <trkpt lat="35.314866" lon="126.888495"><ele>305.6</ele></trkpt>
      <trkpt lat="35.314692" lon="126.889149"><ele>292.0</ele></trkpt>
      <trkpt lat="35.314700" lon="126.889786"><ele>279.9</ele></trkpt>
      <trkpt lat="35.314663" lon="126.889926"><ele>277.6</ele></trkpt>
      <trkpt lat="35.314713" lon="126.890207"><ele>272.5</ele></trkpt>
      <trkpt lat="35.314561" lon="126.890901"><ele>264.4</ele></trkpt>
      <trkpt lat="35.314679" lon="126.891613"><ele>254.8</ele></trkpt>
      <trkpt lat="35.314640" lon="126.892077"><ele>245.7</ele></trkpt>
      <trkpt lat="35.314848" lon="126.892943"><ele>234.0</ele></trkpt>
      <trkpt lat="35.315138" lon="126.893023"><ele>233.6</ele></trkpt>
      <trkpt lat="35.315497" lon="126.893353"><ele>238.8</ele></trkpt>
      <trkpt lat="35.315447" lon="126.893726"><ele>230.7</ele></trkpt>
      <trkpt lat="35.315602" lon="126.894421"><ele>221.4</ele></trkpt>
      <trkpt lat="35.315620" lon="126.894692"><ele>217.9</ele></trkpt>
      <trkpt lat="35.315789" lon="126.894928"><ele>215.8</ele></trkpt>
      <trkpt lat="35.315795" lon="126.894862"><ele>217.6</ele></trkpt>
      <trkpt lat="35.315856" lon="126.894841"><ele>219.6</ele></trkpt>
      <trkpt lat="35.316020" lon="126.895042"><ele>218.2</ele></trkpt>
      <trkpt lat="35.316469" lon="126.895388"><ele>222.6</ele></trkpt>
      <trkpt lat="35.316626" lon="126.895778"><ele>220.5</ele></trkpt>
      <trkpt lat="35.316674" lon="126.895776"><ele>222.7</ele></trkpt>
      <trkpt lat="35.316710" lon="126.895639"><ele>227.4</ele></trkpt>
      <trkpt lat="35.316544" lon="126.895177"><ele>229.5</ele></trkpt>
      <trkpt lat="35.316239" lon="126.894801"><ele>229.8</ele></trkpt>
      <trkpt lat="35.316199" lon="126.894647"><ele>232.2</ele></trkpt>
      <trkpt lat="35.316232" lon="126.894482"><ele>235.9</ele></trkpt>
      <trkpt lat="35.316159" lon="126.894300"><ele>236.0</ele></trkpt>
      <trkpt lat="35.316208" lon="126.894152"><ele>237.7</ele></trkpt>
      <trkpt lat="35.316352" lon="126.894116"><ele>240.3</ele></trkpt>
      <trkpt lat="35.316912" lon="126.894397"><ele>251.2</ele></trkpt>
      <trkpt lat="35.316878" lon="126.895164"><ele>238.4</ele></trkpt>
    </trkseg>
  </trk>
</gpx>
