<?xml version="1.0" encoding="UTF-8"?>
<gpx version="1.1" creator="kr-100-mountains route-harvester"
     xmlns="http://www.topografix.com/GPX/1/1"
     xmlns:k100="https://github.com/jay-jang/kr-100-mountains/ns/1"
     xmlns:xsi="http://www.w3.org/2001/XMLSchema-instance"
     xsi:schemaLocation="http://www.topografix.com/GPX/1/1 http://www.topografix.com/GPX/1/1/gpx.xsd">
  <metadata>
    <name>북한산둘레길</name>
    <desc>OpenStreetMap에 등록된 도보 경로(route=hiking) 관계를 그대로 내보낸 선형입니다. 실측 GPS 기록이 아닙니다.</desc>
    <time>2026-08-04T05:14:28.761Z</time>
    <link href="https://www.openstreetmap.org/copyright"><text>© OpenStreetMap contributors (ODbL 1.0)</text></link>
    <extensions>
      <k100:provenance>osm-relation</k100:provenance>
      <k100:not_a_recorded_track>true</k100:not_a_recorded_track>
      <k100:osm_type>relation</k100:osm_type>
      <k100:osm_id>11274316</k100:osm_id>
      <k100:osm_name>북한산둘레길</k100:osm_name>
      <k100:source>OpenStreetMap via Overpass API</k100:source>
      <k100:license>ODbL-1.0</k100:license>
      <k100:attribution>© OpenStreetMap contributors</k100:attribution>
      <k100:osm_snapshot>2026-08-04</k100:osm_snapshot>
    </extensions>
  </metadata>
  <trk>
    <name>북한산둘레길</name>
    <desc>OpenStreetMap에 등록된 도보 경로(route=hiking) 관계를 그대로 내보낸 선형입니다. 실측 GPS 기록이 아닙니다.</desc>
    <trkseg>
      <trkpt lat="37.676548" lon="127.031865"></trkpt>
      <trkpt lat="37.676112" lon="127.032072"></trkpt>
      <trkpt lat="37.675611" lon="127.032661"></trkpt>
      <trkpt lat="37.673799" lon="127.032971"></trkpt>
      <trkpt lat="37.673952" lon="127.032503"></trkpt>
      <trkpt lat="37.674313" lon="127.032141"></trkpt>
      <trkpt lat="37.674335" lon="127.031781"></trkpt>
      <trkpt lat="37.674696" lon="127.031270"></trkpt>
      <trkpt lat="37.674826" lon="127.030787"></trkpt>
      <trkpt lat="37.674656" lon="127.030462"></trkpt>
      <trkpt lat="37.673716" lon="127.030148"></trkpt>
      <trkpt lat="37.673590" lon="127.029050"></trkpt>
      <trkpt lat="37.673085" lon="127.028462"></trkpt>
      <trkpt lat="37.673301" lon="127.026657"></trkpt>
      <trkpt lat="37.673432" lon="127.026405"></trkpt>
      <trkpt lat="37.672983" lon="127.025622"></trkpt>
      <trkpt lat="37.672761" lon="127.025570"></trkpt>
      <trkpt lat="37.672570" lon="127.025967"></trkpt>
      <trkpt lat="37.671626" lon="127.026547"></trkpt>
      <trkpt lat="37.671010" lon="127.026381"></trkpt>
      <trkpt lat="37.670868" lon="127.026680"></trkpt>
      <trkpt lat="37.670526" lon="127.026925"></trkpt>
      <trkpt lat="37.670361" lon="127.026815"></trkpt>
      <trkpt lat="37.669784" lon="127.026976"></trkpt>
      <trkpt lat="37.669363" lon="127.026875"></trkpt>
      <trkpt lat="37.668535" lon="127.027552"></trkpt>
      <trkpt lat="37.668558" lon="127.028103"></trkpt>
      <trkpt lat="37.668272" lon="127.028267"></trkpt>
      <trkpt lat="37.667482" lon="127.026773"></trkpt>
      <trkpt lat="37.667001" lon="127.026584"></trkpt>
      <trkpt lat="37.666792" lon="127.026242"></trkpt>
      <trkpt lat="37.666562" lon="127.026250"></trkpt>
      <trkpt lat="37.666477" lon="127.025938"></trkpt>
      <trkpt lat="37.665915" lon="127.026225"></trkpt>
      <trkpt lat="37.664805" lon="127.026032"></trkpt>
      <trkpt lat="37.664798" lon="127.025906"></trkpt>
      <trkpt lat="37.664308" lon="127.025896"></trkpt>
      <trkpt lat="37.663949" lon="127.026175"></trkpt>
      <trkpt lat="37.663642" lon="127.026164"></trkpt>
      <trkpt lat="37.663559" lon="127.025955"></trkpt>
      <trkpt lat="37.663739" lon="127.025339"></trkpt>
      <trkpt lat="37.662814" lon="127.024949"></trkpt>
      <trkpt lat="37.662322" lon="127.024933"></trkpt>
      <trkpt lat="37.662152" lon="127.024533"></trkpt>
    </trkseg>
  </trk>
</gpx>
