<?xml version="1.0" encoding="UTF-8"?>
<gpx version="1.1" creator="kr-100-mountains route-harvester"
     xmlns="http://www.topografix.com/GPX/1/1"
     xmlns:k100="https://github.com/jay-jang/kr-100-mountains/ns/1"
     xmlns:xsi="http://www.w3.org/2001/XMLSchema-instance"
     xsi:schemaLocation="http://www.topografix.com/GPX/1/1 http://www.topografix.com/GPX/1/1/gpx.xsd">
  <metadata>
    <name>[북한산둘레길] 1구간 소나무숲길</name>
    <desc>OpenStreetMap에 등록된 도보 경로(route=hiking) 관계를 그대로 내보낸 선형입니다. 실측 GPS 기록이 아닙니다.</desc>
    <time>2026-08-04T05:14:10.839Z</time>
    <link href="https://www.openstreetmap.org/copyright"><text>© OpenStreetMap contributors (ODbL 1.0)</text></link>
    <extensions>
      <k100:provenance>osm-relation</k100:provenance>
      <k100:not_a_recorded_track>true</k100:not_a_recorded_track>
      <k100:osm_type>relation</k100:osm_type>
      <k100:osm_id>11340616</k100:osm_id>
      <k100:osm_name>[북한산둘레길] 1구간 소나무숲길</k100:osm_name>
      <k100:operator>북한산국립공원관리공단</k100:operator>
      <k100:source>OpenStreetMap via Overpass API</k100:source>
      <k100:license>ODbL-1.0</k100:license>
      <k100:attribution>© OpenStreetMap contributors</k100:attribution>
      <k100:osm_snapshot>2026-08-04</k100:osm_snapshot>
    </extensions>
  </metadata>
  <trk>
    <name>[북한산둘레길] 1구간 소나무숲길</name>
    <desc>OpenStreetMap에 등록된 도보 경로(route=hiking) 관계를 그대로 내보낸 선형입니다. 실측 GPS 기록이 아닙니다.</desc>
    <trkseg>
      <trkpt lat="37.653362" lon="127.010481"></trkpt>
      <trkpt lat="37.653498" lon="127.010169"></trkpt>
      <trkpt lat="37.653495" lon="127.009674"></trkpt>
      <trkpt lat="37.653915" lon="127.008790"></trkpt>
      <trkpt lat="37.654687" lon="127.008424"></trkpt>
      <trkpt lat="37.654975" lon="127.008027"></trkpt>
      <trkpt lat="37.655431" lon="127.007873"></trkpt>
      <trkpt lat="37.655740" lon="127.008192"></trkpt>
      <trkpt lat="37.656116" lon="127.007749"></trkpt>
      <trkpt lat="37.656720" lon="127.007541"></trkpt>
      <trkpt lat="37.656675" lon="127.007064"></trkpt>
      <trkpt lat="37.656850" lon="127.006732"></trkpt>
      <trkpt lat="37.656934" lon="127.006675"></trkpt>
      <trkpt lat="37.657046" lon="127.006988"></trkpt>
      <trkpt lat="37.657449" lon="127.006940"></trkpt>
      <trkpt lat="37.657664" lon="127.005996"></trkpt>
      <trkpt lat="37.657754" lon="127.006004"></trkpt>
      <trkpt lat="37.658039" lon="127.006389"></trkpt>
      <trkpt lat="37.658107" lon="127.007422"></trkpt>
      <trkpt lat="37.659311" lon="127.008174"></trkpt>
      <trkpt lat="37.659208" lon="127.008644"></trkpt>
      <trkpt lat="37.658918" lon="127.009129"></trkpt>
      <trkpt lat="37.659059" lon="127.009604"></trkpt>
      <trkpt lat="37.659416" lon="127.010061"></trkpt>
      <trkpt lat="37.659587" lon="127.009941"></trkpt>
      <trkpt lat="37.659788" lon="127.010037"></trkpt>
      <trkpt lat="37.660984" lon="127.008980"></trkpt>
      <trkpt lat="37.661070" lon="127.008103"></trkpt>
      <trkpt lat="37.661252" lon="127.007619"></trkpt>
      <trkpt lat="37.660874" lon="127.006670"></trkpt>
      <trkpt lat="37.660990" lon="127.006610"></trkpt>
      <trkpt lat="37.661644" lon="127.006997"></trkpt>
      <trkpt lat="37.662515" lon="127.007839"></trkpt>
      <trkpt lat="37.662832" lon="127.008893"></trkpt>
      <trkpt lat="37.663583" lon="127.009913"></trkpt>
      <trkpt lat="37.663475" lon="127.011039"></trkpt>
      <trkpt lat="37.663970" lon="127.011923"></trkpt>
    </trkseg>
  </trk>
</gpx>
