<?xml version="1.0" encoding="UTF-8"?>
<gpx version="1.1" creator="kr-100-mountains route-harvester"
     xmlns="http://www.topografix.com/GPX/1/1"
     xmlns:k100="https://github.com/jay-jang/kr-100-mountains/ns/1"
     xmlns:xsi="http://www.w3.org/2001/XMLSchema-instance"
     xsi:schemaLocation="http://www.topografix.com/GPX/1/1 http://www.topografix.com/GPX/1/1/gpx.xsd">
  <metadata>
    <name>서울둘레길 1코스 수락-불암산코스</name>
    <desc>OpenStreetMap에 등록된 도보 경로(route=hiking) 관계를 그대로 내보낸 선형입니다. 실측 GPS 기록이 아닙니다.</desc>
    <time>2026-08-04T05:14:28.761Z</time>
    <link href="https://www.openstreetmap.org/copyright"><text>© OpenStreetMap contributors (ODbL 1.0)</text></link>
    <extensions>
      <k100:provenance>osm-relation</k100:provenance>
      <k100:not_a_recorded_track>true</k100:not_a_recorded_track>
      <k100:osm_type>relation</k100:osm_type>
      <k100:osm_id>11361878</k100:osm_id>
      <k100:osm_name>서울둘레길 1코스 수락-불암산코스</k100:osm_name>
      <k100:network>lwn</k100:network>
      <k100:operator>서울시</k100:operator>
      <k100:source>OpenStreetMap via Overpass API</k100:source>
      <k100:license>ODbL-1.0</k100:license>
      <k100:attribution>© OpenStreetMap contributors</k100:attribution>
      <k100:osm_snapshot>2026-08-04</k100:osm_snapshot>
    </extensions>
  </metadata>
  <trk>
    <name>서울둘레길 1코스 수락-불암산코스</name>
    <desc>OpenStreetMap에 등록된 도보 경로(route=hiking) 관계를 그대로 내보낸 선형입니다. 실측 GPS 기록이 아닙니다.</desc>
    <trkseg>
      <trkpt lat="37.689472" lon="127.047354"></trkpt>
      <trkpt lat="37.689543" lon="127.048672"></trkpt>
      <trkpt lat="37.688955" lon="127.048750"></trkpt>
      <trkpt lat="37.688729" lon="127.048956"></trkpt>
      <trkpt lat="37.688468" lon="127.048862"></trkpt>
      <trkpt lat="37.688173" lon="127.049363"></trkpt>
      <trkpt lat="37.686294" lon="127.050573"></trkpt>
      <trkpt lat="37.686776" lon="127.051721"></trkpt>
      <trkpt lat="37.686982" lon="127.051932"></trkpt>
      <trkpt lat="37.687473" lon="127.052098"></trkpt>
      <trkpt lat="37.688899" lon="127.054707"></trkpt>
      <trkpt lat="37.689012" lon="127.054992"></trkpt>
      <trkpt lat="37.689131" lon="127.056370"></trkpt>
      <trkpt lat="37.689215" lon="127.056556"></trkpt>
      <trkpt lat="37.689618" lon="127.056726"></trkpt>
      <trkpt lat="37.689569" lon="127.057310"></trkpt>
      <trkpt lat="37.689825" lon="127.058192"></trkpt>
      <trkpt lat="37.689806" lon="127.058543"></trkpt>
      <trkpt lat="37.689442" lon="127.058723"></trkpt>
      <trkpt lat="37.689028" lon="127.059232"></trkpt>
      <trkpt lat="37.688826" lon="127.059256"></trkpt>
      <trkpt lat="37.688526" lon="127.059026"></trkpt>
      <trkpt lat="37.688194" lon="127.059280"></trkpt>
      <trkpt lat="37.687641" lon="127.059260"></trkpt>
      <trkpt lat="37.686482" lon="127.058902"></trkpt>
      <trkpt lat="37.686213" lon="127.058167"></trkpt>
      <trkpt lat="37.685791" lon="127.057910"></trkpt>
      <trkpt lat="37.684410" lon="127.058389"></trkpt>
      <trkpt lat="37.683689" lon="127.058291"></trkpt>
      <trkpt lat="37.683227" lon="127.058651"></trkpt>
      <trkpt lat="37.682538" lon="127.058226"></trkpt>
      <trkpt lat="37.682058" lon="127.058224"></trkpt>
      <trkpt lat="37.682010" lon="127.058539"></trkpt>
      <trkpt lat="37.680959" lon="127.058913"></trkpt>
      <trkpt lat="37.680458" lon="127.058532"></trkpt>
      <trkpt lat="37.679998" lon="127.058772"></trkpt>
      <trkpt lat="37.680050" lon="127.059701"></trkpt>
      <trkpt lat="37.679942" lon="127.059883"></trkpt>
      <trkpt lat="37.679453" lon="127.060162"></trkpt>
      <trkpt lat="37.678955" lon="127.060713"></trkpt>
      <trkpt lat="37.678680" lon="127.060769"></trkpt>
      <trkpt lat="37.678066" lon="127.060490"></trkpt>
      <trkpt lat="37.676541" lon="127.060315"></trkpt>
      <trkpt lat="37.676353" lon="127.060785"></trkpt>
      <trkpt lat="37.675966" lon="127.060770"></trkpt>
      <trkpt lat="37.675996" lon="127.061040"></trkpt>
      <trkpt lat="37.676378" lon="127.061597"></trkpt>
      <trkpt lat="37.676049" lon="127.061824"></trkpt>
      <trkpt lat="37.675128" lon="127.061656"></trkpt>
      <trkpt lat="37.674883" lon="127.062041"></trkpt>
      <trkpt lat="37.674723" lon="127.061973"></trkpt>
      <trkpt lat="37.673838" lon="127.062442"></trkpt>
      <trkpt lat="37.673030" lon="127.063308"></trkpt>
      <trkpt lat="37.671991" lon="127.062747"></trkpt>
      <trkpt lat="37.671346" lon="127.063042"></trkpt>
      <trkpt lat="37.671185" lon="127.062847"></trkpt>
      <trkpt lat="37.671286" lon="127.062706"></trkpt>
      <trkpt lat="37.671131" lon="127.062408"></trkpt>
      <trkpt lat="37.670956" lon="127.062809"></trkpt>
      <trkpt lat="37.670618" lon="127.062735"></trkpt>
      <trkpt lat="37.670295" lon="127.062926"></trkpt>
      <trkpt lat="37.670157" lon="127.063226"></trkpt>
      <trkpt lat="37.669948" lon="127.063276"></trkpt>
      <trkpt lat="37.669612" lon="127.063762"></trkpt>
      <trkpt lat="37.669552" lon="127.064448"></trkpt>
      <trkpt lat="37.669183" lon="127.065527"></trkpt>
      <trkpt lat="37.669243" lon="127.066854"></trkpt>
      <trkpt lat="37.669885" lon="127.067451"></trkpt>
      <trkpt lat="37.670742" lon="127.067397"></trkpt>
      <trkpt lat="37.671648" lon="127.067563"></trkpt>
      <trkpt lat="37.672207" lon="127.067407"></trkpt>
      <trkpt lat="37.672334" lon="127.067571"></trkpt>
      <trkpt lat="37.672161" lon="127.068445"></trkpt>
      <trkpt lat="37.672771" lon="127.068901"></trkpt>
      <trkpt lat="37.672792" lon="127.069556"></trkpt>
      <trkpt lat="37.673117" lon="127.069982"></trkpt>
      <trkpt lat="37.673049" lon="127.071277"></trkpt>
      <trkpt lat="37.673200" lon="127.072026"></trkpt>
      <trkpt lat="37.673115" lon="127.072337"></trkpt>
      <trkpt lat="37.672743" lon="127.072847"></trkpt>
      <trkpt lat="37.672847" lon="127.073228"></trkpt>
      <trkpt lat="37.672834" lon="127.074267"></trkpt>
      <trkpt lat="37.672353" lon="127.074675"></trkpt>
      <trkpt lat="37.671345" lon="127.074605"></trkpt>
      <trkpt lat="37.671113" lon="127.074805"></trkpt>
      <trkpt lat="37.670994" lon="127.074949"></trkpt>
      <trkpt lat="37.671092" lon="127.075309"></trkpt>
      <trkpt lat="37.670971" lon="127.076316"></trkpt>
      <trkpt lat="37.670693" lon="127.076811"></trkpt>
      <trkpt lat="37.669909" lon="127.077049"></trkpt>
      <trkpt lat="37.669066" lon="127.077743"></trkpt>
      <trkpt lat="37.670430" lon="127.078886"></trkpt>
      <trkpt lat="37.670316" lon="127.079235"></trkpt>
      <trkpt lat="37.670395" lon="127.079020"></trkpt>
      <trkpt lat="37.670328" lon="127.079288"></trkpt>
      <trkpt lat="37.670601" lon="127.079853"></trkpt>
      <trkpt lat="37.670617" lon="127.080245"></trkpt>
      <trkpt lat="37.670410" lon="127.081285"></trkpt>
      <trkpt lat="37.669554" lon="127.081347"></trkpt>
      <trkpt lat="37.669273" lon="127.081682"></trkpt>
      <trkpt lat="37.669085" lon="127.083021"></trkpt>
      <trkpt lat="37.668835" lon="127.082904"></trkpt>
      <trkpt lat="37.668453" lon="127.083721"></trkpt>
      <trkpt lat="37.667414" lon="127.083299"></trkpt>
      <trkpt lat="37.666966" lon="127.083540"></trkpt>
      <trkpt lat="37.666729" lon="127.083494"></trkpt>
      <trkpt lat="37.666520" lon="127.082748"></trkpt>
      <trkpt lat="37.666629" lon="127.082196"></trkpt>
      <trkpt lat="37.666505" lon="127.082001"></trkpt>
      <trkpt lat="37.666175" lon="127.081695"></trkpt>
      <trkpt lat="37.665310" lon="127.081926"></trkpt>
      <trkpt lat="37.664629" lon="127.081510"></trkpt>
      <trkpt lat="37.663528" lon="127.081730"></trkpt>
      <trkpt lat="37.662229" lon="127.081674"></trkpt>
      <trkpt lat="37.661660" lon="127.081793"></trkpt>
      <trkpt lat="37.661468" lon="127.082420"></trkpt>
      <trkpt lat="37.660951" lon="127.082403"></trkpt>
      <trkpt lat="37.660505" lon="127.082795"></trkpt>
      <trkpt lat="37.660135" lon="127.082837"></trkpt>
      <trkpt lat="37.658943" lon="127.082570"></trkpt>
      <trkpt lat="37.657679" lon="127.082907"></trkpt>
      <trkpt lat="37.657261" lon="127.083186"></trkpt>
      <trkpt lat="37.656675" lon="127.083171"></trkpt>
      <trkpt lat="37.656186" lon="127.083347"></trkpt>
      <trkpt lat="37.655722" lon="127.083970"></trkpt>
      <trkpt lat="37.654918" lon="127.083252"></trkpt>
      <trkpt lat="37.654689" lon="127.083294"></trkpt>
      <trkpt lat="37.654107" lon="127.083569"></trkpt>
      <trkpt lat="37.653925" lon="127.083825"></trkpt>
      <trkpt lat="37.653738" lon="127.083747"></trkpt>
      <trkpt lat="37.653624" lon="127.084034"></trkpt>
      <trkpt lat="37.653235" lon="127.084211"></trkpt>
      <trkpt lat="37.653205" lon="127.084450"></trkpt>
      <trkpt lat="37.652786" lon="127.084852"></trkpt>
      <trkpt lat="37.651755" lon="127.085440"></trkpt>
      <trkpt lat="37.651559" lon="127.085702"></trkpt>
      <trkpt lat="37.651353" lon="127.086472"></trkpt>
      <trkpt lat="37.650684" lon="127.087280"></trkpt>
      <trkpt lat="37.650467" lon="127.088090"></trkpt>
      <trkpt lat="37.649149" lon="127.088429"></trkpt>
      <trkpt lat="37.648450" lon="127.088381"></trkpt>
      <trkpt lat="37.647812" lon="127.088962"></trkpt>
      <trkpt lat="37.647085" lon="127.088889"></trkpt>
      <trkpt lat="37.646352" lon="127.088618"></trkpt>
      <trkpt lat="37.645946" lon="127.088739"></trkpt>
      <trkpt lat="37.645709" lon="127.088914"></trkpt>
      <trkpt lat="37.645555" lon="127.089785"></trkpt>
      <trkpt lat="37.645080" lon="127.090756"></trkpt>
      <trkpt lat="37.644246" lon="127.091155"></trkpt>
      <trkpt lat="37.643279" lon="127.091957"></trkpt>
      <trkpt lat="37.643042" lon="127.091951"></trkpt>
      <trkpt lat="37.642998" lon="127.091705"></trkpt>
      <trkpt lat="37.642561" lon="127.091315"></trkpt>
      <trkpt lat="37.642352" lon="127.091323"></trkpt>
      <trkpt lat="37.642147" lon="127.091560"></trkpt>
      <trkpt lat="37.641509" lon="127.091363"></trkpt>
      <trkpt lat="37.641115" lon="127.091019"></trkpt>
      <trkpt lat="37.640443" lon="127.091015"></trkpt>
      <trkpt lat="37.640133" lon="127.090544"></trkpt>
      <trkpt lat="37.639772" lon="127.090732"></trkpt>
      <trkpt lat="37.639072" lon="127.090343"></trkpt>
      <trkpt lat="37.638862" lon="127.090022"></trkpt>
      <trkpt lat="37.638275" lon="127.090148"></trkpt>
      <trkpt lat="37.638048" lon="127.090489"></trkpt>
      <trkpt lat="37.637808" lon="127.090605"></trkpt>
      <trkpt lat="37.637627" lon="127.090490"></trkpt>
      <trkpt lat="37.637257" lon="127.090596"></trkpt>
      <trkpt lat="37.635801" lon="127.089771"></trkpt>
      <trkpt lat="37.635536" lon="127.089886"></trkpt>
      <trkpt lat="37.635415" lon="127.090398"></trkpt>
      <trkpt lat="37.635080" lon="127.090420"></trkpt>
      <trkpt lat="37.634593" lon="127.090114"></trkpt>
      <trkpt lat="37.634326" lon="127.090115"></trkpt>
      <trkpt lat="37.634292" lon="127.089276"></trkpt>
      <trkpt lat="37.634094" lon="127.089120"></trkpt>
      <trkpt lat="37.632942" lon="127.089171"></trkpt>
      <trkpt lat="37.632446" lon="127.088966"></trkpt>
      <trkpt lat="37.631503" lon="127.089022"></trkpt>
      <trkpt lat="37.630423" lon="127.088824"></trkpt>
      <trkpt lat="37.629886" lon="127.088345"></trkpt>
      <trkpt lat="37.629779" lon="127.087899"></trkpt>
      <trkpt lat="37.629406" lon="127.087403"></trkpt>
      <trkpt lat="37.628172" lon="127.086844"></trkpt>
      <trkpt lat="37.628072" lon="127.086571"></trkpt>
      <trkpt lat="37.628179" lon="127.085641"></trkpt>
      <trkpt lat="37.628004" lon="127.085179"></trkpt>
      <trkpt lat="37.626647" lon="127.085846"></trkpt>
      <trkpt lat="37.621543" lon="127.087530"></trkpt>
      <trkpt lat="37.620557" lon="127.085057"></trkpt>
    </trkseg>
  </trk>
</gpx>
