<?xml version="1.0" encoding="UTF-8"?>
<gpx version="1.1" creator="kr-100-mountains route-harvester"
     xmlns="http://www.topografix.com/GPX/1/1"
     xmlns:k100="https://github.com/jay-jang/kr-100-mountains/ns/1"
     xmlns:xsi="http://www.w3.org/2001/XMLSchema-instance"
     xsi:schemaLocation="http://www.topografix.com/GPX/1/1 http://www.topografix.com/GPX/1/1/gpx.xsd">
  <metadata>
    <name>북한산둘레길</name>
    <desc>OpenStreetMap에 등록된 도보 경로(route=hiking) 관계를 그대로 내보낸 선형입니다. 실측 GPS 기록이 아닙니다.</desc>
    <time>2026-08-04T05:14:10.839Z</time>
    <link href="https://www.openstreetmap.org/copyright"><text>© OpenStreetMap contributors (ODbL 1.0)</text></link>
    <extensions>
      <k100:provenance>osm-relation</k100:provenance>
      <k100:not_a_recorded_track>true</k100:not_a_recorded_track>
      <k100:osm_type>relation</k100:osm_type>
      <k100:osm_id>11312768</k100:osm_id>
      <k100:osm_name>북한산둘레길</k100:osm_name>
      <k100:operator>북한산국립공원관리공단</k100:operator>
      <k100:source>OpenStreetMap via Overpass API</k100:source>
      <k100:license>ODbL-1.0</k100:license>
      <k100:attribution>© OpenStreetMap contributors</k100:attribution>
      <k100:osm_snapshot>2026-08-04</k100:osm_snapshot>
    </extensions>
  </metadata>
  <trk>
    <name>북한산둘레길</name>
    <desc>OpenStreetMap에 등록된 도보 경로(route=hiking) 관계를 그대로 내보낸 선형입니다. 실측 GPS 기록이 아닙니다.</desc>
    <trkseg>
      <trkpt lat="37.620878" lon="127.008158"></trkpt>
      <trkpt lat="37.621306" lon="127.008810"></trkpt>
      <trkpt lat="37.621408" lon="127.009362"></trkpt>
      <trkpt lat="37.621933" lon="127.009766"></trkpt>
      <trkpt lat="37.622232" lon="127.009755"></trkpt>
      <trkpt lat="37.622510" lon="127.009979"></trkpt>
      <trkpt lat="37.622823" lon="127.009758"></trkpt>
      <trkpt lat="37.624086" lon="127.009698"></trkpt>
      <trkpt lat="37.624103" lon="127.010213"></trkpt>
      <trkpt lat="37.624225" lon="127.010472"></trkpt>
      <trkpt lat="37.624077" lon="127.010637"></trkpt>
      <trkpt lat="37.624159" lon="127.010722"></trkpt>
      <trkpt lat="37.625266" lon="127.010200"></trkpt>
      <trkpt lat="37.625464" lon="127.010419"></trkpt>
      <trkpt lat="37.625617" lon="127.009853"></trkpt>
      <trkpt lat="37.626080" lon="127.009910"></trkpt>
      <trkpt lat="37.626306" lon="127.009755"></trkpt>
      <trkpt lat="37.626377" lon="127.009440"></trkpt>
      <trkpt lat="37.626140" lon="127.009242"></trkpt>
      <trkpt lat="37.626253" lon="127.009038"></trkpt>
      <trkpt lat="37.626778" lon="127.009045"></trkpt>
      <trkpt lat="37.627595" lon="127.008612"></trkpt>
      <trkpt lat="37.628267" lon="127.008460"></trkpt>
      <trkpt lat="37.628385" lon="127.008542"></trkpt>
      <trkpt lat="37.628440" lon="127.008384"></trkpt>
      <trkpt lat="37.628955" lon="127.008239"></trkpt>
      <trkpt lat="37.629202" lon="127.008731"></trkpt>
      <trkpt lat="37.629258" lon="127.009128"></trkpt>
      <trkpt lat="37.629676" lon="127.009733"></trkpt>
      <trkpt lat="37.630208" lon="127.009541"></trkpt>
      <trkpt lat="37.631523" lon="127.009800"></trkpt>
      <trkpt lat="37.631914" lon="127.009338"></trkpt>
      <trkpt lat="37.631963" lon="127.008665"></trkpt>
      <trkpt lat="37.632387" lon="127.008397"></trkpt>
      <trkpt lat="37.633045" lon="127.008915"></trkpt>
      <trkpt lat="37.633066" lon="127.009316"></trkpt>
      <trkpt lat="37.633316" lon="127.009284"></trkpt>
      <trkpt lat="37.633759" lon="127.008984"></trkpt>
      <trkpt lat="37.633885" lon="127.008429"></trkpt>
      <trkpt lat="37.633652" lon="127.007072"></trkpt>
      <trkpt lat="37.633830" lon="127.006899"></trkpt>
      <trkpt lat="37.633059" lon="127.005950"></trkpt>
      <trkpt lat="37.632871" lon="127.005495"></trkpt>
      <trkpt lat="37.633025" lon="127.004988"></trkpt>
      <trkpt lat="37.632907" lon="127.004440"></trkpt>
      <trkpt lat="37.632979" lon="127.004293"></trkpt>
      <trkpt lat="37.634168" lon="127.004585"></trkpt>
      <trkpt lat="37.634657" lon="127.004456"></trkpt>
      <trkpt lat="37.635365" lon="127.005154"></trkpt>
      <trkpt lat="37.636505" lon="127.005446"></trkpt>
      <trkpt lat="37.636788" lon="127.005783"></trkpt>
      <trkpt lat="37.637034" lon="127.005829"></trkpt>
      <trkpt lat="37.637219" lon="127.006129"></trkpt>
      <trkpt lat="37.637796" lon="127.006224"></trkpt>
      <trkpt lat="37.638035" lon="127.006048"></trkpt>
      <trkpt lat="37.638692" lon="127.006592"></trkpt>
      <trkpt lat="37.638977" lon="127.007394"></trkpt>
      <trkpt lat="37.639621" lon="127.007475"></trkpt>
      <trkpt lat="37.640539" lon="127.005771"></trkpt>
      <trkpt lat="37.640501" lon="127.005396"></trkpt>
      <trkpt lat="37.640757" lon="127.004920"></trkpt>
      <trkpt lat="37.641152" lon="127.004686"></trkpt>
      <trkpt lat="37.641750" lon="127.005038"></trkpt>
      <trkpt lat="37.641915" lon="127.004868"></trkpt>
      <trkpt lat="37.642019" lon="127.004453"></trkpt>
      <trkpt lat="37.642338" lon="127.004098"></trkpt>
      <trkpt lat="37.642710" lon="127.002926"></trkpt>
      <trkpt lat="37.642276" lon="127.002204"></trkpt>
      <trkpt lat="37.642189" lon="127.001662"></trkpt>
      <trkpt lat="37.642297" lon="127.001219"></trkpt>
      <trkpt lat="37.642453" lon="127.001082"></trkpt>
      <trkpt lat="37.642895" lon="127.001305"></trkpt>
      <trkpt lat="37.643101" lon="127.002023"></trkpt>
      <trkpt lat="37.643255" lon="127.001877"></trkpt>
      <trkpt lat="37.643780" lon="127.002387"></trkpt>
      <trkpt lat="37.643906" lon="127.002739"></trkpt>
      <trkpt lat="37.644111" lon="127.002680"></trkpt>
      <trkpt lat="37.643827" lon="127.002894"></trkpt>
      <trkpt lat="37.643980" lon="127.003376"></trkpt>
      <trkpt lat="37.644397" lon="127.003495"></trkpt>
      <trkpt lat="37.644729" lon="127.003786"></trkpt>
      <trkpt lat="37.644824" lon="127.003830"></trkpt>
      <trkpt lat="37.645277" lon="127.003039"></trkpt>
      <trkpt lat="37.645359" lon="127.002449"></trkpt>
      <trkpt lat="37.645546" lon="127.002526"></trkpt>
      <trkpt lat="37.645840" lon="127.003052"></trkpt>
      <trkpt lat="37.645915" lon="127.004169"></trkpt>
      <trkpt lat="37.646196" lon="127.004916"></trkpt>
      <trkpt lat="37.646849" lon="127.004548"></trkpt>
      <trkpt lat="37.646875" lon="127.004048"></trkpt>
      <trkpt lat="37.647638" lon="127.004040"></trkpt>
      <trkpt lat="37.648641" lon="127.003368"></trkpt>
      <trkpt lat="37.648718" lon="127.003142"></trkpt>
      <trkpt lat="37.649158" lon="127.003012"></trkpt>
      <trkpt lat="37.649159" lon="127.003529"></trkpt>
      <trkpt lat="37.649323" lon="127.003850"></trkpt>
      <trkpt lat="37.649282" lon="127.004222"></trkpt>
      <trkpt lat="37.649577" lon="127.004874"></trkpt>
      <trkpt lat="37.649490" lon="127.005232"></trkpt>
      <trkpt lat="37.649587" lon="127.005433"></trkpt>
      <trkpt lat="37.649591" lon="127.006081"></trkpt>
      <trkpt lat="37.649434" lon="127.006402"></trkpt>
      <trkpt lat="37.650066" lon="127.007162"></trkpt>
      <trkpt lat="37.650228" lon="127.007828"></trkpt>
      <trkpt lat="37.650058" lon="127.008851"></trkpt>
      <trkpt lat="37.650139" lon="127.009369"></trkpt>
      <trkpt lat="37.649977" lon="127.009690"></trkpt>
      <trkpt lat="37.649995" lon="127.009965"></trkpt>
      <trkpt lat="37.650255" lon="127.010212"></trkpt>
      <trkpt lat="37.650384" lon="127.010549"></trkpt>
      <trkpt lat="37.650659" lon="127.010515"></trkpt>
      <trkpt lat="37.650784" lon="127.010357"></trkpt>
      <trkpt lat="37.651579" lon="127.011889"></trkpt>
      <trkpt lat="37.651951" lon="127.011629"></trkpt>
      <trkpt lat="37.652008" lon="127.011405"></trkpt>
      <trkpt lat="37.652602" lon="127.010788"></trkpt>
      <trkpt lat="37.653404" lon="127.010432"></trkpt>
      <trkpt lat="37.653495" lon="127.009674"></trkpt>
      <trkpt lat="37.653915" lon="127.008790"></trkpt>
      <trkpt lat="37.654687" lon="127.008424"></trkpt>
      <trkpt lat="37.654975" lon="127.008027"></trkpt>
      <trkpt lat="37.655431" lon="127.007873"></trkpt>
      <trkpt lat="37.655740" lon="127.008192"></trkpt>
      <trkpt lat="37.656116" lon="127.007749"></trkpt>
      <trkpt lat="37.656720" lon="127.007541"></trkpt>
      <trkpt lat="37.656710" lon="127.006946"></trkpt>
      <trkpt lat="37.656934" lon="127.006675"></trkpt>
      <trkpt lat="37.657046" lon="127.006988"></trkpt>
      <trkpt lat="37.657449" lon="127.006940"></trkpt>
      <trkpt lat="37.657664" lon="127.005996"></trkpt>
      <trkpt lat="37.658039" lon="127.006389"></trkpt>
      <trkpt lat="37.658107" lon="127.007422"></trkpt>
      <trkpt lat="37.659311" lon="127.008174"></trkpt>
      <trkpt lat="37.659208" lon="127.008644"></trkpt>
      <trkpt lat="37.658918" lon="127.009129"></trkpt>
      <trkpt lat="37.659059" lon="127.009604"></trkpt>
      <trkpt lat="37.659416" lon="127.010061"></trkpt>
      <trkpt lat="37.659587" lon="127.009941"></trkpt>
      <trkpt lat="37.659788" lon="127.010037"></trkpt>
      <trkpt lat="37.660984" lon="127.008980"></trkpt>
      <trkpt lat="37.661070" lon="127.008103"></trkpt>
      <trkpt lat="37.661252" lon="127.007619"></trkpt>
      <trkpt lat="37.660874" lon="127.006670"></trkpt>
      <trkpt lat="37.660990" lon="127.006610"></trkpt>
      <trkpt lat="37.661644" lon="127.006997"></trkpt>
      <trkpt lat="37.662515" lon="127.007839"></trkpt>
      <trkpt lat="37.662832" lon="127.008893"></trkpt>
      <trkpt lat="37.663583" lon="127.009913"></trkpt>
      <trkpt lat="37.663475" lon="127.011039"></trkpt>
      <trkpt lat="37.663970" lon="127.011923"></trkpt>
    </trkseg>
  </trk>
</gpx>
