<?xml version="1.0" encoding="UTF-8"?>
<gpx version="1.1" creator="kr-100-mountains route-harvester"
     xmlns="http://www.topografix.com/GPX/1/1"
     xmlns:k100="https://github.com/jay-jang/kr-100-mountains/ns/1"
     xmlns:xsi="http://www.w3.org/2001/XMLSchema-instance"
     xsi:schemaLocation="http://www.topografix.com/GPX/1/1 http://www.topografix.com/GPX/1/1/gpx.xsd">
  <metadata>
    <name>오대산 월정사 전나무숲길</name>
    <desc>OpenStreetMap에 등록된 도보 경로(route=hiking) 관계를 그대로 내보낸 선형입니다. 실측 GPS 기록이 아닙니다.</desc>
    <time>2026-08-04T05:19:58.885Z</time>
    <link href="https://www.openstreetmap.org/copyright"><text>© OpenStreetMap contributors (ODbL 1.0)</text></link>
    <extensions>
      <k100:provenance>osm-relation</k100:provenance>
      <k100:not_a_recorded_track>true</k100:not_a_recorded_track>
      <k100:osm_type>relation</k100:osm_type>
      <k100:osm_id>11494404</k100:osm_id>
      <k100:osm_name>오대산 월정사 전나무숲길</k100:osm_name>
      <k100:network>lwn</k100:network>
      <k100:source>OpenStreetMap via Overpass API</k100:source>
      <k100:license>ODbL-1.0</k100:license>
      <k100:attribution>© OpenStreetMap contributors</k100:attribution>
      <k100:osm_snapshot>2026-08-04</k100:osm_snapshot>
    </extensions>
  </metadata>
  <trk>
    <name>오대산 월정사 전나무숲길</name>
    <desc>OpenStreetMap에 등록된 도보 경로(route=hiking) 관계를 그대로 내보낸 선형입니다. 실측 GPS 기록이 아닙니다.</desc>
    <trkseg>
      <trkpt lat="37.725079" lon="128.597370"></trkpt>
      <trkpt lat="37.726092" lon="128.596301"></trkpt>
      <trkpt lat="37.726923" lon="128.596017"></trkpt>
      <trkpt lat="37.728925" lon="128.596347"></trkpt>
      <trkpt lat="37.730100" lon="128.596773"></trkpt>
      <trkpt lat="37.730829" lon="128.596658"></trkpt>
      <trkpt lat="37.731403" lon="128.596280"></trkpt>
      <trkpt lat="37.731705" lon="128.595839"></trkpt>
      <trkpt lat="37.731849" lon="128.595081"></trkpt>
      <trkpt lat="37.731726" lon="128.594137"></trkpt>
      <trkpt lat="37.731369" lon="128.593037"></trkpt>
      <trkpt lat="37.731316" lon="128.592512"></trkpt>
      <trkpt lat="37.731454" lon="128.592135"></trkpt>
      <trkpt lat="37.731315" lon="128.591477"></trkpt>
      <trkpt lat="37.731347" lon="128.590801"></trkpt>
      <trkpt lat="37.731180" lon="128.590580"></trkpt>
      <trkpt lat="37.731080" lon="128.589934"></trkpt>
      <trkpt lat="37.731887" lon="128.589781"></trkpt>
      <trkpt lat="37.733455" lon="128.589927"></trkpt>
      <trkpt lat="37.734064" lon="128.589650"></trkpt>
      <trkpt lat="37.734909" lon="128.588839"></trkpt>
      <trkpt lat="37.735606" lon="128.587791"></trkpt>
      <trkpt lat="37.735841" lon="128.586818"></trkpt>
      <trkpt lat="37.736162" lon="128.586372"></trkpt>
      <trkpt lat="37.737955" lon="128.586230"></trkpt>
      <trkpt lat="37.738734" lon="128.585735"></trkpt>
      <trkpt lat="37.738962" lon="128.585859"></trkpt>
      <trkpt lat="37.739270" lon="128.586535"></trkpt>
      <trkpt lat="37.739434" lon="128.586659"></trkpt>
      <trkpt lat="37.740219" lon="128.586053"></trkpt>
      <trkpt lat="37.740626" lon="128.586037"></trkpt>
      <trkpt lat="37.741413" lon="128.585589"></trkpt>
      <trkpt lat="37.741943" lon="128.584959"></trkpt>
      <trkpt lat="37.742255" lon="128.584780"></trkpt>
      <trkpt lat="37.742590" lon="128.584287"></trkpt>
      <trkpt lat="37.742967" lon="128.584043"></trkpt>
      <trkpt lat="37.743821" lon="128.583889"></trkpt>
      <trkpt lat="37.745350" lon="128.584262"></trkpt>
      <trkpt lat="37.745475" lon="128.583889"></trkpt>
      <trkpt lat="37.745709" lon="128.583932"></trkpt>
      <trkpt lat="37.746160" lon="128.584373"></trkpt>
      <trkpt lat="37.746796" lon="128.584147"></trkpt>
      <trkpt lat="37.747071" lon="128.584331"></trkpt>
      <trkpt lat="37.747430" lon="128.583945"></trkpt>
      <trkpt lat="37.749058" lon="128.582802"></trkpt>
      <trkpt lat="37.749393" lon="128.582142"></trkpt>
      <trkpt lat="37.749254" lon="128.581472"></trkpt>
      <trkpt lat="37.748805" lon="128.581029"></trkpt>
      <trkpt lat="37.747875" lon="128.580948"></trkpt>
      <trkpt lat="37.747407" lon="128.580585"></trkpt>
      <trkpt lat="37.747321" lon="128.580316"></trkpt>
      <trkpt lat="37.747404" lon="128.580131"></trkpt>
      <trkpt lat="37.747979" lon="128.579907"></trkpt>
      <trkpt lat="37.748685" lon="128.580271"></trkpt>
      <trkpt lat="37.749107" lon="128.580004"></trkpt>
      <trkpt lat="37.749431" lon="128.579158"></trkpt>
      <trkpt lat="37.749604" lon="128.577391"></trkpt>
      <trkpt lat="37.750062" lon="128.576804"></trkpt>
      <trkpt lat="37.750385" lon="128.576922"></trkpt>
      <trkpt lat="37.750532" lon="128.576481"></trkpt>
      <trkpt lat="37.750864" lon="128.576038"></trkpt>
      <trkpt lat="37.751526" lon="128.576347"></trkpt>
      <trkpt lat="37.751954" lon="128.577733"></trkpt>
      <trkpt lat="37.752018" lon="128.578348"></trkpt>
      <trkpt lat="37.752341" lon="128.578352"></trkpt>
      <trkpt lat="37.752671" lon="128.579316"></trkpt>
      <trkpt lat="37.753055" lon="128.579405"></trkpt>
      <trkpt lat="37.753177" lon="128.579750"></trkpt>
      <trkpt lat="37.753745" lon="128.579508"></trkpt>
      <trkpt lat="37.754786" lon="128.578557"></trkpt>
      <trkpt lat="37.755100" lon="128.578547"></trkpt>
      <trkpt lat="37.756846" lon="128.580145"></trkpt>
      <trkpt lat="37.757036" lon="128.580460"></trkpt>
      <trkpt lat="37.757543" lon="128.580663"></trkpt>
      <trkpt lat="37.758195" lon="128.580297"></trkpt>
      <trkpt lat="37.759627" lon="128.579862"></trkpt>
      <trkpt lat="37.760321" lon="128.579057"></trkpt>
      <trkpt lat="37.761852" lon="128.578225"></trkpt>
      <trkpt lat="37.762875" lon="128.578162"></trkpt>
      <trkpt lat="37.763665" lon="128.578399"></trkpt>
      <trkpt lat="37.764457" lon="128.578356"></trkpt>
      <trkpt lat="37.765084" lon="128.578561"></trkpt>
      <trkpt lat="37.765174" lon="128.577444"></trkpt>
      <trkpt lat="37.765573" lon="128.576995"></trkpt>
      <trkpt lat="37.766556" lon="128.577029"></trkpt>
      <trkpt lat="37.766953" lon="128.576414"></trkpt>
      <trkpt lat="37.767277" lon="128.576357"></trkpt>
      <trkpt lat="37.767443" lon="128.576119"></trkpt>
      <trkpt lat="37.768234" lon="128.575763"></trkpt>
      <trkpt lat="37.769023" lon="128.575672"></trkpt>
      <trkpt lat="37.769385" lon="128.575778"></trkpt>
      <trkpt lat="37.769982" lon="128.576484"></trkpt>
      <trkpt lat="37.770178" lon="128.576527"></trkpt>
      <trkpt lat="37.770339" lon="128.576348"></trkpt>
      <trkpt lat="37.771257" lon="128.576093"></trkpt>
      <trkpt lat="37.771814" lon="128.575774"></trkpt>
      <trkpt lat="37.772054" lon="128.575467"></trkpt>
      <trkpt lat="37.772320" lon="128.575517"></trkpt>
      <trkpt lat="37.772891" lon="128.574445"></trkpt>
      <trkpt lat="37.773087" lon="128.574415"></trkpt>
      <trkpt lat="37.773715" lon="128.574725"></trkpt>
      <trkpt lat="37.774263" lon="128.575708"></trkpt>
      <trkpt lat="37.774644" lon="128.575765"></trkpt>
      <trkpt lat="37.774855" lon="128.576062"></trkpt>
      <trkpt lat="37.774908" lon="128.576392"></trkpt>
      <trkpt lat="37.775366" lon="128.576861"></trkpt>
      <trkpt lat="37.776191" lon="128.576442"></trkpt>
      <trkpt lat="37.776593" lon="128.576963"></trkpt>
      <trkpt lat="37.776923" lon="128.576735"></trkpt>
      <trkpt lat="37.777128" lon="128.576245"></trkpt>
      <trkpt lat="37.777349" lon="128.576128"></trkpt>
      <trkpt lat="37.778161" lon="128.576655"></trkpt>
      <trkpt lat="37.778301" lon="128.576509"></trkpt>
      <trkpt lat="37.779292" lon="128.576276"></trkpt>
      <trkpt lat="37.780695" lon="128.576294"></trkpt>
      <trkpt lat="37.781078" lon="128.575832"></trkpt>
      <trkpt lat="37.781577" lon="128.575982"></trkpt>
      <trkpt lat="37.781849" lon="128.575911"></trkpt>
      <trkpt lat="37.782622" lon="128.575555"></trkpt>
      <trkpt lat="37.782921" lon="128.575239"></trkpt>
      <trkpt lat="37.783303" lon="128.574345"></trkpt>
      <trkpt lat="37.784474" lon="128.573126"></trkpt>
      <trkpt lat="37.784769" lon="128.572214"></trkpt>
      <trkpt lat="37.785489" lon="128.571226"></trkpt>
      <trkpt lat="37.785756" lon="128.570114"></trkpt>
      <trkpt lat="37.786157" lon="128.569470"></trkpt>
      <trkpt lat="37.786221" lon="128.569165"></trkpt>
      <trkpt lat="37.786658" lon="128.568993"></trkpt>
      <trkpt lat="37.786869" lon="128.568359"></trkpt>
      <trkpt lat="37.786847" lon="128.567991"></trkpt>
      <trkpt lat="37.786829" lon="128.568162"></trkpt>
    </trkseg>
  </trk>
</gpx>
