<?xml version="1.0" encoding="UTF-8"?>
<gpx version="1.1" creator="kr-100-mountains route-harvester"
     xmlns="http://www.topografix.com/GPX/1/1"
     xmlns:k100="https://github.com/jay-jang/kr-100-mountains/ns/1"
     xmlns:xsi="http://www.w3.org/2001/XMLSchema-instance"
     xsi:schemaLocation="http://www.topografix.com/GPX/1/1 http://www.topografix.com/GPX/1/1/gpx.xsd">
  <metadata>
    <name>[북한산둘레길] 16구간 보루길</name>
    <desc>OpenStreetMap에 등록된 도보 경로(route=hiking) 관계를 그대로 내보낸 선형입니다. 실측 GPS 기록이 아닙니다.</desc>
    <time>2026-08-04T05:14:28.760Z</time>
    <link href="https://www.openstreetmap.org/copyright"><text>© OpenStreetMap contributors (ODbL 1.0)</text></link>
    <extensions>
      <k100:provenance>osm-relation</k100:provenance>
      <k100:not_a_recorded_track>true</k100:not_a_recorded_track>
      <k100:osm_type>relation</k100:osm_type>
      <k100:osm_id>11627661</k100:osm_id>
      <k100:osm_name>[북한산둘레길] 16구간 보루길</k100:osm_name>
      <k100:operator>북한산국립공원관리공단</k100:operator>
      <k100:source>OpenStreetMap via Overpass API</k100:source>
      <k100:license>ODbL-1.0</k100:license>
      <k100:attribution>© OpenStreetMap contributors</k100:attribution>
      <k100:osm_snapshot>2026-08-04</k100:osm_snapshot>
    </extensions>
  </metadata>
  <trk>
    <name>[북한산둘레길] 16구간 보루길</name>
    <desc>OpenStreetMap에 등록된 도보 경로(route=hiking) 관계를 그대로 내보낸 선형입니다. 실측 GPS 기록이 아닙니다.</desc>
    <trkseg>
      <trkpt lat="37.707227" lon="127.037507"></trkpt>
      <trkpt lat="37.708062" lon="127.035797"></trkpt>
      <trkpt lat="37.708601" lon="127.035523"></trkpt>
      <trkpt lat="37.709096" lon="127.035515"></trkpt>
      <trkpt lat="37.709293" lon="127.034925"></trkpt>
      <trkpt lat="37.709493" lon="127.035011"></trkpt>
      <trkpt lat="37.709781" lon="127.035548"></trkpt>
      <trkpt lat="37.710065" lon="127.036540"></trkpt>
      <trkpt lat="37.711150" lon="127.036838"></trkpt>
      <trkpt lat="37.711603" lon="127.036599"></trkpt>
      <trkpt lat="37.711704" lon="127.036360"></trkpt>
      <trkpt lat="37.712277" lon="127.036832"></trkpt>
      <trkpt lat="37.712868" lon="127.037063"></trkpt>
      <trkpt lat="37.713178" lon="127.037426"></trkpt>
      <trkpt lat="37.713478" lon="127.036779"></trkpt>
      <trkpt lat="37.713730" lon="127.036532"></trkpt>
      <trkpt lat="37.713906" lon="127.035979"></trkpt>
      <trkpt lat="37.714536" lon="127.035625"></trkpt>
      <trkpt lat="37.714644" lon="127.035427"></trkpt>
      <trkpt lat="37.714526" lon="127.034799"></trkpt>
      <trkpt lat="37.714331" lon="127.034515"></trkpt>
      <trkpt lat="37.714615" lon="127.034429"></trkpt>
      <trkpt lat="37.715164" lon="127.035094"></trkpt>
      <trkpt lat="37.715444" lon="127.035167"></trkpt>
      <trkpt lat="37.715816" lon="127.035033"></trkpt>
      <trkpt lat="37.715996" lon="127.035660"></trkpt>
      <trkpt lat="37.716708" lon="127.035555"></trkpt>
      <trkpt lat="37.717101" lon="127.035134"></trkpt>
      <trkpt lat="37.717080" lon="127.034308"></trkpt>
      <trkpt lat="37.717290" lon="127.033858"></trkpt>
      <trkpt lat="37.717575" lon="127.033716"></trkpt>
      <trkpt lat="37.717604" lon="127.033101"></trkpt>
      <trkpt lat="37.717677" lon="127.033024"></trkpt>
      <trkpt lat="37.717821" lon="127.033206"></trkpt>
      <trkpt lat="37.718490" lon="127.033026"></trkpt>
      <trkpt lat="37.718289" lon="127.032380"></trkpt>
      <trkpt lat="37.718389" lon="127.032037"></trkpt>
      <trkpt lat="37.719485" lon="127.031663"></trkpt>
      <trkpt lat="37.719910" lon="127.031768"></trkpt>
      <trkpt lat="37.720205" lon="127.032293"></trkpt>
      <trkpt lat="37.720807" lon="127.032712"></trkpt>
      <trkpt lat="37.720981" lon="127.032610"></trkpt>
      <trkpt lat="37.721195" lon="127.033304"></trkpt>
      <trkpt lat="37.721509" lon="127.033406"></trkpt>
      <trkpt lat="37.721843" lon="127.033732"></trkpt>
      <trkpt lat="37.722049" lon="127.033626"></trkpt>
      <trkpt lat="37.722097" lon="127.034093"></trkpt>
      <trkpt lat="37.722465" lon="127.033744"></trkpt>
      <trkpt lat="37.723151" lon="127.035905"></trkpt>
    </trkseg>
  </trk>
</gpx>
