<?xml version="1.0" encoding="UTF-8"?>
<gpx version="1.1" creator="kr-100-mountains route-harvester"
     xmlns="http://www.topografix.com/GPX/1/1"
     xmlns:k100="https://github.com/jay-jang/kr-100-mountains/ns/1"
     xmlns:xsi="http://www.w3.org/2001/XMLSchema-instance"
     xsi:schemaLocation="http://www.topografix.com/GPX/1/1 http://www.topografix.com/GPX/1/1/gpx.xsd">
  <metadata>
    <name>낙동정맥</name>
    <desc>OpenStreetMap에 등록된 도보 경로(route=hiking) 관계를 그대로 내보낸 선형입니다. 실측 GPS 기록이 아닙니다.</desc>
    <time>2026-08-04T05:39:21.470Z</time>
    <link href="https://www.openstreetmap.org/copyright"><text>© OpenStreetMap contributors (ODbL 1.0)</text></link>
    <extensions>
      <k100:provenance>osm-relation</k100:provenance>
      <k100:not_a_recorded_track>true</k100:not_a_recorded_track>
      <k100:osm_type>relation</k100:osm_type>
      <k100:osm_id>15597750</k100:osm_id>
      <k100:osm_name>낙동정맥</k100:osm_name>
      <k100:network>nwn</k100:network>
      <k100:source>OpenStreetMap via Overpass API</k100:source>
      <k100:license>ODbL-1.0</k100:license>
      <k100:attribution>© OpenStreetMap contributors</k100:attribution>
      <k100:osm_snapshot>2026-08-04</k100:osm_snapshot>
    </extensions>
  </metadata>
  <trk>
    <name>낙동정맥</name>
    <desc>OpenStreetMap에 등록된 도보 경로(route=hiking) 관계를 그대로 내보낸 선형입니다. 실측 GPS 기록이 아닙니다.</desc>
    <trkseg>
      <trkpt lat="36.502215" lon="129.203940"></trkpt>
      <trkpt lat="36.501903" lon="129.203306"></trkpt>
      <trkpt lat="36.500915" lon="129.202797"></trkpt>
      <trkpt lat="36.501138" lon="129.200284"></trkpt>
      <trkpt lat="36.500887" lon="129.198711"></trkpt>
      <trkpt lat="36.501691" lon="129.195994"></trkpt>
      <trkpt lat="36.502507" lon="129.194925"></trkpt>
      <trkpt lat="36.502642" lon="129.193602"></trkpt>
      <trkpt lat="36.503310" lon="129.192933"></trkpt>
      <trkpt lat="36.503293" lon="129.191161"></trkpt>
      <trkpt lat="36.503134" lon="129.190718"></trkpt>
      <trkpt lat="36.502269" lon="129.190691"></trkpt>
      <trkpt lat="36.501501" lon="129.189541"></trkpt>
      <trkpt lat="36.499944" lon="129.188994"></trkpt>
      <trkpt lat="36.499666" lon="129.188452"></trkpt>
      <trkpt lat="36.500758" lon="129.187290"></trkpt>
      <trkpt lat="36.501815" lon="129.187085"></trkpt>
      <trkpt lat="36.502947" lon="129.185771"></trkpt>
      <trkpt lat="36.504801" lon="129.185024"></trkpt>
      <trkpt lat="36.505545" lon="129.183587"></trkpt>
      <trkpt lat="36.505355" lon="129.181910"></trkpt>
      <trkpt lat="36.505933" lon="129.181329"></trkpt>
      <trkpt lat="36.507464" lon="129.181995"></trkpt>
      <trkpt lat="36.507757" lon="129.181140"></trkpt>
      <trkpt lat="36.507384" lon="129.179270"></trkpt>
      <trkpt lat="36.507670" lon="129.178319"></trkpt>
      <trkpt lat="36.507489" lon="129.177750"></trkpt>
      <trkpt lat="36.507876" lon="129.177365"></trkpt>
      <trkpt lat="36.508081" lon="129.175906"></trkpt>
      <trkpt lat="36.507724" lon="129.173378"></trkpt>
      <trkpt lat="36.505485" lon="129.170174"></trkpt>
      <trkpt lat="36.504556" lon="129.166547"></trkpt>
      <trkpt lat="36.504433" lon="129.164606"></trkpt>
      <trkpt lat="36.504776" lon="129.163289"></trkpt>
      <trkpt lat="36.504264" lon="129.162735"></trkpt>
      <trkpt lat="36.504352" lon="129.161403"></trkpt>
      <trkpt lat="36.503449" lon="129.159853"></trkpt>
      <trkpt lat="36.502141" lon="129.158687"></trkpt>
      <trkpt lat="36.501137" lon="129.156286"></trkpt>
      <trkpt lat="36.501083" lon="129.153900"></trkpt>
      <trkpt lat="36.500364" lon="129.152074"></trkpt>
      <trkpt lat="36.499133" lon="129.151390"></trkpt>
      <trkpt lat="36.495358" lon="129.151553"></trkpt>
      <trkpt lat="36.494222" lon="129.152326"></trkpt>
      <trkpt lat="36.492874" lon="129.154014"></trkpt>
      <trkpt lat="36.492409" lon="129.153951"></trkpt>
      <trkpt lat="36.491026" lon="129.153485"></trkpt>
      <trkpt lat="36.489856" lon="129.152056"></trkpt>
      <trkpt lat="36.489371" lon="129.152909"></trkpt>
      <trkpt lat="36.488822" lon="129.152221"></trkpt>
      <trkpt lat="36.486697" lon="129.152006"></trkpt>
      <trkpt lat="36.484342" lon="129.150378"></trkpt>
      <trkpt lat="36.483477" lon="129.150850"></trkpt>
      <trkpt lat="36.480711" lon="129.150146"></trkpt>
      <trkpt lat="36.478857" lon="129.150792"></trkpt>
      <trkpt lat="36.477928" lon="129.148347"></trkpt>
      <trkpt lat="36.476169" lon="129.148240"></trkpt>
      <trkpt lat="36.470664" lon="129.151818"></trkpt>
      <trkpt lat="36.469427" lon="129.151624"></trkpt>
      <trkpt lat="36.468387" lon="129.151911"></trkpt>
      <trkpt lat="36.467619" lon="129.152772"></trkpt>
      <trkpt lat="36.466924" lon="129.152792"></trkpt>
      <trkpt lat="36.466205" lon="129.153660"></trkpt>
      <trkpt lat="36.465670" lon="129.155410"></trkpt>
      <trkpt lat="36.464465" lon="129.156635"></trkpt>
      <trkpt lat="36.463938" lon="129.156442"></trkpt>
      <trkpt lat="36.463176" lon="129.157409"></trkpt>
      <trkpt lat="36.463054" lon="129.158417"></trkpt>
      <trkpt lat="36.460685" lon="129.158980"></trkpt>
      <trkpt lat="36.460613" lon="129.159673"></trkpt>
      <trkpt lat="36.459784" lon="129.160731"></trkpt>
      <trkpt lat="36.458163" lon="129.162153"></trkpt>
      <trkpt lat="36.455326" lon="129.160966"></trkpt>
      <trkpt lat="36.454017" lon="129.160887"></trkpt>
      <trkpt lat="36.450523" lon="129.165088"></trkpt>
      <trkpt lat="36.449989" lon="129.166356"></trkpt>
      <trkpt lat="36.446861" lon="129.168909"></trkpt>
      <trkpt lat="36.443230" lon="129.168744"></trkpt>
      <trkpt lat="36.442008" lon="129.168148"></trkpt>
      <trkpt lat="36.440466" lon="129.169206"></trkpt>
      <trkpt lat="36.438798" lon="129.169346"></trkpt>
      <trkpt lat="36.437558" lon="129.170373"></trkpt>
      <trkpt lat="36.436033" lon="129.170427"></trkpt>
      <trkpt lat="36.434293" lon="129.171677"></trkpt>
      <trkpt lat="36.431679" lon="129.175940"></trkpt>
      <trkpt lat="36.430564" lon="129.178842"></trkpt>
      <trkpt lat="36.430046" lon="129.180362"></trkpt>
      <trkpt lat="36.429667" lon="129.182747"></trkpt>
      <trkpt lat="36.429830" lon="129.183613"></trkpt>
      <trkpt lat="36.429270" lon="129.184745"></trkpt>
      <trkpt lat="36.429186" lon="129.185943"></trkpt>
      <trkpt lat="36.428385" lon="129.187185"></trkpt>
      <trkpt lat="36.426836" lon="129.187165"></trkpt>
      <trkpt lat="36.426261" lon="129.187951"></trkpt>
      <trkpt lat="36.426853" lon="129.188491"></trkpt>
      <trkpt lat="36.428188" lon="129.191657"></trkpt>
      <trkpt lat="36.429170" lon="129.192935"></trkpt>
      <trkpt lat="36.430002" lon="129.195477"></trkpt>
      <trkpt lat="36.430255" lon="129.198166"></trkpt>
      <trkpt lat="36.429429" lon="129.199085"></trkpt>
      <trkpt lat="36.429010" lon="129.201744"></trkpt>
      <trkpt lat="36.426703" lon="129.202837"></trkpt>
      <trkpt lat="36.426241" lon="129.203700"></trkpt>
      <trkpt lat="36.424813" lon="129.204602"></trkpt>
      <trkpt lat="36.423575" lon="129.206579"></trkpt>
      <trkpt lat="36.421831" lon="129.207418"></trkpt>
      <trkpt lat="36.421211" lon="129.208945"></trkpt>
      <trkpt lat="36.419152" lon="129.210215"></trkpt>
      <trkpt lat="36.418962" lon="129.210749"></trkpt>
      <trkpt lat="36.417353" lon="129.210398"></trkpt>
      <trkpt lat="36.414237" lon="129.211699"></trkpt>
      <trkpt lat="36.411735" lon="129.211611"></trkpt>
      <trkpt lat="36.410125" lon="129.212007"></trkpt>
      <trkpt lat="36.408571" lon="129.210677"></trkpt>
      <trkpt lat="36.407660" lon="129.210459"></trkpt>
      <trkpt lat="36.407706" lon="129.211809"></trkpt>
      <trkpt lat="36.407075" lon="129.214514"></trkpt>
      <trkpt lat="36.405678" lon="129.215955"></trkpt>
      <trkpt lat="36.403585" lon="129.216683"></trkpt>
      <trkpt lat="36.402933" lon="129.219259"></trkpt>
      <trkpt lat="36.400104" lon="129.222095"></trkpt>
      <trkpt lat="36.399909" lon="129.223826"></trkpt>
      <trkpt lat="36.399314" lon="129.224608"></trkpt>
      <trkpt lat="36.398915" lon="129.226505"></trkpt>
      <trkpt lat="36.397981" lon="129.227835"></trkpt>
      <trkpt lat="36.397382" lon="129.227591"></trkpt>
      <trkpt lat="36.396068" lon="129.228128"></trkpt>
      <trkpt lat="36.395136" lon="129.226352"></trkpt>
      <trkpt lat="36.393827" lon="129.225563"></trkpt>
      <trkpt lat="36.393437" lon="129.224096"></trkpt>
      <trkpt lat="36.392223" lon="129.222493"></trkpt>
      <trkpt lat="36.388753" lon="129.221850"></trkpt>
      <trkpt lat="36.388166" lon="129.220899"></trkpt>
      <trkpt lat="36.386991" lon="129.220298"></trkpt>
      <trkpt lat="36.384547" lon="129.221981"></trkpt>
      <trkpt lat="36.384752" lon="129.223376"></trkpt>
      <trkpt lat="36.383962" lon="129.224710"></trkpt>
      <trkpt lat="36.383288" lon="129.225098"></trkpt>
      <trkpt lat="36.382892" lon="129.226957"></trkpt>
      <trkpt lat="36.380875" lon="129.227328"></trkpt>
      <trkpt lat="36.379262" lon="129.227047"></trkpt>
      <trkpt lat="36.377750" lon="129.225307"></trkpt>
      <trkpt lat="36.376923" lon="129.222953"></trkpt>
      <trkpt lat="36.375471" lon="129.221981"></trkpt>
      <trkpt lat="36.372175" lon="129.217844"></trkpt>
      <trkpt lat="36.369194" lon="129.218305"></trkpt>
      <trkpt lat="36.368377" lon="129.217702"></trkpt>
      <trkpt lat="36.366947" lon="129.217780"></trkpt>
      <trkpt lat="36.364001" lon="129.215917"></trkpt>
      <trkpt lat="36.361341" lon="129.216412"></trkpt>
      <trkpt lat="36.360715" lon="129.216108"></trkpt>
      <trkpt lat="36.360464" lon="129.215221"></trkpt>
      <trkpt lat="36.361039" lon="129.209942"></trkpt>
      <trkpt lat="36.360760" lon="129.208869"></trkpt>
      <trkpt lat="36.359209" lon="129.208407"></trkpt>
      <trkpt lat="36.358140" lon="129.206624"></trkpt>
      <trkpt lat="36.356323" lon="129.205650"></trkpt>
      <trkpt lat="36.355730" lon="129.202778"></trkpt>
      <trkpt lat="36.354292" lon="129.201092"></trkpt>
      <trkpt lat="36.353631" lon="129.199387"></trkpt>
      <trkpt lat="36.351935" lon="129.199570"></trkpt>
      <trkpt lat="36.349845" lon="129.197484"></trkpt>
      <trkpt lat="36.347938" lon="129.197495"></trkpt>
      <trkpt lat="36.346363" lon="129.196192"></trkpt>
      <trkpt lat="36.345779" lon="129.194376"></trkpt>
      <trkpt lat="36.344096" lon="129.193489"></trkpt>
      <trkpt lat="36.343366" lon="129.192023"></trkpt>
      <trkpt lat="36.340404" lon="129.192235"></trkpt>
      <trkpt lat="36.337497" lon="129.191354"></trkpt>
      <trkpt lat="36.335220" lon="129.187430"></trkpt>
      <trkpt lat="36.335390" lon="129.186623"></trkpt>
      <trkpt lat="36.336114" lon="129.185890"></trkpt>
      <trkpt lat="36.336303" lon="129.184288"></trkpt>
      <trkpt lat="36.336059" lon="129.182215"></trkpt>
      <trkpt lat="36.334954" lon="129.179379"></trkpt>
      <trkpt lat="36.335104" lon="129.174825"></trkpt>
      <trkpt lat="36.333475" lon="129.173963"></trkpt>
      <trkpt lat="36.332259" lon="129.174804"></trkpt>
      <trkpt lat="36.330620" lon="129.174355"></trkpt>
      <trkpt lat="36.328145" lon="129.171652"></trkpt>
      <trkpt lat="36.327097" lon="129.171458"></trkpt>
      <trkpt lat="36.325860" lon="129.172917"></trkpt>
      <trkpt lat="36.323932" lon="129.173328"></trkpt>
      <trkpt lat="36.321961" lon="129.173296"></trkpt>
      <trkpt lat="36.320600" lon="129.172574"></trkpt>
      <trkpt lat="36.319500" lon="129.172571"></trkpt>
      <trkpt lat="36.318874" lon="129.174843"></trkpt>
      <trkpt lat="36.319570" lon="129.175603"></trkpt>
      <trkpt lat="36.319645" lon="129.176771"></trkpt>
      <trkpt lat="36.318957" lon="129.178195"></trkpt>
      <trkpt lat="36.317609" lon="129.179028"></trkpt>
      <trkpt lat="36.317042" lon="129.180898"></trkpt>
      <trkpt lat="36.316351" lon="129.181275"></trkpt>
      <trkpt lat="36.314477" lon="129.180830"></trkpt>
      <trkpt lat="36.313410" lon="129.179158"></trkpt>
      <trkpt lat="36.311772" lon="129.178333"></trkpt>
      <trkpt lat="36.309846" lon="129.175887"></trkpt>
      <trkpt lat="36.308259" lon="129.175441"></trkpt>
      <trkpt lat="36.307016" lon="129.176214"></trkpt>
      <trkpt lat="36.306496" lon="129.178326"></trkpt>
      <trkpt lat="36.304836" lon="129.180865"></trkpt>
      <trkpt lat="36.303306" lon="129.181386"></trkpt>
      <trkpt lat="36.302642" lon="129.182724"></trkpt>
      <trkpt lat="36.301254" lon="129.183026"></trkpt>
      <trkpt lat="36.300341" lon="129.182468"></trkpt>
      <trkpt lat="36.299634" lon="129.183741"></trkpt>
      <trkpt lat="36.299271" lon="129.185625"></trkpt>
      <trkpt lat="36.300287" lon="129.187379"></trkpt>
      <trkpt lat="36.300815" lon="129.189343"></trkpt>
      <trkpt lat="36.300140" lon="129.192908"></trkpt>
      <trkpt lat="36.300463" lon="129.195327"></trkpt>
      <trkpt lat="36.300149" lon="129.197031"></trkpt>
      <trkpt lat="36.301968" lon="129.201289"></trkpt>
      <trkpt lat="36.301979" lon="129.203168"></trkpt>
      <trkpt lat="36.302728" lon="129.203848"></trkpt>
      <trkpt lat="36.302731" lon="129.204569"></trkpt>
      <trkpt lat="36.302021" lon="129.205427"></trkpt>
      <trkpt lat="36.301955" lon="129.206574"></trkpt>
      <trkpt lat="36.301265" lon="129.207875"></trkpt>
      <trkpt lat="36.302066" lon="129.212423"></trkpt>
      <trkpt lat="36.302728" lon="129.213379"></trkpt>
      <trkpt lat="36.303351" lon="129.213548"></trkpt>
      <trkpt lat="36.303908" lon="129.214825"></trkpt>
      <trkpt lat="36.303526" lon="129.216144"></trkpt>
      <trkpt lat="36.303769" lon="129.218182"></trkpt>
      <trkpt lat="36.303516" lon="129.219326"></trkpt>
      <trkpt lat="36.302659" lon="129.219949"></trkpt>
      <trkpt lat="36.301456" lon="129.220071"></trkpt>
      <trkpt lat="36.299153" lon="129.224007"></trkpt>
      <trkpt lat="36.298465" lon="129.224277"></trkpt>
      <trkpt lat="36.295796" lon="129.222785"></trkpt>
      <trkpt lat="36.295405" lon="129.223268"></trkpt>
      <trkpt lat="36.293538" lon="129.223722"></trkpt>
      <trkpt lat="36.293022" lon="129.224493"></trkpt>
      <trkpt lat="36.290984" lon="129.224170"></trkpt>
      <trkpt lat="36.289423" lon="129.222592"></trkpt>
      <trkpt lat="36.288996" lon="129.221509"></trkpt>
      <trkpt lat="36.287887" lon="129.221043"></trkpt>
      <trkpt lat="36.284624" lon="129.222753"></trkpt>
      <trkpt lat="36.284023" lon="129.224358"></trkpt>
      <trkpt lat="36.281766" lon="129.225848"></trkpt>
      <trkpt lat="36.279397" lon="129.223982"></trkpt>
      <trkpt lat="36.278532" lon="129.221470"></trkpt>
      <trkpt lat="36.272823" lon="129.220222"></trkpt>
      <trkpt lat="36.271368" lon="129.216735"></trkpt>
      <trkpt lat="36.271284" lon="129.215280"></trkpt>
      <trkpt lat="36.271801" lon="129.213852"></trkpt>
      <trkpt lat="36.269820" lon="129.212365"></trkpt>
      <trkpt lat="36.269483" lon="129.211664"></trkpt>
      <trkpt lat="36.268669" lon="129.211625"></trkpt>
      <trkpt lat="36.266770" lon="129.209453"></trkpt>
      <trkpt lat="36.266789" lon="129.207347"></trkpt>
      <trkpt lat="36.265910" lon="129.206400"></trkpt>
      <trkpt lat="36.264028" lon="129.206143"></trkpt>
      <trkpt lat="36.262895" lon="129.205358"></trkpt>
      <trkpt lat="36.261259" lon="129.205432"></trkpt>
      <trkpt lat="36.259152" lon="129.203744"></trkpt>
      <trkpt lat="36.256095" lon="129.204141"></trkpt>
      <trkpt lat="36.252764" lon="129.201210"></trkpt>
      <trkpt lat="36.250651" lon="129.200332"></trkpt>
      <trkpt lat="36.248972" lon="129.197023"></trkpt>
      <trkpt lat="36.246718" lon="129.198636"></trkpt>
      <trkpt lat="36.244617" lon="129.198066"></trkpt>
      <trkpt lat="36.243856" lon="129.197280"></trkpt>
      <trkpt lat="36.243348" lon="129.194761"></trkpt>
      <trkpt lat="36.241558" lon="129.192757"></trkpt>
      <trkpt lat="36.240777" lon="129.192525"></trkpt>
      <trkpt lat="36.239902" lon="129.194653"></trkpt>
      <trkpt lat="36.237448" lon="129.197687"></trkpt>
      <trkpt lat="36.234785" lon="129.200255"></trkpt>
      <trkpt lat="36.232499" lon="129.201823"></trkpt>
      <trkpt lat="36.231523" lon="129.201671"></trkpt>
      <trkpt lat="36.231430" lon="129.201277"></trkpt>
      <trkpt lat="36.230602" lon="129.201822"></trkpt>
      <trkpt lat="36.227687" lon="129.200457"></trkpt>
      <trkpt lat="36.226083" lon="129.200649"></trkpt>
      <trkpt lat="36.224029" lon="129.202271"></trkpt>
      <trkpt lat="36.223590" lon="129.203424"></trkpt>
      <trkpt lat="36.222280" lon="129.204223"></trkpt>
      <trkpt lat="36.220171" lon="129.203566"></trkpt>
      <trkpt lat="36.219008" lon="129.201938"></trkpt>
      <trkpt lat="36.217482" lon="129.202777"></trkpt>
      <trkpt lat="36.215625" lon="129.202915"></trkpt>
      <trkpt lat="36.213689" lon="129.202842"></trkpt>
      <trkpt lat="36.213106" lon="129.201632"></trkpt>
      <trkpt lat="36.211297" lon="129.201919"></trkpt>
      <trkpt lat="36.210198" lon="129.201567"></trkpt>
      <trkpt lat="36.207754" lon="129.202127"></trkpt>
      <trkpt lat="36.206302" lon="129.200414"></trkpt>
      <trkpt lat="36.205380" lon="129.198375"></trkpt>
      <trkpt lat="36.205412" lon="129.197733"></trkpt>
      <trkpt lat="36.203398" lon="129.196127"></trkpt>
      <trkpt lat="36.203145" lon="129.195091"></trkpt>
      <trkpt lat="36.201625" lon="129.192957"></trkpt>
      <trkpt lat="36.201024" lon="129.192297"></trkpt>
      <trkpt lat="36.199443" lon="129.192203"></trkpt>
      <trkpt lat="36.197535" lon="129.188485"></trkpt>
      <trkpt lat="36.196091" lon="129.187564"></trkpt>
      <trkpt lat="36.195764" lon="129.186219"></trkpt>
      <trkpt lat="36.195875" lon="129.184700"></trkpt>
      <trkpt lat="36.195375" lon="129.184184"></trkpt>
      <trkpt lat="36.194052" lon="129.184873"></trkpt>
      <trkpt lat="36.192464" lon="129.186548"></trkpt>
      <trkpt lat="36.190483" lon="129.187473"></trkpt>
      <trkpt lat="36.187007" lon="129.187939"></trkpt>
      <trkpt lat="36.186071" lon="129.186922"></trkpt>
      <trkpt lat="36.185086" lon="129.186763"></trkpt>
      <trkpt lat="36.182739" lon="129.184080"></trkpt>
      <trkpt lat="36.182316" lon="129.182555"></trkpt>
      <trkpt lat="36.180722" lon="129.180692"></trkpt>
      <trkpt lat="36.180827" lon="129.178230"></trkpt>
      <trkpt lat="36.179446" lon="129.176636"></trkpt>
      <trkpt lat="36.178527" lon="129.174739"></trkpt>
      <trkpt lat="36.176213" lon="129.174105"></trkpt>
      <trkpt lat="36.175507" lon="129.175728"></trkpt>
      <trkpt lat="36.174893" lon="129.175946"></trkpt>
      <trkpt lat="36.173123" lon="129.172737"></trkpt>
      <trkpt lat="36.167715" lon="129.169372"></trkpt>
      <trkpt lat="36.165602" lon="129.169141"></trkpt>
      <trkpt lat="36.164093" lon="129.167671"></trkpt>
      <trkpt lat="36.163559" lon="129.166449"></trkpt>
      <trkpt lat="36.164477" lon="129.165227"></trkpt>
      <trkpt lat="36.164683" lon="129.160100"></trkpt>
      <trkpt lat="36.165241" lon="129.158664"></trkpt>
      <trkpt lat="36.163047" lon="129.154148"></trkpt>
      <trkpt lat="36.163089" lon="129.153202"></trkpt>
      <trkpt lat="36.163483" lon="129.152754"></trkpt>
      <trkpt lat="36.162908" lon="129.151771"></trkpt>
      <trkpt lat="36.162685" lon="129.150393"></trkpt>
      <trkpt lat="36.159542" lon="129.148160"></trkpt>
      <trkpt lat="36.156906" lon="129.148796"></trkpt>
      <trkpt lat="36.154414" lon="129.146307"></trkpt>
      <trkpt lat="36.152835" lon="129.146242"></trkpt>
      <trkpt lat="36.151445" lon="129.144980"></trkpt>
      <trkpt lat="36.149876" lon="129.141924"></trkpt>
      <trkpt lat="36.145660" lon="129.142490"></trkpt>
      <trkpt lat="36.144844" lon="129.142263"></trkpt>
      <trkpt lat="36.144314" lon="129.141250"></trkpt>
      <trkpt lat="36.142519" lon="129.140540"></trkpt>
      <trkpt lat="36.141048" lon="129.139150"></trkpt>
      <trkpt lat="36.139503" lon="129.138978"></trkpt>
      <trkpt lat="36.140049" lon="129.138504"></trkpt>
      <trkpt lat="36.139311" lon="129.135285"></trkpt>
      <trkpt lat="36.136952" lon="129.131391"></trkpt>
      <trkpt lat="36.136823" lon="129.127639"></trkpt>
      <trkpt lat="36.136318" lon="129.126585"></trkpt>
      <trkpt lat="36.134955" lon="129.125560"></trkpt>
      <trkpt lat="36.134578" lon="129.123890"></trkpt>
      <trkpt lat="36.133006" lon="129.121906"></trkpt>
      <trkpt lat="36.127922" lon="129.120081"></trkpt>
      <trkpt lat="36.127243" lon="129.119187"></trkpt>
      <trkpt lat="36.125896" lon="129.119613"></trkpt>
      <trkpt lat="36.124657" lon="129.118933"></trkpt>
      <trkpt lat="36.124560" lon="129.115428"></trkpt>
      <trkpt lat="36.124130" lon="129.115479"></trkpt>
      <trkpt lat="36.123773" lon="129.114500"></trkpt>
      <trkpt lat="36.122472" lon="129.114825"></trkpt>
      <trkpt lat="36.120367" lon="129.112806"></trkpt>
      <trkpt lat="36.119312" lon="129.112296"></trkpt>
      <trkpt lat="36.119040" lon="129.110391"></trkpt>
      <trkpt lat="36.116684" lon="129.104498"></trkpt>
      <trkpt lat="36.113952" lon="129.105011"></trkpt>
      <trkpt lat="36.112602" lon="129.103883"></trkpt>
      <trkpt lat="36.111459" lon="129.103566"></trkpt>
      <trkpt lat="36.110090" lon="129.101745"></trkpt>
      <trkpt lat="36.108505" lon="129.101305"></trkpt>
      <trkpt lat="36.107736" lon="129.099715"></trkpt>
      <trkpt lat="36.106406" lon="129.099469"></trkpt>
      <trkpt lat="36.106371" lon="129.096955"></trkpt>
      <trkpt lat="36.105864" lon="129.096333"></trkpt>
      <trkpt lat="36.105342" lon="129.094500"></trkpt>
      <trkpt lat="36.104470" lon="129.093941"></trkpt>
      <trkpt lat="36.104309" lon="129.093231"></trkpt>
      <trkpt lat="36.101098" lon="129.092338"></trkpt>
      <trkpt lat="36.099773" lon="129.092584"></trkpt>
      <trkpt lat="36.098936" lon="129.093863"></trkpt>
      <trkpt lat="36.097538" lon="129.094793"></trkpt>
      <trkpt lat="36.094760" lon="129.095560"></trkpt>
      <trkpt lat="36.093902" lon="129.097698"></trkpt>
      <trkpt lat="36.092801" lon="129.097882"></trkpt>
      <trkpt lat="36.091722" lon="129.099347"></trkpt>
      <trkpt lat="36.090993" lon="129.099491"></trkpt>
      <trkpt lat="36.088802" lon="129.101307"></trkpt>
      <trkpt lat="36.087088" lon="129.104246"></trkpt>
      <trkpt lat="36.086265" lon="129.104781"></trkpt>
      <trkpt lat="36.085727" lon="129.107045"></trkpt>
      <trkpt lat="36.084611" lon="129.108404"></trkpt>
      <trkpt lat="36.083650" lon="129.110916"></trkpt>
      <trkpt lat="36.083152" lon="129.111400"></trkpt>
      <trkpt lat="36.081903" lon="129.112192"></trkpt>
      <trkpt lat="36.080692" lon="129.111671"></trkpt>
      <trkpt lat="36.078755" lon="129.111883"></trkpt>
      <trkpt lat="36.079639" lon="129.113085"></trkpt>
      <trkpt lat="36.080065" lon="129.114630"></trkpt>
      <trkpt lat="36.079608" lon="129.116809"></trkpt>
      <trkpt lat="36.079884" lon="129.118459"></trkpt>
      <trkpt lat="36.078959" lon="129.120070"></trkpt>
      <trkpt lat="36.079407" lon="129.121709"></trkpt>
      <trkpt lat="36.079357" lon="129.123124"></trkpt>
      <trkpt lat="36.080507" lon="129.125777"></trkpt>
      <trkpt lat="36.080593" lon="129.127918"></trkpt>
      <trkpt lat="36.079957" lon="129.129685"></trkpt>
      <trkpt lat="36.078679" lon="129.130459"></trkpt>
      <trkpt lat="36.078129" lon="129.131591"></trkpt>
      <trkpt lat="36.076614" lon="129.131139"></trkpt>
      <trkpt lat="36.075929" lon="129.132659"></trkpt>
      <trkpt lat="36.074876" lon="129.133481"></trkpt>
      <trkpt lat="36.073802" lon="129.133484"></trkpt>
      <trkpt lat="36.070851" lon="129.134554"></trkpt>
      <trkpt lat="36.068682" lon="129.133483"></trkpt>
      <trkpt lat="36.066490" lon="129.134161"></trkpt>
      <trkpt lat="36.065585" lon="129.135790"></trkpt>
      <trkpt lat="36.061429" lon="129.138183"></trkpt>
      <trkpt lat="36.060946" lon="129.139257"></trkpt>
      <trkpt lat="36.059135" lon="129.140343"></trkpt>
      <trkpt lat="36.058141" lon="129.141546"></trkpt>
      <trkpt lat="36.058071" lon="129.142897"></trkpt>
      <trkpt lat="36.057228" lon="129.144027"></trkpt>
      <trkpt lat="36.056778" lon="129.145578"></trkpt>
      <trkpt lat="36.057507" lon="129.147949"></trkpt>
      <trkpt lat="36.057449" lon="129.149281"></trkpt>
      <trkpt lat="36.056420" lon="129.149757"></trkpt>
      <trkpt lat="36.054868" lon="129.151367"></trkpt>
      <trkpt lat="36.053445" lon="129.150075"></trkpt>
      <trkpt lat="36.052546" lon="129.149806"></trkpt>
      <trkpt lat="36.050887" lon="129.151293"></trkpt>
      <trkpt lat="36.049595" lon="129.151266"></trkpt>
      <trkpt lat="36.049075" lon="129.150276"></trkpt>
      <trkpt lat="36.047676" lon="129.149163"></trkpt>
      <trkpt lat="36.046867" lon="129.147649"></trkpt>
      <trkpt lat="36.045361" lon="129.146263"></trkpt>
      <trkpt lat="36.044646" lon="129.142643"></trkpt>
      <trkpt lat="36.043567" lon="129.140975"></trkpt>
      <trkpt lat="36.043125" lon="129.139176"></trkpt>
      <trkpt lat="36.038333" lon="129.136847"></trkpt>
      <trkpt lat="36.037206" lon="129.135602"></trkpt>
      <trkpt lat="36.035554" lon="129.135188"></trkpt>
      <trkpt lat="36.034047" lon="129.134261"></trkpt>
      <trkpt lat="36.029640" lon="129.137377"></trkpt>
      <trkpt lat="36.028621" lon="129.137541"></trkpt>
      <trkpt lat="36.029078" lon="129.134760"></trkpt>
      <trkpt lat="36.028288" lon="129.130791"></trkpt>
      <trkpt lat="36.027727" lon="129.129782"></trkpt>
      <trkpt lat="36.027664" lon="129.128468"></trkpt>
      <trkpt lat="36.027139" lon="129.127846"></trkpt>
      <trkpt lat="36.027560" lon="129.126714"></trkpt>
      <trkpt lat="36.024578" lon="129.123083"></trkpt>
      <trkpt lat="36.024959" lon="129.122076"></trkpt>
      <trkpt lat="36.024462" lon="129.121938"></trkpt>
      <trkpt lat="36.024903" lon="129.120297"></trkpt>
      <trkpt lat="36.024630" lon="129.119409"></trkpt>
      <trkpt lat="36.024832" lon="129.118553"></trkpt>
      <trkpt lat="36.021697" lon="129.117157"></trkpt>
      <trkpt lat="36.020024" lon="129.117703"></trkpt>
      <trkpt lat="36.018901" lon="129.118562"></trkpt>
      <trkpt lat="36.016139" lon="129.117511"></trkpt>
      <trkpt lat="36.015701" lon="129.116909"></trkpt>
      <trkpt lat="36.014088" lon="129.117179"></trkpt>
      <trkpt lat="36.012108" lon="129.114460"></trkpt>
      <trkpt lat="36.011202" lon="129.114179"></trkpt>
      <trkpt lat="36.008519" lon="129.112132"></trkpt>
      <trkpt lat="36.005427" lon="129.111255"></trkpt>
      <trkpt lat="36.004435" lon="129.111840"></trkpt>
      <trkpt lat="36.002367" lon="129.111794"></trkpt>
      <trkpt lat="36.001713" lon="129.112776"></trkpt>
      <trkpt lat="36.000671" lon="129.113316"></trkpt>
      <trkpt lat="36.000186" lon="129.112357"></trkpt>
      <trkpt lat="35.998932" lon="129.111446"></trkpt>
      <trkpt lat="35.996738" lon="129.110593"></trkpt>
      <trkpt lat="35.995636" lon="129.111002"></trkpt>
      <trkpt lat="35.995173" lon="129.111726"></trkpt>
      <trkpt lat="35.994313" lon="129.112137"></trkpt>
      <trkpt lat="35.993789" lon="129.113123"></trkpt>
      <trkpt lat="35.990529" lon="129.115611"></trkpt>
      <trkpt lat="35.989015" lon="129.115849"></trkpt>
      <trkpt lat="35.988278" lon="129.113314"></trkpt>
      <trkpt lat="35.988145" lon="129.114050"></trkpt>
      <trkpt lat="35.987020" lon="129.114504"></trkpt>
      <trkpt lat="35.987008" lon="129.115613"></trkpt>
      <trkpt lat="35.986578" lon="129.116486"></trkpt>
      <trkpt lat="35.985131" lon="129.117258"></trkpt>
      <trkpt lat="35.982903" lon="129.116921"></trkpt>
      <trkpt lat="35.979801" lon="129.117448"></trkpt>
      <trkpt lat="35.978522" lon="129.116885"></trkpt>
      <trkpt lat="35.977142" lon="129.117895"></trkpt>
      <trkpt lat="35.975526" lon="129.117491"></trkpt>
      <trkpt lat="35.974305" lon="129.118212"></trkpt>
      <trkpt lat="35.972629" lon="129.117659"></trkpt>
      <trkpt lat="35.972251" lon="129.116929"></trkpt>
      <trkpt lat="35.971679" lon="129.116773"></trkpt>
      <trkpt lat="35.970574" lon="129.117096"></trkpt>
      <trkpt lat="35.969168" lon="129.118402"></trkpt>
      <trkpt lat="35.968159" lon="129.117923"></trkpt>
      <trkpt lat="35.966547" lon="129.118121"></trkpt>
      <trkpt lat="35.965267" lon="129.117259"></trkpt>
      <trkpt lat="35.964269" lon="129.117582"></trkpt>
      <trkpt lat="35.963221" lon="129.117331"></trkpt>
      <trkpt lat="35.962378" lon="129.117786"></trkpt>
      <trkpt lat="35.961777" lon="129.117498"></trkpt>
      <trkpt lat="35.961059" lon="129.118073"></trkpt>
      <trkpt lat="35.960209" lon="129.117745"></trkpt>
      <trkpt lat="35.956475" lon="129.121160"></trkpt>
      <trkpt lat="35.955515" lon="129.121160"></trkpt>
      <trkpt lat="35.954799" lon="129.123321"></trkpt>
      <trkpt lat="35.953373" lon="129.123297"></trkpt>
      <trkpt lat="35.952092" lon="129.124536"></trkpt>
      <trkpt lat="35.950879" lon="129.124811"></trkpt>
      <trkpt lat="35.950512" lon="129.125518"></trkpt>
      <trkpt lat="35.950575" lon="129.126356"></trkpt>
      <trkpt lat="35.949917" lon="129.127338"></trkpt>
      <trkpt lat="35.947010" lon="129.127474"></trkpt>
      <trkpt lat="35.944967" lon="129.127027"></trkpt>
      <trkpt lat="35.943921" lon="129.128276"></trkpt>
      <trkpt lat="35.943443" lon="129.129586"></trkpt>
      <trkpt lat="35.942456" lon="129.129476"></trkpt>
      <trkpt lat="35.941325" lon="129.128651"></trkpt>
      <trkpt lat="35.938808" lon="129.128370"></trkpt>
      <trkpt lat="35.938367" lon="129.128927"></trkpt>
      <trkpt lat="35.938051" lon="129.131120"></trkpt>
      <trkpt lat="35.937556" lon="129.132109"></trkpt>
      <trkpt lat="35.936378" lon="129.133043"></trkpt>
      <trkpt lat="35.934880" lon="129.133505"></trkpt>
      <trkpt lat="35.934295" lon="129.134433"></trkpt>
      <trkpt lat="35.933024" lon="129.134930"></trkpt>
      <trkpt lat="35.931821" lon="129.134909"></trkpt>
      <trkpt lat="35.930332" lon="129.134161"></trkpt>
      <trkpt lat="35.929789" lon="129.134358"></trkpt>
      <trkpt lat="35.927779" lon="129.133421"></trkpt>
      <trkpt lat="35.926191" lon="129.132035"></trkpt>
      <trkpt lat="35.925224" lon="129.131993"></trkpt>
      <trkpt lat="35.923793" lon="129.130560"></trkpt>
      <trkpt lat="35.923274" lon="129.128779"></trkpt>
      <trkpt lat="35.922087" lon="129.127443"></trkpt>
      <trkpt lat="35.921746" lon="129.126242"></trkpt>
      <trkpt lat="35.922356" lon="129.125673"></trkpt>
      <trkpt lat="35.922843" lon="129.123969"></trkpt>
      <trkpt lat="35.922506" lon="129.121798"></trkpt>
      <trkpt lat="35.919661" lon="129.118812"></trkpt>
      <trkpt lat="35.917257" lon="129.118622"></trkpt>
      <trkpt lat="35.917051" lon="129.115649"></trkpt>
      <trkpt lat="35.918110" lon="129.113917"></trkpt>
      <trkpt lat="35.919610" lon="129.114793"></trkpt>
      <trkpt lat="35.920449" lon="129.114441"></trkpt>
      <trkpt lat="35.921443" lon="129.114619"></trkpt>
      <trkpt lat="35.928759" lon="129.110730"></trkpt>
      <trkpt lat="35.930371" lon="129.109485"></trkpt>
      <trkpt lat="35.932479" lon="129.106518"></trkpt>
      <trkpt lat="35.933412" lon="129.106242"></trkpt>
      <trkpt lat="35.934959" lon="129.103912"></trkpt>
      <trkpt lat="35.935860" lon="129.103469"></trkpt>
      <trkpt lat="35.936367" lon="129.102241"></trkpt>
      <trkpt lat="35.936251" lon="129.101500"></trkpt>
      <trkpt lat="35.937734" lon="129.100220"></trkpt>
      <trkpt lat="35.937710" lon="129.099146"></trkpt>
      <trkpt lat="35.938399" lon="129.098589"></trkpt>
      <trkpt lat="35.940711" lon="129.094916"></trkpt>
      <trkpt lat="35.940278" lon="129.094102"></trkpt>
      <trkpt lat="35.940368" lon="129.093323"></trkpt>
      <trkpt lat="35.939682" lon="129.092332"></trkpt>
      <trkpt lat="35.939730" lon="129.091493"></trkpt>
      <trkpt lat="35.939215" lon="129.091172"></trkpt>
      <trkpt lat="35.938640" lon="129.089617"></trkpt>
      <trkpt lat="35.939143" lon="129.088393"></trkpt>
      <trkpt lat="35.938613" lon="129.087501"></trkpt>
      <trkpt lat="35.940046" lon="129.083637"></trkpt>
      <trkpt lat="35.939613" lon="129.083109"></trkpt>
      <trkpt lat="35.938560" lon="129.083030"></trkpt>
      <trkpt lat="35.937612" lon="129.081878"></trkpt>
      <trkpt lat="35.939125" lon="129.080823"></trkpt>
      <trkpt lat="35.939252" lon="129.080209"></trkpt>
      <trkpt lat="35.940385" lon="129.079154"></trkpt>
      <trkpt lat="35.941332" lon="129.078684"></trkpt>
      <trkpt lat="35.941761" lon="129.077683"></trkpt>
      <trkpt lat="35.941685" lon="129.076502"></trkpt>
      <trkpt lat="35.942545" lon="129.071498"></trkpt>
      <trkpt lat="35.941508" lon="129.068971"></trkpt>
      <trkpt lat="35.941937" lon="129.066969"></trkpt>
      <trkpt lat="35.941677" lon="129.065958"></trkpt>
      <trkpt lat="35.937119" lon="129.061915"></trkpt>
      <trkpt lat="35.936425" lon="129.062245"></trkpt>
      <trkpt lat="35.935958" lon="129.062009"></trkpt>
      <trkpt lat="35.935466" lon="129.061158"></trkpt>
      <trkpt lat="35.933266" lon="129.059306"></trkpt>
      <trkpt lat="35.930371" lon="129.061501"></trkpt>
      <trkpt lat="35.927255" lon="129.060861"></trkpt>
      <trkpt lat="35.926358" lon="129.060417"></trkpt>
      <trkpt lat="35.925796" lon="129.058284"></trkpt>
      <trkpt lat="35.924673" lon="129.056640"></trkpt>
      <trkpt lat="35.923689" lon="129.056078"></trkpt>
      <trkpt lat="35.922359" lon="129.056629"></trkpt>
      <trkpt lat="35.921148" lon="129.055397"></trkpt>
      <trkpt lat="35.920096" lon="129.054955"></trkpt>
      <trkpt lat="35.920106" lon="129.053492"></trkpt>
      <trkpt lat="35.919663" lon="129.052113"></trkpt>
      <trkpt lat="35.918672" lon="129.051161"></trkpt>
      <trkpt lat="35.919202" lon="129.049262"></trkpt>
      <trkpt lat="35.918766" lon="129.048189"></trkpt>
      <trkpt lat="35.918038" lon="129.047202"></trkpt>
      <trkpt lat="35.915411" lon="129.046076"></trkpt>
      <trkpt lat="35.913103" lon="129.046047"></trkpt>
      <trkpt lat="35.912089" lon="129.042657"></trkpt>
      <trkpt lat="35.912589" lon="129.042407"></trkpt>
      <trkpt lat="35.911808" lon="129.041515"></trkpt>
      <trkpt lat="35.912320" lon="129.041281"></trkpt>
      <trkpt lat="35.912155" lon="129.038149"></trkpt>
      <trkpt lat="35.910288" lon="129.036665"></trkpt>
      <trkpt lat="35.908232" lon="129.036664"></trkpt>
      <trkpt lat="35.906112" lon="129.037877"></trkpt>
      <trkpt lat="35.903934" lon="129.036810"></trkpt>
      <trkpt lat="35.903328" lon="129.036048"></trkpt>
      <trkpt lat="35.901984" lon="129.035709"></trkpt>
      <trkpt lat="35.901781" lon="129.037356"></trkpt>
      <trkpt lat="35.902061" lon="129.039029"></trkpt>
      <trkpt lat="35.901421" lon="129.038911"></trkpt>
      <trkpt lat="35.901322" lon="129.035325"></trkpt>
      <trkpt lat="35.903647" lon="129.030634"></trkpt>
      <trkpt lat="35.903451" lon="129.030454"></trkpt>
      <trkpt lat="35.903647" lon="129.030634"></trkpt>
      <trkpt lat="35.903172" lon="129.030873"></trkpt>
      <trkpt lat="35.901143" lon="129.034869"></trkpt>
      <trkpt lat="35.900394" lon="129.033954"></trkpt>
      <trkpt lat="35.898927" lon="129.033272"></trkpt>
      <trkpt lat="35.897613" lon="129.034616"></trkpt>
      <trkpt lat="35.896939" lon="129.034488"></trkpt>
      <trkpt lat="35.896268" lon="129.034982"></trkpt>
      <trkpt lat="35.895430" lon="129.034900"></trkpt>
      <trkpt lat="35.895067" lon="129.033943"></trkpt>
      <trkpt lat="35.894429" lon="129.033701"></trkpt>
      <trkpt lat="35.892532" lon="129.033938"></trkpt>
      <trkpt lat="35.891761" lon="129.037229"></trkpt>
      <trkpt lat="35.891425" lon="129.036792"></trkpt>
      <trkpt lat="35.891657" lon="129.035694"></trkpt>
      <trkpt lat="35.891404" lon="129.034372"></trkpt>
      <trkpt lat="35.890713" lon="129.032990"></trkpt>
      <trkpt lat="35.889227" lon="129.031792"></trkpt>
      <trkpt lat="35.888899" lon="129.030865"></trkpt>
      <trkpt lat="35.887997" lon="129.030344"></trkpt>
      <trkpt lat="35.886941" lon="129.030704"></trkpt>
      <trkpt lat="35.885516" lon="129.030334"></trkpt>
      <trkpt lat="35.884077" lon="129.031096"></trkpt>
      <trkpt lat="35.883617" lon="129.030575"></trkpt>
      <trkpt lat="35.883563" lon="129.029385"></trkpt>
      <trkpt lat="35.882559" lon="129.028702"></trkpt>
      <trkpt lat="35.882070" lon="129.029025"></trkpt>
      <trkpt lat="35.881831" lon="129.029888"></trkpt>
      <trkpt lat="35.879686" lon="129.030063"></trkpt>
      <trkpt lat="35.878916" lon="129.031110"></trkpt>
      <trkpt lat="35.877315" lon="129.030602"></trkpt>
      <trkpt lat="35.875905" lon="129.031335"></trkpt>
      <trkpt lat="35.874652" lon="129.030456"></trkpt>
      <trkpt lat="35.873604" lon="129.031959"></trkpt>
      <trkpt lat="35.871839" lon="129.032835"></trkpt>
      <trkpt lat="35.870409" lon="129.032838"></trkpt>
      <trkpt lat="35.863556" lon="129.027146"></trkpt>
      <trkpt lat="35.862863" lon="129.024107"></trkpt>
      <trkpt lat="35.860915" lon="129.023501"></trkpt>
      <trkpt lat="35.859972" lon="129.022432"></trkpt>
      <trkpt lat="35.859167" lon="129.022121"></trkpt>
      <trkpt lat="35.858031" lon="129.020262"></trkpt>
      <trkpt lat="35.856532" lon="129.018913"></trkpt>
      <trkpt lat="35.853193" lon="129.018072"></trkpt>
      <trkpt lat="35.850091" lon="129.016278"></trkpt>
      <trkpt lat="35.849785" lon="129.016271"></trkpt>
      <trkpt lat="35.849286" lon="129.018224"></trkpt>
      <trkpt lat="35.848323" lon="129.019707"></trkpt>
      <trkpt lat="35.847635" lon="129.019690"></trkpt>
      <trkpt lat="35.847147" lon="129.020700"></trkpt>
      <trkpt lat="35.846180" lon="129.020929"></trkpt>
      <trkpt lat="35.847596" lon="129.022923"></trkpt>
      <trkpt lat="35.846175" lon="129.026238"></trkpt>
      <trkpt lat="35.845656" lon="129.026859"></trkpt>
      <trkpt lat="35.845416" lon="129.026513"></trkpt>
      <trkpt lat="35.844861" lon="129.026924"></trkpt>
      <trkpt lat="35.845095" lon="129.027082"></trkpt>
      <trkpt lat="35.844725" lon="129.029831"></trkpt>
      <trkpt lat="35.843376" lon="129.032036"></trkpt>
      <trkpt lat="35.843389" lon="129.032974"></trkpt>
      <trkpt lat="35.844322" lon="129.034261"></trkpt>
      <trkpt lat="35.844513" lon="129.035480"></trkpt>
      <trkpt lat="35.843801" lon="129.037490"></trkpt>
      <trkpt lat="35.843228" lon="129.037728"></trkpt>
      <trkpt lat="35.841955" lon="129.039801"></trkpt>
      <trkpt lat="35.841258" lon="129.040149"></trkpt>
      <trkpt lat="35.841358" lon="129.041163"></trkpt>
      <trkpt lat="35.841040" lon="129.041788"></trkpt>
      <trkpt lat="35.840545" lon="129.042406"></trkpt>
      <trkpt lat="35.838372" lon="129.042948"></trkpt>
      <trkpt lat="35.837853" lon="129.043631"></trkpt>
      <trkpt lat="35.836506" lon="129.043300"></trkpt>
      <trkpt lat="35.835192" lon="129.044186"></trkpt>
      <trkpt lat="35.832769" lon="129.043402"></trkpt>
      <trkpt lat="35.830182" lon="129.043732"></trkpt>
      <trkpt lat="35.828061" lon="129.042441"></trkpt>
      <trkpt lat="35.827012" lon="129.041122"></trkpt>
      <trkpt lat="35.826144" lon="129.041137"></trkpt>
      <trkpt lat="35.826049" lon="129.043771"></trkpt>
      <trkpt lat="35.824890" lon="129.044454"></trkpt>
      <trkpt lat="35.824132" lon="129.046402"></trkpt>
      <trkpt lat="35.825105" lon="129.049504"></trkpt>
      <trkpt lat="35.824595" lon="129.050237"></trkpt>
      <trkpt lat="35.824396" lon="129.052481"></trkpt>
      <trkpt lat="35.823702" lon="129.053230"></trkpt>
      <trkpt lat="35.823472" lon="129.055286"></trkpt>
      <trkpt lat="35.823856" lon="129.055774"></trkpt>
      <trkpt lat="35.822464" lon="129.057034"></trkpt>
      <trkpt lat="35.821677" lon="129.058843"></trkpt>
      <trkpt lat="35.819936" lon="129.058850"></trkpt>
      <trkpt lat="35.818603" lon="129.059914"></trkpt>
      <trkpt lat="35.817076" lon="129.060374"></trkpt>
      <trkpt lat="35.814400" lon="129.059927"></trkpt>
      <trkpt lat="35.813518" lon="129.060605"></trkpt>
      <trkpt lat="35.812948" lon="129.061921"></trkpt>
      <trkpt lat="35.812030" lon="129.062216"></trkpt>
      <trkpt lat="35.808825" lon="129.060815"></trkpt>
      <trkpt lat="35.802431" lon="129.062511"></trkpt>
      <trkpt lat="35.800433" lon="129.063405"></trkpt>
      <trkpt lat="35.799683" lon="129.063081"></trkpt>
      <trkpt lat="35.799250" lon="129.063496"></trkpt>
      <trkpt lat="35.798140" lon="129.062501"></trkpt>
      <trkpt lat="35.796707" lon="129.063378"></trkpt>
      <trkpt lat="35.795754" lon="129.063456"></trkpt>
      <trkpt lat="35.795134" lon="129.062661"></trkpt>
      <trkpt lat="35.795354" lon="129.063529"></trkpt>
      <trkpt lat="35.792113" lon="129.066336"></trkpt>
      <trkpt lat="35.792815" lon="129.067701"></trkpt>
      <trkpt lat="35.792250" lon="129.069157"></trkpt>
      <trkpt lat="35.792574" lon="129.070433"></trkpt>
      <trkpt lat="35.790425" lon="129.072980"></trkpt>
      <trkpt lat="35.789780" lon="129.074855"></trkpt>
      <trkpt lat="35.789870" lon="129.076836"></trkpt>
      <trkpt lat="35.790615" lon="129.078684"></trkpt>
      <trkpt lat="35.788926" lon="129.083444"></trkpt>
      <trkpt lat="35.789103" lon="129.084183"></trkpt>
      <trkpt lat="35.789645" lon="129.084519"></trkpt>
      <trkpt lat="35.786190" lon="129.085343"></trkpt>
      <trkpt lat="35.784216" lon="129.084035"></trkpt>
      <trkpt lat="35.782737" lon="129.084093"></trkpt>
      <trkpt lat="35.780720" lon="129.084975"></trkpt>
      <trkpt lat="35.780011" lon="129.084664"></trkpt>
      <trkpt lat="35.774798" lon="129.088514"></trkpt>
      <trkpt lat="35.773967" lon="129.088485"></trkpt>
      <trkpt lat="35.773172" lon="129.089133"></trkpt>
      <trkpt lat="35.771119" lon="129.089717"></trkpt>
      <trkpt lat="35.769587" lon="129.090798"></trkpt>
      <trkpt lat="35.767730" lon="129.090795"></trkpt>
      <trkpt lat="35.766869" lon="129.089629"></trkpt>
      <trkpt lat="35.765585" lon="129.089047"></trkpt>
      <trkpt lat="35.765039" lon="129.089731"></trkpt>
      <trkpt lat="35.763723" lon="129.090140"></trkpt>
      <trkpt lat="35.762351" lon="129.091222"></trkpt>
      <trkpt lat="35.761190" lon="129.091193"></trkpt>
      <trkpt lat="35.759928" lon="129.091876"></trkpt>
      <trkpt lat="35.758883" lon="129.091583"></trkpt>
      <trkpt lat="35.757607" lon="129.090544"></trkpt>
      <trkpt lat="35.754021" lon="129.090674"></trkpt>
      <trkpt lat="35.753278" lon="129.090079"></trkpt>
      <trkpt lat="35.751356" lon="129.089827"></trkpt>
      <trkpt lat="35.749230" lon="129.088744"></trkpt>
      <trkpt lat="35.748640" lon="129.087685"></trkpt>
      <trkpt lat="35.747897" lon="129.087959"></trkpt>
      <trkpt lat="35.746580" lon="129.087089"></trkpt>
      <trkpt lat="35.744360" lon="129.087108"></trkpt>
      <trkpt lat="35.744221" lon="129.085438"></trkpt>
      <trkpt lat="35.743659" lon="129.085218"></trkpt>
      <trkpt lat="35.742839" lon="129.083619"></trkpt>
      <trkpt lat="35.742135" lon="129.083372"></trkpt>
      <trkpt lat="35.741749" lon="129.083651"></trkpt>
      <trkpt lat="35.742313" lon="129.084469"></trkpt>
      <trkpt lat="35.741230" lon="129.086867"></trkpt>
      <trkpt lat="35.739744" lon="129.087979"></trkpt>
      <trkpt lat="35.739149" lon="129.087786"></trkpt>
      <trkpt lat="35.737483" lon="129.088852"></trkpt>
      <trkpt lat="35.736790" lon="129.090423"></trkpt>
      <trkpt lat="35.734270" lon="129.090828"></trkpt>
      <trkpt lat="35.733928" lon="129.091311"></trkpt>
      <trkpt lat="35.732219" lon="129.089723"></trkpt>
      <trkpt lat="35.729994" lon="129.090408"></trkpt>
      <trkpt lat="35.727704" lon="129.090530"></trkpt>
      <trkpt lat="35.725745" lon="129.087869"></trkpt>
      <trkpt lat="35.724985" lon="129.087640"></trkpt>
      <trkpt lat="35.721990" lon="129.088282"></trkpt>
      <trkpt lat="35.719954" lon="129.086271"></trkpt>
      <trkpt lat="35.718952" lon="129.086711"></trkpt>
      <trkpt lat="35.717656" lon="129.085996"></trkpt>
      <trkpt lat="35.716486" lon="129.086054"></trkpt>
      <trkpt lat="35.713692" lon="129.086886"></trkpt>
      <trkpt lat="35.711774" lon="129.088133"></trkpt>
      <trkpt lat="35.710981" lon="129.089119"></trkpt>
      <trkpt lat="35.709758" lon="129.089377"></trkpt>
      <trkpt lat="35.707262" lon="129.088811"></trkpt>
      <trkpt lat="35.705952" lon="129.089098"></trkpt>
      <trkpt lat="35.704026" lon="129.090465"></trkpt>
      <trkpt lat="35.702295" lon="129.090132"></trkpt>
      <trkpt lat="35.701354" lon="129.090373"></trkpt>
      <trkpt lat="35.698994" lon="129.092521"></trkpt>
      <trkpt lat="35.696470" lon="129.093271"></trkpt>
      <trkpt lat="35.695635" lon="129.094664"></trkpt>
      <trkpt lat="35.695665" lon="129.095315"></trkpt>
      <trkpt lat="35.691613" lon="129.096640"></trkpt>
      <trkpt lat="35.688792" lon="129.098393"></trkpt>
      <trkpt lat="35.684264" lon="129.097204"></trkpt>
      <trkpt lat="35.682970" lon="129.096467"></trkpt>
      <trkpt lat="35.682222" lon="129.096613"></trkpt>
      <trkpt lat="35.677873" lon="129.099999"></trkpt>
      <trkpt lat="35.675266" lon="129.100167"></trkpt>
      <trkpt lat="35.674582" lon="129.100607"></trkpt>
      <trkpt lat="35.673840" lon="129.101887"></trkpt>
      <trkpt lat="35.671349" lon="129.103861"></trkpt>
      <trkpt lat="35.666855" lon="129.104353"></trkpt>
      <trkpt lat="35.663964" lon="129.107669"></trkpt>
      <trkpt lat="35.662375" lon="129.108665"></trkpt>
      <trkpt lat="35.660882" lon="129.109209"></trkpt>
      <trkpt lat="35.656851" lon="129.109296"></trkpt>
      <trkpt lat="35.655757" lon="129.108643"></trkpt>
      <trkpt lat="35.653158" lon="129.104907"></trkpt>
      <trkpt lat="35.652339" lon="129.103534"></trkpt>
      <trkpt lat="35.652172" lon="129.102359"></trkpt>
      <trkpt lat="35.650294" lon="129.101643"></trkpt>
      <trkpt lat="35.648797" lon="129.098322"></trkpt>
      <trkpt lat="35.646382" lon="129.095638"></trkpt>
      <trkpt lat="35.642799" lon="129.092510"></trkpt>
      <trkpt lat="35.642163" lon="129.091124"></trkpt>
      <trkpt lat="35.642277" lon="129.089386"></trkpt>
      <trkpt lat="35.641490" lon="129.087735"></trkpt>
      <trkpt lat="35.641372" lon="129.084684"></trkpt>
      <trkpt lat="35.643716" lon="129.080965"></trkpt>
      <trkpt lat="35.645464" lon="129.081314"></trkpt>
      <trkpt lat="35.647676" lon="129.080941"></trkpt>
      <trkpt lat="35.649898" lon="129.079257"></trkpt>
      <trkpt lat="35.651145" lon="129.076164"></trkpt>
      <trkpt lat="35.653953" lon="129.073986"></trkpt>
      <trkpt lat="35.655017" lon="129.073873"></trkpt>
      <trkpt lat="35.656303" lon="129.070572"></trkpt>
      <trkpt lat="35.656813" lon="129.069888"></trkpt>
      <trkpt lat="35.657853" lon="129.069824"></trkpt>
      <trkpt lat="35.658428" lon="129.068209"></trkpt>
      <trkpt lat="35.658934" lon="129.067842"></trkpt>
      <trkpt lat="35.657870" lon="129.066519"></trkpt>
      <trkpt lat="35.656703" lon="129.065902"></trkpt>
      <trkpt lat="35.656083" lon="129.066087"></trkpt>
      <trkpt lat="35.654986" lon="129.065280"></trkpt>
      <trkpt lat="35.654805" lon="129.065542"></trkpt>
      <trkpt lat="35.654256" lon="129.064699"></trkpt>
      <trkpt lat="35.654955" lon="129.064263"></trkpt>
      <trkpt lat="35.654305" lon="129.061224"></trkpt>
      <trkpt lat="35.654260" lon="129.057900"></trkpt>
      <trkpt lat="35.653645" lon="129.056735"></trkpt>
      <trkpt lat="35.653950" lon="129.055733"></trkpt>
      <trkpt lat="35.653618" lon="129.054808"></trkpt>
      <trkpt lat="35.652453" lon="129.054113"></trkpt>
      <trkpt lat="35.649673" lon="129.053773"></trkpt>
      <trkpt lat="35.648936" lon="129.052862"></trkpt>
      <trkpt lat="35.649101" lon="129.051073"></trkpt>
      <trkpt lat="35.650133" lon="129.048790"></trkpt>
      <trkpt lat="35.650343" lon="129.047058"></trkpt>
      <trkpt lat="35.649878" lon="129.046179"></trkpt>
      <trkpt lat="35.646488" lon="129.044391"></trkpt>
      <trkpt lat="35.643912" lon="129.044284"></trkpt>
      <trkpt lat="35.641694" lon="129.043562"></trkpt>
      <trkpt lat="35.640432" lon="129.042341"></trkpt>
      <trkpt lat="35.636910" lon="129.040820"></trkpt>
      <trkpt lat="35.636157" lon="129.039903"></trkpt>
      <trkpt lat="35.636121" lon="129.040278"></trkpt>
      <trkpt lat="35.634927" lon="129.037874"></trkpt>
      <trkpt lat="35.632434" lon="129.036888"></trkpt>
      <trkpt lat="35.631952" lon="129.035755"></trkpt>
      <trkpt lat="35.632198" lon="129.034736"></trkpt>
      <trkpt lat="35.633580" lon="129.032988"></trkpt>
      <trkpt lat="35.634656" lon="129.029486"></trkpt>
      <trkpt lat="35.636259" lon="129.027237"></trkpt>
      <trkpt lat="35.636546" lon="129.026283"></trkpt>
      <trkpt lat="35.635540" lon="129.022895"></trkpt>
      <trkpt lat="35.635728" lon="129.020471"></trkpt>
      <trkpt lat="35.632182" lon="129.018361"></trkpt>
      <trkpt lat="35.631020" lon="129.017224"></trkpt>
      <trkpt lat="35.630815" lon="129.016211"></trkpt>
      <trkpt lat="35.629893" lon="129.015201"></trkpt>
      <trkpt lat="35.629133" lon="129.013356"></trkpt>
      <trkpt lat="35.629082" lon="129.011346"></trkpt>
      <trkpt lat="35.629463" lon="129.010796"></trkpt>
      <trkpt lat="35.629261" lon="129.009343"></trkpt>
      <trkpt lat="35.628165" lon="129.008772"></trkpt>
      <trkpt lat="35.626821" lon="129.007218"></trkpt>
      <trkpt lat="35.625252" lon="129.006742"></trkpt>
      <trkpt lat="35.623811" lon="129.005805"></trkpt>
      <trkpt lat="35.623410" lon="129.005074"></trkpt>
      <trkpt lat="35.621137" lon="129.004113"></trkpt>
      <trkpt lat="35.620276" lon="129.002905"></trkpt>
      <trkpt lat="35.617905" lon="129.006162"></trkpt>
      <trkpt lat="35.615501" lon="129.007877"></trkpt>
      <trkpt lat="35.615813" lon="129.010194"></trkpt>
      <trkpt lat="35.615499" lon="129.012438"></trkpt>
      <trkpt lat="35.616472" lon="129.015438"></trkpt>
      <trkpt lat="35.615362" lon="129.019999"></trkpt>
      <trkpt lat="35.614879" lon="129.021121"></trkpt>
      <trkpt lat="35.614080" lon="129.021706"></trkpt>
      <trkpt lat="35.610950" lon="129.022008"></trkpt>
      <trkpt lat="35.609095" lon="129.023112"></trkpt>
      <trkpt lat="35.603749" lon="129.023452"></trkpt>
      <trkpt lat="35.603178" lon="129.023850"></trkpt>
      <trkpt lat="35.602371" lon="129.025641"></trkpt>
      <trkpt lat="35.600707" lon="129.025959"></trkpt>
      <trkpt lat="35.596747" lon="129.024396"></trkpt>
      <trkpt lat="35.591044" lon="129.023317"></trkpt>
      <trkpt lat="35.587365" lon="129.020050"></trkpt>
      <trkpt lat="35.585542" lon="129.019858"></trkpt>
      <trkpt lat="35.584709" lon="129.020253"></trkpt>
      <trkpt lat="35.584317" lon="129.019913"></trkpt>
      <trkpt lat="35.584079" lon="129.020851"></trkpt>
      <trkpt lat="35.584789" lon="129.022396"></trkpt>
      <trkpt lat="35.584056" lon="129.024311"></trkpt>
      <trkpt lat="35.581903" lon="129.026637"></trkpt>
      <trkpt lat="35.581077" lon="129.026760"></trkpt>
      <trkpt lat="35.580442" lon="129.027423"></trkpt>
      <trkpt lat="35.579228" lon="129.030810"></trkpt>
      <trkpt lat="35.578019" lon="129.031185"></trkpt>
      <trkpt lat="35.576572" lon="129.032332"></trkpt>
      <trkpt lat="35.576458" lon="129.032721"></trkpt>
      <trkpt lat="35.577181" lon="129.033612"></trkpt>
      <trkpt lat="35.577045" lon="129.035535"></trkpt>
      <trkpt lat="35.573908" lon="129.036232"></trkpt>
      <trkpt lat="35.572886" lon="129.035912"></trkpt>
      <trkpt lat="35.571494" lon="129.036216"></trkpt>
      <trkpt lat="35.569434" lon="129.037598"></trkpt>
      <trkpt lat="35.566969" lon="129.040579"></trkpt>
      <trkpt lat="35.565003" lon="129.041773"></trkpt>
      <trkpt lat="35.562044" lon="129.042502"></trkpt>
      <trkpt lat="35.560954" lon="129.043672"></trkpt>
      <trkpt lat="35.555021" lon="129.041721"></trkpt>
      <trkpt lat="35.554131" lon="129.040005"></trkpt>
      <trkpt lat="35.552093" lon="129.040220"></trkpt>
      <trkpt lat="35.549951" lon="129.045098"></trkpt>
      <trkpt lat="35.548260" lon="129.044797"></trkpt>
      <trkpt lat="35.545177" lon="129.046061"></trkpt>
      <trkpt lat="35.544592" lon="129.046694"></trkpt>
      <trkpt lat="35.543936" lon="129.048506"></trkpt>
      <trkpt lat="35.542352" lon="129.048103"></trkpt>
      <trkpt lat="35.540373" lon="129.048283"></trkpt>
      <trkpt lat="35.539067" lon="129.054387"></trkpt>
      <trkpt lat="35.537390" lon="129.054444"></trkpt>
      <trkpt lat="35.531892" lon="129.057123"></trkpt>
      <trkpt lat="35.529927" lon="129.056686"></trkpt>
      <trkpt lat="35.528542" lon="129.055714"></trkpt>
      <trkpt lat="35.527408" lon="129.053615"></trkpt>
      <trkpt lat="35.526099" lon="129.052518"></trkpt>
      <trkpt lat="35.524072" lon="129.052534"></trkpt>
      <trkpt lat="35.521277" lon="129.051645"></trkpt>
      <trkpt lat="35.518552" lon="129.051825"></trkpt>
      <trkpt lat="35.517454" lon="129.052306"></trkpt>
      <trkpt lat="35.516871" lon="129.052967"></trkpt>
      <trkpt lat="35.516832" lon="129.054028"></trkpt>
      <trkpt lat="35.516335" lon="129.054861"></trkpt>
      <trkpt lat="35.515709" lon="129.054934"></trkpt>
      <trkpt lat="35.515418" lon="129.055866"></trkpt>
      <trkpt lat="35.515014" lon="129.055410"></trkpt>
      <trkpt lat="35.514802" lon="129.056858"></trkpt>
      <trkpt lat="35.513844" lon="129.057686"></trkpt>
      <trkpt lat="35.513969" lon="129.057951"></trkpt>
      <trkpt lat="35.509774" lon="129.061732"></trkpt>
      <trkpt lat="35.509476" lon="129.064077"></trkpt>
      <trkpt lat="35.508379" lon="129.066747"></trkpt>
      <trkpt lat="35.508029" lon="129.066747"></trkpt>
      <trkpt lat="35.506759" lon="129.068747"></trkpt>
      <trkpt lat="35.505602" lon="129.071340"></trkpt>
      <trkpt lat="35.504932" lon="129.075380"></trkpt>
      <trkpt lat="35.503213" lon="129.078951"></trkpt>
      <trkpt lat="35.502234" lon="129.079994"></trkpt>
      <trkpt lat="35.501680" lon="129.079994"></trkpt>
      <trkpt lat="35.501804" lon="129.081317"></trkpt>
      <trkpt lat="35.502493" lon="129.082814"></trkpt>
      <trkpt lat="35.501983" lon="129.086413"></trkpt>
      <trkpt lat="35.501127" lon="129.085904"></trkpt>
      <trkpt lat="35.500500" lon="129.088758"></trkpt>
      <trkpt lat="35.499541" lon="129.088892"></trkpt>
      <trkpt lat="35.498178" lon="129.091450"></trkpt>
      <trkpt lat="35.496980" lon="129.091145"></trkpt>
      <trkpt lat="35.496698" lon="129.091423"></trkpt>
      <trkpt lat="35.497618" lon="129.093586"></trkpt>
      <trkpt lat="35.497128" lon="129.095535"></trkpt>
      <trkpt lat="35.497468" lon="129.096900"></trkpt>
      <trkpt lat="35.496736" lon="129.098899"></trkpt>
      <trkpt lat="35.494788" lon="129.100074"></trkpt>
      <trkpt lat="35.493993" lon="129.099848"></trkpt>
      <trkpt lat="35.491250" lon="129.100583"></trkpt>
      <trkpt lat="35.490796" lon="129.101779"></trkpt>
      <trkpt lat="35.490914" lon="129.102455"></trkpt>
      <trkpt lat="35.490446" lon="129.101066"></trkpt>
      <trkpt lat="35.489940" lon="129.101018"></trkpt>
      <trkpt lat="35.489555" lon="129.102257"></trkpt>
      <trkpt lat="35.488616" lon="129.103169"></trkpt>
      <trkpt lat="35.488682" lon="129.104451"></trkpt>
      <trkpt lat="35.488232" lon="129.104381"></trkpt>
      <trkpt lat="35.487703" lon="129.105588"></trkpt>
      <trkpt lat="35.487944" lon="129.107906"></trkpt>
      <trkpt lat="35.487472" lon="129.108673"></trkpt>
      <trkpt lat="35.486397" lon="129.109247"></trkpt>
      <trkpt lat="35.484768" lon="129.109252"></trkpt>
      <trkpt lat="35.484042" lon="129.108092"></trkpt>
      <trkpt lat="35.483549" lon="129.107975"></trkpt>
      <trkpt lat="35.482055" lon="129.108705"></trkpt>
      <trkpt lat="35.481095" lon="129.108618"></trkpt>
      <trkpt lat="35.479756" lon="129.109671"></trkpt>
      <trkpt lat="35.477938" lon="129.112156"></trkpt>
      <trkpt lat="35.477572" lon="129.113667"></trkpt>
      <trkpt lat="35.476624" lon="129.115306"></trkpt>
      <trkpt lat="35.476471" lon="129.116471"></trkpt>
      <trkpt lat="35.475596" lon="129.117244"></trkpt>
      <trkpt lat="35.474720" lon="129.117107"></trkpt>
      <trkpt lat="35.471361" lon="129.118772"></trkpt>
      <trkpt lat="35.471092" lon="129.119955"></trkpt>
      <trkpt lat="35.470458" lon="129.120543"></trkpt>
      <trkpt lat="35.470385" lon="129.122305"></trkpt>
      <trkpt lat="35.468569" lon="129.122612"></trkpt>
      <trkpt lat="35.468170" lon="129.123083"></trkpt>
      <trkpt lat="35.467590" lon="129.122300"></trkpt>
      <trkpt lat="35.466112" lon="129.121550"></trkpt>
      <trkpt lat="35.465291" lon="129.122140"></trkpt>
      <trkpt lat="35.463435" lon="129.124791"></trkpt>
      <trkpt lat="35.461575" lon="129.125915"></trkpt>
      <trkpt lat="35.461081" lon="129.127382"></trkpt>
      <trkpt lat="35.458754" lon="129.129377"></trkpt>
      <trkpt lat="35.458316" lon="129.131463"></trkpt>
      <trkpt lat="35.458972" lon="129.131801"></trkpt>
      <trkpt lat="35.458828" lon="129.132402"></trkpt>
      <trkpt lat="35.456945" lon="129.133424"></trkpt>
      <trkpt lat="35.456464" lon="129.135460"></trkpt>
      <trkpt lat="35.455337" lon="129.135426"></trkpt>
      <trkpt lat="35.454106" lon="129.136435"></trkpt>
      <trkpt lat="35.452937" lon="129.138215"></trkpt>
      <trkpt lat="35.451351" lon="129.138435"></trkpt>
      <trkpt lat="35.449026" lon="129.139554"></trkpt>
      <trkpt lat="35.445747" lon="129.143330"></trkpt>
      <trkpt lat="35.445453" lon="129.145234"></trkpt>
      <trkpt lat="35.444407" lon="129.145684"></trkpt>
      <trkpt lat="35.442863" lon="129.143912"></trkpt>
      <trkpt lat="35.440998" lon="129.143890"></trkpt>
      <trkpt lat="35.439261" lon="129.142537"></trkpt>
      <trkpt lat="35.438814" lon="129.142569"></trkpt>
      <trkpt lat="35.437159" lon="129.140442"></trkpt>
      <trkpt lat="35.436776" lon="129.139084"></trkpt>
      <trkpt lat="35.435973" lon="129.139663"></trkpt>
      <trkpt lat="35.435004" lon="129.138708"></trkpt>
      <trkpt lat="35.432420" lon="129.139610"></trkpt>
      <trkpt lat="35.431179" lon="129.138902"></trkpt>
      <trkpt lat="35.429081" lon="129.136483"></trkpt>
      <trkpt lat="35.429015" lon="129.135318"></trkpt>
      <trkpt lat="35.427491" lon="129.133990"></trkpt>
      <trkpt lat="35.426174" lon="129.131417"></trkpt>
      <trkpt lat="35.425373" lon="129.130961"></trkpt>
      <trkpt lat="35.424891" lon="129.129833"></trkpt>
      <trkpt lat="35.422673" lon="129.128237"></trkpt>
      <trkpt lat="35.421301" lon="129.128257"></trkpt>
      <trkpt lat="35.418619" lon="129.125821"></trkpt>
      <trkpt lat="35.416606" lon="129.124983"></trkpt>
      <trkpt lat="35.415644" lon="129.123261"></trkpt>
      <trkpt lat="35.411724" lon="129.121768"></trkpt>
      <trkpt lat="35.409641" lon="129.122330"></trkpt>
      <trkpt lat="35.408757" lon="129.122014"></trkpt>
      <trkpt lat="35.406548" lon="129.119160"></trkpt>
      <trkpt lat="35.406481" lon="129.117011"></trkpt>
      <trkpt lat="35.406842" lon="129.115935"></trkpt>
      <trkpt lat="35.406543" lon="129.115386"></trkpt>
      <trkpt lat="35.404076" lon="129.113477"></trkpt>
      <trkpt lat="35.403098" lon="129.111290"></trkpt>
      <trkpt lat="35.402118" lon="129.110066"></trkpt>
      <trkpt lat="35.399187" lon="129.107962"></trkpt>
      <trkpt lat="35.398846" lon="129.106559"></trkpt>
      <trkpt lat="35.398079" lon="129.106232"></trkpt>
      <trkpt lat="35.398209" lon="129.107087"></trkpt>
      <trkpt lat="35.397808" lon="129.107804"></trkpt>
      <trkpt lat="35.397030" lon="129.106079"></trkpt>
      <trkpt lat="35.394407" lon="129.105320"></trkpt>
      <trkpt lat="35.394776" lon="129.106347"></trkpt>
      <trkpt lat="35.393789" lon="129.106367"></trkpt>
      <trkpt lat="35.392269" lon="129.107442"></trkpt>
      <trkpt lat="35.391997" lon="129.105852"></trkpt>
      <trkpt lat="35.390976" lon="129.104597"></trkpt>
      <trkpt lat="35.388857" lon="129.104392"></trkpt>
      <trkpt lat="35.387461" lon="129.103014"></trkpt>
      <trkpt lat="35.387114" lon="129.101825"></trkpt>
      <trkpt lat="35.386074" lon="129.103181"></trkpt>
      <trkpt lat="35.385287" lon="129.103076"></trkpt>
      <trkpt lat="35.384857" lon="129.103669"></trkpt>
      <trkpt lat="35.382197" lon="129.102993"></trkpt>
      <trkpt lat="35.382066" lon="129.100878"></trkpt>
      <trkpt lat="35.381033" lon="129.100074"></trkpt>
      <trkpt lat="35.379699" lon="129.099408"></trkpt>
      <trkpt lat="35.378540" lon="129.099762"></trkpt>
      <trkpt lat="35.376130" lon="129.097842"></trkpt>
      <trkpt lat="35.374796" lon="129.097724"></trkpt>
      <trkpt lat="35.373383" lon="129.095637"></trkpt>
      <trkpt lat="35.372259" lon="129.094940"></trkpt>
      <trkpt lat="35.371393" lon="129.095063"></trkpt>
      <trkpt lat="35.370680" lon="129.095829"></trkpt>
      <trkpt lat="35.369515" lon="129.095572"></trkpt>
      <trkpt lat="35.368555" lon="129.094511"></trkpt>
      <trkpt lat="35.366546" lon="129.093964"></trkpt>
      <trkpt lat="35.364327" lon="129.091266"></trkpt>
      <trkpt lat="35.362356" lon="129.091551"></trkpt>
      <trkpt lat="35.361015" lon="129.094541"></trkpt>
      <trkpt lat="35.357780" lon="129.093436"></trkpt>
      <trkpt lat="35.356318" lon="129.094051"></trkpt>
      <trkpt lat="35.355123" lon="129.094051"></trkpt>
      <trkpt lat="35.353330" lon="129.095679"></trkpt>
      <trkpt lat="35.350089" lon="129.094634"></trkpt>
      <trkpt lat="35.347732" lon="129.093046"></trkpt>
      <trkpt lat="35.344825" lon="129.093261"></trkpt>
      <trkpt lat="35.343144" lon="129.092709"></trkpt>
      <trkpt lat="35.341146" lon="129.094148"></trkpt>
      <trkpt lat="35.339401" lon="129.093843"></trkpt>
      <trkpt lat="35.337812" lon="129.097796"></trkpt>
      <trkpt lat="35.336295" lon="129.098139"></trkpt>
      <trkpt lat="35.335269" lon="129.099167"></trkpt>
      <trkpt lat="35.333887" lon="129.099178"></trkpt>
      <trkpt lat="35.333116" lon="129.099721"></trkpt>
      <trkpt lat="35.333103" lon="129.100441"></trkpt>
      <trkpt lat="35.332346" lon="129.101728"></trkpt>
      <trkpt lat="35.332585" lon="129.104342"></trkpt>
      <trkpt lat="35.331906" lon="129.105076"></trkpt>
      <trkpt lat="35.327833" lon="129.102023"></trkpt>
      <trkpt lat="35.327097" lon="129.102862"></trkpt>
      <trkpt lat="35.326760" lon="129.104046"></trkpt>
      <trkpt lat="35.324851" lon="129.104190"></trkpt>
      <trkpt lat="35.324301" lon="129.102034"></trkpt>
      <trkpt lat="35.321777" lon="129.097521"></trkpt>
      <trkpt lat="35.321052" lon="129.097109"></trkpt>
      <trkpt lat="35.320145" lon="129.095546"></trkpt>
      <trkpt lat="35.318889" lon="129.095342"></trkpt>
      <trkpt lat="35.317702" lon="129.093848"></trkpt>
      <trkpt lat="35.318243" lon="129.093072"></trkpt>
      <trkpt lat="35.317681" lon="129.091900"></trkpt>
      <trkpt lat="35.318098" lon="129.091179"></trkpt>
      <trkpt lat="35.317683" lon="129.089646"></trkpt>
      <trkpt lat="35.314675" lon="129.087608"></trkpt>
      <trkpt lat="35.313350" lon="129.085167"></trkpt>
      <trkpt lat="35.310506" lon="129.086112"></trkpt>
      <trkpt lat="35.307925" lon="129.085921"></trkpt>
      <trkpt lat="35.307270" lon="129.086679"></trkpt>
      <trkpt lat="35.306694" lon="129.088524"></trkpt>
      <trkpt lat="35.305478" lon="129.088161"></trkpt>
      <trkpt lat="35.305037" lon="129.089452"></trkpt>
      <trkpt lat="35.304051" lon="129.090359"></trkpt>
      <trkpt lat="35.303420" lon="129.090357"></trkpt>
      <trkpt lat="35.302382" lon="129.087633"></trkpt>
      <trkpt lat="35.301002" lon="129.085933"></trkpt>
      <trkpt lat="35.298960" lon="129.084283"></trkpt>
      <trkpt lat="35.297813" lon="129.084855"></trkpt>
      <trkpt lat="35.296842" lon="129.084234"></trkpt>
      <trkpt lat="35.298849" lon="129.082449"></trkpt>
      <trkpt lat="35.299258" lon="129.081341"></trkpt>
      <trkpt lat="35.298772" lon="129.081462"></trkpt>
      <trkpt lat="35.298419" lon="129.082716"></trkpt>
      <trkpt lat="35.297678" lon="129.082443"></trkpt>
      <trkpt lat="35.296920" lon="129.080995"></trkpt>
      <trkpt lat="35.295626" lon="129.079984"></trkpt>
      <trkpt lat="35.292989" lon="129.079252"></trkpt>
      <trkpt lat="35.292856" lon="129.076798"></trkpt>
      <trkpt lat="35.291881" lon="129.074603"></trkpt>
      <trkpt lat="35.290077" lon="129.073665"></trkpt>
      <trkpt lat="35.290354" lon="129.072204"></trkpt>
      <trkpt lat="35.290024" lon="129.069569"></trkpt>
      <trkpt lat="35.291181" lon="129.067382"></trkpt>
      <trkpt lat="35.291553" lon="129.064217"></trkpt>
      <trkpt lat="35.292418" lon="129.062114"></trkpt>
      <trkpt lat="35.292767" lon="129.061610"></trkpt>
      <trkpt lat="35.295036" lon="129.060668"></trkpt>
      <trkpt lat="35.295503" lon="129.060208"></trkpt>
      <trkpt lat="35.295249" lon="129.059366"></trkpt>
      <trkpt lat="35.293778" lon="129.058479"></trkpt>
      <trkpt lat="35.293743" lon="129.057941"></trkpt>
      <trkpt lat="35.292351" lon="129.056847"></trkpt>
      <trkpt lat="35.291477" lon="129.056674"></trkpt>
      <trkpt lat="35.290124" lon="129.054746"></trkpt>
      <trkpt lat="35.288179" lon="129.053830"></trkpt>
      <trkpt lat="35.286939" lon="129.051573"></trkpt>
      <trkpt lat="35.284774" lon="129.050930"></trkpt>
      <trkpt lat="35.283954" lon="129.049966"></trkpt>
      <trkpt lat="35.282547" lon="129.049854"></trkpt>
      <trkpt lat="35.280762" lon="129.051295"></trkpt>
      <trkpt lat="35.280158" lon="129.050664"></trkpt>
      <trkpt lat="35.279277" lon="129.050570"></trkpt>
      <trkpt lat="35.278762" lon="129.052440"></trkpt>
      <trkpt lat="35.278031" lon="129.053077"></trkpt>
      <trkpt lat="35.276928" lon="129.055266"></trkpt>
      <trkpt lat="35.275965" lon="129.055938"></trkpt>
      <trkpt lat="35.274641" lon="129.058701"></trkpt>
      <trkpt lat="35.273699" lon="129.059051"></trkpt>
      <trkpt lat="35.272276" lon="129.060487"></trkpt>
      <trkpt lat="35.270279" lon="129.060374"></trkpt>
      <trkpt lat="35.267762" lon="129.061062"></trkpt>
      <trkpt lat="35.265051" lon="129.062399"></trkpt>
      <trkpt lat="35.262834" lon="129.061850"></trkpt>
      <trkpt lat="35.261762" lon="129.062097"></trkpt>
      <trkpt lat="35.259665" lon="129.064930"></trkpt>
      <trkpt lat="35.257274" lon="129.066842"></trkpt>
      <trkpt lat="35.257124" lon="129.067894"></trkpt>
      <trkpt lat="35.256718" lon="129.067978"></trkpt>
      <trkpt lat="35.255893" lon="129.067214"></trkpt>
      <trkpt lat="35.253708" lon="129.066813"></trkpt>
      <trkpt lat="35.249963" lon="129.067618"></trkpt>
      <trkpt lat="35.248218" lon="129.066542"></trkpt>
      <trkpt lat="35.247641" lon="129.065438"></trkpt>
      <trkpt lat="35.246553" lon="129.064854"></trkpt>
      <trkpt lat="35.245566" lon="129.065100"></trkpt>
      <trkpt lat="35.245456" lon="129.063554"></trkpt>
      <trkpt lat="35.244753" lon="129.062668"></trkpt>
      <trkpt lat="35.243173" lon="129.062339"></trkpt>
      <trkpt lat="35.242807" lon="129.061841"></trkpt>
      <trkpt lat="35.241633" lon="129.061884"></trkpt>
      <trkpt lat="35.240607" lon="129.061218"></trkpt>
      <trkpt lat="35.238485" lon="129.062228"></trkpt>
      <trkpt lat="35.237663" lon="129.061619"></trkpt>
      <trkpt lat="35.236622" lon="129.061575"></trkpt>
      <trkpt lat="35.233522" lon="129.059414"></trkpt>
      <trkpt lat="35.231442" lon="129.059712"></trkpt>
      <trkpt lat="35.230555" lon="129.059404"></trkpt>
      <trkpt lat="35.230334" lon="129.060001"></trkpt>
      <trkpt lat="35.227150" lon="129.059112"></trkpt>
      <trkpt lat="35.226408" lon="129.059357"></trkpt>
      <trkpt lat="35.226014" lon="129.060394"></trkpt>
      <trkpt lat="35.224615" lon="129.059952"></trkpt>
      <trkpt lat="35.223310" lon="129.058273"></trkpt>
      <trkpt lat="35.221311" lon="129.056905"></trkpt>
      <trkpt lat="35.220493" lon="129.056845"></trkpt>
      <trkpt lat="35.219843" lon="129.056016"></trkpt>
      <trkpt lat="35.218885" lon="129.056343"></trkpt>
      <trkpt lat="35.217445" lon="129.054939"></trkpt>
      <trkpt lat="35.216595" lon="129.054714"></trkpt>
      <trkpt lat="35.215917" lon="129.053577"></trkpt>
      <trkpt lat="35.214130" lon="129.052488"></trkpt>
      <trkpt lat="35.213861" lon="129.051774"></trkpt>
      <trkpt lat="35.212732" lon="129.051313"></trkpt>
      <trkpt lat="35.209491" lon="129.051476"></trkpt>
      <trkpt lat="35.207258" lon="129.050488"></trkpt>
      <trkpt lat="35.205173" lon="129.048097"></trkpt>
      <trkpt lat="35.203399" lon="129.046866"></trkpt>
      <trkpt lat="35.202606" lon="129.046548"></trkpt>
      <trkpt lat="35.202132" lon="129.047148"></trkpt>
      <trkpt lat="35.201703" lon="129.046907"></trkpt>
      <trkpt lat="35.202228" lon="129.043613"></trkpt>
      <trkpt lat="35.199119" lon="129.043611"></trkpt>
      <trkpt lat="35.198295" lon="129.043983"></trkpt>
      <trkpt lat="35.199261" lon="129.040660"></trkpt>
      <trkpt lat="35.199330" lon="129.039038"></trkpt>
      <trkpt lat="35.198258" lon="129.037329"></trkpt>
      <trkpt lat="35.198467" lon="129.036026"></trkpt>
      <trkpt lat="35.197809" lon="129.034069"></trkpt>
      <trkpt lat="35.195173" lon="129.031967"></trkpt>
      <trkpt lat="35.194893" lon="129.029817"></trkpt>
      <trkpt lat="35.194128" lon="129.029141"></trkpt>
      <trkpt lat="35.193624" lon="129.027395"></trkpt>
      <trkpt lat="35.193467" lon="129.025657"></trkpt>
      <trkpt lat="35.189137" lon="129.022727"></trkpt>
      <trkpt lat="35.187766" lon="129.021139"></trkpt>
      <trkpt lat="35.183305" lon="129.021850"></trkpt>
      <trkpt lat="35.182234" lon="129.021588"></trkpt>
      <trkpt lat="35.179757" lon="129.019729"></trkpt>
      <trkpt lat="35.179338" lon="129.017921"></trkpt>
      <trkpt lat="35.176201" lon="129.014073"></trkpt>
      <trkpt lat="35.175955" lon="129.013002"></trkpt>
      <trkpt lat="35.174889" lon="129.012372"></trkpt>
      <trkpt lat="35.172689" lon="129.009902"></trkpt>
      <trkpt lat="35.171825" lon="129.009951"></trkpt>
      <trkpt lat="35.170853" lon="129.010691"></trkpt>
      <trkpt lat="35.170289" lon="129.010495"></trkpt>
      <trkpt lat="35.168737" lon="129.012120"></trkpt>
      <trkpt lat="35.167288" lon="129.012033"></trkpt>
      <trkpt lat="35.165538" lon="129.013110"></trkpt>
      <trkpt lat="35.165625" lon="129.014486"></trkpt>
      <trkpt lat="35.164911" lon="129.015755"></trkpt>
      <trkpt lat="35.164252" lon="129.015231"></trkpt>
      <trkpt lat="35.164154" lon="129.015503"></trkpt>
      <trkpt lat="35.164863" lon="129.017297"></trkpt>
      <trkpt lat="35.164526" lon="129.017959"></trkpt>
      <trkpt lat="35.164615" lon="129.019243"></trkpt>
      <trkpt lat="35.163569" lon="129.019539"></trkpt>
      <trkpt lat="35.162042" lon="129.019242"></trkpt>
      <trkpt lat="35.161551" lon="129.019653"></trkpt>
      <trkpt lat="35.160886" lon="129.018717"></trkpt>
      <trkpt lat="35.159864" lon="129.018616"></trkpt>
      <trkpt lat="35.159446" lon="129.019562"></trkpt>
      <trkpt lat="35.158740" lon="129.019560"></trkpt>
      <trkpt lat="35.157434" lon="129.020761"></trkpt>
      <trkpt lat="35.157118" lon="129.019175"></trkpt>
      <trkpt lat="35.156815" lon="129.019194"></trkpt>
      <trkpt lat="35.156299" lon="129.017949"></trkpt>
      <trkpt lat="35.154456" lon="129.018842"></trkpt>
      <trkpt lat="35.155081" lon="129.021354"></trkpt>
      <trkpt lat="35.154853" lon="129.021585"></trkpt>
      <trkpt lat="35.153990" lon="129.020979"></trkpt>
      <trkpt lat="35.153387" lon="129.019908"></trkpt>
      <trkpt lat="35.152615" lon="129.020368"></trkpt>
      <trkpt lat="35.150388" lon="129.020150"></trkpt>
      <trkpt lat="35.146116" lon="129.021796"></trkpt>
      <trkpt lat="35.144944" lon="129.021242"></trkpt>
      <trkpt lat="35.144336" lon="129.022214"></trkpt>
      <trkpt lat="35.143844" lon="129.022014"></trkpt>
      <trkpt lat="35.141267" lon="129.023417"></trkpt>
      <trkpt lat="35.139499" lon="129.022757"></trkpt>
      <trkpt lat="35.136764" lon="129.020807"></trkpt>
      <trkpt lat="35.135756" lon="129.017526"></trkpt>
      <trkpt lat="35.134869" lon="129.016294"></trkpt>
      <trkpt lat="35.133057" lon="129.015144"></trkpt>
      <trkpt lat="35.130225" lon="129.014130"></trkpt>
      <trkpt lat="35.129944" lon="129.012467"></trkpt>
      <trkpt lat="35.128636" lon="129.011019"></trkpt>
      <trkpt lat="35.127990" lon="129.007802"></trkpt>
      <trkpt lat="35.127447" lon="129.006754"></trkpt>
      <trkpt lat="35.126939" lon="129.006641"></trkpt>
      <trkpt lat="35.127696" lon="129.005813"></trkpt>
      <trkpt lat="35.126475" lon="129.005842"></trkpt>
      <trkpt lat="35.127175" lon="129.005254"></trkpt>
      <trkpt lat="35.127170" lon="129.004470"></trkpt>
      <trkpt lat="35.127629" lon="129.003680"></trkpt>
      <trkpt lat="35.127052" lon="129.002903"></trkpt>
      <trkpt lat="35.126972" lon="129.003613"></trkpt>
      <trkpt lat="35.126358" lon="129.004150"></trkpt>
      <trkpt lat="35.126467" lon="129.003294"></trkpt>
      <trkpt lat="35.125258" lon="129.003444"></trkpt>
      <trkpt lat="35.125796" lon="129.002621"></trkpt>
      <trkpt lat="35.125744" lon="129.000883"></trkpt>
      <trkpt lat="35.126196" lon="129.000674"></trkpt>
      <trkpt lat="35.126843" lon="128.999156"></trkpt>
      <trkpt lat="35.124792" lon="128.998592"></trkpt>
      <trkpt lat="35.123218" lon="128.997221"></trkpt>
      <trkpt lat="35.121772" lon="128.998816"></trkpt>
      <trkpt lat="35.120648" lon="128.999243"></trkpt>
      <trkpt lat="35.120720" lon="128.999989"></trkpt>
      <trkpt lat="35.120237" lon="129.000444"></trkpt>
      <trkpt lat="35.118479" lon="128.999802"></trkpt>
      <trkpt lat="35.117692" lon="129.000686"></trkpt>
      <trkpt lat="35.116204" lon="129.001253"></trkpt>
      <trkpt lat="35.114449" lon="129.001178"></trkpt>
      <trkpt lat="35.113971" lon="129.002975"></trkpt>
      <trkpt lat="35.113155" lon="129.003946"></trkpt>
      <trkpt lat="35.111524" lon="129.003357"></trkpt>
      <trkpt lat="35.110618" lon="129.003704"></trkpt>
      <trkpt lat="35.109494" lon="129.006264"></trkpt>
      <trkpt lat="35.109010" lon="129.006334"></trkpt>
      <trkpt lat="35.108125" lon="129.007339"></trkpt>
      <trkpt lat="35.108219" lon="129.007639"></trkpt>
      <trkpt lat="35.107273" lon="129.008340"></trkpt>
      <trkpt lat="35.106735" lon="129.007924"></trkpt>
      <trkpt lat="35.106587" lon="129.009090"></trkpt>
      <trkpt lat="35.107267" lon="129.009051"></trkpt>
      <trkpt lat="35.107234" lon="129.009453"></trkpt>
      <trkpt lat="35.105272" lon="129.010662"></trkpt>
      <trkpt lat="35.104665" lon="129.009392"></trkpt>
      <trkpt lat="35.103207" lon="129.008818"></trkpt>
      <trkpt lat="35.101968" lon="129.007521"></trkpt>
      <trkpt lat="35.099977" lon="129.007269"></trkpt>
      <trkpt lat="35.098803" lon="129.006569"></trkpt>
      <trkpt lat="35.096753" lon="129.003496"></trkpt>
      <trkpt lat="35.097378" lon="129.000317"></trkpt>
      <trkpt lat="35.096469" lon="128.998789"></trkpt>
      <trkpt lat="35.095666" lon="128.998206"></trkpt>
      <trkpt lat="35.094818" lon="128.995980"></trkpt>
      <trkpt lat="35.095545" lon="128.995949"></trkpt>
      <trkpt lat="35.096288" lon="128.995333"></trkpt>
      <trkpt lat="35.095580" lon="128.995092"></trkpt>
      <trkpt lat="35.094375" lon="128.993192"></trkpt>
      <trkpt lat="35.092926" lon="128.992691"></trkpt>
      <trkpt lat="35.092241" lon="128.992919"></trkpt>
      <trkpt lat="35.092017" lon="128.992306"></trkpt>
      <trkpt lat="35.092751" lon="128.991673"></trkpt>
      <trkpt lat="35.091285" lon="128.990605"></trkpt>
      <trkpt lat="35.091244" lon="128.989738"></trkpt>
      <trkpt lat="35.091648" lon="128.989263"></trkpt>
      <trkpt lat="35.091183" lon="128.988079"></trkpt>
      <trkpt lat="35.091863" lon="128.985105"></trkpt>
      <trkpt lat="35.090834" lon="128.984540"></trkpt>
      <trkpt lat="35.088613" lon="128.984964"></trkpt>
      <trkpt lat="35.088031" lon="128.984148"></trkpt>
      <trkpt lat="35.086625" lon="128.984267"></trkpt>
      <trkpt lat="35.085027" lon="128.983055"></trkpt>
      <trkpt lat="35.084068" lon="128.984739"></trkpt>
      <trkpt lat="35.083097" lon="128.983284"></trkpt>
      <trkpt lat="35.081530" lon="128.983000"></trkpt>
      <trkpt lat="35.081095" lon="128.982373"></trkpt>
      <trkpt lat="35.079120" lon="128.984744"></trkpt>
      <trkpt lat="35.078242" lon="128.984427"></trkpt>
      <trkpt lat="35.075577" lon="128.985859"></trkpt>
      <trkpt lat="35.074033" lon="128.984934"></trkpt>
      <trkpt lat="35.073959" lon="128.984372"></trkpt>
      <trkpt lat="35.072634" lon="128.983741"></trkpt>
      <trkpt lat="35.072534" lon="128.982837"></trkpt>
      <trkpt lat="35.071427" lon="128.983084"></trkpt>
      <trkpt lat="35.070320" lon="128.981812"></trkpt>
      <trkpt lat="35.069828" lon="128.982110"></trkpt>
      <trkpt lat="35.070092" lon="128.982507"></trkpt>
      <trkpt lat="35.068463" lon="128.982984"></trkpt>
      <trkpt lat="35.067588" lon="128.982132"></trkpt>
      <trkpt lat="35.067940" lon="128.980720"></trkpt>
      <trkpt lat="35.068850" lon="128.979380"></trkpt>
      <trkpt lat="35.068850" lon="128.978557"></trkpt>
      <trkpt lat="35.067850" lon="128.977633"></trkpt>
      <trkpt lat="35.066981" lon="128.974988"></trkpt>
      <trkpt lat="35.065696" lon="128.974472"></trkpt>
      <trkpt lat="35.065984" lon="128.972186"></trkpt>
      <trkpt lat="35.066495" lon="128.971338"></trkpt>
      <trkpt lat="35.066305" lon="128.969235"></trkpt>
      <trkpt lat="35.065747" lon="128.969053"></trkpt>
      <trkpt lat="35.065744" lon="128.968298"></trkpt>
      <trkpt lat="35.061433" lon="128.967320"></trkpt>
      <trkpt lat="35.059847" lon="128.966430"></trkpt>
      <trkpt lat="35.059135" lon="128.965471"></trkpt>
    </trkseg>
  </trk>
</gpx>
