<?xml version="1.0" encoding="UTF-8"?>
<gpx version="1.1" creator="kr-100-mountains route-harvester"
     xmlns="http://www.topografix.com/GPX/1/1"
     xmlns:k100="https://github.com/jay-jang/kr-100-mountains/ns/1"
     xmlns:xsi="http://www.w3.org/2001/XMLSchema-instance"
     xsi:schemaLocation="http://www.topografix.com/GPX/1/1 http://www.topografix.com/GPX/1/1/gpx.xsd">
  <metadata>
    <name>hiking relation 16555730</name>
    <desc>OpenStreetMap에 등록된 도보 경로(route=hiking) 관계를 그대로 내보낸 선형입니다. 실측 GPS 기록이 아닙니다.</desc>
    <time>2026-08-04T05:19:38.097Z</time>
    <link href="https://www.openstreetmap.org/copyright"><text>© OpenStreetMap contributors (ODbL 1.0)</text></link>
    <extensions>
      <k100:provenance>osm-relation</k100:provenance>
      <k100:not_a_recorded_track>true</k100:not_a_recorded_track>
      <k100:osm_type>relation</k100:osm_type>
      <k100:osm_id>16555730</k100:osm_id>
      <k100:osm_name>hiking relation 16555730</k100:osm_name>
      <k100:network>rwn</k100:network>
      <k100:source>OpenStreetMap via Overpass API</k100:source>
      <k100:license>ODbL-1.0</k100:license>
      <k100:attribution>© OpenStreetMap contributors</k100:attribution>
      <k100:osm_snapshot>2026-08-04</k100:osm_snapshot>
    </extensions>
  </metadata>
  <trk>
    <name>hiking relation 16555730</name>
    <desc>OpenStreetMap에 등록된 도보 경로(route=hiking) 관계를 그대로 내보낸 선형입니다. 실측 GPS 기록이 아닙니다.</desc>
    <trkseg>
      <trkpt lat="38.112039" lon="128.410285"></trkpt>
      <trkpt lat="38.111632" lon="128.412739"></trkpt>
      <trkpt lat="38.111711" lon="128.413274"></trkpt>
      <trkpt lat="38.111084" lon="128.414911"></trkpt>
      <trkpt lat="38.111055" lon="128.415818"></trkpt>
      <trkpt lat="38.111278" lon="128.416865"></trkpt>
      <trkpt lat="38.111143" lon="128.417371"></trkpt>
      <trkpt lat="38.111259" lon="128.417929"></trkpt>
      <trkpt lat="38.111396" lon="128.418051"></trkpt>
      <trkpt lat="38.110934" lon="128.418616"></trkpt>
      <trkpt lat="38.110658" lon="128.419222"></trkpt>
      <trkpt lat="38.110657" lon="128.420075"></trkpt>
      <trkpt lat="38.110400" lon="128.420976"></trkpt>
      <trkpt lat="38.110144" lon="128.421422"></trkpt>
      <trkpt lat="38.110278" lon="128.421657"></trkpt>
      <trkpt lat="38.110221" lon="128.422526"></trkpt>
      <trkpt lat="38.110151" lon="128.423214"></trkpt>
      <trkpt lat="38.109921" lon="128.423680"></trkpt>
      <trkpt lat="38.109822" lon="128.424986"></trkpt>
      <trkpt lat="38.109983" lon="128.425949"></trkpt>
      <trkpt lat="38.109766" lon="128.426186"></trkpt>
      <trkpt lat="38.109708" lon="128.426619"></trkpt>
      <trkpt lat="38.109442" lon="128.426877"></trkpt>
      <trkpt lat="38.109276" lon="128.427359"></trkpt>
      <trkpt lat="38.109674" lon="128.429629"></trkpt>
      <trkpt lat="38.109554" lon="128.429712"></trkpt>
      <trkpt lat="38.110022" lon="128.430426"></trkpt>
      <trkpt lat="38.110236" lon="128.431554"></trkpt>
      <trkpt lat="38.110400" lon="128.431877"></trkpt>
      <trkpt lat="38.110522" lon="128.432495"></trkpt>
      <trkpt lat="38.110514" lon="128.433743"></trkpt>
      <trkpt lat="38.111720" lon="128.436176"></trkpt>
      <trkpt lat="38.111745" lon="128.436423"></trkpt>
      <trkpt lat="38.111974" lon="128.436673"></trkpt>
      <trkpt lat="38.112047" lon="128.437416"></trkpt>
      <trkpt lat="38.113000" lon="128.438108"></trkpt>
      <trkpt lat="38.113419" lon="128.439035"></trkpt>
      <trkpt lat="38.114594" lon="128.440331"></trkpt>
      <trkpt lat="38.114952" lon="128.441129"></trkpt>
      <trkpt lat="38.115303" lon="128.442494"></trkpt>
      <trkpt lat="38.115425" lon="128.443515"></trkpt>
      <trkpt lat="38.115985" lon="128.445335"></trkpt>
      <trkpt lat="38.116194" lon="128.446691"></trkpt>
      <trkpt lat="38.116059" lon="128.447326"></trkpt>
      <trkpt lat="38.116181" lon="128.448150"></trkpt>
      <trkpt lat="38.115958" lon="128.449231"></trkpt>
      <trkpt lat="38.115756" lon="128.449532"></trkpt>
      <trkpt lat="38.115722" lon="128.450219"></trkpt>
      <trkpt lat="38.115823" lon="128.450648"></trkpt>
      <trkpt lat="38.116552" lon="128.451626"></trkpt>
      <trkpt lat="38.117160" lon="128.453137"></trkpt>
      <trkpt lat="38.118143" lon="128.453785"></trkpt>
      <trkpt lat="38.118505" lon="128.453885"></trkpt>
      <trkpt lat="38.119844" lon="128.455260"></trkpt>
      <trkpt lat="38.120703" lon="128.456802"></trkpt>
      <trkpt lat="38.120862" lon="128.458099"></trkpt>
      <trkpt lat="38.121405" lon="128.459484"></trkpt>
    </trkseg>
  </trk>
</gpx>
