<?xml version="1.0" encoding="UTF-8"?>
<gpx version="1.1" creator="kr-100-mountains route-harvester"
     xmlns="http://www.topografix.com/GPX/1/1"
     xmlns:k100="https://github.com/jay-jang/kr-100-mountains/ns/1"
     xmlns:xsi="http://www.w3.org/2001/XMLSchema-instance"
     xsi:schemaLocation="http://www.topografix.com/GPX/1/1 http://www.topografix.com/GPX/1/1/gpx.xsd">
  <metadata>
    <name>신원사2코스</name>
    <desc>OpenStreetMap에 등록된 도보 경로(route=hiking) 관계를 그대로 내보낸 선형입니다. 실측 GPS 기록이 아닙니다.</desc>
    <time>2026-08-04T05:29:04.905Z</time>
    <link href="https://www.openstreetmap.org/copyright"><text>© OpenStreetMap contributors (ODbL 1.0)</text></link>
    <extensions>
      <k100:provenance>osm-relation</k100:provenance>
      <k100:not_a_recorded_track>true</k100:not_a_recorded_track>
      <k100:osm_type>relation</k100:osm_type>
      <k100:osm_id>16569675</k100:osm_id>
      <k100:osm_name>신원사2코스</k100:osm_name>
      <k100:network>rwn</k100:network>
      <k100:source>OpenStreetMap via Overpass API</k100:source>
      <k100:license>ODbL-1.0</k100:license>
      <k100:attribution>© OpenStreetMap contributors</k100:attribution>
      <k100:osm_snapshot>2026-08-04</k100:osm_snapshot>
    </extensions>
  </metadata>
  <trk>
    <name>신원사2코스</name>
    <desc>OpenStreetMap에 등록된 도보 경로(route=hiking) 관계를 그대로 내보낸 선형입니다. 실측 GPS 기록이 아닙니다.</desc>
    <trkseg>
      <trkpt lat="36.334208" lon="127.184127"></trkpt>
      <trkpt lat="36.334518" lon="127.184167"></trkpt>
      <trkpt lat="36.334678" lon="127.184853"></trkpt>
      <trkpt lat="36.335218" lon="127.185634"></trkpt>
      <trkpt lat="36.335783" lon="127.185909"></trkpt>
      <trkpt lat="36.336191" lon="127.186419"></trkpt>
      <trkpt lat="36.336243" lon="127.186705"></trkpt>
      <trkpt lat="36.336079" lon="127.187051"></trkpt>
      <trkpt lat="36.336041" lon="127.187626"></trkpt>
      <trkpt lat="36.336321" lon="127.188950"></trkpt>
      <trkpt lat="36.336437" lon="127.189219"></trkpt>
      <trkpt lat="36.336996" lon="127.189549"></trkpt>
      <trkpt lat="36.337223" lon="127.189968"></trkpt>
      <trkpt lat="36.337681" lon="127.191594"></trkpt>
      <trkpt lat="36.337959" lon="127.192069"></trkpt>
      <trkpt lat="36.338414" lon="127.192471"></trkpt>
      <trkpt lat="36.338921" lon="127.193658"></trkpt>
      <trkpt lat="36.339407" lon="127.194326"></trkpt>
      <trkpt lat="36.339841" lon="127.194414"></trkpt>
      <trkpt lat="36.340122" lon="127.194628"></trkpt>
      <trkpt lat="36.340300" lon="127.194983"></trkpt>
      <trkpt lat="36.340686" lon="127.195002"></trkpt>
      <trkpt lat="36.342138" lon="127.195871"></trkpt>
      <trkpt lat="36.342322" lon="127.195754"></trkpt>
      <trkpt lat="36.342816" lon="127.195828"></trkpt>
      <trkpt lat="36.344702" lon="127.195570"></trkpt>
      <trkpt lat="36.345748" lon="127.195819"></trkpt>
      <trkpt lat="36.346483" lon="127.196190"></trkpt>
      <trkpt lat="36.346667" lon="127.195526"></trkpt>
      <trkpt lat="36.347352" lon="127.194926"></trkpt>
      <trkpt lat="36.347529" lon="127.195024"></trkpt>
      <trkpt lat="36.348121" lon="127.194900"></trkpt>
      <trkpt lat="36.348244" lon="127.195025"></trkpt>
      <trkpt lat="36.348451" lon="127.194896"></trkpt>
      <trkpt lat="36.348620" lon="127.194522"></trkpt>
      <trkpt lat="36.349250" lon="127.194133"></trkpt>
      <trkpt lat="36.350582" lon="127.193889"></trkpt>
      <trkpt lat="36.350021" lon="127.195035"></trkpt>
      <trkpt lat="36.349996" lon="127.195339"></trkpt>
      <trkpt lat="36.349841" lon="127.195453"></trkpt>
      <trkpt lat="36.349817" lon="127.195705"></trkpt>
      <trkpt lat="36.350307" lon="127.196806"></trkpt>
      <trkpt lat="36.351043" lon="127.197419"></trkpt>
      <trkpt lat="36.351784" lon="127.198726"></trkpt>
      <trkpt lat="36.351720" lon="127.199393"></trkpt>
      <trkpt lat="36.351280" lon="127.200836"></trkpt>
      <trkpt lat="36.351892" lon="127.200509"></trkpt>
      <trkpt lat="36.352254" lon="127.200624"></trkpt>
      <trkpt lat="36.352458" lon="127.200764"></trkpt>
      <trkpt lat="36.352411" lon="127.200964"></trkpt>
      <trkpt lat="36.352567" lon="127.200976"></trkpt>
      <trkpt lat="36.353469" lon="127.202679"></trkpt>
      <trkpt lat="36.354101" lon="127.203213"></trkpt>
      <trkpt lat="36.354352" lon="127.203277"></trkpt>
      <trkpt lat="36.354492" lon="127.203581"></trkpt>
      <trkpt lat="36.354918" lon="127.203815"></trkpt>
      <trkpt lat="36.355500" lon="127.203746"></trkpt>
      <trkpt lat="36.356502" lon="127.204103"></trkpt>
      <trkpt lat="36.356685" lon="127.204256"></trkpt>
      <trkpt lat="36.357098" lon="127.205505"></trkpt>
      <trkpt lat="36.357472" lon="127.205772"></trkpt>
      <trkpt lat="36.357826" lon="127.205771"></trkpt>
      <trkpt lat="36.358198" lon="127.206124"></trkpt>
      <trkpt lat="36.358506" lon="127.206952"></trkpt>
      <trkpt lat="36.358983" lon="127.207362"></trkpt>
      <trkpt lat="36.359455" lon="127.207404"></trkpt>
      <trkpt lat="36.359746" lon="127.207709"></trkpt>
      <trkpt lat="36.359954" lon="127.207578"></trkpt>
      <trkpt lat="36.360346" lon="127.207785"></trkpt>
      <trkpt lat="36.360525" lon="127.208082"></trkpt>
      <trkpt lat="36.360720" lon="127.208029"></trkpt>
      <trkpt lat="36.361410" lon="127.209275"></trkpt>
      <trkpt lat="36.361674" lon="127.209875"></trkpt>
      <trkpt lat="36.361469" lon="127.210325"></trkpt>
      <trkpt lat="36.361577" lon="127.210777"></trkpt>
      <trkpt lat="36.362079" lon="127.211352"></trkpt>
      <trkpt lat="36.362387" lon="127.211492"></trkpt>
      <trkpt lat="36.362525" lon="127.212211"></trkpt>
      <trkpt lat="36.362455" lon="127.212556"></trkpt>
      <trkpt lat="36.362907" lon="127.213086"></trkpt>
      <trkpt lat="36.362719" lon="127.213841"></trkpt>
      <trkpt lat="36.363044" lon="127.214351"></trkpt>
      <trkpt lat="36.362487" lon="127.214639"></trkpt>
      <trkpt lat="36.362226" lon="127.214598"></trkpt>
      <trkpt lat="36.362048" lon="127.215247"></trkpt>
      <trkpt lat="36.362223" lon="127.215999"></trkpt>
      <trkpt lat="36.362114" lon="127.216205"></trkpt>
      <trkpt lat="36.362063" lon="127.217653"></trkpt>
      <trkpt lat="36.361821" lon="127.218176"></trkpt>
      <trkpt lat="36.361541" lon="127.218352"></trkpt>
      <trkpt lat="36.361103" lon="127.218203"></trkpt>
      <trkpt lat="36.359522" lon="127.219190"></trkpt>
      <trkpt lat="36.358586" lon="127.219180"></trkpt>
      <trkpt lat="36.357287" lon="127.219925"></trkpt>
      <trkpt lat="36.355876" lon="127.220070"></trkpt>
      <trkpt lat="36.355634" lon="127.220303"></trkpt>
      <trkpt lat="36.355137" lon="127.220293"></trkpt>
      <trkpt lat="36.353115" lon="127.221408"></trkpt>
      <trkpt lat="36.352925" lon="127.222243"></trkpt>
      <trkpt lat="36.353063" lon="127.222691"></trkpt>
      <trkpt lat="36.353830" lon="127.223071"></trkpt>
      <trkpt lat="36.354376" lon="127.224107"></trkpt>
      <trkpt lat="36.354479" lon="127.224415"></trkpt>
      <trkpt lat="36.354390" lon="127.225397"></trkpt>
      <trkpt lat="36.354866" lon="127.227550"></trkpt>
      <trkpt lat="36.355401" lon="127.228687"></trkpt>
      <trkpt lat="36.355768" lon="127.229182"></trkpt>
      <trkpt lat="36.356091" lon="127.231004"></trkpt>
      <trkpt lat="36.356510" lon="127.231622"></trkpt>
      <trkpt lat="36.356879" lon="127.231889"></trkpt>
      <trkpt lat="36.357164" lon="127.232384"></trkpt>
      <trkpt lat="36.357206" lon="127.232729"></trkpt>
      <trkpt lat="36.356942" lon="127.234552"></trkpt>
      <trkpt lat="36.357884" lon="127.236932"></trkpt>
    </trkseg>
  </trk>
</gpx>
