<?xml version="1.0" encoding="UTF-8"?>
<gpx version="1.1" creator="kr-100-mountains route-harvester"
     xmlns="http://www.topografix.com/GPX/1/1"
     xmlns:k100="https://github.com/jay-jang/kr-100-mountains/ns/1"
     xmlns:xsi="http://www.w3.org/2001/XMLSchema-instance"
     xsi:schemaLocation="http://www.topografix.com/GPX/1/1 http://www.topografix.com/GPX/1/1/gpx.xsd">
  <metadata>
    <name>신원사1코스</name>
    <desc>OpenStreetMap에 등록된 도보 경로(route=hiking) 관계를 그대로 내보낸 선형입니다. 실측 GPS 기록이 아닙니다.</desc>
    <time>2026-08-04T05:29:04.906Z</time>
    <link href="https://www.openstreetmap.org/copyright"><text>© OpenStreetMap contributors (ODbL 1.0)</text></link>
    <extensions>
      <k100:provenance>osm-relation</k100:provenance>
      <k100:not_a_recorded_track>true</k100:not_a_recorded_track>
      <k100:osm_type>relation</k100:osm_type>
      <k100:osm_id>16569674</k100:osm_id>
      <k100:osm_name>신원사1코스</k100:osm_name>
      <k100:network>rwn</k100:network>
      <k100:source>OpenStreetMap via Overpass API</k100:source>
      <k100:license>ODbL-1.0</k100:license>
      <k100:attribution>© OpenStreetMap contributors</k100:attribution>
      <k100:osm_snapshot>2026-08-04</k100:osm_snapshot>
    </extensions>
  </metadata>
  <trk>
    <name>신원사1코스</name>
    <desc>OpenStreetMap에 등록된 도보 경로(route=hiking) 관계를 그대로 내보낸 선형입니다. 실측 GPS 기록이 아닙니다.</desc>
    <trkseg>
      <trkpt lat="36.334208" lon="127.184127"></trkpt>
      <trkpt lat="36.334518" lon="127.184167"></trkpt>
      <trkpt lat="36.334678" lon="127.184853"></trkpt>
      <trkpt lat="36.335218" lon="127.185634"></trkpt>
      <trkpt lat="36.335783" lon="127.185909"></trkpt>
      <trkpt lat="36.336191" lon="127.186419"></trkpt>
      <trkpt lat="36.336243" lon="127.186705"></trkpt>
      <trkpt lat="36.336079" lon="127.187051"></trkpt>
      <trkpt lat="36.336041" lon="127.187626"></trkpt>
      <trkpt lat="36.336254" lon="127.188775"></trkpt>
      <trkpt lat="36.336437" lon="127.189219"></trkpt>
      <trkpt lat="36.336996" lon="127.189549"></trkpt>
      <trkpt lat="36.337223" lon="127.189968"></trkpt>
      <trkpt lat="36.337681" lon="127.191594"></trkpt>
      <trkpt lat="36.337959" lon="127.192069"></trkpt>
      <trkpt lat="36.338414" lon="127.192471"></trkpt>
      <trkpt lat="36.338591" lon="127.193037"></trkpt>
      <trkpt lat="36.339299" lon="127.194224"></trkpt>
      <trkpt lat="36.339841" lon="127.194414"></trkpt>
      <trkpt lat="36.340122" lon="127.194628"></trkpt>
      <trkpt lat="36.340300" lon="127.194983"></trkpt>
      <trkpt lat="36.340686" lon="127.195002"></trkpt>
      <trkpt lat="36.342138" lon="127.195871"></trkpt>
      <trkpt lat="36.342322" lon="127.195754"></trkpt>
      <trkpt lat="36.342816" lon="127.195828"></trkpt>
      <trkpt lat="36.344702" lon="127.195570"></trkpt>
      <trkpt lat="36.345748" lon="127.195819"></trkpt>
      <trkpt lat="36.346483" lon="127.196190"></trkpt>
      <trkpt lat="36.346667" lon="127.195526"></trkpt>
      <trkpt lat="36.347352" lon="127.194926"></trkpt>
      <trkpt lat="36.347529" lon="127.195024"></trkpt>
      <trkpt lat="36.348121" lon="127.194900"></trkpt>
      <trkpt lat="36.348244" lon="127.195025"></trkpt>
      <trkpt lat="36.348451" lon="127.194896"></trkpt>
      <trkpt lat="36.348620" lon="127.194522"></trkpt>
      <trkpt lat="36.349250" lon="127.194133"></trkpt>
      <trkpt lat="36.350582" lon="127.193889"></trkpt>
    </trkseg>
  </trk>
</gpx>
