<?xml version="1.0" encoding="UTF-8"?>
<gpx version="1.1" creator="kr-100-mountains route-harvester"
     xmlns="http://www.topografix.com/GPX/1/1"
     xmlns:k100="https://github.com/jay-jang/kr-100-mountains/ns/1"
     xmlns:xsi="http://www.w3.org/2001/XMLSchema-instance"
     xsi:schemaLocation="http://www.topografix.com/GPX/1/1 http://www.topografix.com/GPX/1/1/gpx.xsd">
  <metadata>
    <name>성판악코스</name>
    <desc>OpenStreetMap에 등록된 도보 경로(route=hiking) 관계를 그대로 내보낸 선형입니다. 실측 GPS 기록이 아닙니다.</desc>
    <time>2026-08-04T05:49:49.294Z</time>
    <link href="https://www.openstreetmap.org/copyright"><text>© OpenStreetMap contributors (ODbL 1.0)</text></link>
    <extensions>
      <k100:provenance>osm-relation</k100:provenance>
      <k100:not_a_recorded_track>true</k100:not_a_recorded_track>
      <k100:osm_type>relation</k100:osm_type>
      <k100:osm_id>16555366</k100:osm_id>
      <k100:osm_name>성판악코스</k100:osm_name>
      <k100:network>rwn</k100:network>
      <k100:source>OpenStreetMap via Overpass API</k100:source>
      <k100:license>ODbL-1.0</k100:license>
      <k100:attribution>© OpenStreetMap contributors</k100:attribution>
      <k100:osm_snapshot>2026-08-04</k100:osm_snapshot>
    </extensions>
  </metadata>
  <trk>
    <name>성판악코스</name>
    <desc>OpenStreetMap에 등록된 도보 경로(route=hiking) 관계를 그대로 내보낸 선형입니다. 실측 GPS 기록이 아닙니다.</desc>
    <trkseg>
      <trkpt lat="33.384847" lon="126.619069"></trkpt>
      <trkpt lat="33.384727" lon="126.618435"></trkpt>
      <trkpt lat="33.384137" lon="126.617577"></trkpt>
      <trkpt lat="33.384161" lon="126.616168"></trkpt>
      <trkpt lat="33.384293" lon="126.615525"></trkpt>
      <trkpt lat="33.384020" lon="126.614910"></trkpt>
      <trkpt lat="33.384054" lon="126.614411"></trkpt>
      <trkpt lat="33.383533" lon="126.612722"></trkpt>
      <trkpt lat="33.382377" lon="126.610153"></trkpt>
      <trkpt lat="33.382599" lon="126.609181"></trkpt>
      <trkpt lat="33.382633" lon="126.608333"></trkpt>
      <trkpt lat="33.382344" lon="126.607594"></trkpt>
      <trkpt lat="33.382328" lon="126.607073"></trkpt>
      <trkpt lat="33.382890" lon="126.605672"></trkpt>
      <trkpt lat="33.382882" lon="126.605292"></trkpt>
      <trkpt lat="33.382666" lon="126.604892"></trkpt>
      <trkpt lat="33.382694" lon="126.604525"></trkpt>
      <trkpt lat="33.382487" lon="126.603546"></trkpt>
      <trkpt lat="33.382655" lon="126.603355"></trkpt>
      <trkpt lat="33.382560" lon="126.602645"></trkpt>
      <trkpt lat="33.382710" lon="126.602262"></trkpt>
      <trkpt lat="33.382745" lon="126.601043"></trkpt>
      <trkpt lat="33.382917" lon="126.600681"></trkpt>
      <trkpt lat="33.382844" lon="126.599698"></trkpt>
      <trkpt lat="33.382530" lon="126.599145"></trkpt>
      <trkpt lat="33.382428" lon="126.598552"></trkpt>
      <trkpt lat="33.381198" lon="126.596904"></trkpt>
      <trkpt lat="33.380917" lon="126.595929"></trkpt>
      <trkpt lat="33.380770" lon="126.595202"></trkpt>
      <trkpt lat="33.380843" lon="126.594495"></trkpt>
      <trkpt lat="33.380345" lon="126.593815"></trkpt>
      <trkpt lat="33.380183" lon="126.592214"></trkpt>
      <trkpt lat="33.379922" lon="126.591774"></trkpt>
      <trkpt lat="33.380000" lon="126.590290"></trkpt>
      <trkpt lat="33.379387" lon="126.588395"></trkpt>
      <trkpt lat="33.379427" lon="126.587630"></trkpt>
      <trkpt lat="33.379307" lon="126.586701"></trkpt>
      <trkpt lat="33.378658" lon="126.584809"></trkpt>
      <trkpt lat="33.378704" lon="126.584186"></trkpt>
      <trkpt lat="33.378967" lon="126.583958"></trkpt>
      <trkpt lat="33.379100" lon="126.583381"></trkpt>
      <trkpt lat="33.380037" lon="126.582397"></trkpt>
      <trkpt lat="33.380232" lon="126.581427"></trkpt>
      <trkpt lat="33.380140" lon="126.581112"></trkpt>
      <trkpt lat="33.380753" lon="126.580129"></trkpt>
      <trkpt lat="33.380679" lon="126.579090"></trkpt>
      <trkpt lat="33.380758" lon="126.578861"></trkpt>
      <trkpt lat="33.380438" lon="126.577311"></trkpt>
      <trkpt lat="33.379741" lon="126.576110"></trkpt>
      <trkpt lat="33.378686" lon="126.575754"></trkpt>
      <trkpt lat="33.378214" lon="126.575126"></trkpt>
      <trkpt lat="33.377806" lon="126.573556"></trkpt>
      <trkpt lat="33.377961" lon="126.572819"></trkpt>
      <trkpt lat="33.378273" lon="126.572180"></trkpt>
      <trkpt lat="33.378138" lon="126.571749"></trkpt>
      <trkpt lat="33.376619" lon="126.570858"></trkpt>
      <trkpt lat="33.376182" lon="126.570027"></trkpt>
      <trkpt lat="33.375577" lon="126.569514"></trkpt>
      <trkpt lat="33.374800" lon="126.569237"></trkpt>
      <trkpt lat="33.373964" lon="126.569359"></trkpt>
      <trkpt lat="33.372892" lon="126.568365"></trkpt>
      <trkpt lat="33.372761" lon="126.567930"></trkpt>
      <trkpt lat="33.372861" lon="126.566869"></trkpt>
      <trkpt lat="33.372261" lon="126.566159"></trkpt>
      <trkpt lat="33.372042" lon="126.565699"></trkpt>
      <trkpt lat="33.371325" lon="126.565088"></trkpt>
      <trkpt lat="33.371164" lon="126.564608"></trkpt>
      <trkpt lat="33.371187" lon="126.564010"></trkpt>
      <trkpt lat="33.371052" lon="126.563422"></trkpt>
      <trkpt lat="33.371134" lon="126.562688"></trkpt>
      <trkpt lat="33.370945" lon="126.562218"></trkpt>
      <trkpt lat="33.371079" lon="126.561295"></trkpt>
      <trkpt lat="33.370190" lon="126.559512"></trkpt>
      <trkpt lat="33.370017" lon="126.558552"></trkpt>
      <trkpt lat="33.370296" lon="126.557948"></trkpt>
      <trkpt lat="33.370112" lon="126.557283"></trkpt>
      <trkpt lat="33.369735" lon="126.556717"></trkpt>
      <trkpt lat="33.369458" lon="126.555442"></trkpt>
      <trkpt lat="33.369202" lon="126.554917"></trkpt>
      <trkpt lat="33.369184" lon="126.554033"></trkpt>
      <trkpt lat="33.368425" lon="126.553066"></trkpt>
      <trkpt lat="33.367815" lon="126.552720"></trkpt>
      <trkpt lat="33.366884" lon="126.550774"></trkpt>
      <trkpt lat="33.366194" lon="126.549859"></trkpt>
      <trkpt lat="33.365528" lon="126.548683"></trkpt>
      <trkpt lat="33.365521" lon="126.548444"></trkpt>
      <trkpt lat="33.365098" lon="126.547624"></trkpt>
      <trkpt lat="33.364894" lon="126.546638"></trkpt>
      <trkpt lat="33.364619" lon="126.546162"></trkpt>
      <trkpt lat="33.364597" lon="126.545767"></trkpt>
      <trkpt lat="33.364314" lon="126.545020"></trkpt>
      <trkpt lat="33.364361" lon="126.544674"></trkpt>
      <trkpt lat="33.363875" lon="126.543721"></trkpt>
      <trkpt lat="33.363753" lon="126.542807"></trkpt>
      <trkpt lat="33.363815" lon="126.542362"></trkpt>
      <trkpt lat="33.363580" lon="126.541760"></trkpt>
      <trkpt lat="33.363065" lon="126.540686"></trkpt>
      <trkpt lat="33.362861" lon="126.540590"></trkpt>
      <trkpt lat="33.362697" lon="126.540180"></trkpt>
      <trkpt lat="33.361665" lon="126.539056"></trkpt>
      <trkpt lat="33.361499" lon="126.538402"></trkpt>
      <trkpt lat="33.361046" lon="126.537875"></trkpt>
      <trkpt lat="33.360828" lon="126.536875"></trkpt>
      <trkpt lat="33.360852" lon="126.536147"></trkpt>
      <trkpt lat="33.360998" lon="126.535716"></trkpt>
    </trkseg>
  </trk>
</gpx>
