<?xml version="1.0" encoding="UTF-8"?>
<gpx version="1.1" creator="kr-100-mountains route-harvester"
     xmlns="http://www.topografix.com/GPX/1/1"
     xmlns:k100="https://github.com/jay-jang/kr-100-mountains/ns/1"
     xmlns:xsi="http://www.w3.org/2001/XMLSchema-instance"
     xsi:schemaLocation="http://www.topografix.com/GPX/1/1 http://www.topografix.com/GPX/1/1/gpx.xsd">
  <metadata>
    <name>갑사1코스</name>
    <desc>OpenStreetMap에 등록된 도보 경로(route=hiking) 관계를 그대로 내보낸 선형입니다. 실측 GPS 기록이 아닙니다.</desc>
    <time>2026-08-04T05:29:04.906Z</time>
    <link href="https://www.openstreetmap.org/copyright"><text>© OpenStreetMap contributors (ODbL 1.0)</text></link>
    <extensions>
      <k100:provenance>osm-relation</k100:provenance>
      <k100:not_a_recorded_track>true</k100:not_a_recorded_track>
      <k100:osm_type>relation</k100:osm_type>
      <k100:osm_id>16569672</k100:osm_id>
      <k100:osm_name>갑사1코스</k100:osm_name>
      <k100:network>rwn</k100:network>
      <k100:source>OpenStreetMap via Overpass API</k100:source>
      <k100:license>ODbL-1.0</k100:license>
      <k100:attribution>© OpenStreetMap contributors</k100:attribution>
      <k100:osm_snapshot>2026-08-04</k100:osm_snapshot>
    </extensions>
  </metadata>
  <trk>
    <name>갑사1코스</name>
    <desc>OpenStreetMap에 등록된 도보 경로(route=hiking) 관계를 그대로 내보낸 선형입니다. 실측 GPS 기록이 아닙니다.</desc>
    <trkseg>
      <trkpt lat="36.364691" lon="127.187703"></trkpt>
      <trkpt lat="36.364638" lon="127.188648"></trkpt>
      <trkpt lat="36.364756" lon="127.189078"></trkpt>
      <trkpt lat="36.364637" lon="127.189364"></trkpt>
      <trkpt lat="36.364398" lon="127.189532"></trkpt>
      <trkpt lat="36.364539" lon="127.190556"></trkpt>
      <trkpt lat="36.364430" lon="127.191333"></trkpt>
      <trkpt lat="36.364550" lon="127.191666"></trkpt>
      <trkpt lat="36.364557" lon="127.192654"></trkpt>
      <trkpt lat="36.364874" lon="127.192686"></trkpt>
      <trkpt lat="36.364955" lon="127.192860"></trkpt>
      <trkpt lat="36.364843" lon="127.193232"></trkpt>
      <trkpt lat="36.364820" lon="127.194282"></trkpt>
      <trkpt lat="36.364581" lon="127.194551"></trkpt>
      <trkpt lat="36.364258" lon="127.195282"></trkpt>
      <trkpt lat="36.364623" lon="127.196000"></trkpt>
      <trkpt lat="36.364626" lon="127.196479"></trkpt>
      <trkpt lat="36.364365" lon="127.196787"></trkpt>
      <trkpt lat="36.364042" lon="127.196820"></trkpt>
      <trkpt lat="36.363506" lon="127.197589"></trkpt>
      <trkpt lat="36.363168" lon="127.198281"></trkpt>
      <trkpt lat="36.363052" lon="127.198839"></trkpt>
      <trkpt lat="36.362711" lon="127.199104"></trkpt>
      <trkpt lat="36.361942" lon="127.199338"></trkpt>
      <trkpt lat="36.361664" lon="127.199942"></trkpt>
      <trkpt lat="36.361921" lon="127.200912"></trkpt>
      <trkpt lat="36.362363" lon="127.201739"></trkpt>
      <trkpt lat="36.362631" lon="127.202962"></trkpt>
      <trkpt lat="36.362898" lon="127.203329"></trkpt>
      <trkpt lat="36.362919" lon="127.204086"></trkpt>
      <trkpt lat="36.363292" lon="127.204837"></trkpt>
      <trkpt lat="36.363378" lon="127.205651"></trkpt>
      <trkpt lat="36.363640" lon="127.206115"></trkpt>
      <trkpt lat="36.363826" lon="127.207082"></trkpt>
      <trkpt lat="36.363702" lon="127.207535"></trkpt>
      <trkpt lat="36.363039" lon="127.208209"></trkpt>
      <trkpt lat="36.362666" lon="127.209138"></trkpt>
      <trkpt lat="36.362763" lon="127.209425"></trkpt>
      <trkpt lat="36.362515" lon="127.210099"></trkpt>
      <trkpt lat="36.362424" lon="127.210823"></trkpt>
      <trkpt lat="36.362498" lon="127.211082"></trkpt>
      <trkpt lat="36.362387" lon="127.211492"></trkpt>
    </trkseg>
  </trk>
</gpx>
