<?xml version="1.0" encoding="UTF-8"?>
<gpx version="1.1" creator="kr-100-mountains route-harvester"
     xmlns="http://www.topografix.com/GPX/1/1"
     xmlns:k100="https://github.com/jay-jang/kr-100-mountains/ns/1"
     xmlns:xsi="http://www.w3.org/2001/XMLSchema-instance"
     xsi:schemaLocation="http://www.topografix.com/GPX/1/1 http://www.topografix.com/GPX/1/1/gpx.xsd">
  <metadata>
    <name>hiking relation 16555583</name>
    <desc>OpenStreetMap에 등록된 도보 경로(route=hiking) 관계를 그대로 내보낸 선형입니다. 실측 GPS 기록이 아닙니다.</desc>
    <time>2026-08-04T05:19:38.096Z</time>
    <link href="https://www.openstreetmap.org/copyright"><text>© OpenStreetMap contributors (ODbL 1.0)</text></link>
    <extensions>
      <k100:provenance>osm-relation</k100:provenance>
      <k100:not_a_recorded_track>true</k100:not_a_recorded_track>
      <k100:osm_type>relation</k100:osm_type>
      <k100:osm_id>16555583</k100:osm_id>
      <k100:osm_name>hiking relation 16555583</k100:osm_name>
      <k100:network>rwn</k100:network>
      <k100:source>OpenStreetMap via Overpass API</k100:source>
      <k100:license>ODbL-1.0</k100:license>
      <k100:attribution>© OpenStreetMap contributors</k100:attribution>
      <k100:osm_snapshot>2026-08-04</k100:osm_snapshot>
    </extensions>
  </metadata>
  <trk>
    <name>hiking relation 16555583</name>
    <desc>OpenStreetMap에 등록된 도보 경로(route=hiking) 관계를 그대로 내보낸 선형입니다. 실측 GPS 기록이 아닙니다.</desc>
    <trkseg>
      <trkpt lat="38.119178" lon="128.465257"></trkpt>
      <trkpt lat="38.118720" lon="128.465788"></trkpt>
      <trkpt lat="38.118387" lon="128.465782"></trkpt>
      <trkpt lat="38.117880" lon="128.464923"></trkpt>
      <trkpt lat="38.117511" lon="128.464630"></trkpt>
      <trkpt lat="38.117403" lon="128.464260"></trkpt>
      <trkpt lat="38.117099" lon="128.464003"></trkpt>
      <trkpt lat="38.116728" lon="128.463926"></trkpt>
      <trkpt lat="38.116296" lon="128.463273"></trkpt>
      <trkpt lat="38.115648" lon="128.463050"></trkpt>
      <trkpt lat="38.114701" lon="128.462373"></trkpt>
      <trkpt lat="38.114238" lon="128.462322"></trkpt>
      <trkpt lat="38.113906" lon="128.461888"></trkpt>
      <trkpt lat="38.113378" lon="128.460619"></trkpt>
      <trkpt lat="38.112876" lon="128.460683"></trkpt>
      <trkpt lat="38.112452" lon="128.460434"></trkpt>
      <trkpt lat="38.112261" lon="128.460698"></trkpt>
      <trkpt lat="38.111533" lon="128.460822"></trkpt>
      <trkpt lat="38.111122" lon="128.460551"></trkpt>
      <trkpt lat="38.110924" lon="128.460680"></trkpt>
      <trkpt lat="38.110527" lon="128.460194"></trkpt>
      <trkpt lat="38.107821" lon="128.459969"></trkpt>
      <trkpt lat="38.106941" lon="128.460208"></trkpt>
      <trkpt lat="38.106240" lon="128.459765"></trkpt>
      <trkpt lat="38.105884" lon="128.459905"></trkpt>
      <trkpt lat="38.105804" lon="128.459777"></trkpt>
      <trkpt lat="38.105880" lon="128.459607"></trkpt>
      <trkpt lat="38.105556" lon="128.458963"></trkpt>
      <trkpt lat="38.104537" lon="128.457870"></trkpt>
      <trkpt lat="38.104234" lon="128.457111"></trkpt>
      <trkpt lat="38.103925" lon="128.456853"></trkpt>
      <trkpt lat="38.103503" lon="128.456673"></trkpt>
      <trkpt lat="38.102335" lon="128.456720"></trkpt>
      <trkpt lat="38.101906" lon="128.456491"></trkpt>
      <trkpt lat="38.101404" lon="128.456676"></trkpt>
      <trkpt lat="38.100338" lon="128.455999"></trkpt>
      <trkpt lat="38.099864" lon="128.456070"></trkpt>
      <trkpt lat="38.099526" lon="128.455782"></trkpt>
      <trkpt lat="38.099212" lon="128.455236"></trkpt>
      <trkpt lat="38.098621" lon="128.454870"></trkpt>
      <trkpt lat="38.098083" lon="128.454989"></trkpt>
      <trkpt lat="38.098115" lon="128.454750"></trkpt>
      <trkpt lat="38.097930" lon="128.454763"></trkpt>
      <trkpt lat="38.097507" lon="128.454194"></trkpt>
      <trkpt lat="38.096900" lon="128.454047"></trkpt>
      <trkpt lat="38.096882" lon="128.452958"></trkpt>
      <trkpt lat="38.096636" lon="128.452600"></trkpt>
      <trkpt lat="38.096722" lon="128.452055"></trkpt>
      <trkpt lat="38.095710" lon="128.450716"></trkpt>
      <trkpt lat="38.095204" lon="128.450416"></trkpt>
      <trkpt lat="38.094271" lon="128.450840"></trkpt>
      <trkpt lat="38.093911" lon="128.450827"></trkpt>
      <trkpt lat="38.093535" lon="128.450510"></trkpt>
      <trkpt lat="38.093350" lon="128.450587"></trkpt>
      <trkpt lat="38.092466" lon="128.450142"></trkpt>
      <trkpt lat="38.092143" lon="128.450166"></trkpt>
      <trkpt lat="38.090673" lon="128.449246"></trkpt>
      <trkpt lat="38.089624" lon="128.449231"></trkpt>
      <trkpt lat="38.088991" lon="128.448777"></trkpt>
      <trkpt lat="38.088315" lon="128.448569"></trkpt>
      <trkpt lat="38.086630" lon="128.448665"></trkpt>
      <trkpt lat="38.085996" lon="128.449002"></trkpt>
      <trkpt lat="38.085578" lon="128.448828"></trkpt>
      <trkpt lat="38.084716" lon="128.449019"></trkpt>
    </trkseg>
  </trk>
</gpx>
