<?xml version="1.0" encoding="UTF-8"?>
<gpx version="1.1" creator="kr-100-mountains route-harvester"
     xmlns="http://www.topografix.com/GPX/1/1"
     xmlns:k100="https://github.com/jay-jang/kr-100-mountains/ns/1"
     xmlns:xsi="http://www.w3.org/2001/XMLSchema-instance"
     xsi:schemaLocation="http://www.topografix.com/GPX/1/1 http://www.topografix.com/GPX/1/1/gpx.xsd">
  <metadata>
    <name>[서울둘레길] 21코스 / 북한산 도봉코스</name>
    <desc>OpenStreetMap에 등록된 도보 경로(route=hiking) 관계를 그대로 내보낸 선형입니다. 실측 GPS 기록이 아닙니다.</desc>
    <time>2026-08-04T05:14:10.842Z</time>
    <link href="https://www.openstreetmap.org/copyright"><text>© OpenStreetMap contributors (ODbL 1.0)</text></link>
    <extensions>
      <k100:provenance>osm-relation</k100:provenance>
      <k100:not_a_recorded_track>true</k100:not_a_recorded_track>
      <k100:osm_type>relation</k100:osm_type>
      <k100:osm_id>17500297</k100:osm_id>
      <k100:osm_name>[서울둘레길] 21코스 / 북한산 도봉코스</k100:osm_name>
      <k100:network>lwn</k100:network>
      <k100:source>OpenStreetMap via Overpass API</k100:source>
      <k100:license>ODbL-1.0</k100:license>
      <k100:attribution>© OpenStreetMap contributors</k100:attribution>
      <k100:osm_snapshot>2026-08-04</k100:osm_snapshot>
    </extensions>
  </metadata>
  <trk>
    <name>[서울둘레길] 21코스 / 북한산 도봉코스</name>
    <desc>OpenStreetMap에 등록된 도보 경로(route=hiking) 관계를 그대로 내보낸 선형입니다. 실측 GPS 기록이 아닙니다.</desc>
    <trkseg>
      <trkpt lat="37.663970" lon="127.011923"></trkpt>
      <trkpt lat="37.663267" lon="127.012349"></trkpt>
      <trkpt lat="37.663364" lon="127.012596"></trkpt>
      <trkpt lat="37.663162" lon="127.012952"></trkpt>
      <trkpt lat="37.663034" lon="127.013626"></trkpt>
      <trkpt lat="37.661728" lon="127.014842"></trkpt>
      <trkpt lat="37.661432" lon="127.015458"></trkpt>
      <trkpt lat="37.661383" lon="127.016131"></trkpt>
      <trkpt lat="37.661749" lon="127.016895"></trkpt>
      <trkpt lat="37.661750" lon="127.017417"></trkpt>
      <trkpt lat="37.661455" lon="127.017640"></trkpt>
      <trkpt lat="37.661473" lon="127.018303"></trkpt>
      <trkpt lat="37.661610" lon="127.018672"></trkpt>
      <trkpt lat="37.662019" lon="127.018705"></trkpt>
      <trkpt lat="37.662263" lon="127.018993"></trkpt>
      <trkpt lat="37.662355" lon="127.019672"></trkpt>
      <trkpt lat="37.662557" lon="127.020092"></trkpt>
      <trkpt lat="37.662231" lon="127.020459"></trkpt>
      <trkpt lat="37.662108" lon="127.021031"></trkpt>
      <trkpt lat="37.662156" lon="127.020826"></trkpt>
      <trkpt lat="37.661965" lon="127.021078"></trkpt>
      <trkpt lat="37.661717" lon="127.021037"></trkpt>
      <trkpt lat="37.661434" lon="127.021411"></trkpt>
      <trkpt lat="37.660912" lon="127.022585"></trkpt>
      <trkpt lat="37.661475" lon="127.023640"></trkpt>
      <trkpt lat="37.661563" lon="127.023460"></trkpt>
      <trkpt lat="37.661732" lon="127.023560"></trkpt>
      <trkpt lat="37.661586" lon="127.023962"></trkpt>
      <trkpt lat="37.662152" lon="127.024533"></trkpt>
      <trkpt lat="37.662322" lon="127.024933"></trkpt>
      <trkpt lat="37.662814" lon="127.024949"></trkpt>
      <trkpt lat="37.662682" lon="127.024978"></trkpt>
      <trkpt lat="37.663739" lon="127.025339"></trkpt>
      <trkpt lat="37.663559" lon="127.025955"></trkpt>
      <trkpt lat="37.663642" lon="127.026164"></trkpt>
      <trkpt lat="37.663851" lon="127.026183"></trkpt>
      <trkpt lat="37.663698" lon="127.026168"></trkpt>
      <trkpt lat="37.664308" lon="127.025896"></trkpt>
      <trkpt lat="37.664798" lon="127.025906"></trkpt>
      <trkpt lat="37.665915" lon="127.026225"></trkpt>
      <trkpt lat="37.666477" lon="127.025938"></trkpt>
      <trkpt lat="37.666644" lon="127.026229"></trkpt>
      <trkpt lat="37.666562" lon="127.026250"></trkpt>
      <trkpt lat="37.666857" lon="127.026284"></trkpt>
      <trkpt lat="37.666792" lon="127.026242"></trkpt>
      <trkpt lat="37.667001" lon="127.026584"></trkpt>
      <trkpt lat="37.666928" lon="127.026401"></trkpt>
      <trkpt lat="37.667482" lon="127.026773"></trkpt>
      <trkpt lat="37.668272" lon="127.028267"></trkpt>
      <trkpt lat="37.668558" lon="127.028103"></trkpt>
      <trkpt lat="37.668535" lon="127.027552"></trkpt>
      <trkpt lat="37.669363" lon="127.026875"></trkpt>
      <trkpt lat="37.670526" lon="127.026925"></trkpt>
      <trkpt lat="37.670323" lon="127.026818"></trkpt>
      <trkpt lat="37.670639" lon="127.026862"></trkpt>
      <trkpt lat="37.671010" lon="127.026381"></trkpt>
      <trkpt lat="37.671399" lon="127.026532"></trkpt>
      <trkpt lat="37.671268" lon="127.026495"></trkpt>
      <trkpt lat="37.671733" lon="127.026407"></trkpt>
      <trkpt lat="37.671626" lon="127.026547"></trkpt>
      <trkpt lat="37.672570" lon="127.025967"></trkpt>
      <trkpt lat="37.672736" lon="127.025594"></trkpt>
      <trkpt lat="37.672716" lon="127.025711"></trkpt>
      <trkpt lat="37.672983" lon="127.025622"></trkpt>
      <trkpt lat="37.672761" lon="127.025570"></trkpt>
      <trkpt lat="37.673071" lon="127.025698"></trkpt>
      <trkpt lat="37.673432" lon="127.026405"></trkpt>
      <trkpt lat="37.673301" lon="127.026657"></trkpt>
      <trkpt lat="37.673085" lon="127.028462"></trkpt>
      <trkpt lat="37.673590" lon="127.029050"></trkpt>
      <trkpt lat="37.673716" lon="127.030148"></trkpt>
      <trkpt lat="37.674656" lon="127.030462"></trkpt>
      <trkpt lat="37.674826" lon="127.030787"></trkpt>
      <trkpt lat="37.674696" lon="127.031270"></trkpt>
      <trkpt lat="37.674335" lon="127.031781"></trkpt>
      <trkpt lat="37.674313" lon="127.032141"></trkpt>
      <trkpt lat="37.673952" lon="127.032503"></trkpt>
      <trkpt lat="37.673782" lon="127.032931"></trkpt>
      <trkpt lat="37.673911" lon="127.032578"></trkpt>
      <trkpt lat="37.673876" lon="127.032942"></trkpt>
      <trkpt lat="37.675611" lon="127.032661"></trkpt>
      <trkpt lat="37.676270" lon="127.031965"></trkpt>
      <trkpt lat="37.676548" lon="127.031865"></trkpt>
      <trkpt lat="37.676480" lon="127.032117"></trkpt>
      <trkpt lat="37.676609" lon="127.032056"></trkpt>
      <trkpt lat="37.677218" lon="127.031331"></trkpt>
      <trkpt lat="37.677601" lon="127.031416"></trkpt>
      <trkpt lat="37.677830" lon="127.031165"></trkpt>
      <trkpt lat="37.678273" lon="127.030986"></trkpt>
      <trkpt lat="37.678510" lon="127.031169"></trkpt>
      <trkpt lat="37.678967" lon="127.030422"></trkpt>
      <trkpt lat="37.680425" lon="127.029516"></trkpt>
      <trkpt lat="37.681562" lon="127.029563"></trkpt>
      <trkpt lat="37.682144" lon="127.030063"></trkpt>
      <trkpt lat="37.682956" lon="127.030312"></trkpt>
      <trkpt lat="37.684511" lon="127.030210"></trkpt>
      <trkpt lat="37.684733" lon="127.029956"></trkpt>
      <trkpt lat="37.684916" lon="127.029950"></trkpt>
      <trkpt lat="37.685167" lon="127.030312"></trkpt>
      <trkpt lat="37.685087" lon="127.031021"></trkpt>
      <trkpt lat="37.685215" lon="127.032453"></trkpt>
      <trkpt lat="37.685375" lon="127.032858"></trkpt>
      <trkpt lat="37.685703" lon="127.033216"></trkpt>
      <trkpt lat="37.686036" lon="127.034081"></trkpt>
      <trkpt lat="37.686140" lon="127.035315"></trkpt>
      <trkpt lat="37.686338" lon="127.035807"></trkpt>
      <trkpt lat="37.686115" lon="127.036409"></trkpt>
      <trkpt lat="37.686658" lon="127.037644"></trkpt>
      <trkpt lat="37.686647" lon="127.038025"></trkpt>
      <trkpt lat="37.687088" lon="127.039607"></trkpt>
      <trkpt lat="37.687307" lon="127.041281"></trkpt>
      <trkpt lat="37.688074" lon="127.041117"></trkpt>
      <trkpt lat="37.688285" lon="127.044242"></trkpt>
      <trkpt lat="37.688678" lon="127.044486"></trkpt>
      <trkpt lat="37.688767" lon="127.045219"></trkpt>
      <trkpt lat="37.688873" lon="127.045312"></trkpt>
      <trkpt lat="37.688925" lon="127.045787"></trkpt>
      <trkpt lat="37.689079" lon="127.045798"></trkpt>
      <trkpt lat="37.689125" lon="127.046473"></trkpt>
      <trkpt lat="37.689472" lon="127.047354"></trkpt>
    </trkseg>
  </trk>
</gpx>
