<?xml version="1.0" encoding="UTF-8"?>
<gpx version="1.1" creator="kr-100-mountains route-harvester"
     xmlns="http://www.topografix.com/GPX/1/1"
     xmlns:k100="https://github.com/jay-jang/kr-100-mountains/ns/1"
     xmlns:xsi="http://www.w3.org/2001/XMLSchema-instance"
     xsi:schemaLocation="http://www.topografix.com/GPX/1/1 http://www.topografix.com/GPX/1/1/gpx.xsd">
  <metadata>
    <name>[서울둘레길] 11코스</name>
    <desc>OpenStreetMap에 등록된 도보 경로(route=hiking) 관계를 그대로 내보낸 선형입니다. 실측 GPS 기록이 아닙니다.</desc>
    <time>2026-08-04T05:16:27.002Z</time>
    <link href="https://www.openstreetmap.org/copyright"><text>© OpenStreetMap contributors (ODbL 1.0)</text></link>
    <extensions>
      <k100:provenance>osm-relation</k100:provenance>
      <k100:not_a_recorded_track>true</k100:not_a_recorded_track>
      <k100:osm_type>relation</k100:osm_type>
      <k100:osm_id>17538300</k100:osm_id>
      <k100:osm_name>[서울둘레길] 11코스</k100:osm_name>
      <k100:network>lwn</k100:network>
      <k100:source>OpenStreetMap via Overpass API</k100:source>
      <k100:license>ODbL-1.0</k100:license>
      <k100:attribution>© OpenStreetMap contributors</k100:attribution>
      <k100:osm_snapshot>2026-08-04</k100:osm_snapshot>
    </extensions>
  </metadata>
  <trk>
    <name>[서울둘레길] 11코스</name>
    <desc>OpenStreetMap에 등록된 도보 경로(route=hiking) 관계를 그대로 내보낸 선형입니다. 실측 GPS 기록이 아닙니다.</desc>
    <trkseg>
      <trkpt lat="37.473957" lon="126.981809"></trkpt>
      <trkpt lat="37.473236" lon="126.979352"></trkpt>
      <trkpt lat="37.472980" lon="126.978776"></trkpt>
      <trkpt lat="37.472345" lon="126.977970"></trkpt>
      <trkpt lat="37.470757" lon="126.977282"></trkpt>
      <trkpt lat="37.470317" lon="126.977432"></trkpt>
      <trkpt lat="37.469709" lon="126.978074"></trkpt>
      <trkpt lat="37.469174" lon="126.978356"></trkpt>
      <trkpt lat="37.468021" lon="126.977560"></trkpt>
      <trkpt lat="37.467427" lon="126.976963"></trkpt>
      <trkpt lat="37.467937" lon="126.976919"></trkpt>
      <trkpt lat="37.468221" lon="126.976385"></trkpt>
      <trkpt lat="37.468096" lon="126.976240"></trkpt>
      <trkpt lat="37.468297" lon="126.975468"></trkpt>
      <trkpt lat="37.468828" lon="126.975045"></trkpt>
      <trkpt lat="37.468676" lon="126.974257"></trkpt>
      <trkpt lat="37.469094" lon="126.973915"></trkpt>
      <trkpt lat="37.468896" lon="126.973062"></trkpt>
      <trkpt lat="37.468936" lon="126.972805"></trkpt>
      <trkpt lat="37.469178" lon="126.972778"></trkpt>
      <trkpt lat="37.469219" lon="126.972449"></trkpt>
      <trkpt lat="37.468883" lon="126.971896"></trkpt>
      <trkpt lat="37.469106" lon="126.971397"></trkpt>
      <trkpt lat="37.469057" lon="126.971057"></trkpt>
      <trkpt lat="37.468510" lon="126.970823"></trkpt>
      <trkpt lat="37.468433" lon="126.970368"></trkpt>
      <trkpt lat="37.468538" lon="126.970210"></trkpt>
      <trkpt lat="37.468182" lon="126.969793"></trkpt>
      <trkpt lat="37.468197" lon="126.969305"></trkpt>
      <trkpt lat="37.467718" lon="126.969193"></trkpt>
      <trkpt lat="37.467122" lon="126.969474"></trkpt>
      <trkpt lat="37.466999" lon="126.969252"></trkpt>
      <trkpt lat="37.466463" lon="126.969105"></trkpt>
      <trkpt lat="37.466484" lon="126.968660"></trkpt>
      <trkpt lat="37.466085" lon="126.968473"></trkpt>
      <trkpt lat="37.466537" lon="126.967855"></trkpt>
      <trkpt lat="37.466407" lon="126.967624"></trkpt>
      <trkpt lat="37.466503" lon="126.967210"></trkpt>
      <trkpt lat="37.465712" lon="126.966396"></trkpt>
      <trkpt lat="37.465847" lon="126.966111"></trkpt>
      <trkpt lat="37.465748" lon="126.965718"></trkpt>
      <trkpt lat="37.465840" lon="126.965173"></trkpt>
      <trkpt lat="37.465681" lon="126.965102"></trkpt>
      <trkpt lat="37.465646" lon="126.964797"></trkpt>
      <trkpt lat="37.465928" lon="126.964248"></trkpt>
      <trkpt lat="37.466372" lon="126.964468"></trkpt>
      <trkpt lat="37.467557" lon="126.964507"></trkpt>
      <trkpt lat="37.468160" lon="126.963729"></trkpt>
      <trkpt lat="37.469618" lon="126.962698"></trkpt>
      <trkpt lat="37.469439" lon="126.962401"></trkpt>
      <trkpt lat="37.469610" lon="126.960917"></trkpt>
      <trkpt lat="37.471869" lon="126.959183"></trkpt>
      <trkpt lat="37.472010" lon="126.958544"></trkpt>
      <trkpt lat="37.471865" lon="126.958078"></trkpt>
      <trkpt lat="37.472009" lon="126.957804"></trkpt>
      <trkpt lat="37.472538" lon="126.957601"></trkpt>
      <trkpt lat="37.472715" lon="126.956390"></trkpt>
      <trkpt lat="37.473023" lon="126.955299"></trkpt>
      <trkpt lat="37.473010" lon="126.954939"></trkpt>
      <trkpt lat="37.470856" lon="126.953533"></trkpt>
      <trkpt lat="37.470337" lon="126.953716"></trkpt>
      <trkpt lat="37.470031" lon="126.953629"></trkpt>
      <trkpt lat="37.470047" lon="126.952786"></trkpt>
      <trkpt lat="37.469940" lon="126.952355"></trkpt>
      <trkpt lat="37.469015" lon="126.952018"></trkpt>
      <trkpt lat="37.468569" lon="126.951689"></trkpt>
      <trkpt lat="37.466890" lon="126.949001"></trkpt>
      <trkpt lat="37.466594" lon="126.948416"></trkpt>
      <trkpt lat="37.466580" lon="126.947961"></trkpt>
      <trkpt lat="37.467092" lon="126.947655"></trkpt>
      <trkpt lat="37.467131" lon="126.947147"></trkpt>
      <trkpt lat="37.467857" lon="126.946832"></trkpt>
      <trkpt lat="37.468192" lon="126.946536"></trkpt>
      <trkpt lat="37.468269" lon="126.946294"></trkpt>
    </trkseg>
  </trk>
</gpx>
