<?xml version="1.0" encoding="UTF-8"?>
<gpx version="1.1" creator="kr-100-mountains route-harvester"
     xmlns="http://www.topografix.com/GPX/1/1"
     xmlns:k100="https://github.com/jay-jang/kr-100-mountains/ns/1"
     xmlns:xsi="http://www.w3.org/2001/XMLSchema-instance"
     xsi:schemaLocation="http://www.topografix.com/GPX/1/1 http://www.topografix.com/GPX/1/1/gpx.xsd">
  <metadata>
    <name>호남정맥</name>
    <desc>OpenStreetMap에 등록된 도보 경로(route=hiking) 관계를 그대로 내보낸 선형입니다. 실측 GPS 기록이 아닙니다.</desc>
    <time>2026-08-04T05:30:31.711Z</time>
    <link href="https://www.openstreetmap.org/copyright"><text>© OpenStreetMap contributors (ODbL 1.0)</text></link>
    <extensions>
      <k100:provenance>osm-relation</k100:provenance>
      <k100:not_a_recorded_track>true</k100:not_a_recorded_track>
      <k100:osm_type>relation</k100:osm_type>
      <k100:osm_id>18698158</k100:osm_id>
      <k100:osm_name>호남정맥</k100:osm_name>
      <k100:network>nwn</k100:network>
      <k100:source>OpenStreetMap via Overpass API</k100:source>
      <k100:license>ODbL-1.0</k100:license>
      <k100:attribution>© OpenStreetMap contributors</k100:attribution>
      <k100:osm_snapshot>2026-08-04</k100:osm_snapshot>
    </extensions>
  </metadata>
  <trk>
    <name>호남정맥</name>
    <desc>OpenStreetMap에 등록된 도보 경로(route=hiking) 관계를 그대로 내보낸 선형입니다. 실측 GPS 기록이 아닙니다.</desc>
    <trkseg>
      <trkpt lat="35.204844" lon="127.015776"></trkpt>
      <trkpt lat="35.203410" lon="127.015418"></trkpt>
      <trkpt lat="35.201635" lon="127.014085"></trkpt>
      <trkpt lat="35.201106" lon="127.013151"></trkpt>
      <trkpt lat="35.198965" lon="127.012167"></trkpt>
      <trkpt lat="35.196141" lon="127.014986"></trkpt>
      <trkpt lat="35.196184" lon="127.016836"></trkpt>
      <trkpt lat="35.193776" lon="127.018021"></trkpt>
      <trkpt lat="35.192655" lon="127.019100"></trkpt>
      <trkpt lat="35.192237" lon="127.019979"></trkpt>
      <trkpt lat="35.195173" lon="127.022933"></trkpt>
      <trkpt lat="35.195922" lon="127.025312"></trkpt>
      <trkpt lat="35.194701" lon="127.026877"></trkpt>
      <trkpt lat="35.194502" lon="127.028322"></trkpt>
      <trkpt lat="35.193241" lon="127.029694"></trkpt>
      <trkpt lat="35.192974" lon="127.032022"></trkpt>
      <trkpt lat="35.191663" lon="127.033948"></trkpt>
      <trkpt lat="35.190405" lon="127.033674"></trkpt>
      <trkpt lat="35.189359" lon="127.034865"></trkpt>
      <trkpt lat="35.188063" lon="127.035182"></trkpt>
      <trkpt lat="35.186507" lon="127.034280"></trkpt>
      <trkpt lat="35.184482" lon="127.034549"></trkpt>
      <trkpt lat="35.183083" lon="127.036327"></trkpt>
      <trkpt lat="35.182159" lon="127.036066"></trkpt>
      <trkpt lat="35.181361" lon="127.038592"></trkpt>
      <trkpt lat="35.179959" lon="127.040565"></trkpt>
      <trkpt lat="35.176175" lon="127.041512"></trkpt>
      <trkpt lat="35.174842" lon="127.042510"></trkpt>
      <trkpt lat="35.174918" lon="127.044348"></trkpt>
      <trkpt lat="35.174261" lon="127.045369"></trkpt>
      <trkpt lat="35.173375" lon="127.045607"></trkpt>
      <trkpt lat="35.172554" lon="127.045193"></trkpt>
      <trkpt lat="35.171386" lon="127.045672"></trkpt>
      <trkpt lat="35.169912" lon="127.045665"></trkpt>
      <trkpt lat="35.168861" lon="127.044824"></trkpt>
      <trkpt lat="35.167017" lon="127.045031"></trkpt>
      <trkpt lat="35.165452" lon="127.048176"></trkpt>
      <trkpt lat="35.165774" lon="127.049947"></trkpt>
      <trkpt lat="35.165304" lon="127.051331"></trkpt>
      <trkpt lat="35.163707" lon="127.052381"></trkpt>
      <trkpt lat="35.161558" lon="127.052651"></trkpt>
      <trkpt lat="35.160807" lon="127.053243"></trkpt>
      <trkpt lat="35.160053" lon="127.052723"></trkpt>
      <trkpt lat="35.158544" lon="127.052859"></trkpt>
      <trkpt lat="35.158683" lon="127.051924"></trkpt>
      <trkpt lat="35.157975" lon="127.051282"></trkpt>
      <trkpt lat="35.157944" lon="127.050437"></trkpt>
      <trkpt lat="35.156688" lon="127.050706"></trkpt>
      <trkpt lat="35.155118" lon="127.049997"></trkpt>
      <trkpt lat="35.154047" lon="127.049997"></trkpt>
      <trkpt lat="35.153317" lon="127.049042"></trkpt>
      <trkpt lat="35.151822" lon="127.051652"></trkpt>
      <trkpt lat="35.149427" lon="127.054329"></trkpt>
      <trkpt lat="35.148530" lon="127.054865"></trkpt>
      <trkpt lat="35.147992" lon="127.054624"></trkpt>
      <trkpt lat="35.147161" lon="127.052939"></trkpt>
      <trkpt lat="35.146649" lon="127.053108"></trkpt>
      <trkpt lat="35.145482" lon="127.052442"></trkpt>
      <trkpt lat="35.143852" lon="127.052287"></trkpt>
      <trkpt lat="35.143489" lon="127.051078"></trkpt>
      <trkpt lat="35.142834" lon="127.050421"></trkpt>
      <trkpt lat="35.143319" lon="127.046606"></trkpt>
      <trkpt lat="35.144279" lon="127.045365"></trkpt>
      <trkpt lat="35.143990" lon="127.042886"></trkpt>
      <trkpt lat="35.143409" lon="127.042168"></trkpt>
      <trkpt lat="35.143439" lon="127.039782"></trkpt>
      <trkpt lat="35.143012" lon="127.038005"></trkpt>
      <trkpt lat="35.141756" lon="127.036519"></trkpt>
      <trkpt lat="35.140757" lon="127.034349"></trkpt>
      <trkpt lat="35.140279" lon="127.031715"></trkpt>
      <trkpt lat="35.139315" lon="127.030942"></trkpt>
      <trkpt lat="35.140161" lon="127.028055"></trkpt>
      <trkpt lat="35.140169" lon="127.026646"></trkpt>
      <trkpt lat="35.139885" lon="127.026238"></trkpt>
      <trkpt lat="35.141091" lon="127.024281"></trkpt>
      <trkpt lat="35.139231" lon="127.020800"></trkpt>
      <trkpt lat="35.138409" lon="127.019978"></trkpt>
      <trkpt lat="35.137213" lon="127.017361"></trkpt>
      <trkpt lat="35.136173" lon="127.016000"></trkpt>
      <trkpt lat="35.133632" lon="127.014602"></trkpt>
      <trkpt lat="35.133413" lon="127.013900"></trkpt>
      <trkpt lat="35.133036" lon="127.013827"></trkpt>
      <trkpt lat="35.132573" lon="127.012631"></trkpt>
      <trkpt lat="35.132753" lon="127.010692"></trkpt>
      <trkpt lat="35.128914" lon="127.010216"></trkpt>
      <trkpt lat="35.123862" lon="127.002192"></trkpt>
      <trkpt lat="35.123558" lon="127.001371"></trkpt>
      <trkpt lat="35.124198" lon="127.001739"></trkpt>
      <trkpt lat="35.124201" lon="127.001385"></trkpt>
      <trkpt lat="35.122531" lon="126.998581"></trkpt>
      <trkpt lat="35.122832" lon="126.999343"></trkpt>
      <trkpt lat="35.122293" lon="127.000623"></trkpt>
      <trkpt lat="35.121371" lon="127.001497"></trkpt>
      <trkpt lat="35.121148" lon="127.002857"></trkpt>
      <trkpt lat="35.118408" lon="127.002597"></trkpt>
      <trkpt lat="35.117768" lon="127.002970"></trkpt>
      <trkpt lat="35.117007" lon="127.001690"></trkpt>
      <trkpt lat="35.116281" lon="126.998779"></trkpt>
      <trkpt lat="35.115153" lon="126.998169"></trkpt>
      <trkpt lat="35.114250" lon="126.998453"></trkpt>
      <trkpt lat="35.113702" lon="126.997939"></trkpt>
      <trkpt lat="35.111391" lon="126.999764"></trkpt>
      <trkpt lat="35.109531" lon="127.002132"></trkpt>
      <trkpt lat="35.109119" lon="127.003432"></trkpt>
      <trkpt lat="35.109895" lon="127.006099"></trkpt>
      <trkpt lat="35.109607" lon="127.006669"></trkpt>
      <trkpt lat="35.108371" lon="127.008102"></trkpt>
      <trkpt lat="35.107444" lon="127.008019"></trkpt>
      <trkpt lat="35.105155" lon="127.010819"></trkpt>
      <trkpt lat="35.102864" lon="127.012633"></trkpt>
      <trkpt lat="35.101036" lon="127.016359"></trkpt>
      <trkpt lat="35.100622" lon="127.019148"></trkpt>
      <trkpt lat="35.097545" lon="127.020955"></trkpt>
      <trkpt lat="35.096023" lon="127.022477"></trkpt>
      <trkpt lat="35.095415" lon="127.023264"></trkpt>
      <trkpt lat="35.095560" lon="127.023963"></trkpt>
      <trkpt lat="35.094969" lon="127.024056"></trkpt>
      <trkpt lat="35.095249" lon="127.024418"></trkpt>
      <trkpt lat="35.094631" lon="127.025093"></trkpt>
      <trkpt lat="35.094971" lon="127.025533"></trkpt>
      <trkpt lat="35.094657" lon="127.025704"></trkpt>
      <trkpt lat="35.094688" lon="127.026481"></trkpt>
      <trkpt lat="35.093120" lon="127.026261"></trkpt>
      <trkpt lat="35.091850" lon="127.025339"></trkpt>
      <trkpt lat="35.091958" lon="127.026368"></trkpt>
      <trkpt lat="35.090880" lon="127.026471"></trkpt>
      <trkpt lat="35.089222" lon="127.027777"></trkpt>
      <trkpt lat="35.086509" lon="127.029123"></trkpt>
      <trkpt lat="35.085919" lon="127.031512"></trkpt>
      <trkpt lat="35.085224" lon="127.032251"></trkpt>
      <trkpt lat="35.085636" lon="127.033404"></trkpt>
      <trkpt lat="35.085356" lon="127.034685"></trkpt>
      <trkpt lat="35.083859" lon="127.037127"></trkpt>
      <trkpt lat="35.082957" lon="127.037883"></trkpt>
      <trkpt lat="35.082492" lon="127.039271"></trkpt>
      <trkpt lat="35.081243" lon="127.039531"></trkpt>
      <trkpt lat="35.079915" lon="127.039160"></trkpt>
      <trkpt lat="35.079251" lon="127.041590"></trkpt>
      <trkpt lat="35.078579" lon="127.041879"></trkpt>
      <trkpt lat="35.077072" lon="127.043761"></trkpt>
      <trkpt lat="35.076359" lon="127.043710"></trkpt>
      <trkpt lat="35.076706" lon="127.044528"></trkpt>
      <trkpt lat="35.076327" lon="127.044785"></trkpt>
      <trkpt lat="35.076309" lon="127.045417"></trkpt>
      <trkpt lat="35.076792" lon="127.047123"></trkpt>
      <trkpt lat="35.077793" lon="127.047534"></trkpt>
      <trkpt lat="35.078449" lon="127.047006"></trkpt>
      <trkpt lat="35.080898" lon="127.047318"></trkpt>
      <trkpt lat="35.080987" lon="127.047984"></trkpt>
      <trkpt lat="35.082000" lon="127.048889"></trkpt>
      <trkpt lat="35.081956" lon="127.050987"></trkpt>
      <trkpt lat="35.083278" lon="127.050285"></trkpt>
      <trkpt lat="35.084535" lon="127.050191"></trkpt>
      <trkpt lat="35.085813" lon="127.052475"></trkpt>
      <trkpt lat="35.086656" lon="127.052577"></trkpt>
      <trkpt lat="35.087095" lon="127.054693"></trkpt>
      <trkpt lat="35.088242" lon="127.056533"></trkpt>
      <trkpt lat="35.089099" lon="127.056490"></trkpt>
      <trkpt lat="35.089959" lon="127.057060"></trkpt>
      <trkpt lat="35.090993" lon="127.058811"></trkpt>
      <trkpt lat="35.091149" lon="127.060930"></trkpt>
      <trkpt lat="35.089848" lon="127.064675"></trkpt>
      <trkpt lat="35.088352" lon="127.065565"></trkpt>
      <trkpt lat="35.084820" lon="127.069098"></trkpt>
      <trkpt lat="35.083191" lon="127.069232"></trkpt>
      <trkpt lat="35.082114" lon="127.071736"></trkpt>
      <trkpt lat="35.078948" lon="127.074250"></trkpt>
      <trkpt lat="35.076943" lon="127.074335"></trkpt>
      <trkpt lat="35.076534" lon="127.077611"></trkpt>
      <trkpt lat="35.076122" lon="127.078502"></trkpt>
      <trkpt lat="35.076354" lon="127.079903"></trkpt>
      <trkpt lat="35.074403" lon="127.081806"></trkpt>
      <trkpt lat="35.073649" lon="127.082050"></trkpt>
      <trkpt lat="35.072907" lon="127.083349"></trkpt>
      <trkpt lat="35.071117" lon="127.084294"></trkpt>
      <trkpt lat="35.070989" lon="127.084962"></trkpt>
      <trkpt lat="35.070477" lon="127.085350"></trkpt>
      <trkpt lat="35.070136" lon="127.086473"></trkpt>
      <trkpt lat="35.070458" lon="127.087997"></trkpt>
      <trkpt lat="35.069971" lon="127.089954"></trkpt>
      <trkpt lat="35.070296" lon="127.090297"></trkpt>
      <trkpt lat="35.070228" lon="127.090868"></trkpt>
      <trkpt lat="35.069708" lon="127.090977"></trkpt>
      <trkpt lat="35.069038" lon="127.093478"></trkpt>
      <trkpt lat="35.066873" lon="127.093360"></trkpt>
      <trkpt lat="35.065637" lon="127.091762"></trkpt>
      <trkpt lat="35.064251" lon="127.092115"></trkpt>
      <trkpt lat="35.063193" lon="127.093101"></trkpt>
      <trkpt lat="35.063211" lon="127.093758"></trkpt>
      <trkpt lat="35.062728" lon="127.094173"></trkpt>
      <trkpt lat="35.060596" lon="127.094685"></trkpt>
      <trkpt lat="35.059220" lon="127.094227"></trkpt>
      <trkpt lat="35.057676" lon="127.095059"></trkpt>
      <trkpt lat="35.054815" lon="127.094981"></trkpt>
      <trkpt lat="35.053970" lon="127.095571"></trkpt>
      <trkpt lat="35.053303" lon="127.097582"></trkpt>
      <trkpt lat="35.051707" lon="127.096646"></trkpt>
      <trkpt lat="35.051411" lon="127.095862"></trkpt>
      <trkpt lat="35.051070" lon="127.095807"></trkpt>
      <trkpt lat="35.050140" lon="127.096045"></trkpt>
      <trkpt lat="35.048858" lon="127.097546"></trkpt>
      <trkpt lat="35.047736" lon="127.097252"></trkpt>
      <trkpt lat="35.046966" lon="127.095625"></trkpt>
      <trkpt lat="35.045571" lon="127.094716"></trkpt>
      <trkpt lat="35.044839" lon="127.093623"></trkpt>
      <trkpt lat="35.042137" lon="127.093170"></trkpt>
      <trkpt lat="35.041763" lon="127.088117"></trkpt>
      <trkpt lat="35.040905" lon="127.086250"></trkpt>
      <trkpt lat="35.039895" lon="127.085457"></trkpt>
      <trkpt lat="35.039145" lon="127.085396"></trkpt>
      <trkpt lat="35.038585" lon="127.084570"></trkpt>
      <trkpt lat="35.035567" lon="127.083627"></trkpt>
      <trkpt lat="35.035194" lon="127.082892"></trkpt>
      <trkpt lat="35.032401" lon="127.081701"></trkpt>
      <trkpt lat="35.030595" lon="127.082537"></trkpt>
      <trkpt lat="35.029774" lon="127.083394"></trkpt>
      <trkpt lat="35.027989" lon="127.081052"></trkpt>
      <trkpt lat="35.027087" lon="127.081033"></trkpt>
      <trkpt lat="35.025121" lon="127.082303"></trkpt>
      <trkpt lat="35.023816" lon="127.082547"></trkpt>
      <trkpt lat="35.022839" lon="127.082203"></trkpt>
      <trkpt lat="35.021742" lon="127.080971"></trkpt>
      <trkpt lat="35.020269" lon="127.081005"></trkpt>
      <trkpt lat="35.018353" lon="127.079781"></trkpt>
      <trkpt lat="35.018074" lon="127.078843"></trkpt>
      <trkpt lat="35.019269" lon="127.078077"></trkpt>
      <trkpt lat="35.018527" lon="127.078424"></trkpt>
      <trkpt lat="35.017052" lon="127.078177"></trkpt>
      <trkpt lat="35.017810" lon="127.077963"></trkpt>
      <trkpt lat="35.018373" lon="127.076800"></trkpt>
      <trkpt lat="35.018025" lon="127.075380"></trkpt>
      <trkpt lat="35.018405" lon="127.073381"></trkpt>
      <trkpt lat="35.018283" lon="127.072120"></trkpt>
      <trkpt lat="35.017676" lon="127.070421"></trkpt>
      <trkpt lat="35.013468" lon="127.067273"></trkpt>
      <trkpt lat="35.012780" lon="127.065836"></trkpt>
      <trkpt lat="35.011636" lon="127.065275"></trkpt>
      <trkpt lat="35.010708" lon="127.062460"></trkpt>
      <trkpt lat="35.011071" lon="127.057658"></trkpt>
      <trkpt lat="35.008836" lon="127.056265"></trkpt>
      <trkpt lat="35.007860" lon="127.056233"></trkpt>
      <trkpt lat="35.003974" lon="127.053621"></trkpt>
      <trkpt lat="35.002130" lon="127.053233"></trkpt>
      <trkpt lat="35.000866" lon="127.051322"></trkpt>
      <trkpt lat="35.000528" lon="127.048867"></trkpt>
      <trkpt lat="34.998166" lon="127.047916"></trkpt>
      <trkpt lat="34.997717" lon="127.048881"></trkpt>
      <trkpt lat="34.996499" lon="127.048748"></trkpt>
      <trkpt lat="34.993819" lon="127.051499"></trkpt>
      <trkpt lat="34.988128" lon="127.054197"></trkpt>
      <trkpt lat="34.987299" lon="127.053675"></trkpt>
      <trkpt lat="34.986071" lon="127.053663"></trkpt>
      <trkpt lat="34.984847" lon="127.051535"></trkpt>
      <trkpt lat="34.984383" lon="127.051417"></trkpt>
      <trkpt lat="34.984491" lon="127.046305"></trkpt>
      <trkpt lat="34.980918" lon="127.041053"></trkpt>
      <trkpt lat="34.979242" lon="127.040710"></trkpt>
      <trkpt lat="34.977019" lon="127.041948"></trkpt>
      <trkpt lat="34.976001" lon="127.041170"></trkpt>
      <trkpt lat="34.974282" lon="127.041799"></trkpt>
      <trkpt lat="34.972477" lon="127.041619"></trkpt>
      <trkpt lat="34.970250" lon="127.042662"></trkpt>
      <trkpt lat="34.968229" lon="127.045091"></trkpt>
      <trkpt lat="34.967478" lon="127.045050"></trkpt>
      <trkpt lat="34.965578" lon="127.042943"></trkpt>
      <trkpt lat="34.963775" lon="127.043754"></trkpt>
      <trkpt lat="34.961539" lon="127.043070"></trkpt>
      <trkpt lat="34.958486" lon="127.041173"></trkpt>
      <trkpt lat="34.956138" lon="127.040248"></trkpt>
      <trkpt lat="34.954256" lon="127.037939"></trkpt>
      <trkpt lat="34.953677" lon="127.034928"></trkpt>
      <trkpt lat="34.951928" lon="127.034218"></trkpt>
      <trkpt lat="34.949907" lon="127.032204"></trkpt>
      <trkpt lat="34.949259" lon="127.029848"></trkpt>
      <trkpt lat="34.949697" lon="127.026462"></trkpt>
      <trkpt lat="34.949316" lon="127.025932"></trkpt>
      <trkpt lat="34.946896" lon="127.024530"></trkpt>
      <trkpt lat="34.945027" lon="127.024849"></trkpt>
      <trkpt lat="34.943123" lon="127.028083"></trkpt>
      <trkpt lat="34.941796" lon="127.028480"></trkpt>
      <trkpt lat="34.940833" lon="127.031046"></trkpt>
      <trkpt lat="34.937988" lon="127.035994"></trkpt>
      <trkpt lat="34.937524" lon="127.038507"></trkpt>
      <trkpt lat="34.938653" lon="127.041252"></trkpt>
      <trkpt lat="34.937790" lon="127.043952"></trkpt>
      <trkpt lat="34.934924" lon="127.048657"></trkpt>
      <trkpt lat="34.934769" lon="127.051083"></trkpt>
      <trkpt lat="34.932887" lon="127.053888"></trkpt>
      <trkpt lat="34.931867" lon="127.054465"></trkpt>
      <trkpt lat="34.930987" lon="127.056040"></trkpt>
      <trkpt lat="34.931105" lon="127.057638"></trkpt>
      <trkpt lat="34.929959" lon="127.060453"></trkpt>
      <trkpt lat="34.929629" lon="127.063754"></trkpt>
      <trkpt lat="34.927760" lon="127.068421"></trkpt>
      <trkpt lat="34.927247" lon="127.068955"></trkpt>
      <trkpt lat="34.927596" lon="127.070010"></trkpt>
      <trkpt lat="34.927816" lon="127.074961"></trkpt>
      <trkpt lat="34.927394" lon="127.076297"></trkpt>
      <trkpt lat="34.927593" lon="127.077909"></trkpt>
      <trkpt lat="34.927289" lon="127.079376"></trkpt>
      <trkpt lat="34.926503" lon="127.080844"></trkpt>
      <trkpt lat="34.924990" lon="127.080880"></trkpt>
      <trkpt lat="34.922911" lon="127.080263"></trkpt>
      <trkpt lat="34.919631" lon="127.080590"></trkpt>
      <trkpt lat="34.917895" lon="127.079616"></trkpt>
      <trkpt lat="34.916797" lon="127.079822"></trkpt>
      <trkpt lat="34.915059" lon="127.078802"></trkpt>
      <trkpt lat="34.914392" lon="127.079311"></trkpt>
      <trkpt lat="34.913838" lon="127.080542"></trkpt>
      <trkpt lat="34.912771" lon="127.080495"></trkpt>
      <trkpt lat="34.912181" lon="127.080989"></trkpt>
      <trkpt lat="34.911079" lon="127.080742"></trkpt>
      <trkpt lat="34.909829" lon="127.081683"></trkpt>
      <trkpt lat="34.906264" lon="127.079979"></trkpt>
      <trkpt lat="34.904315" lon="127.080067"></trkpt>
      <trkpt lat="34.903217" lon="127.078884"></trkpt>
      <trkpt lat="34.903481" lon="127.079644"></trkpt>
      <trkpt lat="34.902919" lon="127.079149"></trkpt>
      <trkpt lat="34.902727" lon="127.079455"></trkpt>
      <trkpt lat="34.902769" lon="127.080056"></trkpt>
      <trkpt lat="34.903290" lon="127.080458"></trkpt>
      <trkpt lat="34.902857" lon="127.081569"></trkpt>
      <trkpt lat="34.900801" lon="127.082428"></trkpt>
      <trkpt lat="34.899693" lon="127.083448"></trkpt>
      <trkpt lat="34.899043" lon="127.083430"></trkpt>
      <trkpt lat="34.898607" lon="127.084393"></trkpt>
      <trkpt lat="34.897362" lon="127.085184"></trkpt>
      <trkpt lat="34.896188" lon="127.085540"></trkpt>
      <trkpt lat="34.894339" lon="127.085178"></trkpt>
      <trkpt lat="34.893080" lon="127.083561"></trkpt>
      <trkpt lat="34.892533" lon="127.081952"></trkpt>
      <trkpt lat="34.891312" lon="127.082006"></trkpt>
      <trkpt lat="34.889980" lon="127.082350"></trkpt>
      <trkpt lat="34.888854" lon="127.084193"></trkpt>
      <trkpt lat="34.887292" lon="127.085412"></trkpt>
      <trkpt lat="34.886745" lon="127.086978"></trkpt>
      <trkpt lat="34.886182" lon="127.086979"></trkpt>
      <trkpt lat="34.885452" lon="127.088803"></trkpt>
      <trkpt lat="34.884370" lon="127.087100"></trkpt>
      <trkpt lat="34.883036" lon="127.085898"></trkpt>
      <trkpt lat="34.880824" lon="127.087780"></trkpt>
      <trkpt lat="34.877973" lon="127.087834"></trkpt>
      <trkpt lat="34.877312" lon="127.087448"></trkpt>
      <trkpt lat="34.875940" lon="127.088528"></trkpt>
      <trkpt lat="34.873557" lon="127.089184"></trkpt>
      <trkpt lat="34.872302" lon="127.088294"></trkpt>
      <trkpt lat="34.871796" lon="127.086599"></trkpt>
      <trkpt lat="34.870618" lon="127.084876"></trkpt>
      <trkpt lat="34.869355" lon="127.084388"></trkpt>
      <trkpt lat="34.868903" lon="127.082198"></trkpt>
      <trkpt lat="34.869368" lon="127.080382"></trkpt>
      <trkpt lat="34.868226" lon="127.078068"></trkpt>
      <trkpt lat="34.868111" lon="127.077101"></trkpt>
      <trkpt lat="34.866833" lon="127.075563"></trkpt>
      <trkpt lat="34.867213" lon="127.073515"></trkpt>
      <trkpt lat="34.866888" lon="127.071624"></trkpt>
      <trkpt lat="34.865661" lon="127.069358"></trkpt>
      <trkpt lat="34.864085" lon="127.068563"></trkpt>
      <trkpt lat="34.863546" lon="127.066658"></trkpt>
      <trkpt lat="34.863636" lon="127.065763"></trkpt>
      <trkpt lat="34.862404" lon="127.064890"></trkpt>
      <trkpt lat="34.861068" lon="127.062979"></trkpt>
      <trkpt lat="34.860624" lon="127.063230"></trkpt>
      <trkpt lat="34.859258" lon="127.062492"></trkpt>
      <trkpt lat="34.857501" lon="127.062176"></trkpt>
      <trkpt lat="34.854030" lon="127.062831"></trkpt>
      <trkpt lat="34.852333" lon="127.062631"></trkpt>
      <trkpt lat="34.851192" lon="127.062028"></trkpt>
      <trkpt lat="34.849914" lon="127.062286"></trkpt>
      <trkpt lat="34.847347" lon="127.061160"></trkpt>
      <trkpt lat="34.846690" lon="127.055417"></trkpt>
      <trkpt lat="34.845541" lon="127.054559"></trkpt>
      <trkpt lat="34.843079" lon="127.054393"></trkpt>
      <trkpt lat="34.842487" lon="127.053970"></trkpt>
      <trkpt lat="34.840934" lon="127.050241"></trkpt>
      <trkpt lat="34.840726" lon="127.048524"></trkpt>
      <trkpt lat="34.840108" lon="127.047728"></trkpt>
      <trkpt lat="34.839989" lon="127.045993"></trkpt>
      <trkpt lat="34.838938" lon="127.045176"></trkpt>
      <trkpt lat="34.838384" lon="127.043541"></trkpt>
      <trkpt lat="34.838219" lon="127.040512"></trkpt>
      <trkpt lat="34.837607" lon="127.039127"></trkpt>
      <trkpt lat="34.837706" lon="127.037997"></trkpt>
      <trkpt lat="34.838535" lon="127.036683"></trkpt>
      <trkpt lat="34.839115" lon="127.036563"></trkpt>
      <trkpt lat="34.839228" lon="127.034419"></trkpt>
      <trkpt lat="34.839808" lon="127.032667"></trkpt>
      <trkpt lat="34.839500" lon="127.029667"></trkpt>
      <trkpt lat="34.838823" lon="127.028069"></trkpt>
      <trkpt lat="34.839722" lon="127.025343"></trkpt>
      <trkpt lat="34.839371" lon="127.023507"></trkpt>
      <trkpt lat="34.839886" lon="127.022033"></trkpt>
      <trkpt lat="34.839572" lon="127.020156"></trkpt>
      <trkpt lat="34.840663" lon="127.017617"></trkpt>
      <trkpt lat="34.840423" lon="127.015421"></trkpt>
      <trkpt lat="34.839184" lon="127.013292"></trkpt>
      <trkpt lat="34.841205" lon="127.009861"></trkpt>
      <trkpt lat="34.840831" lon="127.008499"></trkpt>
      <trkpt lat="34.841161" lon="127.007823"></trkpt>
      <trkpt lat="34.839912" lon="127.006527"></trkpt>
      <trkpt lat="34.839464" lon="127.005047"></trkpt>
      <trkpt lat="34.839743" lon="127.004157"></trkpt>
      <trkpt lat="34.838845" lon="127.002827"></trkpt>
      <trkpt lat="34.839718" lon="127.000399"></trkpt>
      <trkpt lat="34.838382" lon="126.999589"></trkpt>
      <trkpt lat="34.838434" lon="126.998702"></trkpt>
      <trkpt lat="34.837946" lon="126.997736"></trkpt>
      <trkpt lat="34.837062" lon="126.997747"></trkpt>
      <trkpt lat="34.835884" lon="126.996905"></trkpt>
      <trkpt lat="34.835780" lon="126.996078"></trkpt>
      <trkpt lat="34.836115" lon="126.995361"></trkpt>
      <trkpt lat="34.835874" lon="126.993793"></trkpt>
      <trkpt lat="34.836177" lon="126.993209"></trkpt>
      <trkpt lat="34.835610" lon="126.991878"></trkpt>
      <trkpt lat="34.837980" lon="126.989627"></trkpt>
      <trkpt lat="34.839081" lon="126.989195"></trkpt>
      <trkpt lat="34.840767" lon="126.986807"></trkpt>
      <trkpt lat="34.842503" lon="126.986111"></trkpt>
      <trkpt lat="34.842876" lon="126.984439"></trkpt>
      <trkpt lat="34.843921" lon="126.983038"></trkpt>
      <trkpt lat="34.844000" lon="126.981068"></trkpt>
      <trkpt lat="34.846328" lon="126.980057"></trkpt>
      <trkpt lat="34.848029" lon="126.980344"></trkpt>
      <trkpt lat="34.849266" lon="126.979179"></trkpt>
      <trkpt lat="34.850313" lon="126.979344"></trkpt>
      <trkpt lat="34.850637" lon="126.978504"></trkpt>
      <trkpt lat="34.850383" lon="126.978217"></trkpt>
      <trkpt lat="34.850541" lon="126.977135"></trkpt>
      <trkpt lat="34.849784" lon="126.975606"></trkpt>
      <trkpt lat="34.850148" lon="126.973635"></trkpt>
      <trkpt lat="34.849628" lon="126.972783"></trkpt>
      <trkpt lat="34.850368" lon="126.971750"></trkpt>
      <trkpt lat="34.850129" lon="126.970479"></trkpt>
      <trkpt lat="34.850551" lon="126.969781"></trkpt>
      <trkpt lat="34.849308" lon="126.968523"></trkpt>
      <trkpt lat="34.848761" lon="126.970027"></trkpt>
      <trkpt lat="34.847271" lon="126.970369"></trkpt>
      <trkpt lat="34.846748" lon="126.968015"></trkpt>
      <trkpt lat="34.845209" lon="126.965876"></trkpt>
      <trkpt lat="34.844134" lon="126.965977"></trkpt>
      <trkpt lat="34.843191" lon="126.964780"></trkpt>
      <trkpt lat="34.842376" lon="126.965110"></trkpt>
      <trkpt lat="34.840705" lon="126.964288"></trkpt>
      <trkpt lat="34.840631" lon="126.963511"></trkpt>
      <trkpt lat="34.841444" lon="126.960733"></trkpt>
      <trkpt lat="34.841094" lon="126.959352"></trkpt>
      <trkpt lat="34.841416" lon="126.959074"></trkpt>
      <trkpt lat="34.841251" lon="126.958386"></trkpt>
      <trkpt lat="34.840412" lon="126.957882"></trkpt>
      <trkpt lat="34.840827" lon="126.954937"></trkpt>
      <trkpt lat="34.840080" lon="126.951397"></trkpt>
      <trkpt lat="34.840937" lon="126.950327"></trkpt>
      <trkpt lat="34.841332" lon="126.949098"></trkpt>
      <trkpt lat="34.839369" lon="126.949067"></trkpt>
      <trkpt lat="34.836461" lon="126.947726"></trkpt>
      <trkpt lat="34.835534" lon="126.948495"></trkpt>
      <trkpt lat="34.834059" lon="126.947110"></trkpt>
      <trkpt lat="34.833041" lon="126.948363"></trkpt>
      <trkpt lat="34.830716" lon="126.948553"></trkpt>
      <trkpt lat="34.830462" lon="126.949193"></trkpt>
      <trkpt lat="34.829313" lon="126.949944"></trkpt>
      <trkpt lat="34.828543" lon="126.949368"></trkpt>
      <trkpt lat="34.825614" lon="126.945353"></trkpt>
      <trkpt lat="34.824595" lon="126.944649"></trkpt>
      <trkpt lat="34.825074" lon="126.943127"></trkpt>
      <trkpt lat="34.824307" lon="126.941327"></trkpt>
      <trkpt lat="34.824387" lon="126.940644"></trkpt>
      <trkpt lat="34.825550" lon="126.939588"></trkpt>
      <trkpt lat="34.827305" lon="126.939733"></trkpt>
      <trkpt lat="34.829181" lon="126.938132"></trkpt>
      <trkpt lat="34.828158" lon="126.936116"></trkpt>
      <trkpt lat="34.828846" lon="126.935268"></trkpt>
      <trkpt lat="34.828411" lon="126.934350"></trkpt>
      <trkpt lat="34.828570" lon="126.933272"></trkpt>
      <trkpt lat="34.829690" lon="126.933687"></trkpt>
      <trkpt lat="34.830781" lon="126.932768"></trkpt>
      <trkpt lat="34.830507" lon="126.931720"></trkpt>
      <trkpt lat="34.829801" lon="126.930989"></trkpt>
      <trkpt lat="34.830161" lon="126.929523"></trkpt>
      <trkpt lat="34.829966" lon="126.928716"></trkpt>
      <trkpt lat="34.831371" lon="126.928371"></trkpt>
      <trkpt lat="34.831927" lon="126.927800"></trkpt>
      <trkpt lat="34.832145" lon="126.926197"></trkpt>
      <trkpt lat="34.834325" lon="126.925076"></trkpt>
      <trkpt lat="34.835051" lon="126.924052"></trkpt>
      <trkpt lat="34.835920" lon="126.923633"></trkpt>
      <trkpt lat="34.836346" lon="126.922280"></trkpt>
      <trkpt lat="34.835708" lon="126.921840"></trkpt>
      <trkpt lat="34.835614" lon="126.921244"></trkpt>
      <trkpt lat="34.836848" lon="126.920888"></trkpt>
      <trkpt lat="34.838474" lon="126.922184"></trkpt>
      <trkpt lat="34.838856" lon="126.923225"></trkpt>
      <trkpt lat="34.840862" lon="126.923438"></trkpt>
      <trkpt lat="34.841753" lon="126.922918"></trkpt>
      <trkpt lat="34.842679" lon="126.923133"></trkpt>
      <trkpt lat="34.843627" lon="126.921545"></trkpt>
      <trkpt lat="34.845278" lon="126.921049"></trkpt>
      <trkpt lat="34.845454" lon="126.920613"></trkpt>
      <trkpt lat="34.844878" lon="126.918353"></trkpt>
      <trkpt lat="34.845814" lon="126.915659"></trkpt>
      <trkpt lat="34.845636" lon="126.912627"></trkpt>
      <trkpt lat="34.846168" lon="126.911477"></trkpt>
      <trkpt lat="34.845854" lon="126.909737"></trkpt>
      <trkpt lat="34.846494" lon="126.908532"></trkpt>
      <trkpt lat="34.846448" lon="126.905713"></trkpt>
      <trkpt lat="34.845608" lon="126.904656"></trkpt>
      <trkpt lat="34.843678" lon="126.903739"></trkpt>
      <trkpt lat="34.842693" lon="126.900261"></trkpt>
      <trkpt lat="34.842821" lon="126.898632"></trkpt>
      <trkpt lat="34.840530" lon="126.896271"></trkpt>
      <trkpt lat="34.837587" lon="126.896713"></trkpt>
      <trkpt lat="34.834286" lon="126.894902"></trkpt>
      <trkpt lat="34.832555" lon="126.894506"></trkpt>
      <trkpt lat="34.831458" lon="126.895070"></trkpt>
      <trkpt lat="34.830853" lon="126.896727"></trkpt>
      <trkpt lat="34.826974" lon="126.899277"></trkpt>
      <trkpt lat="34.824301" lon="126.900059"></trkpt>
      <trkpt lat="34.823325" lon="126.901240"></trkpt>
      <trkpt lat="34.821239" lon="126.901649"></trkpt>
      <trkpt lat="34.820299" lon="126.902514"></trkpt>
      <trkpt lat="34.818428" lon="126.902533"></trkpt>
      <trkpt lat="34.816892" lon="126.903381"></trkpt>
      <trkpt lat="34.817132" lon="126.905366"></trkpt>
      <trkpt lat="34.816557" lon="126.906449"></trkpt>
      <trkpt lat="34.816692" lon="126.907357"></trkpt>
      <trkpt lat="34.814712" lon="126.909613"></trkpt>
      <trkpt lat="34.812460" lon="126.910101"></trkpt>
      <trkpt lat="34.810524" lon="126.909758"></trkpt>
      <trkpt lat="34.809526" lon="126.908847"></trkpt>
      <trkpt lat="34.808507" lon="126.908875"></trkpt>
      <trkpt lat="34.807457" lon="126.911987"></trkpt>
      <trkpt lat="34.806088" lon="126.913615"></trkpt>
      <trkpt lat="34.804252" lon="126.914716"></trkpt>
      <trkpt lat="34.803041" lon="126.916647"></trkpt>
      <trkpt lat="34.801246" lon="126.916826"></trkpt>
      <trkpt lat="34.800576" lon="126.916466"></trkpt>
      <trkpt lat="34.800397" lon="126.917181"></trkpt>
      <trkpt lat="34.799276" lon="126.917011"></trkpt>
      <trkpt lat="34.798810" lon="126.916511"></trkpt>
      <trkpt lat="34.797041" lon="126.916892"></trkpt>
      <trkpt lat="34.796856" lon="126.917933"></trkpt>
      <trkpt lat="34.796094" lon="126.918043"></trkpt>
      <trkpt lat="34.795043" lon="126.917095"></trkpt>
      <trkpt lat="34.793184" lon="126.918860"></trkpt>
      <trkpt lat="34.791631" lon="126.917706"></trkpt>
      <trkpt lat="34.790468" lon="126.917358"></trkpt>
      <trkpt lat="34.789917" lon="126.916597"></trkpt>
      <trkpt lat="34.788685" lon="126.916860"></trkpt>
      <trkpt lat="34.788027" lon="126.917599"></trkpt>
      <trkpt lat="34.785943" lon="126.916959"></trkpt>
      <trkpt lat="34.784694" lon="126.917123"></trkpt>
      <trkpt lat="34.783893" lon="126.915974"></trkpt>
      <trkpt lat="34.782687" lon="126.915332"></trkpt>
      <trkpt lat="34.780571" lon="126.916888"></trkpt>
      <trkpt lat="34.779390" lon="126.919001"></trkpt>
      <trkpt lat="34.776686" lon="126.921224"></trkpt>
      <trkpt lat="34.775779" lon="126.921279"></trkpt>
      <trkpt lat="34.773704" lon="126.919842"></trkpt>
      <trkpt lat="34.769257" lon="126.922001"></trkpt>
      <trkpt lat="34.768848" lon="126.926129"></trkpt>
      <trkpt lat="34.768012" lon="126.927635"></trkpt>
      <trkpt lat="34.767076" lon="126.928398"></trkpt>
      <trkpt lat="34.766544" lon="126.930534"></trkpt>
      <trkpt lat="34.767180" lon="126.931143"></trkpt>
      <trkpt lat="34.767854" lon="126.932720"></trkpt>
      <trkpt lat="34.768147" lon="126.934010"></trkpt>
      <trkpt lat="34.767959" lon="126.934534"></trkpt>
      <trkpt lat="34.765469" lon="126.934917"></trkpt>
      <trkpt lat="34.764249" lon="126.937225"></trkpt>
      <trkpt lat="34.763136" lon="126.937329"></trkpt>
      <trkpt lat="34.762015" lon="126.936892"></trkpt>
      <trkpt lat="34.761451" lon="126.936210"></trkpt>
      <trkpt lat="34.759188" lon="126.937653"></trkpt>
      <trkpt lat="34.758242" lon="126.938959"></trkpt>
      <trkpt lat="34.756740" lon="126.938792"></trkpt>
      <trkpt lat="34.755823" lon="126.939141"></trkpt>
      <trkpt lat="34.755018" lon="126.938300"></trkpt>
      <trkpt lat="34.754251" lon="126.938927"></trkpt>
      <trkpt lat="34.754090" lon="126.940233"></trkpt>
      <trkpt lat="34.752631" lon="126.941885"></trkpt>
      <trkpt lat="34.751753" lon="126.944535"></trkpt>
      <trkpt lat="34.749784" lon="126.945081"></trkpt>
      <trkpt lat="34.750200" lon="126.945641"></trkpt>
      <trkpt lat="34.750079" lon="126.946690"></trkpt>
      <trkpt lat="34.750549" lon="126.947474"></trkpt>
      <trkpt lat="34.750490" lon="126.948837"></trkpt>
      <trkpt lat="34.750172" lon="126.950336"></trkpt>
      <trkpt lat="34.749303" lon="126.951548"></trkpt>
      <trkpt lat="34.748888" lon="126.953577"></trkpt>
      <trkpt lat="34.748075" lon="126.954030"></trkpt>
      <trkpt lat="34.747345" lon="126.955342"></trkpt>
      <trkpt lat="34.747473" lon="126.955940"></trkpt>
      <trkpt lat="34.746589" lon="126.958476"></trkpt>
      <trkpt lat="34.746350" lon="126.961513"></trkpt>
      <trkpt lat="34.746735" lon="126.962749"></trkpt>
      <trkpt lat="34.746363" lon="126.964491"></trkpt>
      <trkpt lat="34.748103" lon="126.966282"></trkpt>
      <trkpt lat="34.748599" lon="126.969248"></trkpt>
      <trkpt lat="34.749503" lon="126.969987"></trkpt>
      <trkpt lat="34.749757" lon="126.973357"></trkpt>
      <trkpt lat="34.746842" lon="126.974952"></trkpt>
      <trkpt lat="34.745883" lon="126.974978"></trkpt>
      <trkpt lat="34.744977" lon="126.975751"></trkpt>
      <trkpt lat="34.741015" lon="126.976191"></trkpt>
      <trkpt lat="34.739810" lon="126.979115"></trkpt>
      <trkpt lat="34.740460" lon="126.981788"></trkpt>
      <trkpt lat="34.740238" lon="126.984900"></trkpt>
      <trkpt lat="34.739662" lon="126.985095"></trkpt>
      <trkpt lat="34.739505" lon="126.985955"></trkpt>
      <trkpt lat="34.738361" lon="126.986763"></trkpt>
      <trkpt lat="34.738270" lon="126.988479"></trkpt>
      <trkpt lat="34.736984" lon="126.988387"></trkpt>
      <trkpt lat="34.736454" lon="126.989167"></trkpt>
      <trkpt lat="34.732686" lon="126.989922"></trkpt>
      <trkpt lat="34.728435" lon="126.988602"></trkpt>
      <trkpt lat="34.726943" lon="126.989001"></trkpt>
      <trkpt lat="34.724149" lon="126.987945"></trkpt>
      <trkpt lat="34.722918" lon="126.987999"></trkpt>
      <trkpt lat="34.721535" lon="126.988732"></trkpt>
      <trkpt lat="34.717968" lon="126.988327"></trkpt>
      <trkpt lat="34.714867" lon="126.985958"></trkpt>
      <trkpt lat="34.711425" lon="126.984114"></trkpt>
      <trkpt lat="34.710825" lon="126.982625"></trkpt>
      <trkpt lat="34.709892" lon="126.981850"></trkpt>
      <trkpt lat="34.709367" lon="126.980569"></trkpt>
      <trkpt lat="34.709325" lon="126.977567"></trkpt>
      <trkpt lat="34.709708" lon="126.977210"></trkpt>
      <trkpt lat="34.709746" lon="126.975371"></trkpt>
      <trkpt lat="34.708375" lon="126.972979"></trkpt>
      <trkpt lat="34.706141" lon="126.972023"></trkpt>
      <trkpt lat="34.705370" lon="126.972275"></trkpt>
      <trkpt lat="34.703142" lon="126.974558"></trkpt>
      <trkpt lat="34.701086" lon="126.974935"></trkpt>
      <trkpt lat="34.699971" lon="126.975668"></trkpt>
      <trkpt lat="34.698002" lon="126.974819"></trkpt>
      <trkpt lat="34.696688" lon="126.975029"></trkpt>
      <trkpt lat="34.695469" lon="126.976752"></trkpt>
      <trkpt lat="34.694906" lon="126.978776"></trkpt>
      <trkpt lat="34.693148" lon="126.978975"></trkpt>
      <trkpt lat="34.691729" lon="126.979655"></trkpt>
      <trkpt lat="34.690613" lon="126.981487"></trkpt>
      <trkpt lat="34.688086" lon="126.981878"></trkpt>
      <trkpt lat="34.687448" lon="126.981170"></trkpt>
      <trkpt lat="34.685619" lon="126.980597"></trkpt>
      <trkpt lat="34.684632" lon="126.979556"></trkpt>
      <trkpt lat="34.683348" lon="126.979957"></trkpt>
      <trkpt lat="34.682833" lon="126.981787"></trkpt>
      <trkpt lat="34.682425" lon="126.981929"></trkpt>
      <trkpt lat="34.682985" lon="126.984586"></trkpt>
      <trkpt lat="34.682637" lon="126.986085"></trkpt>
      <trkpt lat="34.682756" lon="126.987647"></trkpt>
      <trkpt lat="34.682399" lon="126.988422"></trkpt>
      <trkpt lat="34.683368" lon="126.989048"></trkpt>
      <trkpt lat="34.683428" lon="126.990545"></trkpt>
      <trkpt lat="34.682460" lon="126.993952"></trkpt>
      <trkpt lat="34.682380" lon="126.996779"></trkpt>
      <trkpt lat="34.681678" lon="126.998432"></trkpt>
      <trkpt lat="34.681628" lon="126.999693"></trkpt>
      <trkpt lat="34.680298" lon="127.001286"></trkpt>
      <trkpt lat="34.680577" lon="127.001736"></trkpt>
      <trkpt lat="34.680637" lon="127.004170"></trkpt>
      <trkpt lat="34.681311" lon="127.005904"></trkpt>
      <trkpt lat="34.681179" lon="127.007465"></trkpt>
      <trkpt lat="34.681855" lon="127.009286"></trkpt>
      <trkpt lat="34.681226" lon="127.010949"></trkpt>
      <trkpt lat="34.682141" lon="127.014055"></trkpt>
      <trkpt lat="34.682286" lon="127.017503"></trkpt>
      <trkpt lat="34.681275" lon="127.019772"></trkpt>
      <trkpt lat="34.679529" lon="127.020684"></trkpt>
      <trkpt lat="34.677888" lon="127.022653"></trkpt>
      <trkpt lat="34.676755" lon="127.022017"></trkpt>
      <trkpt lat="34.676310" lon="127.024557"></trkpt>
      <trkpt lat="34.676676" lon="127.025136"></trkpt>
      <trkpt lat="34.679465" lon="127.026874"></trkpt>
      <trkpt lat="34.679797" lon="127.028822"></trkpt>
      <trkpt lat="34.680503" lon="127.030237"></trkpt>
      <trkpt lat="34.683242" lon="127.031829"></trkpt>
      <trkpt lat="34.684864" lon="127.032243"></trkpt>
      <trkpt lat="34.685418" lon="127.037249"></trkpt>
      <trkpt lat="34.687036" lon="127.040702"></trkpt>
      <trkpt lat="34.687412" lon="127.042823"></trkpt>
      <trkpt lat="34.689399" lon="127.046174"></trkpt>
      <trkpt lat="34.692886" lon="127.049110"></trkpt>
      <trkpt lat="34.693072" lon="127.050083"></trkpt>
      <trkpt lat="34.693684" lon="127.050890"></trkpt>
      <trkpt lat="34.693545" lon="127.052124"></trkpt>
      <trkpt lat="34.694252" lon="127.053625"></trkpt>
      <trkpt lat="34.694234" lon="127.055040"></trkpt>
      <trkpt lat="34.695039" lon="127.055635"></trkpt>
      <trkpt lat="34.696616" lon="127.059689"></trkpt>
      <trkpt lat="34.697256" lon="127.058025"></trkpt>
      <trkpt lat="34.698957" lon="127.056498"></trkpt>
      <trkpt lat="34.698400" lon="127.054440"></trkpt>
      <trkpt lat="34.699478" lon="127.053317"></trkpt>
      <trkpt lat="34.705061" lon="127.053692"></trkpt>
      <trkpt lat="34.706265" lon="127.052248"></trkpt>
      <trkpt lat="34.707602" lon="127.054524"></trkpt>
      <trkpt lat="34.709242" lon="127.054091"></trkpt>
      <trkpt lat="34.710264" lon="127.054971"></trkpt>
      <trkpt lat="34.711019" lon="127.056824"></trkpt>
      <trkpt lat="34.710842" lon="127.057885"></trkpt>
      <trkpt lat="34.711558" lon="127.059763"></trkpt>
      <trkpt lat="34.711632" lon="127.061328"></trkpt>
      <trkpt lat="34.713107" lon="127.063346"></trkpt>
      <trkpt lat="34.713122" lon="127.064784"></trkpt>
      <trkpt lat="34.715358" lon="127.069274"></trkpt>
      <trkpt lat="34.714591" lon="127.070020"></trkpt>
      <trkpt lat="34.714473" lon="127.071139"></trkpt>
      <trkpt lat="34.714013" lon="127.071051"></trkpt>
      <trkpt lat="34.713563" lon="127.071955"></trkpt>
      <trkpt lat="34.712502" lon="127.072046"></trkpt>
      <trkpt lat="34.712304" lon="127.072788"></trkpt>
      <trkpt lat="34.712387" lon="127.076343"></trkpt>
      <trkpt lat="34.712000" lon="127.077231"></trkpt>
      <trkpt lat="34.712289" lon="127.078655"></trkpt>
      <trkpt lat="34.711955" lon="127.079669"></trkpt>
      <trkpt lat="34.712750" lon="127.082650"></trkpt>
      <trkpt lat="34.712668" lon="127.083068"></trkpt>
      <trkpt lat="34.711503" lon="127.083722"></trkpt>
      <trkpt lat="34.712369" lon="127.085903"></trkpt>
      <trkpt lat="34.712850" lon="127.086211"></trkpt>
      <trkpt lat="34.712491" lon="127.086896"></trkpt>
      <trkpt lat="34.712882" lon="127.088059"></trkpt>
      <trkpt lat="34.712067" lon="127.088659"></trkpt>
      <trkpt lat="34.712728" lon="127.090274"></trkpt>
      <trkpt lat="34.712902" lon="127.091795"></trkpt>
      <trkpt lat="34.711104" lon="127.093824"></trkpt>
      <trkpt lat="34.711189" lon="127.094465"></trkpt>
      <trkpt lat="34.712353" lon="127.095038"></trkpt>
      <trkpt lat="34.714071" lon="127.094802"></trkpt>
      <trkpt lat="34.714823" lon="127.095838"></trkpt>
      <trkpt lat="34.717062" lon="127.096863"></trkpt>
      <trkpt lat="34.717844" lon="127.096803"></trkpt>
      <trkpt lat="34.718800" lon="127.096024"></trkpt>
      <trkpt lat="34.721441" lon="127.098120"></trkpt>
      <trkpt lat="34.721719" lon="127.098708"></trkpt>
      <trkpt lat="34.723919" lon="127.099037"></trkpt>
      <trkpt lat="34.725282" lon="127.101193"></trkpt>
      <trkpt lat="34.727057" lon="127.102234"></trkpt>
      <trkpt lat="34.727038" lon="127.102940"></trkpt>
      <trkpt lat="34.728159" lon="127.102820"></trkpt>
      <trkpt lat="34.729336" lon="127.104616"></trkpt>
      <trkpt lat="34.731286" lon="127.106065"></trkpt>
      <trkpt lat="34.732035" lon="127.108059"></trkpt>
      <trkpt lat="34.733488" lon="127.110169"></trkpt>
      <trkpt lat="34.736182" lon="127.110604"></trkpt>
      <trkpt lat="34.738101" lon="127.109449"></trkpt>
      <trkpt lat="34.739055" lon="127.109914"></trkpt>
      <trkpt lat="34.743135" lon="127.109261"></trkpt>
      <trkpt lat="34.743770" lon="127.109658"></trkpt>
      <trkpt lat="34.744294" lon="127.110753"></trkpt>
      <trkpt lat="34.746006" lon="127.110945"></trkpt>
      <trkpt lat="34.747700" lon="127.112464"></trkpt>
      <trkpt lat="34.749186" lon="127.112204"></trkpt>
      <trkpt lat="34.750438" lon="127.113181"></trkpt>
      <trkpt lat="34.753140" lon="127.113295"></trkpt>
      <trkpt lat="34.754091" lon="127.114611"></trkpt>
      <trkpt lat="34.756039" lon="127.114484"></trkpt>
      <trkpt lat="34.760566" lon="127.117969"></trkpt>
      <trkpt lat="34.761364" lon="127.117954"></trkpt>
      <trkpt lat="34.762710" lon="127.118768"></trkpt>
      <trkpt lat="34.762427" lon="127.119981"></trkpt>
      <trkpt lat="34.763132" lon="127.121450"></trkpt>
      <trkpt lat="34.764395" lon="127.122359"></trkpt>
      <trkpt lat="34.764395" lon="127.123114"></trkpt>
      <trkpt lat="34.765101" lon="127.123846"></trkpt>
      <trkpt lat="34.766514" lon="127.124239"></trkpt>
      <trkpt lat="34.767853" lon="127.126677"></trkpt>
      <trkpt lat="34.770422" lon="127.124888"></trkpt>
      <trkpt lat="34.771634" lon="127.125006"></trkpt>
      <trkpt lat="34.773830" lon="127.121993"></trkpt>
      <trkpt lat="34.774650" lon="127.122066"></trkpt>
      <trkpt lat="34.776460" lon="127.123585"></trkpt>
      <trkpt lat="34.777300" lon="127.123689"></trkpt>
      <trkpt lat="34.779209" lon="127.123295"></trkpt>
      <trkpt lat="34.781435" lon="127.121680"></trkpt>
      <trkpt lat="34.782427" lon="127.122201"></trkpt>
      <trkpt lat="34.783009" lon="127.123125"></trkpt>
      <trkpt lat="34.787391" lon="127.122419"></trkpt>
      <trkpt lat="34.789952" lon="127.124902"></trkpt>
      <trkpt lat="34.790452" lon="127.127026"></trkpt>
      <trkpt lat="34.790112" lon="127.131464"></trkpt>
      <trkpt lat="34.790652" lon="127.132261"></trkpt>
      <trkpt lat="34.790801" lon="127.134607"></trkpt>
      <trkpt lat="34.791379" lon="127.135453"></trkpt>
      <trkpt lat="34.789545" lon="127.136843"></trkpt>
      <trkpt lat="34.788977" lon="127.138408"></trkpt>
      <trkpt lat="34.788939" lon="127.141059"></trkpt>
      <trkpt lat="34.789625" lon="127.143102"></trkpt>
      <trkpt lat="34.789646" lon="127.144524"></trkpt>
      <trkpt lat="34.790810" lon="127.147370"></trkpt>
      <trkpt lat="34.794704" lon="127.152593"></trkpt>
      <trkpt lat="34.794385" lon="127.153438"></trkpt>
      <trkpt lat="34.794508" lon="127.156205"></trkpt>
      <trkpt lat="34.793208" lon="127.157456"></trkpt>
      <trkpt lat="34.793234" lon="127.157904"></trkpt>
      <trkpt lat="34.795015" lon="127.161740"></trkpt>
      <trkpt lat="34.796145" lon="127.163189"></trkpt>
      <trkpt lat="34.796233" lon="127.163991"></trkpt>
      <trkpt lat="34.796716" lon="127.164224"></trkpt>
      <trkpt lat="34.796701" lon="127.164886"></trkpt>
      <trkpt lat="34.796440" lon="127.165672"></trkpt>
      <trkpt lat="34.795136" lon="127.164487"></trkpt>
      <trkpt lat="34.794664" lon="127.164533"></trkpt>
      <trkpt lat="34.795278" lon="127.165929"></trkpt>
      <trkpt lat="34.795078" lon="127.166156"></trkpt>
      <trkpt lat="34.794137" lon="127.165670"></trkpt>
      <trkpt lat="34.793493" lon="127.166625"></trkpt>
      <trkpt lat="34.792623" lon="127.166411"></trkpt>
      <trkpt lat="34.791527" lon="127.164593"></trkpt>
      <trkpt lat="34.789936" lon="127.164954"></trkpt>
      <trkpt lat="34.788739" lon="127.164466"></trkpt>
      <trkpt lat="34.788347" lon="127.164982"></trkpt>
      <trkpt lat="34.788570" lon="127.165690"></trkpt>
      <trkpt lat="34.788319" lon="127.166578"></trkpt>
      <trkpt lat="34.789807" lon="127.170205"></trkpt>
      <trkpt lat="34.789013" lon="127.171719"></trkpt>
      <trkpt lat="34.789154" lon="127.173112"></trkpt>
      <trkpt lat="34.788162" lon="127.176914"></trkpt>
      <trkpt lat="34.788253" lon="127.178647"></trkpt>
      <trkpt lat="34.788495" lon="127.179532"></trkpt>
      <trkpt lat="34.789292" lon="127.180328"></trkpt>
      <trkpt lat="34.791443" lon="127.180886"></trkpt>
      <trkpt lat="34.793703" lon="127.182880"></trkpt>
      <trkpt lat="34.795022" lon="127.182832"></trkpt>
      <trkpt lat="34.796099" lon="127.184475"></trkpt>
      <trkpt lat="34.796042" lon="127.186533"></trkpt>
      <trkpt lat="34.796822" lon="127.187489"></trkpt>
      <trkpt lat="34.797219" lon="127.189003"></trkpt>
      <trkpt lat="34.798500" lon="127.189712"></trkpt>
      <trkpt lat="34.799176" lon="127.191188"></trkpt>
      <trkpt lat="34.799380" lon="127.193623"></trkpt>
      <trkpt lat="34.800195" lon="127.195198"></trkpt>
      <trkpt lat="34.800258" lon="127.198519"></trkpt>
      <trkpt lat="34.801383" lon="127.202390"></trkpt>
      <trkpt lat="34.803820" lon="127.204458"></trkpt>
      <trkpt lat="34.805783" lon="127.208184"></trkpt>
      <trkpt lat="34.807058" lon="127.208853"></trkpt>
      <trkpt lat="34.807518" lon="127.210770"></trkpt>
      <trkpt lat="34.808842" lon="127.212622"></trkpt>
      <trkpt lat="34.809624" lon="127.211940"></trkpt>
      <trkpt lat="34.810260" lon="127.212117"></trkpt>
      <trkpt lat="34.812410" lon="127.211143"></trkpt>
      <trkpt lat="34.813941" lon="127.210976"></trkpt>
      <trkpt lat="34.814921" lon="127.210216"></trkpt>
      <trkpt lat="34.816219" lon="127.210956"></trkpt>
      <trkpt lat="34.818364" lon="127.210261"></trkpt>
      <trkpt lat="34.822405" lon="127.212667"></trkpt>
      <trkpt lat="34.825026" lon="127.212644"></trkpt>
      <trkpt lat="34.825969" lon="127.213424"></trkpt>
      <trkpt lat="34.826417" lon="127.211760"></trkpt>
      <trkpt lat="34.826890" lon="127.211408"></trkpt>
      <trkpt lat="34.828386" lon="127.211677"></trkpt>
      <trkpt lat="34.828801" lon="127.210889"></trkpt>
      <trkpt lat="34.829613" lon="127.210671"></trkpt>
      <trkpt lat="34.834097" lon="127.210759"></trkpt>
      <trkpt lat="34.835309" lon="127.213382"></trkpt>
      <trkpt lat="34.834836" lon="127.215236"></trkpt>
      <trkpt lat="34.835628" lon="127.216984"></trkpt>
      <trkpt lat="34.835736" lon="127.218578"></trkpt>
      <trkpt lat="34.837865" lon="127.220868"></trkpt>
      <trkpt lat="34.839812" lon="127.224848"></trkpt>
      <trkpt lat="34.842530" lon="127.225593"></trkpt>
      <trkpt lat="34.844161" lon="127.226723"></trkpt>
      <trkpt lat="34.845314" lon="127.226872"></trkpt>
      <trkpt lat="34.846426" lon="127.226018"></trkpt>
      <trkpt lat="34.847423" lon="127.226081"></trkpt>
      <trkpt lat="34.848509" lon="127.226945"></trkpt>
      <trkpt lat="34.849393" lon="127.226947"></trkpt>
      <trkpt lat="34.851711" lon="127.229240"></trkpt>
      <trkpt lat="34.853668" lon="127.229726"></trkpt>
      <trkpt lat="34.854864" lon="127.231040"></trkpt>
      <trkpt lat="34.854651" lon="127.231540"></trkpt>
      <trkpt lat="34.855146" lon="127.233242"></trkpt>
      <trkpt lat="34.854753" lon="127.236053"></trkpt>
      <trkpt lat="34.856221" lon="127.241889"></trkpt>
      <trkpt lat="34.857793" lon="127.243071"></trkpt>
      <trkpt lat="34.858465" lon="127.244765"></trkpt>
      <trkpt lat="34.859573" lon="127.245410"></trkpt>
      <trkpt lat="34.860034" lon="127.246212"></trkpt>
      <trkpt lat="34.862118" lon="127.247243"></trkpt>
      <trkpt lat="34.862494" lon="127.247844"></trkpt>
      <trkpt lat="34.863711" lon="127.247782"></trkpt>
      <trkpt lat="34.865065" lon="127.250043"></trkpt>
      <trkpt lat="34.864419" lon="127.250865"></trkpt>
      <trkpt lat="34.865174" lon="127.251976"></trkpt>
      <trkpt lat="34.866676" lon="127.251479"></trkpt>
      <trkpt lat="34.868796" lon="127.252358"></trkpt>
      <trkpt lat="34.870132" lon="127.251848"></trkpt>
      <trkpt lat="34.871932" lon="127.252908"></trkpt>
      <trkpt lat="34.873327" lon="127.253144"></trkpt>
      <trkpt lat="34.874673" lon="127.253176"></trkpt>
      <trkpt lat="34.875811" lon="127.252460"></trkpt>
      <trkpt lat="34.877613" lon="127.253507"></trkpt>
      <trkpt lat="34.880753" lon="127.253843"></trkpt>
      <trkpt lat="34.882346" lon="127.252792"></trkpt>
      <trkpt lat="34.884021" lon="127.252574"></trkpt>
      <trkpt lat="34.885311" lon="127.255579"></trkpt>
      <trkpt lat="34.885290" lon="127.256854"></trkpt>
      <trkpt lat="34.885868" lon="127.258261"></trkpt>
      <trkpt lat="34.888099" lon="127.258856"></trkpt>
      <trkpt lat="34.888634" lon="127.259511"></trkpt>
      <trkpt lat="34.889753" lon="127.259476"></trkpt>
      <trkpt lat="34.890337" lon="127.261381"></trkpt>
      <trkpt lat="34.891644" lon="127.261678"></trkpt>
      <trkpt lat="34.889955" lon="127.264293"></trkpt>
      <trkpt lat="34.889331" lon="127.264550"></trkpt>
      <trkpt lat="34.889652" lon="127.268117"></trkpt>
      <trkpt lat="34.890571" lon="127.269584"></trkpt>
      <trkpt lat="34.890716" lon="127.271028"></trkpt>
      <trkpt lat="34.890203" lon="127.272318"></trkpt>
      <trkpt lat="34.890123" lon="127.274054"></trkpt>
      <trkpt lat="34.891288" lon="127.276481"></trkpt>
      <trkpt lat="34.892414" lon="127.277542"></trkpt>
      <trkpt lat="34.893084" lon="127.280163"></trkpt>
      <trkpt lat="34.897329" lon="127.282777"></trkpt>
      <trkpt lat="34.896906" lon="127.283921"></trkpt>
      <trkpt lat="34.897838" lon="127.284958"></trkpt>
      <trkpt lat="34.897845" lon="127.286286"></trkpt>
      <trkpt lat="34.899314" lon="127.287000"></trkpt>
      <trkpt lat="34.899840" lon="127.288394"></trkpt>
      <trkpt lat="34.899747" lon="127.289071"></trkpt>
      <trkpt lat="34.900338" lon="127.289723"></trkpt>
      <trkpt lat="34.900680" lon="127.291050"></trkpt>
      <trkpt lat="34.901567" lon="127.291776"></trkpt>
      <trkpt lat="34.901523" lon="127.292580"></trkpt>
      <trkpt lat="34.900872" lon="127.293787"></trkpt>
      <trkpt lat="34.901225" lon="127.297561"></trkpt>
      <trkpt lat="34.901905" lon="127.299986"></trkpt>
      <trkpt lat="34.900332" lon="127.302452"></trkpt>
      <trkpt lat="34.902855" lon="127.307317"></trkpt>
      <trkpt lat="34.904927" lon="127.308188"></trkpt>
      <trkpt lat="34.906103" lon="127.310013"></trkpt>
      <trkpt lat="34.907103" lon="127.310188"></trkpt>
      <trkpt lat="34.909056" lon="127.309392"></trkpt>
      <trkpt lat="34.910739" lon="127.309318"></trkpt>
      <trkpt lat="34.911203" lon="127.308488"></trkpt>
      <trkpt lat="34.912100" lon="127.308338"></trkpt>
      <trkpt lat="34.912913" lon="127.309192"></trkpt>
      <trkpt lat="34.913342" lon="127.310342"></trkpt>
      <trkpt lat="34.914234" lon="127.310909"></trkpt>
      <trkpt lat="34.915019" lon="127.310833"></trkpt>
      <trkpt lat="34.915965" lon="127.309965"></trkpt>
      <trkpt lat="34.917639" lon="127.310215"></trkpt>
      <trkpt lat="34.917712" lon="127.309256"></trkpt>
      <trkpt lat="34.918850" lon="127.309583"></trkpt>
      <trkpt lat="34.920813" lon="127.308587"></trkpt>
      <trkpt lat="34.922482" lon="127.311433"></trkpt>
      <trkpt lat="34.923376" lon="127.311560"></trkpt>
      <trkpt lat="34.925284" lon="127.310787"></trkpt>
      <trkpt lat="34.926401" lon="127.309958"></trkpt>
      <trkpt lat="34.926970" lon="127.308863"></trkpt>
      <trkpt lat="34.928370" lon="127.308360"></trkpt>
      <trkpt lat="34.929353" lon="127.309343"></trkpt>
      <trkpt lat="34.931786" lon="127.309965"></trkpt>
      <trkpt lat="34.932246" lon="127.308978"></trkpt>
      <trkpt lat="34.932947" lon="127.308720"></trkpt>
      <trkpt lat="34.934964" lon="127.309529"></trkpt>
      <trkpt lat="34.935673" lon="127.308873"></trkpt>
      <trkpt lat="34.937317" lon="127.308848"></trkpt>
      <trkpt lat="34.939233" lon="127.307717"></trkpt>
      <trkpt lat="34.943906" lon="127.306778"></trkpt>
      <trkpt lat="34.945331" lon="127.307445"></trkpt>
      <trkpt lat="34.945914" lon="127.307230"></trkpt>
      <trkpt lat="34.946077" lon="127.307728"></trkpt>
      <trkpt lat="34.946899" lon="127.308154"></trkpt>
      <trkpt lat="34.949095" lon="127.311413"></trkpt>
      <trkpt lat="34.950198" lon="127.315822"></trkpt>
      <trkpt lat="34.952476" lon="127.316018"></trkpt>
      <trkpt lat="34.954575" lon="127.315533"></trkpt>
      <trkpt lat="34.956592" lon="127.316617"></trkpt>
      <trkpt lat="34.959435" lon="127.317419"></trkpt>
      <trkpt lat="34.961520" lon="127.315930"></trkpt>
      <trkpt lat="34.962629" lon="127.315815"></trkpt>
      <trkpt lat="34.963896" lon="127.315063"></trkpt>
      <trkpt lat="34.965313" lon="127.315023"></trkpt>
      <trkpt lat="34.966159" lon="127.314213"></trkpt>
      <trkpt lat="34.967112" lon="127.311244"></trkpt>
      <trkpt lat="34.967947" lon="127.310332"></trkpt>
      <trkpt lat="34.969556" lon="127.310896"></trkpt>
      <trkpt lat="34.970903" lon="127.310847"></trkpt>
      <trkpt lat="34.971533" lon="127.311359"></trkpt>
      <trkpt lat="34.974673" lon="127.310768"></trkpt>
      <trkpt lat="34.976143" lon="127.312077"></trkpt>
      <trkpt lat="34.980637" lon="127.312278"></trkpt>
      <trkpt lat="34.981419" lon="127.312787"></trkpt>
      <trkpt lat="34.981951" lon="127.313798"></trkpt>
      <trkpt lat="34.983000" lon="127.314003"></trkpt>
      <trkpt lat="34.985858" lon="127.311574"></trkpt>
      <trkpt lat="34.988901" lon="127.311770"></trkpt>
      <trkpt lat="34.989983" lon="127.312392"></trkpt>
      <trkpt lat="34.992083" lon="127.310992"></trkpt>
      <trkpt lat="34.997574" lon="127.310826"></trkpt>
      <trkpt lat="34.998942" lon="127.311375"></trkpt>
      <trkpt lat="35.001311" lon="127.313638"></trkpt>
      <trkpt lat="35.004615" lon="127.312769"></trkpt>
      <trkpt lat="35.006514" lon="127.311346"></trkpt>
      <trkpt lat="35.006912" lon="127.309670"></trkpt>
      <trkpt lat="35.008307" lon="127.310373"></trkpt>
      <trkpt lat="35.009504" lon="127.310245"></trkpt>
      <trkpt lat="35.010853" lon="127.309834"></trkpt>
      <trkpt lat="35.011520" lon="127.308831"></trkpt>
      <trkpt lat="35.012471" lon="127.308861"></trkpt>
      <trkpt lat="35.018562" lon="127.310618"></trkpt>
      <trkpt lat="35.019595" lon="127.311891"></trkpt>
      <trkpt lat="35.021206" lon="127.312633"></trkpt>
      <trkpt lat="35.021685" lon="127.312336"></trkpt>
      <trkpt lat="35.024151" lon="127.312461"></trkpt>
      <trkpt lat="35.025696" lon="127.313274"></trkpt>
      <trkpt lat="35.026938" lon="127.314425"></trkpt>
      <trkpt lat="35.027958" lon="127.317082"></trkpt>
      <trkpt lat="35.028229" lon="127.317237"></trkpt>
      <trkpt lat="35.028885" lon="127.316464"></trkpt>
      <trkpt lat="35.029671" lon="127.318268"></trkpt>
      <trkpt lat="35.030638" lon="127.314257"></trkpt>
      <trkpt lat="35.031292" lon="127.315051"></trkpt>
      <trkpt lat="35.031554" lon="127.316531"></trkpt>
      <trkpt lat="35.035419" lon="127.316179"></trkpt>
      <trkpt lat="35.037141" lon="127.316925"></trkpt>
      <trkpt lat="35.038116" lon="127.315989"></trkpt>
      <trkpt lat="35.038397" lon="127.314787"></trkpt>
      <trkpt lat="35.038924" lon="127.314245"></trkpt>
      <trkpt lat="35.040747" lon="127.313569"></trkpt>
      <trkpt lat="35.043507" lon="127.316305"></trkpt>
      <trkpt lat="35.045040" lon="127.316968"></trkpt>
      <trkpt lat="35.049227" lon="127.317084"></trkpt>
      <trkpt lat="35.050242" lon="127.318090"></trkpt>
      <trkpt lat="35.051087" lon="127.317843"></trkpt>
      <trkpt lat="35.052510" lon="127.318875"></trkpt>
      <trkpt lat="35.054653" lon="127.319173"></trkpt>
      <trkpt lat="35.055062" lon="127.319725"></trkpt>
      <trkpt lat="35.058071" lon="127.319325"></trkpt>
      <trkpt lat="35.058741" lon="127.321639"></trkpt>
      <trkpt lat="35.059557" lon="127.321631"></trkpt>
      <trkpt lat="35.061235" lon="127.322497"></trkpt>
      <trkpt lat="35.062853" lon="127.322506"></trkpt>
      <trkpt lat="35.063937" lon="127.321948"></trkpt>
      <trkpt lat="35.065254" lon="127.322222"></trkpt>
      <trkpt lat="35.066031" lon="127.321708"></trkpt>
      <trkpt lat="35.066678" lon="127.321988"></trkpt>
      <trkpt lat="35.068478" lon="127.321193"></trkpt>
      <trkpt lat="35.069338" lon="127.321357"></trkpt>
      <trkpt lat="35.069489" lon="127.322469"></trkpt>
      <trkpt lat="35.071724" lon="127.326614"></trkpt>
      <trkpt lat="35.071642" lon="127.327575"></trkpt>
      <trkpt lat="35.072212" lon="127.328571"></trkpt>
      <trkpt lat="35.072400" lon="127.330411"></trkpt>
      <trkpt lat="35.075614" lon="127.332246"></trkpt>
      <trkpt lat="35.075775" lon="127.332810"></trkpt>
      <trkpt lat="35.076574" lon="127.333207"></trkpt>
      <trkpt lat="35.078025" lon="127.335754"></trkpt>
      <trkpt lat="35.075729" lon="127.337685"></trkpt>
      <trkpt lat="35.074374" lon="127.338296"></trkpt>
      <trkpt lat="35.073369" lon="127.339625"></trkpt>
      <trkpt lat="35.071996" lon="127.339879"></trkpt>
      <trkpt lat="35.068845" lon="127.342056"></trkpt>
      <trkpt lat="35.066473" lon="127.342082"></trkpt>
      <trkpt lat="35.066307" lon="127.343404"></trkpt>
      <trkpt lat="35.065326" lon="127.344463"></trkpt>
      <trkpt lat="35.065971" lon="127.346048"></trkpt>
      <trkpt lat="35.065609" lon="127.347598"></trkpt>
      <trkpt lat="35.066572" lon="127.349065"></trkpt>
      <trkpt lat="35.066492" lon="127.350127"></trkpt>
      <trkpt lat="35.067521" lon="127.352443"></trkpt>
      <trkpt lat="35.067727" lon="127.354749"></trkpt>
      <trkpt lat="35.068700" lon="127.355782"></trkpt>
      <trkpt lat="35.068190" lon="127.358073"></trkpt>
      <trkpt lat="35.068685" lon="127.358677"></trkpt>
      <trkpt lat="35.068395" lon="127.360016"></trkpt>
      <trkpt lat="35.068659" lon="127.360833"></trkpt>
      <trkpt lat="35.067831" lon="127.363254"></trkpt>
      <trkpt lat="35.068742" lon="127.364459"></trkpt>
      <trkpt lat="35.069682" lon="127.367786"></trkpt>
      <trkpt lat="35.070383" lon="127.368414"></trkpt>
      <trkpt lat="35.070386" lon="127.369224"></trkpt>
      <trkpt lat="35.071562" lon="127.371329"></trkpt>
      <trkpt lat="35.071579" lon="127.371974"></trkpt>
      <trkpt lat="35.070615" lon="127.374002"></trkpt>
      <trkpt lat="35.070160" lon="127.374284"></trkpt>
      <trkpt lat="35.070076" lon="127.375152"></trkpt>
      <trkpt lat="35.068296" lon="127.376765"></trkpt>
      <trkpt lat="35.066387" lon="127.376091"></trkpt>
      <trkpt lat="35.064884" lon="127.377457"></trkpt>
      <trkpt lat="35.062859" lon="127.380444"></trkpt>
      <trkpt lat="35.060685" lon="127.382016"></trkpt>
      <trkpt lat="35.060562" lon="127.383369"></trkpt>
      <trkpt lat="35.059989" lon="127.384375"></trkpt>
      <trkpt lat="35.057001" lon="127.386344"></trkpt>
      <trkpt lat="35.053896" lon="127.389353"></trkpt>
      <trkpt lat="35.051883" lon="127.393653"></trkpt>
      <trkpt lat="35.049311" lon="127.393700"></trkpt>
      <trkpt lat="35.048282" lon="127.395097"></trkpt>
      <trkpt lat="35.046365" lon="127.396396"></trkpt>
      <trkpt lat="35.045424" lon="127.396315"></trkpt>
      <trkpt lat="35.043101" lon="127.395053"></trkpt>
      <trkpt lat="35.042578" lon="127.396231"></trkpt>
      <trkpt lat="35.042285" lon="127.396070"></trkpt>
      <trkpt lat="35.041721" lon="127.396998"></trkpt>
      <trkpt lat="35.042706" lon="127.399569"></trkpt>
      <trkpt lat="35.042705" lon="127.402091"></trkpt>
      <trkpt lat="35.042365" lon="127.403132"></trkpt>
      <trkpt lat="35.042773" lon="127.404999"></trkpt>
      <trkpt lat="35.042510" lon="127.407720"></trkpt>
      <trkpt lat="35.045155" lon="127.409355"></trkpt>
      <trkpt lat="35.046185" lon="127.410773"></trkpt>
      <trkpt lat="35.047023" lon="127.410795"></trkpt>
      <trkpt lat="35.048619" lon="127.410015"></trkpt>
      <trkpt lat="35.049634" lon="127.410951"></trkpt>
      <trkpt lat="35.050562" lon="127.412546"></trkpt>
      <trkpt lat="35.052041" lon="127.413193"></trkpt>
      <trkpt lat="35.053729" lon="127.413348"></trkpt>
      <trkpt lat="35.054733" lon="127.412937"></trkpt>
      <trkpt lat="35.055817" lon="127.413728"></trkpt>
      <trkpt lat="35.055287" lon="127.415840"></trkpt>
      <trkpt lat="35.055669" lon="127.417237"></trkpt>
      <trkpt lat="35.053961" lon="127.421569"></trkpt>
      <trkpt lat="35.054232" lon="127.424922"></trkpt>
      <trkpt lat="35.054046" lon="127.425535"></trkpt>
      <trkpt lat="35.053373" lon="127.424751"></trkpt>
      <trkpt lat="35.053096" lon="127.426056"></trkpt>
      <trkpt lat="35.053773" lon="127.426344"></trkpt>
      <trkpt lat="35.053546" lon="127.429171"></trkpt>
      <trkpt lat="35.054224" lon="127.430283"></trkpt>
      <trkpt lat="35.054289" lon="127.431616"></trkpt>
      <trkpt lat="35.055200" lon="127.432305"></trkpt>
      <trkpt lat="35.055166" lon="127.433325"></trkpt>
      <trkpt lat="35.055551" lon="127.433592"></trkpt>
      <trkpt lat="35.055281" lon="127.434540"></trkpt>
      <trkpt lat="35.055583" lon="127.435105"></trkpt>
      <trkpt lat="35.059290" lon="127.436156"></trkpt>
      <trkpt lat="35.061178" lon="127.437388"></trkpt>
      <trkpt lat="35.062228" lon="127.444012"></trkpt>
      <trkpt lat="35.064842" lon="127.445937"></trkpt>
      <trkpt lat="35.064177" lon="127.448879"></trkpt>
      <trkpt lat="35.062774" lon="127.451258"></trkpt>
      <trkpt lat="35.062131" lon="127.452194"></trkpt>
      <trkpt lat="35.059078" lon="127.454530"></trkpt>
      <trkpt lat="35.057303" lon="127.457215"></trkpt>
      <trkpt lat="35.056849" lon="127.458392"></trkpt>
      <trkpt lat="35.056779" lon="127.460339"></trkpt>
      <trkpt lat="35.055235" lon="127.461880"></trkpt>
      <trkpt lat="35.054231" lon="127.464203"></trkpt>
      <trkpt lat="35.054307" lon="127.468985"></trkpt>
      <trkpt lat="35.053520" lon="127.469786"></trkpt>
      <trkpt lat="35.052617" lon="127.469256"></trkpt>
      <trkpt lat="35.051100" lon="127.469355"></trkpt>
      <trkpt lat="35.051625" lon="127.470835"></trkpt>
      <trkpt lat="35.051274" lon="127.472875"></trkpt>
      <trkpt lat="35.052189" lon="127.473881"></trkpt>
      <trkpt lat="35.052585" lon="127.476684"></trkpt>
      <trkpt lat="35.053485" lon="127.477585"></trkpt>
      <trkpt lat="35.054161" lon="127.477504"></trkpt>
      <trkpt lat="35.053626" lon="127.478477"></trkpt>
      <trkpt lat="35.054157" lon="127.479438"></trkpt>
      <trkpt lat="35.057569" lon="127.482946"></trkpt>
      <trkpt lat="35.060753" lon="127.484330"></trkpt>
      <trkpt lat="35.062276" lon="127.483794"></trkpt>
      <trkpt lat="35.063567" lon="127.484508"></trkpt>
      <trkpt lat="35.065284" lon="127.484127"></trkpt>
      <trkpt lat="35.068564" lon="127.486546"></trkpt>
      <trkpt lat="35.069187" lon="127.486616"></trkpt>
      <trkpt lat="35.070909" lon="127.488944"></trkpt>
      <trkpt lat="35.071892" lon="127.489647"></trkpt>
      <trkpt lat="35.072717" lon="127.491653"></trkpt>
      <trkpt lat="35.073819" lon="127.492506"></trkpt>
      <trkpt lat="35.076093" lon="127.495794"></trkpt>
      <trkpt lat="35.078412" lon="127.496207"></trkpt>
      <trkpt lat="35.080018" lon="127.497001"></trkpt>
      <trkpt lat="35.081370" lon="127.499126"></trkpt>
      <trkpt lat="35.082411" lon="127.499850"></trkpt>
      <trkpt lat="35.082635" lon="127.500783"></trkpt>
      <trkpt lat="35.083785" lon="127.501405"></trkpt>
      <trkpt lat="35.085479" lon="127.503261"></trkpt>
      <trkpt lat="35.086136" lon="127.505657"></trkpt>
      <trkpt lat="35.087208" lon="127.506978"></trkpt>
      <trkpt lat="35.088016" lon="127.508917"></trkpt>
      <trkpt lat="35.087823" lon="127.512283"></trkpt>
      <trkpt lat="35.089317" lon="127.513629"></trkpt>
      <trkpt lat="35.089712" lon="127.514475"></trkpt>
      <trkpt lat="35.088465" lon="127.523691"></trkpt>
      <trkpt lat="35.087683" lon="127.524935"></trkpt>
      <trkpt lat="35.086915" lon="127.525417"></trkpt>
      <trkpt lat="35.087899" lon="127.529838"></trkpt>
      <trkpt lat="35.089171" lon="127.530456"></trkpt>
      <trkpt lat="35.090821" lon="127.530359"></trkpt>
      <trkpt lat="35.094710" lon="127.529018"></trkpt>
      <trkpt lat="35.095632" lon="127.531142"></trkpt>
      <trkpt lat="35.097449" lon="127.531764"></trkpt>
      <trkpt lat="35.098397" lon="127.532569"></trkpt>
      <trkpt lat="35.100275" lon="127.533084"></trkpt>
      <trkpt lat="35.101960" lon="127.532419"></trkpt>
      <trkpt lat="35.103927" lon="127.532945"></trkpt>
      <trkpt lat="35.104892" lon="127.535144"></trkpt>
      <trkpt lat="35.104067" lon="127.536689"></trkpt>
      <trkpt lat="35.103058" lon="127.537504"></trkpt>
      <trkpt lat="35.102154" lon="127.539318"></trkpt>
      <trkpt lat="35.101311" lon="127.539747"></trkpt>
      <trkpt lat="35.100714" lon="127.541410"></trkpt>
      <trkpt lat="35.099626" lon="127.542440"></trkpt>
      <trkpt lat="35.098493" lon="127.546098"></trkpt>
      <trkpt lat="35.097089" lon="127.548652"></trkpt>
      <trkpt lat="35.096764" lon="127.550175"></trkpt>
      <trkpt lat="35.094745" lon="127.552385"></trkpt>
      <trkpt lat="35.095394" lon="127.555143"></trkpt>
      <trkpt lat="35.095315" lon="127.556258"></trkpt>
      <trkpt lat="35.095860" lon="127.557632"></trkpt>
      <trkpt lat="35.095483" lon="127.559653"></trkpt>
      <trkpt lat="35.096852" lon="127.560297"></trkpt>
      <trkpt lat="35.099275" lon="127.562529"></trkpt>
      <trkpt lat="35.102066" lon="127.563967"></trkpt>
      <trkpt lat="35.102663" lon="127.563666"></trkpt>
      <trkpt lat="35.104577" lon="127.564009"></trkpt>
      <trkpt lat="35.105981" lon="127.563516"></trkpt>
      <trkpt lat="35.108246" lon="127.563902"></trkpt>
      <trkpt lat="35.109106" lon="127.565576"></trkpt>
      <trkpt lat="35.108807" lon="127.566820"></trkpt>
      <trkpt lat="35.109299" lon="127.568730"></trkpt>
      <trkpt lat="35.110036" lon="127.569030"></trkpt>
      <trkpt lat="35.111370" lon="127.570597"></trkpt>
      <trkpt lat="35.111581" lon="127.572120"></trkpt>
      <trkpt lat="35.112669" lon="127.574502"></trkpt>
      <trkpt lat="35.113389" lon="127.575146"></trkpt>
      <trkpt lat="35.113672" lon="127.577607"></trkpt>
      <trkpt lat="35.114677" lon="127.579522"></trkpt>
      <trkpt lat="35.114647" lon="127.580059"></trkpt>
      <trkpt lat="35.116529" lon="127.582146"></trkpt>
      <trkpt lat="35.117587" lon="127.582521"></trkpt>
      <trkpt lat="35.118798" lon="127.583750"></trkpt>
      <trkpt lat="35.119303" lon="127.586900"></trkpt>
      <trkpt lat="35.120285" lon="127.588583"></trkpt>
      <trkpt lat="35.119768" lon="127.590903"></trkpt>
      <trkpt lat="35.122086" lon="127.594846"></trkpt>
      <trkpt lat="35.121022" lon="127.597772"></trkpt>
      <trkpt lat="35.119164" lon="127.600173"></trkpt>
      <trkpt lat="35.119160" lon="127.601983"></trkpt>
      <trkpt lat="35.118353" lon="127.604110"></trkpt>
      <trkpt lat="35.118648" lon="127.605724"></trkpt>
      <trkpt lat="35.118335" lon="127.607126"></trkpt>
      <trkpt lat="35.118423" lon="127.609034"></trkpt>
      <trkpt lat="35.114861" lon="127.612414"></trkpt>
      <trkpt lat="35.112510" lon="127.615680"></trkpt>
      <trkpt lat="35.110097" lon="127.616053"></trkpt>
      <trkpt lat="35.109524" lon="127.617262"></trkpt>
      <trkpt lat="35.108289" lon="127.617450"></trkpt>
      <trkpt lat="35.108230" lon="127.618375"></trkpt>
      <trkpt lat="35.107021" lon="127.620722"></trkpt>
      <trkpt lat="35.106311" lon="127.621075"></trkpt>
      <trkpt lat="35.106160" lon="127.622011"></trkpt>
      <trkpt lat="35.106506" lon="127.622571"></trkpt>
      <trkpt lat="35.106460" lon="127.624189"></trkpt>
      <trkpt lat="35.107171" lon="127.626669"></trkpt>
      <trkpt lat="35.108300" lon="127.628026"></trkpt>
      <trkpt lat="35.109260" lon="127.628386"></trkpt>
      <trkpt lat="35.111316" lon="127.630368"></trkpt>
      <trkpt lat="35.113424" lon="127.633197"></trkpt>
      <trkpt lat="35.113057" lon="127.635118"></trkpt>
      <trkpt lat="35.113718" lon="127.636108"></trkpt>
      <trkpt lat="35.114002" lon="127.637444"></trkpt>
      <trkpt lat="35.113880" lon="127.640770"></trkpt>
      <trkpt lat="35.115374" lon="127.643841"></trkpt>
      <trkpt lat="35.115343" lon="127.647816"></trkpt>
      <trkpt lat="35.116596" lon="127.649766"></trkpt>
      <trkpt lat="35.116805" lon="127.651793"></trkpt>
      <trkpt lat="35.118194" lon="127.653574"></trkpt>
      <trkpt lat="35.118321" lon="127.655222"></trkpt>
      <trkpt lat="35.110656" lon="127.660822"></trkpt>
      <trkpt lat="35.109024" lon="127.661331"></trkpt>
      <trkpt lat="35.108480" lon="127.663515"></trkpt>
      <trkpt lat="35.107152" lon="127.666039"></trkpt>
      <trkpt lat="35.106838" lon="127.669222"></trkpt>
      <trkpt lat="35.105433" lon="127.671750"></trkpt>
      <trkpt lat="35.104612" lon="127.671997"></trkpt>
      <trkpt lat="35.102794" lon="127.673932"></trkpt>
      <trkpt lat="35.101963" lon="127.674251"></trkpt>
      <trkpt lat="35.100577" lon="127.674070"></trkpt>
      <trkpt lat="35.098061" lon="127.675019"></trkpt>
      <trkpt lat="35.096661" lon="127.677682"></trkpt>
      <trkpt lat="35.093088" lon="127.678791"></trkpt>
      <trkpt lat="35.091853" lon="127.682221"></trkpt>
      <trkpt lat="35.090584" lon="127.682934"></trkpt>
      <trkpt lat="35.089778" lon="127.684602"></trkpt>
      <trkpt lat="35.088549" lon="127.685954"></trkpt>
      <trkpt lat="35.088381" lon="127.686809"></trkpt>
      <trkpt lat="35.087316" lon="127.686528"></trkpt>
      <trkpt lat="35.086545" lon="127.687102"></trkpt>
      <trkpt lat="35.084640" lon="127.686985"></trkpt>
      <trkpt lat="35.082440" lon="127.689163"></trkpt>
      <trkpt lat="35.081566" lon="127.689218"></trkpt>
      <trkpt lat="35.080711" lon="127.689850"></trkpt>
      <trkpt lat="35.079285" lon="127.689972"></trkpt>
      <trkpt lat="35.078197" lon="127.689529"></trkpt>
      <trkpt lat="35.075911" lon="127.689893"></trkpt>
      <trkpt lat="35.075099" lon="127.691292"></trkpt>
      <trkpt lat="35.075298" lon="127.691871"></trkpt>
      <trkpt lat="35.074700" lon="127.693030"></trkpt>
      <trkpt lat="35.073437" lon="127.693930"></trkpt>
      <trkpt lat="35.072599" lon="127.693701"></trkpt>
      <trkpt lat="35.071064" lon="127.694299"></trkpt>
      <trkpt lat="35.070817" lon="127.695951"></trkpt>
      <trkpt lat="35.070368" lon="127.696395"></trkpt>
      <trkpt lat="35.069972" lon="127.697877"></trkpt>
      <trkpt lat="35.068416" lon="127.698237"></trkpt>
      <trkpt lat="35.066910" lon="127.699228"></trkpt>
      <trkpt lat="35.065562" lon="127.702409"></trkpt>
      <trkpt lat="35.062200" lon="127.702385"></trkpt>
      <trkpt lat="35.060621" lon="127.701648"></trkpt>
      <trkpt lat="35.059714" lon="127.702704"></trkpt>
      <trkpt lat="35.058603" lon="127.706795"></trkpt>
      <trkpt lat="35.057241" lon="127.709108"></trkpt>
      <trkpt lat="35.056977" lon="127.710333"></trkpt>
      <trkpt lat="35.055766" lon="127.711349"></trkpt>
      <trkpt lat="35.055846" lon="127.712926"></trkpt>
      <trkpt lat="35.055507" lon="127.713020"></trkpt>
      <trkpt lat="35.056418" lon="127.713406"></trkpt>
      <trkpt lat="35.055513" lon="127.713617"></trkpt>
      <trkpt lat="35.056496" lon="127.713965"></trkpt>
      <trkpt lat="35.056618" lon="127.714442"></trkpt>
      <trkpt lat="35.055943" lon="127.715317"></trkpt>
      <trkpt lat="35.055913" lon="127.716102"></trkpt>
      <trkpt lat="35.055116" lon="127.716620"></trkpt>
      <trkpt lat="35.054372" lon="127.718114"></trkpt>
      <trkpt lat="35.055211" lon="127.719358"></trkpt>
      <trkpt lat="35.055066" lon="127.721520"></trkpt>
      <trkpt lat="35.055334" lon="127.722566"></trkpt>
      <trkpt lat="35.051821" lon="127.724299"></trkpt>
      <trkpt lat="35.049574" lon="127.729127"></trkpt>
      <trkpt lat="35.048931" lon="127.734365"></trkpt>
      <trkpt lat="35.047523" lon="127.735183"></trkpt>
      <trkpt lat="35.046990" lon="127.736192"></trkpt>
      <trkpt lat="35.046197" lon="127.736310"></trkpt>
      <trkpt lat="35.045549" lon="127.736986"></trkpt>
      <trkpt lat="35.044728" lon="127.738464"></trkpt>
      <trkpt lat="35.045152" lon="127.738776"></trkpt>
      <trkpt lat="35.045772" lon="127.738445"></trkpt>
      <trkpt lat="35.045533" lon="127.738975"></trkpt>
      <trkpt lat="35.044778" lon="127.739014"></trkpt>
      <trkpt lat="35.044253" lon="127.739598"></trkpt>
      <trkpt lat="35.042448" lon="127.739762"></trkpt>
      <trkpt lat="35.040920" lon="127.738973"></trkpt>
      <trkpt lat="35.039121" lon="127.736534"></trkpt>
      <trkpt lat="35.038308" lon="127.736041"></trkpt>
      <trkpt lat="35.037414" lon="127.735586"></trkpt>
      <trkpt lat="35.033875" lon="127.735144"></trkpt>
      <trkpt lat="35.032473" lon="127.736960"></trkpt>
      <trkpt lat="35.028726" lon="127.739318"></trkpt>
      <trkpt lat="35.027964" lon="127.740862"></trkpt>
      <trkpt lat="35.024790" lon="127.744275"></trkpt>
      <trkpt lat="35.024476" lon="127.743636"></trkpt>
      <trkpt lat="35.023622" lon="127.743655"></trkpt>
      <trkpt lat="35.021330" lon="127.742463"></trkpt>
      <trkpt lat="35.019776" lon="127.740344"></trkpt>
      <trkpt lat="35.018667" lon="127.740691"></trkpt>
      <trkpt lat="35.017761" lon="127.740068"></trkpt>
      <trkpt lat="35.016186" lon="127.740055"></trkpt>
      <trkpt lat="35.015599" lon="127.739434"></trkpt>
      <trkpt lat="35.013076" lon="127.738723"></trkpt>
      <trkpt lat="35.012839" lon="127.738106"></trkpt>
      <trkpt lat="35.011175" lon="127.736942"></trkpt>
      <trkpt lat="35.010998" lon="127.735874"></trkpt>
      <trkpt lat="35.009331" lon="127.735089"></trkpt>
      <trkpt lat="35.008645" lon="127.733456"></trkpt>
      <trkpt lat="35.006849" lon="127.732483"></trkpt>
      <trkpt lat="35.006639" lon="127.731979"></trkpt>
      <trkpt lat="35.004236" lon="127.731957"></trkpt>
      <trkpt lat="35.003743" lon="127.731548"></trkpt>
      <trkpt lat="35.002205" lon="127.732087"></trkpt>
      <trkpt lat="35.001068" lon="127.731178"></trkpt>
      <trkpt lat="34.999583" lon="127.731199"></trkpt>
      <trkpt lat="34.998631" lon="127.730334"></trkpt>
      <trkpt lat="34.997369" lon="127.730459"></trkpt>
      <trkpt lat="34.996871" lon="127.730112"></trkpt>
      <trkpt lat="34.996546" lon="127.730412"></trkpt>
      <trkpt lat="34.996703" lon="127.729805"></trkpt>
      <trkpt lat="34.995357" lon="127.729885"></trkpt>
      <trkpt lat="34.995120" lon="127.729425"></trkpt>
      <trkpt lat="34.994483" lon="127.729319"></trkpt>
      <trkpt lat="34.990960" lon="127.731525"></trkpt>
      <trkpt lat="34.987964" lon="127.730968"></trkpt>
      <trkpt lat="34.986731" lon="127.732225"></trkpt>
      <trkpt lat="34.986693" lon="127.733013"></trkpt>
      <trkpt lat="34.985971" lon="127.733641"></trkpt>
      <trkpt lat="34.985743" lon="127.734571"></trkpt>
      <trkpt lat="34.984367" lon="127.735567"></trkpt>
      <trkpt lat="34.983075" lon="127.735937"></trkpt>
      <trkpt lat="34.981635" lon="127.738479"></trkpt>
      <trkpt lat="34.981369" lon="127.738036"></trkpt>
      <trkpt lat="34.979988" lon="127.737660"></trkpt>
      <trkpt lat="34.980426" lon="127.736850"></trkpt>
      <trkpt lat="34.977933" lon="127.738100"></trkpt>
      <trkpt lat="34.976977" lon="127.738105"></trkpt>
      <trkpt lat="34.976324" lon="127.737502"></trkpt>
      <trkpt lat="34.974953" lon="127.737572"></trkpt>
      <trkpt lat="34.974528" lon="127.738010"></trkpt>
      <trkpt lat="34.973263" lon="127.737423"></trkpt>
      <trkpt lat="34.970149" lon="127.736918"></trkpt>
      <trkpt lat="34.968034" lon="127.737432"></trkpt>
      <trkpt lat="34.966737" lon="127.738193"></trkpt>
      <trkpt lat="34.966693" lon="127.739494"></trkpt>
      <trkpt lat="34.965538" lon="127.743741"></trkpt>
      <trkpt lat="34.965878" lon="127.746147"></trkpt>
      <trkpt lat="34.965616" lon="127.748239"></trkpt>
      <trkpt lat="34.967660" lon="127.747838"></trkpt>
      <trkpt lat="34.968054" lon="127.748510"></trkpt>
      <trkpt lat="34.969251" lon="127.748942"></trkpt>
      <trkpt lat="34.969745" lon="127.749822"></trkpt>
      <trkpt lat="34.971199" lon="127.750123"></trkpt>
      <trkpt lat="34.971796" lon="127.751218"></trkpt>
      <trkpt lat="34.972445" lon="127.751341"></trkpt>
      <trkpt lat="34.972562" lon="127.752182"></trkpt>
      <trkpt lat="34.973199" lon="127.752629"></trkpt>
      <trkpt lat="34.972115" lon="127.753038"></trkpt>
      <trkpt lat="34.971840" lon="127.754710"></trkpt>
      <trkpt lat="34.970925" lon="127.756375"></trkpt>
      <trkpt lat="34.971921" lon="127.757979"></trkpt>
      <trkpt lat="34.972828" lon="127.758094"></trkpt>
    </trkseg>
  </trk>
</gpx>
