<?xml version="1.0" encoding="UTF-8"?>
<gpx version="1.1" creator="kr-100-mountains route-harvester"
     xmlns="http://www.topografix.com/GPX/1/1"
     xmlns:k100="https://github.com/jay-jang/kr-100-mountains/ns/1"
     xmlns:xsi="http://www.w3.org/2001/XMLSchema-instance"
     xsi:schemaLocation="http://www.topografix.com/GPX/1/1 http://www.topografix.com/GPX/1/1/gpx.xsd">
  <metadata>
    <name>금남정맥</name>
    <desc>OpenStreetMap에 등록된 도보 경로(route=hiking) 관계를 그대로 내보낸 선형입니다. 실측 GPS 기록이 아닙니다.</desc>
    <time>2026-08-04T05:29:04.902Z</time>
    <link href="https://www.openstreetmap.org/copyright"><text>© OpenStreetMap contributors (ODbL 1.0)</text></link>
    <extensions>
      <k100:provenance>osm-relation</k100:provenance>
      <k100:not_a_recorded_track>true</k100:not_a_recorded_track>
      <k100:osm_type>relation</k100:osm_type>
      <k100:osm_id>19161069</k100:osm_id>
      <k100:osm_name>금남정맥</k100:osm_name>
      <k100:network>nwn</k100:network>
      <k100:source>OpenStreetMap via Overpass API</k100:source>
      <k100:license>ODbL-1.0</k100:license>
      <k100:attribution>© OpenStreetMap contributors</k100:attribution>
      <k100:osm_snapshot>2026-08-04</k100:osm_snapshot>
    </extensions>
  </metadata>
  <trk>
    <name>금남정맥</name>
    <desc>OpenStreetMap에 등록된 도보 경로(route=hiking) 관계를 그대로 내보낸 선형입니다. 실측 GPS 기록이 아닙니다.</desc>
    <trkseg>
      <trkpt lat="35.835086" lon="127.311225"></trkpt>
      <trkpt lat="35.835918" lon="127.310939"></trkpt>
      <trkpt lat="35.837275" lon="127.311198"></trkpt>
      <trkpt lat="35.838096" lon="127.310745"></trkpt>
      <trkpt lat="35.839298" lon="127.311613"></trkpt>
      <trkpt lat="35.839944" lon="127.311679"></trkpt>
      <trkpt lat="35.840767" lon="127.311387"></trkpt>
      <trkpt lat="35.841710" lon="127.311818"></trkpt>
      <trkpt lat="35.841971" lon="127.312194"></trkpt>
      <trkpt lat="35.841994" lon="127.312758"></trkpt>
      <trkpt lat="35.842428" lon="127.313435"></trkpt>
      <trkpt lat="35.842580" lon="127.314237"></trkpt>
      <trkpt lat="35.843103" lon="127.314773"></trkpt>
      <trkpt lat="35.843460" lon="127.315972"></trkpt>
      <trkpt lat="35.844163" lon="127.316247"></trkpt>
      <trkpt lat="35.844962" lon="127.316973"></trkpt>
      <trkpt lat="35.845066" lon="127.317401"></trkpt>
      <trkpt lat="35.845507" lon="127.317743"></trkpt>
      <trkpt lat="35.846167" lon="127.318667"></trkpt>
      <trkpt lat="35.846421" lon="127.319199"></trkpt>
      <trkpt lat="35.846435" lon="127.319752"></trkpt>
      <trkpt lat="35.846960" lon="127.319895"></trkpt>
      <trkpt lat="35.847573" lon="127.320623"></trkpt>
      <trkpt lat="35.847496" lon="127.321299"></trkpt>
      <trkpt lat="35.848117" lon="127.321419"></trkpt>
      <trkpt lat="35.849323" lon="127.321219"></trkpt>
      <trkpt lat="35.849870" lon="127.320838"></trkpt>
      <trkpt lat="35.850633" lon="127.320921"></trkpt>
      <trkpt lat="35.851006" lon="127.321253"></trkpt>
      <trkpt lat="35.851481" lon="127.321385"></trkpt>
      <trkpt lat="35.852666" lon="127.322445"></trkpt>
      <trkpt lat="35.853445" lon="127.323869"></trkpt>
      <trkpt lat="35.855044" lon="127.324977"></trkpt>
      <trkpt lat="35.855874" lon="127.325167"></trkpt>
      <trkpt lat="35.855972" lon="127.325701"></trkpt>
      <trkpt lat="35.855829" lon="127.325900"></trkpt>
      <trkpt lat="35.856534" lon="127.326738"></trkpt>
      <trkpt lat="35.857206" lon="127.326420"></trkpt>
      <trkpt lat="35.857657" lon="127.326621"></trkpt>
      <trkpt lat="35.857782" lon="127.326168"></trkpt>
      <trkpt lat="35.858146" lon="127.325771"></trkpt>
      <trkpt lat="35.857955" lon="127.325342"></trkpt>
      <trkpt lat="35.857718" lon="127.323866"></trkpt>
      <trkpt lat="35.857492" lon="127.323499"></trkpt>
      <trkpt lat="35.857565" lon="127.323365"></trkpt>
      <trkpt lat="35.858079" lon="127.323003"></trkpt>
      <trkpt lat="35.859054" lon="127.322797"></trkpt>
      <trkpt lat="35.859831" lon="127.322828"></trkpt>
      <trkpt lat="35.860641" lon="127.322649"></trkpt>
      <trkpt lat="35.861389" lon="127.322952"></trkpt>
      <trkpt lat="35.861965" lon="127.322013"></trkpt>
      <trkpt lat="35.862805" lon="127.321023"></trkpt>
      <trkpt lat="35.863350" lon="127.319701"></trkpt>
      <trkpt lat="35.864463" lon="127.320495"></trkpt>
      <trkpt lat="35.865956" lon="127.320509"></trkpt>
      <trkpt lat="35.866543" lon="127.320768"></trkpt>
      <trkpt lat="35.867143" lon="127.320669"></trkpt>
      <trkpt lat="35.867467" lon="127.320865"></trkpt>
      <trkpt lat="35.868173" lon="127.320914"></trkpt>
      <trkpt lat="35.868138" lon="127.321430"></trkpt>
      <trkpt lat="35.868897" lon="127.323488"></trkpt>
      <trkpt lat="35.869742" lon="127.323557"></trkpt>
      <trkpt lat="35.871040" lon="127.324530"></trkpt>
      <trkpt lat="35.871968" lon="127.324781"></trkpt>
      <trkpt lat="35.871999" lon="127.325508"></trkpt>
      <trkpt lat="35.872186" lon="127.326018"></trkpt>
      <trkpt lat="35.872299" lon="127.327080"></trkpt>
      <trkpt lat="35.872214" lon="127.328204"></trkpt>
      <trkpt lat="35.872553" lon="127.329315"></trkpt>
      <trkpt lat="35.872636" lon="127.330138"></trkpt>
      <trkpt lat="35.873309" lon="127.331607"></trkpt>
      <trkpt lat="35.873701" lon="127.333040"></trkpt>
      <trkpt lat="35.875526" lon="127.333437"></trkpt>
      <trkpt lat="35.876609" lon="127.332213"></trkpt>
      <trkpt lat="35.877032" lon="127.332176"></trkpt>
      <trkpt lat="35.877700" lon="127.331835"></trkpt>
      <trkpt lat="35.878599" lon="127.332434"></trkpt>
      <trkpt lat="35.879358" lon="127.332551"></trkpt>
      <trkpt lat="35.879675" lon="127.333029"></trkpt>
      <trkpt lat="35.879906" lon="127.333160"></trkpt>
      <trkpt lat="35.882242" lon="127.333340"></trkpt>
      <trkpt lat="35.883050" lon="127.332519"></trkpt>
      <trkpt lat="35.883311" lon="127.331664"></trkpt>
      <trkpt lat="35.884665" lon="127.331082"></trkpt>
      <trkpt lat="35.885117" lon="127.330741"></trkpt>
      <trkpt lat="35.886258" lon="127.332031"></trkpt>
      <trkpt lat="35.886687" lon="127.332168"></trkpt>
      <trkpt lat="35.887279" lon="127.332796"></trkpt>
      <trkpt lat="35.888761" lon="127.332710"></trkpt>
      <trkpt lat="35.889087" lon="127.333005"></trkpt>
      <trkpt lat="35.889550" lon="127.333117"></trkpt>
      <trkpt lat="35.890599" lon="127.332905"></trkpt>
      <trkpt lat="35.890773" lon="127.333053"></trkpt>
      <trkpt lat="35.891334" lon="127.333024"></trkpt>
      <trkpt lat="35.891673" lon="127.332876"></trkpt>
      <trkpt lat="35.893159" lon="127.333083"></trkpt>
      <trkpt lat="35.893549" lon="127.332941"></trkpt>
      <trkpt lat="35.894167" lon="127.333058"></trkpt>
      <trkpt lat="35.894667" lon="127.332766"></trkpt>
      <trkpt lat="35.895395" lon="127.332747"></trkpt>
      <trkpt lat="35.896019" lon="127.332446"></trkpt>
      <trkpt lat="35.896069" lon="127.332181"></trkpt>
      <trkpt lat="35.896947" lon="127.332071"></trkpt>
      <trkpt lat="35.897087" lon="127.331973"></trkpt>
      <trkpt lat="35.896983" lon="127.331776"></trkpt>
      <trkpt lat="35.898117" lon="127.331578"></trkpt>
      <trkpt lat="35.898474" lon="127.332187"></trkpt>
      <trkpt lat="35.900168" lon="127.332468"></trkpt>
      <trkpt lat="35.900301" lon="127.332541"></trkpt>
      <trkpt lat="35.900314" lon="127.332755"></trkpt>
      <trkpt lat="35.900929" lon="127.333225"></trkpt>
      <trkpt lat="35.903745" lon="127.332975"></trkpt>
      <trkpt lat="35.905026" lon="127.333177"></trkpt>
      <trkpt lat="35.905785" lon="127.332686"></trkpt>
      <trkpt lat="35.906384" lon="127.332107"></trkpt>
      <trkpt lat="35.906520" lon="127.331824"></trkpt>
      <trkpt lat="35.907347" lon="127.331700"></trkpt>
      <trkpt lat="35.907919" lon="127.332555"></trkpt>
      <trkpt lat="35.907874" lon="127.333414"></trkpt>
      <trkpt lat="35.907981" lon="127.333532"></trkpt>
      <trkpt lat="35.908051" lon="127.334335"></trkpt>
      <trkpt lat="35.908957" lon="127.336205"></trkpt>
      <trkpt lat="35.909039" lon="127.338197"></trkpt>
      <trkpt lat="35.909557" lon="127.339426"></trkpt>
      <trkpt lat="35.909382" lon="127.340354"></trkpt>
      <trkpt lat="35.910399" lon="127.341883"></trkpt>
      <trkpt lat="35.910708" lon="127.342701"></trkpt>
      <trkpt lat="35.911490" lon="127.343724"></trkpt>
      <trkpt lat="35.911636" lon="127.344258"></trkpt>
      <trkpt lat="35.912360" lon="127.345728"></trkpt>
      <trkpt lat="35.912989" lon="127.346306"></trkpt>
      <trkpt lat="35.913873" lon="127.347459"></trkpt>
      <trkpt lat="35.913967" lon="127.347896"></trkpt>
      <trkpt lat="35.913610" lon="127.348682"></trkpt>
      <trkpt lat="35.913519" lon="127.349323"></trkpt>
      <trkpt lat="35.913730" lon="127.349819"></trkpt>
      <trkpt lat="35.913584" lon="127.350160"></trkpt>
      <trkpt lat="35.913602" lon="127.350442"></trkpt>
      <trkpt lat="35.914069" lon="127.350849"></trkpt>
      <trkpt lat="35.913804" lon="127.351490"></trkpt>
      <trkpt lat="35.913884" lon="127.351826"></trkpt>
      <trkpt lat="35.913781" lon="127.352309"></trkpt>
      <trkpt lat="35.913446" lon="127.352616"></trkpt>
      <trkpt lat="35.913538" lon="127.352854"></trkpt>
      <trkpt lat="35.914170" lon="127.352250"></trkpt>
      <trkpt lat="35.915100" lon="127.352186"></trkpt>
      <trkpt lat="35.915973" lon="127.351826"></trkpt>
      <trkpt lat="35.916004" lon="127.351592"></trkpt>
      <trkpt lat="35.917529" lon="127.350643"></trkpt>
      <trkpt lat="35.917982" lon="127.349598"></trkpt>
      <trkpt lat="35.918477" lon="127.349574"></trkpt>
      <trkpt lat="35.919066" lon="127.349750"></trkpt>
      <trkpt lat="35.919542" lon="127.349689"></trkpt>
      <trkpt lat="35.919913" lon="127.349831"></trkpt>
      <trkpt lat="35.921037" lon="127.349827"></trkpt>
      <trkpt lat="35.921397" lon="127.349704"></trkpt>
      <trkpt lat="35.921731" lon="127.349831"></trkpt>
      <trkpt lat="35.921891" lon="127.349708"></trkpt>
      <trkpt lat="35.923085" lon="127.349819"></trkpt>
      <trkpt lat="35.923434" lon="127.349612"></trkpt>
      <trkpt lat="35.924187" lon="127.348775"></trkpt>
      <trkpt lat="35.924656" lon="127.348483"></trkpt>
      <trkpt lat="35.925026" lon="127.348496"></trkpt>
      <trkpt lat="35.925592" lon="127.347901"></trkpt>
      <trkpt lat="35.926051" lon="127.347732"></trkpt>
      <trkpt lat="35.927102" lon="127.347814"></trkpt>
      <trkpt lat="35.927713" lon="127.349077"></trkpt>
      <trkpt lat="35.927771" lon="127.349413"></trkpt>
      <trkpt lat="35.928021" lon="127.349726"></trkpt>
      <trkpt lat="35.928196" lon="127.349466"></trkpt>
      <trkpt lat="35.928984" lon="127.349444"></trkpt>
      <trkpt lat="35.930071" lon="127.349067"></trkpt>
      <trkpt lat="35.929949" lon="127.348781"></trkpt>
      <trkpt lat="35.930068" lon="127.348030"></trkpt>
      <trkpt lat="35.929986" lon="127.347718"></trkpt>
      <trkpt lat="35.930380" lon="127.348002"></trkpt>
      <trkpt lat="35.930381" lon="127.348631"></trkpt>
      <trkpt lat="35.931229" lon="127.349258"></trkpt>
      <trkpt lat="35.932582" lon="127.349357"></trkpt>
      <trkpt lat="35.933558" lon="127.348999"></trkpt>
      <trkpt lat="35.934114" lon="127.349696"></trkpt>
      <trkpt lat="35.935049" lon="127.350007"></trkpt>
      <trkpt lat="35.935628" lon="127.349919"></trkpt>
      <trkpt lat="35.935772" lon="127.349760"></trkpt>
      <trkpt lat="35.936105" lon="127.349779"></trkpt>
      <trkpt lat="35.937511" lon="127.349079"></trkpt>
      <trkpt lat="35.937776" lon="127.348129"></trkpt>
      <trkpt lat="35.939706" lon="127.347040"></trkpt>
      <trkpt lat="35.940114" lon="127.346343"></trkpt>
      <trkpt lat="35.940996" lon="127.346217"></trkpt>
      <trkpt lat="35.941321" lon="127.345843"></trkpt>
      <trkpt lat="35.941953" lon="127.345731"></trkpt>
      <trkpt lat="35.943270" lon="127.346020"></trkpt>
      <trkpt lat="35.943988" lon="127.346948"></trkpt>
      <trkpt lat="35.944251" lon="127.347924"></trkpt>
      <trkpt lat="35.944625" lon="127.348438"></trkpt>
      <trkpt lat="35.945231" lon="127.348287"></trkpt>
      <trkpt lat="35.946076" lon="127.348624"></trkpt>
      <trkpt lat="35.946285" lon="127.348867"></trkpt>
      <trkpt lat="35.946583" lon="127.348786"></trkpt>
      <trkpt lat="35.947395" lon="127.349094"></trkpt>
      <trkpt lat="35.948051" lon="127.350216"></trkpt>
      <trkpt lat="35.949261" lon="127.351055"></trkpt>
      <trkpt lat="35.950948" lon="127.350967"></trkpt>
      <trkpt lat="35.951365" lon="127.350473"></trkpt>
      <trkpt lat="35.953556" lon="127.349178"></trkpt>
      <trkpt lat="35.954140" lon="127.348442"></trkpt>
      <trkpt lat="35.955672" lon="127.347797"></trkpt>
      <trkpt lat="35.955980" lon="127.347318"></trkpt>
      <trkpt lat="35.956365" lon="127.347142"></trkpt>
      <trkpt lat="35.956957" lon="127.346604"></trkpt>
      <trkpt lat="35.957238" lon="127.345906"></trkpt>
      <trkpt lat="35.958156" lon="127.345464"></trkpt>
      <trkpt lat="35.958401" lon="127.345212"></trkpt>
      <trkpt lat="35.958384" lon="127.344903"></trkpt>
      <trkpt lat="35.959144" lon="127.344572"></trkpt>
      <trkpt lat="35.959229" lon="127.344380"></trkpt>
      <trkpt lat="35.959775" lon="127.344098"></trkpt>
      <trkpt lat="35.960498" lon="127.344367"></trkpt>
      <trkpt lat="35.960842" lon="127.344823"></trkpt>
      <trkpt lat="35.961088" lon="127.344693"></trkpt>
      <trkpt lat="35.961558" lon="127.345108"></trkpt>
      <trkpt lat="35.962112" lon="127.345068"></trkpt>
      <trkpt lat="35.963366" lon="127.345846"></trkpt>
      <trkpt lat="35.964162" lon="127.345712"></trkpt>
      <trkpt lat="35.966102" lon="127.344689"></trkpt>
      <trkpt lat="35.966449" lon="127.344793"></trkpt>
      <trkpt lat="35.966942" lon="127.345214"></trkpt>
      <trkpt lat="35.967537" lon="127.345074"></trkpt>
      <trkpt lat="35.967853" lon="127.345313"></trkpt>
      <trkpt lat="35.969479" lon="127.345248"></trkpt>
      <trkpt lat="35.969910" lon="127.344846"></trkpt>
      <trkpt lat="35.970256" lon="127.344175"></trkpt>
      <trkpt lat="35.970333" lon="127.343669"></trkpt>
      <trkpt lat="35.970722" lon="127.343235"></trkpt>
      <trkpt lat="35.971444" lon="127.342977"></trkpt>
      <trkpt lat="35.972333" lon="127.341668"></trkpt>
      <trkpt lat="35.972847" lon="127.341856"></trkpt>
      <trkpt lat="35.973446" lon="127.341864"></trkpt>
      <trkpt lat="35.974248" lon="127.341643"></trkpt>
      <trkpt lat="35.974311" lon="127.341491"></trkpt>
      <trkpt lat="35.975082" lon="127.342215"></trkpt>
      <trkpt lat="35.975399" lon="127.342309"></trkpt>
      <trkpt lat="35.975758" lon="127.342953"></trkpt>
      <trkpt lat="35.977014" lon="127.342956"></trkpt>
      <trkpt lat="35.977438" lon="127.343240"></trkpt>
      <trkpt lat="35.977839" lon="127.343305"></trkpt>
      <trkpt lat="35.978718" lon="127.342907"></trkpt>
      <trkpt lat="35.980036" lon="127.343240"></trkpt>
      <trkpt lat="35.981071" lon="127.343997"></trkpt>
      <trkpt lat="35.981288" lon="127.344490"></trkpt>
      <trkpt lat="35.981186" lon="127.344973"></trkpt>
      <trkpt lat="35.981676" lon="127.345717"></trkpt>
      <trkpt lat="35.981734" lon="127.346386"></trkpt>
      <trkpt lat="35.982035" lon="127.346802"></trkpt>
      <trkpt lat="35.982394" lon="127.346960"></trkpt>
      <trkpt lat="35.982822" lon="127.347636"></trkpt>
      <trkpt lat="35.982890" lon="127.348937"></trkpt>
      <trkpt lat="35.983782" lon="127.350629"></trkpt>
      <trkpt lat="35.984268" lon="127.350833"></trkpt>
      <trkpt lat="35.984425" lon="127.351096"></trkpt>
      <trkpt lat="35.985212" lon="127.351727"></trkpt>
      <trkpt lat="35.985389" lon="127.352290"></trkpt>
      <trkpt lat="35.986492" lon="127.352981"></trkpt>
      <trkpt lat="35.987068" lon="127.353125"></trkpt>
      <trkpt lat="35.989039" lon="127.353100"></trkpt>
      <trkpt lat="35.988624" lon="127.355811"></trkpt>
      <trkpt lat="35.988876" lon="127.356525"></trkpt>
      <trkpt lat="35.989156" lon="127.356611"></trkpt>
      <trkpt lat="35.989474" lon="127.356969"></trkpt>
      <trkpt lat="35.989593" lon="127.357280"></trkpt>
      <trkpt lat="35.989429" lon="127.358467"></trkpt>
      <trkpt lat="35.989720" lon="127.358854"></trkpt>
      <trkpt lat="35.989802" lon="127.359240"></trkpt>
      <trkpt lat="35.990128" lon="127.359800"></trkpt>
      <trkpt lat="35.990326" lon="127.359940"></trkpt>
      <trkpt lat="35.990332" lon="127.361042"></trkpt>
      <trkpt lat="35.990445" lon="127.361453"></trkpt>
      <trkpt lat="35.990186" lon="127.362624"></trkpt>
      <trkpt lat="35.990142" lon="127.363430"></trkpt>
      <trkpt lat="35.990396" lon="127.364383"></trkpt>
      <trkpt lat="35.990349" lon="127.364812"></trkpt>
      <trkpt lat="35.990482" lon="127.364959"></trkpt>
      <trkpt lat="35.991028" lon="127.364883"></trkpt>
      <trkpt lat="35.991669" lon="127.364119"></trkpt>
      <trkpt lat="35.992062" lon="127.363888"></trkpt>
      <trkpt lat="35.992575" lon="127.363805"></trkpt>
      <trkpt lat="35.993427" lon="127.363832"></trkpt>
      <trkpt lat="35.993779" lon="127.363976"></trkpt>
      <trkpt lat="35.994551" lon="127.363929"></trkpt>
      <trkpt lat="35.994807" lon="127.363783"></trkpt>
      <trkpt lat="35.995061" lon="127.364309"></trkpt>
      <trkpt lat="35.995336" lon="127.364429"></trkpt>
      <trkpt lat="35.996399" lon="127.364362"></trkpt>
      <trkpt lat="35.996601" lon="127.364794"></trkpt>
      <trkpt lat="35.998156" lon="127.364401"></trkpt>
      <trkpt lat="35.998611" lon="127.364493"></trkpt>
      <trkpt lat="35.998656" lon="127.364360"></trkpt>
      <trkpt lat="35.999041" lon="127.364640"></trkpt>
      <trkpt lat="36.000056" lon="127.364823"></trkpt>
      <trkpt lat="36.000687" lon="127.364225"></trkpt>
      <trkpt lat="36.001205" lon="127.363999"></trkpt>
      <trkpt lat="36.001611" lon="127.363621"></trkpt>
      <trkpt lat="36.002254" lon="127.363462"></trkpt>
      <trkpt lat="36.002660" lon="127.363141"></trkpt>
      <trkpt lat="36.003682" lon="127.362746"></trkpt>
      <trkpt lat="36.004742" lon="127.362703"></trkpt>
      <trkpt lat="36.005213" lon="127.362136"></trkpt>
      <trkpt lat="36.005855" lon="127.362232"></trkpt>
      <trkpt lat="36.006246" lon="127.362124"></trkpt>
      <trkpt lat="36.006533" lon="127.362292"></trkpt>
      <trkpt lat="36.006976" lon="127.362898"></trkpt>
      <trkpt lat="36.007149" lon="127.362912"></trkpt>
      <trkpt lat="36.007430" lon="127.363365"></trkpt>
      <trkpt lat="36.007657" lon="127.363404"></trkpt>
      <trkpt lat="36.008581" lon="127.362853"></trkpt>
      <trkpt lat="36.008965" lon="127.362769"></trkpt>
      <trkpt lat="36.009223" lon="127.362341"></trkpt>
      <trkpt lat="36.011282" lon="127.362293"></trkpt>
      <trkpt lat="36.011430" lon="127.362426"></trkpt>
      <trkpt lat="36.011496" lon="127.362942"></trkpt>
      <trkpt lat="36.011855" lon="127.363614"></trkpt>
      <trkpt lat="36.012526" lon="127.363962"></trkpt>
      <trkpt lat="36.013167" lon="127.364012"></trkpt>
      <trkpt lat="36.013648" lon="127.364275"></trkpt>
      <trkpt lat="36.013999" lon="127.364255"></trkpt>
      <trkpt lat="36.014498" lon="127.364474"></trkpt>
      <trkpt lat="36.014641" lon="127.364969"></trkpt>
      <trkpt lat="36.014987" lon="127.365481"></trkpt>
      <trkpt lat="36.015057" lon="127.365910"></trkpt>
      <trkpt lat="36.015234" lon="127.366021"></trkpt>
      <trkpt lat="36.015756" lon="127.366068"></trkpt>
      <trkpt lat="36.016460" lon="127.366374"></trkpt>
      <trkpt lat="36.017025" lon="127.366272"></trkpt>
      <trkpt lat="36.017787" lon="127.366504"></trkpt>
      <trkpt lat="36.018860" lon="127.367588"></trkpt>
      <trkpt lat="36.019466" lon="127.368547"></trkpt>
      <trkpt lat="36.020291" lon="127.369159"></trkpt>
      <trkpt lat="36.020831" lon="127.369268"></trkpt>
      <trkpt lat="36.020887" lon="127.369762"></trkpt>
      <trkpt lat="36.021690" lon="127.371724"></trkpt>
      <trkpt lat="36.021081" lon="127.373042"></trkpt>
      <trkpt lat="36.020553" lon="127.373549"></trkpt>
      <trkpt lat="36.020083" lon="127.373785"></trkpt>
      <trkpt lat="36.020236" lon="127.374379"></trkpt>
      <trkpt lat="36.020905" lon="127.375224"></trkpt>
      <trkpt lat="36.021284" lon="127.376437"></trkpt>
      <trkpt lat="36.022023" lon="127.377276"></trkpt>
      <trkpt lat="36.022729" lon="127.377839"></trkpt>
      <trkpt lat="36.023135" lon="127.377847"></trkpt>
      <trkpt lat="36.023787" lon="127.377601"></trkpt>
      <trkpt lat="36.024538" lon="127.377862"></trkpt>
      <trkpt lat="36.026138" lon="127.377860"></trkpt>
      <trkpt lat="36.028725" lon="127.378105"></trkpt>
      <trkpt lat="36.029002" lon="127.378605"></trkpt>
      <trkpt lat="36.029311" lon="127.378694"></trkpt>
      <trkpt lat="36.029967" lon="127.379230"></trkpt>
      <trkpt lat="36.030451" lon="127.379257"></trkpt>
      <trkpt lat="36.030730" lon="127.379750"></trkpt>
      <trkpt lat="36.031259" lon="127.379863"></trkpt>
      <trkpt lat="36.033056" lon="127.381132"></trkpt>
      <trkpt lat="36.033475" lon="127.381899"></trkpt>
      <trkpt lat="36.033785" lon="127.383233"></trkpt>
      <trkpt lat="36.034080" lon="127.383334"></trkpt>
      <trkpt lat="36.034308" lon="127.383621"></trkpt>
      <trkpt lat="36.034800" lon="127.384748"></trkpt>
      <trkpt lat="36.035084" lon="127.385755"></trkpt>
      <trkpt lat="36.036319" lon="127.386345"></trkpt>
      <trkpt lat="36.036868" lon="127.387058"></trkpt>
      <trkpt lat="36.037107" lon="127.387598"></trkpt>
      <trkpt lat="36.037596" lon="127.387949"></trkpt>
      <trkpt lat="36.039229" lon="127.388115"></trkpt>
      <trkpt lat="36.040278" lon="127.388917"></trkpt>
      <trkpt lat="36.040772" lon="127.388883"></trkpt>
      <trkpt lat="36.041380" lon="127.388606"></trkpt>
      <trkpt lat="36.042448" lon="127.388825"></trkpt>
      <trkpt lat="36.043532" lon="127.388733"></trkpt>
      <trkpt lat="36.043683" lon="127.388840"></trkpt>
      <trkpt lat="36.043818" lon="127.389518"></trkpt>
      <trkpt lat="36.044085" lon="127.390075"></trkpt>
      <trkpt lat="36.045148" lon="127.390604"></trkpt>
      <trkpt lat="36.045343" lon="127.391071"></trkpt>
      <trkpt lat="36.045569" lon="127.391227"></trkpt>
      <trkpt lat="36.045412" lon="127.391351"></trkpt>
      <trkpt lat="36.045791" lon="127.391825"></trkpt>
      <trkpt lat="36.046118" lon="127.391972"></trkpt>
      <trkpt lat="36.047419" lon="127.392039"></trkpt>
      <trkpt lat="36.048145" lon="127.392624"></trkpt>
      <trkpt lat="36.048485" lon="127.392653"></trkpt>
      <trkpt lat="36.050372" lon="127.391621"></trkpt>
      <trkpt lat="36.050864" lon="127.391743"></trkpt>
      <trkpt lat="36.051178" lon="127.391686"></trkpt>
      <trkpt lat="36.051892" lon="127.391243"></trkpt>
      <trkpt lat="36.052441" lon="127.391483"></trkpt>
      <trkpt lat="36.053139" lon="127.391201"></trkpt>
      <trkpt lat="36.054090" lon="127.390466"></trkpt>
      <trkpt lat="36.054392" lon="127.389945"></trkpt>
      <trkpt lat="36.054733" lon="127.389750"></trkpt>
      <trkpt lat="36.055139" lon="127.389215"></trkpt>
      <trkpt lat="36.056144" lon="127.388532"></trkpt>
      <trkpt lat="36.057471" lon="127.388142"></trkpt>
      <trkpt lat="36.057766" lon="127.388775"></trkpt>
      <trkpt lat="36.057894" lon="127.390131"></trkpt>
      <trkpt lat="36.057829" lon="127.390911"></trkpt>
      <trkpt lat="36.058005" lon="127.391757"></trkpt>
      <trkpt lat="36.058135" lon="127.391901"></trkpt>
      <trkpt lat="36.057998" lon="127.392279"></trkpt>
      <trkpt lat="36.058866" lon="127.393263"></trkpt>
      <trkpt lat="36.058965" lon="127.393633"></trkpt>
      <trkpt lat="36.058867" lon="127.394095"></trkpt>
      <trkpt lat="36.059093" lon="127.395049"></trkpt>
      <trkpt lat="36.059703" lon="127.395607"></trkpt>
      <trkpt lat="36.060106" lon="127.395677"></trkpt>
      <trkpt lat="36.060255" lon="127.395940"></trkpt>
      <trkpt lat="36.060634" lon="127.396182"></trkpt>
      <trkpt lat="36.060900" lon="127.396171"></trkpt>
      <trkpt lat="36.061077" lon="127.396348"></trkpt>
      <trkpt lat="36.061395" lon="127.396265"></trkpt>
      <trkpt lat="36.062241" lon="127.395658"></trkpt>
      <trkpt lat="36.062643" lon="127.395658"></trkpt>
      <trkpt lat="36.062809" lon="127.395374"></trkpt>
      <trkpt lat="36.063061" lon="127.395480"></trkpt>
      <trkpt lat="36.063891" lon="127.395194"></trkpt>
      <trkpt lat="36.064411" lon="127.394674"></trkpt>
      <trkpt lat="36.065658" lon="127.394682"></trkpt>
      <trkpt lat="36.065906" lon="127.394560"></trkpt>
      <trkpt lat="36.066004" lon="127.394237"></trkpt>
      <trkpt lat="36.066548" lon="127.393581"></trkpt>
      <trkpt lat="36.066842" lon="127.393465"></trkpt>
      <trkpt lat="36.067251" lon="127.393442"></trkpt>
      <trkpt lat="36.067790" lon="127.393710"></trkpt>
      <trkpt lat="36.068297" lon="127.393445"></trkpt>
      <trkpt lat="36.068969" lon="127.393399"></trkpt>
      <trkpt lat="36.070186" lon="127.393053"></trkpt>
      <trkpt lat="36.070770" lon="127.393572"></trkpt>
      <trkpt lat="36.071100" lon="127.394275"></trkpt>
      <trkpt lat="36.071480" lon="127.394498"></trkpt>
      <trkpt lat="36.072490" lon="127.395655"></trkpt>
      <trkpt lat="36.072982" lon="127.396031"></trkpt>
      <trkpt lat="36.073000" lon="127.397246"></trkpt>
      <trkpt lat="36.072722" lon="127.398117"></trkpt>
      <trkpt lat="36.072994" lon="127.399167"></trkpt>
      <trkpt lat="36.073135" lon="127.399232"></trkpt>
      <trkpt lat="36.074038" lon="127.398817"></trkpt>
      <trkpt lat="36.076386" lon="127.398528"></trkpt>
      <trkpt lat="36.077224" lon="127.398580"></trkpt>
      <trkpt lat="36.077755" lon="127.398766"></trkpt>
      <trkpt lat="36.078438" lon="127.398670"></trkpt>
      <trkpt lat="36.078990" lon="127.399081"></trkpt>
      <trkpt lat="36.079907" lon="127.399341"></trkpt>
      <trkpt lat="36.080749" lon="127.399380"></trkpt>
      <trkpt lat="36.081909" lon="127.400086"></trkpt>
      <trkpt lat="36.082409" lon="127.400650"></trkpt>
      <trkpt lat="36.082552" lon="127.401509"></trkpt>
      <trkpt lat="36.083005" lon="127.401603"></trkpt>
      <trkpt lat="36.083557" lon="127.402079"></trkpt>
      <trkpt lat="36.083927" lon="127.402126"></trkpt>
      <trkpt lat="36.084302" lon="127.401987"></trkpt>
      <trkpt lat="36.085323" lon="127.402434"></trkpt>
      <trkpt lat="36.086040" lon="127.402985"></trkpt>
      <trkpt lat="36.086885" lon="127.403396"></trkpt>
      <trkpt lat="36.088310" lon="127.404518"></trkpt>
      <trkpt lat="36.088932" lon="127.404269"></trkpt>
      <trkpt lat="36.089199" lon="127.403930"></trkpt>
      <trkpt lat="36.089443" lon="127.403248"></trkpt>
      <trkpt lat="36.090523" lon="127.402331"></trkpt>
      <trkpt lat="36.090664" lon="127.402007"></trkpt>
      <trkpt lat="36.091697" lon="127.402324"></trkpt>
      <trkpt lat="36.093182" lon="127.403866"></trkpt>
      <trkpt lat="36.094119" lon="127.403877"></trkpt>
      <trkpt lat="36.094667" lon="127.404118"></trkpt>
      <trkpt lat="36.094839" lon="127.404065"></trkpt>
      <trkpt lat="36.096540" lon="127.402215"></trkpt>
      <trkpt lat="36.097381" lon="127.400431"></trkpt>
      <trkpt lat="36.098536" lon="127.399284"></trkpt>
      <trkpt lat="36.098943" lon="127.398477"></trkpt>
      <trkpt lat="36.099393" lon="127.398060"></trkpt>
      <trkpt lat="36.099935" lon="127.396987"></trkpt>
      <trkpt lat="36.100245" lon="127.396764"></trkpt>
      <trkpt lat="36.100404" lon="127.396184"></trkpt>
      <trkpt lat="36.101014" lon="127.396094"></trkpt>
      <trkpt lat="36.101761" lon="127.396388"></trkpt>
      <trkpt lat="36.102920" lon="127.396450"></trkpt>
      <trkpt lat="36.103729" lon="127.396812"></trkpt>
      <trkpt lat="36.104245" lon="127.397258"></trkpt>
      <trkpt lat="36.105088" lon="127.397195"></trkpt>
      <trkpt lat="36.104978" lon="127.396666"></trkpt>
      <trkpt lat="36.105055" lon="127.396511"></trkpt>
      <trkpt lat="36.104871" lon="127.396329"></trkpt>
      <trkpt lat="36.104763" lon="127.395550"></trkpt>
      <trkpt lat="36.104856" lon="127.394781"></trkpt>
      <trkpt lat="36.105056" lon="127.394208"></trkpt>
      <trkpt lat="36.105596" lon="127.393519"></trkpt>
      <trkpt lat="36.105990" lon="127.391512"></trkpt>
      <trkpt lat="36.105636" lon="127.390708"></trkpt>
      <trkpt lat="36.105102" lon="127.390021"></trkpt>
      <trkpt lat="36.104747" lon="127.389720"></trkpt>
      <trkpt lat="36.104195" lon="127.389598"></trkpt>
      <trkpt lat="36.103811" lon="127.389182"></trkpt>
      <trkpt lat="36.104069" lon="127.388494"></trkpt>
      <trkpt lat="36.104192" lon="127.387413"></trkpt>
      <trkpt lat="36.104080" lon="127.387087"></trkpt>
      <trkpt lat="36.104132" lon="127.386834"></trkpt>
      <trkpt lat="36.104795" lon="127.385681"></trkpt>
      <trkpt lat="36.105006" lon="127.385038"></trkpt>
      <trkpt lat="36.104916" lon="127.384524"></trkpt>
      <trkpt lat="36.104960" lon="127.383175"></trkpt>
      <trkpt lat="36.105172" lon="127.381373"></trkpt>
      <trkpt lat="36.105183" lon="127.380829"></trkpt>
      <trkpt lat="36.104952" lon="127.379829"></trkpt>
      <trkpt lat="36.104965" lon="127.378532"></trkpt>
      <trkpt lat="36.104439" lon="127.376972"></trkpt>
      <trkpt lat="36.104381" lon="127.376343"></trkpt>
      <trkpt lat="36.104554" lon="127.376071"></trkpt>
      <trkpt lat="36.104636" lon="127.375425"></trkpt>
      <trkpt lat="36.105009" lon="127.375243"></trkpt>
      <trkpt lat="36.105027" lon="127.374799"></trkpt>
      <trkpt lat="36.105244" lon="127.374262"></trkpt>
      <trkpt lat="36.105784" lon="127.373989"></trkpt>
      <trkpt lat="36.106948" lon="127.372543"></trkpt>
      <trkpt lat="36.106973" lon="127.372743"></trkpt>
      <trkpt lat="36.107163" lon="127.372672"></trkpt>
      <trkpt lat="36.107333" lon="127.372342"></trkpt>
      <trkpt lat="36.108065" lon="127.371712"></trkpt>
      <trkpt lat="36.108520" lon="127.371603"></trkpt>
      <trkpt lat="36.109207" lon="127.369945"></trkpt>
      <trkpt lat="36.109723" lon="127.369277"></trkpt>
      <trkpt lat="36.110486" lon="127.368989"></trkpt>
      <trkpt lat="36.110889" lon="127.368987"></trkpt>
      <trkpt lat="36.111311" lon="127.368087"></trkpt>
      <trkpt lat="36.112025" lon="127.367563"></trkpt>
      <trkpt lat="36.112310" lon="127.366738"></trkpt>
      <trkpt lat="36.112555" lon="127.364747"></trkpt>
      <trkpt lat="36.113007" lon="127.364067"></trkpt>
      <trkpt lat="36.113371" lon="127.363901"></trkpt>
      <trkpt lat="36.113799" lon="127.363471"></trkpt>
      <trkpt lat="36.113842" lon="127.362796"></trkpt>
      <trkpt lat="36.114423" lon="127.361753"></trkpt>
      <trkpt lat="36.114339" lon="127.361135"></trkpt>
      <trkpt lat="36.115155" lon="127.359693"></trkpt>
      <trkpt lat="36.115063" lon="127.359025"></trkpt>
      <trkpt lat="36.115198" lon="127.358742"></trkpt>
      <trkpt lat="36.115717" lon="127.358271"></trkpt>
      <trkpt lat="36.115846" lon="127.357235"></trkpt>
      <trkpt lat="36.115621" lon="127.356235"></trkpt>
      <trkpt lat="36.114037" lon="127.354511"></trkpt>
      <trkpt lat="36.113409" lon="127.353551"></trkpt>
      <trkpt lat="36.113456" lon="127.353283"></trkpt>
      <trkpt lat="36.113888" lon="127.352527"></trkpt>
      <trkpt lat="36.114334" lon="127.352094"></trkpt>
      <trkpt lat="36.114753" lon="127.351905"></trkpt>
      <trkpt lat="36.115211" lon="127.351377"></trkpt>
      <trkpt lat="36.115729" lon="127.351295"></trkpt>
      <trkpt lat="36.116326" lon="127.350867"></trkpt>
      <trkpt lat="36.116504" lon="127.348548"></trkpt>
      <trkpt lat="36.116897" lon="127.348170"></trkpt>
      <trkpt lat="36.117882" lon="127.346707"></trkpt>
      <trkpt lat="36.117737" lon="127.345896"></trkpt>
      <trkpt lat="36.117909" lon="127.345324"></trkpt>
      <trkpt lat="36.117961" lon="127.344531"></trkpt>
      <trkpt lat="36.118513" lon="127.344003"></trkpt>
      <trkpt lat="36.119946" lon="127.343661"></trkpt>
      <trkpt lat="36.120105" lon="127.343454"></trkpt>
      <trkpt lat="36.120397" lon="127.343359"></trkpt>
      <trkpt lat="36.120788" lon="127.342787"></trkpt>
      <trkpt lat="36.121241" lon="127.342425"></trkpt>
      <trkpt lat="36.122347" lon="127.342196"></trkpt>
      <trkpt lat="36.122558" lon="127.342437"></trkpt>
      <trkpt lat="36.122715" lon="127.342384"></trkpt>
      <trkpt lat="36.124257" lon="127.340832"></trkpt>
      <trkpt lat="36.124437" lon="127.340731"></trkpt>
      <trkpt lat="36.125000" lon="127.340795"></trkpt>
      <trkpt lat="36.125307" lon="127.340303"></trkpt>
      <trkpt lat="36.125726" lon="127.340304"></trkpt>
      <trkpt lat="36.125838" lon="127.340882"></trkpt>
      <trkpt lat="36.126209" lon="127.340696"></trkpt>
      <trkpt lat="36.126382" lon="127.340818"></trkpt>
      <trkpt lat="36.127076" lon="127.340142"></trkpt>
      <trkpt lat="36.127629" lon="127.339861"></trkpt>
      <trkpt lat="36.127904" lon="127.340067"></trkpt>
      <trkpt lat="36.128334" lon="127.339971"></trkpt>
      <trkpt lat="36.128763" lon="127.340140"></trkpt>
      <trkpt lat="36.128993" lon="127.340086"></trkpt>
      <trkpt lat="36.129687" lon="127.339516"></trkpt>
      <trkpt lat="36.130048" lon="127.338949"></trkpt>
      <trkpt lat="36.130174" lon="127.338487"></trkpt>
      <trkpt lat="36.130458" lon="127.338502"></trkpt>
      <trkpt lat="36.130555" lon="127.338348"></trkpt>
      <trkpt lat="36.130545" lon="127.337224"></trkpt>
      <trkpt lat="36.130257" lon="127.336716"></trkpt>
      <trkpt lat="36.130251" lon="127.336337"></trkpt>
      <trkpt lat="36.129577" lon="127.335415"></trkpt>
      <trkpt lat="36.129638" lon="127.333814"></trkpt>
      <trkpt lat="36.129900" lon="127.333021"></trkpt>
      <trkpt lat="36.129745" lon="127.332685"></trkpt>
      <trkpt lat="36.129816" lon="127.332302"></trkpt>
      <trkpt lat="36.129553" lon="127.331475"></trkpt>
      <trkpt lat="36.129531" lon="127.330699"></trkpt>
      <trkpt lat="36.130115" lon="127.329501"></trkpt>
      <trkpt lat="36.130128" lon="127.328823"></trkpt>
      <trkpt lat="36.130832" lon="127.327231"></trkpt>
      <trkpt lat="36.130745" lon="127.326373"></trkpt>
      <trkpt lat="36.130581" lon="127.325917"></trkpt>
      <trkpt lat="36.130735" lon="127.325056"></trkpt>
      <trkpt lat="36.130595" lon="127.324122"></trkpt>
      <trkpt lat="36.130599" lon="127.322766"></trkpt>
      <trkpt lat="36.130207" lon="127.322843"></trkpt>
      <trkpt lat="36.129895" lon="127.323174"></trkpt>
      <trkpt lat="36.128934" lon="127.323236"></trkpt>
      <trkpt lat="36.128778" lon="127.323130"></trkpt>
      <trkpt lat="36.128144" lon="127.323364"></trkpt>
      <trkpt lat="36.127537" lon="127.323050"></trkpt>
      <trkpt lat="36.127066" lon="127.323089"></trkpt>
      <trkpt lat="36.126962" lon="127.322946"></trkpt>
      <trkpt lat="36.127008" lon="127.322601"></trkpt>
      <trkpt lat="36.126852" lon="127.322441"></trkpt>
      <trkpt lat="36.126357" lon="127.322588"></trkpt>
      <trkpt lat="36.125627" lon="127.322290"></trkpt>
      <trkpt lat="36.125306" lon="127.321809"></trkpt>
      <trkpt lat="36.125274" lon="127.320865"></trkpt>
      <trkpt lat="36.124528" lon="127.319993"></trkpt>
      <trkpt lat="36.124370" lon="127.319455"></trkpt>
      <trkpt lat="36.124081" lon="127.319327"></trkpt>
      <trkpt lat="36.124025" lon="127.318890"></trkpt>
      <trkpt lat="36.123990" lon="127.319102"></trkpt>
      <trkpt lat="36.123683" lon="127.319262"></trkpt>
      <trkpt lat="36.123245" lon="127.318887"></trkpt>
      <trkpt lat="36.122543" lon="127.318841"></trkpt>
      <trkpt lat="36.122436" lon="127.318617"></trkpt>
      <trkpt lat="36.122202" lon="127.318526"></trkpt>
      <trkpt lat="36.121936" lon="127.318135"></trkpt>
      <trkpt lat="36.121940" lon="127.317948"></trkpt>
      <trkpt lat="36.121676" lon="127.317677"></trkpt>
      <trkpt lat="36.120713" lon="127.317828"></trkpt>
      <trkpt lat="36.120324" lon="127.317600"></trkpt>
      <trkpt lat="36.119691" lon="127.316937"></trkpt>
      <trkpt lat="36.119524" lon="127.316246"></trkpt>
      <trkpt lat="36.119143" lon="127.315460"></trkpt>
      <trkpt lat="36.118682" lon="127.314668"></trkpt>
      <trkpt lat="36.118457" lon="127.314516"></trkpt>
      <trkpt lat="36.118999" lon="127.314181"></trkpt>
      <trkpt lat="36.119109" lon="127.313576"></trkpt>
      <trkpt lat="36.119614" lon="127.312989"></trkpt>
      <trkpt lat="36.119974" lon="127.312939"></trkpt>
      <trkpt lat="36.120589" lon="127.312569"></trkpt>
      <trkpt lat="36.120908" lon="127.312341"></trkpt>
      <trkpt lat="36.120991" lon="127.312128"></trkpt>
      <trkpt lat="36.121279" lon="127.312076"></trkpt>
      <trkpt lat="36.121388" lon="127.311748"></trkpt>
      <trkpt lat="36.121787" lon="127.311728"></trkpt>
      <trkpt lat="36.122192" lon="127.311181"></trkpt>
      <trkpt lat="36.122317" lon="127.310602"></trkpt>
      <trkpt lat="36.123255" lon="127.310142"></trkpt>
      <trkpt lat="36.123208" lon="127.309914"></trkpt>
      <trkpt lat="36.123385" lon="127.309686"></trkpt>
      <trkpt lat="36.123305" lon="127.309590"></trkpt>
      <trkpt lat="36.123855" lon="127.309018"></trkpt>
      <trkpt lat="36.123747" lon="127.308816"></trkpt>
      <trkpt lat="36.124196" lon="127.308540"></trkpt>
      <trkpt lat="36.124240" lon="127.308181"></trkpt>
      <trkpt lat="36.124363" lon="127.308225"></trkpt>
      <trkpt lat="36.124315" lon="127.307848"></trkpt>
      <trkpt lat="36.124512" lon="127.307457"></trkpt>
      <trkpt lat="36.125293" lon="127.306408"></trkpt>
      <trkpt lat="36.125800" lon="127.306086"></trkpt>
      <trkpt lat="36.125822" lon="127.305809"></trkpt>
      <trkpt lat="36.125505" lon="127.305155"></trkpt>
      <trkpt lat="36.125031" lon="127.304517"></trkpt>
      <trkpt lat="36.125093" lon="127.303900"></trkpt>
      <trkpt lat="36.125352" lon="127.303200"></trkpt>
      <trkpt lat="36.125470" lon="127.302176"></trkpt>
      <trkpt lat="36.126810" lon="127.301314"></trkpt>
      <trkpt lat="36.127851" lon="127.301168"></trkpt>
      <trkpt lat="36.128035" lon="127.300964"></trkpt>
      <trkpt lat="36.128059" lon="127.300700"></trkpt>
      <trkpt lat="36.128405" lon="127.300316"></trkpt>
      <trkpt lat="36.129889" lon="127.299587"></trkpt>
      <trkpt lat="36.131168" lon="127.298777"></trkpt>
      <trkpt lat="36.131746" lon="127.298582"></trkpt>
      <trkpt lat="36.132358" lon="127.298573"></trkpt>
      <trkpt lat="36.132984" lon="127.298077"></trkpt>
      <trkpt lat="36.133440" lon="127.298200"></trkpt>
      <trkpt lat="36.134071" lon="127.298040"></trkpt>
      <trkpt lat="36.134360" lon="127.298162"></trkpt>
      <trkpt lat="36.134695" lon="127.298072"></trkpt>
      <trkpt lat="36.135184" lon="127.297440"></trkpt>
      <trkpt lat="36.135572" lon="127.297161"></trkpt>
      <trkpt lat="36.135937" lon="127.296252"></trkpt>
      <trkpt lat="36.136231" lon="127.296039"></trkpt>
      <trkpt lat="36.136311" lon="127.295749"></trkpt>
      <trkpt lat="36.136131" lon="127.295721"></trkpt>
      <trkpt lat="36.136119" lon="127.295124"></trkpt>
      <trkpt lat="36.137138" lon="127.293898"></trkpt>
      <trkpt lat="36.137283" lon="127.292898"></trkpt>
      <trkpt lat="36.137726" lon="127.292193"></trkpt>
      <trkpt lat="36.138694" lon="127.292065"></trkpt>
      <trkpt lat="36.139464" lon="127.291474"></trkpt>
      <trkpt lat="36.139963" lon="127.291441"></trkpt>
      <trkpt lat="36.140661" lon="127.291139"></trkpt>
      <trkpt lat="36.141074" lon="127.291271"></trkpt>
      <trkpt lat="36.141148" lon="127.291889"></trkpt>
      <trkpt lat="36.141536" lon="127.291852"></trkpt>
      <trkpt lat="36.141917" lon="127.291509"></trkpt>
      <trkpt lat="36.142058" lon="127.291101"></trkpt>
      <trkpt lat="36.142352" lon="127.290830"></trkpt>
      <trkpt lat="36.142735" lon="127.290147"></trkpt>
      <trkpt lat="36.143628" lon="127.289890"></trkpt>
      <trkpt lat="36.143933" lon="127.289437"></trkpt>
      <trkpt lat="36.144345" lon="127.289469"></trkpt>
      <trkpt lat="36.144431" lon="127.289620"></trkpt>
      <trkpt lat="36.144783" lon="127.289595"></trkpt>
      <trkpt lat="36.143929" lon="127.288211"></trkpt>
      <trkpt lat="36.143941" lon="127.287035"></trkpt>
      <trkpt lat="36.144189" lon="127.286337"></trkpt>
      <trkpt lat="36.144009" lon="127.285540"></trkpt>
      <trkpt lat="36.143966" lon="127.284508"></trkpt>
      <trkpt lat="36.143700" lon="127.283973"></trkpt>
      <trkpt lat="36.143606" lon="127.283467"></trkpt>
      <trkpt lat="36.143145" lon="127.282740"></trkpt>
      <trkpt lat="36.142913" lon="127.281755"></trkpt>
      <trkpt lat="36.142144" lon="127.280772"></trkpt>
      <trkpt lat="36.142249" lon="127.280505"></trkpt>
      <trkpt lat="36.142608" lon="127.280283"></trkpt>
      <trkpt lat="36.142923" lon="127.279406"></trkpt>
      <trkpt lat="36.143205" lon="127.279016"></trkpt>
      <trkpt lat="36.143166" lon="127.278666"></trkpt>
      <trkpt lat="36.143361" lon="127.278324"></trkpt>
      <trkpt lat="36.143420" lon="127.277887"></trkpt>
      <trkpt lat="36.144341" lon="127.277459"></trkpt>
      <trkpt lat="36.144621" lon="127.277195"></trkpt>
      <trkpt lat="36.144907" lon="127.277274"></trkpt>
      <trkpt lat="36.145313" lon="127.277094"></trkpt>
      <trkpt lat="36.145435" lon="127.276876"></trkpt>
      <trkpt lat="36.145897" lon="127.276743"></trkpt>
      <trkpt lat="36.145438" lon="127.275279"></trkpt>
      <trkpt lat="36.145791" lon="127.274792"></trkpt>
      <trkpt lat="36.145887" lon="127.274162"></trkpt>
      <trkpt lat="36.146147" lon="127.273678"></trkpt>
      <trkpt lat="36.146707" lon="127.273454"></trkpt>
      <trkpt lat="36.147208" lon="127.273507"></trkpt>
      <trkpt lat="36.147863" lon="127.272958"></trkpt>
      <trkpt lat="36.148729" lon="127.272545"></trkpt>
      <trkpt lat="36.149007" lon="127.272086"></trkpt>
      <trkpt lat="36.149459" lon="127.272361"></trkpt>
      <trkpt lat="36.149959" lon="127.272910"></trkpt>
      <trkpt lat="36.149952" lon="127.273280"></trkpt>
      <trkpt lat="36.150250" lon="127.273471"></trkpt>
      <trkpt lat="36.150486" lon="127.273925"></trkpt>
      <trkpt lat="36.150601" lon="127.274612"></trkpt>
      <trkpt lat="36.150748" lon="127.274764"></trkpt>
      <trkpt lat="36.150985" lon="127.274748"></trkpt>
      <trkpt lat="36.151207" lon="127.274462"></trkpt>
      <trkpt lat="36.151876" lon="127.274506"></trkpt>
      <trkpt lat="36.152917" lon="127.273878"></trkpt>
      <trkpt lat="36.153844" lon="127.273553"></trkpt>
      <trkpt lat="36.154278" lon="127.273099"></trkpt>
      <trkpt lat="36.155153" lon="127.272590"></trkpt>
      <trkpt lat="36.155926" lon="127.272479"></trkpt>
      <trkpt lat="36.156200" lon="127.272653"></trkpt>
      <trkpt lat="36.156165" lon="127.273464"></trkpt>
      <trkpt lat="36.156283" lon="127.274273"></trkpt>
      <trkpt lat="36.156418" lon="127.274456"></trkpt>
      <trkpt lat="36.157077" lon="127.274669"></trkpt>
      <trkpt lat="36.157825" lon="127.275815"></trkpt>
      <trkpt lat="36.158110" lon="127.275852"></trkpt>
      <trkpt lat="36.158931" lon="127.275251"></trkpt>
      <trkpt lat="36.159184" lon="127.274878"></trkpt>
      <trkpt lat="36.159100" lon="127.274463"></trkpt>
      <trkpt lat="36.159520" lon="127.273731"></trkpt>
      <trkpt lat="36.159791" lon="127.272902"></trkpt>
      <trkpt lat="36.159681" lon="127.272255"></trkpt>
      <trkpt lat="36.159867" lon="127.272178"></trkpt>
      <trkpt lat="36.160150" lon="127.272296"></trkpt>
      <trkpt lat="36.160259" lon="127.272390"></trkpt>
      <trkpt lat="36.160270" lon="127.272789"></trkpt>
      <trkpt lat="36.160672" lon="127.272711"></trkpt>
      <trkpt lat="36.160880" lon="127.273057"></trkpt>
      <trkpt lat="36.161952" lon="127.271952"></trkpt>
      <trkpt lat="36.162216" lon="127.270989"></trkpt>
      <trkpt lat="36.162605" lon="127.270664"></trkpt>
      <trkpt lat="36.163230" lon="127.270553"></trkpt>
      <trkpt lat="36.163568" lon="127.270197"></trkpt>
      <trkpt lat="36.164364" lon="127.269856"></trkpt>
      <trkpt lat="36.165705" lon="127.268229"></trkpt>
      <trkpt lat="36.166840" lon="127.265998"></trkpt>
      <trkpt lat="36.167209" lon="127.265506"></trkpt>
      <trkpt lat="36.167432" lon="127.264964"></trkpt>
      <trkpt lat="36.167423" lon="127.264284"></trkpt>
      <trkpt lat="36.168009" lon="127.263571"></trkpt>
      <trkpt lat="36.169322" lon="127.262409"></trkpt>
      <trkpt lat="36.169554" lon="127.261618"></trkpt>
      <trkpt lat="36.170716" lon="127.260350"></trkpt>
      <trkpt lat="36.171019" lon="127.259216"></trkpt>
      <trkpt lat="36.171611" lon="127.257869"></trkpt>
      <trkpt lat="36.171714" lon="127.256401"></trkpt>
      <trkpt lat="36.171870" lon="127.256216"></trkpt>
      <trkpt lat="36.172500" lon="127.256074"></trkpt>
      <trkpt lat="36.172769" lon="127.255832"></trkpt>
      <trkpt lat="36.173542" lon="127.256002"></trkpt>
      <trkpt lat="36.173744" lon="127.256288"></trkpt>
      <trkpt lat="36.173965" lon="127.256270"></trkpt>
      <trkpt lat="36.174213" lon="127.255440"></trkpt>
      <trkpt lat="36.174649" lon="127.254872"></trkpt>
      <trkpt lat="36.174477" lon="127.254203"></trkpt>
      <trkpt lat="36.174655" lon="127.253960"></trkpt>
      <trkpt lat="36.175049" lon="127.253928"></trkpt>
      <trkpt lat="36.175323" lon="127.253713"></trkpt>
      <trkpt lat="36.175779" lon="127.253779"></trkpt>
      <trkpt lat="36.176013" lon="127.253540"></trkpt>
      <trkpt lat="36.176860" lon="127.253211"></trkpt>
      <trkpt lat="36.177349" lon="127.252615"></trkpt>
      <trkpt lat="36.177508" lon="127.252596"></trkpt>
      <trkpt lat="36.178888" lon="127.253043"></trkpt>
      <trkpt lat="36.179041" lon="127.253019"></trkpt>
      <trkpt lat="36.179518" lon="127.252463"></trkpt>
      <trkpt lat="36.180012" lon="127.252428"></trkpt>
      <trkpt lat="36.180525" lon="127.252707"></trkpt>
      <trkpt lat="36.181117" lon="127.253273"></trkpt>
      <trkpt lat="36.182476" lon="127.252195"></trkpt>
      <trkpt lat="36.183503" lon="127.251994"></trkpt>
      <trkpt lat="36.184287" lon="127.252530"></trkpt>
      <trkpt lat="36.186139" lon="127.252455"></trkpt>
      <trkpt lat="36.186440" lon="127.252183"></trkpt>
      <trkpt lat="36.187301" lon="127.252346"></trkpt>
      <trkpt lat="36.188772" lon="127.253405"></trkpt>
      <trkpt lat="36.189099" lon="127.254255"></trkpt>
      <trkpt lat="36.189211" lon="127.254288"></trkpt>
      <trkpt lat="36.189599" lon="127.253641"></trkpt>
      <trkpt lat="36.188486" lon="127.252340"></trkpt>
      <trkpt lat="36.188574" lon="127.251804"></trkpt>
      <trkpt lat="36.187869" lon="127.250771"></trkpt>
      <trkpt lat="36.187879" lon="127.248723"></trkpt>
      <trkpt lat="36.188124" lon="127.248634"></trkpt>
      <trkpt lat="36.188421" lon="127.247611"></trkpt>
      <trkpt lat="36.188600" lon="127.247576"></trkpt>
      <trkpt lat="36.189092" lon="127.246780"></trkpt>
      <trkpt lat="36.189137" lon="127.246410"></trkpt>
      <trkpt lat="36.189114" lon="127.245774"></trkpt>
      <trkpt lat="36.188720" lon="127.245278"></trkpt>
      <trkpt lat="36.188897" lon="127.244307"></trkpt>
      <trkpt lat="36.188906" lon="127.243479"></trkpt>
      <trkpt lat="36.188780" lon="127.242695"></trkpt>
      <trkpt lat="36.188553" lon="127.242247"></trkpt>
      <trkpt lat="36.188713" lon="127.241150"></trkpt>
      <trkpt lat="36.189021" lon="127.240363"></trkpt>
      <trkpt lat="36.189151" lon="127.240292"></trkpt>
      <trkpt lat="36.189858" lon="127.240790"></trkpt>
      <trkpt lat="36.190629" lon="127.240874"></trkpt>
      <trkpt lat="36.191374" lon="127.240753"></trkpt>
      <trkpt lat="36.191917" lon="127.241510"></trkpt>
      <trkpt lat="36.192468" lon="127.241951"></trkpt>
      <trkpt lat="36.193544" lon="127.241858"></trkpt>
      <trkpt lat="36.194006" lon="127.241948"></trkpt>
      <trkpt lat="36.194256" lon="127.241772"></trkpt>
      <trkpt lat="36.194806" lon="127.240959"></trkpt>
      <trkpt lat="36.195390" lon="127.240917"></trkpt>
      <trkpt lat="36.195991" lon="127.240681"></trkpt>
      <trkpt lat="36.196194" lon="127.240867"></trkpt>
      <trkpt lat="36.197564" lon="127.240858"></trkpt>
      <trkpt lat="36.198073" lon="127.241392"></trkpt>
      <trkpt lat="36.198577" lon="127.241617"></trkpt>
      <trkpt lat="36.199347" lon="127.241516"></trkpt>
      <trkpt lat="36.200384" lon="127.241755"></trkpt>
      <trkpt lat="36.200652" lon="127.242148"></trkpt>
      <trkpt lat="36.201780" lon="127.242276"></trkpt>
      <trkpt lat="36.202883" lon="127.241742"></trkpt>
      <trkpt lat="36.203763" lon="127.241621"></trkpt>
      <trkpt lat="36.204315" lon="127.241224"></trkpt>
      <trkpt lat="36.204532" lon="127.240509"></trkpt>
      <trkpt lat="36.204858" lon="127.240123"></trkpt>
      <trkpt lat="36.205167" lon="127.239434"></trkpt>
      <trkpt lat="36.205608" lon="127.239172"></trkpt>
      <trkpt lat="36.205860" lon="127.238574"></trkpt>
      <trkpt lat="36.206356" lon="127.238527"></trkpt>
      <trkpt lat="36.206772" lon="127.238025"></trkpt>
      <trkpt lat="36.207563" lon="127.237604"></trkpt>
      <trkpt lat="36.207695" lon="127.237447"></trkpt>
      <trkpt lat="36.207577" lon="127.237057"></trkpt>
      <trkpt lat="36.208133" lon="127.237050"></trkpt>
      <trkpt lat="36.208162" lon="127.237492"></trkpt>
      <trkpt lat="36.208306" lon="127.237761"></trkpt>
      <trkpt lat="36.208902" lon="127.238366"></trkpt>
      <trkpt lat="36.209004" lon="127.238212"></trkpt>
      <trkpt lat="36.208583" lon="127.237711"></trkpt>
      <trkpt lat="36.208587" lon="127.237401"></trkpt>
      <trkpt lat="36.209269" lon="127.236996"></trkpt>
      <trkpt lat="36.209823" lon="127.236986"></trkpt>
      <trkpt lat="36.210245" lon="127.236760"></trkpt>
      <trkpt lat="36.210606" lon="127.236999"></trkpt>
      <trkpt lat="36.211689" lon="127.236953"></trkpt>
      <trkpt lat="36.212235" lon="127.237263"></trkpt>
      <trkpt lat="36.213037" lon="127.236776"></trkpt>
      <trkpt lat="36.213502" lon="127.236974"></trkpt>
      <trkpt lat="36.214356" lon="127.236302"></trkpt>
      <trkpt lat="36.214940" lon="127.236129"></trkpt>
      <trkpt lat="36.215892" lon="127.236206"></trkpt>
      <trkpt lat="36.216246" lon="127.235069"></trkpt>
      <trkpt lat="36.217585" lon="127.235510"></trkpt>
      <trkpt lat="36.217756" lon="127.235940"></trkpt>
      <trkpt lat="36.218209" lon="127.236322"></trkpt>
      <trkpt lat="36.218204" lon="127.236476"></trkpt>
      <trkpt lat="36.218337" lon="127.236322"></trkpt>
      <trkpt lat="36.218828" lon="127.236322"></trkpt>
      <trkpt lat="36.219563" lon="127.236673"></trkpt>
      <trkpt lat="36.219734" lon="127.236590"></trkpt>
      <trkpt lat="36.220382" lon="127.236701"></trkpt>
      <trkpt lat="36.220685" lon="127.236839"></trkpt>
      <trkpt lat="36.220891" lon="127.237243"></trkpt>
      <trkpt lat="36.221537" lon="127.237330"></trkpt>
      <trkpt lat="36.221967" lon="127.237207"></trkpt>
      <trkpt lat="36.222352" lon="127.237322"></trkpt>
      <trkpt lat="36.222642" lon="127.237678"></trkpt>
      <trkpt lat="36.223473" lon="127.237724"></trkpt>
      <trkpt lat="36.224046" lon="127.238215"></trkpt>
      <trkpt lat="36.224783" lon="127.237974"></trkpt>
      <trkpt lat="36.225557" lon="127.238653"></trkpt>
      <trkpt lat="36.226626" lon="127.238222"></trkpt>
      <trkpt lat="36.227231" lon="127.238521"></trkpt>
      <trkpt lat="36.227609" lon="127.238529"></trkpt>
      <trkpt lat="36.227921" lon="127.238790"></trkpt>
      <trkpt lat="36.228516" lon="127.238618"></trkpt>
      <trkpt lat="36.228824" lon="127.238672"></trkpt>
      <trkpt lat="36.229373" lon="127.239120"></trkpt>
      <trkpt lat="36.230055" lon="127.238900"></trkpt>
      <trkpt lat="36.230243" lon="127.238678"></trkpt>
      <trkpt lat="36.230631" lon="127.238629"></trkpt>
      <trkpt lat="36.231392" lon="127.238840"></trkpt>
      <trkpt lat="36.232019" lon="127.239283"></trkpt>
      <trkpt lat="36.232889" lon="127.239138"></trkpt>
      <trkpt lat="36.233228" lon="127.239606"></trkpt>
      <trkpt lat="36.233804" lon="127.239904"></trkpt>
      <trkpt lat="36.234367" lon="127.239860"></trkpt>
      <trkpt lat="36.234842" lon="127.240212"></trkpt>
      <trkpt lat="36.235542" lon="127.239854"></trkpt>
      <trkpt lat="36.236022" lon="127.239283"></trkpt>
      <trkpt lat="36.236531" lon="127.239384"></trkpt>
      <trkpt lat="36.236682" lon="127.239197"></trkpt>
      <trkpt lat="36.237214" lon="127.239065"></trkpt>
      <trkpt lat="36.237545" lon="127.239134"></trkpt>
      <trkpt lat="36.237848" lon="127.239779"></trkpt>
      <trkpt lat="36.238240" lon="127.240238"></trkpt>
      <trkpt lat="36.238984" lon="127.240334"></trkpt>
      <trkpt lat="36.239929" lon="127.239908"></trkpt>
      <trkpt lat="36.241401" lon="127.239750"></trkpt>
      <trkpt lat="36.241970" lon="127.240302"></trkpt>
      <trkpt lat="36.243086" lon="127.240301"></trkpt>
      <trkpt lat="36.243790" lon="127.240101"></trkpt>
      <trkpt lat="36.244520" lon="127.238928"></trkpt>
      <trkpt lat="36.244664" lon="127.238325"></trkpt>
      <trkpt lat="36.245065" lon="127.237644"></trkpt>
      <trkpt lat="36.246358" lon="127.237709"></trkpt>
      <trkpt lat="36.246867" lon="127.238063"></trkpt>
      <trkpt lat="36.247346" lon="127.238096"></trkpt>
      <trkpt lat="36.247643" lon="127.238280"></trkpt>
      <trkpt lat="36.249151" lon="127.237505"></trkpt>
      <trkpt lat="36.249915" lon="127.237644"></trkpt>
      <trkpt lat="36.250343" lon="127.237462"></trkpt>
      <trkpt lat="36.251169" lon="127.237475"></trkpt>
      <trkpt lat="36.251759" lon="127.237166"></trkpt>
      <trkpt lat="36.252857" lon="127.237049"></trkpt>
      <trkpt lat="36.253226" lon="127.236794"></trkpt>
      <trkpt lat="36.253710" lon="127.236712"></trkpt>
      <trkpt lat="36.254022" lon="127.236864"></trkpt>
      <trkpt lat="36.254573" lon="127.236882"></trkpt>
      <trkpt lat="36.255521" lon="127.237994"></trkpt>
      <trkpt lat="36.256166" lon="127.237719"></trkpt>
      <trkpt lat="36.256678" lon="127.238063"></trkpt>
      <trkpt lat="36.256851" lon="127.238036"></trkpt>
      <trkpt lat="36.257073" lon="127.238882"></trkpt>
      <trkpt lat="36.257487" lon="127.238938"></trkpt>
      <trkpt lat="36.257561" lon="127.239122"></trkpt>
      <trkpt lat="36.259296" lon="127.240312"></trkpt>
      <trkpt lat="36.259450" lon="127.240723"></trkpt>
      <trkpt lat="36.259796" lon="127.240878"></trkpt>
      <trkpt lat="36.260124" lon="127.241590"></trkpt>
      <trkpt lat="36.260199" lon="127.242039"></trkpt>
      <trkpt lat="36.260606" lon="127.242459"></trkpt>
      <trkpt lat="36.260729" lon="127.242882"></trkpt>
      <trkpt lat="36.261127" lon="127.243188"></trkpt>
      <trkpt lat="36.261339" lon="127.243586"></trkpt>
      <trkpt lat="36.261826" lon="127.243765"></trkpt>
      <trkpt lat="36.262047" lon="127.243811"></trkpt>
      <trkpt lat="36.263472" lon="127.243076"></trkpt>
      <trkpt lat="36.263977" lon="127.243015"></trkpt>
      <trkpt lat="36.264250" lon="127.243132"></trkpt>
      <trkpt lat="36.264771" lon="127.242853"></trkpt>
      <trkpt lat="36.266445" lon="127.243124"></trkpt>
      <trkpt lat="36.266887" lon="127.243049"></trkpt>
      <trkpt lat="36.267500" lon="127.243317"></trkpt>
      <trkpt lat="36.267961" lon="127.243357"></trkpt>
      <trkpt lat="36.268677" lon="127.242495"></trkpt>
      <trkpt lat="36.269562" lon="127.242815"></trkpt>
      <trkpt lat="36.270548" lon="127.242712"></trkpt>
      <trkpt lat="36.271161" lon="127.242797"></trkpt>
      <trkpt lat="36.273302" lon="127.241719"></trkpt>
      <trkpt lat="36.274579" lon="127.241251"></trkpt>
      <trkpt lat="36.276442" lon="127.241820"></trkpt>
      <trkpt lat="36.278112" lon="127.243065"></trkpt>
      <trkpt lat="36.278214" lon="127.243364"></trkpt>
      <trkpt lat="36.278896" lon="127.243728"></trkpt>
      <trkpt lat="36.279275" lon="127.243524"></trkpt>
      <trkpt lat="36.279978" lon="127.243564"></trkpt>
      <trkpt lat="36.280542" lon="127.243843"></trkpt>
      <trkpt lat="36.281606" lon="127.243350"></trkpt>
      <trkpt lat="36.281926" lon="127.243333"></trkpt>
      <trkpt lat="36.282214" lon="127.242872"></trkpt>
      <trkpt lat="36.282127" lon="127.241831"></trkpt>
      <trkpt lat="36.282459" lon="127.241766"></trkpt>
      <trkpt lat="36.283547" lon="127.239596"></trkpt>
      <trkpt lat="36.284073" lon="127.239823"></trkpt>
      <trkpt lat="36.284286" lon="127.239733"></trkpt>
      <trkpt lat="36.284785" lon="127.237820"></trkpt>
      <trkpt lat="36.285747" lon="127.238183"></trkpt>
      <trkpt lat="36.286243" lon="127.236262"></trkpt>
      <trkpt lat="36.287177" lon="127.236623"></trkpt>
      <trkpt lat="36.289073" lon="127.235144"></trkpt>
      <trkpt lat="36.289024" lon="127.234836"></trkpt>
      <trkpt lat="36.289518" lon="127.234163"></trkpt>
      <trkpt lat="36.289924" lon="127.233989"></trkpt>
      <trkpt lat="36.290599" lon="127.234071"></trkpt>
      <trkpt lat="36.291002" lon="127.233953"></trkpt>
      <trkpt lat="36.291393" lon="127.233418"></trkpt>
      <trkpt lat="36.291686" lon="127.231828"></trkpt>
      <trkpt lat="36.291892" lon="127.231522"></trkpt>
      <trkpt lat="36.292941" lon="127.231624"></trkpt>
      <trkpt lat="36.293578" lon="127.231442"></trkpt>
      <trkpt lat="36.294266" lon="127.231856"></trkpt>
      <trkpt lat="36.294361" lon="127.231798"></trkpt>
      <trkpt lat="36.294759" lon="127.232213"></trkpt>
      <trkpt lat="36.294949" lon="127.232209"></trkpt>
      <trkpt lat="36.295155" lon="127.231656"></trkpt>
      <trkpt lat="36.295628" lon="127.231287"></trkpt>
      <trkpt lat="36.295590" lon="127.230091"></trkpt>
      <trkpt lat="36.295777" lon="127.229656"></trkpt>
      <trkpt lat="36.295800" lon="127.229229"></trkpt>
      <trkpt lat="36.296339" lon="127.227793"></trkpt>
      <trkpt lat="36.296833" lon="127.227477"></trkpt>
      <trkpt lat="36.296883" lon="127.227287"></trkpt>
      <trkpt lat="36.296647" lon="127.226579"></trkpt>
      <trkpt lat="36.296276" lon="127.226176"></trkpt>
      <trkpt lat="36.296073" lon="127.224997"></trkpt>
      <trkpt lat="36.295341" lon="127.224328"></trkpt>
      <trkpt lat="36.295079" lon="127.223602"></trkpt>
      <trkpt lat="36.295383" lon="127.222179"></trkpt>
      <trkpt lat="36.295814" lon="127.221454"></trkpt>
      <trkpt lat="36.295870" lon="127.220257"></trkpt>
      <trkpt lat="36.296005" lon="127.219928"></trkpt>
      <trkpt lat="36.296032" lon="127.219322"></trkpt>
      <trkpt lat="36.296274" lon="127.218851"></trkpt>
      <trkpt lat="36.296239" lon="127.218411"></trkpt>
      <trkpt lat="36.296376" lon="127.218028"></trkpt>
      <trkpt lat="36.296967" lon="127.217510"></trkpt>
      <trkpt lat="36.297049" lon="127.216666"></trkpt>
      <trkpt lat="36.297306" lon="127.216112"></trkpt>
      <trkpt lat="36.297316" lon="127.215798"></trkpt>
      <trkpt lat="36.297552" lon="127.215583"></trkpt>
      <trkpt lat="36.297503" lon="127.215298"></trkpt>
      <trkpt lat="36.298063" lon="127.214254"></trkpt>
      <trkpt lat="36.298916" lon="127.213828"></trkpt>
      <trkpt lat="36.299140" lon="127.213461"></trkpt>
      <trkpt lat="36.299171" lon="127.213106"></trkpt>
      <trkpt lat="36.299923" lon="127.213105"></trkpt>
      <trkpt lat="36.300583" lon="127.212599"></trkpt>
      <trkpt lat="36.301104" lon="127.211763"></trkpt>
      <trkpt lat="36.301348" lon="127.211213"></trkpt>
      <trkpt lat="36.301292" lon="127.211014"></trkpt>
      <trkpt lat="36.301600" lon="127.210647"></trkpt>
      <trkpt lat="36.301279" lon="127.208504"></trkpt>
      <trkpt lat="36.301522" lon="127.208132"></trkpt>
      <trkpt lat="36.301404" lon="127.207771"></trkpt>
      <trkpt lat="36.301706" lon="127.207177"></trkpt>
      <trkpt lat="36.301700" lon="127.206681"></trkpt>
      <trkpt lat="36.301415" lon="127.206020"></trkpt>
      <trkpt lat="36.301793" lon="127.205323"></trkpt>
      <trkpt lat="36.302706" lon="127.205364"></trkpt>
      <trkpt lat="36.302940" lon="127.205159"></trkpt>
      <trkpt lat="36.303294" lon="127.205361"></trkpt>
      <trkpt lat="36.304046" lon="127.205237"></trkpt>
      <trkpt lat="36.305042" lon="127.204971"></trkpt>
      <trkpt lat="36.305816" lon="127.204452"></trkpt>
      <trkpt lat="36.306449" lon="127.204537"></trkpt>
      <trkpt lat="36.307384" lon="127.203987"></trkpt>
      <trkpt lat="36.307883" lon="127.203977"></trkpt>
      <trkpt lat="36.308056" lon="127.203835"></trkpt>
      <trkpt lat="36.308792" lon="127.203881"></trkpt>
      <trkpt lat="36.309424" lon="127.203575"></trkpt>
      <trkpt lat="36.310201" lon="127.203729"></trkpt>
      <trkpt lat="36.310746" lon="127.203563"></trkpt>
      <trkpt lat="36.311322" lon="127.203634"></trkpt>
      <trkpt lat="36.312225" lon="127.203413"></trkpt>
      <trkpt lat="36.312349" lon="127.203489"></trkpt>
      <trkpt lat="36.312770" lon="127.203182"></trkpt>
      <trkpt lat="36.313217" lon="127.203118"></trkpt>
      <trkpt lat="36.314334" lon="127.203301"></trkpt>
      <trkpt lat="36.314908" lon="127.203133"></trkpt>
      <trkpt lat="36.315059" lon="127.203211"></trkpt>
      <trkpt lat="36.316340" lon="127.202763"></trkpt>
      <trkpt lat="36.316643" lon="127.202791"></trkpt>
      <trkpt lat="36.316972" lon="127.202527"></trkpt>
      <trkpt lat="36.317170" lon="127.202584"></trkpt>
      <trkpt lat="36.317820" lon="127.202192"></trkpt>
      <trkpt lat="36.319100" lon="127.202143"></trkpt>
      <trkpt lat="36.319575" lon="127.202271"></trkpt>
      <trkpt lat="36.320327" lon="127.202772"></trkpt>
      <trkpt lat="36.320730" lon="127.202536"></trkpt>
      <trkpt lat="36.321779" lon="127.202381"></trkpt>
      <trkpt lat="36.322314" lon="127.202589"></trkpt>
      <trkpt lat="36.322859" lon="127.202556"></trkpt>
      <trkpt lat="36.323519" lon="127.202242"></trkpt>
      <trkpt lat="36.324216" lon="127.201319"></trkpt>
      <trkpt lat="36.324393" lon="127.200716"></trkpt>
      <trkpt lat="36.325186" lon="127.200204"></trkpt>
      <trkpt lat="36.325293" lon="127.199988"></trkpt>
      <trkpt lat="36.325744" lon="127.199705"></trkpt>
      <trkpt lat="36.327028" lon="127.198434"></trkpt>
      <trkpt lat="36.327417" lon="127.198359"></trkpt>
      <trkpt lat="36.327875" lon="127.198563"></trkpt>
      <trkpt lat="36.328727" lon="127.198670"></trkpt>
      <trkpt lat="36.329231" lon="127.198591"></trkpt>
      <trkpt lat="36.330969" lon="127.197875"></trkpt>
      <trkpt lat="36.331686" lon="127.197816"></trkpt>
      <trkpt lat="36.332559" lon="127.197166"></trkpt>
      <trkpt lat="36.333143" lon="127.196152"></trkpt>
      <trkpt lat="36.334189" lon="127.195852"></trkpt>
      <trkpt lat="36.334761" lon="127.196549"></trkpt>
      <trkpt lat="36.335330" lon="127.196864"></trkpt>
      <trkpt lat="36.336075" lon="127.197810"></trkpt>
      <trkpt lat="36.336971" lon="127.197988"></trkpt>
      <trkpt lat="36.337810" lon="127.197484"></trkpt>
      <trkpt lat="36.337944" lon="127.197619"></trkpt>
      <trkpt lat="36.337940" lon="127.197965"></trkpt>
      <trkpt lat="36.337810" lon="127.198210"></trkpt>
      <trkpt lat="36.338015" lon="127.198399"></trkpt>
      <trkpt lat="36.337975" lon="127.199012"></trkpt>
      <trkpt lat="36.338392" lon="127.199273"></trkpt>
      <trkpt lat="36.338565" lon="127.199588"></trkpt>
      <trkpt lat="36.338773" lon="127.199483"></trkpt>
      <trkpt lat="36.339253" lon="127.199661"></trkpt>
      <trkpt lat="36.339012" lon="127.199936"></trkpt>
      <trkpt lat="36.339212" lon="127.200141"></trkpt>
      <trkpt lat="36.339220" lon="127.200415"></trkpt>
      <trkpt lat="36.339855" lon="127.201155"></trkpt>
      <trkpt lat="36.340093" lon="127.201362"></trkpt>
      <trkpt lat="36.340253" lon="127.201338"></trkpt>
      <trkpt lat="36.340713" lon="127.202008"></trkpt>
      <trkpt lat="36.340758" lon="127.202579"></trkpt>
      <trkpt lat="36.341137" lon="127.203625"></trkpt>
      <trkpt lat="36.341523" lon="127.204302"></trkpt>
      <trkpt lat="36.341633" lon="127.204294"></trkpt>
      <trkpt lat="36.341752" lon="127.204683"></trkpt>
      <trkpt lat="36.342858" lon="127.205197"></trkpt>
      <trkpt lat="36.343030" lon="127.205398"></trkpt>
      <trkpt lat="36.343590" lon="127.205468"></trkpt>
      <trkpt lat="36.345028" lon="127.204365"></trkpt>
      <trkpt lat="36.345216" lon="127.203960"></trkpt>
      <trkpt lat="36.345525" lon="127.203944"></trkpt>
      <trkpt lat="36.345985" lon="127.204170"></trkpt>
      <trkpt lat="36.346451" lon="127.203820"></trkpt>
      <trkpt lat="36.346757" lon="127.203848"></trkpt>
      <trkpt lat="36.346749" lon="127.203313"></trkpt>
      <trkpt lat="36.348313" lon="127.202915"></trkpt>
      <trkpt lat="36.348644" lon="127.202672"></trkpt>
      <trkpt lat="36.348962" lon="127.202139"></trkpt>
      <trkpt lat="36.349689" lon="127.201963"></trkpt>
      <trkpt lat="36.350670" lon="127.201504"></trkpt>
      <trkpt lat="36.351147" lon="127.200850"></trkpt>
      <trkpt lat="36.351591" lon="127.200749"></trkpt>
      <trkpt lat="36.351892" lon="127.200509"></trkpt>
      <trkpt lat="36.352458" lon="127.200764"></trkpt>
      <trkpt lat="36.352411" lon="127.200964"></trkpt>
      <trkpt lat="36.352567" lon="127.200976"></trkpt>
      <trkpt lat="36.353469" lon="127.202679"></trkpt>
      <trkpt lat="36.354101" lon="127.203213"></trkpt>
      <trkpt lat="36.354352" lon="127.203277"></trkpt>
      <trkpt lat="36.354492" lon="127.203581"></trkpt>
      <trkpt lat="36.354918" lon="127.203815"></trkpt>
      <trkpt lat="36.355500" lon="127.203746"></trkpt>
      <trkpt lat="36.356685" lon="127.204256"></trkpt>
      <trkpt lat="36.357098" lon="127.205505"></trkpt>
      <trkpt lat="36.357472" lon="127.205772"></trkpt>
      <trkpt lat="36.357826" lon="127.205771"></trkpt>
      <trkpt lat="36.358198" lon="127.206124"></trkpt>
      <trkpt lat="36.358506" lon="127.206952"></trkpt>
      <trkpt lat="36.358983" lon="127.207362"></trkpt>
      <trkpt lat="36.359455" lon="127.207404"></trkpt>
      <trkpt lat="36.359746" lon="127.207709"></trkpt>
      <trkpt lat="36.359954" lon="127.207578"></trkpt>
      <trkpt lat="36.360261" lon="127.207711"></trkpt>
      <trkpt lat="36.360525" lon="127.208082"></trkpt>
      <trkpt lat="36.360999" lon="127.207729"></trkpt>
      <trkpt lat="36.361095" lon="127.207954"></trkpt>
      <trkpt lat="36.361381" lon="127.208120"></trkpt>
      <trkpt lat="36.361549" lon="127.208081"></trkpt>
      <trkpt lat="36.362031" lon="127.207455"></trkpt>
      <trkpt lat="36.362776" lon="127.207473"></trkpt>
      <trkpt lat="36.362986" lon="127.207356"></trkpt>
      <trkpt lat="36.363357" lon="127.207459"></trkpt>
      <trkpt lat="36.363796" lon="127.207227"></trkpt>
      <trkpt lat="36.364578" lon="127.206626"></trkpt>
      <trkpt lat="36.364606" lon="127.206239"></trkpt>
      <trkpt lat="36.364936" lon="127.205982"></trkpt>
      <trkpt lat="36.364939" lon="127.205816"></trkpt>
      <trkpt lat="36.365303" lon="127.205595"></trkpt>
      <trkpt lat="36.366056" lon="127.205538"></trkpt>
      <trkpt lat="36.366480" lon="127.205215"></trkpt>
      <trkpt lat="36.366593" lon="127.204597"></trkpt>
      <trkpt lat="36.366410" lon="127.204030"></trkpt>
      <trkpt lat="36.366472" lon="127.203735"></trkpt>
      <trkpt lat="36.366764" lon="127.203655"></trkpt>
      <trkpt lat="36.367056" lon="127.204005"></trkpt>
      <trkpt lat="36.367418" lon="127.203902"></trkpt>
      <trkpt lat="36.368213" lon="127.203208"></trkpt>
      <trkpt lat="36.368337" lon="127.202789"></trkpt>
      <trkpt lat="36.368557" lon="127.202703"></trkpt>
      <trkpt lat="36.369068" lon="127.201983"></trkpt>
      <trkpt lat="36.368798" lon="127.200837"></trkpt>
      <trkpt lat="36.369416" lon="127.200070"></trkpt>
      <trkpt lat="36.369255" lon="127.199321"></trkpt>
      <trkpt lat="36.369640" lon="127.198295"></trkpt>
      <trkpt lat="36.369465" lon="127.197512"></trkpt>
      <trkpt lat="36.369512" lon="127.197152"></trkpt>
      <trkpt lat="36.369057" lon="127.196487"></trkpt>
      <trkpt lat="36.369322" lon="127.194847"></trkpt>
      <trkpt lat="36.369783" lon="127.193976"></trkpt>
      <trkpt lat="36.369692" lon="127.192874"></trkpt>
      <trkpt lat="36.370017" lon="127.192183"></trkpt>
      <trkpt lat="36.371532" lon="127.191466"></trkpt>
      <trkpt lat="36.372063" lon="127.190759"></trkpt>
      <trkpt lat="36.372902" lon="127.190294"></trkpt>
      <trkpt lat="36.372527" lon="127.189540"></trkpt>
      <trkpt lat="36.372779" lon="127.188486"></trkpt>
      <trkpt lat="36.373222" lon="127.187566"></trkpt>
      <trkpt lat="36.373163" lon="127.186891"></trkpt>
      <trkpt lat="36.373271" lon="127.186571"></trkpt>
      <trkpt lat="36.374023" lon="127.186170"></trkpt>
      <trkpt lat="36.374577" lon="127.186295"></trkpt>
      <trkpt lat="36.375185" lon="127.186224"></trkpt>
      <trkpt lat="36.375932" lon="127.186368"></trkpt>
      <trkpt lat="36.376335" lon="127.186624"></trkpt>
      <trkpt lat="36.376580" lon="127.186527"></trkpt>
      <trkpt lat="36.377130" lon="127.186658"></trkpt>
      <trkpt lat="36.377488" lon="127.186480"></trkpt>
      <trkpt lat="36.377704" lon="127.186082"></trkpt>
      <trkpt lat="36.377982" lon="127.185937"></trkpt>
      <trkpt lat="36.378344" lon="127.186071"></trkpt>
      <trkpt lat="36.378596" lon="127.186539"></trkpt>
      <trkpt lat="36.379196" lon="127.186447"></trkpt>
      <trkpt lat="36.379651" lon="127.186022"></trkpt>
      <trkpt lat="36.380007" lon="127.185322"></trkpt>
      <trkpt lat="36.380444" lon="127.185056"></trkpt>
      <trkpt lat="36.380841" lon="127.184041"></trkpt>
      <trkpt lat="36.381599" lon="127.183489"></trkpt>
      <trkpt lat="36.381749" lon="127.182943"></trkpt>
      <trkpt lat="36.381998" lon="127.182615"></trkpt>
      <trkpt lat="36.382363" lon="127.181723"></trkpt>
      <trkpt lat="36.382293" lon="127.180594"></trkpt>
      <trkpt lat="36.382090" lon="127.179904"></trkpt>
      <trkpt lat="36.382142" lon="127.179508"></trkpt>
      <trkpt lat="36.382008" lon="127.179269"></trkpt>
      <trkpt lat="36.382107" lon="127.179181"></trkpt>
      <trkpt lat="36.382093" lon="127.178244"></trkpt>
      <trkpt lat="36.381915" lon="127.177614"></trkpt>
      <trkpt lat="36.381276" lon="127.176523"></trkpt>
      <trkpt lat="36.381341" lon="127.176285"></trkpt>
      <trkpt lat="36.381117" lon="127.175622"></trkpt>
      <trkpt lat="36.381093" lon="127.174993"></trkpt>
      <trkpt lat="36.380659" lon="127.174472"></trkpt>
      <trkpt lat="36.380836" lon="127.173063"></trkpt>
      <trkpt lat="36.380806" lon="127.172749"></trkpt>
      <trkpt lat="36.380554" lon="127.172522"></trkpt>
      <trkpt lat="36.380551" lon="127.172371"></trkpt>
      <trkpt lat="36.381186" lon="127.171554"></trkpt>
      <trkpt lat="36.381249" lon="127.170973"></trkpt>
      <trkpt lat="36.380824" lon="127.170140"></trkpt>
      <trkpt lat="36.380758" lon="127.169647"></trkpt>
      <trkpt lat="36.380908" lon="127.168877"></trkpt>
      <trkpt lat="36.381136" lon="127.168582"></trkpt>
      <trkpt lat="36.381380" lon="127.167800"></trkpt>
      <trkpt lat="36.381257" lon="127.166995"></trkpt>
      <trkpt lat="36.381332" lon="127.166220"></trkpt>
      <trkpt lat="36.380819" lon="127.165485"></trkpt>
      <trkpt lat="36.381063" lon="127.164907"></trkpt>
      <trkpt lat="36.381079" lon="127.164203"></trkpt>
      <trkpt lat="36.381321" lon="127.163833"></trkpt>
      <trkpt lat="36.380975" lon="127.162837"></trkpt>
      <trkpt lat="36.380992" lon="127.161628"></trkpt>
      <trkpt lat="36.380839" lon="127.161170"></trkpt>
      <trkpt lat="36.381083" lon="127.160545"></trkpt>
      <trkpt lat="36.381121" lon="127.160091"></trkpt>
      <trkpt lat="36.380877" lon="127.159917"></trkpt>
      <trkpt lat="36.380852" lon="127.159244"></trkpt>
      <trkpt lat="36.380328" lon="127.158045"></trkpt>
      <trkpt lat="36.380186" lon="127.156878"></trkpt>
      <trkpt lat="36.380489" lon="127.155554"></trkpt>
      <trkpt lat="36.381055" lon="127.154900"></trkpt>
      <trkpt lat="36.381159" lon="127.153737"></trkpt>
      <trkpt lat="36.380463" lon="127.152597"></trkpt>
      <trkpt lat="36.380333" lon="127.151108"></trkpt>
      <trkpt lat="36.380208" lon="127.151009"></trkpt>
      <trkpt lat="36.379920" lon="127.151248"></trkpt>
      <trkpt lat="36.379712" lon="127.151194"></trkpt>
      <trkpt lat="36.378814" lon="127.150579"></trkpt>
      <trkpt lat="36.378251" lon="127.149923"></trkpt>
      <trkpt lat="36.377435" lon="127.148617"></trkpt>
      <trkpt lat="36.377334" lon="127.148186"></trkpt>
      <trkpt lat="36.377189" lon="127.148106"></trkpt>
      <trkpt lat="36.377322" lon="127.147230"></trkpt>
      <trkpt lat="36.376852" lon="127.146667"></trkpt>
      <trkpt lat="36.377200" lon="127.145970"></trkpt>
      <trkpt lat="36.376888" lon="127.145349"></trkpt>
      <trkpt lat="36.375965" lon="127.145431"></trkpt>
      <trkpt lat="36.374714" lon="127.145754"></trkpt>
      <trkpt lat="36.374369" lon="127.144605"></trkpt>
      <trkpt lat="36.375110" lon="127.144876"></trkpt>
      <trkpt lat="36.376287" lon="127.144923"></trkpt>
      <trkpt lat="36.376356" lon="127.144422"></trkpt>
      <trkpt lat="36.376007" lon="127.144239"></trkpt>
      <trkpt lat="36.376038" lon="127.144049"></trkpt>
      <trkpt lat="36.376308" lon="127.143960"></trkpt>
      <trkpt lat="36.376776" lon="127.143333"></trkpt>
      <trkpt lat="36.377873" lon="127.142353"></trkpt>
      <trkpt lat="36.378338" lon="127.142273"></trkpt>
      <trkpt lat="36.378996" lon="127.141072"></trkpt>
      <trkpt lat="36.379029" lon="127.140828"></trkpt>
      <trkpt lat="36.378765" lon="127.140235"></trkpt>
      <trkpt lat="36.378342" lon="127.139500"></trkpt>
      <trkpt lat="36.378089" lon="127.139532"></trkpt>
      <trkpt lat="36.378052" lon="127.139167"></trkpt>
      <trkpt lat="36.377435" lon="127.139119"></trkpt>
      <trkpt lat="36.376977" lon="127.138773"></trkpt>
      <trkpt lat="36.377156" lon="127.138330"></trkpt>
      <trkpt lat="36.377085" lon="127.137987"></trkpt>
      <trkpt lat="36.377431" lon="127.137676"></trkpt>
      <trkpt lat="36.377901" lon="127.137596"></trkpt>
      <trkpt lat="36.378449" lon="127.136703"></trkpt>
      <trkpt lat="36.378906" lon="127.136355"></trkpt>
      <trkpt lat="36.379109" lon="127.135667"></trkpt>
      <trkpt lat="36.378253" lon="127.134850"></trkpt>
      <trkpt lat="36.377673" lon="127.134584"></trkpt>
      <trkpt lat="36.377295" lon="127.134043"></trkpt>
      <trkpt lat="36.377093" lon="127.133973"></trkpt>
      <trkpt lat="36.377004" lon="127.133402"></trkpt>
      <trkpt lat="36.376727" lon="127.132813"></trkpt>
      <trkpt lat="36.376877" lon="127.132270"></trkpt>
      <trkpt lat="36.376791" lon="127.132057"></trkpt>
      <trkpt lat="36.376909" lon="127.131991"></trkpt>
      <trkpt lat="36.377067" lon="127.131437"></trkpt>
      <trkpt lat="36.376839" lon="127.131021"></trkpt>
      <trkpt lat="36.376999" lon="127.131390"></trkpt>
    </trkseg>
  </trk>
</gpx>
