<?xml version="1.0" encoding="UTF-8"?>
<gpx version="1.1" creator="kr-100-mountains route-harvester"
     xmlns="http://www.topografix.com/GPX/1/1"
     xmlns:k100="https://github.com/jay-jang/kr-100-mountains/ns/1"
     xmlns:xsi="http://www.w3.org/2001/XMLSchema-instance"
     xsi:schemaLocation="http://www.topografix.com/GPX/1/1 http://www.topografix.com/GPX/1/1/gpx.xsd">
  <metadata>
    <name>영취산 · 상암초교-정상-흥국사 종주코스 (OSM 계산 경로)</name>
    <desc>실제 GPS 기록이 아닙니다. OpenStreetMap에 등록된 등산로 선형 위에서 계산한 경로이며, 현장 통제·훼손·출입 제한·계절 통제를 반영하지 않을 수 있습니다. 산행 전 공식 안내를 확인하세요.</desc>
    <time>2026-08-04T05:37:57.987Z</time>
    <link href="https://www.openstreetmap.org/copyright"><text>© OpenStreetMap contributors (ODbL 1.0)</text></link>
    <link href="https://registry.opendata.aws/terrain-tiles/"><text>Elevation: SRTM 1 arc-second (NASA/USGS) via AWS Terrain Tiles</text></link>
    <extensions>
      <k100:provenance>osm-routed</k100:provenance>
      <k100:not_a_recorded_track>true</k100:not_a_recorded_track>
      <k100:mountain_id>yeongchwisan</k100:mountain_id>
      <k100:mountain_name>영취산</k100:mountain_name>
      <k100:route_id>yeongchwisan-e4888ac7</k100:route_id>
      <k100:route_index>1</k100:route_index>
      <k100:route_name>상암초교-정상-흥국사 종주코스</k100:route_name>
      <k100:variant>0</k100:variant>
      <k100:source>OpenStreetMap via Overpass API</k100:source>
      <k100:license>ODbL-1.0</k100:license>
      <k100:attribution>© OpenStreetMap contributors</k100:attribution>
      <k100:elevation_source>SRTM 1 arc-second (NASA/USGS) — AWS Terrain Tiles 배포본. 지형 DEM 추정 고도이며 실측 아님</k100:elevation_source>
      <k100:algorithm>dijkstra-grid-v1</k100:algorithm>
      <k100:osm_snapshot>2026-08-04</k100:osm_snapshot>
      <k100:snap_trailhead_m>45</k100:snap_trailhead_m>
      <k100:snap_summit_m>25</k100:snap_summit_m>
      <k100:validation_score>84</k100:validation_score>
      <k100:validation_status>accepted</k100:validation_status>
    </extensions>
  </metadata>
  <trk>
    <name>영취산 · 상암초교-정상-흥국사 종주코스 (OSM 계산 경로)</name>
    <desc>실제 GPS 기록이 아닙니다. OpenStreetMap에 등록된 등산로 선형 위에서 계산한 경로이며, 현장 통제·훼손·출입 제한·계절 통제를 반영하지 않을 수 있습니다. 산행 전 공식 안내를 확인하세요.</desc>
    <trkseg>
      <trkpt lat="34.826486" lon="127.731625"><ele>48.7</ele></trkpt>
      <trkpt lat="34.826329" lon="127.732212"><ele>40.7</ele></trkpt>
      <trkpt lat="34.825597" lon="127.731991"><ele>42.5</ele></trkpt>
      <trkpt lat="34.825593" lon="127.731816"><ele>44.4</ele></trkpt>
      <trkpt lat="34.825513" lon="127.731751"><ele>45.1</ele></trkpt>
      <trkpt lat="34.825555" lon="127.731430"><ele>48.6</ele></trkpt>
      <trkpt lat="34.825447" lon="127.731688"><ele>45.8</ele></trkpt>
      <trkpt lat="34.825356" lon="127.731668"><ele>46.0</ele></trkpt>
      <trkpt lat="34.825540" lon="127.730956"><ele>52.1</ele></trkpt>
      <trkpt lat="34.825648" lon="127.730792"><ele>52.7</ele></trkpt>
      <trkpt lat="34.825804" lon="127.730733"><ele>52.1</ele></trkpt>
      <trkpt lat="34.825957" lon="127.730111"><ele>56.2</ele></trkpt>
      <trkpt lat="34.826017" lon="127.729516"><ele>58.9</ele></trkpt>
      <trkpt lat="34.826143" lon="127.729259"><ele>61.0</ele></trkpt>
      <trkpt lat="34.826322" lon="127.729154"><ele>61.4</ele></trkpt>
      <trkpt lat="34.826469" lon="127.728859"><ele>66.6</ele></trkpt>
      <trkpt lat="34.826432" lon="127.728649"><ele>68.7</ele></trkpt>
      <trkpt lat="34.826503" lon="127.728329"><ele>71.5</ele></trkpt>
      <trkpt lat="34.826420" lon="127.728054"><ele>74.1</ele></trkpt>
      <trkpt lat="34.826111" lon="127.727548"><ele>72.0</ele></trkpt>
      <trkpt lat="34.826079" lon="127.727450"><ele>71.8</ele></trkpt>
      <trkpt lat="34.826103" lon="127.727214"><ele>73.9</ele></trkpt>
      <trkpt lat="34.826292" lon="127.726890"><ele>81.3</ele></trkpt>
      <trkpt lat="34.826345" lon="127.726538"><ele>86.9</ele></trkpt>
      <trkpt lat="34.826596" lon="127.725950"><ele>94.5</ele></trkpt>
      <trkpt lat="34.826900" lon="127.725574"><ele>100.4</ele></trkpt>
      <trkpt lat="34.827083" lon="127.725096"><ele>111.1</ele></trkpt>
      <trkpt lat="34.827210" lon="127.724976"><ele>116.1</ele></trkpt>
      <trkpt lat="34.827555" lon="127.724898"><ele>126.6</ele></trkpt>
      <trkpt lat="34.827767" lon="127.724580"><ele>137.3</ele></trkpt>
      <trkpt lat="34.827865" lon="127.724307"><ele>143.5</ele></trkpt>
      <trkpt lat="34.827700" lon="127.723985"><ele>145.3</ele></trkpt>
      <trkpt lat="34.827650" lon="127.723513"><ele>154.3</ele></trkpt>
      <trkpt lat="34.827523" lon="127.723050"><ele>160.8</ele></trkpt>
      <trkpt lat="34.827432" lon="127.722340"><ele>173.1</ele></trkpt>
      <trkpt lat="34.827475" lon="127.721913"><ele>184.4</ele></trkpt>
      <trkpt lat="34.827227" lon="127.721553"><ele>187.3</ele></trkpt>
      <trkpt lat="34.827263" lon="127.721397"><ele>194.2</ele></trkpt>
      <trkpt lat="34.827225" lon="127.721187"><ele>198.2</ele></trkpt>
      <trkpt lat="34.827105" lon="127.721083"><ele>196.5</ele></trkpt>
      <trkpt lat="34.826853" lon="127.720393"><ele>209.1</ele></trkpt>
      <trkpt lat="34.826602" lon="127.720008"><ele>215.1</ele></trkpt>
      <trkpt lat="34.826615" lon="127.719867"><ele>220.9</ele></trkpt>
      <trkpt lat="34.826458" lon="127.719612"><ele>227.4</ele></trkpt>
      <trkpt lat="34.826463" lon="127.719438"><ele>236.0</ele></trkpt>
      <trkpt lat="34.826295" lon="127.719247"><ele>238.9</ele></trkpt>
      <trkpt lat="34.826273" lon="127.719107"><ele>244.2</ele></trkpt>
      <trkpt lat="34.826090" lon="127.718762"><ele>251.7</ele></trkpt>
      <trkpt lat="34.825948" lon="127.718612"><ele>253.5</ele></trkpt>
      <trkpt lat="34.825880" lon="127.718275"><ele>268.5</ele></trkpt>
    </trkseg>
  </trk>
</gpx>
