<?xml version="1.0" encoding="UTF-8"?>
<gpx version="1.1" creator="kr-100-mountains route-harvester"
     xmlns="http://www.topografix.com/GPX/1/1"
     xmlns:k100="https://github.com/jay-jang/kr-100-mountains/ns/1"
     xmlns:xsi="http://www.w3.org/2001/XMLSchema-instance"
     xsi:schemaLocation="http://www.topografix.com/GPX/1/1 http://www.topografix.com/GPX/1/1/gpx.xsd">
  <metadata>
    <name>명지산 · 백둔리-연인산-아재비고개-명지산-익근리 종주 (대안 1) (OSM 계산 경로)</name>
    <desc>실제 GPS 기록이 아닙니다. OpenStreetMap에 등록된 등산로 선형 위에서 계산한 경로이며, 현장 통제·훼손·출입 제한·계절 통제를 반영하지 않을 수 있습니다. 산행 전 공식 안내를 확인하세요.</desc>
    <time>2026-08-04T05:13:32.260Z</time>
    <link href="https://www.openstreetmap.org/copyright"><text>© OpenStreetMap contributors (ODbL 1.0)</text></link>
    <link href="https://registry.opendata.aws/terrain-tiles/"><text>Elevation: SRTM 1 arc-second (NASA/USGS) via AWS Terrain Tiles</text></link>
    <extensions>
      <k100:provenance>osm-routed</k100:provenance>
      <k100:not_a_recorded_track>true</k100:not_a_recorded_track>
      <k100:mountain_id>myeongjisan</k100:mountain_id>
      <k100:mountain_name>명지산</k100:mountain_name>
      <k100:route_id>myeongjisan-1fa36ee4</k100:route_id>
      <k100:route_index>4</k100:route_index>
      <k100:route_name>백둔리-연인산-아재비고개-명지산-익근리 종주</k100:route_name>
      <k100:variant>1</k100:variant>
      <k100:source>OpenStreetMap via Overpass API</k100:source>
      <k100:license>ODbL-1.0</k100:license>
      <k100:attribution>© OpenStreetMap contributors</k100:attribution>
      <k100:elevation_source>SRTM 1 arc-second (NASA/USGS) — AWS Terrain Tiles 배포본. 지형 DEM 추정 고도이며 실측 아님</k100:elevation_source>
      <k100:algorithm>dijkstra-grid-v1</k100:algorithm>
      <k100:osm_snapshot>2026-08-04</k100:osm_snapshot>
      <k100:snap_trailhead_m>29</k100:snap_trailhead_m>
      <k100:snap_summit_m>16</k100:snap_summit_m>
      <k100:validation_score>84</k100:validation_score>
      <k100:validation_status>accepted</k100:validation_status>
    </extensions>
  </metadata>
  <trk>
    <name>명지산 · 백둔리-연인산-아재비고개-명지산-익근리 종주 (대안 1) (OSM 계산 경로)</name>
    <desc>실제 GPS 기록이 아닙니다. OpenStreetMap에 등록된 등산로 선형 위에서 계산한 경로이며, 현장 통제·훼손·출입 제한·계절 통제를 반영하지 않을 수 있습니다. 산행 전 공식 안내를 확인하세요.</desc>
    <trkseg>
      <trkpt lat="37.922930" lon="127.394579"><ele>324.8</ele></trkpt>
      <trkpt lat="37.923136" lon="127.394945"><ele>328.1</ele></trkpt>
      <trkpt lat="37.923558" lon="127.395437"><ele>337.0</ele></trkpt>
      <trkpt lat="37.923924" lon="127.395697"><ele>338.5</ele></trkpt>
      <trkpt lat="37.924241" lon="127.395798"><ele>336.6</ele></trkpt>
      <trkpt lat="37.924703" lon="127.395730"><ele>338.2</ele></trkpt>
      <trkpt lat="37.924869" lon="127.395845"><ele>339.6</ele></trkpt>
      <trkpt lat="37.925151" lon="127.396198"><ele>344.1</ele></trkpt>
      <trkpt lat="37.925271" lon="127.396751"><ele>354.1</ele></trkpt>
      <trkpt lat="37.925356" lon="127.396904"><ele>358.1</ele></trkpt>
      <trkpt lat="37.926207" lon="127.396866"><ele>365.4</ele></trkpt>
      <trkpt lat="37.926449" lon="127.397354"><ele>371.6</ele></trkpt>
      <trkpt lat="37.926635" lon="127.397616"><ele>375.3</ele></trkpt>
      <trkpt lat="37.926957" lon="127.397697"><ele>376.0</ele></trkpt>
      <trkpt lat="37.927189" lon="127.397686"><ele>381.2</ele></trkpt>
      <trkpt lat="37.927414" lon="127.397874"><ele>384.8</ele></trkpt>
      <trkpt lat="37.927595" lon="127.397885"><ele>387.6</ele></trkpt>
      <trkpt lat="37.927722" lon="127.397992"><ele>389.7</ele></trkpt>
      <trkpt lat="37.927972" lon="127.398754"><ele>404.7</ele></trkpt>
      <trkpt lat="37.928315" lon="127.399177"><ele>411.9</ele></trkpt>
      <trkpt lat="37.928581" lon="127.399392"><ele>420.7</ele></trkpt>
      <trkpt lat="37.929351" lon="127.399650"><ele>427.0</ele></trkpt>
      <trkpt lat="37.930303" lon="127.400331"><ele>453.6</ele></trkpt>
      <trkpt lat="37.930523" lon="127.400438"><ele>461.8</ele></trkpt>
      <trkpt lat="37.930689" lon="127.400599"><ele>467.2</ele></trkpt>
      <trkpt lat="37.931103" lon="127.401248"><ele>469.5</ele></trkpt>
      <trkpt lat="37.931103" lon="127.401554"><ele>472.7</ele></trkpt>
      <trkpt lat="37.931175" lon="127.401908"><ele>483.1</ele></trkpt>
      <trkpt lat="37.931556" lon="127.401817"><ele>480.6</ele></trkpt>
      <trkpt lat="37.931949" lon="127.402005"><ele>490.6</ele></trkpt>
      <trkpt lat="37.932444" lon="127.402568"><ele>506.7</ele></trkpt>
      <trkpt lat="37.932614" lon="127.402857"><ele>513.8</ele></trkpt>
      <trkpt lat="37.932999" lon="127.402895"><ele>525.4</ele></trkpt>
      <trkpt lat="37.932999" lon="127.403024"><ele>526.8</ele></trkpt>
      <trkpt lat="37.933117" lon="127.403287"><ele>538.5</ele></trkpt>
      <trkpt lat="37.933845" lon="127.404220"><ele>562.8</ele></trkpt>
      <trkpt lat="37.934234" lon="127.404563"><ele>572.4</ele></trkpt>
      <trkpt lat="37.934497" lon="127.404660"><ele>568.2</ele></trkpt>
      <trkpt lat="37.934763" lon="127.405293"><ele>585.3</ele></trkpt>
      <trkpt lat="37.934890" lon="127.405835"><ele>614.0</ele></trkpt>
      <trkpt lat="37.934958" lon="127.405958"><ele>617.5</ele></trkpt>
      <trkpt lat="37.935829" lon="127.406591"><ele>639.9</ele></trkpt>
      <trkpt lat="37.936180" lon="127.406977"><ele>665.3</ele></trkpt>
      <trkpt lat="37.936633" lon="127.406961"><ele>688.6</ele></trkpt>
      <trkpt lat="37.936891" lon="127.407101"><ele>695.3</ele></trkpt>
      <trkpt lat="37.937115" lon="127.407455"><ele>708.8</ele></trkpt>
      <trkpt lat="37.937643" lon="127.407990"><ele>747.0</ele></trkpt>
      <trkpt lat="37.937399" lon="127.408494"><ele>751.8</ele></trkpt>
      <trkpt lat="37.937445" lon="127.408703"><ele>756.9</ele></trkpt>
      <trkpt lat="37.937370" lon="127.408875"><ele>761.5</ele></trkpt>
      <trkpt lat="37.937169" lon="127.409122"><ele>773.2</ele></trkpt>
      <trkpt lat="37.937046" lon="127.409158"><ele>776.2</ele></trkpt>
      <trkpt lat="37.936949" lon="127.409346"><ele>783.1</ele></trkpt>
      <trkpt lat="37.936883" lon="127.409679"><ele>789.7</ele></trkpt>
      <trkpt lat="37.936186" lon="127.410521"><ele>809.8</ele></trkpt>
      <trkpt lat="37.935972" lon="127.410491"><ele>814.0</ele></trkpt>
      <trkpt lat="37.935627" lon="127.410673"><ele>820.8</ele></trkpt>
      <trkpt lat="37.935320" lon="127.410991"><ele>826.2</ele></trkpt>
      <trkpt lat="37.935066" lon="127.411888"><ele>835.1</ele></trkpt>
      <trkpt lat="37.934902" lon="127.412031"><ele>839.5</ele></trkpt>
      <trkpt lat="37.934650" lon="127.412582"><ele>850.6</ele></trkpt>
      <trkpt lat="37.934656" lon="127.412765"><ele>853.9</ele></trkpt>
      <trkpt lat="37.934379" lon="127.413315"><ele>883.9</ele></trkpt>
      <trkpt lat="37.933630" lon="127.414122"><ele>919.7</ele></trkpt>
      <trkpt lat="37.933542" lon="127.414102"><ele>921.9</ele></trkpt>
      <trkpt lat="37.933236" lon="127.414273"><ele>940.7</ele></trkpt>
      <trkpt lat="37.933322" lon="127.414449"><ele>954.8</ele></trkpt>
      <trkpt lat="37.933254" lon="127.414696"><ele>964.6</ele></trkpt>
      <trkpt lat="37.933248" lon="127.414958"><ele>975.2</ele></trkpt>
      <trkpt lat="37.933291" lon="127.415096"><ele>982.0</ele></trkpt>
      <trkpt lat="37.933214" lon="127.415238"><ele>984.6</ele></trkpt>
      <trkpt lat="37.933310" lon="127.415412"><ele>994.6</ele></trkpt>
      <trkpt lat="37.933178" lon="127.415680"><ele>1004.2</ele></trkpt>
      <trkpt lat="37.933268" lon="127.415897"><ele>1018.8</ele></trkpt>
      <trkpt lat="37.933170" lon="127.416169"><ele>1028.0</ele></trkpt>
      <trkpt lat="37.933304" lon="127.416430"><ele>1042.3</ele></trkpt>
      <trkpt lat="37.933252" lon="127.416737"><ele>1054.6</ele></trkpt>
      <trkpt lat="37.933146" lon="127.416958"><ele>1063.4</ele></trkpt>
      <trkpt lat="37.933149" lon="127.417132"><ele>1067.9</ele></trkpt>
      <trkpt lat="37.932996" lon="127.417560"><ele>1082.2</ele></trkpt>
      <trkpt lat="37.932804" lon="127.417789"><ele>1089.7</ele></trkpt>
      <trkpt lat="37.932836" lon="127.417893"><ele>1094.3</ele></trkpt>
      <trkpt lat="37.932699" lon="127.418662"><ele>1106.3</ele></trkpt>
      <trkpt lat="37.932361" lon="127.419205"><ele>1103.7</ele></trkpt>
      <trkpt lat="37.932207" lon="127.419267"><ele>1102.3</ele></trkpt>
      <trkpt lat="37.932145" lon="127.419385"><ele>1102.3</ele></trkpt>
      <trkpt lat="37.932141" lon="127.419679"><ele>1099.5</ele></trkpt>
      <trkpt lat="37.931778" lon="127.420229"><ele>1097.7</ele></trkpt>
      <trkpt lat="37.931604" lon="127.420366"><ele>1099.6</ele></trkpt>
      <trkpt lat="37.931101" lon="127.420598"><ele>1117.9</ele></trkpt>
      <trkpt lat="37.930963" lon="127.420570"><ele>1123.1</ele></trkpt>
      <trkpt lat="37.930649" lon="127.420773"><ele>1135.3</ele></trkpt>
      <trkpt lat="37.930559" lon="127.421124"><ele>1142.8</ele></trkpt>
      <trkpt lat="37.930483" lon="127.421131"><ele>1143.4</ele></trkpt>
      <trkpt lat="37.930277" lon="127.421416"><ele>1154.4</ele></trkpt>
      <trkpt lat="37.930200" lon="127.421410"><ele>1155.2</ele></trkpt>
      <trkpt lat="37.929882" lon="127.421822"><ele>1171.3</ele></trkpt>
      <trkpt lat="37.929817" lon="127.422086"><ele>1181.7</ele></trkpt>
      <trkpt lat="37.929647" lon="127.422311"><ele>1191.7</ele></trkpt>
      <trkpt lat="37.929538" lon="127.422590"><ele>1194.3</ele></trkpt>
      <trkpt lat="37.929490" lon="127.422874"><ele>1194.2</ele></trkpt>
      <trkpt lat="37.929571" lon="127.423507"><ele>1192.7</ele></trkpt>
      <trkpt lat="37.929451" lon="127.423822"><ele>1189.0</ele></trkpt>
      <trkpt lat="37.929707" lon="127.424441"><ele>1197.7</ele></trkpt>
      <trkpt lat="37.929578" lon="127.424695"><ele>1194.5</ele></trkpt>
      <trkpt lat="37.929670" lon="127.424870"><ele>1195.4</ele></trkpt>
      <trkpt lat="37.929631" lon="127.425199"><ele>1195.0</ele></trkpt>
      <trkpt lat="37.929742" lon="127.425418"><ele>1196.1</ele></trkpt>
      <trkpt lat="37.929754" lon="127.425674"><ele>1193.7</ele></trkpt>
      <trkpt lat="37.929889" lon="127.426226"><ele>1187.9</ele></trkpt>
      <trkpt lat="37.930087" lon="127.426603"><ele>1183.6</ele></trkpt>
      <trkpt lat="37.930219" lon="127.426647"><ele>1180.4</ele></trkpt>
      <trkpt lat="37.930301" lon="127.426794"><ele>1179.5</ele></trkpt>
      <trkpt lat="37.930343" lon="127.426930"><ele>1180.3</ele></trkpt>
      <trkpt lat="37.930325" lon="127.427115"><ele>1183.3</ele></trkpt>
      <trkpt lat="37.930375" lon="127.427243"><ele>1185.3</ele></trkpt>
      <trkpt lat="37.930495" lon="127.427376"><ele>1189.4</ele></trkpt>
      <trkpt lat="37.930647" lon="127.427383"><ele>1187.5</ele></trkpt>
      <trkpt lat="37.930715" lon="127.427472"><ele>1187.4</ele></trkpt>
      <trkpt lat="37.930960" lon="127.427921"><ele>1186.8</ele></trkpt>
      <trkpt lat="37.931102" lon="127.428395"><ele>1195.6</ele></trkpt>
      <trkpt lat="37.931258" lon="127.428634"><ele>1197.9</ele></trkpt>
      <trkpt lat="37.931321" lon="127.429134"><ele>1207.7</ele></trkpt>
      <trkpt lat="37.931454" lon="127.429430"><ele>1210.4</ele></trkpt>
      <trkpt lat="37.931395" lon="127.429757"><ele>1215.6</ele></trkpt>
      <trkpt lat="37.931634" lon="127.430392"><ele>1230.8</ele></trkpt>
      <trkpt lat="37.931625" lon="127.430514"><ele>1231.9</ele></trkpt>
      <trkpt lat="37.931752" lon="127.430708"><ele>1232.1</ele></trkpt>
      <trkpt lat="37.931735" lon="127.430770"><ele>1232.3</ele></trkpt>
      <trkpt lat="37.931945" lon="127.430720"><ele>1230.0</ele></trkpt>
      <trkpt lat="37.932077" lon="127.430625"><ele>1230.2</ele></trkpt>
      <trkpt lat="37.932163" lon="127.430648"><ele>1230.5</ele></trkpt>
      <trkpt lat="37.932405" lon="127.430518"><ele>1231.4</ele></trkpt>
      <trkpt lat="37.932577" lon="127.430539"><ele>1230.6</ele></trkpt>
      <trkpt lat="37.932786" lon="127.430686"><ele>1227.8</ele></trkpt>
    </trkseg>
  </trk>
</gpx>
