<?xml version="1.0" encoding="UTF-8"?>
<gpx version="1.1" creator="kr-100-mountains route-harvester"
     xmlns="http://www.topografix.com/GPX/1/1"
     xmlns:k100="https://github.com/jay-jang/kr-100-mountains/ns/1"
     xmlns:xsi="http://www.w3.org/2001/XMLSchema-instance"
     xsi:schemaLocation="http://www.topografix.com/GPX/1/1 http://www.topografix.com/GPX/1/1/gpx.xsd">
  <metadata>
    <name>명지산 · 익근리-명지폭포-정상 코스 (OSM 계산 경로)</name>
    <desc>실제 GPS 기록이 아닙니다. OpenStreetMap에 등록된 등산로 선형 위에서 계산한 경로이며, 현장 통제·훼손·출입 제한·계절 통제를 반영하지 않을 수 있습니다. 산행 전 공식 안내를 확인하세요.</desc>
    <time>2026-08-04T05:13:32.189Z</time>
    <link href="https://www.openstreetmap.org/copyright"><text>© OpenStreetMap contributors (ODbL 1.0)</text></link>
    <link href="https://registry.opendata.aws/terrain-tiles/"><text>Elevation: SRTM 1 arc-second (NASA/USGS) via AWS Terrain Tiles</text></link>
    <extensions>
      <k100:provenance>osm-routed</k100:provenance>
      <k100:not_a_recorded_track>true</k100:not_a_recorded_track>
      <k100:mountain_id>myeongjisan</k100:mountain_id>
      <k100:mountain_name>명지산</k100:mountain_name>
      <k100:route_id>myeongjisan-0be45c30</k100:route_id>
      <k100:route_index>1</k100:route_index>
      <k100:route_name>익근리-명지폭포-정상 코스</k100:route_name>
      <k100:variant>0</k100:variant>
      <k100:source>OpenStreetMap via Overpass API</k100:source>
      <k100:license>ODbL-1.0</k100:license>
      <k100:attribution>© OpenStreetMap contributors</k100:attribution>
      <k100:elevation_source>SRTM 1 arc-second (NASA/USGS) — AWS Terrain Tiles 배포본. 지형 DEM 추정 고도이며 실측 아님</k100:elevation_source>
      <k100:algorithm>dijkstra-grid-v1</k100:algorithm>
      <k100:osm_snapshot>2026-08-04</k100:osm_snapshot>
      <k100:snap_trailhead_m>101</k100:snap_trailhead_m>
      <k100:snap_summit_m>16</k100:snap_summit_m>
      <k100:validation_score>100</k100:validation_score>
      <k100:validation_status>accepted</k100:validation_status>
    </extensions>
  </metadata>
  <trk>
    <name>명지산 · 익근리-명지폭포-정상 코스 (OSM 계산 경로)</name>
    <desc>실제 GPS 기록이 아닙니다. OpenStreetMap에 등록된 등산로 선형 위에서 계산한 경로이며, 현장 통제·훼손·출입 제한·계절 통제를 반영하지 않을 수 있습니다. 산행 전 공식 안내를 확인하세요.</desc>
    <trkseg>
      <trkpt lat="37.934860" lon="127.477397"><ele>256.0</ele></trkpt>
      <trkpt lat="37.934655" lon="127.476747"><ele>260.4</ele></trkpt>
      <trkpt lat="37.934524" lon="127.476504"><ele>261.9</ele></trkpt>
      <trkpt lat="37.934562" lon="127.475387"><ele>270.9</ele></trkpt>
      <trkpt lat="37.934522" lon="127.474412"><ele>292.0</ele></trkpt>
      <trkpt lat="37.934458" lon="127.473957"><ele>286.8</ele></trkpt>
      <trkpt lat="37.934549" lon="127.472898"><ele>298.9</ele></trkpt>
      <trkpt lat="37.934501" lon="127.471864"><ele>304.7</ele></trkpt>
      <trkpt lat="37.935496" lon="127.468118"><ele>329.3</ele></trkpt>
      <trkpt lat="37.935569" lon="127.467718"><ele>332.2</ele></trkpt>
      <trkpt lat="37.935589" lon="127.467355"><ele>337.6</ele></trkpt>
      <trkpt lat="37.935462" lon="127.465649"><ele>349.1</ele></trkpt>
      <trkpt lat="37.935242" lon="127.464745"><ele>358.1</ele></trkpt>
      <trkpt lat="37.935438" lon="127.463657"><ele>372.4</ele></trkpt>
      <trkpt lat="37.935438" lon="127.463304"><ele>373.5</ele></trkpt>
      <trkpt lat="37.935403" lon="127.463055"><ele>376.2</ele></trkpt>
      <trkpt lat="37.935168" lon="127.462525"><ele>380.4</ele></trkpt>
      <trkpt lat="37.935165" lon="127.462141"><ele>383.1</ele></trkpt>
      <trkpt lat="37.935058" lon="127.461701"><ele>385.7</ele></trkpt>
      <trkpt lat="37.934734" lon="127.461199"><ele>394.6</ele></trkpt>
      <trkpt lat="37.933746" lon="127.460077"><ele>423.2</ele></trkpt>
      <trkpt lat="37.933701" lon="127.459879"><ele>428.5</ele></trkpt>
      <trkpt lat="37.933466" lon="127.459630"><ele>428.7</ele></trkpt>
      <trkpt lat="37.933418" lon="127.459426"><ele>430.7</ele></trkpt>
      <trkpt lat="37.933282" lon="127.459148"><ele>432.9</ele></trkpt>
      <trkpt lat="37.933464" lon="127.458489"><ele>440.6</ele></trkpt>
      <trkpt lat="37.933646" lon="127.457153"><ele>461.8</ele></trkpt>
      <trkpt lat="37.933597" lon="127.455877"><ele>480.5</ele></trkpt>
      <trkpt lat="37.933873" lon="127.454651"><ele>500.9</ele></trkpt>
      <trkpt lat="37.933901" lon="127.453444"><ele>511.7</ele></trkpt>
      <trkpt lat="37.933855" lon="127.453008"><ele>518.9</ele></trkpt>
      <trkpt lat="37.933955" lon="127.451796"><ele>544.5</ele></trkpt>
      <trkpt lat="37.934101" lon="127.451387"><ele>555.2</ele></trkpt>
      <trkpt lat="37.934078" lon="127.451201"><ele>556.0</ele></trkpt>
      <trkpt lat="37.934149" lon="127.450937"><ele>560.1</ele></trkpt>
      <trkpt lat="37.934108" lon="127.450658"><ele>559.8</ele></trkpt>
      <trkpt lat="37.934224" lon="127.449960"><ele>574.5</ele></trkpt>
      <trkpt lat="37.934354" lon="127.449483"><ele>581.2</ele></trkpt>
      <trkpt lat="37.934580" lon="127.449186"><ele>587.4</ele></trkpt>
      <trkpt lat="37.934455" lon="127.448575"><ele>591.5</ele></trkpt>
      <trkpt lat="37.934465" lon="127.448128"><ele>606.3</ele></trkpt>
      <trkpt lat="37.934260" lon="127.448183"><ele>606.1</ele></trkpt>
      <trkpt lat="37.934233" lon="127.447795"><ele>616.3</ele></trkpt>
      <trkpt lat="37.934376" lon="127.447445"><ele>620.8</ele></trkpt>
      <trkpt lat="37.934489" lon="127.446454"><ele>638.5</ele></trkpt>
      <trkpt lat="37.934844" lon="127.445892"><ele>645.3</ele></trkpt>
      <trkpt lat="37.935059" lon="127.445730"><ele>648.0</ele></trkpt>
      <trkpt lat="37.935311" lon="127.445182"><ele>660.0</ele></trkpt>
      <trkpt lat="37.935382" lon="127.445106"><ele>663.9</ele></trkpt>
      <trkpt lat="37.935435" lon="127.444795"><ele>671.2</ele></trkpt>
      <trkpt lat="37.935391" lon="127.444199"><ele>684.3</ele></trkpt>
      <trkpt lat="37.935414" lon="127.443816"><ele>691.5</ele></trkpt>
      <trkpt lat="37.935497" lon="127.443413"><ele>697.7</ele></trkpt>
      <trkpt lat="37.935469" lon="127.443173"><ele>702.0</ele></trkpt>
      <trkpt lat="37.935300" lon="127.443056"><ele>700.6</ele></trkpt>
      <trkpt lat="37.935034" lon="127.442973"><ele>705.9</ele></trkpt>
      <trkpt lat="37.935065" lon="127.442393"><ele>717.1</ele></trkpt>
      <trkpt lat="37.934955" lon="127.442152"><ele>726.1</ele></trkpt>
      <trkpt lat="37.934742" lon="127.442018"><ele>741.8</ele></trkpt>
      <trkpt lat="37.934668" lon="127.441817"><ele>752.9</ele></trkpt>
      <trkpt lat="37.934729" lon="127.441735"><ele>753.1</ele></trkpt>
      <trkpt lat="37.933804" lon="127.440844"><ele>812.6</ele></trkpt>
      <trkpt lat="37.933803" lon="127.440700"><ele>818.8</ele></trkpt>
      <trkpt lat="37.933982" lon="127.440696"><ele>817.1</ele></trkpt>
      <trkpt lat="37.934040" lon="127.440502"><ele>824.0</ele></trkpt>
      <trkpt lat="37.933997" lon="127.440083"><ele>838.0</ele></trkpt>
      <trkpt lat="37.933909" lon="127.440064"><ele>842.1</ele></trkpt>
      <trkpt lat="37.933860" lon="127.439902"><ele>847.1</ele></trkpt>
      <trkpt lat="37.933787" lon="127.439871"><ele>849.4</ele></trkpt>
      <trkpt lat="37.933656" lon="127.439689"><ele>857.2</ele></trkpt>
      <trkpt lat="37.933605" lon="127.439219"><ele>876.0</ele></trkpt>
      <trkpt lat="37.933463" lon="127.438841"><ele>894.0</ele></trkpt>
      <trkpt lat="37.933423" lon="127.438584"><ele>904.7</ele></trkpt>
      <trkpt lat="37.933201" lon="127.438099"><ele>930.7</ele></trkpt>
      <trkpt lat="37.933112" lon="127.437642"><ele>954.5</ele></trkpt>
      <trkpt lat="37.932962" lon="127.437368"><ele>968.8</ele></trkpt>
      <trkpt lat="37.932897" lon="127.437012"><ele>988.0</ele></trkpt>
      <trkpt lat="37.932922" lon="127.436847"><ele>994.9</ele></trkpt>
      <trkpt lat="37.933036" lon="127.436655"><ele>999.0</ele></trkpt>
      <trkpt lat="37.932999" lon="127.436542"><ele>1004.0</ele></trkpt>
      <trkpt lat="37.932756" lon="127.436394"><ele>1022.4</ele></trkpt>
      <trkpt lat="37.932485" lon="127.435979"><ele>1048.2</ele></trkpt>
      <trkpt lat="37.932544" lon="127.435947"><ele>1047.1</ele></trkpt>
      <trkpt lat="37.932494" lon="127.435730"><ele>1054.1</ele></trkpt>
      <trkpt lat="37.932330" lon="127.435461"><ele>1069.3</ele></trkpt>
      <trkpt lat="37.932287" lon="127.435221"><ele>1080.7</ele></trkpt>
      <trkpt lat="37.932132" lon="127.435165"><ele>1092.3</ele></trkpt>
      <trkpt lat="37.931766" lon="127.434872"><ele>1116.8</ele></trkpt>
      <trkpt lat="37.931577" lon="127.434885"><ele>1112.7</ele></trkpt>
      <trkpt lat="37.931454" lon="127.434634"><ele>1115.9</ele></trkpt>
      <trkpt lat="37.931519" lon="127.434521"><ele>1121.7</ele></trkpt>
      <trkpt lat="37.931533" lon="127.434306"><ele>1124.5</ele></trkpt>
      <trkpt lat="37.931769" lon="127.433949"><ele>1134.6</ele></trkpt>
      <trkpt lat="37.931924" lon="127.433263"><ele>1154.9</ele></trkpt>
      <trkpt lat="37.931983" lon="127.432675"><ele>1173.2</ele></trkpt>
      <trkpt lat="37.931727" lon="127.432319"><ele>1191.0</ele></trkpt>
      <trkpt lat="37.931648" lon="127.431952"><ele>1208.0</ele></trkpt>
      <trkpt lat="37.931632" lon="127.431572"><ele>1218.0</ele></trkpt>
      <trkpt lat="37.931390" lon="127.431542"><ele>1215.6</ele></trkpt>
      <trkpt lat="37.931293" lon="127.431421"><ele>1212.3</ele></trkpt>
      <trkpt lat="37.931371" lon="127.430663"><ele>1227.7</ele></trkpt>
      <trkpt lat="37.931533" lon="127.430507"><ele>1230.5</ele></trkpt>
      <trkpt lat="37.931612" lon="127.430852"><ele>1231.9</ele></trkpt>
      <trkpt lat="37.932405" lon="127.430518"><ele>1231.4</ele></trkpt>
      <trkpt lat="37.932577" lon="127.430539"><ele>1230.6</ele></trkpt>
      <trkpt lat="37.932786" lon="127.430686"><ele>1227.8</ele></trkpt>
    </trkseg>
  </trk>
</gpx>
