<?xml version="1.0" encoding="UTF-8"?>
<gpx version="1.1" creator="kr-100-mountains route-harvester"
     xmlns="http://www.topografix.com/GPX/1/1"
     xmlns:k100="https://github.com/jay-jang/kr-100-mountains/ns/1"
     xmlns:xsi="http://www.w3.org/2001/XMLSchema-instance"
     xsi:schemaLocation="http://www.topografix.com/GPX/1/1 http://www.topografix.com/GPX/1/1/gpx.xsd">
  <metadata>
    <name>명지산 · 익근리-명지폭포-정상 코스 (대안 1) (OSM 계산 경로)</name>
    <desc>실제 GPS 기록이 아닙니다. OpenStreetMap에 등록된 등산로 선형 위에서 계산한 경로이며, 현장 통제·훼손·출입 제한·계절 통제를 반영하지 않을 수 있습니다. 산행 전 공식 안내를 확인하세요.</desc>
    <time>2026-08-04T05:13:32.191Z</time>
    <link href="https://www.openstreetmap.org/copyright"><text>© OpenStreetMap contributors (ODbL 1.0)</text></link>
    <link href="https://registry.opendata.aws/terrain-tiles/"><text>Elevation: SRTM 1 arc-second (NASA/USGS) via AWS Terrain Tiles</text></link>
    <extensions>
      <k100:provenance>osm-routed</k100:provenance>
      <k100:not_a_recorded_track>true</k100:not_a_recorded_track>
      <k100:mountain_id>myeongjisan</k100:mountain_id>
      <k100:mountain_name>명지산</k100:mountain_name>
      <k100:route_id>myeongjisan-0be45c30</k100:route_id>
      <k100:route_index>1</k100:route_index>
      <k100:route_name>익근리-명지폭포-정상 코스</k100:route_name>
      <k100:variant>1</k100:variant>
      <k100:source>OpenStreetMap via Overpass API</k100:source>
      <k100:license>ODbL-1.0</k100:license>
      <k100:attribution>© OpenStreetMap contributors</k100:attribution>
      <k100:elevation_source>SRTM 1 arc-second (NASA/USGS) — AWS Terrain Tiles 배포본. 지형 DEM 추정 고도이며 실측 아님</k100:elevation_source>
      <k100:algorithm>dijkstra-grid-v1</k100:algorithm>
      <k100:osm_snapshot>2026-08-04</k100:osm_snapshot>
      <k100:snap_trailhead_m>101</k100:snap_trailhead_m>
      <k100:snap_summit_m>16</k100:snap_summit_m>
      <k100:validation_score>84</k100:validation_score>
      <k100:validation_status>accepted</k100:validation_status>
    </extensions>
  </metadata>
  <trk>
    <name>명지산 · 익근리-명지폭포-정상 코스 (대안 1) (OSM 계산 경로)</name>
    <desc>실제 GPS 기록이 아닙니다. OpenStreetMap에 등록된 등산로 선형 위에서 계산한 경로이며, 현장 통제·훼손·출입 제한·계절 통제를 반영하지 않을 수 있습니다. 산행 전 공식 안내를 확인하세요.</desc>
    <trkseg>
      <trkpt lat="37.934860" lon="127.477397"><ele>256.0</ele></trkpt>
      <trkpt lat="37.935533" lon="127.478416"><ele>250.4</ele></trkpt>
      <trkpt lat="37.935753" lon="127.478832"><ele>251.5</ele></trkpt>
      <trkpt lat="37.936222" lon="127.480306"><ele>244.9</ele></trkpt>
      <trkpt lat="37.936313" lon="127.480721"><ele>239.9</ele></trkpt>
      <trkpt lat="37.936428" lon="127.480985"><ele>239.0</ele></trkpt>
      <trkpt lat="37.936412" lon="127.483085"><ele>226.9</ele></trkpt>
      <trkpt lat="37.936484" lon="127.483659"><ele>229.1</ele></trkpt>
      <trkpt lat="37.936475" lon="127.484532"><ele>220.5</ele></trkpt>
      <trkpt lat="37.936560" lon="127.484380"><ele>225.1</ele></trkpt>
      <trkpt lat="37.936695" lon="127.483774"><ele>238.4</ele></trkpt>
      <trkpt lat="37.936729" lon="127.483429"><ele>242.6</ele></trkpt>
      <trkpt lat="37.936682" lon="127.483171"><ele>239.4</ele></trkpt>
      <trkpt lat="37.936860" lon="127.482747"><ele>250.2</ele></trkpt>
      <trkpt lat="37.936898" lon="127.482545"><ele>254.7</ele></trkpt>
      <trkpt lat="37.936810" lon="127.481970"><ele>247.4</ele></trkpt>
      <trkpt lat="37.936826" lon="127.481700"><ele>248.2</ele></trkpt>
      <trkpt lat="37.937013" lon="127.481300"><ele>258.9</ele></trkpt>
      <trkpt lat="37.937273" lon="127.481232"><ele>267.0</ele></trkpt>
      <trkpt lat="37.937486" lon="127.481014"><ele>268.1</ele></trkpt>
      <trkpt lat="37.937745" lon="127.480590"><ele>276.0</ele></trkpt>
      <trkpt lat="37.937983" lon="127.480515"><ele>288.3</ele></trkpt>
      <trkpt lat="37.938402" lon="127.480079"><ele>303.0</ele></trkpt>
      <trkpt lat="37.938614" lon="127.479975"><ele>308.1</ele></trkpt>
      <trkpt lat="37.939105" lon="127.479599"><ele>327.5</ele></trkpt>
      <trkpt lat="37.939387" lon="127.479547"><ele>337.3</ele></trkpt>
      <trkpt lat="37.939884" lon="127.479182"><ele>349.9</ele></trkpt>
      <trkpt lat="37.940325" lon="127.479040"><ele>367.7</ele></trkpt>
      <trkpt lat="37.941206" lon="127.478925"><ele>390.6</ele></trkpt>
      <trkpt lat="37.941382" lon="127.479024"><ele>397.7</ele></trkpt>
      <trkpt lat="37.941863" lon="127.479535"><ele>428.5</ele></trkpt>
      <trkpt lat="37.942051" lon="127.479607"><ele>434.1</ele></trkpt>
      <trkpt lat="37.942279" lon="127.479547"><ele>435.5</ele></trkpt>
      <trkpt lat="37.942417" lon="127.479282"><ele>435.7</ele></trkpt>
      <trkpt lat="37.942510" lon="127.478774"><ele>440.4</ele></trkpt>
      <trkpt lat="37.942648" lon="127.478489"><ele>443.7</ele></trkpt>
      <trkpt lat="37.942776" lon="127.478033"><ele>457.1</ele></trkpt>
      <trkpt lat="37.942791" lon="127.477602"><ele>479.0</ele></trkpt>
      <trkpt lat="37.942970" lon="127.477395"><ele>490.3</ele></trkpt>
      <trkpt lat="37.943011" lon="127.477157"><ele>501.1</ele></trkpt>
      <trkpt lat="37.942989" lon="127.476673"><ele>523.8</ele></trkpt>
      <trkpt lat="37.942679" lon="127.475884"><ele>540.4</ele></trkpt>
      <trkpt lat="37.943079" lon="127.475535"><ele>551.8</ele></trkpt>
      <trkpt lat="37.943283" lon="127.474676"><ele>576.7</ele></trkpt>
      <trkpt lat="37.943514" lon="127.474310"><ele>591.7</ele></trkpt>
      <trkpt lat="37.943458" lon="127.473398"><ele>617.2</ele></trkpt>
      <trkpt lat="37.943511" lon="127.473093"><ele>626.9</ele></trkpt>
      <trkpt lat="37.943470" lon="127.472970"><ele>631.0</ele></trkpt>
      <trkpt lat="37.943464" lon="127.472407"><ele>654.7</ele></trkpt>
      <trkpt lat="37.943339" lon="127.472161"><ele>660.6</ele></trkpt>
      <trkpt lat="37.943020" lon="127.471793"><ele>672.8</ele></trkpt>
      <trkpt lat="37.942861" lon="127.471705"><ele>674.9</ele></trkpt>
      <trkpt lat="37.942861" lon="127.471479"><ele>677.9</ele></trkpt>
      <trkpt lat="37.942995" lon="127.470893"><ele>681.2</ele></trkpt>
      <trkpt lat="37.943248" lon="127.470444"><ele>676.9</ele></trkpt>
      <trkpt lat="37.943408" lon="127.469981"><ele>677.6</ele></trkpt>
      <trkpt lat="37.943836" lon="127.469390"><ele>686.9</ele></trkpt>
      <trkpt lat="37.944105" lon="127.469176"><ele>691.7</ele></trkpt>
      <trkpt lat="37.944330" lon="127.468831"><ele>698.1</ele></trkpt>
      <trkpt lat="37.944489" lon="127.468454"><ele>712.5</ele></trkpt>
      <trkpt lat="37.944574" lon="127.468030"><ele>721.8</ele></trkpt>
      <trkpt lat="37.944846" lon="127.467562"><ele>734.9</ele></trkpt>
      <trkpt lat="37.944783" lon="127.467328"><ele>733.9</ele></trkpt>
      <trkpt lat="37.944683" lon="127.467178"><ele>732.5</ele></trkpt>
      <trkpt lat="37.944618" lon="127.466892"><ele>732.7</ele></trkpt>
      <trkpt lat="37.944568" lon="127.466195"><ele>724.6</ele></trkpt>
      <trkpt lat="37.944255" lon="127.465485"><ele>729.8</ele></trkpt>
      <trkpt lat="37.944224" lon="127.464858"><ele>745.1</ele></trkpt>
      <trkpt lat="37.944346" lon="127.464327"><ele>767.0</ele></trkpt>
      <trkpt lat="37.944349" lon="127.463625"><ele>803.5</ele></trkpt>
      <trkpt lat="37.944418" lon="127.463368"><ele>811.7</ele></trkpt>
      <trkpt lat="37.944308" lon="127.463003"><ele>818.3</ele></trkpt>
      <trkpt lat="37.944317" lon="127.462753"><ele>822.4</ele></trkpt>
      <trkpt lat="37.944443" lon="127.462310"><ele>840.8</ele></trkpt>
      <trkpt lat="37.944460" lon="127.462039"><ele>848.2</ele></trkpt>
      <trkpt lat="37.944718" lon="127.461449"><ele>866.8</ele></trkpt>
      <trkpt lat="37.944727" lon="127.461021"><ele>882.0</ele></trkpt>
      <trkpt lat="37.944871" lon="127.460680"><ele>895.7</ele></trkpt>
      <trkpt lat="37.944755" lon="127.458812"><ele>977.2</ele></trkpt>
      <trkpt lat="37.944902" lon="127.458356"><ele>992.5</ele></trkpt>
      <trkpt lat="37.945146" lon="127.457900"><ele>1002.4</ele></trkpt>
      <trkpt lat="37.945929" lon="127.456926"><ele>1004.6</ele></trkpt>
      <trkpt lat="37.946053" lon="127.456667"><ele>1008.8</ele></trkpt>
      <trkpt lat="37.946071" lon="127.456144"><ele>1012.7</ele></trkpt>
      <trkpt lat="37.946204" lon="127.455567"><ele>1008.4</ele></trkpt>
      <trkpt lat="37.946369" lon="127.453940"><ele>980.2</ele></trkpt>
      <trkpt lat="37.946473" lon="127.453485"><ele>983.3</ele></trkpt>
      <trkpt lat="37.946669" lon="127.453075"><ele>989.7</ele></trkpt>
      <trkpt lat="37.946861" lon="127.452807"><ele>986.6</ele></trkpt>
      <trkpt lat="37.946753" lon="127.452293"><ele>977.4</ele></trkpt>
      <trkpt lat="37.946184" lon="127.450676"><ele>992.2</ele></trkpt>
      <trkpt lat="37.945727" lon="127.450065"><ele>990.1</ele></trkpt>
      <trkpt lat="37.945602" lon="127.449725"><ele>988.5</ele></trkpt>
      <trkpt lat="37.945434" lon="127.448971"><ele>1007.6</ele></trkpt>
      <trkpt lat="37.945252" lon="127.448527"><ele>1019.8</ele></trkpt>
      <trkpt lat="37.944971" lon="127.448131"><ele>1026.2</ele></trkpt>
      <trkpt lat="37.944758" lon="127.448075"><ele>1028.4</ele></trkpt>
      <trkpt lat="37.944464" lon="127.447813"><ele>1026.8</ele></trkpt>
      <trkpt lat="37.944071" lon="127.447013"><ele>1033.8</ele></trkpt>
      <trkpt lat="37.944096" lon="127.446727"><ele>1031.4</ele></trkpt>
      <trkpt lat="37.944039" lon="127.446386"><ele>1022.8</ele></trkpt>
      <trkpt lat="37.943902" lon="127.446109"><ele>1017.7</ele></trkpt>
      <trkpt lat="37.943514" lon="127.444539"><ele>1025.1</ele></trkpt>
      <trkpt lat="37.943451" lon="127.443096"><ele>1059.9</ele></trkpt>
      <trkpt lat="37.943370" lon="127.442929"><ele>1061.7</ele></trkpt>
      <trkpt lat="37.943101" lon="127.442881"><ele>1071.9</ele></trkpt>
      <trkpt lat="37.942951" lon="127.442660"><ele>1070.9</ele></trkpt>
      <trkpt lat="37.942685" lon="127.441810"><ele>1076.8</ele></trkpt>
      <trkpt lat="37.942694" lon="127.440507"><ele>1072.1</ele></trkpt>
      <trkpt lat="37.942793" lon="127.440166"><ele>1071.7</ele></trkpt>
      <trkpt lat="37.942940" lon="127.438617"><ele>1074.4</ele></trkpt>
      <trkpt lat="37.942999" lon="127.438345"><ele>1076.6</ele></trkpt>
      <trkpt lat="37.943264" lon="127.437939"><ele>1080.2</ele></trkpt>
      <trkpt lat="37.943330" lon="127.437423"><ele>1087.7</ele></trkpt>
      <trkpt lat="37.943625" lon="127.436725"><ele>1105.0</ele></trkpt>
      <trkpt lat="37.943611" lon="127.435959"><ele>1132.9</ele></trkpt>
      <trkpt lat="37.943415" lon="127.435342"><ele>1140.7</ele></trkpt>
      <trkpt lat="37.942850" lon="127.434706"><ele>1152.8</ele></trkpt>
      <trkpt lat="37.942577" lon="127.434506"><ele>1158.0</ele></trkpt>
      <trkpt lat="37.942141" lon="127.433997"><ele>1169.7</ele></trkpt>
      <trkpt lat="37.941773" lon="127.433157"><ele>1204.6</ele></trkpt>
      <trkpt lat="37.941388" lon="127.432802"><ele>1224.8</ele></trkpt>
      <trkpt lat="37.941247" lon="127.432435"><ele>1238.6</ele></trkpt>
      <trkpt lat="37.941171" lon="127.432377"><ele>1240.1</ele></trkpt>
      <trkpt lat="37.940997" lon="127.432343"><ele>1235.8</ele></trkpt>
      <trkpt lat="37.940557" lon="127.432554"><ele>1213.1</ele></trkpt>
      <trkpt lat="37.940377" lon="127.432545"><ele>1206.0</ele></trkpt>
      <trkpt lat="37.940299" lon="127.432649"><ele>1203.3</ele></trkpt>
      <trkpt lat="37.940153" lon="127.432576"><ele>1197.5</ele></trkpt>
      <trkpt lat="37.940085" lon="127.432362"><ele>1194.4</ele></trkpt>
      <trkpt lat="37.939798" lon="127.432083"><ele>1183.7</ele></trkpt>
      <trkpt lat="37.939284" lon="127.431953"><ele>1168.1</ele></trkpt>
      <trkpt lat="37.938389" lon="127.431332"><ele>1140.2</ele></trkpt>
      <trkpt lat="37.937159" lon="127.430983"><ele>1158.2</ele></trkpt>
      <trkpt lat="37.936949" lon="127.430704"><ele>1161.5</ele></trkpt>
      <trkpt lat="37.936779" lon="127.430354"><ele>1165.0</ele></trkpt>
      <trkpt lat="37.936654" lon="127.430384"><ele>1169.7</ele></trkpt>
      <trkpt lat="37.936442" lon="127.430546"><ele>1177.2</ele></trkpt>
      <trkpt lat="37.935694" lon="127.430602"><ele>1172.9</ele></trkpt>
      <trkpt lat="37.934920" lon="127.430833"><ele>1183.0</ele></trkpt>
      <trkpt lat="37.934256" lon="127.430757"><ele>1198.6</ele></trkpt>
      <trkpt lat="37.933917" lon="127.430913"><ele>1210.1</ele></trkpt>
      <trkpt lat="37.933323" lon="127.430995"><ele>1222.9</ele></trkpt>
      <trkpt lat="37.932786" lon="127.430686"><ele>1227.8</ele></trkpt>
    </trkseg>
  </trk>
</gpx>
