<?xml version="1.0" encoding="UTF-8"?>
<gpx version="1.1" creator="kr-100-mountains route-harvester"
     xmlns="http://www.topografix.com/GPX/1/1"
     xmlns:k100="https://github.com/jay-jang/kr-100-mountains/ns/1"
     xmlns:xsi="http://www.w3.org/2001/XMLSchema-instance"
     xsi:schemaLocation="http://www.topografix.com/GPX/1/1 http://www.topografix.com/GPX/1/1/gpx.xsd">
  <metadata>
    <name>명지산 · 백둔리-연인산-아재비고개-명지산-익근리 종주 (OSM 계산 경로)</name>
    <desc>실제 GPS 기록이 아닙니다. OpenStreetMap에 등록된 등산로 선형 위에서 계산한 경로이며, 현장 통제·훼손·출입 제한·계절 통제를 반영하지 않을 수 있습니다. 산행 전 공식 안내를 확인하세요.</desc>
    <time>2026-08-04T05:13:32.259Z</time>
    <link href="https://www.openstreetmap.org/copyright"><text>© OpenStreetMap contributors (ODbL 1.0)</text></link>
    <link href="https://registry.opendata.aws/terrain-tiles/"><text>Elevation: SRTM 1 arc-second (NASA/USGS) via AWS Terrain Tiles</text></link>
    <extensions>
      <k100:provenance>osm-routed</k100:provenance>
      <k100:not_a_recorded_track>true</k100:not_a_recorded_track>
      <k100:mountain_id>myeongjisan</k100:mountain_id>
      <k100:mountain_name>명지산</k100:mountain_name>
      <k100:route_id>myeongjisan-1fa36ee4</k100:route_id>
      <k100:route_index>4</k100:route_index>
      <k100:route_name>백둔리-연인산-아재비고개-명지산-익근리 종주</k100:route_name>
      <k100:variant>0</k100:variant>
      <k100:source>OpenStreetMap via Overpass API</k100:source>
      <k100:license>ODbL-1.0</k100:license>
      <k100:attribution>© OpenStreetMap contributors</k100:attribution>
      <k100:elevation_source>SRTM 1 arc-second (NASA/USGS) — AWS Terrain Tiles 배포본. 지형 DEM 추정 고도이며 실측 아님</k100:elevation_source>
      <k100:algorithm>dijkstra-grid-v1</k100:algorithm>
      <k100:osm_snapshot>2026-08-04</k100:osm_snapshot>
      <k100:snap_trailhead_m>29</k100:snap_trailhead_m>
      <k100:snap_summit_m>16</k100:snap_summit_m>
      <k100:validation_score>84</k100:validation_score>
      <k100:validation_status>accepted</k100:validation_status>
    </extensions>
  </metadata>
  <trk>
    <name>명지산 · 백둔리-연인산-아재비고개-명지산-익근리 종주 (OSM 계산 경로)</name>
    <desc>실제 GPS 기록이 아닙니다. OpenStreetMap에 등록된 등산로 선형 위에서 계산한 경로이며, 현장 통제·훼손·출입 제한·계절 통제를 반영하지 않을 수 있습니다. 산행 전 공식 안내를 확인하세요.</desc>
    <trkseg>
      <trkpt lat="37.922930" lon="127.394579"><ele>324.8</ele></trkpt>
      <trkpt lat="37.923136" lon="127.394945"><ele>328.1</ele></trkpt>
      <trkpt lat="37.923558" lon="127.395437"><ele>337.0</ele></trkpt>
      <trkpt lat="37.923296" lon="127.395980"><ele>339.6</ele></trkpt>
      <trkpt lat="37.923355" lon="127.396340"><ele>349.1</ele></trkpt>
      <trkpt lat="37.923377" lon="127.397155"><ele>368.6</ele></trkpt>
      <trkpt lat="37.923292" lon="127.397434"><ele>377.7</ele></trkpt>
      <trkpt lat="37.922941" lon="127.397772"><ele>386.3</ele></trkpt>
      <trkpt lat="37.922666" lon="127.398421"><ele>390.1</ele></trkpt>
      <trkpt lat="37.922695" lon="127.398577"><ele>392.1</ele></trkpt>
      <trkpt lat="37.922814" lon="127.398802"><ele>396.6</ele></trkpt>
      <trkpt lat="37.922687" lon="127.399263"><ele>393.0</ele></trkpt>
      <trkpt lat="37.922755" lon="127.399816"><ele>404.1</ele></trkpt>
      <trkpt lat="37.922581" lon="127.400025"><ele>399.0</ele></trkpt>
      <trkpt lat="37.922594" lon="127.400213"><ele>397.9</ele></trkpt>
      <trkpt lat="37.922945" lon="127.400867"><ele>399.1</ele></trkpt>
      <trkpt lat="37.922831" lon="127.401184"><ele>396.3</ele></trkpt>
      <trkpt lat="37.922678" lon="127.401372"><ele>402.6</ele></trkpt>
      <trkpt lat="37.922348" lon="127.401334"><ele>406.5</ele></trkpt>
      <trkpt lat="37.922103" lon="127.401098"><ele>398.5</ele></trkpt>
      <trkpt lat="37.921951" lon="127.401039"><ele>397.9</ele></trkpt>
      <trkpt lat="37.921731" lon="127.401162"><ele>397.8</ele></trkpt>
      <trkpt lat="37.921629" lon="127.401318"><ele>397.9</ele></trkpt>
      <trkpt lat="37.921527" lon="127.401860"><ele>407.0</ele></trkpt>
      <trkpt lat="37.921515" lon="127.402219"><ele>416.0</ele></trkpt>
      <trkpt lat="37.921595" lon="127.402391"><ele>420.8</ele></trkpt>
      <trkpt lat="37.921637" lon="127.402836"><ele>427.8</ele></trkpt>
      <trkpt lat="37.921870" lon="127.403174"><ele>433.1</ele></trkpt>
      <trkpt lat="37.922010" lon="127.403474"><ele>435.8</ele></trkpt>
      <trkpt lat="37.922014" lon="127.403630"><ele>436.6</ele></trkpt>
      <trkpt lat="37.921934" lon="127.404381"><ele>454.2</ele></trkpt>
      <trkpt lat="37.921684" lon="127.404837"><ele>458.7</ele></trkpt>
      <trkpt lat="37.921261" lon="127.405411"><ele>473.8</ele></trkpt>
      <trkpt lat="37.921163" lon="127.405701"><ele>482.7</ele></trkpt>
      <trkpt lat="37.921146" lon="127.405974"><ele>489.7</ele></trkpt>
      <trkpt lat="37.921189" lon="127.406178"><ele>492.9</ele></trkpt>
      <trkpt lat="37.921417" lon="127.406892"><ele>502.7</ele></trkpt>
      <trkpt lat="37.921350" lon="127.407085"><ele>503.2</ele></trkpt>
      <trkpt lat="37.921168" lon="127.407240"><ele>503.6</ele></trkpt>
      <trkpt lat="37.920651" lon="127.408243"><ele>528.1</ele></trkpt>
      <trkpt lat="37.920342" lon="127.409177"><ele>548.9</ele></trkpt>
      <trkpt lat="37.920072" lon="127.409767"><ele>569.0</ele></trkpt>
      <trkpt lat="37.919344" lon="127.410915"><ele>615.0</ele></trkpt>
      <trkpt lat="37.919301" lon="127.411188"><ele>624.4</ele></trkpt>
      <trkpt lat="37.919310" lon="127.411521"><ele>635.5</ele></trkpt>
      <trkpt lat="37.919390" lon="127.412701"><ele>665.1</ele></trkpt>
      <trkpt lat="37.919225" lon="127.413104"><ele>678.0</ele></trkpt>
      <trkpt lat="37.919183" lon="127.413345"><ele>686.4</ele></trkpt>
      <trkpt lat="37.919157" lon="127.414058"><ele>701.7</ele></trkpt>
      <trkpt lat="37.918840" lon="127.414761"><ele>734.7</ele></trkpt>
      <trkpt lat="37.918760" lon="127.415142"><ele>749.5</ele></trkpt>
      <trkpt lat="37.918552" lon="127.415609"><ele>766.6</ele></trkpt>
      <trkpt lat="37.918256" lon="127.415780"><ele>779.6</ele></trkpt>
      <trkpt lat="37.918112" lon="127.415759"><ele>786.4</ele></trkpt>
      <trkpt lat="37.917858" lon="127.416000"><ele>801.1</ele></trkpt>
      <trkpt lat="37.917731" lon="127.416741"><ele>812.3</ele></trkpt>
      <trkpt lat="37.917820" lon="127.416918"><ele>811.9</ele></trkpt>
      <trkpt lat="37.917986" lon="127.417063"><ele>810.5</ele></trkpt>
      <trkpt lat="37.918452" lon="127.417071"><ele>813.5</ele></trkpt>
      <trkpt lat="37.918928" lon="127.417215"><ele>821.5</ele></trkpt>
      <trkpt lat="37.919359" lon="127.417156"><ele>831.9</ele></trkpt>
      <trkpt lat="37.919463" lon="127.417217"><ele>834.8</ele></trkpt>
      <trkpt lat="37.919896" lon="127.417618"><ele>826.5</ele></trkpt>
      <trkpt lat="37.920262" lon="127.418165"><ele>821.2</ele></trkpt>
      <trkpt lat="37.920416" lon="127.418323"><ele>821.1</ele></trkpt>
      <trkpt lat="37.920863" lon="127.418601"><ele>832.4</ele></trkpt>
      <trkpt lat="37.921106" lon="127.418903"><ele>840.6</ele></trkpt>
      <trkpt lat="37.921711" lon="127.419177"><ele>860.2</ele></trkpt>
      <trkpt lat="37.922148" lon="127.419719"><ele>884.0</ele></trkpt>
      <trkpt lat="37.922386" lon="127.419660"><ele>897.9</ele></trkpt>
      <trkpt lat="37.922833" lon="127.419433"><ele>919.3</ele></trkpt>
      <trkpt lat="37.923056" lon="127.419440"><ele>925.9</ele></trkpt>
      <trkpt lat="37.923389" lon="127.419831"><ele>949.4</ele></trkpt>
      <trkpt lat="37.923571" lon="127.419919"><ele>959.2</ele></trkpt>
      <trkpt lat="37.923730" lon="127.419920"><ele>967.1</ele></trkpt>
      <trkpt lat="37.924677" lon="127.420311"><ele>996.0</ele></trkpt>
      <trkpt lat="37.924997" lon="127.420314"><ele>1020.2</ele></trkpt>
      <trkpt lat="37.925562" lon="127.420649"><ele>1032.7</ele></trkpt>
      <trkpt lat="37.926112" lon="127.420726"><ele>1063.3</ele></trkpt>
      <trkpt lat="37.926415" lon="127.421030"><ele>1077.7</ele></trkpt>
      <trkpt lat="37.926949" lon="127.421055"><ele>1099.9</ele></trkpt>
      <trkpt lat="37.927162" lon="127.421327"><ele>1113.9</ele></trkpt>
      <trkpt lat="37.927408" lon="127.421298"><ele>1120.9</ele></trkpt>
      <trkpt lat="37.928114" lon="127.421698"><ele>1148.7</ele></trkpt>
      <trkpt lat="37.928394" lon="127.422016"><ele>1156.8</ele></trkpt>
      <trkpt lat="37.928656" lon="127.421941"><ele>1166.1</ele></trkpt>
      <trkpt lat="37.928973" lon="127.422043"><ele>1174.4</ele></trkpt>
      <trkpt lat="37.929319" lon="127.422251"><ele>1184.7</ele></trkpt>
      <trkpt lat="37.929538" lon="127.422590"><ele>1194.3</ele></trkpt>
      <trkpt lat="37.929490" lon="127.422874"><ele>1194.2</ele></trkpt>
      <trkpt lat="37.929571" lon="127.423507"><ele>1192.7</ele></trkpt>
      <trkpt lat="37.929451" lon="127.423822"><ele>1189.0</ele></trkpt>
      <trkpt lat="37.929707" lon="127.424441"><ele>1197.7</ele></trkpt>
      <trkpt lat="37.929578" lon="127.424695"><ele>1194.5</ele></trkpt>
      <trkpt lat="37.929670" lon="127.424870"><ele>1195.4</ele></trkpt>
      <trkpt lat="37.929631" lon="127.425199"><ele>1195.0</ele></trkpt>
      <trkpt lat="37.929742" lon="127.425418"><ele>1196.1</ele></trkpt>
      <trkpt lat="37.929754" lon="127.425674"><ele>1193.7</ele></trkpt>
      <trkpt lat="37.929889" lon="127.426226"><ele>1187.9</ele></trkpt>
      <trkpt lat="37.930087" lon="127.426603"><ele>1183.6</ele></trkpt>
      <trkpt lat="37.930219" lon="127.426647"><ele>1180.4</ele></trkpt>
      <trkpt lat="37.930301" lon="127.426794"><ele>1179.5</ele></trkpt>
      <trkpt lat="37.930343" lon="127.426930"><ele>1180.3</ele></trkpt>
      <trkpt lat="37.930325" lon="127.427115"><ele>1183.3</ele></trkpt>
      <trkpt lat="37.930375" lon="127.427243"><ele>1185.3</ele></trkpt>
      <trkpt lat="37.930495" lon="127.427376"><ele>1189.4</ele></trkpt>
      <trkpt lat="37.930647" lon="127.427383"><ele>1187.5</ele></trkpt>
      <trkpt lat="37.930960" lon="127.427921"><ele>1186.8</ele></trkpt>
      <trkpt lat="37.931102" lon="127.428395"><ele>1195.6</ele></trkpt>
      <trkpt lat="37.931258" lon="127.428634"><ele>1197.9</ele></trkpt>
      <trkpt lat="37.931321" lon="127.429134"><ele>1207.7</ele></trkpt>
      <trkpt lat="37.931454" lon="127.429430"><ele>1210.4</ele></trkpt>
      <trkpt lat="37.931395" lon="127.429757"><ele>1215.6</ele></trkpt>
      <trkpt lat="37.931666" lon="127.430467"><ele>1232.0</ele></trkpt>
      <trkpt lat="37.932163" lon="127.430648"><ele>1230.5</ele></trkpt>
      <trkpt lat="37.932405" lon="127.430518"><ele>1231.4</ele></trkpt>
      <trkpt lat="37.932577" lon="127.430539"><ele>1230.6</ele></trkpt>
      <trkpt lat="37.932786" lon="127.430686"><ele>1227.8</ele></trkpt>
    </trkseg>
  </trk>
</gpx>
