<?xml version="1.0" encoding="UTF-8"?>
<gpx version="1.1" creator="kr-100-mountains route-harvester"
     xmlns="http://www.topografix.com/GPX/1/1"
     xmlns:k100="https://github.com/jay-jang/kr-100-mountains/ns/1"
     xmlns:xsi="http://www.w3.org/2001/XMLSchema-instance"
     xsi:schemaLocation="http://www.topografix.com/GPX/1/1 http://www.topografix.com/GPX/1/1/gpx.xsd">
  <metadata>
    <name>적상산 · 서창마을-안국사-향로봉 코스 (OSM 계산 경로)</name>
    <desc>실제 GPS 기록이 아닙니다. OpenStreetMap에 등록된 등산로 선형 위에서 계산한 경로이며, 현장 통제·훼손·출입 제한·계절 통제를 반영하지 않을 수 있습니다. 산행 전 공식 안내를 확인하세요.</desc>
    <time>2026-08-04T05:31:34.350Z</time>
    <link href="https://www.openstreetmap.org/copyright"><text>© OpenStreetMap contributors (ODbL 1.0)</text></link>
    <link href="https://registry.opendata.aws/terrain-tiles/"><text>Elevation: SRTM 1 arc-second (NASA/USGS) via AWS Terrain Tiles</text></link>
    <extensions>
      <k100:provenance>osm-routed</k100:provenance>
      <k100:not_a_recorded_track>true</k100:not_a_recorded_track>
      <k100:mountain_id>jeoksangsan</k100:mountain_id>
      <k100:mountain_name>적상산</k100:mountain_name>
      <k100:route_id>jeoksangsan-6a259bdb</k100:route_id>
      <k100:route_index>1</k100:route_index>
      <k100:route_name>서창마을-안국사-향로봉 코스</k100:route_name>
      <k100:variant>0</k100:variant>
      <k100:source>OpenStreetMap via Overpass API</k100:source>
      <k100:license>ODbL-1.0</k100:license>
      <k100:attribution>© OpenStreetMap contributors</k100:attribution>
      <k100:elevation_source>SRTM 1 arc-second (NASA/USGS) — AWS Terrain Tiles 배포본. 지형 DEM 추정 고도이며 실측 아님</k100:elevation_source>
      <k100:algorithm>dijkstra-grid-v1</k100:algorithm>
      <k100:osm_snapshot>2026-08-04</k100:osm_snapshot>
      <k100:snap_trailhead_m>39</k100:snap_trailhead_m>
      <k100:snap_summit_m>162</k100:snap_summit_m>
      <k100:validation_score>89</k100:validation_score>
      <k100:validation_status>accepted</k100:validation_status>
    </extensions>
  </metadata>
  <trk>
    <name>적상산 · 서창마을-안국사-향로봉 코스 (OSM 계산 경로)</name>
    <desc>실제 GPS 기록이 아닙니다. OpenStreetMap에 등록된 등산로 선형 위에서 계산한 경로이며, 현장 통제·훼손·출입 제한·계절 통제를 반영하지 않을 수 있습니다. 산행 전 공식 안내를 확인하세요.</desc>
    <trkseg>
      <trkpt lat="35.949064" lon="127.671053"><ele>325.3</ele></trkpt>
      <trkpt lat="35.948916" lon="127.671587"><ele>331.1</ele></trkpt>
      <trkpt lat="35.948922" lon="127.671903"><ele>336.2</ele></trkpt>
      <trkpt lat="35.949634" lon="127.672869"><ele>349.2</ele></trkpt>
      <trkpt lat="35.949753" lon="127.673275"><ele>357.0</ele></trkpt>
      <trkpt lat="35.949950" lon="127.673687"><ele>363.8</ele></trkpt>
      <trkpt lat="35.949714" lon="127.674197"><ele>377.0</ele></trkpt>
      <trkpt lat="35.949666" lon="127.674532"><ele>387.2</ele></trkpt>
      <trkpt lat="35.949705" lon="127.674650"><ele>388.9</ele></trkpt>
      <trkpt lat="35.949667" lon="127.675008"><ele>397.1</ele></trkpt>
      <trkpt lat="35.949810" lon="127.675202"><ele>396.4</ele></trkpt>
      <trkpt lat="35.949715" lon="127.675458"><ele>403.2</ele></trkpt>
      <trkpt lat="35.949626" lon="127.676028"><ele>415.7</ele></trkpt>
      <trkpt lat="35.949483" lon="127.676190"><ele>421.4</ele></trkpt>
      <trkpt lat="35.949469" lon="127.676474"><ele>424.3</ele></trkpt>
      <trkpt lat="35.949424" lon="127.676559"><ele>426.6</ele></trkpt>
      <trkpt lat="35.949494" lon="127.676791"><ele>429.3</ele></trkpt>
      <trkpt lat="35.949346" lon="127.677233"><ele>436.7</ele></trkpt>
      <trkpt lat="35.949363" lon="127.677548"><ele>444.0</ele></trkpt>
      <trkpt lat="35.949423" lon="127.677706"><ele>447.2</ele></trkpt>
      <trkpt lat="35.949571" lon="127.677738"><ele>448.8</ele></trkpt>
      <trkpt lat="35.949719" lon="127.677991"><ele>455.6</ele></trkpt>
      <trkpt lat="35.949588" lon="127.678025"><ele>455.8</ele></trkpt>
      <trkpt lat="35.949645" lon="127.678156"><ele>459.6</ele></trkpt>
      <trkpt lat="35.949706" lon="127.678566"><ele>471.6</ele></trkpt>
      <trkpt lat="35.950007" lon="127.678838"><ele>482.6</ele></trkpt>
      <trkpt lat="35.950046" lon="127.679127"><ele>490.1</ele></trkpt>
      <trkpt lat="35.950379" lon="127.679901"><ele>508.7</ele></trkpt>
      <trkpt lat="35.949993" lon="127.680454"><ele>529.6</ele></trkpt>
      <trkpt lat="35.950038" lon="127.680675"><ele>537.4</ele></trkpt>
      <trkpt lat="35.950183" lon="127.680915"><ele>548.8</ele></trkpt>
      <trkpt lat="35.950129" lon="127.681029"><ele>553.2</ele></trkpt>
      <trkpt lat="35.950225" lon="127.681193"><ele>561.3</ele></trkpt>
      <trkpt lat="35.950225" lon="127.681381"><ele>569.6</ele></trkpt>
      <trkpt lat="35.950458" lon="127.681442"><ele>569.6</ele></trkpt>
      <trkpt lat="35.950551" lon="127.681566"><ele>572.8</ele></trkpt>
      <trkpt lat="35.950457" lon="127.681670"><ele>577.6</ele></trkpt>
      <trkpt lat="35.950698" lon="127.681786"><ele>579.4</ele></trkpt>
      <trkpt lat="35.950557" lon="127.681864"><ele>588.0</ele></trkpt>
      <trkpt lat="35.950646" lon="127.681963"><ele>590.7</ele></trkpt>
      <trkpt lat="35.950835" lon="127.682073"><ele>592.6</ele></trkpt>
      <trkpt lat="35.951116" lon="127.682350"><ele>609.0</ele></trkpt>
      <trkpt lat="35.951358" lon="127.682416"><ele>614.4</ele></trkpt>
      <trkpt lat="35.951465" lon="127.682405"><ele>616.3</ele></trkpt>
      <trkpt lat="35.951582" lon="127.682288"><ele>614.6</ele></trkpt>
      <trkpt lat="35.951678" lon="127.682290"><ele>617.6</ele></trkpt>
      <trkpt lat="35.951732" lon="127.682156"><ele>615.9</ele></trkpt>
      <trkpt lat="35.951713" lon="127.682028"><ele>610.3</ele></trkpt>
      <trkpt lat="35.951907" lon="127.682054"><ele>624.6</ele></trkpt>
      <trkpt lat="35.952235" lon="127.681730"><ele>638.2</ele></trkpt>
      <trkpt lat="35.952472" lon="127.681298"><ele>633.5</ele></trkpt>
      <trkpt lat="35.952558" lon="127.681328"><ele>639.5</ele></trkpt>
      <trkpt lat="35.953077" lon="127.681253"><ele>652.6</ele></trkpt>
      <trkpt lat="35.953247" lon="127.681291"><ele>662.4</ele></trkpt>
      <trkpt lat="35.953457" lon="127.681256"><ele>667.7</ele></trkpt>
      <trkpt lat="35.953899" lon="127.681332"><ele>681.1</ele></trkpt>
      <trkpt lat="35.953931" lon="127.681365"><ele>683.7</ele></trkpt>
      <trkpt lat="35.953768" lon="127.681459"><ele>685.8</ele></trkpt>
      <trkpt lat="35.953155" lon="127.682019"><ele>696.1</ele></trkpt>
      <trkpt lat="35.953031" lon="127.682207"><ele>696.2</ele></trkpt>
      <trkpt lat="35.952939" lon="127.682462"><ele>698.4</ele></trkpt>
      <trkpt lat="35.953610" lon="127.682126"><ele>718.5</ele></trkpt>
      <trkpt lat="35.953672" lon="127.682146"><ele>722.6</ele></trkpt>
      <trkpt lat="35.953546" lon="127.682410"><ele>731.1</ele></trkpt>
      <trkpt lat="35.953677" lon="127.682341"><ele>733.3</ele></trkpt>
      <trkpt lat="35.953623" lon="127.682574"><ele>743.5</ele></trkpt>
      <trkpt lat="35.953477" lon="127.682727"><ele>742.9</ele></trkpt>
      <trkpt lat="35.953263" lon="127.683312"><ele>753.3</ele></trkpt>
      <trkpt lat="35.953295" lon="127.683584"><ele>770.8</ele></trkpt>
      <trkpt lat="35.953671" lon="127.683163"><ele>778.1</ele></trkpt>
      <trkpt lat="35.954013" lon="127.683045"><ele>783.0</ele></trkpt>
      <trkpt lat="35.954051" lon="127.683097"><ele>787.3</ele></trkpt>
      <trkpt lat="35.953928" lon="127.683217"><ele>790.6</ele></trkpt>
      <trkpt lat="35.953910" lon="127.683354"><ele>797.2</ele></trkpt>
      <trkpt lat="35.953769" lon="127.683545"><ele>801.1</ele></trkpt>
      <trkpt lat="35.953761" lon="127.683639"><ele>805.8</ele></trkpt>
      <trkpt lat="35.953966" lon="127.683535"><ele>810.5</ele></trkpt>
      <trkpt lat="35.953943" lon="127.683655"><ele>816.2</ele></trkpt>
      <trkpt lat="35.953979" lon="127.683676"><ele>819.6</ele></trkpt>
      <trkpt lat="35.954188" lon="127.683599"><ele>827.6</ele></trkpt>
      <trkpt lat="35.954381" lon="127.683629"><ele>833.5</ele></trkpt>
      <trkpt lat="35.953818" lon="127.683902"><ele>825.3</ele></trkpt>
      <trkpt lat="35.953747" lon="127.684204"><ele>841.9</ele></trkpt>
      <trkpt lat="35.953616" lon="127.684282"><ele>840.0</ele></trkpt>
      <trkpt lat="35.953466" lon="127.684485"><ele>839.0</ele></trkpt>
      <trkpt lat="35.953590" lon="127.684452"><ele>846.7</ele></trkpt>
      <trkpt lat="35.953755" lon="127.684313"><ele>848.1</ele></trkpt>
      <trkpt lat="35.953801" lon="127.684354"><ele>852.6</ele></trkpt>
      <trkpt lat="35.953759" lon="127.684447"><ele>855.5</ele></trkpt>
      <trkpt lat="35.953923" lon="127.684357"><ele>858.0</ele></trkpt>
      <trkpt lat="35.953837" lon="127.684504"><ele>861.1</ele></trkpt>
      <trkpt lat="35.953856" lon="127.684628"><ele>865.7</ele></trkpt>
      <trkpt lat="35.953774" lon="127.685345"><ele>877.4</ele></trkpt>
      <trkpt lat="35.953832" lon="127.685565"><ele>885.1</ele></trkpt>
      <trkpt lat="35.953843" lon="127.686090"><ele>894.2</ele></trkpt>
      <trkpt lat="35.953960" lon="127.686751"><ele>909.4</ele></trkpt>
      <trkpt lat="35.953912" lon="127.686814"><ele>910.9</ele></trkpt>
      <trkpt lat="35.953987" lon="127.687052"><ele>918.2</ele></trkpt>
      <trkpt lat="35.953889" lon="127.687331"><ele>926.0</ele></trkpt>
      <trkpt lat="35.953685" lon="127.687478"><ele>929.8</ele></trkpt>
      <trkpt lat="35.953607" lon="127.687627"><ele>935.1</ele></trkpt>
      <trkpt lat="35.953331" lon="127.687690"><ele>939.2</ele></trkpt>
      <trkpt lat="35.953005" lon="127.687657"><ele>943.9</ele></trkpt>
      <trkpt lat="35.952841" lon="127.687699"><ele>950.4</ele></trkpt>
      <trkpt lat="35.952744" lon="127.687913"><ele>959.8</ele></trkpt>
      <trkpt lat="35.952549" lon="127.687772"><ele>957.2</ele></trkpt>
      <trkpt lat="35.952270" lon="127.687802"><ele>960.8</ele></trkpt>
      <trkpt lat="35.952088" lon="127.687936"><ele>961.4</ele></trkpt>
      <trkpt lat="35.951624" lon="127.688033"><ele>961.3</ele></trkpt>
      <trkpt lat="35.951303" lon="127.687980"><ele>964.6</ele></trkpt>
      <trkpt lat="35.951048" lon="127.688002"><ele>967.6</ele></trkpt>
      <trkpt lat="35.950510" lon="127.687884"><ele>972.8</ele></trkpt>
      <trkpt lat="35.950285" lon="127.687670"><ele>979.4</ele></trkpt>
      <trkpt lat="35.950173" lon="127.687700"><ele>979.7</ele></trkpt>
      <trkpt lat="35.950107" lon="127.687805"><ele>980.4</ele></trkpt>
      <trkpt lat="35.949800" lon="127.688001"><ele>978.8</ele></trkpt>
      <trkpt lat="35.949512" lon="127.688121"><ele>980.7</ele></trkpt>
      <trkpt lat="35.949395" lon="127.688305"><ele>984.4</ele></trkpt>
      <trkpt lat="35.949235" lon="127.688422"><ele>986.2</ele></trkpt>
      <trkpt lat="35.948660" lon="127.688641"><ele>990.8</ele></trkpt>
      <trkpt lat="35.948291" lon="127.688927"><ele>989.2</ele></trkpt>
      <trkpt lat="35.948024" lon="127.688900"><ele>991.6</ele></trkpt>
      <trkpt lat="35.947875" lon="127.688969"><ele>990.7</ele></trkpt>
      <trkpt lat="35.947547" lon="127.689272"><ele>997.8</ele></trkpt>
      <trkpt lat="35.947352" lon="127.689337"><ele>1001.6</ele></trkpt>
      <trkpt lat="35.947049" lon="127.689553"><ele>1008.5</ele></trkpt>
    </trkseg>
  </trk>
</gpx>
