<?xml version="1.0" encoding="UTF-8"?>
<gpx version="1.1" creator="kr-100-mountains route-harvester"
     xmlns="http://www.topografix.com/GPX/1/1"
     xmlns:k100="https://github.com/jay-jang/kr-100-mountains/ns/1"
     xmlns:xsi="http://www.w3.org/2001/XMLSchema-instance"
     xsi:schemaLocation="http://www.topografix.com/GPX/1/1 http://www.topografix.com/GPX/1/1/gpx.xsd">
  <metadata>
    <name>적상산 · 적상산 전망대-안국사 코스 (OSM 계산 경로)</name>
    <desc>실제 GPS 기록이 아닙니다. OpenStreetMap에 등록된 등산로 선형 위에서 계산한 경로이며, 현장 통제·훼손·출입 제한·계절 통제를 반영하지 않을 수 있습니다. 산행 전 공식 안내를 확인하세요.</desc>
    <time>2026-08-04T05:31:34.355Z</time>
    <link href="https://www.openstreetmap.org/copyright"><text>© OpenStreetMap contributors (ODbL 1.0)</text></link>
    <link href="https://registry.opendata.aws/terrain-tiles/"><text>Elevation: SRTM 1 arc-second (NASA/USGS) via AWS Terrain Tiles</text></link>
    <extensions>
      <k100:provenance>osm-routed</k100:provenance>
      <k100:not_a_recorded_track>true</k100:not_a_recorded_track>
      <k100:mountain_id>jeoksangsan</k100:mountain_id>
      <k100:mountain_name>적상산</k100:mountain_name>
      <k100:route_id>jeoksangsan-017661e0</k100:route_id>
      <k100:route_index>2</k100:route_index>
      <k100:route_name>적상산 전망대-안국사 코스</k100:route_name>
      <k100:variant>0</k100:variant>
      <k100:source>OpenStreetMap via Overpass API</k100:source>
      <k100:license>ODbL-1.0</k100:license>
      <k100:attribution>© OpenStreetMap contributors</k100:attribution>
      <k100:elevation_source>SRTM 1 arc-second (NASA/USGS) — AWS Terrain Tiles 배포본. 지형 DEM 추정 고도이며 실측 아님</k100:elevation_source>
      <k100:algorithm>dijkstra-grid-v1</k100:algorithm>
      <k100:osm_snapshot>2026-08-04</k100:osm_snapshot>
      <k100:snap_trailhead_m>16</k100:snap_trailhead_m>
      <k100:snap_summit_m>162</k100:snap_summit_m>
      <k100:validation_score>82</k100:validation_score>
      <k100:validation_status>accepted</k100:validation_status>
    </extensions>
  </metadata>
  <trk>
    <name>적상산 · 적상산 전망대-안국사 코스 (OSM 계산 경로)</name>
    <desc>실제 GPS 기록이 아닙니다. OpenStreetMap에 등록된 등산로 선형 위에서 계산한 경로이며, 현장 통제·훼손·출입 제한·계절 통제를 반영하지 않을 수 있습니다. 산행 전 공식 안내를 확인하세요.</desc>
    <trkseg>
      <trkpt lat="35.956414" lon="127.698648"><ele>859.2</ele></trkpt>
      <trkpt lat="35.956274" lon="127.698632"><ele>860.7</ele></trkpt>
      <trkpt lat="35.956195" lon="127.698523"><ele>860.1</ele></trkpt>
      <trkpt lat="35.955718" lon="127.698942"><ele>852.7</ele></trkpt>
      <trkpt lat="35.955128" lon="127.698898"><ele>851.2</ele></trkpt>
      <trkpt lat="35.954922" lon="127.698818"><ele>854.5</ele></trkpt>
      <trkpt lat="35.954698" lon="127.698646"><ele>857.6</ele></trkpt>
      <trkpt lat="35.954180" lon="127.697821"><ele>863.4</ele></trkpt>
      <trkpt lat="35.953959" lon="127.697712"><ele>864.6</ele></trkpt>
      <trkpt lat="35.953721" lon="127.697690"><ele>866.3</ele></trkpt>
      <trkpt lat="35.953306" lon="127.697876"><ele>867.7</ele></trkpt>
      <trkpt lat="35.952286" lon="127.698067"><ele>861.4</ele></trkpt>
      <trkpt lat="35.951181" lon="127.697906"><ele>864.0</ele></trkpt>
      <trkpt lat="35.949819" lon="127.697997"><ele>860.7</ele></trkpt>
      <trkpt lat="35.949480" lon="127.697901"><ele>863.0</ele></trkpt>
      <trkpt lat="35.948889" lon="127.697436"><ele>861.8</ele></trkpt>
      <trkpt lat="35.948589" lon="127.696957"><ele>864.1</ele></trkpt>
      <trkpt lat="35.948305" lon="127.696150"><ele>861.3</ele></trkpt>
      <trkpt lat="35.947943" lon="127.695586"><ele>872.1</ele></trkpt>
      <trkpt lat="35.947967" lon="127.695451"><ele>871.0</ele></trkpt>
      <trkpt lat="35.948174" lon="127.695282"><ele>865.5</ele></trkpt>
      <trkpt lat="35.948776" lon="127.695019"><ele>867.5</ele></trkpt>
      <trkpt lat="35.947882" lon="127.695031"><ele>874.7</ele></trkpt>
      <trkpt lat="35.947668" lon="127.694924"><ele>877.7</ele></trkpt>
      <trkpt lat="35.947538" lon="127.694719"><ele>883.8</ele></trkpt>
      <trkpt lat="35.948113" lon="127.694285"><ele>891.7</ele></trkpt>
      <trkpt lat="35.948593" lon="127.693764"><ele>903.3</ele></trkpt>
      <trkpt lat="35.948580" lon="127.693650"><ele>910.6</ele></trkpt>
      <trkpt lat="35.948180" lon="127.693820"><ele>905.9</ele></trkpt>
      <trkpt lat="35.947914" lon="127.693832"><ele>907.7</ele></trkpt>
      <trkpt lat="35.947051" lon="127.693579"><ele>915.1</ele></trkpt>
      <trkpt lat="35.946956" lon="127.693461"><ele>919.7</ele></trkpt>
      <trkpt lat="35.946721" lon="127.692898"><ele>937.5</ele></trkpt>
      <trkpt lat="35.946600" lon="127.692820"><ele>937.5</ele></trkpt>
      <trkpt lat="35.946358" lon="127.692890"><ele>935.5</ele></trkpt>
      <trkpt lat="35.945708" lon="127.693427"><ele>944.3</ele></trkpt>
      <trkpt lat="35.945543" lon="127.693221"><ele>950.2</ele></trkpt>
      <trkpt lat="35.945550" lon="127.693003"><ele>957.7</ele></trkpt>
      <trkpt lat="35.945333" lon="127.692678"><ele>960.4</ele></trkpt>
      <trkpt lat="35.944868" lon="127.692146"><ele>956.6</ele></trkpt>
      <trkpt lat="35.944672" lon="127.691990"><ele>955.6</ele></trkpt>
      <trkpt lat="35.944760" lon="127.691812"><ele>962.2</ele></trkpt>
      <trkpt lat="35.944693" lon="127.691344"><ele>970.5</ele></trkpt>
      <trkpt lat="35.944757" lon="127.691271"><ele>974.1</ele></trkpt>
      <trkpt lat="35.944946" lon="127.691210"><ele>979.5</ele></trkpt>
      <trkpt lat="35.945046" lon="127.691015"><ele>987.1</ele></trkpt>
      <trkpt lat="35.945229" lon="127.690806"><ele>996.6</ele></trkpt>
      <trkpt lat="35.945274" lon="127.690613"><ele>1000.1</ele></trkpt>
      <trkpt lat="35.945428" lon="127.690417"><ele>1007.6</ele></trkpt>
      <trkpt lat="35.945645" lon="127.689959"><ele>1013.5</ele></trkpt>
      <trkpt lat="35.945672" lon="127.689801"><ele>1011.9</ele></trkpt>
      <trkpt lat="35.945871" lon="127.689736"><ele>1012.0</ele></trkpt>
      <trkpt lat="35.946257" lon="127.689755"><ele>1019.0</ele></trkpt>
      <trkpt lat="35.946540" lon="127.689643"><ele>1016.6</ele></trkpt>
      <trkpt lat="35.946864" lon="127.689645"><ele>1012.6</ele></trkpt>
      <trkpt lat="35.947049" lon="127.689553"><ele>1008.5</ele></trkpt>
    </trkseg>
  </trk>
</gpx>
