<?xml version="1.0" encoding="UTF-8"?>
<gpx version="1.1" creator="kr-100-mountains route-harvester"
     xmlns="http://www.topografix.com/GPX/1/1"
     xmlns:k100="https://github.com/jay-jang/kr-100-mountains/ns/1"
     xmlns:xsi="http://www.w3.org/2001/XMLSchema-instance"
     xsi:schemaLocation="http://www.topografix.com/GPX/1/1 http://www.topografix.com/GPX/1/1/gpx.xsd">
  <metadata>
    <name>추월산 · 보리암 코스(제1등산로) (OSM 계산 경로)</name>
    <desc>실제 GPS 기록이 아닙니다. OpenStreetMap에 등록된 등산로 선형 위에서 계산한 경로이며, 현장 통제·훼손·출입 제한·계절 통제를 반영하지 않을 수 있습니다. 산행 전 공식 안내를 확인하세요.</desc>
    <time>2026-08-04T05:35:49.900Z</time>
    <link href="https://www.openstreetmap.org/copyright"><text>© OpenStreetMap contributors (ODbL 1.0)</text></link>
    <link href="https://registry.opendata.aws/terrain-tiles/"><text>Elevation: SRTM 1 arc-second (NASA/USGS) via AWS Terrain Tiles</text></link>
    <extensions>
      <k100:provenance>osm-routed</k100:provenance>
      <k100:not_a_recorded_track>true</k100:not_a_recorded_track>
      <k100:mountain_id>chuwolsan</k100:mountain_id>
      <k100:mountain_name>추월산</k100:mountain_name>
      <k100:route_id>chuwolsan-d63d9804</k100:route_id>
      <k100:route_index>1</k100:route_index>
      <k100:route_name>보리암 코스(제1등산로)</k100:route_name>
      <k100:variant>0</k100:variant>
      <k100:source>OpenStreetMap via Overpass API</k100:source>
      <k100:license>ODbL-1.0</k100:license>
      <k100:attribution>© OpenStreetMap contributors</k100:attribution>
      <k100:elevation_source>SRTM 1 arc-second (NASA/USGS) — AWS Terrain Tiles 배포본. 지형 DEM 추정 고도이며 실측 아님</k100:elevation_source>
      <k100:algorithm>dijkstra-grid-v1</k100:algorithm>
      <k100:osm_snapshot>2026-08-04</k100:osm_snapshot>
      <k100:snap_trailhead_m>8</k100:snap_trailhead_m>
      <k100:snap_summit_m>115</k100:snap_summit_m>
      <k100:validation_score>73</k100:validation_score>
      <k100:validation_status>review</k100:validation_status>
    </extensions>
  </metadata>
  <trk>
    <name>추월산 · 보리암 코스(제1등산로) (OSM 계산 경로)</name>
    <desc>실제 GPS 기록이 아닙니다. OpenStreetMap에 등록된 등산로 선형 위에서 계산한 경로이며, 현장 통제·훼손·출입 제한·계절 통제를 반영하지 않을 수 있습니다. 산행 전 공식 안내를 확인하세요.</desc>
    <trkseg>
      <trkpt lat="35.403385" lon="126.982419"><ele>389.3</ele></trkpt>
      <trkpt lat="35.403379" lon="126.982227"><ele>399.0</ele></trkpt>
      <trkpt lat="35.403147" lon="126.981198"><ele>451.7</ele></trkpt>
      <trkpt lat="35.403154" lon="126.980818"><ele>465.0</ele></trkpt>
      <trkpt lat="35.403331" lon="126.980024"><ele>504.1</ele></trkpt>
      <trkpt lat="35.403215" lon="126.979405"><ele>528.3</ele></trkpt>
      <trkpt lat="35.403256" lon="126.978741"><ele>568.4</ele></trkpt>
      <trkpt lat="35.403177" lon="126.978506"><ele>583.1</ele></trkpt>
      <trkpt lat="35.403253" lon="126.978238"><ele>600.3</ele></trkpt>
      <trkpt lat="35.403101" lon="126.978086"><ele>607.4</ele></trkpt>
      <trkpt lat="35.403043" lon="126.977777"><ele>629.5</ele></trkpt>
      <trkpt lat="35.403075" lon="126.977670"><ele>634.8</ele></trkpt>
      <trkpt lat="35.403181" lon="126.977649"><ele>636.9</ele></trkpt>
      <trkpt lat="35.403189" lon="126.976996"><ele>656.9</ele></trkpt>
      <trkpt lat="35.403432" lon="126.977059"><ele>661.3</ele></trkpt>
      <trkpt lat="35.403618" lon="126.977039"><ele>664.6</ele></trkpt>
      <trkpt lat="35.404058" lon="126.976853"><ele>659.9</ele></trkpt>
      <trkpt lat="35.404516" lon="126.976891"><ele>670.4</ele></trkpt>
      <trkpt lat="35.405131" lon="126.976695"><ele>682.3</ele></trkpt>
      <trkpt lat="35.405595" lon="126.976723"><ele>694.8</ele></trkpt>
      <trkpt lat="35.405716" lon="126.976575"><ele>703.8</ele></trkpt>
      <trkpt lat="35.405815" lon="126.976560"><ele>709.3</ele></trkpt>
      <trkpt lat="35.405917" lon="126.976457"><ele>714.5</ele></trkpt>
      <trkpt lat="35.406154" lon="126.976113"><ele>717.5</ele></trkpt>
      <trkpt lat="35.406728" lon="126.976170"><ele>711.0</ele></trkpt>
      <trkpt lat="35.407288" lon="126.976328"><ele>686.8</ele></trkpt>
      <trkpt lat="35.407556" lon="126.976173"><ele>685.1</ele></trkpt>
      <trkpt lat="35.407717" lon="126.976139"><ele>680.5</ele></trkpt>
      <trkpt lat="35.408112" lon="126.975780"><ele>656.7</ele></trkpt>
      <trkpt lat="35.408401" lon="126.975659"><ele>652.9</ele></trkpt>
      <trkpt lat="35.408733" lon="126.975407"><ele>655.7</ele></trkpt>
      <trkpt lat="35.408960" lon="126.975105"><ele>665.8</ele></trkpt>
      <trkpt lat="35.409139" lon="126.974961"><ele>666.0</ele></trkpt>
      <trkpt lat="35.409443" lon="126.974997"><ele>656.1</ele></trkpt>
      <trkpt lat="35.409762" lon="126.974906"><ele>650.9</ele></trkpt>
      <trkpt lat="35.409786" lon="126.974829"><ele>651.6</ele></trkpt>
      <trkpt lat="35.409875" lon="126.974789"><ele>651.0</ele></trkpt>
      <trkpt lat="35.410143" lon="126.974804"><ele>645.9</ele></trkpt>
      <trkpt lat="35.410378" lon="126.974557"><ele>645.4</ele></trkpt>
      <trkpt lat="35.410641" lon="126.974489"><ele>648.3</ele></trkpt>
      <trkpt lat="35.410836" lon="126.974230"><ele>654.4</ele></trkpt>
      <trkpt lat="35.411066" lon="126.973800"><ele>664.2</ele></trkpt>
      <trkpt lat="35.411530" lon="126.973699"><ele>657.1</ele></trkpt>
      <trkpt lat="35.411712" lon="126.973568"><ele>650.5</ele></trkpt>
      <trkpt lat="35.411735" lon="126.973439"><ele>651.2</ele></trkpt>
      <trkpt lat="35.412027" lon="126.973015"><ele>657.3</ele></trkpt>
      <trkpt lat="35.412123" lon="126.972751"><ele>663.4</ele></trkpt>
      <trkpt lat="35.412475" lon="126.972554"><ele>662.7</ele></trkpt>
      <trkpt lat="35.412977" lon="126.972068"><ele>672.0</ele></trkpt>
      <trkpt lat="35.413118" lon="126.972005"><ele>677.8</ele></trkpt>
      <trkpt lat="35.413227" lon="126.972057"><ele>680.9</ele></trkpt>
      <trkpt lat="35.413393" lon="126.971922"><ele>691.0</ele></trkpt>
      <trkpt lat="35.413470" lon="126.971931"><ele>692.8</ele></trkpt>
      <trkpt lat="35.413809" lon="126.971723"><ele>705.6</ele></trkpt>
      <trkpt lat="35.414325" lon="126.971738"><ele>689.0</ele></trkpt>
      <trkpt lat="35.414630" lon="126.971518"><ele>672.8</ele></trkpt>
      <trkpt lat="35.414713" lon="126.971505"><ele>670.0</ele></trkpt>
      <trkpt lat="35.414763" lon="126.971580"><ele>668.8</ele></trkpt>
      <trkpt lat="35.414730" lon="126.971818"><ele>669.9</ele></trkpt>
      <trkpt lat="35.414621" lon="126.972014"><ele>671.1</ele></trkpt>
      <trkpt lat="35.414588" lon="126.972202"><ele>665.9</ele></trkpt>
      <trkpt lat="35.414450" lon="126.972427"><ele>666.3</ele></trkpt>
      <trkpt lat="35.414450" lon="126.972610"><ele>656.6</ele></trkpt>
      <trkpt lat="35.414315" lon="126.972728"><ele>651.8</ele></trkpt>
      <trkpt lat="35.414289" lon="126.972953"><ele>638.3</ele></trkpt>
      <trkpt lat="35.414378" lon="126.973160"><ele>624.6</ele></trkpt>
      <trkpt lat="35.414555" lon="126.973350"><ele>611.2</ele></trkpt>
      <trkpt lat="35.414527" lon="126.973482"><ele>605.0</ele></trkpt>
      <trkpt lat="35.414789" lon="126.973830"><ele>586.0</ele></trkpt>
      <trkpt lat="35.414957" lon="126.974434"><ele>574.1</ele></trkpt>
      <trkpt lat="35.415178" lon="126.974659"><ele>565.7</ele></trkpt>
      <trkpt lat="35.415257" lon="126.974847"><ele>561.7</ele></trkpt>
      <trkpt lat="35.415246" lon="126.975050"><ele>557.4</ele></trkpt>
      <trkpt lat="35.415513" lon="126.975528"><ele>545.9</ele></trkpt>
      <trkpt lat="35.415491" lon="126.976051"><ele>521.7</ele></trkpt>
      <trkpt lat="35.415539" lon="126.976290"><ele>514.3</ele></trkpt>
      <trkpt lat="35.415679" lon="126.976488"><ele>506.1</ele></trkpt>
      <trkpt lat="35.415755" lon="126.976703"><ele>501.3</ele></trkpt>
      <trkpt lat="35.415863" lon="126.976719"><ele>500.1</ele></trkpt>
      <trkpt lat="35.415915" lon="126.976939"><ele>493.7</ele></trkpt>
      <trkpt lat="35.415932" lon="126.977416"><ele>480.1</ele></trkpt>
      <trkpt lat="35.415871" lon="126.977754"><ele>462.9</ele></trkpt>
      <trkpt lat="35.415943" lon="126.977942"><ele>454.6</ele></trkpt>
      <trkpt lat="35.415908" lon="126.978232"><ele>438.8</ele></trkpt>
      <trkpt lat="35.415679" lon="126.979154"><ele>404.4</ele></trkpt>
      <trkpt lat="35.415683" lon="126.979355"><ele>400.9</ele></trkpt>
      <trkpt lat="35.415546" lon="126.979718"><ele>384.5</ele></trkpt>
      <trkpt lat="35.415504" lon="126.980120"><ele>366.3</ele></trkpt>
      <trkpt lat="35.415570" lon="126.980270"><ele>361.4</ele></trkpt>
      <trkpt lat="35.415963" lon="126.980570"><ele>345.8</ele></trkpt>
      <trkpt lat="35.416037" lon="126.980678"><ele>339.8</ele></trkpt>
      <trkpt lat="35.416116" lon="126.981059"><ele>327.1</ele></trkpt>
      <trkpt lat="35.416278" lon="126.981252"><ele>312.7</ele></trkpt>
      <trkpt lat="35.416501" lon="126.981853"><ele>288.2</ele></trkpt>
      <trkpt lat="35.416481" lon="126.982051"><ele>284.1</ele></trkpt>
      <trkpt lat="35.416829" lon="126.982829"><ele>273.1</ele></trkpt>
      <trkpt lat="35.416778" lon="126.983255"><ele>274.9</ele></trkpt>
      <trkpt lat="35.416553" lon="126.983516"><ele>269.3</ele></trkpt>
      <trkpt lat="35.416453" lon="126.983516"><ele>265.2</ele></trkpt>
      <trkpt lat="35.416400" lon="126.983650"><ele>264.8</ele></trkpt>
      <trkpt lat="35.416114" lon="126.983862"><ele>259.7</ele></trkpt>
      <trkpt lat="35.415939" lon="126.984065"><ele>251.4</ele></trkpt>
      <trkpt lat="35.415882" lon="126.984304"><ele>246.1</ele></trkpt>
      <trkpt lat="35.415657" lon="126.984578"><ele>233.7</ele></trkpt>
      <trkpt lat="35.415596" lon="126.984894"><ele>224.4</ele></trkpt>
    </trkseg>
  </trk>
</gpx>
