<?xml version="1.0" encoding="UTF-8"?>
<gpx version="1.1" creator="kr-100-mountains route-harvester"
     xmlns="http://www.topografix.com/GPX/1/1"
     xmlns:k100="https://github.com/jay-jang/kr-100-mountains/ns/1"
     xmlns:xsi="http://www.w3.org/2001/XMLSchema-instance"
     xsi:schemaLocation="http://www.topografix.com/GPX/1/1 http://www.topografix.com/GPX/1/1/gpx.xsd">
  <metadata>
    <name>추월산 · 추월산주차장-제2등산로-추월산 (대안 1) (OSM 계산 경로)</name>
    <desc>실제 GPS 기록이 아닙니다. OpenStreetMap에 등록된 등산로 선형 위에서 계산한 경로이며, 현장 통제·훼손·출입 제한·계절 통제를 반영하지 않을 수 있습니다. 산행 전 공식 안내를 확인하세요.</desc>
    <time>2026-08-04T05:35:49.914Z</time>
    <link href="https://www.openstreetmap.org/copyright"><text>© OpenStreetMap contributors (ODbL 1.0)</text></link>
    <link href="https://registry.opendata.aws/terrain-tiles/"><text>Elevation: SRTM 1 arc-second (NASA/USGS) via AWS Terrain Tiles</text></link>
    <extensions>
      <k100:provenance>osm-routed</k100:provenance>
      <k100:not_a_recorded_track>true</k100:not_a_recorded_track>
      <k100:mountain_id>chuwolsan</k100:mountain_id>
      <k100:mountain_name>추월산</k100:mountain_name>
      <k100:route_id>chuwolsan-946a5bab</k100:route_id>
      <k100:route_index>3</k100:route_index>
      <k100:route_name>추월산주차장-제2등산로-추월산</k100:route_name>
      <k100:variant>1</k100:variant>
      <k100:source>OpenStreetMap via Overpass API</k100:source>
      <k100:license>ODbL-1.0</k100:license>
      <k100:attribution>© OpenStreetMap contributors</k100:attribution>
      <k100:elevation_source>SRTM 1 arc-second (NASA/USGS) — AWS Terrain Tiles 배포본. 지형 DEM 추정 고도이며 실측 아님</k100:elevation_source>
      <k100:algorithm>dijkstra-grid-v1</k100:algorithm>
      <k100:osm_snapshot>2026-08-04</k100:osm_snapshot>
      <k100:snap_trailhead_m>8</k100:snap_trailhead_m>
      <k100:snap_summit_m>115</k100:snap_summit_m>
      <k100:validation_score>89</k100:validation_score>
      <k100:validation_status>accepted</k100:validation_status>
    </extensions>
  </metadata>
  <trk>
    <name>추월산 · 추월산주차장-제2등산로-추월산 (대안 1) (OSM 계산 경로)</name>
    <desc>실제 GPS 기록이 아닙니다. OpenStreetMap에 등록된 등산로 선형 위에서 계산한 경로이며, 현장 통제·훼손·출입 제한·계절 통제를 반영하지 않을 수 있습니다. 산행 전 공식 안내를 확인하세요.</desc>
    <trkseg>
      <trkpt lat="35.403385" lon="126.982419"><ele>389.3</ele></trkpt>
      <trkpt lat="35.403385" lon="126.982615"><ele>378.9</ele></trkpt>
      <trkpt lat="35.403614" lon="126.983276"><ele>348.5</ele></trkpt>
      <trkpt lat="35.403631" lon="126.983824"><ele>321.6</ele></trkpt>
      <trkpt lat="35.403726" lon="126.984062"><ele>313.4</ele></trkpt>
      <trkpt lat="35.403682" lon="126.984116"><ele>311.1</ele></trkpt>
      <trkpt lat="35.403583" lon="126.984095"><ele>311.7</ele></trkpt>
      <trkpt lat="35.403484" lon="126.984167"><ele>311.3</ele></trkpt>
      <trkpt lat="35.403675" lon="126.984513"><ele>299.8</ele></trkpt>
      <trkpt lat="35.403753" lon="126.985195"><ele>284.1</ele></trkpt>
      <trkpt lat="35.403893" lon="126.985513"><ele>275.3</ele></trkpt>
      <trkpt lat="35.404104" lon="126.985805"><ele>271.2</ele></trkpt>
      <trkpt lat="35.404329" lon="126.986512"><ele>254.2</ele></trkpt>
      <trkpt lat="35.404595" lon="126.987064"><ele>238.5</ele></trkpt>
      <trkpt lat="35.405041" lon="126.987469"><ele>231.9</ele></trkpt>
      <trkpt lat="35.405120" lon="126.987653"><ele>227.8</ele></trkpt>
      <trkpt lat="35.405065" lon="126.987774"><ele>224.6</ele></trkpt>
      <trkpt lat="35.405225" lon="126.988318"><ele>215.7</ele></trkpt>
      <trkpt lat="35.405225" lon="126.988857"><ele>209.2</ele></trkpt>
      <trkpt lat="35.405024" lon="126.989392"><ele>195.2</ele></trkpt>
      <trkpt lat="35.404837" lon="126.989672"><ele>192.5</ele></trkpt>
      <trkpt lat="35.404724" lon="126.989952"><ele>188.8</ele></trkpt>
      <trkpt lat="35.404628" lon="126.990411"><ele>185.0</ele></trkpt>
      <trkpt lat="35.404377" lon="126.990945"><ele>185.0</ele></trkpt>
      <trkpt lat="35.404290" lon="126.991451"><ele>177.8</ele></trkpt>
      <trkpt lat="35.404408" lon="126.991675"><ele>171.0</ele></trkpt>
      <trkpt lat="35.404597" lon="126.991718"><ele>165.1</ele></trkpt>
      <trkpt lat="35.404573" lon="126.992048"><ele>162.8</ele></trkpt>
      <trkpt lat="35.404689" lon="126.992340"><ele>157.8</ele></trkpt>
      <trkpt lat="35.405041" lon="126.992448"><ele>150.0</ele></trkpt>
      <trkpt lat="35.405112" lon="126.992794"><ele>146.7</ele></trkpt>
      <trkpt lat="35.405431" lon="126.993215"><ele>143.2</ele></trkpt>
      <trkpt lat="35.405577" lon="126.993593"><ele>143.3</ele></trkpt>
      <trkpt lat="35.405612" lon="126.993884"><ele>144.2</ele></trkpt>
      <trkpt lat="35.405589" lon="126.994233"><ele>141.4</ele></trkpt>
      <trkpt lat="35.405339" lon="126.994846"><ele>131.4</ele></trkpt>
      <trkpt lat="35.405502" lon="126.995500"><ele>133.7</ele></trkpt>
      <trkpt lat="35.405814" lon="126.996064"><ele>130.4</ele></trkpt>
      <trkpt lat="35.406009" lon="126.995863"><ele>131.2</ele></trkpt>
      <trkpt lat="35.407139" lon="126.995116"><ele>133.6</ele></trkpt>
      <trkpt lat="35.407922" lon="126.995113"><ele>129.5</ele></trkpt>
      <trkpt lat="35.408237" lon="126.994683"><ele>127.6</ele></trkpt>
      <trkpt lat="35.408884" lon="126.994151"><ele>131.1</ele></trkpt>
      <trkpt lat="35.409566" lon="126.993452"><ele>136.5</ele></trkpt>
      <trkpt lat="35.410249" lon="126.993186"><ele>137.2</ele></trkpt>
      <trkpt lat="35.410760" lon="126.992745"><ele>136.3</ele></trkpt>
      <trkpt lat="35.411397" lon="126.992536"><ele>140.0</ele></trkpt>
      <trkpt lat="35.411726" lon="126.992239"><ele>142.6</ele></trkpt>
      <trkpt lat="35.411970" lon="126.992194"><ele>141.0</ele></trkpt>
      <trkpt lat="35.412469" lon="126.991944"><ele>141.9</ele></trkpt>
      <trkpt lat="35.412789" lon="126.991459"><ele>142.9</ele></trkpt>
      <trkpt lat="35.413018" lon="126.991326"><ele>141.4</ele></trkpt>
      <trkpt lat="35.413140" lon="126.991184"><ele>140.9</ele></trkpt>
      <trkpt lat="35.413296" lon="126.990729"><ele>147.5</ele></trkpt>
      <trkpt lat="35.413797" lon="126.989836"><ele>154.9</ele></trkpt>
      <trkpt lat="35.414057" lon="126.988820"><ele>156.2</ele></trkpt>
      <trkpt lat="35.414051" lon="126.988482"><ele>158.1</ele></trkpt>
      <trkpt lat="35.414111" lon="126.988262"><ele>157.5</ele></trkpt>
      <trkpt lat="35.414304" lon="126.988097"><ele>155.6</ele></trkpt>
      <trkpt lat="35.414460" lon="126.987868"><ele>155.3</ele></trkpt>
      <trkpt lat="35.414434" lon="126.986380"><ele>159.1</ele></trkpt>
      <trkpt lat="35.414539" lon="126.986035"><ele>162.6</ele></trkpt>
      <trkpt lat="35.414895" lon="126.986154"><ele>178.7</ele></trkpt>
      <trkpt lat="35.415010" lon="126.986116"><ele>186.6</ele></trkpt>
      <trkpt lat="35.415207" lon="126.985860"><ele>200.5</ele></trkpt>
      <trkpt lat="35.415406" lon="126.985773"><ele>208.4</ele></trkpt>
      <trkpt lat="35.415484" lon="126.985200"><ele>215.9</ele></trkpt>
      <trkpt lat="35.415596" lon="126.984894"><ele>224.4</ele></trkpt>
    </trkseg>
  </trk>
</gpx>
