<?xml version="1.0" encoding="UTF-8"?>
<gpx version="1.1" creator="kr-100-mountains route-harvester"
     xmlns="http://www.topografix.com/GPX/1/1"
     xmlns:k100="https://github.com/jay-jang/kr-100-mountains/ns/1"
     xmlns:xsi="http://www.w3.org/2001/XMLSchema-instance"
     xsi:schemaLocation="http://www.topografix.com/GPX/1/1 http://www.topografix.com/GPX/1/1/gpx.xsd">
  <metadata>
    <name>남한산 · 산성로터리-북문-서문-수어장대 (대안 2) (OSM 계산 경로)</name>
    <desc>실제 GPS 기록이 아닙니다. OpenStreetMap에 등록된 등산로 선형 위에서 계산한 경로이며, 현장 통제·훼손·출입 제한·계절 통제를 반영하지 않을 수 있습니다. 산행 전 공식 안내를 확인하세요.</desc>
    <time>2026-08-04T05:18:29.535Z</time>
    <link href="https://www.openstreetmap.org/copyright"><text>© OpenStreetMap contributors (ODbL 1.0)</text></link>
    <link href="https://registry.opendata.aws/terrain-tiles/"><text>Elevation: SRTM 1 arc-second (NASA/USGS) via AWS Terrain Tiles</text></link>
    <extensions>
      <k100:provenance>osm-routed</k100:provenance>
      <k100:not_a_recorded_track>true</k100:not_a_recorded_track>
      <k100:mountain_id>namhansan</k100:mountain_id>
      <k100:mountain_name>남한산</k100:mountain_name>
      <k100:route_id>namhansan-02b77443</k100:route_id>
      <k100:route_index>3</k100:route_index>
      <k100:route_name>산성로터리-북문-서문-수어장대</k100:route_name>
      <k100:variant>2</k100:variant>
      <k100:source>OpenStreetMap via Overpass API</k100:source>
      <k100:license>ODbL-1.0</k100:license>
      <k100:attribution>© OpenStreetMap contributors</k100:attribution>
      <k100:elevation_source>SRTM 1 arc-second (NASA/USGS) — AWS Terrain Tiles 배포본. 지형 DEM 추정 고도이며 실측 아님</k100:elevation_source>
      <k100:algorithm>dijkstra-grid-v1</k100:algorithm>
      <k100:osm_snapshot>2026-08-04</k100:osm_snapshot>
      <k100:snap_trailhead_m>10</k100:snap_trailhead_m>
      <k100:snap_summit_m>14</k100:snap_summit_m>
      <k100:validation_score>93</k100:validation_score>
      <k100:validation_status>accepted</k100:validation_status>
    </extensions>
  </metadata>
  <trk>
    <name>남한산 · 산성로터리-북문-서문-수어장대 (대안 2) (OSM 계산 경로)</name>
    <desc>실제 GPS 기록이 아닙니다. OpenStreetMap에 등록된 등산로 선형 위에서 계산한 경로이며, 현장 통제·훼손·출입 제한·계절 통제를 반영하지 않을 수 있습니다. 산행 전 공식 안내를 확인하세요.</desc>
    <trkseg>
      <trkpt lat="37.478140" lon="127.182863"><ele>341.5</ele></trkpt>
      <trkpt lat="37.478079" lon="127.183021"><ele>338.9</ele></trkpt>
      <trkpt lat="37.478071" lon="127.183642"><ele>335.3</ele></trkpt>
      <trkpt lat="37.477811" lon="127.183558"><ele>334.5</ele></trkpt>
      <trkpt lat="37.477752" lon="127.183446"><ele>335.1</ele></trkpt>
      <trkpt lat="37.477628" lon="127.183579"><ele>334.2</ele></trkpt>
      <trkpt lat="37.477455" lon="127.183575"><ele>334.0</ele></trkpt>
      <trkpt lat="37.477420" lon="127.182758"><ele>338.3</ele></trkpt>
      <trkpt lat="37.477493" lon="127.181838"><ele>337.8</ele></trkpt>
      <trkpt lat="37.477480" lon="127.181528"><ele>340.5</ele></trkpt>
      <trkpt lat="37.477449" lon="127.181431"><ele>341.6</ele></trkpt>
      <trkpt lat="37.477118" lon="127.181072"><ele>348.3</ele></trkpt>
      <trkpt lat="37.476910" lon="127.180476"><ele>353.2</ele></trkpt>
      <trkpt lat="37.476982" lon="127.180304"><ele>354.7</ele></trkpt>
      <trkpt lat="37.476970" lon="127.179692"><ele>359.0</ele></trkpt>
      <trkpt lat="37.476731" lon="127.178861"><ele>383.9</ele></trkpt>
      <trkpt lat="37.476816" lon="127.178346"><ele>394.6</ele></trkpt>
      <trkpt lat="37.476672" lon="127.177879"><ele>404.5</ele></trkpt>
      <trkpt lat="37.476710" lon="127.177509"><ele>407.0</ele></trkpt>
      <trkpt lat="37.476586" lon="127.177279"><ele>416.0</ele></trkpt>
      <trkpt lat="37.476306" lon="127.177858"><ele>420.7</ele></trkpt>
      <trkpt lat="37.476246" lon="127.178169"><ele>412.8</ele></trkpt>
      <trkpt lat="37.476233" lon="127.178845"><ele>398.5</ele></trkpt>
      <trkpt lat="37.476106" lon="127.179108"><ele>402.6</ele></trkpt>
      <trkpt lat="37.475756" lon="127.179601"><ele>402.3</ele></trkpt>
      <trkpt lat="37.475404" lon="127.179647"><ele>406.6</ele></trkpt>
      <trkpt lat="37.475343" lon="127.179735"><ele>405.4</ele></trkpt>
      <trkpt lat="37.475234" lon="127.179989"><ele>405.8</ele></trkpt>
      <trkpt lat="37.475262" lon="127.180384"><ele>395.8</ele></trkpt>
      <trkpt lat="37.475207" lon="127.180496"><ele>394.8</ele></trkpt>
      <trkpt lat="37.474997" lon="127.180565"><ele>394.7</ele></trkpt>
      <trkpt lat="37.474653" lon="127.180570"><ele>396.7</ele></trkpt>
      <trkpt lat="37.474334" lon="127.180884"><ele>382.7</ele></trkpt>
      <trkpt lat="37.473948" lon="127.181137"><ele>372.9</ele></trkpt>
      <trkpt lat="37.473494" lon="127.181283"><ele>367.2</ele></trkpt>
      <trkpt lat="37.473332" lon="127.181292"><ele>366.0</ele></trkpt>
      <trkpt lat="37.473224" lon="127.181191"><ele>367.6</ele></trkpt>
      <trkpt lat="37.472898" lon="127.181119"><ele>373.9</ele></trkpt>
      <trkpt lat="37.472119" lon="127.181086"><ele>391.9</ele></trkpt>
      <trkpt lat="37.471852" lon="127.180991"><ele>395.5</ele></trkpt>
      <trkpt lat="37.471453" lon="127.181373"><ele>406.1</ele></trkpt>
      <trkpt lat="37.471123" lon="127.181518"><ele>412.5</ele></trkpt>
      <trkpt lat="37.470954" lon="127.181535"><ele>413.2</ele></trkpt>
      <trkpt lat="37.470924" lon="127.181618"><ele>415.8</ele></trkpt>
      <trkpt lat="37.471101" lon="127.182254"><ele>426.5</ele></trkpt>
    </trkseg>
  </trk>
</gpx>
