<?xml version="1.0" encoding="UTF-8"?>
<gpx version="1.1" creator="kr-100-mountains route-harvester"
     xmlns="http://www.topografix.com/GPX/1/1"
     xmlns:k100="https://github.com/jay-jang/kr-100-mountains/ns/1"
     xmlns:xsi="http://www.w3.org/2001/XMLSchema-instance"
     xsi:schemaLocation="http://www.topografix.com/GPX/1/1 http://www.topografix.com/GPX/1/1/gpx.xsd">
  <metadata>
    <name>황악산 · 운수암-백운봉-비로봉 (OSM 계산 경로)</name>
    <desc>실제 GPS 기록이 아닙니다. OpenStreetMap에 등록된 등산로 선형 위에서 계산한 경로이며, 현장 통제·훼손·출입 제한·계절 통제를 반영하지 않을 수 있습니다. 산행 전 공식 안내를 확인하세요.</desc>
    <time>2026-08-04T05:40:47.941Z</time>
    <link href="https://www.openstreetmap.org/copyright"><text>© OpenStreetMap contributors (ODbL 1.0)</text></link>
    <link href="https://registry.opendata.aws/terrain-tiles/"><text>Elevation: SRTM 1 arc-second (NASA/USGS) via AWS Terrain Tiles</text></link>
    <extensions>
      <k100:provenance>osm-routed</k100:provenance>
      <k100:not_a_recorded_track>true</k100:not_a_recorded_track>
      <k100:mountain_id>hwangaksan</k100:mountain_id>
      <k100:mountain_name>황악산</k100:mountain_name>
      <k100:route_id>hwangaksan-55148eb7</k100:route_id>
      <k100:route_index>3</k100:route_index>
      <k100:route_name>운수암-백운봉-비로봉</k100:route_name>
      <k100:variant>0</k100:variant>
      <k100:source>OpenStreetMap via Overpass API</k100:source>
      <k100:license>ODbL-1.0</k100:license>
      <k100:attribution>© OpenStreetMap contributors</k100:attribution>
      <k100:elevation_source>SRTM 1 arc-second (NASA/USGS) — AWS Terrain Tiles 배포본. 지형 DEM 추정 고도이며 실측 아님</k100:elevation_source>
      <k100:algorithm>dijkstra-grid-v1</k100:algorithm>
      <k100:osm_snapshot>2026-08-04</k100:osm_snapshot>
      <k100:snap_trailhead_m>104</k100:snap_trailhead_m>
      <k100:snap_summit_m>115</k100:snap_summit_m>
      <k100:validation_score>89</k100:validation_score>
      <k100:validation_status>accepted</k100:validation_status>
    </extensions>
  </metadata>
  <trk>
    <name>황악산 · 운수암-백운봉-비로봉 (OSM 계산 경로)</name>
    <desc>실제 GPS 기록이 아닙니다. OpenStreetMap에 등록된 등산로 선형 위에서 계산한 경로이며, 현장 통제·훼손·출입 제한·계절 통제를 반영하지 않을 수 있습니다. 산행 전 공식 안내를 확인하세요.</desc>
    <trkseg>
      <trkpt lat="36.125403" lon="127.993109"><ele>486.2</ele></trkpt>
      <trkpt lat="36.125501" lon="127.992588"><ele>490.6</ele></trkpt>
      <trkpt lat="36.125644" lon="127.992267"><ele>496.9</ele></trkpt>
      <trkpt lat="36.126072" lon="127.991792"><ele>500.0</ele></trkpt>
      <trkpt lat="36.126336" lon="127.991621"><ele>506.1</ele></trkpt>
      <trkpt lat="36.126959" lon="127.991511"><ele>518.1</ele></trkpt>
      <trkpt lat="36.127155" lon="127.991369"><ele>520.1</ele></trkpt>
      <trkpt lat="36.127366" lon="127.990804"><ele>526.1</ele></trkpt>
      <trkpt lat="36.127405" lon="127.990535"><ele>532.9</ele></trkpt>
      <trkpt lat="36.127815" lon="127.989647"><ele>545.4</ele></trkpt>
      <trkpt lat="36.128018" lon="127.989074"><ele>555.1</ele></trkpt>
      <trkpt lat="36.128752" lon="127.988162"><ele>601.6</ele></trkpt>
      <trkpt lat="36.128821" lon="127.987865"><ele>619.0</ele></trkpt>
      <trkpt lat="36.128720" lon="127.987176"><ele>642.2</ele></trkpt>
      <trkpt lat="36.128077" lon="127.986348"><ele>629.0</ele></trkpt>
      <trkpt lat="36.127351" lon="127.985586"><ele>607.6</ele></trkpt>
      <trkpt lat="36.127190" lon="127.985280"><ele>607.3</ele></trkpt>
      <trkpt lat="36.127167" lon="127.985017"><ele>609.6</ele></trkpt>
      <trkpt lat="36.126962" lon="127.984701"><ele>616.8</ele></trkpt>
      <trkpt lat="36.126596" lon="127.983888"><ele>629.7</ele></trkpt>
      <trkpt lat="36.126150" lon="127.983561"><ele>633.3</ele></trkpt>
      <trkpt lat="36.125885" lon="127.983234"><ele>646.0</ele></trkpt>
      <trkpt lat="36.125688" lon="127.983165"><ele>654.3</ele></trkpt>
      <trkpt lat="36.125494" lon="127.982907"><ele>665.3</ele></trkpt>
      <trkpt lat="36.125135" lon="127.982682"><ele>677.1</ele></trkpt>
      <trkpt lat="36.125066" lon="127.982508"><ele>682.9</ele></trkpt>
      <trkpt lat="36.125075" lon="127.982272"><ele>689.3</ele></trkpt>
      <trkpt lat="36.124879" lon="127.981726"><ele>704.3</ele></trkpt>
      <trkpt lat="36.124814" lon="127.981062"><ele>717.7</ele></trkpt>
      <trkpt lat="36.124654" lon="127.980630"><ele>731.2</ele></trkpt>
      <trkpt lat="36.124686" lon="127.980513"><ele>737.7</ele></trkpt>
      <trkpt lat="36.124601" lon="127.980477"><ele>736.4</ele></trkpt>
      <trkpt lat="36.124598" lon="127.980378"><ele>741.1</ele></trkpt>
      <trkpt lat="36.124677" lon="127.980271"><ele>748.7</ele></trkpt>
      <trkpt lat="36.124621" lon="127.980060"><ele>750.9</ele></trkpt>
      <trkpt lat="36.124689" lon="127.979781"><ele>756.1</ele></trkpt>
      <trkpt lat="36.124159" lon="127.979207"><ele>764.0</ele></trkpt>
      <trkpt lat="36.124065" lon="127.979003"><ele>762.4</ele></trkpt>
      <trkpt lat="36.123680" lon="127.978557"><ele>768.1</ele></trkpt>
      <trkpt lat="36.123264" lon="127.978403"><ele>776.8</ele></trkpt>
      <trkpt lat="36.122673" lon="127.978068"><ele>794.5</ele></trkpt>
      <trkpt lat="36.122534" lon="127.977803"><ele>802.4</ele></trkpt>
      <trkpt lat="36.122357" lon="127.977693"><ele>807.0</ele></trkpt>
      <trkpt lat="36.122185" lon="127.977692"><ele>809.6</ele></trkpt>
      <trkpt lat="36.122061" lon="127.977245"><ele>819.1</ele></trkpt>
      <trkpt lat="36.121922" lon="127.977107"><ele>824.7</ele></trkpt>
      <trkpt lat="36.121680" lon="127.976433"><ele>840.7</ele></trkpt>
      <trkpt lat="36.121497" lon="127.976193"><ele>844.9</ele></trkpt>
      <trkpt lat="36.121382" lon="127.975818"><ele>857.6</ele></trkpt>
      <trkpt lat="36.121220" lon="127.975604"><ele>867.0</ele></trkpt>
      <trkpt lat="36.121029" lon="127.975051"><ele>887.4</ele></trkpt>
      <trkpt lat="36.121055" lon="127.974880"><ele>890.5</ele></trkpt>
      <trkpt lat="36.120978" lon="127.974813"><ele>892.6</ele></trkpt>
      <trkpt lat="36.120961" lon="127.974610"><ele>896.8</ele></trkpt>
      <trkpt lat="36.120691" lon="127.974278"><ele>906.2</ele></trkpt>
      <trkpt lat="36.120504" lon="127.973799"><ele>915.1</ele></trkpt>
      <trkpt lat="36.120549" lon="127.973501"><ele>926.5</ele></trkpt>
      <trkpt lat="36.120492" lon="127.973287"><ele>931.9</ele></trkpt>
      <trkpt lat="36.120509" lon="127.973056"><ele>944.8</ele></trkpt>
      <trkpt lat="36.120556" lon="127.973011"><ele>948.3</ele></trkpt>
      <trkpt lat="36.120514" lon="127.972910"><ele>952.1</ele></trkpt>
      <trkpt lat="36.120529" lon="127.972810"><ele>957.5</ele></trkpt>
      <trkpt lat="36.120651" lon="127.972630"><ele>962.5</ele></trkpt>
      <trkpt lat="36.120476" lon="127.972036"><ele>974.6</ele></trkpt>
      <trkpt lat="36.120492" lon="127.971896"><ele>978.5</ele></trkpt>
      <trkpt lat="36.120440" lon="127.971728"><ele>982.7</ele></trkpt>
      <trkpt lat="36.120487" lon="127.971572"><ele>990.5</ele></trkpt>
      <trkpt lat="36.120473" lon="127.971327"><ele>1000.2</ele></trkpt>
      <trkpt lat="36.120395" lon="127.971057"><ele>1006.3</ele></trkpt>
    </trkseg>
  </trk>
</gpx>
