<?xml version="1.0" encoding="UTF-8"?>
<gpx version="1.1" creator="kr-100-mountains route-harvester"
     xmlns="http://www.topografix.com/GPX/1/1"
     xmlns:k100="https://github.com/jay-jang/kr-100-mountains/ns/1"
     xmlns:xsi="http://www.w3.org/2001/XMLSchema-instance"
     xsi:schemaLocation="http://www.topografix.com/GPX/1/1 http://www.topografix.com/GPX/1/1/gpx.xsd">
  <metadata>
    <name>황악산 · 괘방령 종주 코스 (OSM 계산 경로)</name>
    <desc>실제 GPS 기록이 아닙니다. OpenStreetMap에 등록된 등산로 선형 위에서 계산한 경로이며, 현장 통제·훼손·출입 제한·계절 통제를 반영하지 않을 수 있습니다. 산행 전 공식 안내를 확인하세요.</desc>
    <time>2026-08-04T05:40:47.916Z</time>
    <link href="https://www.openstreetmap.org/copyright"><text>© OpenStreetMap contributors (ODbL 1.0)</text></link>
    <link href="https://registry.opendata.aws/terrain-tiles/"><text>Elevation: SRTM 1 arc-second (NASA/USGS) via AWS Terrain Tiles</text></link>
    <extensions>
      <k100:provenance>osm-routed</k100:provenance>
      <k100:not_a_recorded_track>true</k100:not_a_recorded_track>
      <k100:mountain_id>hwangaksan</k100:mountain_id>
      <k100:mountain_name>황악산</k100:mountain_name>
      <k100:route_id>hwangaksan-3a154a5f</k100:route_id>
      <k100:route_index>2</k100:route_index>
      <k100:route_name>괘방령 종주 코스</k100:route_name>
      <k100:variant>0</k100:variant>
      <k100:source>OpenStreetMap via Overpass API</k100:source>
      <k100:license>ODbL-1.0</k100:license>
      <k100:attribution>© OpenStreetMap contributors</k100:attribution>
      <k100:elevation_source>SRTM 1 arc-second (NASA/USGS) — AWS Terrain Tiles 배포본. 지형 DEM 추정 고도이며 실측 아님</k100:elevation_source>
      <k100:algorithm>dijkstra-grid-v1</k100:algorithm>
      <k100:osm_snapshot>2026-08-04</k100:osm_snapshot>
      <k100:snap_trailhead_m>421</k100:snap_trailhead_m>
      <k100:snap_summit_m>115</k100:snap_summit_m>
      <k100:validation_score>76</k100:validation_score>
      <k100:validation_status>accepted</k100:validation_status>
    </extensions>
  </metadata>
  <trk>
    <name>황악산 · 괘방령 종주 코스 (OSM 계산 경로)</name>
    <desc>실제 GPS 기록이 아닙니다. OpenStreetMap에 등록된 등산로 선형 위에서 계산한 경로이며, 현장 통제·훼손·출입 제한·계절 통제를 반영하지 않을 수 있습니다. 산행 전 공식 안내를 확인하세요.</desc>
    <trkseg>
      <trkpt lat="36.144796" lon="127.975820"><ele>352.9</ele></trkpt>
      <trkpt lat="36.145056" lon="127.975890"><ele>349.2</ele></trkpt>
      <trkpt lat="36.145498" lon="127.975911"><ele>342.6</ele></trkpt>
      <trkpt lat="36.145632" lon="127.976136"><ele>339.6</ele></trkpt>
      <trkpt lat="36.145814" lon="127.976614"><ele>334.3</ele></trkpt>
      <trkpt lat="36.146083" lon="127.976812"><ele>330.3</ele></trkpt>
      <trkpt lat="36.146022" lon="127.977295"><ele>330.7</ele></trkpt>
      <trkpt lat="36.146230" lon="127.977531"><ele>333.3</ele></trkpt>
      <trkpt lat="36.146399" lon="127.977381"><ele>332.2</ele></trkpt>
      <trkpt lat="36.146854" lon="127.977912"><ele>334.5</ele></trkpt>
      <trkpt lat="36.146979" lon="127.977896"><ele>334.5</ele></trkpt>
      <trkpt lat="36.147213" lon="127.978030"><ele>335.0</ele></trkpt>
      <trkpt lat="36.148010" lon="127.977456"><ele>330.8</ele></trkpt>
      <trkpt lat="36.149127" lon="127.976742"><ele>319.4</ele></trkpt>
      <trkpt lat="36.149730" lon="127.978116"><ele>322.6</ele></trkpt>
      <trkpt lat="36.149955" lon="127.978244"><ele>324.6</ele></trkpt>
      <trkpt lat="36.150392" lon="127.978185"><ele>325.9</ele></trkpt>
      <trkpt lat="36.150938" lon="127.977933"><ele>322.0</ele></trkpt>
      <trkpt lat="36.151150" lon="127.977938"><ele>323.6</ele></trkpt>
      <trkpt lat="36.151401" lon="127.977831"><ele>322.4</ele></trkpt>
      <trkpt lat="36.152763" lon="127.976774"><ele>312.5</ele></trkpt>
      <trkpt lat="36.153381" lon="127.976545"><ele>310.8</ele></trkpt>
      <trkpt lat="36.155694" lon="127.975246"><ele>299.3</ele></trkpt>
      <trkpt lat="36.156188" lon="127.974838"><ele>294.0</ele></trkpt>
      <trkpt lat="36.157353" lon="127.974110"><ele>288.6</ele></trkpt>
      <trkpt lat="36.157390" lon="127.974670"><ele>285.7</ele></trkpt>
      <trkpt lat="36.157369" lon="127.975748"><ele>285.8</ele></trkpt>
      <trkpt lat="36.156927" lon="127.975949"><ele>286.6</ele></trkpt>
      <trkpt lat="36.156477" lon="127.976242"><ele>287.3</ele></trkpt>
      <trkpt lat="36.155648" lon="127.978032"><ele>289.8</ele></trkpt>
      <trkpt lat="36.155421" lon="127.977934"><ele>294.1</ele></trkpt>
      <trkpt lat="36.155200" lon="127.978082"><ele>294.4</ele></trkpt>
      <trkpt lat="36.155009" lon="127.978110"><ele>297.8</ele></trkpt>
      <trkpt lat="36.154388" lon="127.979278"><ele>293.7</ele></trkpt>
      <trkpt lat="36.153959" lon="127.979655"><ele>295.4</ele></trkpt>
      <trkpt lat="36.153745" lon="127.979720"><ele>299.1</ele></trkpt>
      <trkpt lat="36.153657" lon="127.979798"><ele>299.5</ele></trkpt>
      <trkpt lat="36.153234" lon="127.980268"><ele>297.1</ele></trkpt>
      <trkpt lat="36.153054" lon="127.980536"><ele>297.0</ele></trkpt>
      <trkpt lat="36.152694" lon="127.980600"><ele>298.1</ele></trkpt>
      <trkpt lat="36.152406" lon="127.980723"><ele>298.7</ele></trkpt>
      <trkpt lat="36.152086" lon="127.981040"><ele>297.9</ele></trkpt>
      <trkpt lat="36.151875" lon="127.980887"><ele>299.9</ele></trkpt>
      <trkpt lat="36.151403" lon="127.981887"><ele>298.9</ele></trkpt>
      <trkpt lat="36.153716" lon="127.983483"><ele>301.8</ele></trkpt>
      <trkpt lat="36.153620" lon="127.983590"><ele>300.9</ele></trkpt>
      <trkpt lat="36.153510" lon="127.983930"><ele>303.9</ele></trkpt>
      <trkpt lat="36.153330" lon="127.985120"><ele>301.4</ele></trkpt>
      <trkpt lat="36.153029" lon="127.987766"><ele>301.8</ele></trkpt>
      <trkpt lat="36.152896" lon="127.988508"><ele>303.5</ele></trkpt>
      <trkpt lat="36.152460" lon="127.989410"><ele>301.3</ele></trkpt>
      <trkpt lat="36.151490" lon="127.991186"><ele>308.7</ele></trkpt>
      <trkpt lat="36.151315" lon="127.991046"><ele>312.0</ele></trkpt>
      <trkpt lat="36.151133" lon="127.991011"><ele>316.5</ele></trkpt>
      <trkpt lat="36.151055" lon="127.990935"><ele>317.5</ele></trkpt>
      <trkpt lat="36.150679" lon="127.991102"><ele>319.4</ele></trkpt>
      <trkpt lat="36.150432" lon="127.991034"><ele>317.4</ele></trkpt>
      <trkpt lat="36.150078" lon="127.990787"><ele>319.7</ele></trkpt>
      <trkpt lat="36.149689" lon="127.990319"><ele>323.5</ele></trkpt>
      <trkpt lat="36.149089" lon="127.989804"><ele>328.0</ele></trkpt>
      <trkpt lat="36.148629" lon="127.989019"><ele>344.9</ele></trkpt>
      <trkpt lat="36.148440" lon="127.988553"><ele>356.8</ele></trkpt>
      <trkpt lat="36.147986" lon="127.988067"><ele>362.2</ele></trkpt>
      <trkpt lat="36.147806" lon="127.987753"><ele>365.6</ele></trkpt>
      <trkpt lat="36.147405" lon="127.987477"><ele>372.2</ele></trkpt>
      <trkpt lat="36.147105" lon="127.987492"><ele>377.0</ele></trkpt>
      <trkpt lat="36.146979" lon="127.987579"><ele>378.8</ele></trkpt>
      <trkpt lat="36.146632" lon="127.987601"><ele>388.2</ele></trkpt>
      <trkpt lat="36.146440" lon="127.987696"><ele>392.8</ele></trkpt>
      <trkpt lat="36.146147" lon="127.987748"><ele>399.1</ele></trkpt>
      <trkpt lat="36.145911" lon="127.987739"><ele>407.4</ele></trkpt>
      <trkpt lat="36.145713" lon="127.987918"><ele>415.3</ele></trkpt>
      <trkpt lat="36.145412" lon="127.987846"><ele>428.7</ele></trkpt>
      <trkpt lat="36.144912" lon="127.988199"><ele>458.3</ele></trkpt>
      <trkpt lat="36.144683" lon="127.988268"><ele>470.0</ele></trkpt>
      <trkpt lat="36.144070" lon="127.988646"><ele>507.7</ele></trkpt>
      <trkpt lat="36.143919" lon="127.989047"><ele>519.9</ele></trkpt>
      <trkpt lat="36.143696" lon="127.988934"><ele>533.6</ele></trkpt>
      <trkpt lat="36.143338" lon="127.988623"><ele>554.6</ele></trkpt>
      <trkpt lat="36.143056" lon="127.988480"><ele>568.8</ele></trkpt>
      <trkpt lat="36.142972" lon="127.988360"><ele>574.7</ele></trkpt>
      <trkpt lat="36.142884" lon="127.988308"><ele>579.0</ele></trkpt>
      <trkpt lat="36.142826" lon="127.988333"><ele>581.1</ele></trkpt>
      <trkpt lat="36.142627" lon="127.988040"><ele>589.1</ele></trkpt>
      <trkpt lat="36.142459" lon="127.987940"><ele>591.1</ele></trkpt>
      <trkpt lat="36.141792" lon="127.987916"><ele>593.4</ele></trkpt>
      <trkpt lat="36.141267" lon="127.987667"><ele>600.3</ele></trkpt>
      <trkpt lat="36.140939" lon="127.987325"><ele>601.9</ele></trkpt>
      <trkpt lat="36.140578" lon="127.987236"><ele>600.2</ele></trkpt>
      <trkpt lat="36.140310" lon="127.987268"><ele>595.6</ele></trkpt>
      <trkpt lat="36.140013" lon="127.987401"><ele>587.1</ele></trkpt>
      <trkpt lat="36.139746" lon="127.987350"><ele>579.8</ele></trkpt>
      <trkpt lat="36.138976" lon="127.987759"><ele>573.6</ele></trkpt>
      <trkpt lat="36.138453" lon="127.987909"><ele>578.6</ele></trkpt>
      <trkpt lat="36.138061" lon="127.987531"><ele>582.9</ele></trkpt>
      <trkpt lat="36.137717" lon="127.987392"><ele>575.2</ele></trkpt>
      <trkpt lat="36.136943" lon="127.987343"><ele>582.1</ele></trkpt>
      <trkpt lat="36.136339" lon="127.987750"><ele>576.6</ele></trkpt>
      <trkpt lat="36.135843" lon="127.988002"><ele>562.3</ele></trkpt>
      <trkpt lat="36.135661" lon="127.988035"><ele>557.4</ele></trkpt>
      <trkpt lat="36.135347" lon="127.988001"><ele>554.4</ele></trkpt>
      <trkpt lat="36.134681" lon="127.988251"><ele>567.8</ele></trkpt>
      <trkpt lat="36.134351" lon="127.988268"><ele>576.1</ele></trkpt>
      <trkpt lat="36.134143" lon="127.988343"><ele>577.6</ele></trkpt>
      <trkpt lat="36.133819" lon="127.988568"><ele>573.1</ele></trkpt>
      <trkpt lat="36.133387" lon="127.988531"><ele>577.1</ele></trkpt>
      <trkpt lat="36.132793" lon="127.988748"><ele>593.1</ele></trkpt>
      <trkpt lat="36.132584" lon="127.988746"><ele>598.2</ele></trkpt>
      <trkpt lat="36.132477" lon="127.988639"><ele>603.8</ele></trkpt>
      <trkpt lat="36.132273" lon="127.988230"><ele>601.4</ele></trkpt>
      <trkpt lat="36.131565" lon="127.987961"><ele>593.4</ele></trkpt>
      <trkpt lat="36.131270" lon="127.987587"><ele>596.7</ele></trkpt>
      <trkpt lat="36.131144" lon="127.987528"><ele>598.4</ele></trkpt>
      <trkpt lat="36.130961" lon="127.987514"><ele>598.4</ele></trkpt>
      <trkpt lat="36.130774" lon="127.987684"><ele>599.1</ele></trkpt>
      <trkpt lat="36.130524" lon="127.987799"><ele>599.6</ele></trkpt>
      <trkpt lat="36.130193" lon="127.987850"><ele>601.9</ele></trkpt>
      <trkpt lat="36.129608" lon="127.987615"><ele>611.3</ele></trkpt>
      <trkpt lat="36.129225" lon="127.987202"><ele>628.7</ele></trkpt>
      <trkpt lat="36.128720" lon="127.987176"><ele>642.2</ele></trkpt>
      <trkpt lat="36.128077" lon="127.986348"><ele>629.0</ele></trkpt>
      <trkpt lat="36.127351" lon="127.985586"><ele>607.6</ele></trkpt>
      <trkpt lat="36.127190" lon="127.985280"><ele>607.3</ele></trkpt>
      <trkpt lat="36.127167" lon="127.985017"><ele>609.6</ele></trkpt>
      <trkpt lat="36.126962" lon="127.984701"><ele>616.8</ele></trkpt>
      <trkpt lat="36.126596" lon="127.983888"><ele>629.7</ele></trkpt>
      <trkpt lat="36.126150" lon="127.983561"><ele>633.3</ele></trkpt>
      <trkpt lat="36.125885" lon="127.983234"><ele>646.0</ele></trkpt>
      <trkpt lat="36.125688" lon="127.983165"><ele>654.3</ele></trkpt>
      <trkpt lat="36.125494" lon="127.982907"><ele>665.3</ele></trkpt>
      <trkpt lat="36.125135" lon="127.982682"><ele>677.1</ele></trkpt>
      <trkpt lat="36.125066" lon="127.982508"><ele>682.9</ele></trkpt>
      <trkpt lat="36.125075" lon="127.982272"><ele>689.3</ele></trkpt>
      <trkpt lat="36.124879" lon="127.981726"><ele>704.3</ele></trkpt>
      <trkpt lat="36.124814" lon="127.981062"><ele>717.7</ele></trkpt>
      <trkpt lat="36.124654" lon="127.980630"><ele>731.2</ele></trkpt>
      <trkpt lat="36.124686" lon="127.980513"><ele>737.7</ele></trkpt>
      <trkpt lat="36.124601" lon="127.980477"><ele>736.4</ele></trkpt>
      <trkpt lat="36.124598" lon="127.980378"><ele>741.1</ele></trkpt>
      <trkpt lat="36.124677" lon="127.980271"><ele>748.7</ele></trkpt>
      <trkpt lat="36.124621" lon="127.980060"><ele>750.9</ele></trkpt>
      <trkpt lat="36.124689" lon="127.979781"><ele>756.1</ele></trkpt>
      <trkpt lat="36.124159" lon="127.979207"><ele>764.0</ele></trkpt>
      <trkpt lat="36.124065" lon="127.979003"><ele>762.4</ele></trkpt>
      <trkpt lat="36.123680" lon="127.978557"><ele>768.1</ele></trkpt>
      <trkpt lat="36.123264" lon="127.978403"><ele>776.8</ele></trkpt>
      <trkpt lat="36.122673" lon="127.978068"><ele>794.5</ele></trkpt>
      <trkpt lat="36.122534" lon="127.977803"><ele>802.4</ele></trkpt>
      <trkpt lat="36.122357" lon="127.977693"><ele>807.0</ele></trkpt>
      <trkpt lat="36.122185" lon="127.977692"><ele>809.6</ele></trkpt>
      <trkpt lat="36.122061" lon="127.977245"><ele>819.1</ele></trkpt>
      <trkpt lat="36.121922" lon="127.977107"><ele>824.7</ele></trkpt>
      <trkpt lat="36.121680" lon="127.976433"><ele>840.7</ele></trkpt>
      <trkpt lat="36.121497" lon="127.976193"><ele>844.9</ele></trkpt>
      <trkpt lat="36.121382" lon="127.975818"><ele>857.6</ele></trkpt>
      <trkpt lat="36.121220" lon="127.975604"><ele>867.0</ele></trkpt>
      <trkpt lat="36.121029" lon="127.975051"><ele>887.4</ele></trkpt>
      <trkpt lat="36.121055" lon="127.974880"><ele>890.5</ele></trkpt>
      <trkpt lat="36.120978" lon="127.974813"><ele>892.6</ele></trkpt>
      <trkpt lat="36.120961" lon="127.974610"><ele>896.8</ele></trkpt>
      <trkpt lat="36.120691" lon="127.974278"><ele>906.2</ele></trkpt>
      <trkpt lat="36.120504" lon="127.973799"><ele>915.1</ele></trkpt>
      <trkpt lat="36.120549" lon="127.973501"><ele>926.5</ele></trkpt>
      <trkpt lat="36.120492" lon="127.973287"><ele>931.9</ele></trkpt>
      <trkpt lat="36.120509" lon="127.973056"><ele>944.8</ele></trkpt>
      <trkpt lat="36.120556" lon="127.973011"><ele>948.3</ele></trkpt>
      <trkpt lat="36.120514" lon="127.972910"><ele>952.1</ele></trkpt>
      <trkpt lat="36.120529" lon="127.972810"><ele>957.5</ele></trkpt>
      <trkpt lat="36.120651" lon="127.972630"><ele>962.5</ele></trkpt>
      <trkpt lat="36.120476" lon="127.972036"><ele>974.6</ele></trkpt>
      <trkpt lat="36.120492" lon="127.971896"><ele>978.5</ele></trkpt>
      <trkpt lat="36.120440" lon="127.971728"><ele>982.7</ele></trkpt>
      <trkpt lat="36.120487" lon="127.971572"><ele>990.5</ele></trkpt>
      <trkpt lat="36.120473" lon="127.971327"><ele>1000.2</ele></trkpt>
      <trkpt lat="36.120395" lon="127.971057"><ele>1006.3</ele></trkpt>
    </trkseg>
  </trk>
</gpx>
