<?xml version="1.0" encoding="UTF-8"?>
<gpx version="1.1" creator="kr-100-mountains route-harvester"
     xmlns="http://www.topografix.com/GPX/1/1"
     xmlns:k100="https://github.com/jay-jang/kr-100-mountains/ns/1"
     xmlns:xsi="http://www.w3.org/2001/XMLSchema-instance"
     xsi:schemaLocation="http://www.topografix.com/GPX/1/1 http://www.topografix.com/GPX/1/1/gpx.xsd">
  <metadata>
    <name>한라산 · 관음사 코스 (대안 1) (OSM 계산 경로)</name>
    <desc>실제 GPS 기록이 아닙니다. OpenStreetMap에 등록된 등산로 선형 위에서 계산한 경로이며, 현장 통제·훼손·출입 제한·계절 통제를 반영하지 않을 수 있습니다. 산행 전 공식 안내를 확인하세요.</desc>
    <time>2026-08-04T05:49:49.264Z</time>
    <link href="https://www.openstreetmap.org/copyright"><text>© OpenStreetMap contributors (ODbL 1.0)</text></link>
    <link href="https://registry.opendata.aws/terrain-tiles/"><text>Elevation: SRTM 1 arc-second (NASA/USGS) via AWS Terrain Tiles</text></link>
    <extensions>
      <k100:provenance>osm-routed</k100:provenance>
      <k100:not_a_recorded_track>true</k100:not_a_recorded_track>
      <k100:mountain_id>hanrasan</k100:mountain_id>
      <k100:mountain_name>한라산</k100:mountain_name>
      <k100:route_id>hanrasan-7e334e0d</k100:route_id>
      <k100:route_index>2</k100:route_index>
      <k100:route_name>관음사 코스</k100:route_name>
      <k100:variant>1</k100:variant>
      <k100:source>OpenStreetMap via Overpass API</k100:source>
      <k100:license>ODbL-1.0</k100:license>
      <k100:attribution>© OpenStreetMap contributors</k100:attribution>
      <k100:elevation_source>SRTM 1 arc-second (NASA/USGS) — AWS Terrain Tiles 배포본. 지형 DEM 추정 고도이며 실측 아님</k100:elevation_source>
      <k100:algorithm>dijkstra-grid-v1</k100:algorithm>
      <k100:osm_snapshot>2026-08-04</k100:osm_snapshot>
      <k100:snap_trailhead_m>23</k100:snap_trailhead_m>
      <k100:snap_summit_m>38</k100:snap_summit_m>
      <k100:validation_score>93</k100:validation_score>
      <k100:validation_status>accepted</k100:validation_status>
    </extensions>
  </metadata>
  <trk>
    <name>한라산 · 관음사 코스 (대안 1) (OSM 계산 경로)</name>
    <desc>실제 GPS 기록이 아닙니다. OpenStreetMap에 등록된 등산로 선형 위에서 계산한 경로이며, 현장 통제·훼손·출입 제한·계절 통제를 반영하지 않을 수 있습니다. 산행 전 공식 안내를 확인하세요.</desc>
    <trkseg>
      <trkpt lat="33.421866" lon="126.549778"><ele>577.7</ele></trkpt>
      <trkpt lat="33.421822" lon="126.549524"><ele>578.0</ele></trkpt>
      <trkpt lat="33.422295" lon="126.549423"><ele>576.6</ele></trkpt>
      <trkpt lat="33.422351" lon="126.549015"><ele>573.9</ele></trkpt>
      <trkpt lat="33.423145" lon="126.546090"><ele>559.2</ele></trkpt>
      <trkpt lat="33.424397" lon="126.542550"><ele>545.1</ele></trkpt>
      <trkpt lat="33.424660" lon="126.541910"><ele>542.8</ele></trkpt>
      <trkpt lat="33.424450" lon="126.541756"><ele>544.9</ele></trkpt>
      <trkpt lat="33.424209" lon="126.541740"><ele>546.9</ele></trkpt>
      <trkpt lat="33.423960" lon="126.541826"><ele>550.2</ele></trkpt>
      <trkpt lat="33.423387" lon="126.541906"><ele>560.0</ele></trkpt>
      <trkpt lat="33.422420" lon="126.541750"><ele>568.3</ele></trkpt>
      <trkpt lat="33.422098" lon="126.541568"><ele>573.1</ele></trkpt>
      <trkpt lat="33.421233" lon="126.541380"><ele>580.6</ele></trkpt>
      <trkpt lat="33.420463" lon="126.541016"><ele>589.1</ele></trkpt>
      <trkpt lat="33.419944" lon="126.541107"><ele>595.5</ele></trkpt>
      <trkpt lat="33.419460" lon="126.541064"><ele>604.9</ele></trkpt>
      <trkpt lat="33.419049" lon="126.540742"><ele>606.1</ele></trkpt>
      <trkpt lat="33.418399" lon="126.540554"><ele>611.3</ele></trkpt>
      <trkpt lat="33.417925" lon="126.540275"><ele>618.4</ele></trkpt>
      <trkpt lat="33.417558" lon="126.539996"><ele>623.6</ele></trkpt>
      <trkpt lat="33.417078" lon="126.539358"><ele>628.7</ele></trkpt>
      <trkpt lat="33.416828" lon="126.539208"><ele>632.3</ele></trkpt>
      <trkpt lat="33.416331" lon="126.539149"><ele>642.6</ele></trkpt>
      <trkpt lat="33.416062" lon="126.539031"><ele>648.4</ele></trkpt>
      <trkpt lat="33.415713" lon="126.538580"><ele>656.9</ele></trkpt>
      <trkpt lat="33.415122" lon="126.538247"><ele>668.5</ele></trkpt>
      <trkpt lat="33.414925" lon="126.538070"><ele>669.1</ele></trkpt>
      <trkpt lat="33.414763" lon="126.537840"><ele>666.0</ele></trkpt>
      <trkpt lat="33.414401" lon="126.537615"><ele>668.8</ele></trkpt>
      <trkpt lat="33.413854" lon="126.537459"><ele>680.1</ele></trkpt>
      <trkpt lat="33.413281" lon="126.537373"><ele>688.7</ele></trkpt>
      <trkpt lat="33.412847" lon="126.537427"><ele>697.4</ele></trkpt>
      <trkpt lat="33.412229" lon="126.537319"><ele>698.8</ele></trkpt>
      <trkpt lat="33.411857" lon="126.537421"><ele>706.6</ele></trkpt>
      <trkpt lat="33.411589" lon="126.537507"><ele>712.4</ele></trkpt>
      <trkpt lat="33.411195" lon="126.537936"><ele>719.7</ele></trkpt>
      <trkpt lat="33.410626" lon="126.538290"><ele>720.9</ele></trkpt>
      <trkpt lat="33.409999" lon="126.538972"><ele>725.5</ele></trkpt>
      <trkpt lat="33.409905" lon="126.538945"><ele>724.1</ele></trkpt>
      <trkpt lat="33.409798" lon="126.539106"><ele>726.9</ele></trkpt>
      <trkpt lat="33.409099" lon="126.539363"><ele>737.0</ele></trkpt>
      <trkpt lat="33.408396" lon="126.539353"><ele>745.9</ele></trkpt>
      <trkpt lat="33.408257" lon="126.539573"><ele>751.4</ele></trkpt>
      <trkpt lat="33.407576" lon="126.539020"><ele>759.8</ele></trkpt>
      <trkpt lat="33.406945" lon="126.538821"><ele>767.0</ele></trkpt>
      <trkpt lat="33.406466" lon="126.538950"><ele>778.2</ele></trkpt>
      <trkpt lat="33.406238" lon="126.538945"><ele>780.6</ele></trkpt>
      <trkpt lat="33.405723" lon="126.539111"><ele>790.5</ele></trkpt>
      <trkpt lat="33.405270" lon="126.539358"><ele>803.9</ele></trkpt>
      <trkpt lat="33.404903" lon="126.539487"><ele>813.9</ele></trkpt>
      <trkpt lat="33.404289" lon="126.539621"><ele>820.6</ele></trkpt>
      <trkpt lat="33.404128" lon="126.539787"><ele>823.8</ele></trkpt>
      <trkpt lat="33.403954" lon="126.539787"><ele>820.9</ele></trkpt>
      <trkpt lat="33.403824" lon="126.539900"><ele>824.4</ele></trkpt>
      <trkpt lat="33.403295" lon="126.539943"><ele>826.4</ele></trkpt>
      <trkpt lat="33.402969" lon="126.540081"><ele>836.5</ele></trkpt>
      <trkpt lat="33.402948" lon="126.539986"><ele>835.8</ele></trkpt>
      <trkpt lat="33.402580" lon="126.539800"><ele>846.7</ele></trkpt>
      <trkpt lat="33.402115" lon="126.539830"><ele>855.6</ele></trkpt>
      <trkpt lat="33.401814" lon="126.540040"><ele>857.8</ele></trkpt>
      <trkpt lat="33.401934" lon="126.540291"><ele>866.1</ele></trkpt>
      <trkpt lat="33.401853" lon="126.540538"><ele>870.6</ele></trkpt>
      <trkpt lat="33.401217" lon="126.541439"><ele>888.5</ele></trkpt>
      <trkpt lat="33.400841" lon="126.541654"><ele>897.4</ele></trkpt>
      <trkpt lat="33.400590" lon="126.541879"><ele>907.4</ele></trkpt>
      <trkpt lat="33.400537" lon="126.542244"><ele>914.6</ele></trkpt>
      <trkpt lat="33.400196" lon="126.542405"><ele>924.2</ele></trkpt>
      <trkpt lat="33.399901" lon="126.542298"><ele>927.7</ele></trkpt>
      <trkpt lat="33.399641" lon="126.542126"><ele>929.3</ele></trkpt>
      <trkpt lat="33.399614" lon="126.541654"><ele>921.0</ele></trkpt>
      <trkpt lat="33.399551" lon="126.541493"><ele>918.6</ele></trkpt>
      <trkpt lat="33.399175" lon="126.541171"><ele>923.1</ele></trkpt>
      <trkpt lat="33.398450" lon="126.540978"><ele>938.9</ele></trkpt>
      <trkpt lat="33.398047" lon="126.541225"><ele>956.4</ele></trkpt>
      <trkpt lat="33.397635" lon="126.541278"><ele>966.0</ele></trkpt>
      <trkpt lat="33.397267" lon="126.541536"><ele>984.4</ele></trkpt>
      <trkpt lat="33.396837" lon="126.541450"><ele>993.5</ele></trkpt>
      <trkpt lat="33.396398" lon="126.541450"><ele>1006.0</ele></trkpt>
      <trkpt lat="33.395691" lon="126.541353"><ele>1025.2</ele></trkpt>
      <trkpt lat="33.395279" lon="126.541439"><ele>1036.2</ele></trkpt>
      <trkpt lat="33.394589" lon="126.541246"><ele>1054.3</ele></trkpt>
      <trkpt lat="33.394329" lon="126.541278"><ele>1060.6</ele></trkpt>
      <trkpt lat="33.393684" lon="126.541750"><ele>1084.8</ele></trkpt>
      <trkpt lat="33.393219" lon="126.541590"><ele>1089.6</ele></trkpt>
      <trkpt lat="33.392144" lon="126.541890"><ele>1116.3</ele></trkpt>
      <trkpt lat="33.391418" lon="126.542190"><ele>1139.8</ele></trkpt>
      <trkpt lat="33.390872" lon="126.542308"><ele>1147.0</ele></trkpt>
      <trkpt lat="33.390316" lon="126.542512"><ele>1158.5</ele></trkpt>
      <trkpt lat="33.389519" lon="126.542480"><ele>1174.2</ele></trkpt>
      <trkpt lat="33.389134" lon="126.542544"><ele>1180.4</ele></trkpt>
      <trkpt lat="33.388722" lon="126.542738"><ele>1185.4</ele></trkpt>
      <trkpt lat="33.387759" lon="126.542458"><ele>1202.3</ele></trkpt>
      <trkpt lat="33.387562" lon="126.542507"><ele>1205.9</ele></trkpt>
      <trkpt lat="33.387364" lon="126.542485"><ele>1210.3</ele></trkpt>
      <trkpt lat="33.387114" lon="126.542260"><ele>1212.1</ele></trkpt>
      <trkpt lat="33.386173" lon="126.542260"><ele>1222.6</ele></trkpt>
      <trkpt lat="33.386012" lon="126.542405"><ele>1226.8</ele></trkpt>
      <trkpt lat="33.385559" lon="126.542410"><ele>1238.6</ele></trkpt>
      <trkpt lat="33.385255" lon="126.542475"><ele>1245.4</ele></trkpt>
      <trkpt lat="33.384836" lon="126.542695"><ele>1257.1</ele></trkpt>
      <trkpt lat="33.384616" lon="126.542716"><ele>1262.8</ele></trkpt>
      <trkpt lat="33.384245" lon="126.542931"><ele>1271.5</ele></trkpt>
      <trkpt lat="33.383808" lon="126.543014"><ele>1284.0</ele></trkpt>
      <trkpt lat="33.383575" lon="126.543156"><ele>1291.1</ele></trkpt>
      <trkpt lat="33.383105" lon="126.543059"><ele>1299.3</ele></trkpt>
      <trkpt lat="33.382894" lon="126.543145"><ele>1302.6</ele></trkpt>
      <trkpt lat="33.382769" lon="126.543478"><ele>1305.1</ele></trkpt>
      <trkpt lat="33.382630" lon="126.543435"><ele>1307.3</ele></trkpt>
      <trkpt lat="33.382254" lon="126.543676"><ele>1316.4</ele></trkpt>
      <trkpt lat="33.381913" lon="126.543558"><ele>1326.3</ele></trkpt>
      <trkpt lat="33.381537" lon="126.543666"><ele>1338.5</ele></trkpt>
      <trkpt lat="33.381206" lon="126.543601"><ele>1345.6</ele></trkpt>
      <trkpt lat="33.380489" lon="126.543312"><ele>1352.0</ele></trkpt>
      <trkpt lat="33.379772" lon="126.543301"><ele>1365.9</ele></trkpt>
      <trkpt lat="33.379597" lon="126.543210"><ele>1370.8</ele></trkpt>
      <trkpt lat="33.379378" lon="126.542786"><ele>1376.7</ele></trkpt>
      <trkpt lat="33.378840" lon="126.542512"><ele>1391.5</ele></trkpt>
      <trkpt lat="33.378415" lon="126.542131"><ele>1402.4</ele></trkpt>
      <trkpt lat="33.377702" lon="126.541842"><ele>1425.1</ele></trkpt>
      <trkpt lat="33.377313" lon="126.541477"><ele>1440.2</ele></trkpt>
      <trkpt lat="33.375794" lon="126.540946"><ele>1498.1</ele></trkpt>
      <trkpt lat="33.375216" lon="126.540334"><ele>1519.2</ele></trkpt>
      <trkpt lat="33.375127" lon="126.540141"><ele>1521.9</ele></trkpt>
      <trkpt lat="33.375284" lon="126.539889"><ele>1519.1</ele></trkpt>
      <trkpt lat="33.375301" lon="126.539696"><ele>1520.8</ele></trkpt>
      <trkpt lat="33.375033" lon="126.539460"><ele>1526.4</ele></trkpt>
      <trkpt lat="33.374876" lon="126.539170"><ele>1531.3</ele></trkpt>
      <trkpt lat="33.374755" lon="126.539084"><ele>1533.5</ele></trkpt>
      <trkpt lat="33.374553" lon="126.539117"><ele>1535.8</ele></trkpt>
      <trkpt lat="33.374087" lon="126.538966"><ele>1545.6</ele></trkpt>
      <trkpt lat="33.374034" lon="126.538864"><ele>1547.6</ele></trkpt>
      <trkpt lat="33.373980" lon="126.538398"><ele>1552.8</ele></trkpt>
      <trkpt lat="33.373604" lon="126.537867"><ele>1564.1</ele></trkpt>
      <trkpt lat="33.373447" lon="126.537126"><ele>1572.4</ele></trkpt>
      <trkpt lat="33.373783" lon="126.536483"><ele>1573.7</ele></trkpt>
      <trkpt lat="33.373783" lon="126.536204"><ele>1574.4</ele></trkpt>
      <trkpt lat="33.373456" lon="126.535839"><ele>1580.1</ele></trkpt>
      <trkpt lat="33.373438" lon="126.535699"><ele>1580.7</ele></trkpt>
      <trkpt lat="33.373527" lon="126.535463"><ele>1580.9</ele></trkpt>
      <trkpt lat="33.373514" lon="126.535367"><ele>1581.4</ele></trkpt>
      <trkpt lat="33.373299" lon="126.535265"><ele>1583.6</ele></trkpt>
      <trkpt lat="33.373151" lon="126.534541"><ele>1582.3</ele></trkpt>
      <trkpt lat="33.373012" lon="126.534519"><ele>1582.6</ele></trkpt>
      <trkpt lat="33.372905" lon="126.534610"><ele>1585.3</ele></trkpt>
      <trkpt lat="33.372743" lon="126.534573"><ele>1587.2</ele></trkpt>
      <trkpt lat="33.372676" lon="126.534417"><ele>1586.6</ele></trkpt>
      <trkpt lat="33.372331" lon="126.534154"><ele>1594.0</ele></trkpt>
      <trkpt lat="33.372116" lon="126.534187"><ele>1600.6</ele></trkpt>
      <trkpt lat="33.371543" lon="126.533945"><ele>1617.1</ele></trkpt>
      <trkpt lat="33.371328" lon="126.534047"><ele>1620.2</ele></trkpt>
      <trkpt lat="33.371202" lon="126.533951"><ele>1625.5</ele></trkpt>
      <trkpt lat="33.370808" lon="126.533833"><ele>1637.7</ele></trkpt>
      <trkpt lat="33.369945" lon="126.533101"><ele>1660.4</ele></trkpt>
      <trkpt lat="33.369895" lon="126.533240"><ele>1661.3</ele></trkpt>
      <trkpt lat="33.369487" lon="126.533780"><ele>1673.8</ele></trkpt>
      <trkpt lat="33.369186" lon="126.533945"><ele>1677.7</ele></trkpt>
      <trkpt lat="33.368877" lon="126.534004"><ele>1684.4</ele></trkpt>
      <trkpt lat="33.368600" lon="126.533965"><ele>1691.7</ele></trkpt>
      <trkpt lat="33.368059" lon="126.533693"><ele>1711.8</ele></trkpt>
      <trkpt lat="33.366930" lon="126.534157"><ele>1764.2</ele></trkpt>
      <trkpt lat="33.366529" lon="126.534149"><ele>1777.0</ele></trkpt>
      <trkpt lat="33.366181" lon="126.533981"><ele>1788.9</ele></trkpt>
      <trkpt lat="33.365620" lon="126.533967"><ele>1805.6</ele></trkpt>
      <trkpt lat="33.364998" lon="126.534159"><ele>1820.8</ele></trkpt>
      <trkpt lat="33.364939" lon="126.534332"><ele>1828.5</ele></trkpt>
      <trkpt lat="33.364857" lon="126.534415"><ele>1834.0</ele></trkpt>
      <trkpt lat="33.364228" lon="126.534530"><ele>1848.6</ele></trkpt>
      <trkpt lat="33.364050" lon="126.534632"><ele>1854.0</ele></trkpt>
      <trkpt lat="33.363761" lon="126.534683"><ele>1861.9</ele></trkpt>
      <trkpt lat="33.363550" lon="126.534570"><ele>1868.7</ele></trkpt>
      <trkpt lat="33.363483" lon="126.534657"><ele>1873.3</ele></trkpt>
      <trkpt lat="33.363452" lon="126.534962"><ele>1879.3</ele></trkpt>
      <trkpt lat="33.363309" lon="126.535070"><ele>1887.3</ele></trkpt>
      <trkpt lat="33.363266" lon="126.535251"><ele>1887.6</ele></trkpt>
      <trkpt lat="33.363138" lon="126.535386"><ele>1889.6</ele></trkpt>
      <trkpt lat="33.363040" lon="126.535627"><ele>1891.1</ele></trkpt>
      <trkpt lat="33.362867" lon="126.535790"><ele>1896.2</ele></trkpt>
      <trkpt lat="33.362753" lon="126.535816"><ele>1899.9</ele></trkpt>
      <trkpt lat="33.362604" lon="126.535768"><ele>1904.6</ele></trkpt>
      <trkpt lat="33.362366" lon="126.535958"><ele>1906.9</ele></trkpt>
      <trkpt lat="33.361635" lon="126.535748"><ele>1912.1</ele></trkpt>
      <trkpt lat="33.361309" lon="126.535802"><ele>1910.9</ele></trkpt>
      <trkpt lat="33.361162" lon="126.535771"><ele>1911.1</ele></trkpt>
      <trkpt lat="33.360591" lon="126.535549"><ele>1910.8</ele></trkpt>
      <trkpt lat="33.360197" lon="126.535297"><ele>1904.8</ele></trkpt>
      <trkpt lat="33.360043" lon="126.534841"><ele>1898.1</ele></trkpt>
      <trkpt lat="33.359881" lon="126.534691"><ele>1896.7</ele></trkpt>
      <trkpt lat="33.359856" lon="126.533985"><ele>1880.1</ele></trkpt>
      <trkpt lat="33.359836" lon="126.533811"><ele>1876.1</ele></trkpt>
      <trkpt lat="33.359740" lon="126.533580"><ele>1873.2</ele></trkpt>
      <trkpt lat="33.359760" lon="126.533425"><ele>1874.1</ele></trkpt>
      <trkpt lat="33.359728" lon="126.533296"><ele>1875.9</ele></trkpt>
      <trkpt lat="33.359619" lon="126.533202"><ele>1877.0</ele></trkpt>
      <trkpt lat="33.359560" lon="126.532962"><ele>1884.2</ele></trkpt>
      <trkpt lat="33.359405" lon="126.532769"><ele>1893.8</ele></trkpt>
      <trkpt lat="33.359325" lon="126.532298"><ele>1875.4</ele></trkpt>
      <trkpt lat="33.359339" lon="126.531810"><ele>1844.4</ele></trkpt>
      <trkpt lat="33.359482" lon="126.531365"><ele>1845.9</ele></trkpt>
      <trkpt lat="33.359661" lon="126.530222"><ele>1899.0</ele></trkpt>
      <trkpt lat="33.359715" lon="126.530094"><ele>1902.6</ele></trkpt>
      <trkpt lat="33.360015" lon="126.529858"><ele>1916.4</ele></trkpt>
      <trkpt lat="33.360244" lon="126.529713"><ele>1926.1</ele></trkpt>
      <trkpt lat="33.360391" lon="126.529702"><ele>1927.2</ele></trkpt>
      <trkpt lat="33.360635" lon="126.529574"><ele>1928.1</ele></trkpt>
      <trkpt lat="33.360979" lon="126.529562"><ele>1927.0</ele></trkpt>
      <trkpt lat="33.361190" lon="126.529461"><ele>1932.0</ele></trkpt>
      <trkpt lat="33.361404" lon="126.529434"><ele>1935.6</ele></trkpt>
      <trkpt lat="33.361731" lon="126.529568"><ele>1929.3</ele></trkpt>
    </trkseg>
  </trk>
</gpx>
