<?xml version="1.0" encoding="UTF-8"?>
<gpx version="1.1" creator="kr-100-mountains route-harvester"
     xmlns="http://www.topografix.com/GPX/1/1"
     xmlns:k100="https://github.com/jay-jang/kr-100-mountains/ns/1"
     xmlns:xsi="http://www.w3.org/2001/XMLSchema-instance"
     xsi:schemaLocation="http://www.topografix.com/GPX/1/1 http://www.topografix.com/GPX/1/1/gpx.xsd">
  <metadata>
    <name>한라산 · 성판악 코스 (OSM 계산 경로)</name>
    <desc>실제 GPS 기록이 아닙니다. OpenStreetMap에 등록된 등산로 선형 위에서 계산한 경로이며, 현장 통제·훼손·출입 제한·계절 통제를 반영하지 않을 수 있습니다. 산행 전 공식 안내를 확인하세요.</desc>
    <time>2026-08-04T05:49:49.187Z</time>
    <link href="https://www.openstreetmap.org/copyright"><text>© OpenStreetMap contributors (ODbL 1.0)</text></link>
    <link href="https://registry.opendata.aws/terrain-tiles/"><text>Elevation: SRTM 1 arc-second (NASA/USGS) via AWS Terrain Tiles</text></link>
    <extensions>
      <k100:provenance>osm-routed</k100:provenance>
      <k100:not_a_recorded_track>true</k100:not_a_recorded_track>
      <k100:mountain_id>hanrasan</k100:mountain_id>
      <k100:mountain_name>한라산</k100:mountain_name>
      <k100:route_id>hanrasan-4581fb94</k100:route_id>
      <k100:route_index>1</k100:route_index>
      <k100:route_name>성판악 코스</k100:route_name>
      <k100:variant>0</k100:variant>
      <k100:source>OpenStreetMap via Overpass API</k100:source>
      <k100:license>ODbL-1.0</k100:license>
      <k100:attribution>© OpenStreetMap contributors</k100:attribution>
      <k100:elevation_source>SRTM 1 arc-second (NASA/USGS) — AWS Terrain Tiles 배포본. 지형 DEM 추정 고도이며 실측 아님</k100:elevation_source>
      <k100:algorithm>dijkstra-grid-v1</k100:algorithm>
      <k100:osm_snapshot>2026-08-04</k100:osm_snapshot>
      <k100:snap_trailhead_m>388</k100:snap_trailhead_m>
      <k100:snap_summit_m>38</k100:snap_summit_m>
      <k100:validation_score>87</k100:validation_score>
      <k100:validation_status>accepted</k100:validation_status>
    </extensions>
  </metadata>
  <trk>
    <name>한라산 · 성판악 코스 (OSM 계산 경로)</name>
    <desc>실제 GPS 기록이 아닙니다. OpenStreetMap에 등록된 등산로 선형 위에서 계산한 경로이며, 현장 통제·훼손·출입 제한·계절 통제를 반영하지 않을 수 있습니다. 산행 전 공식 안내를 확인하세요.</desc>
    <trkseg>
      <trkpt lat="33.391512" lon="126.616865"><ele>754.6</ele></trkpt>
      <trkpt lat="33.390451" lon="126.617899"><ele>755.0</ele></trkpt>
      <trkpt lat="33.390185" lon="126.618066"><ele>754.5</ele></trkpt>
      <trkpt lat="33.390003" lon="126.618088"><ele>755.4</ele></trkpt>
      <trkpt lat="33.389832" lon="126.618043"><ele>754.9</ele></trkpt>
      <trkpt lat="33.389000" lon="126.617560"><ele>749.8</ele></trkpt>
      <trkpt lat="33.388540" lon="126.617840"><ele>750.3</ele></trkpt>
      <trkpt lat="33.387451" lon="126.618096"><ele>753.4</ele></trkpt>
      <trkpt lat="33.385844" lon="126.619213"><ele>746.8</ele></trkpt>
      <trkpt lat="33.385574" lon="126.619652"><ele>748.1</ele></trkpt>
      <trkpt lat="33.385381" lon="126.620227"><ele>749.0</ele></trkpt>
      <trkpt lat="33.385211" lon="126.620340"><ele>751.0</ele></trkpt>
      <trkpt lat="33.385051" lon="126.620368"><ele>751.0</ele></trkpt>
      <trkpt lat="33.384898" lon="126.619648"><ele>749.8</ele></trkpt>
      <trkpt lat="33.384904" lon="126.619314"><ele>752.6</ele></trkpt>
      <trkpt lat="33.384795" lon="126.618623"><ele>760.1</ele></trkpt>
      <trkpt lat="33.384727" lon="126.618435"><ele>762.2</ele></trkpt>
      <trkpt lat="33.384425" lon="126.618112"><ele>765.9</ele></trkpt>
      <trkpt lat="33.384137" lon="126.617577"><ele>770.3</ele></trkpt>
      <trkpt lat="33.384201" lon="126.616894"><ele>778.6</ele></trkpt>
      <trkpt lat="33.384161" lon="126.616168"><ele>787.4</ele></trkpt>
      <trkpt lat="33.384272" lon="126.615841"><ele>790.3</ele></trkpt>
      <trkpt lat="33.384293" lon="126.615525"><ele>793.1</ele></trkpt>
      <trkpt lat="33.384217" lon="126.615264"><ele>794.0</ele></trkpt>
      <trkpt lat="33.384020" lon="126.614910"><ele>796.0</ele></trkpt>
      <trkpt lat="33.384054" lon="126.614411"><ele>798.8</ele></trkpt>
      <trkpt lat="33.383533" lon="126.612722"><ele>807.9</ele></trkpt>
      <trkpt lat="33.383178" lon="126.611955"><ele>813.3</ele></trkpt>
      <trkpt lat="33.382734" lon="126.610801"><ele>820.1</ele></trkpt>
      <trkpt lat="33.382408" lon="126.610317"><ele>822.8</ele></trkpt>
      <trkpt lat="33.382377" lon="126.610153"><ele>823.7</ele></trkpt>
      <trkpt lat="33.382599" lon="126.609181"><ele>827.3</ele></trkpt>
      <trkpt lat="33.382544" lon="126.608967"><ele>827.0</ele></trkpt>
      <trkpt lat="33.382633" lon="126.608333"><ele>827.0</ele></trkpt>
      <trkpt lat="33.382590" lon="126.608098"><ele>828.7</ele></trkpt>
      <trkpt lat="33.382432" lon="126.607888"><ele>830.0</ele></trkpt>
      <trkpt lat="33.382344" lon="126.607594"><ele>832.1</ele></trkpt>
      <trkpt lat="33.382328" lon="126.607073"><ele>836.7</ele></trkpt>
      <trkpt lat="33.382397" lon="126.606833"><ele>837.4</ele></trkpt>
      <trkpt lat="33.382623" lon="126.606495"><ele>837.6</ele></trkpt>
      <trkpt lat="33.382700" lon="126.606271"><ele>838.3</ele></trkpt>
      <trkpt lat="33.382693" lon="126.606078"><ele>838.6</ele></trkpt>
      <trkpt lat="33.382890" lon="126.605672"><ele>838.3</ele></trkpt>
      <trkpt lat="33.382882" lon="126.605292"><ele>839.6</ele></trkpt>
      <trkpt lat="33.382666" lon="126.604892"><ele>846.0</ele></trkpt>
      <trkpt lat="33.382694" lon="126.604525"><ele>849.0</ele></trkpt>
      <trkpt lat="33.382581" lon="126.603868"><ele>856.5</ele></trkpt>
      <trkpt lat="33.382490" lon="126.603589"><ele>859.1</ele></trkpt>
      <trkpt lat="33.382655" lon="126.603355"><ele>858.8</ele></trkpt>
      <trkpt lat="33.382658" lon="126.603063"><ele>862.9</ele></trkpt>
      <trkpt lat="33.382560" lon="126.602645"><ele>867.9</ele></trkpt>
      <trkpt lat="33.382710" lon="126.602262"><ele>874.1</ele></trkpt>
      <trkpt lat="33.382806" lon="126.601388"><ele>888.9</ele></trkpt>
      <trkpt lat="33.382745" lon="126.601043"><ele>891.3</ele></trkpt>
      <trkpt lat="33.382849" lon="126.600719"><ele>896.8</ele></trkpt>
      <trkpt lat="33.382917" lon="126.600681"><ele>898.6</ele></trkpt>
      <trkpt lat="33.382899" lon="126.600062"><ele>908.4</ele></trkpt>
      <trkpt lat="33.382844" lon="126.599698"><ele>910.6</ele></trkpt>
      <trkpt lat="33.382691" lon="126.599502"><ele>911.6</ele></trkpt>
      <trkpt lat="33.382652" lon="126.599249"><ele>913.0</ele></trkpt>
      <trkpt lat="33.382530" lon="126.599145"><ele>914.3</ele></trkpt>
      <trkpt lat="33.382556" lon="126.598939"><ele>917.9</ele></trkpt>
      <trkpt lat="33.382428" lon="126.598552"><ele>926.1</ele></trkpt>
      <trkpt lat="33.381849" lon="126.597723"><ele>938.5</ele></trkpt>
      <trkpt lat="33.381573" lon="126.597457"><ele>945.1</ele></trkpt>
      <trkpt lat="33.381506" lon="126.597286"><ele>948.4</ele></trkpt>
      <trkpt lat="33.381198" lon="126.596904"><ele>955.6</ele></trkpt>
      <trkpt lat="33.381143" lon="126.596510"><ele>960.8</ele></trkpt>
      <trkpt lat="33.380917" lon="126.595929"><ele>969.7</ele></trkpt>
      <trkpt lat="33.380770" lon="126.595202"><ele>979.0</ele></trkpt>
      <trkpt lat="33.380781" lon="126.594827"><ele>982.7</ele></trkpt>
      <trkpt lat="33.380843" lon="126.594495"><ele>985.4</ele></trkpt>
      <trkpt lat="33.380763" lon="126.594259"><ele>988.6</ele></trkpt>
      <trkpt lat="33.380623" lon="126.594091"><ele>991.4</ele></trkpt>
      <trkpt lat="33.380462" lon="126.594039"><ele>992.7</ele></trkpt>
      <trkpt lat="33.380345" lon="126.593815"><ele>995.4</ele></trkpt>
      <trkpt lat="33.380351" lon="126.593389"><ele>999.5</ele></trkpt>
      <trkpt lat="33.380223" lon="126.592975"><ele>1003.0</ele></trkpt>
      <trkpt lat="33.380183" lon="126.592214"><ele>1010.0</ele></trkpt>
      <trkpt lat="33.380030" lon="126.592060"><ele>1010.5</ele></trkpt>
      <trkpt lat="33.379922" lon="126.591774"><ele>1012.9</ele></trkpt>
      <trkpt lat="33.379979" lon="126.591188"><ele>1018.5</ele></trkpt>
      <trkpt lat="33.379935" lon="126.590944"><ele>1020.5</ele></trkpt>
      <trkpt lat="33.380027" lon="126.590559"><ele>1020.8</ele></trkpt>
      <trkpt lat="33.380000" lon="126.590290"><ele>1022.0</ele></trkpt>
      <trkpt lat="33.379819" lon="126.589920"><ele>1028.2</ele></trkpt>
      <trkpt lat="33.379757" lon="126.589511"><ele>1032.3</ele></trkpt>
      <trkpt lat="33.379615" lon="126.589317"><ele>1034.9</ele></trkpt>
      <trkpt lat="33.379489" lon="126.588655"><ele>1039.0</ele></trkpt>
      <trkpt lat="33.379387" lon="126.588395"><ele>1040.2</ele></trkpt>
      <trkpt lat="33.379427" lon="126.587630"><ele>1044.6</ele></trkpt>
      <trkpt lat="33.379307" lon="126.586701"><ele>1053.8</ele></trkpt>
      <trkpt lat="33.379062" lon="126.585956"><ele>1058.2</ele></trkpt>
      <trkpt lat="33.378843" lon="126.585521"><ele>1064.0</ele></trkpt>
      <trkpt lat="33.378658" lon="126.584809"><ele>1068.4</ele></trkpt>
      <trkpt lat="33.378704" lon="126.584186"><ele>1070.6</ele></trkpt>
      <trkpt lat="33.378967" lon="126.583958"><ele>1073.0</ele></trkpt>
      <trkpt lat="33.379100" lon="126.583381"><ele>1074.8</ele></trkpt>
      <trkpt lat="33.379711" lon="126.582694"><ele>1081.2</ele></trkpt>
      <trkpt lat="33.380037" lon="126.582397"><ele>1085.4</ele></trkpt>
      <trkpt lat="33.380116" lon="126.582062"><ele>1087.9</ele></trkpt>
      <trkpt lat="33.380115" lon="126.581770"><ele>1089.5</ele></trkpt>
      <trkpt lat="33.380232" lon="126.581427"><ele>1090.7</ele></trkpt>
      <trkpt lat="33.380140" lon="126.581112"><ele>1091.5</ele></trkpt>
      <trkpt lat="33.380269" lon="126.580994"><ele>1094.1</ele></trkpt>
      <trkpt lat="33.380469" lon="126.580549"><ele>1103.4</ele></trkpt>
      <trkpt lat="33.380753" lon="126.580129"><ele>1105.4</ele></trkpt>
      <trkpt lat="33.380735" lon="126.579463"><ele>1107.6</ele></trkpt>
      <trkpt lat="33.380679" lon="126.579090"><ele>1111.7</ele></trkpt>
      <trkpt lat="33.380758" lon="126.578861"><ele>1113.9</ele></trkpt>
      <trkpt lat="33.380715" lon="126.578542"><ele>1116.0</ele></trkpt>
      <trkpt lat="33.380549" lon="126.578191"><ele>1117.0</ele></trkpt>
      <trkpt lat="33.380522" lon="126.577971"><ele>1118.6</ele></trkpt>
      <trkpt lat="33.380569" lon="126.577853"><ele>1119.5</ele></trkpt>
      <trkpt lat="33.380491" lon="126.577705"><ele>1120.3</ele></trkpt>
      <trkpt lat="33.380438" lon="126.577311"><ele>1121.7</ele></trkpt>
      <trkpt lat="33.380297" lon="126.576981"><ele>1124.6</ele></trkpt>
      <trkpt lat="33.380017" lon="126.576715"><ele>1127.5</ele></trkpt>
      <trkpt lat="33.379874" lon="126.576318"><ele>1131.2</ele></trkpt>
      <trkpt lat="33.379741" lon="126.576110"><ele>1133.2</ele></trkpt>
      <trkpt lat="33.379617" lon="126.576011"><ele>1134.6</ele></trkpt>
      <trkpt lat="33.379470" lon="126.576005"><ele>1134.0</ele></trkpt>
      <trkpt lat="33.379270" lon="126.575900"><ele>1135.0</ele></trkpt>
      <trkpt lat="33.378930" lon="126.575877"><ele>1137.4</ele></trkpt>
      <trkpt lat="33.378686" lon="126.575754"><ele>1139.9</ele></trkpt>
      <trkpt lat="33.378481" lon="126.575573"><ele>1141.4</ele></trkpt>
      <trkpt lat="33.378214" lon="126.575126"><ele>1146.0</ele></trkpt>
      <trkpt lat="33.377806" lon="126.573556"><ele>1156.1</ele></trkpt>
      <trkpt lat="33.377829" lon="126.573337"><ele>1156.8</ele></trkpt>
      <trkpt lat="33.377964" lon="126.572975"><ele>1160.5</ele></trkpt>
      <trkpt lat="33.377961" lon="126.572819"><ele>1162.2</ele></trkpt>
      <trkpt lat="33.378093" lon="126.572679"><ele>1163.3</ele></trkpt>
      <trkpt lat="33.378273" lon="126.572180"><ele>1168.1</ele></trkpt>
      <trkpt lat="33.378138" lon="126.571749"><ele>1172.0</ele></trkpt>
      <trkpt lat="33.377886" lon="126.571590"><ele>1172.2</ele></trkpt>
      <trkpt lat="33.377678" lon="126.571530"><ele>1173.4</ele></trkpt>
      <trkpt lat="33.377410" lon="126.571258"><ele>1178.4</ele></trkpt>
      <trkpt lat="33.376908" lon="126.570940"><ele>1188.0</ele></trkpt>
      <trkpt lat="33.376619" lon="126.570858"><ele>1190.4</ele></trkpt>
      <trkpt lat="33.376182" lon="126.570027"><ele>1207.7</ele></trkpt>
      <trkpt lat="33.375814" lon="126.569671"><ele>1214.8</ele></trkpt>
      <trkpt lat="33.375577" lon="126.569514"><ele>1215.4</ele></trkpt>
      <trkpt lat="33.375216" lon="126.569434"><ele>1218.6</ele></trkpt>
      <trkpt lat="33.374800" lon="126.569237"><ele>1225.1</ele></trkpt>
      <trkpt lat="33.374327" lon="126.569265"><ele>1231.0</ele></trkpt>
      <trkpt lat="33.373964" lon="126.569359"><ele>1237.1</ele></trkpt>
      <trkpt lat="33.373716" lon="126.569093"><ele>1244.4</ele></trkpt>
      <trkpt lat="33.373592" lon="126.569026"><ele>1247.6</ele></trkpt>
      <trkpt lat="33.373211" lon="126.568553"><ele>1256.7</ele></trkpt>
      <trkpt lat="33.372892" lon="126.568365"><ele>1263.9</ele></trkpt>
      <trkpt lat="33.372831" lon="126.568301"><ele>1265.6</ele></trkpt>
      <trkpt lat="33.372761" lon="126.567930"><ele>1270.2</ele></trkpt>
      <trkpt lat="33.372890" lon="126.567116"><ele>1278.6</ele></trkpt>
      <trkpt lat="33.372861" lon="126.566869"><ele>1281.7</ele></trkpt>
      <trkpt lat="33.372490" lon="126.566348"><ele>1296.4</ele></trkpt>
      <trkpt lat="33.372261" lon="126.566159"><ele>1302.4</ele></trkpt>
      <trkpt lat="33.372042" lon="126.565699"><ele>1315.0</ele></trkpt>
      <trkpt lat="33.371585" lon="126.565350"><ele>1327.1</ele></trkpt>
      <trkpt lat="33.371325" lon="126.565088"><ele>1332.7</ele></trkpt>
      <trkpt lat="33.371227" lon="126.564860"><ele>1335.2</ele></trkpt>
      <trkpt lat="33.371164" lon="126.564608"><ele>1337.8</ele></trkpt>
      <trkpt lat="33.371187" lon="126.564010"><ele>1347.5</ele></trkpt>
      <trkpt lat="33.371052" lon="126.563422"><ele>1359.1</ele></trkpt>
      <trkpt lat="33.371134" lon="126.562688"><ele>1372.5</ele></trkpt>
      <trkpt lat="33.370945" lon="126.562218"><ele>1381.7</ele></trkpt>
      <trkpt lat="33.370929" lon="126.561940"><ele>1388.1</ele></trkpt>
      <trkpt lat="33.371084" lon="126.561598"><ele>1394.0</ele></trkpt>
      <trkpt lat="33.371079" lon="126.561295"><ele>1400.5</ele></trkpt>
      <trkpt lat="33.371028" lon="126.561161"><ele>1404.4</ele></trkpt>
      <trkpt lat="33.370824" lon="126.560898"><ele>1415.9</ele></trkpt>
      <trkpt lat="33.370752" lon="126.560575"><ele>1425.0</ele></trkpt>
      <trkpt lat="33.370537" lon="126.560160"><ele>1430.6</ele></trkpt>
      <trkpt lat="33.370344" lon="126.559899"><ele>1434.2</ele></trkpt>
      <trkpt lat="33.370190" lon="126.559512"><ele>1439.8</ele></trkpt>
      <trkpt lat="33.370020" lon="126.558802"><ele>1455.5</ele></trkpt>
      <trkpt lat="33.370017" lon="126.558552"><ele>1459.8</ele></trkpt>
      <trkpt lat="33.370037" lon="126.558338"><ele>1462.8</ele></trkpt>
      <trkpt lat="33.370233" lon="126.558226"><ele>1464.0</ele></trkpt>
      <trkpt lat="33.370296" lon="126.557948"><ele>1468.5</ele></trkpt>
      <trkpt lat="33.370112" lon="126.557283"><ele>1480.2</ele></trkpt>
      <trkpt lat="33.369735" lon="126.556717"><ele>1485.8</ele></trkpt>
      <trkpt lat="33.369690" lon="126.556363"><ele>1487.1</ele></trkpt>
      <trkpt lat="33.369458" lon="126.555442"><ele>1493.4</ele></trkpt>
      <trkpt lat="33.369202" lon="126.554917"><ele>1501.9</ele></trkpt>
      <trkpt lat="33.369184" lon="126.554033"><ele>1513.0</ele></trkpt>
      <trkpt lat="33.368930" lon="126.553701"><ele>1517.9</ele></trkpt>
      <trkpt lat="33.368614" lon="126.553421"><ele>1523.7</ele></trkpt>
      <trkpt lat="33.368425" lon="126.553066"><ele>1527.6</ele></trkpt>
      <trkpt lat="33.368104" lon="126.552823"><ele>1527.2</ele></trkpt>
      <trkpt lat="33.367815" lon="126.552720"><ele>1527.6</ele></trkpt>
      <trkpt lat="33.367596" lon="126.552169"><ele>1537.6</ele></trkpt>
      <trkpt lat="33.367386" lon="126.551930"><ele>1544.3</ele></trkpt>
      <trkpt lat="33.367003" lon="126.551137"><ele>1565.5</ele></trkpt>
      <trkpt lat="33.366884" lon="126.550774"><ele>1575.3</ele></trkpt>
      <trkpt lat="33.366505" lon="126.550326"><ele>1590.9</ele></trkpt>
      <trkpt lat="33.366449" lon="126.550131"><ele>1596.7</ele></trkpt>
      <trkpt lat="33.366308" lon="126.549931"><ele>1603.0</ele></trkpt>
      <trkpt lat="33.366194" lon="126.549859"><ele>1604.9</ele></trkpt>
      <trkpt lat="33.366066" lon="126.549636"><ele>1609.2</ele></trkpt>
      <trkpt lat="33.366025" lon="126.549437"><ele>1612.7</ele></trkpt>
      <trkpt lat="33.365668" lon="126.548960"><ele>1625.4</ele></trkpt>
      <trkpt lat="33.365528" lon="126.548683"><ele>1632.2</ele></trkpt>
      <trkpt lat="33.365521" lon="126.548444"><ele>1637.0</ele></trkpt>
      <trkpt lat="33.365343" lon="126.548210"><ele>1643.0</ele></trkpt>
      <trkpt lat="33.365296" lon="126.547928"><ele>1650.6</ele></trkpt>
      <trkpt lat="33.365098" lon="126.547624"><ele>1659.6</ele></trkpt>
      <trkpt lat="33.365013" lon="126.546999"><ele>1672.2</ele></trkpt>
      <trkpt lat="33.364911" lon="126.546841"><ele>1674.0</ele></trkpt>
      <trkpt lat="33.364894" lon="126.546638"><ele>1676.3</ele></trkpt>
      <trkpt lat="33.364748" lon="126.546325"><ele>1683.4</ele></trkpt>
      <trkpt lat="33.364619" lon="126.546162"><ele>1688.2</ele></trkpt>
      <trkpt lat="33.364597" lon="126.545767"><ele>1698.0</ele></trkpt>
      <trkpt lat="33.364389" lon="126.545121"><ele>1708.5</ele></trkpt>
      <trkpt lat="33.364314" lon="126.545020"><ele>1708.4</ele></trkpt>
      <trkpt lat="33.364361" lon="126.544674"><ele>1712.0</ele></trkpt>
      <trkpt lat="33.364240" lon="126.544463"><ele>1715.5</ele></trkpt>
      <trkpt lat="33.364162" lon="126.544208"><ele>1719.4</ele></trkpt>
      <trkpt lat="33.363875" lon="126.543721"><ele>1724.8</ele></trkpt>
      <trkpt lat="33.363907" lon="126.543414"><ele>1729.6</ele></trkpt>
      <trkpt lat="33.363873" lon="126.543220"><ele>1732.2</ele></trkpt>
      <trkpt lat="33.363806" lon="126.543143"><ele>1733.3</ele></trkpt>
      <trkpt lat="33.363760" lon="126.542964"><ele>1735.8</ele></trkpt>
      <trkpt lat="33.363753" lon="126.542807"><ele>1738.1</ele></trkpt>
      <trkpt lat="33.363835" lon="126.542520"><ele>1741.7</ele></trkpt>
      <trkpt lat="33.363815" lon="126.542362"><ele>1744.8</ele></trkpt>
      <trkpt lat="33.363580" lon="126.541760"><ele>1753.8</ele></trkpt>
      <trkpt lat="33.363434" lon="126.541571"><ele>1756.2</ele></trkpt>
      <trkpt lat="33.363301" lon="126.541154"><ele>1766.8</ele></trkpt>
      <trkpt lat="33.363184" lon="126.541011"><ele>1770.7</ele></trkpt>
      <trkpt lat="33.363065" lon="126.540686"><ele>1777.6</ele></trkpt>
      <trkpt lat="33.363017" lon="126.540615"><ele>1779.3</ele></trkpt>
      <trkpt lat="33.362861" lon="126.540590"><ele>1781.3</ele></trkpt>
      <trkpt lat="33.362697" lon="126.540180"><ele>1791.8</ele></trkpt>
      <trkpt lat="33.362099" lon="126.539629"><ele>1809.7</ele></trkpt>
      <trkpt lat="33.361665" lon="126.539056"><ele>1835.1</ele></trkpt>
      <trkpt lat="33.361539" lon="126.538709"><ele>1844.7</ele></trkpt>
      <trkpt lat="33.361499" lon="126.538402"><ele>1855.4</ele></trkpt>
      <trkpt lat="33.361266" lon="126.538187"><ele>1863.0</ele></trkpt>
      <trkpt lat="33.361046" lon="126.537875"><ele>1872.0</ele></trkpt>
      <trkpt lat="33.360828" lon="126.536875"><ele>1897.4</ele></trkpt>
      <trkpt lat="33.360890" lon="126.536588"><ele>1903.2</ele></trkpt>
      <trkpt lat="33.360874" lon="126.536007"><ele>1911.5</ele></trkpt>
      <trkpt lat="33.360757" lon="126.535671"><ele>1912.0</ele></trkpt>
      <trkpt lat="33.360837" lon="126.535624"><ele>1911.7</ele></trkpt>
      <trkpt lat="33.360591" lon="126.535549"><ele>1910.8</ele></trkpt>
      <trkpt lat="33.360197" lon="126.535297"><ele>1904.8</ele></trkpt>
      <trkpt lat="33.360043" lon="126.534841"><ele>1898.1</ele></trkpt>
      <trkpt lat="33.359881" lon="126.534691"><ele>1896.7</ele></trkpt>
      <trkpt lat="33.359856" lon="126.533985"><ele>1880.1</ele></trkpt>
      <trkpt lat="33.359836" lon="126.533811"><ele>1876.1</ele></trkpt>
      <trkpt lat="33.359740" lon="126.533580"><ele>1873.2</ele></trkpt>
      <trkpt lat="33.359760" lon="126.533425"><ele>1874.1</ele></trkpt>
      <trkpt lat="33.359728" lon="126.533296"><ele>1875.9</ele></trkpt>
      <trkpt lat="33.359619" lon="126.533202"><ele>1877.0</ele></trkpt>
      <trkpt lat="33.359560" lon="126.532962"><ele>1884.2</ele></trkpt>
      <trkpt lat="33.359405" lon="126.532769"><ele>1893.8</ele></trkpt>
      <trkpt lat="33.359325" lon="126.532298"><ele>1875.4</ele></trkpt>
      <trkpt lat="33.359339" lon="126.531810"><ele>1844.4</ele></trkpt>
      <trkpt lat="33.359482" lon="126.531365"><ele>1845.9</ele></trkpt>
      <trkpt lat="33.359661" lon="126.530222"><ele>1899.0</ele></trkpt>
      <trkpt lat="33.359715" lon="126.530094"><ele>1902.6</ele></trkpt>
      <trkpt lat="33.360015" lon="126.529858"><ele>1916.4</ele></trkpt>
      <trkpt lat="33.360244" lon="126.529713"><ele>1926.1</ele></trkpt>
      <trkpt lat="33.360391" lon="126.529702"><ele>1927.2</ele></trkpt>
      <trkpt lat="33.360635" lon="126.529574"><ele>1928.1</ele></trkpt>
      <trkpt lat="33.360979" lon="126.529562"><ele>1927.0</ele></trkpt>
      <trkpt lat="33.361190" lon="126.529461"><ele>1932.0</ele></trkpt>
      <trkpt lat="33.361404" lon="126.529434"><ele>1935.6</ele></trkpt>
      <trkpt lat="33.361731" lon="126.529568"><ele>1929.3</ele></trkpt>
    </trkseg>
  </trk>
</gpx>
