<?xml version="1.0" encoding="UTF-8"?>
<gpx version="1.1" creator="kr-100-mountains route-harvester"
     xmlns="http://www.topografix.com/GPX/1/1"
     xmlns:k100="https://github.com/jay-jang/kr-100-mountains/ns/1"
     xmlns:xsi="http://www.w3.org/2001/XMLSchema-instance"
     xsi:schemaLocation="http://www.topografix.com/GPX/1/1 http://www.topografix.com/GPX/1/1/gpx.xsd">
  <metadata>
    <name>동악산 · 도림사 코스 (OSM 계산 경로)</name>
    <desc>실제 GPS 기록이 아닙니다. OpenStreetMap에 등록된 등산로 선형 위에서 계산한 경로이며, 현장 통제·훼손·출입 제한·계절 통제를 반영하지 않을 수 있습니다. 산행 전 공식 안내를 확인하세요.</desc>
    <time>2026-08-04T05:35:30.543Z</time>
    <link href="https://www.openstreetmap.org/copyright"><text>© OpenStreetMap contributors (ODbL 1.0)</text></link>
    <link href="https://registry.opendata.aws/terrain-tiles/"><text>Elevation: SRTM 1 arc-second (NASA/USGS) via AWS Terrain Tiles</text></link>
    <extensions>
      <k100:provenance>osm-routed</k100:provenance>
      <k100:not_a_recorded_track>true</k100:not_a_recorded_track>
      <k100:mountain_id>dongaksan-gokseong</k100:mountain_id>
      <k100:mountain_name>동악산(곡성)</k100:mountain_name>
      <k100:route_id>dongaksan-gokseong-5e9b50d1</k100:route_id>
      <k100:route_index>1</k100:route_index>
      <k100:route_name>도림사 코스</k100:route_name>
      <k100:variant>0</k100:variant>
      <k100:source>OpenStreetMap via Overpass API</k100:source>
      <k100:license>ODbL-1.0</k100:license>
      <k100:attribution>© OpenStreetMap contributors</k100:attribution>
      <k100:elevation_source>SRTM 1 arc-second (NASA/USGS) — AWS Terrain Tiles 배포본. 지형 DEM 추정 고도이며 실측 아님</k100:elevation_source>
      <k100:algorithm>dijkstra-grid-v1</k100:algorithm>
      <k100:osm_snapshot>2026-08-04</k100:osm_snapshot>
      <k100:snap_trailhead_m>17</k100:snap_trailhead_m>
      <k100:snap_summit_m>228</k100:snap_summit_m>
      <k100:validation_score>82</k100:validation_score>
      <k100:validation_status>accepted</k100:validation_status>
    </extensions>
  </metadata>
  <trk>
    <name>동악산 · 도림사 코스 (OSM 계산 경로)</name>
    <desc>실제 GPS 기록이 아닙니다. OpenStreetMap에 등록된 등산로 선형 위에서 계산한 경로이며, 현장 통제·훼손·출입 제한·계절 통제를 반영하지 않을 수 있습니다. 산행 전 공식 안내를 확인하세요.</desc>
    <trkseg>
      <trkpt lat="35.267265" lon="127.257655"><ele>191.7</ele></trkpt>
      <trkpt lat="35.267414" lon="127.257861"><ele>192.8</ele></trkpt>
      <trkpt lat="35.267570" lon="127.257655"><ele>195.5</ele></trkpt>
      <trkpt lat="35.267643" lon="127.257343"><ele>198.8</ele></trkpt>
      <trkpt lat="35.267734" lon="127.257157"><ele>201.8</ele></trkpt>
      <trkpt lat="35.267862" lon="127.257014"><ele>203.7</ele></trkpt>
      <trkpt lat="35.268579" lon="127.256561"><ele>205.8</ele></trkpt>
      <trkpt lat="35.268740" lon="127.256573"><ele>208.2</ele></trkpt>
      <trkpt lat="35.268939" lon="127.256319"><ele>212.3</ele></trkpt>
      <trkpt lat="35.268997" lon="127.256311"><ele>213.3</ele></trkpt>
      <trkpt lat="35.269136" lon="127.256082"><ele>215.4</ele></trkpt>
      <trkpt lat="35.269381" lon="127.255442"><ele>222.5</ele></trkpt>
      <trkpt lat="35.269559" lon="127.255269"><ele>225.0</ele></trkpt>
      <trkpt lat="35.269724" lon="127.254761"><ele>223.9</ele></trkpt>
      <trkpt lat="35.269825" lon="127.254596"><ele>227.0</ele></trkpt>
      <trkpt lat="35.270005" lon="127.254463"><ele>229.9</ele></trkpt>
      <trkpt lat="35.270137" lon="127.254049"><ele>239.5</ele></trkpt>
      <trkpt lat="35.270688" lon="127.253605"><ele>244.2</ele></trkpt>
      <trkpt lat="35.271027" lon="127.253110"><ele>254.0</ele></trkpt>
      <trkpt lat="35.271266" lon="127.252897"><ele>261.3</ele></trkpt>
      <trkpt lat="35.271564" lon="127.252811"><ele>264.2</ele></trkpt>
      <trkpt lat="35.271704" lon="127.252639"><ele>267.6</ele></trkpt>
      <trkpt lat="35.272175" lon="127.252591"><ele>268.4</ele></trkpt>
      <trkpt lat="35.272311" lon="127.252511"><ele>269.5</ele></trkpt>
      <trkpt lat="35.272582" lon="127.252468"><ele>270.1</ele></trkpt>
      <trkpt lat="35.272805" lon="127.252257"><ele>272.4</ele></trkpt>
      <trkpt lat="35.272874" lon="127.252340"><ele>273.4</ele></trkpt>
      <trkpt lat="35.273000" lon="127.252283"><ele>275.2</ele></trkpt>
      <trkpt lat="35.273094" lon="127.252178"><ele>277.8</ele></trkpt>
      <trkpt lat="35.273226" lon="127.251840"><ele>284.3</ele></trkpt>
      <trkpt lat="35.273318" lon="127.251180"><ele>297.4</ele></trkpt>
      <trkpt lat="35.273355" lon="127.251139"><ele>299.2</ele></trkpt>
      <trkpt lat="35.273553" lon="127.251255"><ele>304.8</ele></trkpt>
      <trkpt lat="35.273857" lon="127.251061"><ele>318.8</ele></trkpt>
      <trkpt lat="35.273936" lon="127.250895"><ele>323.2</ele></trkpt>
      <trkpt lat="35.274141" lon="127.250842"><ele>333.7</ele></trkpt>
      <trkpt lat="35.274258" lon="127.250835"><ele>338.6</ele></trkpt>
      <trkpt lat="35.274332" lon="127.250894"><ele>341.5</ele></trkpt>
      <trkpt lat="35.274558" lon="127.250853"><ele>348.9</ele></trkpt>
      <trkpt lat="35.274869" lon="127.251069"><ele>355.5</ele></trkpt>
      <trkpt lat="35.274950" lon="127.251293"><ele>357.4</ele></trkpt>
      <trkpt lat="35.275311" lon="127.251679"><ele>367.6</ele></trkpt>
      <trkpt lat="35.275784" lon="127.251733"><ele>386.2</ele></trkpt>
      <trkpt lat="35.275924" lon="127.251690"><ele>388.0</ele></trkpt>
      <trkpt lat="35.276257" lon="127.251813"><ele>393.7</ele></trkpt>
      <trkpt lat="35.276440" lon="127.251974"><ele>399.1</ele></trkpt>
      <trkpt lat="35.277049" lon="127.252755"><ele>430.5</ele></trkpt>
      <trkpt lat="35.277172" lon="127.253074"><ele>435.7</ele></trkpt>
      <trkpt lat="35.277421" lon="127.253262"><ele>444.7</ele></trkpt>
      <trkpt lat="35.277583" lon="127.253487"><ele>455.3</ele></trkpt>
      <trkpt lat="35.277868" lon="127.253600"><ele>466.3</ele></trkpt>
      <trkpt lat="35.277903" lon="127.253805"><ele>473.9</ele></trkpt>
      <trkpt lat="35.278256" lon="127.254557"><ele>512.2</ele></trkpt>
      <trkpt lat="35.278411" lon="127.254410"><ele>508.2</ele></trkpt>
      <trkpt lat="35.278512" lon="127.254570"><ele>517.2</ele></trkpt>
      <trkpt lat="35.278538" lon="127.254876"><ele>529.8</ele></trkpt>
      <trkpt lat="35.278608" lon="127.255080"><ele>537.6</ele></trkpt>
      <trkpt lat="35.278688" lon="127.255158"><ele>539.7</ele></trkpt>
      <trkpt lat="35.278827" lon="127.255145"><ele>538.5</ele></trkpt>
      <trkpt lat="35.279079" lon="127.255249"><ele>539.9</ele></trkpt>
      <trkpt lat="35.279414" lon="127.255205"><ele>544.1</ele></trkpt>
      <trkpt lat="35.279495" lon="127.255268"><ele>546.1</ele></trkpt>
      <trkpt lat="35.279712" lon="127.255161"><ele>555.4</ele></trkpt>
      <trkpt lat="35.279751" lon="127.255072"><ele>558.0</ele></trkpt>
      <trkpt lat="35.279970" lon="127.255045"><ele>570.4</ele></trkpt>
      <trkpt lat="35.280095" lon="127.255120"><ele>574.2</ele></trkpt>
      <trkpt lat="35.280347" lon="127.255032"><ele>586.6</ele></trkpt>
      <trkpt lat="35.280383" lon="127.255063"><ele>587.7</ele></trkpt>
      <trkpt lat="35.280754" lon="127.254849"><ele>609.4</ele></trkpt>
      <trkpt lat="35.280857" lon="127.254874"><ele>614.8</ele></trkpt>
      <trkpt lat="35.281155" lon="127.254691"><ele>636.6</ele></trkpt>
      <trkpt lat="35.281242" lon="127.254576"><ele>644.1</ele></trkpt>
      <trkpt lat="35.281538" lon="127.254734"><ele>660.2</ele></trkpt>
      <trkpt lat="35.281595" lon="127.254640"><ele>663.5</ele></trkpt>
      <trkpt lat="35.281834" lon="127.254649"><ele>668.9</ele></trkpt>
      <trkpt lat="35.281831" lon="127.254426"><ele>669.7</ele></trkpt>
      <trkpt lat="35.281726" lon="127.254029"><ele>679.2</ele></trkpt>
      <trkpt lat="35.281682" lon="127.253642"><ele>689.2</ele></trkpt>
      <trkpt lat="35.281731" lon="127.253063"><ele>697.4</ele></trkpt>
      <trkpt lat="35.281842" lon="127.252839"><ele>705.8</ele></trkpt>
      <trkpt lat="35.281866" lon="127.252645"><ele>712.9</ele></trkpt>
      <trkpt lat="35.281858" lon="127.252200"><ele>720.4</ele></trkpt>
      <trkpt lat="35.281958" lon="127.251985"><ele>718.3</ele></trkpt>
      <trkpt lat="35.282507" lon="127.251590"><ele>715.5</ele></trkpt>
      <trkpt lat="35.282802" lon="127.251474"><ele>705.3</ele></trkpt>
      <trkpt lat="35.283082" lon="127.251079"><ele>703.7</ele></trkpt>
      <trkpt lat="35.283339" lon="127.250506"><ele>701.2</ele></trkpt>
      <trkpt lat="35.284188" lon="127.250013"><ele>714.4</ele></trkpt>
      <trkpt lat="35.284328" lon="127.249702"><ele>710.4</ele></trkpt>
      <trkpt lat="35.284534" lon="127.249570"><ele>702.4</ele></trkpt>
      <trkpt lat="35.284600" lon="127.249380"><ele>698.2</ele></trkpt>
      <trkpt lat="35.284757" lon="127.249331"><ele>693.6</ele></trkpt>
      <trkpt lat="35.285471" lon="127.248868"><ele>674.2</ele></trkpt>
      <trkpt lat="35.286038" lon="127.248570"><ele>676.2</ele></trkpt>
      <trkpt lat="35.286477" lon="127.248401"><ele>679.8</ele></trkpt>
      <trkpt lat="35.286708" lon="127.248500"><ele>677.3</ele></trkpt>
      <trkpt lat="35.287320" lon="127.249137"><ele>655.8</ele></trkpt>
      <trkpt lat="35.287482" lon="127.249377"><ele>656.7</ele></trkpt>
      <trkpt lat="35.288083" lon="127.249689"><ele>663.3</ele></trkpt>
      <trkpt lat="35.288430" lon="127.250029"><ele>673.1</ele></trkpt>
      <trkpt lat="35.289273" lon="127.251402"><ele>674.3</ele></trkpt>
      <trkpt lat="35.289574" lon="127.251572"><ele>679.2</ele></trkpt>
      <trkpt lat="35.289932" lon="127.251671"><ele>690.7</ele></trkpt>
      <trkpt lat="35.290636" lon="127.251477"><ele>693.8</ele></trkpt>
      <trkpt lat="35.292312" lon="127.251331"><ele>691.3</ele></trkpt>
      <trkpt lat="35.292520" lon="127.251657"><ele>688.2</ele></trkpt>
      <trkpt lat="35.292468" lon="127.251785"><ele>685.0</ele></trkpt>
      <trkpt lat="35.292346" lon="127.251776"><ele>686.2</ele></trkpt>
      <trkpt lat="35.292323" lon="127.252009"><ele>676.3</ele></trkpt>
      <trkpt lat="35.292117" lon="127.252458"><ele>649.3</ele></trkpt>
      <trkpt lat="35.292041" lon="127.252785"><ele>636.6</ele></trkpt>
      <trkpt lat="35.292414" lon="127.254307"><ele>603.4</ele></trkpt>
      <trkpt lat="35.292399" lon="127.254615"><ele>597.8</ele></trkpt>
      <trkpt lat="35.292529" lon="127.254727"><ele>595.0</ele></trkpt>
      <trkpt lat="35.292597" lon="127.255045"><ele>582.2</ele></trkpt>
      <trkpt lat="35.293032" lon="127.255531"><ele>564.8</ele></trkpt>
      <trkpt lat="35.293299" lon="127.256175"><ele>550.7</ele></trkpt>
      <trkpt lat="35.293321" lon="127.256455"><ele>542.8</ele></trkpt>
      <trkpt lat="35.293405" lon="127.256661"><ele>536.4</ele></trkpt>
      <trkpt lat="35.293924" lon="127.256894"><ele>525.4</ele></trkpt>
      <trkpt lat="35.294297" lon="127.257604"><ele>511.6</ele></trkpt>
      <trkpt lat="35.294419" lon="127.257726"><ele>508.2</ele></trkpt>
      <trkpt lat="35.294785" lon="127.258781"><ele>519.1</ele></trkpt>
      <trkpt lat="35.295029" lon="127.259024"><ele>527.3</ele></trkpt>
      <trkpt lat="35.295243" lon="127.259454"><ele>534.6</ele></trkpt>
      <trkpt lat="35.295471" lon="127.260275"><ele>502.4</ele></trkpt>
      <trkpt lat="35.295494" lon="127.260528"><ele>492.5</ele></trkpt>
      <trkpt lat="35.295662" lon="127.260836"><ele>476.9</ele></trkpt>
      <trkpt lat="35.295677" lon="127.261135"><ele>462.2</ele></trkpt>
      <trkpt lat="35.295913" lon="127.261639"><ele>436.8</ele></trkpt>
      <trkpt lat="35.295982" lon="127.262311"><ele>422.7</ele></trkpt>
      <trkpt lat="35.296058" lon="127.262648"><ele>421.0</ele></trkpt>
      <trkpt lat="35.296256" lon="127.263348"><ele>421.7</ele></trkpt>
      <trkpt lat="35.296465" lon="127.263820"><ele>429.4</ele></trkpt>
    </trkseg>
  </trk>
</gpx>
