<?xml version="1.0" encoding="UTF-8"?>
<gpx version="1.1" creator="kr-100-mountains route-harvester"
     xmlns="http://www.topografix.com/GPX/1/1"
     xmlns:k100="https://github.com/jay-jang/kr-100-mountains/ns/1"
     xmlns:xsi="http://www.w3.org/2001/XMLSchema-instance"
     xsi:schemaLocation="http://www.topografix.com/GPX/1/1 http://www.topografix.com/GPX/1/1/gpx.xsd">
  <metadata>
    <name>오서산 · 오서산자연휴양림-정상 코스 (OSM 계산 경로)</name>
    <desc>실제 GPS 기록이 아닙니다. OpenStreetMap에 등록된 등산로 선형 위에서 계산한 경로이며, 현장 통제·훼손·출입 제한·계절 통제를 반영하지 않을 수 있습니다. 산행 전 공식 안내를 확인하세요.</desc>
    <time>2026-08-04T05:29:09.541Z</time>
    <link href="https://www.openstreetmap.org/copyright"><text>© OpenStreetMap contributors (ODbL 1.0)</text></link>
    <link href="https://registry.opendata.aws/terrain-tiles/"><text>Elevation: SRTM 1 arc-second (NASA/USGS) via AWS Terrain Tiles</text></link>
    <extensions>
      <k100:provenance>osm-routed</k100:provenance>
      <k100:not_a_recorded_track>true</k100:not_a_recorded_track>
      <k100:mountain_id>oseosan-boryeong</k100:mountain_id>
      <k100:mountain_name>오서산(보령)</k100:mountain_name>
      <k100:route_id>oseosan-boryeong-b0743072</k100:route_id>
      <k100:route_index>1</k100:route_index>
      <k100:route_name>오서산자연휴양림-정상 코스</k100:route_name>
      <k100:variant>0</k100:variant>
      <k100:source>OpenStreetMap via Overpass API</k100:source>
      <k100:license>ODbL-1.0</k100:license>
      <k100:attribution>© OpenStreetMap contributors</k100:attribution>
      <k100:elevation_source>SRTM 1 arc-second (NASA/USGS) — AWS Terrain Tiles 배포본. 지형 DEM 추정 고도이며 실측 아님</k100:elevation_source>
      <k100:algorithm>dijkstra-grid-v1</k100:algorithm>
      <k100:osm_snapshot>2026-08-04</k100:osm_snapshot>
      <k100:snap_trailhead_m>415</k100:snap_trailhead_m>
      <k100:snap_summit_m>153</k100:snap_summit_m>
      <k100:validation_score>67</k100:validation_score>
      <k100:validation_status>review</k100:validation_status>
    </extensions>
  </metadata>
  <trk>
    <name>오서산 · 오서산자연휴양림-정상 코스 (OSM 계산 경로)</name>
    <desc>실제 GPS 기록이 아닙니다. OpenStreetMap에 등록된 등산로 선형 위에서 계산한 경로이며, 현장 통제·훼손·출입 제한·계절 통제를 반영하지 않을 수 있습니다. 산행 전 공식 안내를 확인하세요.</desc>
    <trkseg>
      <trkpt lat="36.441614" lon="126.677502"><ele>154.6</ele></trkpt>
      <trkpt lat="36.441174" lon="126.677544"><ele>150.6</ele></trkpt>
      <trkpt lat="36.440845" lon="126.677836"><ele>146.1</ele></trkpt>
      <trkpt lat="36.440874" lon="126.679252"><ele>146.0</ele></trkpt>
      <trkpt lat="36.441429" lon="126.679693"><ele>149.2</ele></trkpt>
      <trkpt lat="36.441732" lon="126.679844"><ele>150.2</ele></trkpt>
      <trkpt lat="36.442620" lon="126.680655"><ele>150.6</ele></trkpt>
      <trkpt lat="36.443318" lon="126.681488"><ele>155.4</ele></trkpt>
      <trkpt lat="36.445039" lon="126.682180"><ele>163.4</ele></trkpt>
      <trkpt lat="36.445186" lon="126.682300"><ele>164.9</ele></trkpt>
      <trkpt lat="36.445597" lon="126.682890"><ele>166.7</ele></trkpt>
      <trkpt lat="36.445935" lon="126.683150"><ele>170.0</ele></trkpt>
      <trkpt lat="36.446256" lon="126.683326"><ele>173.1</ele></trkpt>
      <trkpt lat="36.446930" lon="126.683396"><ele>180.8</ele></trkpt>
      <trkpt lat="36.447120" lon="126.683524"><ele>182.0</ele></trkpt>
      <trkpt lat="36.447449" lon="126.683907"><ele>183.0</ele></trkpt>
      <trkpt lat="36.447857" lon="126.684239"><ele>189.2</ele></trkpt>
      <trkpt lat="36.448301" lon="126.684438"><ele>192.1</ele></trkpt>
      <trkpt lat="36.448182" lon="126.684587"><ele>193.9</ele></trkpt>
      <trkpt lat="36.448065" lon="126.684565"><ele>194.7</ele></trkpt>
      <trkpt lat="36.447972" lon="126.684630"><ele>196.0</ele></trkpt>
      <trkpt lat="36.447752" lon="126.685379"><ele>213.8</ele></trkpt>
      <trkpt lat="36.447550" lon="126.685774"><ele>223.6</ele></trkpt>
      <trkpt lat="36.447581" lon="126.685893"><ele>227.4</ele></trkpt>
      <trkpt lat="36.447746" lon="126.686105"><ele>235.5</ele></trkpt>
      <trkpt lat="36.447847" lon="126.686691"><ele>253.7</ele></trkpt>
      <trkpt lat="36.448122" lon="126.686849"><ele>253.1</ele></trkpt>
      <trkpt lat="36.448449" lon="126.687484"><ele>252.6</ele></trkpt>
      <trkpt lat="36.448408" lon="126.687651"><ele>252.0</ele></trkpt>
      <trkpt lat="36.448220" lon="126.687877"><ele>251.0</ele></trkpt>
      <trkpt lat="36.447893" lon="126.688089"><ele>248.8</ele></trkpt>
      <trkpt lat="36.447667" lon="126.687988"><ele>248.5</ele></trkpt>
      <trkpt lat="36.447033" lon="126.687921"><ele>253.1</ele></trkpt>
      <trkpt lat="36.446702" lon="126.688089"><ele>256.2</ele></trkpt>
      <trkpt lat="36.446329" lon="126.688497"><ele>256.9</ele></trkpt>
      <trkpt lat="36.446140" lon="126.688563"><ele>256.9</ele></trkpt>
      <trkpt lat="36.446001" lon="126.688721"><ele>254.2</ele></trkpt>
      <trkpt lat="36.445775" lon="126.688668"><ele>252.7</ele></trkpt>
      <trkpt lat="36.445471" lon="126.688876"><ele>245.9</ele></trkpt>
      <trkpt lat="36.444626" lon="126.688238"><ele>220.7</ele></trkpt>
      <trkpt lat="36.443887" lon="126.687429"><ele>218.5</ele></trkpt>
      <trkpt lat="36.443760" lon="126.687232"><ele>218.4</ele></trkpt>
      <trkpt lat="36.443697" lon="126.687333"><ele>219.6</ele></trkpt>
      <trkpt lat="36.443499" lon="126.687382"><ele>222.0</ele></trkpt>
      <trkpt lat="36.443238" lon="126.687346"><ele>226.3</ele></trkpt>
      <trkpt lat="36.442898" lon="126.687214"><ele>236.2</ele></trkpt>
      <trkpt lat="36.442398" lon="126.687265"><ele>256.0</ele></trkpt>
      <trkpt lat="36.442083" lon="126.687060"><ele>269.4</ele></trkpt>
      <trkpt lat="36.441892" lon="126.687060"><ele>277.4</ele></trkpt>
      <trkpt lat="36.441810" lon="126.687002"><ele>281.8</ele></trkpt>
      <trkpt lat="36.441744" lon="126.686775"><ele>287.8</ele></trkpt>
      <trkpt lat="36.441629" lon="126.686658"><ele>291.6</ele></trkpt>
      <trkpt lat="36.441037" lon="126.686554"><ele>288.4</ele></trkpt>
      <trkpt lat="36.440599" lon="126.686623"><ele>288.1</ele></trkpt>
      <trkpt lat="36.440376" lon="126.686280"><ele>288.6</ele></trkpt>
      <trkpt lat="36.440163" lon="126.686096"><ele>289.0</ele></trkpt>
      <trkpt lat="36.439852" lon="126.685925"><ele>285.7</ele></trkpt>
      <trkpt lat="36.439482" lon="126.685802"><ele>277.6</ele></trkpt>
      <trkpt lat="36.439275" lon="126.685529"><ele>271.4</ele></trkpt>
      <trkpt lat="36.438990" lon="126.685380"><ele>266.5</ele></trkpt>
      <trkpt lat="36.438860" lon="126.685190"><ele>265.2</ele></trkpt>
      <trkpt lat="36.438548" lon="126.684243"><ele>273.7</ele></trkpt>
      <trkpt lat="36.438266" lon="126.684121"><ele>272.0</ele></trkpt>
      <trkpt lat="36.438018" lon="126.684100"><ele>267.2</ele></trkpt>
      <trkpt lat="36.437880" lon="126.684155"><ele>265.4</ele></trkpt>
      <trkpt lat="36.437820" lon="126.684257"><ele>263.6</ele></trkpt>
      <trkpt lat="36.437731" lon="126.684281"><ele>262.5</ele></trkpt>
      <trkpt lat="36.437617" lon="126.684404"><ele>260.8</ele></trkpt>
      <trkpt lat="36.437416" lon="126.684464"><ele>259.0</ele></trkpt>
      <trkpt lat="36.436637" lon="126.684173"><ele>255.4</ele></trkpt>
      <trkpt lat="36.436426" lon="126.684184"><ele>258.2</ele></trkpt>
      <trkpt lat="36.436295" lon="126.684092"><ele>260.5</ele></trkpt>
      <trkpt lat="36.436062" lon="126.684183"><ele>262.0</ele></trkpt>
      <trkpt lat="36.435912" lon="126.684327"><ele>258.1</ele></trkpt>
      <trkpt lat="36.435742" lon="126.684756"><ele>249.4</ele></trkpt>
      <trkpt lat="36.435466" lon="126.684888"><ele>241.7</ele></trkpt>
      <trkpt lat="36.435142" lon="126.685175"><ele>231.3</ele></trkpt>
      <trkpt lat="36.435085" lon="126.685371"><ele>227.7</ele></trkpt>
      <trkpt lat="36.435066" lon="126.685870"><ele>221.9</ele></trkpt>
      <trkpt lat="36.434911" lon="126.686247"><ele>214.6</ele></trkpt>
      <trkpt lat="36.434598" lon="126.686706"><ele>204.4</ele></trkpt>
      <trkpt lat="36.434347" lon="126.686943"><ele>200.6</ele></trkpt>
      <trkpt lat="36.434253" lon="126.686976"><ele>199.0</ele></trkpt>
      <trkpt lat="36.434120" lon="126.687326"><ele>195.2</ele></trkpt>
      <trkpt lat="36.433578" lon="126.687882"><ele>191.6</ele></trkpt>
      <trkpt lat="36.433317" lon="126.688363"><ele>190.4</ele></trkpt>
      <trkpt lat="36.433161" lon="126.688539"><ele>188.0</ele></trkpt>
      <trkpt lat="36.432839" lon="126.688786"><ele>181.4</ele></trkpt>
      <trkpt lat="36.432636" lon="126.688778"><ele>176.6</ele></trkpt>
      <trkpt lat="36.432190" lon="126.689042"><ele>164.3</ele></trkpt>
      <trkpt lat="36.431935" lon="126.689015"><ele>159.8</ele></trkpt>
      <trkpt lat="36.431547" lon="126.688859"><ele>153.4</ele></trkpt>
      <trkpt lat="36.431415" lon="126.688744"><ele>151.2</ele></trkpt>
      <trkpt lat="36.431219" lon="126.688747"><ele>151.0</ele></trkpt>
      <trkpt lat="36.431008" lon="126.689020"><ele>147.1</ele></trkpt>
      <trkpt lat="36.430873" lon="126.689104"><ele>145.5</ele></trkpt>
      <trkpt lat="36.430740" lon="126.689369"><ele>139.2</ele></trkpt>
      <trkpt lat="36.430600" lon="126.689531"><ele>135.6</ele></trkpt>
      <trkpt lat="36.430369" lon="126.689674"><ele>135.1</ele></trkpt>
      <trkpt lat="36.430198" lon="126.690127"><ele>139.9</ele></trkpt>
      <trkpt lat="36.430177" lon="126.690739"><ele>136.2</ele></trkpt>
      <trkpt lat="36.429921" lon="126.691013"><ele>131.2</ele></trkpt>
      <trkpt lat="36.429727" lon="126.691051"><ele>129.0</ele></trkpt>
      <trkpt lat="36.429598" lon="126.690963"><ele>128.7</ele></trkpt>
      <trkpt lat="36.429551" lon="126.690985"><ele>128.8</ele></trkpt>
      <trkpt lat="36.429359" lon="126.691216"><ele>131.0</ele></trkpt>
      <trkpt lat="36.429081" lon="126.691391"><ele>135.5</ele></trkpt>
      <trkpt lat="36.428971" lon="126.691351"><ele>137.2</ele></trkpt>
      <trkpt lat="36.428644" lon="126.691037"><ele>136.4</ele></trkpt>
      <trkpt lat="36.428252" lon="126.691143"><ele>133.5</ele></trkpt>
      <trkpt lat="36.427963" lon="126.691061"><ele>130.5</ele></trkpt>
      <trkpt lat="36.427677" lon="126.691147"><ele>134.4</ele></trkpt>
      <trkpt lat="36.427460" lon="126.690991"><ele>134.9</ele></trkpt>
      <trkpt lat="36.427336" lon="126.691093"><ele>136.0</ele></trkpt>
      <trkpt lat="36.427154" lon="126.690857"><ele>132.6</ele></trkpt>
      <trkpt lat="36.426961" lon="126.690793"><ele>127.9</ele></trkpt>
      <trkpt lat="36.426948" lon="126.690735"><ele>127.0</ele></trkpt>
      <trkpt lat="36.427085" lon="126.690462"><ele>125.5</ele></trkpt>
      <trkpt lat="36.427443" lon="126.690058"><ele>121.0</ele></trkpt>
      <trkpt lat="36.427798" lon="126.689541"><ele>121.9</ele></trkpt>
      <trkpt lat="36.427969" lon="126.689036"><ele>121.5</ele></trkpt>
      <trkpt lat="36.428028" lon="126.688452"><ele>114.7</ele></trkpt>
      <trkpt lat="36.428542" lon="126.688676"><ele>111.5</ele></trkpt>
      <trkpt lat="36.428918" lon="126.688660"><ele>113.4</ele></trkpt>
      <trkpt lat="36.428832" lon="126.688076"><ele>111.6</ele></trkpt>
      <trkpt lat="36.428844" lon="126.687840"><ele>110.0</ele></trkpt>
      <trkpt lat="36.429004" lon="126.687528"><ele>108.1</ele></trkpt>
      <trkpt lat="36.429004" lon="126.686842"><ele>108.4</ele></trkpt>
      <trkpt lat="36.428050" lon="126.686584"><ele>106.4</ele></trkpt>
      <trkpt lat="36.427551" lon="126.686696"><ele>106.3</ele></trkpt>
      <trkpt lat="36.427322" lon="126.685998"><ele>106.0</ele></trkpt>
      <trkpt lat="36.427228" lon="126.686016"><ele>106.6</ele></trkpt>
      <trkpt lat="36.427042" lon="126.685817"><ele>108.4</ele></trkpt>
      <trkpt lat="36.426796" lon="126.685710"><ele>109.6</ele></trkpt>
      <trkpt lat="36.426201" lon="126.685088"><ele>107.1</ele></trkpt>
      <trkpt lat="36.425988" lon="126.684656"><ele>104.3</ele></trkpt>
      <trkpt lat="36.425396" lon="126.684318"><ele>105.8</ele></trkpt>
      <trkpt lat="36.424622" lon="126.683770"><ele>106.9</ele></trkpt>
      <trkpt lat="36.423768" lon="126.683060"><ele>108.6</ele></trkpt>
      <trkpt lat="36.423566" lon="126.682864"><ele>110.5</ele></trkpt>
      <trkpt lat="36.422107" lon="126.680963"><ele>118.9</ele></trkpt>
      <trkpt lat="36.421517" lon="126.680607"><ele>108.9</ele></trkpt>
      <trkpt lat="36.420577" lon="126.680324"><ele>109.6</ele></trkpt>
      <trkpt lat="36.420264" lon="126.680274"><ele>116.4</ele></trkpt>
      <trkpt lat="36.419489" lon="126.680366"><ele>139.5</ele></trkpt>
      <trkpt lat="36.418823" lon="126.680119"><ele>159.4</ele></trkpt>
      <trkpt lat="36.416567" lon="126.679970"><ele>111.9</ele></trkpt>
      <trkpt lat="36.416299" lon="126.679665"><ele>109.8</ele></trkpt>
      <trkpt lat="36.415764" lon="126.679460"><ele>113.5</ele></trkpt>
      <trkpt lat="36.415023" lon="126.679602"><ele>107.3</ele></trkpt>
      <trkpt lat="36.412916" lon="126.679269"><ele>104.3</ele></trkpt>
      <trkpt lat="36.412488" lon="126.679411"><ele>102.4</ele></trkpt>
      <trkpt lat="36.411896" lon="126.679382"><ele>100.9</ele></trkpt>
      <trkpt lat="36.411218" lon="126.679241"><ele>95.0</ele></trkpt>
      <trkpt lat="36.410358" lon="126.678674"><ele>92.8</ele></trkpt>
      <trkpt lat="36.410090" lon="126.678276"><ele>90.2</ele></trkpt>
    </trkseg>
  </trk>
</gpx>
