<?xml version="1.0" encoding="UTF-8"?>
<gpx version="1.1" creator="kr-100-mountains route-harvester"
     xmlns="http://www.topografix.com/GPX/1/1"
     xmlns:k100="https://github.com/jay-jang/kr-100-mountains/ns/1"
     xmlns:xsi="http://www.w3.org/2001/XMLSchema-instance"
     xsi:schemaLocation="http://www.topografix.com/GPX/1/1 http://www.topografix.com/GPX/1/1/gpx.xsd">
  <metadata>
    <name>오서산 · 성연주차장-성연소류지-문수골-오서산 (OSM 계산 경로)</name>
    <desc>실제 GPS 기록이 아닙니다. OpenStreetMap에 등록된 등산로 선형 위에서 계산한 경로이며, 현장 통제·훼손·출입 제한·계절 통제를 반영하지 않을 수 있습니다. 산행 전 공식 안내를 확인하세요.</desc>
    <time>2026-08-04T05:29:09.782Z</time>
    <link href="https://www.openstreetmap.org/copyright"><text>© OpenStreetMap contributors (ODbL 1.0)</text></link>
    <link href="https://registry.opendata.aws/terrain-tiles/"><text>Elevation: SRTM 1 arc-second (NASA/USGS) via AWS Terrain Tiles</text></link>
    <extensions>
      <k100:provenance>osm-routed</k100:provenance>
      <k100:not_a_recorded_track>true</k100:not_a_recorded_track>
      <k100:mountain_id>oseosan-boryeong</k100:mountain_id>
      <k100:mountain_name>오서산(보령)</k100:mountain_name>
      <k100:route_id>oseosan-boryeong-f56d7f32</k100:route_id>
      <k100:route_index>3</k100:route_index>
      <k100:route_name>성연주차장-성연소류지-문수골-오서산</k100:route_name>
      <k100:variant>0</k100:variant>
      <k100:source>OpenStreetMap via Overpass API</k100:source>
      <k100:license>ODbL-1.0</k100:license>
      <k100:attribution>© OpenStreetMap contributors</k100:attribution>
      <k100:elevation_source>SRTM 1 arc-second (NASA/USGS) — AWS Terrain Tiles 배포본. 지형 DEM 추정 고도이며 실측 아님</k100:elevation_source>
      <k100:algorithm>dijkstra-grid-v1</k100:algorithm>
      <k100:osm_snapshot>2026-08-04</k100:osm_snapshot>
      <k100:snap_trailhead_m>18</k100:snap_trailhead_m>
      <k100:snap_summit_m>153</k100:snap_summit_m>
      <k100:validation_score>64</k100:validation_score>
      <k100:validation_status>review</k100:validation_status>
    </extensions>
  </metadata>
  <trk>
    <name>오서산 · 성연주차장-성연소류지-문수골-오서산 (OSM 계산 경로)</name>
    <desc>실제 GPS 기록이 아닙니다. OpenStreetMap에 등록된 등산로 선형 위에서 계산한 경로이며, 현장 통제·훼손·출입 제한·계절 통제를 반영하지 않을 수 있습니다. 산행 전 공식 안내를 확인하세요.</desc>
    <trkseg>
      <trkpt lat="36.467050" lon="126.656807"><ele>633.1</ele></trkpt>
      <trkpt lat="36.467290" lon="126.656994"><ele>620.6</ele></trkpt>
      <trkpt lat="36.467480" lon="126.656904"><ele>623.6</ele></trkpt>
      <trkpt lat="36.467666" lon="126.656967"><ele>619.0</ele></trkpt>
      <trkpt lat="36.467840" lon="126.657063"><ele>613.7</ele></trkpt>
      <trkpt lat="36.467895" lon="126.657186"><ele>608.6</ele></trkpt>
      <trkpt lat="36.467883" lon="126.657262"><ele>606.2</ele></trkpt>
      <trkpt lat="36.467813" lon="126.657316"><ele>605.6</ele></trkpt>
      <trkpt lat="36.467556" lon="126.657255"><ele>609.6</ele></trkpt>
      <trkpt lat="36.467336" lon="126.657384"><ele>604.7</ele></trkpt>
      <trkpt lat="36.466966" lon="126.657413"><ele>605.2</ele></trkpt>
      <trkpt lat="36.466811" lon="126.657670"><ele>594.4</ele></trkpt>
      <trkpt lat="36.466434" lon="126.657939"><ele>588.7</ele></trkpt>
      <trkpt lat="36.466550" lon="126.657981"><ele>585.0</ele></trkpt>
      <trkpt lat="36.467033" lon="126.657850"><ele>581.4</ele></trkpt>
      <trkpt lat="36.467252" lon="126.657938"><ele>576.4</ele></trkpt>
      <trkpt lat="36.467312" lon="126.658073"><ele>570.6</ele></trkpt>
      <trkpt lat="36.467428" lon="126.658172"><ele>567.7</ele></trkpt>
      <trkpt lat="36.467625" lon="126.658228"><ele>568.1</ele></trkpt>
      <trkpt lat="36.467665" lon="126.658303"><ele>565.8</ele></trkpt>
      <trkpt lat="36.467648" lon="126.658746"><ele>555.2</ele></trkpt>
      <trkpt lat="36.467700" lon="126.658885"><ele>553.7</ele></trkpt>
      <trkpt lat="36.467996" lon="126.659085"><ele>549.0</ele></trkpt>
      <trkpt lat="36.468527" lon="126.659593"><ele>527.6</ele></trkpt>
      <trkpt lat="36.468922" lon="126.659795"><ele>521.5</ele></trkpt>
      <trkpt lat="36.468879" lon="126.659874"><ele>522.9</ele></trkpt>
      <trkpt lat="36.468651" lon="126.659840"><ele>522.2</ele></trkpt>
      <trkpt lat="36.468617" lon="126.659885"><ele>520.9</ele></trkpt>
      <trkpt lat="36.468722" lon="126.660138"><ele>517.8</ele></trkpt>
      <trkpt lat="36.468730" lon="126.660309"><ele>515.1</ele></trkpt>
      <trkpt lat="36.468680" lon="126.660313"><ele>515.1</ele></trkpt>
      <trkpt lat="36.468558" lon="126.660136"><ele>515.7</ele></trkpt>
      <trkpt lat="36.468046" lon="126.660013"><ele>510.5</ele></trkpt>
      <trkpt lat="36.467829" lon="126.660008"><ele>509.2</ele></trkpt>
      <trkpt lat="36.467425" lon="126.660253"><ele>499.5</ele></trkpt>
      <trkpt lat="36.467473" lon="126.660376"><ele>496.5</ele></trkpt>
      <trkpt lat="36.467804" lon="126.660391"><ele>498.6</ele></trkpt>
      <trkpt lat="36.468135" lon="126.660644"><ele>489.7</ele></trkpt>
      <trkpt lat="36.468206" lon="126.660761"><ele>486.2</ele></trkpt>
      <trkpt lat="36.468341" lon="126.661266"><ele>476.0</ele></trkpt>
      <trkpt lat="36.468306" lon="126.661741"><ele>466.2</ele></trkpt>
      <trkpt lat="36.468392" lon="126.661989"><ele>463.0</ele></trkpt>
      <trkpt lat="36.468400" lon="126.662162"><ele>458.2</ele></trkpt>
      <trkpt lat="36.468527" lon="126.662345"><ele>454.3</ele></trkpt>
      <trkpt lat="36.468466" lon="126.662486"><ele>448.0</ele></trkpt>
      <trkpt lat="36.468277" lon="126.662533"><ele>443.5</ele></trkpt>
      <trkpt lat="36.468121" lon="126.662434"><ele>443.4</ele></trkpt>
      <trkpt lat="36.468095" lon="126.662033"><ele>452.6</ele></trkpt>
      <trkpt lat="36.467982" lon="126.661805"><ele>454.0</ele></trkpt>
      <trkpt lat="36.467825" lon="126.661648"><ele>452.9</ele></trkpt>
      <trkpt lat="36.467574" lon="126.661591"><ele>449.5</ele></trkpt>
      <trkpt lat="36.467170" lon="126.661806"><ele>432.1</ele></trkpt>
      <trkpt lat="36.466759" lon="126.661826"><ele>427.1</ele></trkpt>
      <trkpt lat="36.466620" lon="126.662505"><ele>417.4</ele></trkpt>
      <trkpt lat="36.466358" lon="126.662963"><ele>423.4</ele></trkpt>
      <trkpt lat="36.466257" lon="126.662892"><ele>426.4</ele></trkpt>
      <trkpt lat="36.466168" lon="126.662721"><ele>429.4</ele></trkpt>
      <trkpt lat="36.465901" lon="126.662729"><ele>439.0</ele></trkpt>
      <trkpt lat="36.465716" lon="126.662622"><ele>448.3</ele></trkpt>
      <trkpt lat="36.465522" lon="126.662383"><ele>459.2</ele></trkpt>
      <trkpt lat="36.465418" lon="126.662335"><ele>462.3</ele></trkpt>
      <trkpt lat="36.464997" lon="126.662278"><ele>470.5</ele></trkpt>
      <trkpt lat="36.464831" lon="126.662367"><ele>476.8</ele></trkpt>
      <trkpt lat="36.464434" lon="126.662439"><ele>489.0</ele></trkpt>
      <trkpt lat="36.464141" lon="126.662622"><ele>500.6</ele></trkpt>
      <trkpt lat="36.463502" lon="126.663560"><ele>532.7</ele></trkpt>
      <trkpt lat="36.463256" lon="126.663745"><ele>548.4</ele></trkpt>
      <trkpt lat="36.463045" lon="126.664035"><ele>564.4</ele></trkpt>
      <trkpt lat="36.462683" lon="126.664317"><ele>577.4</ele></trkpt>
      <trkpt lat="36.462421" lon="126.664766"><ele>585.1</ele></trkpt>
      <trkpt lat="36.462417" lon="126.665052"><ele>583.0</ele></trkpt>
      <trkpt lat="36.462374" lon="126.665164"><ele>581.8</ele></trkpt>
      <trkpt lat="36.462206" lon="126.665314"><ele>577.1</ele></trkpt>
      <trkpt lat="36.462197" lon="126.665443"><ele>574.5</ele></trkpt>
      <trkpt lat="36.462094" lon="126.665610"><ele>567.9</ele></trkpt>
      <trkpt lat="36.461822" lon="126.665824"><ele>550.1</ele></trkpt>
      <trkpt lat="36.461701" lon="126.665872"><ele>543.0</ele></trkpt>
      <trkpt lat="36.461477" lon="126.665835"><ele>536.5</ele></trkpt>
      <trkpt lat="36.461304" lon="126.665958"><ele>530.3</ele></trkpt>
      <trkpt lat="36.461132" lon="126.666441"><ele>513.0</ele></trkpt>
      <trkpt lat="36.461097" lon="126.666806"><ele>503.7</ele></trkpt>
      <trkpt lat="36.461002" lon="126.667052"><ele>498.8</ele></trkpt>
      <trkpt lat="36.460139" lon="126.667997"><ele>464.2</ele></trkpt>
      <trkpt lat="36.459846" lon="126.668053"><ele>452.5</ele></trkpt>
      <trkpt lat="36.459716" lon="126.668851"><ele>441.4</ele></trkpt>
      <trkpt lat="36.459904" lon="126.669676"><ele>435.3</ele></trkpt>
      <trkpt lat="36.459835" lon="126.670144"><ele>424.3</ele></trkpt>
      <trkpt lat="36.459891" lon="126.670482"><ele>421.9</ele></trkpt>
      <trkpt lat="36.459859" lon="126.670979"><ele>416.4</ele></trkpt>
      <trkpt lat="36.459755" lon="126.671303"><ele>413.9</ele></trkpt>
      <trkpt lat="36.459463" lon="126.671725"><ele>404.0</ele></trkpt>
      <trkpt lat="36.459384" lon="126.673027"><ele>394.0</ele></trkpt>
      <trkpt lat="36.459127" lon="126.674153"><ele>387.4</ele></trkpt>
      <trkpt lat="36.458832" lon="126.674296"><ele>381.6</ele></trkpt>
      <trkpt lat="36.458462" lon="126.674175"><ele>374.0</ele></trkpt>
      <trkpt lat="36.458073" lon="126.674273"><ele>375.1</ele></trkpt>
      <trkpt lat="36.457500" lon="126.674003"><ele>364.4</ele></trkpt>
      <trkpt lat="36.457295" lon="126.674205"><ele>365.3</ele></trkpt>
      <trkpt lat="36.457140" lon="126.674247"><ele>364.2</ele></trkpt>
      <trkpt lat="36.457115" lon="126.674299"><ele>364.7</ele></trkpt>
      <trkpt lat="36.456857" lon="126.674317"><ele>364.7</ele></trkpt>
      <trkpt lat="36.456492" lon="126.674530"><ele>365.8</ele></trkpt>
      <trkpt lat="36.455905" lon="126.674995"><ele>377.4</ele></trkpt>
      <trkpt lat="36.455746" lon="126.675004"><ele>377.7</ele></trkpt>
      <trkpt lat="36.455429" lon="126.675222"><ele>375.7</ele></trkpt>
      <trkpt lat="36.455080" lon="126.675237"><ele>371.8</ele></trkpt>
      <trkpt lat="36.454942" lon="126.675306"><ele>370.0</ele></trkpt>
      <trkpt lat="36.454903" lon="126.675464"><ele>369.7</ele></trkpt>
      <trkpt lat="36.454755" lon="126.675608"><ele>365.7</ele></trkpt>
      <trkpt lat="36.453946" lon="126.675952"><ele>357.0</ele></trkpt>
      <trkpt lat="36.453705" lon="126.675924"><ele>357.6</ele></trkpt>
      <trkpt lat="36.453460" lon="126.675974"><ele>356.7</ele></trkpt>
      <trkpt lat="36.453276" lon="126.676079"><ele>355.4</ele></trkpt>
      <trkpt lat="36.453131" lon="126.676257"><ele>352.6</ele></trkpt>
      <trkpt lat="36.452907" lon="126.677115"><ele>335.1</ele></trkpt>
      <trkpt lat="36.452804" lon="126.677234"><ele>331.6</ele></trkpt>
      <trkpt lat="36.452620" lon="126.677182"><ele>328.4</ele></trkpt>
      <trkpt lat="36.452142" lon="126.677191"><ele>315.3</ele></trkpt>
      <trkpt lat="36.451950" lon="126.677249"><ele>311.8</ele></trkpt>
      <trkpt lat="36.451663" lon="126.677109"><ele>308.9</ele></trkpt>
      <trkpt lat="36.451457" lon="126.677073"><ele>306.4</ele></trkpt>
      <trkpt lat="36.451135" lon="126.677255"><ele>307.1</ele></trkpt>
      <trkpt lat="36.450880" lon="126.677236"><ele>304.3</ele></trkpt>
      <trkpt lat="36.450692" lon="126.677304"><ele>298.2</ele></trkpt>
      <trkpt lat="36.450505" lon="126.677474"><ele>287.7</ele></trkpt>
      <trkpt lat="36.450451" lon="126.677639"><ele>280.9</ele></trkpt>
      <trkpt lat="36.450195" lon="126.677995"><ele>265.9</ele></trkpt>
      <trkpt lat="36.449993" lon="126.678390"><ele>251.4</ele></trkpt>
      <trkpt lat="36.449892" lon="126.678743"><ele>243.3</ele></trkpt>
      <trkpt lat="36.449536" lon="126.679565"><ele>246.5</ele></trkpt>
      <trkpt lat="36.449247" lon="126.679795"><ele>245.6</ele></trkpt>
      <trkpt lat="36.449118" lon="126.680219"><ele>241.3</ele></trkpt>
      <trkpt lat="36.448934" lon="126.680430"><ele>236.6</ele></trkpt>
      <trkpt lat="36.448412" lon="126.681358"><ele>230.8</ele></trkpt>
      <trkpt lat="36.448334" lon="126.681730"><ele>231.2</ele></trkpt>
      <trkpt lat="36.448372" lon="126.682224"><ele>230.3</ele></trkpt>
      <trkpt lat="36.448320" lon="126.682566"><ele>226.8</ele></trkpt>
      <trkpt lat="36.448337" lon="126.682811"><ele>223.4</ele></trkpt>
      <trkpt lat="36.448206" lon="126.683333"><ele>204.8</ele></trkpt>
      <trkpt lat="36.448230" lon="126.683764"><ele>195.2</ele></trkpt>
      <trkpt lat="36.448106" lon="126.684010"><ele>191.4</ele></trkpt>
      <trkpt lat="36.448288" lon="126.684338"><ele>192.0</ele></trkpt>
      <trkpt lat="36.448298" lon="126.684464"><ele>192.2</ele></trkpt>
      <trkpt lat="36.448182" lon="126.684587"><ele>193.9</ele></trkpt>
      <trkpt lat="36.448065" lon="126.684565"><ele>194.7</ele></trkpt>
      <trkpt lat="36.447972" lon="126.684630"><ele>196.0</ele></trkpt>
      <trkpt lat="36.447752" lon="126.685379"><ele>213.8</ele></trkpt>
      <trkpt lat="36.447550" lon="126.685774"><ele>223.6</ele></trkpt>
      <trkpt lat="36.447581" lon="126.685893"><ele>227.4</ele></trkpt>
      <trkpt lat="36.447746" lon="126.686105"><ele>235.5</ele></trkpt>
      <trkpt lat="36.447847" lon="126.686691"><ele>253.7</ele></trkpt>
      <trkpt lat="36.448122" lon="126.686849"><ele>253.1</ele></trkpt>
      <trkpt lat="36.448449" lon="126.687484"><ele>252.6</ele></trkpt>
      <trkpt lat="36.448408" lon="126.687651"><ele>252.0</ele></trkpt>
      <trkpt lat="36.448220" lon="126.687877"><ele>251.0</ele></trkpt>
      <trkpt lat="36.447893" lon="126.688089"><ele>248.8</ele></trkpt>
      <trkpt lat="36.447667" lon="126.687988"><ele>248.5</ele></trkpt>
      <trkpt lat="36.447033" lon="126.687921"><ele>253.1</ele></trkpt>
      <trkpt lat="36.446702" lon="126.688089"><ele>256.2</ele></trkpt>
      <trkpt lat="36.446329" lon="126.688497"><ele>256.9</ele></trkpt>
      <trkpt lat="36.446140" lon="126.688563"><ele>256.9</ele></trkpt>
      <trkpt lat="36.446001" lon="126.688721"><ele>254.2</ele></trkpt>
      <trkpt lat="36.445775" lon="126.688668"><ele>252.7</ele></trkpt>
      <trkpt lat="36.445471" lon="126.688876"><ele>245.9</ele></trkpt>
      <trkpt lat="36.444626" lon="126.688238"><ele>220.7</ele></trkpt>
      <trkpt lat="36.443887" lon="126.687429"><ele>218.5</ele></trkpt>
      <trkpt lat="36.443760" lon="126.687232"><ele>218.4</ele></trkpt>
      <trkpt lat="36.443697" lon="126.687333"><ele>219.6</ele></trkpt>
      <trkpt lat="36.443499" lon="126.687382"><ele>222.0</ele></trkpt>
      <trkpt lat="36.443238" lon="126.687346"><ele>226.3</ele></trkpt>
      <trkpt lat="36.442898" lon="126.687214"><ele>236.2</ele></trkpt>
      <trkpt lat="36.442398" lon="126.687265"><ele>256.0</ele></trkpt>
      <trkpt lat="36.442083" lon="126.687060"><ele>269.4</ele></trkpt>
      <trkpt lat="36.441892" lon="126.687060"><ele>277.4</ele></trkpt>
      <trkpt lat="36.441810" lon="126.687002"><ele>281.8</ele></trkpt>
      <trkpt lat="36.441744" lon="126.686775"><ele>287.8</ele></trkpt>
      <trkpt lat="36.441629" lon="126.686658"><ele>291.6</ele></trkpt>
      <trkpt lat="36.441037" lon="126.686554"><ele>288.4</ele></trkpt>
      <trkpt lat="36.440599" lon="126.686623"><ele>288.1</ele></trkpt>
      <trkpt lat="36.440376" lon="126.686280"><ele>288.6</ele></trkpt>
      <trkpt lat="36.440163" lon="126.686096"><ele>289.0</ele></trkpt>
      <trkpt lat="36.439852" lon="126.685925"><ele>285.7</ele></trkpt>
      <trkpt lat="36.439482" lon="126.685802"><ele>277.6</ele></trkpt>
      <trkpt lat="36.439275" lon="126.685529"><ele>271.4</ele></trkpt>
      <trkpt lat="36.438990" lon="126.685380"><ele>266.5</ele></trkpt>
      <trkpt lat="36.438860" lon="126.685190"><ele>265.2</ele></trkpt>
      <trkpt lat="36.438548" lon="126.684243"><ele>273.7</ele></trkpt>
      <trkpt lat="36.438266" lon="126.684121"><ele>272.0</ele></trkpt>
      <trkpt lat="36.438018" lon="126.684100"><ele>267.2</ele></trkpt>
      <trkpt lat="36.437880" lon="126.684155"><ele>265.4</ele></trkpt>
      <trkpt lat="36.437820" lon="126.684257"><ele>263.6</ele></trkpt>
      <trkpt lat="36.437731" lon="126.684281"><ele>262.5</ele></trkpt>
      <trkpt lat="36.437617" lon="126.684404"><ele>260.8</ele></trkpt>
      <trkpt lat="36.437416" lon="126.684464"><ele>259.0</ele></trkpt>
      <trkpt lat="36.436637" lon="126.684173"><ele>255.4</ele></trkpt>
      <trkpt lat="36.436426" lon="126.684184"><ele>258.2</ele></trkpt>
      <trkpt lat="36.436295" lon="126.684092"><ele>260.5</ele></trkpt>
      <trkpt lat="36.436062" lon="126.684183"><ele>262.0</ele></trkpt>
      <trkpt lat="36.435912" lon="126.684327"><ele>258.1</ele></trkpt>
      <trkpt lat="36.435742" lon="126.684756"><ele>249.4</ele></trkpt>
      <trkpt lat="36.435466" lon="126.684888"><ele>241.7</ele></trkpt>
      <trkpt lat="36.435142" lon="126.685175"><ele>231.3</ele></trkpt>
      <trkpt lat="36.435085" lon="126.685371"><ele>227.7</ele></trkpt>
      <trkpt lat="36.435066" lon="126.685870"><ele>221.9</ele></trkpt>
      <trkpt lat="36.434911" lon="126.686247"><ele>214.6</ele></trkpt>
      <trkpt lat="36.434598" lon="126.686706"><ele>204.4</ele></trkpt>
      <trkpt lat="36.434347" lon="126.686943"><ele>200.6</ele></trkpt>
      <trkpt lat="36.434253" lon="126.686976"><ele>199.0</ele></trkpt>
      <trkpt lat="36.434120" lon="126.687326"><ele>195.2</ele></trkpt>
      <trkpt lat="36.433578" lon="126.687882"><ele>191.6</ele></trkpt>
      <trkpt lat="36.433317" lon="126.688363"><ele>190.4</ele></trkpt>
      <trkpt lat="36.433084" lon="126.688613"><ele>188.0</ele></trkpt>
      <trkpt lat="36.432839" lon="126.688786"><ele>181.4</ele></trkpt>
      <trkpt lat="36.432636" lon="126.688778"><ele>176.6</ele></trkpt>
      <trkpt lat="36.432190" lon="126.689042"><ele>164.3</ele></trkpt>
      <trkpt lat="36.431935" lon="126.689015"><ele>159.8</ele></trkpt>
      <trkpt lat="36.431547" lon="126.688859"><ele>153.4</ele></trkpt>
      <trkpt lat="36.431415" lon="126.688744"><ele>151.2</ele></trkpt>
      <trkpt lat="36.431219" lon="126.688747"><ele>151.0</ele></trkpt>
      <trkpt lat="36.431008" lon="126.689020"><ele>147.1</ele></trkpt>
      <trkpt lat="36.430873" lon="126.689104"><ele>145.5</ele></trkpt>
      <trkpt lat="36.430740" lon="126.689369"><ele>139.2</ele></trkpt>
      <trkpt lat="36.430600" lon="126.689531"><ele>135.6</ele></trkpt>
      <trkpt lat="36.430369" lon="126.689674"><ele>135.1</ele></trkpt>
      <trkpt lat="36.430198" lon="126.690127"><ele>139.9</ele></trkpt>
      <trkpt lat="36.430177" lon="126.690739"><ele>136.2</ele></trkpt>
      <trkpt lat="36.429921" lon="126.691013"><ele>131.2</ele></trkpt>
      <trkpt lat="36.429727" lon="126.691051"><ele>129.0</ele></trkpt>
      <trkpt lat="36.429598" lon="126.690963"><ele>128.7</ele></trkpt>
      <trkpt lat="36.429551" lon="126.690985"><ele>128.8</ele></trkpt>
      <trkpt lat="36.429177" lon="126.691353"><ele>133.7</ele></trkpt>
      <trkpt lat="36.429019" lon="126.691384"><ele>136.6</ele></trkpt>
      <trkpt lat="36.428644" lon="126.691037"><ele>136.4</ele></trkpt>
      <trkpt lat="36.428252" lon="126.691143"><ele>133.5</ele></trkpt>
      <trkpt lat="36.427963" lon="126.691061"><ele>130.5</ele></trkpt>
      <trkpt lat="36.427677" lon="126.691147"><ele>134.4</ele></trkpt>
      <trkpt lat="36.427460" lon="126.690991"><ele>134.9</ele></trkpt>
      <trkpt lat="36.427336" lon="126.691093"><ele>136.0</ele></trkpt>
      <trkpt lat="36.427154" lon="126.690857"><ele>132.6</ele></trkpt>
      <trkpt lat="36.426961" lon="126.690793"><ele>127.9</ele></trkpt>
      <trkpt lat="36.426948" lon="126.690735"><ele>127.0</ele></trkpt>
      <trkpt lat="36.427085" lon="126.690462"><ele>125.5</ele></trkpt>
      <trkpt lat="36.427443" lon="126.690058"><ele>121.0</ele></trkpt>
      <trkpt lat="36.427798" lon="126.689541"><ele>121.9</ele></trkpt>
      <trkpt lat="36.427969" lon="126.689036"><ele>121.5</ele></trkpt>
      <trkpt lat="36.428028" lon="126.688452"><ele>114.7</ele></trkpt>
      <trkpt lat="36.428542" lon="126.688676"><ele>111.5</ele></trkpt>
      <trkpt lat="36.428918" lon="126.688660"><ele>113.4</ele></trkpt>
      <trkpt lat="36.428832" lon="126.688076"><ele>111.6</ele></trkpt>
      <trkpt lat="36.428844" lon="126.687840"><ele>110.0</ele></trkpt>
      <trkpt lat="36.429004" lon="126.687528"><ele>108.1</ele></trkpt>
      <trkpt lat="36.429004" lon="126.686842"><ele>108.4</ele></trkpt>
      <trkpt lat="36.428050" lon="126.686584"><ele>106.4</ele></trkpt>
      <trkpt lat="36.427551" lon="126.686696"><ele>106.3</ele></trkpt>
      <trkpt lat="36.427322" lon="126.685998"><ele>106.0</ele></trkpt>
      <trkpt lat="36.427228" lon="126.686016"><ele>106.6</ele></trkpt>
      <trkpt lat="36.427042" lon="126.685817"><ele>108.4</ele></trkpt>
      <trkpt lat="36.426796" lon="126.685710"><ele>109.6</ele></trkpt>
      <trkpt lat="36.426201" lon="126.685088"><ele>107.1</ele></trkpt>
      <trkpt lat="36.425988" lon="126.684656"><ele>104.3</ele></trkpt>
      <trkpt lat="36.425396" lon="126.684318"><ele>105.8</ele></trkpt>
      <trkpt lat="36.424622" lon="126.683770"><ele>106.9</ele></trkpt>
      <trkpt lat="36.423768" lon="126.683060"><ele>108.6</ele></trkpt>
      <trkpt lat="36.423566" lon="126.682864"><ele>110.5</ele></trkpt>
      <trkpt lat="36.422107" lon="126.680963"><ele>118.9</ele></trkpt>
      <trkpt lat="36.421517" lon="126.680607"><ele>108.9</ele></trkpt>
      <trkpt lat="36.420577" lon="126.680324"><ele>109.6</ele></trkpt>
      <trkpt lat="36.420264" lon="126.680274"><ele>116.4</ele></trkpt>
      <trkpt lat="36.419489" lon="126.680366"><ele>139.5</ele></trkpt>
      <trkpt lat="36.418823" lon="126.680119"><ele>159.4</ele></trkpt>
      <trkpt lat="36.416567" lon="126.679970"><ele>111.9</ele></trkpt>
      <trkpt lat="36.416299" lon="126.679665"><ele>109.8</ele></trkpt>
      <trkpt lat="36.415764" lon="126.679460"><ele>113.5</ele></trkpt>
      <trkpt lat="36.415023" lon="126.679602"><ele>107.3</ele></trkpt>
      <trkpt lat="36.412916" lon="126.679269"><ele>104.3</ele></trkpt>
      <trkpt lat="36.412488" lon="126.679411"><ele>102.4</ele></trkpt>
      <trkpt lat="36.411896" lon="126.679382"><ele>100.9</ele></trkpt>
      <trkpt lat="36.411218" lon="126.679241"><ele>95.0</ele></trkpt>
      <trkpt lat="36.410358" lon="126.678674"><ele>92.8</ele></trkpt>
      <trkpt lat="36.410090" lon="126.678276"><ele>90.2</ele></trkpt>
    </trkseg>
  </trk>
</gpx>
