<?xml version="1.0" encoding="UTF-8"?>
<gpx version="1.1" creator="kr-100-mountains route-harvester"
     xmlns="http://www.topografix.com/GPX/1/1"
     xmlns:k100="https://github.com/jay-jang/kr-100-mountains/ns/1"
     xmlns:xsi="http://www.w3.org/2001/XMLSchema-instance"
     xsi:schemaLocation="http://www.topografix.com/GPX/1/1 http://www.topografix.com/GPX/1/1/gpx.xsd">
  <metadata>
    <name>치악산 · 황골-비로봉 코스 (OSM 계산 경로)</name>
    <desc>실제 GPS 기록이 아닙니다. OpenStreetMap에 등록된 등산로 선형 위에서 계산한 경로이며, 현장 통제·훼손·출입 제한·계절 통제를 반영하지 않을 수 있습니다. 산행 전 공식 안내를 확인하세요.</desc>
    <time>2026-08-04T05:22:38.290Z</time>
    <link href="https://www.openstreetmap.org/copyright"><text>© OpenStreetMap contributors (ODbL 1.0)</text></link>
    <link href="https://registry.opendata.aws/terrain-tiles/"><text>Elevation: SRTM 1 arc-second (NASA/USGS) via AWS Terrain Tiles</text></link>
    <extensions>
      <k100:provenance>osm-routed</k100:provenance>
      <k100:not_a_recorded_track>true</k100:not_a_recorded_track>
      <k100:mountain_id>chiaksan</k100:mountain_id>
      <k100:mountain_name>치악산</k100:mountain_name>
      <k100:route_id>chiaksan-119a73aa</k100:route_id>
      <k100:route_index>2</k100:route_index>
      <k100:route_name>황골-비로봉 코스</k100:route_name>
      <k100:variant>0</k100:variant>
      <k100:source>OpenStreetMap via Overpass API</k100:source>
      <k100:license>ODbL-1.0</k100:license>
      <k100:attribution>© OpenStreetMap contributors</k100:attribution>
      <k100:elevation_source>SRTM 1 arc-second (NASA/USGS) — AWS Terrain Tiles 배포본. 지형 DEM 추정 고도이며 실측 아님</k100:elevation_source>
      <k100:algorithm>dijkstra-grid-v1</k100:algorithm>
      <k100:osm_snapshot>2026-08-04</k100:osm_snapshot>
      <k100:snap_trailhead_m>8</k100:snap_trailhead_m>
      <k100:snap_summit_m>128</k100:snap_summit_m>
      <k100:validation_score>89</k100:validation_score>
      <k100:validation_status>accepted</k100:validation_status>
    </extensions>
  </metadata>
  <trk>
    <name>치악산 · 황골-비로봉 코스 (OSM 계산 경로)</name>
    <desc>실제 GPS 기록이 아닙니다. OpenStreetMap에 등록된 등산로 선형 위에서 계산한 경로이며, 현장 통제·훼손·출입 제한·계절 통제를 반영하지 않을 수 있습니다. 산행 전 공식 안내를 확인하세요.</desc>
    <trkseg>
      <trkpt lat="37.360277" lon="128.022221"><ele>420.0</ele></trkpt>
      <trkpt lat="37.360339" lon="128.022059"><ele>418.7</ele></trkpt>
      <trkpt lat="37.360745" lon="128.022095"><ele>426.4</ele></trkpt>
      <trkpt lat="37.360801" lon="128.022207"><ele>429.1</ele></trkpt>
      <trkpt lat="37.360052" lon="128.023110"><ele>441.7</ele></trkpt>
      <trkpt lat="37.360080" lon="128.023822"><ele>453.9</ele></trkpt>
      <trkpt lat="37.360162" lon="128.024173"><ele>460.8</ele></trkpt>
      <trkpt lat="37.360036" lon="128.024405"><ele>461.8</ele></trkpt>
      <trkpt lat="37.360036" lon="128.024792"><ele>470.5</ele></trkpt>
      <trkpt lat="37.359893" lon="128.025095"><ele>471.0</ele></trkpt>
      <trkpt lat="37.359913" lon="128.025226"><ele>474.1</ele></trkpt>
      <trkpt lat="37.360163" lon="128.025739"><ele>500.3</ele></trkpt>
      <trkpt lat="37.360014" lon="128.025986"><ele>495.6</ele></trkpt>
      <trkpt lat="37.359980" lon="128.026156"><ele>496.9</ele></trkpt>
      <trkpt lat="37.360091" lon="128.026458"><ele>504.4</ele></trkpt>
      <trkpt lat="37.360149" lon="128.026904"><ele>511.3</ele></trkpt>
      <trkpt lat="37.360055" lon="128.027343"><ele>513.5</ele></trkpt>
      <trkpt lat="37.360102" lon="128.027713"><ele>516.9</ele></trkpt>
      <trkpt lat="37.360259" lon="128.028060"><ele>521.6</ele></trkpt>
      <trkpt lat="37.360305" lon="128.028959"><ele>537.4</ele></trkpt>
      <trkpt lat="37.360197" lon="128.029362"><ele>552.2</ele></trkpt>
      <trkpt lat="37.359805" lon="128.030409"><ele>572.3</ele></trkpt>
      <trkpt lat="37.359433" lon="128.031220"><ele>592.0</ele></trkpt>
      <trkpt lat="37.359477" lon="128.031862"><ele>604.4</ele></trkpt>
      <trkpt lat="37.359460" lon="128.032361"><ele>615.2</ele></trkpt>
      <trkpt lat="37.359596" lon="128.032729"><ele>625.3</ele></trkpt>
      <trkpt lat="37.359777" lon="128.033778"><ele>650.7</ele></trkpt>
      <trkpt lat="37.359933" lon="128.034215"><ele>663.4</ele></trkpt>
      <trkpt lat="37.359942" lon="128.034335"><ele>666.3</ele></trkpt>
      <trkpt lat="37.359806" lon="128.034803"><ele>688.0</ele></trkpt>
      <trkpt lat="37.359883" lon="128.035295"><ele>700.9</ele></trkpt>
      <trkpt lat="37.360010" lon="128.035740"><ele>707.0</ele></trkpt>
      <trkpt lat="37.360154" lon="128.035995"><ele>712.6</ele></trkpt>
      <trkpt lat="37.360232" lon="128.036021"><ele>711.4</ele></trkpt>
      <trkpt lat="37.360520" lon="128.036685"><ele>734.5</ele></trkpt>
      <trkpt lat="37.360481" lon="128.036951"><ele>736.1</ele></trkpt>
      <trkpt lat="37.360586" lon="128.037793"><ele>754.1</ele></trkpt>
      <trkpt lat="37.361044" lon="128.038569"><ele>812.1</ele></trkpt>
      <trkpt lat="37.361400" lon="128.039006"><ele>850.9</ele></trkpt>
      <trkpt lat="37.361516" lon="128.039254"><ele>864.5</ele></trkpt>
      <trkpt lat="37.361628" lon="128.039297"><ele>871.7</ele></trkpt>
      <trkpt lat="37.361662" lon="128.039411"><ele>878.3</ele></trkpt>
      <trkpt lat="37.361740" lon="128.039480"><ele>884.8</ele></trkpt>
      <trkpt lat="37.361696" lon="128.040185"><ele>915.0</ele></trkpt>
      <trkpt lat="37.361817" lon="128.040428"><ele>921.0</ele></trkpt>
      <trkpt lat="37.361707" lon="128.040780"><ele>922.5</ele></trkpt>
      <trkpt lat="37.362049" lon="128.040951"><ele>933.5</ele></trkpt>
      <trkpt lat="37.362219" lon="128.040933"><ele>944.9</ele></trkpt>
      <trkpt lat="37.362494" lon="128.041199"><ele>967.9</ele></trkpt>
      <trkpt lat="37.362561" lon="128.041515"><ele>968.5</ele></trkpt>
      <trkpt lat="37.362536" lon="128.041985"><ele>972.8</ele></trkpt>
      <trkpt lat="37.362465" lon="128.042217"><ele>979.5</ele></trkpt>
      <trkpt lat="37.362213" lon="128.042466"><ele>987.5</ele></trkpt>
      <trkpt lat="37.362301" lon="128.043928"><ele>1020.6</ele></trkpt>
      <trkpt lat="37.362195" lon="128.044609"><ele>1044.9</ele></trkpt>
      <trkpt lat="37.362245" lon="128.045070"><ele>1062.2</ele></trkpt>
      <trkpt lat="37.362212" lon="128.045783"><ele>1095.6</ele></trkpt>
      <trkpt lat="37.362099" lon="128.046107"><ele>1106.9</ele></trkpt>
      <trkpt lat="37.362274" lon="128.046507"><ele>1118.0</ele></trkpt>
      <trkpt lat="37.362490" lon="128.046612"><ele>1122.6</ele></trkpt>
      <trkpt lat="37.362646" lon="128.046667"><ele>1124.6</ele></trkpt>
      <trkpt lat="37.363164" lon="128.046554"><ele>1131.6</ele></trkpt>
      <trkpt lat="37.363487" lon="128.046724"><ele>1140.2</ele></trkpt>
      <trkpt lat="37.363597" lon="128.046687"><ele>1143.6</ele></trkpt>
      <trkpt lat="37.363661" lon="128.046842"><ele>1145.4</ele></trkpt>
      <trkpt lat="37.363867" lon="128.046868"><ele>1151.9</ele></trkpt>
      <trkpt lat="37.364124" lon="128.047329"><ele>1166.0</ele></trkpt>
      <trkpt lat="37.364239" lon="128.047368"><ele>1168.2</ele></trkpt>
      <trkpt lat="37.364421" lon="128.047749"><ele>1166.9</ele></trkpt>
      <trkpt lat="37.364563" lon="128.047887"><ele>1165.9</ele></trkpt>
      <trkpt lat="37.364742" lon="128.047932"><ele>1167.3</ele></trkpt>
      <trkpt lat="37.364851" lon="128.048052"><ele>1166.9</ele></trkpt>
      <trkpt lat="37.364930" lon="128.048027"><ele>1168.0</ele></trkpt>
      <trkpt lat="37.365133" lon="128.048106"><ele>1170.5</ele></trkpt>
      <trkpt lat="37.365126" lon="128.048258"><ele>1170.6</ele></trkpt>
      <trkpt lat="37.365215" lon="128.048465"><ele>1172.5</ele></trkpt>
      <trkpt lat="37.365188" lon="128.048596"><ele>1171.8</ele></trkpt>
      <trkpt lat="37.365227" lon="128.048830"><ele>1170.9</ele></trkpt>
      <trkpt lat="37.365359" lon="128.049205"><ele>1171.0</ele></trkpt>
      <trkpt lat="37.365708" lon="128.049681"><ele>1176.3</ele></trkpt>
      <trkpt lat="37.365788" lon="128.049670"><ele>1176.9</ele></trkpt>
      <trkpt lat="37.366121" lon="128.049914"><ele>1183.2</ele></trkpt>
      <trkpt lat="37.366169" lon="128.050097"><ele>1185.8</ele></trkpt>
      <trkpt lat="37.366368" lon="128.050300"><ele>1193.8</ele></trkpt>
      <trkpt lat="37.366436" lon="128.050584"><ele>1200.5</ele></trkpt>
      <trkpt lat="37.366363" lon="128.050869"><ele>1204.4</ele></trkpt>
      <trkpt lat="37.366297" lon="128.050924"><ele>1202.7</ele></trkpt>
      <trkpt lat="37.366260" lon="128.051152"><ele>1203.9</ele></trkpt>
      <trkpt lat="37.366180" lon="128.051236"><ele>1202.6</ele></trkpt>
      <trkpt lat="37.366200" lon="128.051359"><ele>1203.8</ele></trkpt>
      <trkpt lat="37.366112" lon="128.051451"><ele>1203.9</ele></trkpt>
      <trkpt lat="37.366141" lon="128.051535"><ele>1205.2</ele></trkpt>
      <trkpt lat="37.366022" lon="128.051899"><ele>1208.7</ele></trkpt>
      <trkpt lat="37.365958" lon="128.052655"><ele>1201.5</ele></trkpt>
      <trkpt lat="37.365739" lon="128.052907"><ele>1187.9</ele></trkpt>
      <trkpt lat="37.365780" lon="128.053172"><ele>1184.3</ele></trkpt>
      <trkpt lat="37.365687" lon="128.053470"><ele>1181.1</ele></trkpt>
      <trkpt lat="37.365754" lon="128.053764"><ele>1186.3</ele></trkpt>
      <trkpt lat="37.365905" lon="128.053971"><ele>1186.9</ele></trkpt>
      <trkpt lat="37.365981" lon="128.053978"><ele>1182.0</ele></trkpt>
      <trkpt lat="37.366025" lon="128.053815"><ele>1177.0</ele></trkpt>
      <trkpt lat="37.366115" lon="128.053886"><ele>1171.8</ele></trkpt>
      <trkpt lat="37.366267" lon="128.053738"><ele>1165.4</ele></trkpt>
      <trkpt lat="37.366453" lon="128.053728"><ele>1157.9</ele></trkpt>
      <trkpt lat="37.366604" lon="128.053822"><ele>1150.5</ele></trkpt>
      <trkpt lat="37.366728" lon="128.053992"><ele>1141.6</ele></trkpt>
      <trkpt lat="37.366913" lon="128.054077"><ele>1133.1</ele></trkpt>
      <trkpt lat="37.366942" lon="128.054218"><ele>1130.1</ele></trkpt>
      <trkpt lat="37.367284" lon="128.054333"><ele>1113.9</ele></trkpt>
      <trkpt lat="37.367316" lon="128.054405"><ele>1110.3</ele></trkpt>
      <trkpt lat="37.367548" lon="128.054547"><ele>1097.5</ele></trkpt>
      <trkpt lat="37.367786" lon="128.054594"><ele>1088.4</ele></trkpt>
      <trkpt lat="37.368171" lon="128.054815"><ele>1067.3</ele></trkpt>
      <trkpt lat="37.368630" lon="128.054948"><ele>1048.1</ele></trkpt>
      <trkpt lat="37.368855" lon="128.055054"><ele>1036.1</ele></trkpt>
      <trkpt lat="37.368905" lon="128.055180"><ele>1030.7</ele></trkpt>
      <trkpt lat="37.369318" lon="128.055348"><ele>1012.2</ele></trkpt>
      <trkpt lat="37.369398" lon="128.055325"><ele>1008.7</ele></trkpt>
      <trkpt lat="37.369541" lon="128.055436"><ele>1005.5</ele></trkpt>
      <trkpt lat="37.370014" lon="128.055409"><ele>989.8</ele></trkpt>
      <trkpt lat="37.370224" lon="128.055324"><ele>980.5</ele></trkpt>
      <trkpt lat="37.370504" lon="128.055299"><ele>968.9</ele></trkpt>
      <trkpt lat="37.370629" lon="128.055151"><ele>966.4</ele></trkpt>
      <trkpt lat="37.371279" lon="128.054785"><ele>939.7</ele></trkpt>
      <trkpt lat="37.371459" lon="128.054523"><ele>933.0</ele></trkpt>
      <trkpt lat="37.371558" lon="128.054542"><ele>928.3</ele></trkpt>
    </trkseg>
  </trk>
</gpx>
