<?xml version="1.0" encoding="UTF-8"?>
<gpx version="1.1" creator="kr-100-mountains route-harvester"
     xmlns="http://www.topografix.com/GPX/1/1"
     xmlns:k100="https://github.com/jay-jang/kr-100-mountains/ns/1"
     xmlns:xsi="http://www.w3.org/2001/XMLSchema-instance"
     xsi:schemaLocation="http://www.topografix.com/GPX/1/1 http://www.topografix.com/GPX/1/1/gpx.xsd">
  <metadata>
    <name>치악산 · 구룡사-사다리병창-비로봉 코스 (대안 1) (OSM 계산 경로)</name>
    <desc>실제 GPS 기록이 아닙니다. OpenStreetMap에 등록된 등산로 선형 위에서 계산한 경로이며, 현장 통제·훼손·출입 제한·계절 통제를 반영하지 않을 수 있습니다. 산행 전 공식 안내를 확인하세요.</desc>
    <time>2026-08-04T05:22:38.256Z</time>
    <link href="https://www.openstreetmap.org/copyright"><text>© OpenStreetMap contributors (ODbL 1.0)</text></link>
    <link href="https://registry.opendata.aws/terrain-tiles/"><text>Elevation: SRTM 1 arc-second (NASA/USGS) via AWS Terrain Tiles</text></link>
    <extensions>
      <k100:provenance>osm-routed</k100:provenance>
      <k100:not_a_recorded_track>true</k100:not_a_recorded_track>
      <k100:mountain_id>chiaksan</k100:mountain_id>
      <k100:mountain_name>치악산</k100:mountain_name>
      <k100:route_id>chiaksan-29e43553</k100:route_id>
      <k100:route_index>1</k100:route_index>
      <k100:route_name>구룡사-사다리병창-비로봉 코스</k100:route_name>
      <k100:variant>1</k100:variant>
      <k100:source>OpenStreetMap via Overpass API</k100:source>
      <k100:license>ODbL-1.0</k100:license>
      <k100:attribution>© OpenStreetMap contributors</k100:attribution>
      <k100:elevation_source>SRTM 1 arc-second (NASA/USGS) — AWS Terrain Tiles 배포본. 지형 DEM 추정 고도이며 실측 아님</k100:elevation_source>
      <k100:algorithm>dijkstra-grid-v1</k100:algorithm>
      <k100:osm_snapshot>2026-08-04</k100:osm_snapshot>
      <k100:snap_trailhead_m>6</k100:snap_trailhead_m>
      <k100:snap_summit_m>128</k100:snap_summit_m>
      <k100:validation_score>89</k100:validation_score>
      <k100:validation_status>accepted</k100:validation_status>
    </extensions>
  </metadata>
  <trk>
    <name>치악산 · 구룡사-사다리병창-비로봉 코스 (대안 1) (OSM 계산 경로)</name>
    <desc>실제 GPS 기록이 아닙니다. OpenStreetMap에 등록된 등산로 선형 위에서 계산한 경로이며, 현장 통제·훼손·출입 제한·계절 통제를 반영하지 않을 수 있습니다. 산행 전 공식 안내를 확인하세요.</desc>
    <trkseg>
      <trkpt lat="37.414313" lon="128.050712"><ele>273.6</ele></trkpt>
      <trkpt lat="37.414224" lon="128.051155"><ele>284.4</ele></trkpt>
      <trkpt lat="37.414025" lon="128.051135"><ele>286.4</ele></trkpt>
      <trkpt lat="37.413421" lon="128.050919"><ele>281.8</ele></trkpt>
      <trkpt lat="37.413149" lon="128.050703"><ele>282.7</ele></trkpt>
      <trkpt lat="37.412540" lon="128.049924"><ele>285.5</ele></trkpt>
      <trkpt lat="37.412239" lon="128.049462"><ele>283.1</ele></trkpt>
      <trkpt lat="37.412049" lon="128.048985"><ele>282.7</ele></trkpt>
      <trkpt lat="37.411818" lon="128.047777"><ele>287.7</ele></trkpt>
      <trkpt lat="37.411556" lon="128.047052"><ele>290.1</ele></trkpt>
      <trkpt lat="37.411363" lon="128.046861"><ele>291.5</ele></trkpt>
      <trkpt lat="37.411184" lon="128.046790"><ele>291.1</ele></trkpt>
      <trkpt lat="37.410595" lon="128.046735"><ele>297.7</ele></trkpt>
      <trkpt lat="37.409860" lon="128.046909"><ele>302.5</ele></trkpt>
      <trkpt lat="37.409265" lon="128.046732"><ele>308.1</ele></trkpt>
      <trkpt lat="37.408983" lon="128.046579"><ele>311.4</ele></trkpt>
      <trkpt lat="37.408677" lon="128.046181"><ele>302.9</ele></trkpt>
      <trkpt lat="37.407079" lon="128.045320"><ele>306.2</ele></trkpt>
      <trkpt lat="37.406981" lon="128.045408"><ele>308.7</ele></trkpt>
      <trkpt lat="37.406585" lon="128.045501"><ele>309.3</ele></trkpt>
      <trkpt lat="37.406316" lon="128.045346"><ele>312.0</ele></trkpt>
      <trkpt lat="37.405987" lon="128.045375"><ele>317.0</ele></trkpt>
      <trkpt lat="37.404806" lon="128.045912"><ele>312.5</ele></trkpt>
      <trkpt lat="37.404684" lon="128.045550"><ele>320.6</ele></trkpt>
      <trkpt lat="37.404452" lon="128.045104"><ele>328.4</ele></trkpt>
      <trkpt lat="37.403986" lon="128.044715"><ele>329.8</ele></trkpt>
      <trkpt lat="37.404156" lon="128.044120"><ele>349.9</ele></trkpt>
      <trkpt lat="37.404553" lon="128.044372"><ele>351.3</ele></trkpt>
      <trkpt lat="37.404659" lon="128.044522"><ele>348.6</ele></trkpt>
      <trkpt lat="37.404842" lon="128.044570"><ele>350.7</ele></trkpt>
      <trkpt lat="37.404940" lon="128.044453"><ele>357.6</ele></trkpt>
      <trkpt lat="37.404980" lon="128.042917"><ele>400.1</ele></trkpt>
      <trkpt lat="37.404809" lon="128.042445"><ele>421.3</ele></trkpt>
      <trkpt lat="37.404809" lon="128.041480"><ele>446.8</ele></trkpt>
      <trkpt lat="37.404390" lon="128.040285"><ele>479.3</ele></trkpt>
      <trkpt lat="37.404074" lon="128.039870"><ele>491.2</ele></trkpt>
      <trkpt lat="37.404217" lon="128.039740"><ele>493.3</ele></trkpt>
      <trkpt lat="37.404019" lon="128.039314"><ele>505.8</ele></trkpt>
      <trkpt lat="37.403885" lon="128.039263"><ele>511.3</ele></trkpt>
      <trkpt lat="37.403695" lon="128.039027"><ele>517.8</ele></trkpt>
      <trkpt lat="37.403616" lon="128.038654"><ele>521.8</ele></trkpt>
      <trkpt lat="37.403152" lon="128.038305"><ele>536.5</ele></trkpt>
      <trkpt lat="37.402798" lon="128.038194"><ele>542.3</ele></trkpt>
      <trkpt lat="37.402696" lon="128.037889"><ele>552.8</ele></trkpt>
      <trkpt lat="37.402702" lon="128.037659"><ele>557.7</ele></trkpt>
      <trkpt lat="37.402300" lon="128.036929"><ele>573.3</ele></trkpt>
      <trkpt lat="37.402251" lon="128.036685"><ele>582.2</ele></trkpt>
      <trkpt lat="37.402146" lon="128.036545"><ele>584.2</ele></trkpt>
      <trkpt lat="37.401801" lon="128.036285"><ele>592.8</ele></trkpt>
      <trkpt lat="37.401767" lon="128.036138"><ele>593.8</ele></trkpt>
      <trkpt lat="37.401605" lon="128.035976"><ele>595.0</ele></trkpt>
      <trkpt lat="37.401554" lon="128.035808"><ele>594.4</ele></trkpt>
      <trkpt lat="37.401449" lon="128.035725"><ele>591.7</ele></trkpt>
      <trkpt lat="37.401386" lon="128.035507"><ele>589.3</ele></trkpt>
      <trkpt lat="37.401194" lon="128.035285"><ele>587.4</ele></trkpt>
      <trkpt lat="37.400993" lon="128.034735"><ele>590.3</ele></trkpt>
      <trkpt lat="37.400861" lon="128.034592"><ele>589.9</ele></trkpt>
      <trkpt lat="37.400663" lon="128.034633"><ele>595.6</ele></trkpt>
      <trkpt lat="37.400320" lon="128.034580"><ele>605.0</ele></trkpt>
      <trkpt lat="37.399866" lon="128.034248"><ele>610.9</ele></trkpt>
      <trkpt lat="37.399634" lon="128.033855"><ele>611.8</ele></trkpt>
      <trkpt lat="37.399476" lon="128.033439"><ele>620.9</ele></trkpt>
      <trkpt lat="37.399432" lon="128.033099"><ele>626.0</ele></trkpt>
      <trkpt lat="37.399308" lon="128.032699"><ele>625.7</ele></trkpt>
      <trkpt lat="37.398724" lon="128.032388"><ele>631.5</ele></trkpt>
      <trkpt lat="37.398566" lon="128.032255"><ele>631.8</ele></trkpt>
      <trkpt lat="37.398347" lon="128.031856"><ele>633.2</ele></trkpt>
      <trkpt lat="37.398155" lon="128.031752"><ele>637.0</ele></trkpt>
      <trkpt lat="37.397833" lon="128.031326"><ele>641.4</ele></trkpt>
      <trkpt lat="37.397678" lon="128.031201"><ele>643.0</ele></trkpt>
      <trkpt lat="37.397077" lon="128.030499"><ele>668.6</ele></trkpt>
      <trkpt lat="37.396525" lon="128.030450"><ele>661.5</ele></trkpt>
      <trkpt lat="37.396082" lon="128.030343"><ele>655.6</ele></trkpt>
      <trkpt lat="37.395297" lon="128.030536"><ele>662.2</ele></trkpt>
      <trkpt lat="37.394922" lon="128.030515"><ele>668.0</ele></trkpt>
      <trkpt lat="37.394309" lon="128.030686"><ele>663.6</ele></trkpt>
      <trkpt lat="37.393831" lon="128.031073"><ele>670.0</ele></trkpt>
      <trkpt lat="37.393303" lon="128.031631"><ele>683.5</ele></trkpt>
      <trkpt lat="37.392468" lon="128.031373"><ele>681.2</ele></trkpt>
      <trkpt lat="37.391734" lon="128.031416"><ele>684.3</ele></trkpt>
      <trkpt lat="37.390967" lon="128.031566"><ele>684.3</ele></trkpt>
      <trkpt lat="37.390285" lon="128.031888"><ele>717.4</ele></trkpt>
      <trkpt lat="37.389825" lon="128.031995"><ele>734.4</ele></trkpt>
      <trkpt lat="37.389348" lon="128.032424"><ele>739.9</ele></trkpt>
      <trkpt lat="37.388994" lon="128.033079"><ele>732.0</ele></trkpt>
      <trkpt lat="37.388845" lon="128.033540"><ele>741.0</ele></trkpt>
      <trkpt lat="37.388474" lon="128.034223"><ele>754.0</ele></trkpt>
      <trkpt lat="37.388205" lon="128.034592"><ele>758.2</ele></trkpt>
      <trkpt lat="37.387933" lon="128.035536"><ele>781.3</ele></trkpt>
      <trkpt lat="37.387720" lon="128.035976"><ele>802.2</ele></trkpt>
      <trkpt lat="37.387677" lon="128.036501"><ele>820.2</ele></trkpt>
      <trkpt lat="37.387319" lon="128.036823"><ele>827.2</ele></trkpt>
      <trkpt lat="37.386965" lon="128.037254"><ele>838.9</ele></trkpt>
      <trkpt lat="37.386773" lon="128.037767"><ele>845.3</ele></trkpt>
      <trkpt lat="37.386637" lon="128.038433"><ele>863.5</ele></trkpt>
      <trkpt lat="37.386296" lon="128.039162"><ele>861.1</ele></trkpt>
      <trkpt lat="37.385993" lon="128.038915"><ele>858.6</ele></trkpt>
      <trkpt lat="37.385695" lon="128.039029"><ele>854.7</ele></trkpt>
      <trkpt lat="37.385443" lon="128.038969"><ele>860.7</ele></trkpt>
      <trkpt lat="37.385000" lon="128.039232"><ele>877.2</ele></trkpt>
      <trkpt lat="37.384761" lon="128.039516"><ele>878.7</ele></trkpt>
      <trkpt lat="37.384557" lon="128.039913"><ele>875.2</ele></trkpt>
      <trkpt lat="37.384335" lon="128.040085"><ele>874.1</ele></trkpt>
      <trkpt lat="37.383236" lon="128.039952"><ele>882.4</ele></trkpt>
      <trkpt lat="37.383039" lon="128.040063"><ele>886.8</ele></trkpt>
      <trkpt lat="37.382515" lon="128.039988"><ele>890.6</ele></trkpt>
      <trkpt lat="37.382191" lon="128.039823"><ele>882.8</ele></trkpt>
      <trkpt lat="37.381965" lon="128.039634"><ele>879.1</ele></trkpt>
      <trkpt lat="37.381403" lon="128.039699"><ele>886.0</ele></trkpt>
      <trkpt lat="37.380976" lon="128.039870"><ele>899.9</ele></trkpt>
      <trkpt lat="37.380021" lon="128.039634"><ele>905.3</ele></trkpt>
      <trkpt lat="37.379459" lon="128.039291"><ele>913.0</ele></trkpt>
      <trkpt lat="37.379271" lon="128.039012"><ele>915.6</ele></trkpt>
      <trkpt lat="37.377856" lon="128.038862"><ele>938.2</ele></trkpt>
      <trkpt lat="37.377583" lon="128.038626"><ele>941.7</ele></trkpt>
      <trkpt lat="37.377089" lon="128.038690"><ele>960.5</ele></trkpt>
      <trkpt lat="37.376645" lon="128.038433"><ele>958.2</ele></trkpt>
      <trkpt lat="37.375912" lon="128.038647"><ele>954.0</ele></trkpt>
      <trkpt lat="37.374838" lon="128.038712"><ele>962.4</ele></trkpt>
      <trkpt lat="37.374292" lon="128.039012"><ele>975.4</ele></trkpt>
      <trkpt lat="37.373934" lon="128.039012"><ele>984.9</ele></trkpt>
      <trkpt lat="37.373627" lon="128.038754"><ele>988.2</ele></trkpt>
      <trkpt lat="37.373047" lon="128.038583"><ele>995.3</ele></trkpt>
      <trkpt lat="37.372399" lon="128.038239"><ele>1023.4</ele></trkpt>
      <trkpt lat="37.372041" lon="128.038175"><ele>1035.5</ele></trkpt>
      <trkpt lat="37.371457" lon="128.038407"><ele>1028.7</ele></trkpt>
      <trkpt lat="37.371133" lon="128.038241"><ele>1039.5</ele></trkpt>
      <trkpt lat="37.370813" lon="128.038261"><ele>1049.0</ele></trkpt>
      <trkpt lat="37.370523" lon="128.038390"><ele>1046.4</ele></trkpt>
      <trkpt lat="37.370080" lon="128.038862"><ele>1029.6</ele></trkpt>
      <trkpt lat="37.369765" lon="128.039495"><ele>1021.4</ele></trkpt>
      <trkpt lat="37.369279" lon="128.039823"><ele>1009.6</ele></trkpt>
      <trkpt lat="37.368921" lon="128.040155"><ele>1004.7</ele></trkpt>
      <trkpt lat="37.368187" lon="128.040997"><ele>989.4</ele></trkpt>
      <trkpt lat="37.367620" lon="128.041539"><ele>998.3</ele></trkpt>
      <trkpt lat="37.366806" lon="128.042617"><ele>991.3</ele></trkpt>
      <trkpt lat="37.366721" lon="128.043089"><ele>989.7</ele></trkpt>
      <trkpt lat="37.366338" lon="128.044050"><ele>1013.5</ele></trkpt>
      <trkpt lat="37.365793" lon="128.044997"><ele>1047.6</ele></trkpt>
      <trkpt lat="37.365663" lon="128.045510"><ele>1068.5</ele></trkpt>
      <trkpt lat="37.365689" lon="128.045724"><ele>1079.0</ele></trkpt>
      <trkpt lat="37.365522" lon="128.046092"><ele>1098.9</ele></trkpt>
      <trkpt lat="37.365508" lon="128.046404"><ele>1114.9</ele></trkpt>
      <trkpt lat="37.365650" lon="128.046672"><ele>1131.6</ele></trkpt>
      <trkpt lat="37.365683" lon="128.046981"><ele>1144.9</ele></trkpt>
      <trkpt lat="37.365544" lon="128.047416"><ele>1154.7</ele></trkpt>
      <trkpt lat="37.365147" lon="128.048009"><ele>1169.8</ele></trkpt>
      <trkpt lat="37.365126" lon="128.048258"><ele>1170.6</ele></trkpt>
      <trkpt lat="37.365215" lon="128.048465"><ele>1172.5</ele></trkpt>
      <trkpt lat="37.365188" lon="128.048596"><ele>1171.8</ele></trkpt>
      <trkpt lat="37.365227" lon="128.048830"><ele>1170.9</ele></trkpt>
      <trkpt lat="37.365359" lon="128.049205"><ele>1171.0</ele></trkpt>
      <trkpt lat="37.365708" lon="128.049681"><ele>1176.3</ele></trkpt>
      <trkpt lat="37.365788" lon="128.049670"><ele>1176.9</ele></trkpt>
      <trkpt lat="37.366121" lon="128.049914"><ele>1183.2</ele></trkpt>
      <trkpt lat="37.366169" lon="128.050097"><ele>1185.8</ele></trkpt>
      <trkpt lat="37.366313" lon="128.050211"><ele>1190.6</ele></trkpt>
      <trkpt lat="37.366431" lon="128.050466"><ele>1198.0</ele></trkpt>
      <trkpt lat="37.366363" lon="128.050869"><ele>1204.4</ele></trkpt>
      <trkpt lat="37.366297" lon="128.050924"><ele>1202.7</ele></trkpt>
      <trkpt lat="37.366260" lon="128.051152"><ele>1203.9</ele></trkpt>
      <trkpt lat="37.366180" lon="128.051236"><ele>1202.6</ele></trkpt>
      <trkpt lat="37.366200" lon="128.051359"><ele>1203.8</ele></trkpt>
      <trkpt lat="37.366112" lon="128.051451"><ele>1203.9</ele></trkpt>
      <trkpt lat="37.366141" lon="128.051535"><ele>1205.2</ele></trkpt>
      <trkpt lat="37.366022" lon="128.051899"><ele>1208.7</ele></trkpt>
      <trkpt lat="37.365958" lon="128.052655"><ele>1201.5</ele></trkpt>
      <trkpt lat="37.365739" lon="128.052907"><ele>1187.9</ele></trkpt>
      <trkpt lat="37.365780" lon="128.053172"><ele>1184.3</ele></trkpt>
      <trkpt lat="37.365687" lon="128.053470"><ele>1181.1</ele></trkpt>
      <trkpt lat="37.365754" lon="128.053764"><ele>1186.3</ele></trkpt>
      <trkpt lat="37.365905" lon="128.053971"><ele>1186.9</ele></trkpt>
      <trkpt lat="37.365981" lon="128.053978"><ele>1182.0</ele></trkpt>
      <trkpt lat="37.366025" lon="128.053815"><ele>1177.0</ele></trkpt>
      <trkpt lat="37.366115" lon="128.053886"><ele>1171.8</ele></trkpt>
      <trkpt lat="37.366267" lon="128.053738"><ele>1165.4</ele></trkpt>
      <trkpt lat="37.366453" lon="128.053728"><ele>1157.9</ele></trkpt>
      <trkpt lat="37.366604" lon="128.053822"><ele>1150.5</ele></trkpt>
      <trkpt lat="37.366728" lon="128.053992"><ele>1141.6</ele></trkpt>
      <trkpt lat="37.366913" lon="128.054077"><ele>1133.1</ele></trkpt>
      <trkpt lat="37.366942" lon="128.054218"><ele>1130.1</ele></trkpt>
      <trkpt lat="37.367284" lon="128.054333"><ele>1113.9</ele></trkpt>
      <trkpt lat="37.367316" lon="128.054405"><ele>1110.3</ele></trkpt>
      <trkpt lat="37.367548" lon="128.054547"><ele>1097.5</ele></trkpt>
      <trkpt lat="37.367786" lon="128.054594"><ele>1088.4</ele></trkpt>
      <trkpt lat="37.368171" lon="128.054815"><ele>1067.3</ele></trkpt>
      <trkpt lat="37.368630" lon="128.054948"><ele>1048.1</ele></trkpt>
      <trkpt lat="37.368855" lon="128.055054"><ele>1036.1</ele></trkpt>
      <trkpt lat="37.368905" lon="128.055180"><ele>1030.7</ele></trkpt>
      <trkpt lat="37.369318" lon="128.055348"><ele>1012.2</ele></trkpt>
      <trkpt lat="37.369398" lon="128.055325"><ele>1008.7</ele></trkpt>
      <trkpt lat="37.369541" lon="128.055436"><ele>1005.5</ele></trkpt>
      <trkpt lat="37.370014" lon="128.055409"><ele>989.8</ele></trkpt>
      <trkpt lat="37.370224" lon="128.055324"><ele>980.5</ele></trkpt>
      <trkpt lat="37.370504" lon="128.055299"><ele>968.9</ele></trkpt>
      <trkpt lat="37.370629" lon="128.055151"><ele>966.4</ele></trkpt>
      <trkpt lat="37.371279" lon="128.054785"><ele>939.7</ele></trkpt>
      <trkpt lat="37.371459" lon="128.054523"><ele>933.0</ele></trkpt>
      <trkpt lat="37.371558" lon="128.054542"><ele>928.3</ele></trkpt>
    </trkseg>
  </trk>
</gpx>
