<?xml version="1.0" encoding="UTF-8"?>
<gpx version="1.1" creator="kr-100-mountains route-harvester"
     xmlns="http://www.topografix.com/GPX/1/1"
     xmlns:k100="https://github.com/jay-jang/kr-100-mountains/ns/1"
     xmlns:xsi="http://www.w3.org/2001/XMLSchema-instance"
     xsi:schemaLocation="http://www.topografix.com/GPX/1/1 http://www.topografix.com/GPX/1/1/gpx.xsd">
  <metadata>
    <name>치악산 · 부곡탐방지원센터-곧은재-비로봉 (대안 1) (OSM 계산 경로)</name>
    <desc>실제 GPS 기록이 아닙니다. OpenStreetMap에 등록된 등산로 선형 위에서 계산한 경로이며, 현장 통제·훼손·출입 제한·계절 통제를 반영하지 않을 수 있습니다. 산행 전 공식 안내를 확인하세요.</desc>
    <time>2026-08-04T05:22:38.327Z</time>
    <link href="https://www.openstreetmap.org/copyright"><text>© OpenStreetMap contributors (ODbL 1.0)</text></link>
    <link href="https://registry.opendata.aws/terrain-tiles/"><text>Elevation: SRTM 1 arc-second (NASA/USGS) via AWS Terrain Tiles</text></link>
    <extensions>
      <k100:provenance>osm-routed</k100:provenance>
      <k100:not_a_recorded_track>true</k100:not_a_recorded_track>
      <k100:mountain_id>chiaksan</k100:mountain_id>
      <k100:mountain_name>치악산</k100:mountain_name>
      <k100:route_id>chiaksan-e1c5021f</k100:route_id>
      <k100:route_index>3</k100:route_index>
      <k100:route_name>부곡탐방지원센터-곧은재-비로봉</k100:route_name>
      <k100:variant>1</k100:variant>
      <k100:source>OpenStreetMap via Overpass API</k100:source>
      <k100:license>ODbL-1.0</k100:license>
      <k100:attribution>© OpenStreetMap contributors</k100:attribution>
      <k100:elevation_source>SRTM 1 arc-second (NASA/USGS) — AWS Terrain Tiles 배포본. 지형 DEM 추정 고도이며 실측 아님</k100:elevation_source>
      <k100:algorithm>dijkstra-grid-v1</k100:algorithm>
      <k100:osm_snapshot>2026-08-04</k100:osm_snapshot>
      <k100:snap_trailhead_m>49</k100:snap_trailhead_m>
      <k100:snap_summit_m>128</k100:snap_summit_m>
      <k100:validation_score>89</k100:validation_score>
      <k100:validation_status>accepted</k100:validation_status>
    </extensions>
  </metadata>
  <trk>
    <name>치악산 · 부곡탐방지원센터-곧은재-비로봉 (대안 1) (OSM 계산 경로)</name>
    <desc>실제 GPS 기록이 아닙니다. OpenStreetMap에 등록된 등산로 선형 위에서 계산한 경로이며, 현장 통제·훼손·출입 제한·계절 통제를 반영하지 않을 수 있습니다. 산행 전 공식 안내를 확인하세요.</desc>
    <trkseg>
      <trkpt lat="37.333400" lon="128.073371"><ele>522.6</ele></trkpt>
      <trkpt lat="37.333693" lon="128.073179"><ele>529.5</ele></trkpt>
      <trkpt lat="37.333909" lon="128.072071"><ele>531.2</ele></trkpt>
      <trkpt lat="37.334164" lon="128.071679"><ele>537.1</ele></trkpt>
      <trkpt lat="37.334377" lon="128.071471"><ele>541.7</ele></trkpt>
      <trkpt lat="37.334744" lon="128.070391"><ele>539.1</ele></trkpt>
      <trkpt lat="37.334840" lon="128.069530"><ele>542.0</ele></trkpt>
      <trkpt lat="37.334725" lon="128.068751"><ele>542.1</ele></trkpt>
      <trkpt lat="37.334729" lon="128.068233"><ele>543.6</ele></trkpt>
      <trkpt lat="37.334910" lon="128.068021"><ele>547.8</ele></trkpt>
      <trkpt lat="37.335168" lon="128.067879"><ele>551.3</ele></trkpt>
      <trkpt lat="37.335213" lon="128.067709"><ele>550.8</ele></trkpt>
      <trkpt lat="37.335191" lon="128.067228"><ele>552.7</ele></trkpt>
      <trkpt lat="37.335247" lon="128.066846"><ele>554.2</ele></trkpt>
      <trkpt lat="37.334988" lon="128.065472"><ele>559.9</ele></trkpt>
      <trkpt lat="37.334774" lon="128.064892"><ele>565.3</ele></trkpt>
      <trkpt lat="37.334898" lon="128.064609"><ele>566.7</ele></trkpt>
      <trkpt lat="37.334865" lon="128.064241"><ele>564.0</ele></trkpt>
      <trkpt lat="37.334966" lon="128.063972"><ele>565.6</ele></trkpt>
      <trkpt lat="37.334966" lon="128.063533"><ele>565.8</ele></trkpt>
      <trkpt lat="37.335202" lon="128.063165"><ele>575.9</ele></trkpt>
      <trkpt lat="37.335191" lon="128.063009"><ele>573.9</ele></trkpt>
      <trkpt lat="37.335000" lon="128.062655"><ele>565.4</ele></trkpt>
      <trkpt lat="37.335191" lon="128.062386"><ele>568.6</ele></trkpt>
      <trkpt lat="37.335450" lon="128.062202"><ele>572.4</ele></trkpt>
      <trkpt lat="37.335799" lon="128.062174"><ele>580.1</ele></trkpt>
      <trkpt lat="37.335968" lon="128.062032"><ele>579.2</ele></trkpt>
      <trkpt lat="37.336328" lon="128.061948"><ele>573.3</ele></trkpt>
      <trkpt lat="37.336789" lon="128.061594"><ele>581.2</ele></trkpt>
      <trkpt lat="37.336733" lon="128.061424"><ele>578.8</ele></trkpt>
      <trkpt lat="37.337138" lon="128.060532"><ele>586.9</ele></trkpt>
      <trkpt lat="37.337127" lon="128.060220"><ele>587.1</ele></trkpt>
      <trkpt lat="37.337206" lon="128.059909"><ele>587.0</ele></trkpt>
      <trkpt lat="37.337183" lon="128.059088"><ele>592.6</ele></trkpt>
      <trkpt lat="37.337330" lon="128.058805"><ele>594.4</ele></trkpt>
      <trkpt lat="37.337611" lon="128.058564"><ele>596.0</ele></trkpt>
      <trkpt lat="37.337791" lon="128.058507"><ele>596.9</ele></trkpt>
      <trkpt lat="37.337679" lon="128.058210"><ele>596.4</ele></trkpt>
      <trkpt lat="37.337701" lon="128.057842"><ele>602.0</ele></trkpt>
      <trkpt lat="37.337892" lon="128.057573"><ele>605.1</ele></trkpt>
      <trkpt lat="37.338241" lon="128.057417"><ele>606.7</ele></trkpt>
      <trkpt lat="37.338331" lon="128.057219"><ele>609.0</ele></trkpt>
      <trkpt lat="37.338241" lon="128.056894"><ele>609.5</ele></trkpt>
      <trkpt lat="37.338219" lon="128.056511"><ele>610.8</ele></trkpt>
      <trkpt lat="37.338320" lon="128.056299"><ele>612.0</ele></trkpt>
      <trkpt lat="37.338309" lon="128.055973"><ele>611.7</ele></trkpt>
      <trkpt lat="37.338365" lon="128.055704"><ele>611.7</ele></trkpt>
      <trkpt lat="37.338478" lon="128.055464"><ele>614.4</ele></trkpt>
      <trkpt lat="37.338421" lon="128.055166"><ele>616.6</ele></trkpt>
      <trkpt lat="37.338455" lon="128.054897"><ele>618.4</ele></trkpt>
      <trkpt lat="37.338601" lon="128.054614"><ele>617.8</ele></trkpt>
      <trkpt lat="37.338613" lon="128.054374"><ele>619.8</ele></trkpt>
      <trkpt lat="37.338410" lon="128.053552"><ele>626.6</ele></trkpt>
      <trkpt lat="37.338444" lon="128.053199"><ele>631.0</ele></trkpt>
      <trkpt lat="37.338624" lon="128.053000"><ele>628.6</ele></trkpt>
      <trkpt lat="37.339322" lon="128.052859"><ele>639.6</ele></trkpt>
      <trkpt lat="37.339626" lon="128.052746"><ele>641.2</ele></trkpt>
      <trkpt lat="37.340312" lon="128.052222"><ele>642.6</ele></trkpt>
      <trkpt lat="37.340335" lon="128.051896"><ele>645.5</ele></trkpt>
      <trkpt lat="37.340436" lon="128.051542"><ele>648.4</ele></trkpt>
      <trkpt lat="37.340650" lon="128.051245"><ele>648.2</ele></trkpt>
      <trkpt lat="37.340875" lon="128.051089"><ele>646.5</ele></trkpt>
      <trkpt lat="37.340954" lon="128.050834"><ele>648.3</ele></trkpt>
      <trkpt lat="37.340965" lon="128.050410"><ele>656.2</ele></trkpt>
      <trkpt lat="37.340830" lon="128.049900"><ele>665.8</ele></trkpt>
      <trkpt lat="37.340470" lon="128.048980"><ele>674.0</ele></trkpt>
      <trkpt lat="37.340335" lon="128.048484"><ele>673.6</ele></trkpt>
      <trkpt lat="37.340267" lon="128.047904"><ele>673.6</ele></trkpt>
      <trkpt lat="37.340143" lon="128.047465"><ele>678.1</ele></trkpt>
      <trkpt lat="37.339997" lon="128.047224"><ele>680.0</ele></trkpt>
      <trkpt lat="37.339806" lon="128.046757"><ele>688.0</ele></trkpt>
      <trkpt lat="37.339772" lon="128.045639"><ele>715.1</ele></trkpt>
      <trkpt lat="37.339817" lon="128.045243"><ele>722.6</ele></trkpt>
      <trkpt lat="37.339750" lon="128.044959"><ele>727.5</ele></trkpt>
      <trkpt lat="37.339614" lon="128.044832"><ele>729.0</ele></trkpt>
      <trkpt lat="37.339367" lon="128.044719"><ele>726.8</ele></trkpt>
      <trkpt lat="37.338782" lon="128.044068"><ele>726.1</ele></trkpt>
      <trkpt lat="37.338579" lon="128.043572"><ele>734.2</ele></trkpt>
      <trkpt lat="37.338556" lon="128.043161"><ele>741.1</ele></trkpt>
      <trkpt lat="37.338939" lon="128.042213"><ele>757.0</ele></trkpt>
      <trkpt lat="37.339029" lon="128.041873"><ele>762.9</ele></trkpt>
      <trkpt lat="37.338928" lon="128.040854"><ele>770.8</ele></trkpt>
      <trkpt lat="37.338984" lon="128.040486"><ele>776.6</ele></trkpt>
      <trkpt lat="37.338969" lon="128.039649"><ele>793.1</ele></trkpt>
      <trkpt lat="37.338905" lon="128.039353"><ele>803.8</ele></trkpt>
      <trkpt lat="37.338939" lon="128.038714"><ele>823.5</ele></trkpt>
      <trkpt lat="37.339153" lon="128.038203"><ele>834.0</ele></trkpt>
      <trkpt lat="37.339456" lon="128.037844"><ele>845.7</ele></trkpt>
      <trkpt lat="37.339525" lon="128.037669"><ele>850.4</ele></trkpt>
      <trkpt lat="37.339540" lon="128.037176"><ele>856.3</ele></trkpt>
      <trkpt lat="37.339988" lon="128.037370"><ele>860.9</ele></trkpt>
      <trkpt lat="37.340329" lon="128.037327"><ele>866.0</ele></trkpt>
      <trkpt lat="37.340927" lon="128.037446"><ele>882.4</ele></trkpt>
      <trkpt lat="37.341045" lon="128.037526"><ele>885.1</ele></trkpt>
      <trkpt lat="37.341260" lon="128.037856"><ele>894.5</ele></trkpt>
      <trkpt lat="37.341783" lon="128.037999"><ele>907.6</ele></trkpt>
      <trkpt lat="37.342310" lon="128.038519"><ele>911.3</ele></trkpt>
      <trkpt lat="37.343062" lon="128.039024"><ele>920.6</ele></trkpt>
      <trkpt lat="37.343309" lon="128.039155"><ele>929.0</ele></trkpt>
      <trkpt lat="37.343436" lon="128.039172"><ele>931.5</ele></trkpt>
      <trkpt lat="37.343513" lon="128.039061"><ele>931.3</ele></trkpt>
      <trkpt lat="37.344167" lon="128.039168"><ele>941.0</ele></trkpt>
      <trkpt lat="37.344204" lon="128.039231"><ele>942.1</ele></trkpt>
      <trkpt lat="37.344645" lon="128.039188"><ele>951.6</ele></trkpt>
      <trkpt lat="37.344699" lon="128.039045"><ele>950.8</ele></trkpt>
      <trkpt lat="37.344697" lon="128.038884"><ele>948.4</ele></trkpt>
      <trkpt lat="37.344940" lon="128.038652"><ele>945.5</ele></trkpt>
      <trkpt lat="37.345002" lon="128.038417"><ele>945.0</ele></trkpt>
      <trkpt lat="37.345271" lon="128.038134"><ele>944.9</ele></trkpt>
      <trkpt lat="37.345767" lon="128.037948"><ele>951.5</ele></trkpt>
      <trkpt lat="37.345797" lon="128.037878"><ele>952.0</ele></trkpt>
      <trkpt lat="37.345888" lon="128.037863"><ele>953.1</ele></trkpt>
      <trkpt lat="37.346042" lon="128.037711"><ele>956.2</ele></trkpt>
      <trkpt lat="37.346165" lon="128.037309"><ele>957.1</ele></trkpt>
      <trkpt lat="37.346310" lon="128.037161"><ele>956.5</ele></trkpt>
      <trkpt lat="37.346308" lon="128.037061"><ele>954.8</ele></trkpt>
      <trkpt lat="37.346434" lon="128.036992"><ele>954.3</ele></trkpt>
      <trkpt lat="37.346565" lon="128.036706"><ele>945.9</ele></trkpt>
      <trkpt lat="37.346714" lon="128.036609"><ele>940.8</ele></trkpt>
      <trkpt lat="37.346714" lon="128.036565"><ele>939.7</ele></trkpt>
      <trkpt lat="37.346793" lon="128.036558"><ele>936.6</ele></trkpt>
      <trkpt lat="37.346862" lon="128.036408"><ele>931.1</ele></trkpt>
      <trkpt lat="37.346962" lon="128.036529"><ele>929.9</ele></trkpt>
      <trkpt lat="37.347514" lon="128.036480"><ele>913.5</ele></trkpt>
      <trkpt lat="37.348030" lon="128.036551"><ele>912.6</ele></trkpt>
      <trkpt lat="37.348310" lon="128.036774"><ele>911.6</ele></trkpt>
      <trkpt lat="37.348398" lon="128.036963"><ele>907.2</ele></trkpt>
      <trkpt lat="37.348583" lon="128.036954"><ele>903.6</ele></trkpt>
      <trkpt lat="37.348722" lon="128.037007"><ele>902.9</ele></trkpt>
      <trkpt lat="37.348842" lon="128.036990"><ele>903.0</ele></trkpt>
      <trkpt lat="37.348860" lon="128.036936"><ele>902.9</ele></trkpt>
      <trkpt lat="37.348923" lon="128.036975"><ele>903.2</ele></trkpt>
      <trkpt lat="37.349031" lon="128.036931"><ele>903.9</ele></trkpt>
      <trkpt lat="37.349313" lon="128.036710"><ele>903.3</ele></trkpt>
      <trkpt lat="37.349443" lon="128.036727"><ele>903.4</ele></trkpt>
      <trkpt lat="37.349879" lon="128.036995"><ele>897.8</ele></trkpt>
      <trkpt lat="37.350052" lon="128.036824"><ele>895.0</ele></trkpt>
      <trkpt lat="37.350236" lon="128.036778"><ele>894.5</ele></trkpt>
      <trkpt lat="37.350419" lon="128.036658"><ele>893.9</ele></trkpt>
      <trkpt lat="37.350550" lon="128.036676"><ele>894.0</ele></trkpt>
      <trkpt lat="37.350705" lon="128.036812"><ele>890.3</ele></trkpt>
      <trkpt lat="37.350966" lon="128.036915"><ele>883.9</ele></trkpt>
      <trkpt lat="37.351051" lon="128.037094"><ele>882.0</ele></trkpt>
      <trkpt lat="37.351542" lon="128.037141"><ele>872.6</ele></trkpt>
      <trkpt lat="37.351736" lon="128.037282"><ele>871.4</ele></trkpt>
      <trkpt lat="37.351960" lon="128.037599"><ele>870.5</ele></trkpt>
      <trkpt lat="37.352419" lon="128.037677"><ele>876.6</ele></trkpt>
      <trkpt lat="37.352701" lon="128.037922"><ele>875.8</ele></trkpt>
      <trkpt lat="37.353232" lon="128.037968"><ele>877.9</ele></trkpt>
      <trkpt lat="37.353976" lon="128.038253"><ele>891.9</ele></trkpt>
      <trkpt lat="37.354324" lon="128.038087"><ele>899.2</ele></trkpt>
      <trkpt lat="37.354591" lon="128.038153"><ele>901.2</ele></trkpt>
      <trkpt lat="37.354877" lon="128.038353"><ele>905.0</ele></trkpt>
      <trkpt lat="37.355148" lon="128.038286"><ele>909.2</ele></trkpt>
      <trkpt lat="37.355228" lon="128.038328"><ele>910.4</ele></trkpt>
      <trkpt lat="37.355415" lon="128.038515"><ele>909.0</ele></trkpt>
      <trkpt lat="37.355592" lon="128.038835"><ele>909.0</ele></trkpt>
      <trkpt lat="37.355844" lon="128.038922"><ele>910.6</ele></trkpt>
      <trkpt lat="37.356027" lon="128.038884"><ele>911.2</ele></trkpt>
      <trkpt lat="37.356085" lon="128.038958"><ele>913.3</ele></trkpt>
      <trkpt lat="37.356333" lon="128.039012"><ele>915.1</ele></trkpt>
      <trkpt lat="37.356489" lon="128.039308"><ele>921.3</ele></trkpt>
      <trkpt lat="37.356672" lon="128.039501"><ele>929.7</ele></trkpt>
      <trkpt lat="37.356721" lon="128.039702"><ele>936.6</ele></trkpt>
      <trkpt lat="37.356774" lon="128.039694"><ele>937.5</ele></trkpt>
      <trkpt lat="37.356798" lon="128.039768"><ele>939.9</ele></trkpt>
      <trkpt lat="37.356891" lon="128.039758"><ele>941.7</ele></trkpt>
      <trkpt lat="37.356892" lon="128.039914"><ele>945.6</ele></trkpt>
      <trkpt lat="37.357085" lon="128.040038"><ele>953.4</ele></trkpt>
      <trkpt lat="37.357153" lon="128.040336"><ele>960.4</ele></trkpt>
      <trkpt lat="37.357098" lon="128.040626"><ele>965.4</ele></trkpt>
      <trkpt lat="37.357246" lon="128.041085"><ele>973.5</ele></trkpt>
      <trkpt lat="37.357194" lon="128.041613"><ele>984.7</ele></trkpt>
      <trkpt lat="37.357121" lon="128.041743"><ele>989.9</ele></trkpt>
      <trkpt lat="37.357014" lon="128.041815"><ele>993.8</ele></trkpt>
      <trkpt lat="37.356932" lon="128.042154"><ele>1003.8</ele></trkpt>
      <trkpt lat="37.357028" lon="128.042211"><ele>1004.2</ele></trkpt>
      <trkpt lat="37.357114" lon="128.042353"><ele>1002.8</ele></trkpt>
      <trkpt lat="37.357365" lon="128.042443"><ele>1001.5</ele></trkpt>
      <trkpt lat="37.357519" lon="128.042597"><ele>1003.2</ele></trkpt>
      <trkpt lat="37.357564" lon="128.042730"><ele>1005.1</ele></trkpt>
      <trkpt lat="37.357549" lon="128.042866"><ele>1006.1</ele></trkpt>
      <trkpt lat="37.357715" lon="128.043225"><ele>1006.8</ele></trkpt>
      <trkpt lat="37.357779" lon="128.043747"><ele>1009.4</ele></trkpt>
      <trkpt lat="37.357877" lon="128.043962"><ele>1013.9</ele></trkpt>
      <trkpt lat="37.357829" lon="128.044104"><ele>1016.0</ele></trkpt>
      <trkpt lat="37.357911" lon="128.044154"><ele>1018.6</ele></trkpt>
      <trkpt lat="37.357896" lon="128.044216"><ele>1019.7</ele></trkpt>
      <trkpt lat="37.357972" lon="128.044347"><ele>1025.2</ele></trkpt>
      <trkpt lat="37.358125" lon="128.044495"><ele>1032.9</ele></trkpt>
      <trkpt lat="37.358214" lon="128.044515"><ele>1034.7</ele></trkpt>
      <trkpt lat="37.358189" lon="128.044557"><ele>1035.7</ele></trkpt>
      <trkpt lat="37.358239" lon="128.044584"><ele>1037.7</ele></trkpt>
      <trkpt lat="37.358212" lon="128.044612"><ele>1038.1</ele></trkpt>
      <trkpt lat="37.358243" lon="128.044658"><ele>1040.6</ele></trkpt>
      <trkpt lat="37.358381" lon="128.044679"><ele>1045.5</ele></trkpt>
      <trkpt lat="37.358537" lon="128.044894"><ele>1061.5</ele></trkpt>
      <trkpt lat="37.358531" lon="128.044976"><ele>1065.1</ele></trkpt>
      <trkpt lat="37.358627" lon="128.045161"><ele>1073.6</ele></trkpt>
      <trkpt lat="37.358588" lon="128.045210"><ele>1073.4</ele></trkpt>
      <trkpt lat="37.358582" lon="128.045391"><ele>1075.5</ele></trkpt>
      <trkpt lat="37.358788" lon="128.045702"><ele>1080.2</ele></trkpt>
      <trkpt lat="37.358792" lon="128.046002"><ele>1087.8</ele></trkpt>
      <trkpt lat="37.358858" lon="128.046166"><ele>1094.2</ele></trkpt>
      <trkpt lat="37.358829" lon="128.046206"><ele>1094.9</ele></trkpt>
      <trkpt lat="37.358933" lon="128.046364"><ele>1100.4</ele></trkpt>
      <trkpt lat="37.358949" lon="128.046514"><ele>1103.2</ele></trkpt>
      <trkpt lat="37.359043" lon="128.046566"><ele>1102.4</ele></trkpt>
      <trkpt lat="37.359288" lon="128.046487"><ele>1095.1</ele></trkpt>
      <trkpt lat="37.359536" lon="128.046529"><ele>1090.5</ele></trkpt>
      <trkpt lat="37.359624" lon="128.046498"><ele>1089.8</ele></trkpt>
      <trkpt lat="37.359684" lon="128.046554"><ele>1089.8</ele></trkpt>
      <trkpt lat="37.359794" lon="128.046538"><ele>1089.5</ele></trkpt>
      <trkpt lat="37.359944" lon="128.046639"><ele>1089.9</ele></trkpt>
      <trkpt lat="37.360075" lon="128.046645"><ele>1090.1</ele></trkpt>
      <trkpt lat="37.360174" lon="128.046722"><ele>1089.8</ele></trkpt>
      <trkpt lat="37.360321" lon="128.046701"><ele>1090.8</ele></trkpt>
      <trkpt lat="37.360551" lon="128.046572"><ele>1091.9</ele></trkpt>
      <trkpt lat="37.360650" lon="128.046585"><ele>1093.2</ele></trkpt>
      <trkpt lat="37.360752" lon="128.046700"><ele>1094.5</ele></trkpt>
      <trkpt lat="37.360920" lon="128.046692"><ele>1094.6</ele></trkpt>
      <trkpt lat="37.361143" lon="128.046531"><ele>1092.4</ele></trkpt>
      <trkpt lat="37.361705" lon="128.046431"><ele>1101.8</ele></trkpt>
      <trkpt lat="37.362042" lon="128.046555"><ele>1110.9</ele></trkpt>
      <trkpt lat="37.362104" lon="128.046494"><ele>1112.9</ele></trkpt>
      <trkpt lat="37.362203" lon="128.046553"><ele>1116.4</ele></trkpt>
      <trkpt lat="37.362342" lon="128.046515"><ele>1119.4</ele></trkpt>
      <trkpt lat="37.362646" lon="128.046667"><ele>1124.6</ele></trkpt>
      <trkpt lat="37.363228" lon="128.046559"><ele>1133.1</ele></trkpt>
      <trkpt lat="37.363487" lon="128.046724"><ele>1140.2</ele></trkpt>
      <trkpt lat="37.363597" lon="128.046687"><ele>1143.6</ele></trkpt>
      <trkpt lat="37.363661" lon="128.046842"><ele>1145.4</ele></trkpt>
      <trkpt lat="37.363867" lon="128.046868"><ele>1151.9</ele></trkpt>
      <trkpt lat="37.364124" lon="128.047329"><ele>1166.0</ele></trkpt>
      <trkpt lat="37.364239" lon="128.047368"><ele>1168.2</ele></trkpt>
      <trkpt lat="37.364421" lon="128.047749"><ele>1166.9</ele></trkpt>
      <trkpt lat="37.364563" lon="128.047887"><ele>1165.9</ele></trkpt>
      <trkpt lat="37.364742" lon="128.047932"><ele>1167.3</ele></trkpt>
      <trkpt lat="37.364851" lon="128.048052"><ele>1166.9</ele></trkpt>
      <trkpt lat="37.364930" lon="128.048027"><ele>1168.0</ele></trkpt>
      <trkpt lat="37.365133" lon="128.048106"><ele>1170.5</ele></trkpt>
      <trkpt lat="37.365126" lon="128.048258"><ele>1170.6</ele></trkpt>
      <trkpt lat="37.365215" lon="128.048465"><ele>1172.5</ele></trkpt>
      <trkpt lat="37.365188" lon="128.048596"><ele>1171.8</ele></trkpt>
      <trkpt lat="37.365227" lon="128.048830"><ele>1170.9</ele></trkpt>
      <trkpt lat="37.365359" lon="128.049205"><ele>1171.0</ele></trkpt>
      <trkpt lat="37.365708" lon="128.049681"><ele>1176.3</ele></trkpt>
      <trkpt lat="37.365788" lon="128.049670"><ele>1176.9</ele></trkpt>
      <trkpt lat="37.366121" lon="128.049914"><ele>1183.2</ele></trkpt>
      <trkpt lat="37.366169" lon="128.050097"><ele>1185.8</ele></trkpt>
      <trkpt lat="37.366313" lon="128.050211"><ele>1190.6</ele></trkpt>
      <trkpt lat="37.366431" lon="128.050466"><ele>1198.0</ele></trkpt>
      <trkpt lat="37.366363" lon="128.050869"><ele>1204.4</ele></trkpt>
      <trkpt lat="37.366297" lon="128.050924"><ele>1202.7</ele></trkpt>
      <trkpt lat="37.366260" lon="128.051152"><ele>1203.9</ele></trkpt>
      <trkpt lat="37.366180" lon="128.051236"><ele>1202.6</ele></trkpt>
      <trkpt lat="37.366200" lon="128.051359"><ele>1203.8</ele></trkpt>
      <trkpt lat="37.366112" lon="128.051451"><ele>1203.9</ele></trkpt>
      <trkpt lat="37.366141" lon="128.051535"><ele>1205.2</ele></trkpt>
      <trkpt lat="37.366022" lon="128.051899"><ele>1208.7</ele></trkpt>
      <trkpt lat="37.365958" lon="128.052655"><ele>1201.5</ele></trkpt>
      <trkpt lat="37.365739" lon="128.052907"><ele>1187.9</ele></trkpt>
      <trkpt lat="37.365780" lon="128.053172"><ele>1184.3</ele></trkpt>
      <trkpt lat="37.365687" lon="128.053470"><ele>1181.1</ele></trkpt>
      <trkpt lat="37.365754" lon="128.053764"><ele>1186.3</ele></trkpt>
      <trkpt lat="37.365905" lon="128.053971"><ele>1186.9</ele></trkpt>
      <trkpt lat="37.365981" lon="128.053978"><ele>1182.0</ele></trkpt>
      <trkpt lat="37.366025" lon="128.053815"><ele>1177.0</ele></trkpt>
      <trkpt lat="37.366115" lon="128.053886"><ele>1171.8</ele></trkpt>
      <trkpt lat="37.366267" lon="128.053738"><ele>1165.4</ele></trkpt>
      <trkpt lat="37.366453" lon="128.053728"><ele>1157.9</ele></trkpt>
      <trkpt lat="37.366604" lon="128.053822"><ele>1150.5</ele></trkpt>
      <trkpt lat="37.366728" lon="128.053992"><ele>1141.6</ele></trkpt>
      <trkpt lat="37.366913" lon="128.054077"><ele>1133.1</ele></trkpt>
      <trkpt lat="37.366942" lon="128.054218"><ele>1130.1</ele></trkpt>
      <trkpt lat="37.367284" lon="128.054333"><ele>1113.9</ele></trkpt>
      <trkpt lat="37.367316" lon="128.054405"><ele>1110.3</ele></trkpt>
      <trkpt lat="37.367548" lon="128.054547"><ele>1097.5</ele></trkpt>
      <trkpt lat="37.367786" lon="128.054594"><ele>1088.4</ele></trkpt>
      <trkpt lat="37.368171" lon="128.054815"><ele>1067.3</ele></trkpt>
      <trkpt lat="37.368630" lon="128.054948"><ele>1048.1</ele></trkpt>
      <trkpt lat="37.368855" lon="128.055054"><ele>1036.1</ele></trkpt>
      <trkpt lat="37.368905" lon="128.055180"><ele>1030.7</ele></trkpt>
      <trkpt lat="37.369318" lon="128.055348"><ele>1012.2</ele></trkpt>
      <trkpt lat="37.369398" lon="128.055325"><ele>1008.7</ele></trkpt>
      <trkpt lat="37.369541" lon="128.055436"><ele>1005.5</ele></trkpt>
      <trkpt lat="37.370014" lon="128.055409"><ele>989.8</ele></trkpt>
      <trkpt lat="37.370224" lon="128.055324"><ele>980.5</ele></trkpt>
      <trkpt lat="37.370504" lon="128.055299"><ele>968.9</ele></trkpt>
      <trkpt lat="37.370629" lon="128.055151"><ele>966.4</ele></trkpt>
      <trkpt lat="37.371279" lon="128.054785"><ele>939.7</ele></trkpt>
      <trkpt lat="37.371459" lon="128.054523"><ele>933.0</ele></trkpt>
      <trkpt lat="37.371558" lon="128.054542"><ele>928.3</ele></trkpt>
    </trkseg>
  </trk>
</gpx>
