<?xml version="1.0" encoding="UTF-8"?>
<gpx version="1.1" creator="kr-100-mountains route-harvester"
     xmlns="http://www.topografix.com/GPX/1/1"
     xmlns:k100="https://github.com/jay-jang/kr-100-mountains/ns/1"
     xmlns:xsi="http://www.w3.org/2001/XMLSchema-instance"
     xsi:schemaLocation="http://www.topografix.com/GPX/1/1 http://www.topografix.com/GPX/1/1/gpx.xsd">
  <metadata>
    <name>서대산 · 드림리조트-제비봉-정상 코스 (OSM 계산 경로)</name>
    <desc>실제 GPS 기록이 아닙니다. OpenStreetMap에 등록된 등산로 선형 위에서 계산한 경로이며, 현장 통제·훼손·출입 제한·계절 통제를 반영하지 않을 수 있습니다. 산행 전 공식 안내를 확인하세요.</desc>
    <time>2026-08-04T05:27:34.999Z</time>
    <link href="https://www.openstreetmap.org/copyright"><text>© OpenStreetMap contributors (ODbL 1.0)</text></link>
    <link href="https://registry.opendata.aws/terrain-tiles/"><text>Elevation: SRTM 1 arc-second (NASA/USGS) via AWS Terrain Tiles</text></link>
    <extensions>
      <k100:provenance>osm-routed</k100:provenance>
      <k100:not_a_recorded_track>true</k100:not_a_recorded_track>
      <k100:mountain_id>seodaesan</k100:mountain_id>
      <k100:mountain_name>서대산</k100:mountain_name>
      <k100:route_id>seodaesan-b1cfbd55</k100:route_id>
      <k100:route_index>2</k100:route_index>
      <k100:route_name>드림리조트-제비봉-정상 코스</k100:route_name>
      <k100:variant>0</k100:variant>
      <k100:source>OpenStreetMap via Overpass API</k100:source>
      <k100:license>ODbL-1.0</k100:license>
      <k100:attribution>© OpenStreetMap contributors</k100:attribution>
      <k100:elevation_source>SRTM 1 arc-second (NASA/USGS) — AWS Terrain Tiles 배포본. 지형 DEM 추정 고도이며 실측 아님</k100:elevation_source>
      <k100:algorithm>dijkstra-grid-v1</k100:algorithm>
      <k100:osm_snapshot>2026-08-04</k100:osm_snapshot>
      <k100:snap_trailhead_m>730</k100:snap_trailhead_m>
      <k100:snap_summit_m>232</k100:snap_summit_m>
      <k100:validation_score>68</k100:validation_score>
      <k100:validation_status>review</k100:validation_status>
    </extensions>
  </metadata>
  <trk>
    <name>서대산 · 드림리조트-제비봉-정상 코스 (OSM 계산 경로)</name>
    <desc>실제 GPS 기록이 아닙니다. OpenStreetMap에 등록된 등산로 선형 위에서 계산한 경로이며, 현장 통제·훼손·출입 제한·계절 통제를 반영하지 않을 수 있습니다. 산행 전 공식 안내를 확인하세요.</desc>
    <trkseg>
      <trkpt lat="36.247182" lon="127.537369"><ele>302.9</ele></trkpt>
      <trkpt lat="36.246801" lon="127.537913"><ele>285.1</ele></trkpt>
      <trkpt lat="36.246650" lon="127.538488"><ele>274.0</ele></trkpt>
      <trkpt lat="36.246474" lon="127.538693"><ele>268.9</ele></trkpt>
      <trkpt lat="36.246464" lon="127.539267"><ele>259.7</ele></trkpt>
      <trkpt lat="36.246286" lon="127.539644"><ele>251.4</ele></trkpt>
      <trkpt lat="36.246221" lon="127.539694"><ele>250.2</ele></trkpt>
      <trkpt lat="36.246258" lon="127.539997"><ele>247.0</ele></trkpt>
      <trkpt lat="36.246535" lon="127.540738"><ele>246.4</ele></trkpt>
      <trkpt lat="36.246775" lon="127.540996"><ele>242.7</ele></trkpt>
      <trkpt lat="36.246848" lon="127.541240"><ele>238.8</ele></trkpt>
      <trkpt lat="36.246833" lon="127.541641"><ele>231.5</ele></trkpt>
      <trkpt lat="36.246870" lon="127.541782"><ele>229.8</ele></trkpt>
      <trkpt lat="36.247157" lon="127.542474"><ele>221.7</ele></trkpt>
      <trkpt lat="36.247225" lon="127.542797"><ele>214.8</ele></trkpt>
      <trkpt lat="36.247389" lon="127.543238"><ele>207.5</ele></trkpt>
      <trkpt lat="36.247575" lon="127.543559"><ele>203.3</ele></trkpt>
      <trkpt lat="36.247931" lon="127.544014"><ele>196.4</ele></trkpt>
      <trkpt lat="36.248301" lon="127.544377"><ele>187.2</ele></trkpt>
      <trkpt lat="36.248707" lon="127.545101"><ele>181.7</ele></trkpt>
      <trkpt lat="36.249353" lon="127.545634"><ele>170.2</ele></trkpt>
      <trkpt lat="36.249611" lon="127.545698"><ele>165.6</ele></trkpt>
      <trkpt lat="36.249705" lon="127.545937"><ele>164.6</ele></trkpt>
      <trkpt lat="36.249836" lon="127.546120"><ele>164.6</ele></trkpt>
      <trkpt lat="36.250153" lon="127.546367"><ele>163.4</ele></trkpt>
      <trkpt lat="36.250153" lon="127.546501"><ele>163.4</ele></trkpt>
      <trkpt lat="36.250348" lon="127.546761"><ele>163.0</ele></trkpt>
      <trkpt lat="36.250639" lon="127.546960"><ele>163.0</ele></trkpt>
      <trkpt lat="36.250765" lon="127.547334"><ele>163.1</ele></trkpt>
      <trkpt lat="36.250574" lon="127.548205"><ele>163.1</ele></trkpt>
      <trkpt lat="36.250347" lon="127.549929"><ele>167.2</ele></trkpt>
      <trkpt lat="36.250242" lon="127.551387"><ele>171.9</ele></trkpt>
      <trkpt lat="36.250584" lon="127.551263"><ele>172.9</ele></trkpt>
      <trkpt lat="36.250672" lon="127.551303"><ele>173.9</ele></trkpt>
      <trkpt lat="36.250938" lon="127.551601"><ele>176.5</ele></trkpt>
      <trkpt lat="36.251198" lon="127.551709"><ele>179.8</ele></trkpt>
      <trkpt lat="36.251281" lon="127.551794"><ele>181.8</ele></trkpt>
      <trkpt lat="36.251365" lon="127.552456"><ele>190.1</ele></trkpt>
      <trkpt lat="36.251532" lon="127.552744"><ele>192.1</ele></trkpt>
      <trkpt lat="36.251658" lon="127.553316"><ele>194.9</ele></trkpt>
      <trkpt lat="36.251845" lon="127.553801"><ele>200.2</ele></trkpt>
      <trkpt lat="36.251809" lon="127.554294"><ele>207.3</ele></trkpt>
      <trkpt lat="36.251877" lon="127.554690"><ele>211.5</ele></trkpt>
      <trkpt lat="36.252106" lon="127.555070"><ele>213.3</ele></trkpt>
      <trkpt lat="36.252308" lon="127.555188"><ele>217.0</ele></trkpt>
      <trkpt lat="36.252410" lon="127.555339"><ele>221.7</ele></trkpt>
      <trkpt lat="36.252512" lon="127.556190"><ele>231.7</ele></trkpt>
      <trkpt lat="36.252585" lon="127.556425"><ele>234.9</ele></trkpt>
      <trkpt lat="36.252778" lon="127.556723"><ele>240.0</ele></trkpt>
      <trkpt lat="36.252892" lon="127.557016"><ele>242.0</ele></trkpt>
      <trkpt lat="36.253168" lon="127.557087"><ele>246.2</ele></trkpt>
      <trkpt lat="36.253634" lon="127.556923"><ele>257.1</ele></trkpt>
      <trkpt lat="36.254213" lon="127.556869"><ele>267.2</ele></trkpt>
      <trkpt lat="36.254730" lon="127.556959"><ele>273.1</ele></trkpt>
      <trkpt lat="36.254998" lon="127.557189"><ele>277.4</ele></trkpt>
      <trkpt lat="36.255331" lon="127.557225"><ele>284.7</ele></trkpt>
      <trkpt lat="36.255559" lon="127.557343"><ele>289.9</ele></trkpt>
      <trkpt lat="36.255724" lon="127.557655"><ele>291.5</ele></trkpt>
      <trkpt lat="36.255958" lon="127.557906"><ele>298.1</ele></trkpt>
      <trkpt lat="36.256847" lon="127.558204"><ele>318.4</ele></trkpt>
      <trkpt lat="36.257333" lon="127.558219"><ele>325.6</ele></trkpt>
      <trkpt lat="36.257551" lon="127.558426"><ele>330.6</ele></trkpt>
      <trkpt lat="36.257525" lon="127.558475"><ele>331.3</ele></trkpt>
      <trkpt lat="36.257315" lon="127.558426"><ele>329.3</ele></trkpt>
      <trkpt lat="36.257296" lon="127.558496"><ele>331.3</ele></trkpt>
      <trkpt lat="36.257461" lon="127.558662"><ele>335.8</ele></trkpt>
      <trkpt lat="36.257551" lon="127.558957"><ele>346.1</ele></trkpt>
      <trkpt lat="36.257670" lon="127.558963"><ele>347.7</ele></trkpt>
      <trkpt lat="36.257886" lon="127.558811"><ele>344.6</ele></trkpt>
      <trkpt lat="36.257939" lon="127.558821"><ele>345.6</ele></trkpt>
      <trkpt lat="36.258556" lon="127.559338"><ele>362.9</ele></trkpt>
      <trkpt lat="36.258623" lon="127.559336"><ele>362.9</ele></trkpt>
      <trkpt lat="36.258675" lon="127.559260"><ele>362.5</ele></trkpt>
      <trkpt lat="36.258639" lon="127.559051"><ele>356.8</ele></trkpt>
      <trkpt lat="36.258690" lon="127.558934"><ele>355.4</ele></trkpt>
      <trkpt lat="36.258986" lon="127.558830"><ele>360.4</ele></trkpt>
      <trkpt lat="36.259237" lon="127.558808"><ele>364.5</ele></trkpt>
      <trkpt lat="36.259441" lon="127.558595"><ele>361.8</ele></trkpt>
      <trkpt lat="36.259633" lon="127.558599"><ele>369.2</ele></trkpt>
      <trkpt lat="36.260262" lon="127.558222"><ele>382.4</ele></trkpt>
      <trkpt lat="36.260323" lon="127.558058"><ele>384.9</ele></trkpt>
      <trkpt lat="36.260316" lon="127.557911"><ele>388.9</ele></trkpt>
      <trkpt lat="36.260461" lon="127.557621"><ele>400.2</ele></trkpt>
      <trkpt lat="36.260641" lon="127.557028"><ele>417.7</ele></trkpt>
      <trkpt lat="36.260632" lon="127.556752"><ele>422.3</ele></trkpt>
      <trkpt lat="36.260759" lon="127.556610"><ele>424.4</ele></trkpt>
      <trkpt lat="36.261110" lon="127.556615"><ele>417.4</ele></trkpt>
      <trkpt lat="36.261259" lon="127.556720"><ele>409.8</ele></trkpt>
      <trkpt lat="36.262029" lon="127.556913"><ele>379.3</ele></trkpt>
      <trkpt lat="36.262282" lon="127.557337"><ele>370.8</ele></trkpt>
      <trkpt lat="36.262485" lon="127.557291"><ele>369.0</ele></trkpt>
      <trkpt lat="36.262568" lon="127.557213"><ele>369.0</ele></trkpt>
      <trkpt lat="36.263123" lon="127.557229"><ele>365.4</ele></trkpt>
      <trkpt lat="36.263770" lon="127.556934"><ele>375.2</ele></trkpt>
      <trkpt lat="36.264135" lon="127.557039"><ele>377.8</ele></trkpt>
      <trkpt lat="36.264304" lon="127.556993"><ele>381.4</ele></trkpt>
      <trkpt lat="36.264629" lon="127.556680"><ele>390.1</ele></trkpt>
      <trkpt lat="36.264866" lon="127.556604"><ele>391.6</ele></trkpt>
      <trkpt lat="36.265098" lon="127.556612"><ele>393.0</ele></trkpt>
      <trkpt lat="36.265654" lon="127.556167"><ele>402.6</ele></trkpt>
      <trkpt lat="36.265885" lon="127.556084"><ele>414.4</ele></trkpt>
      <trkpt lat="36.266028" lon="127.556098"><ele>420.0</ele></trkpt>
      <trkpt lat="36.266188" lon="127.555985"><ele>430.1</ele></trkpt>
      <trkpt lat="36.266209" lon="127.555792"><ele>436.0</ele></trkpt>
      <trkpt lat="36.266413" lon="127.555679"><ele>445.0</ele></trkpt>
      <trkpt lat="36.266884" lon="127.555580"><ele>455.3</ele></trkpt>
      <trkpt lat="36.267213" lon="127.555371"><ele>458.3</ele></trkpt>
      <trkpt lat="36.267503" lon="127.555282"><ele>459.0</ele></trkpt>
      <trkpt lat="36.268283" lon="127.555191"><ele>465.9</ele></trkpt>
      <trkpt lat="36.268667" lon="127.554933"><ele>476.8</ele></trkpt>
      <trkpt lat="36.268924" lon="127.554856"><ele>478.6</ele></trkpt>
      <trkpt lat="36.269248" lon="127.554551"><ele>478.5</ele></trkpt>
      <trkpt lat="36.269476" lon="127.554258"><ele>482.9</ele></trkpt>
      <trkpt lat="36.269598" lon="127.553738"><ele>480.5</ele></trkpt>
      <trkpt lat="36.269569" lon="127.553346"><ele>475.9</ele></trkpt>
      <trkpt lat="36.269678" lon="127.552613"><ele>488.9</ele></trkpt>
      <trkpt lat="36.269655" lon="127.552332"><ele>489.4</ele></trkpt>
      <trkpt lat="36.269781" lon="127.552330"><ele>490.7</ele></trkpt>
      <trkpt lat="36.270006" lon="127.552132"><ele>487.2</ele></trkpt>
      <trkpt lat="36.270339" lon="127.552000"><ele>475.6</ele></trkpt>
      <trkpt lat="36.270797" lon="127.551902"><ele>465.9</ele></trkpt>
      <trkpt lat="36.270865" lon="127.551928"><ele>464.7</ele></trkpt>
      <trkpt lat="36.271369" lon="127.551654"><ele>453.3</ele></trkpt>
      <trkpt lat="36.271992" lon="127.551535"><ele>450.4</ele></trkpt>
      <trkpt lat="36.272072" lon="127.551398"><ele>449.1</ele></trkpt>
      <trkpt lat="36.272782" lon="127.551118"><ele>439.8</ele></trkpt>
      <trkpt lat="36.273346" lon="127.550759"><ele>431.5</ele></trkpt>
      <trkpt lat="36.273736" lon="127.550871"><ele>426.8</ele></trkpt>
      <trkpt lat="36.274338" lon="127.550885"><ele>417.8</ele></trkpt>
      <trkpt lat="36.274696" lon="127.550965"><ele>419.3</ele></trkpt>
      <trkpt lat="36.274866" lon="127.550670"><ele>410.9</ele></trkpt>
      <trkpt lat="36.274937" lon="127.550398"><ele>403.0</ele></trkpt>
      <trkpt lat="36.275077" lon="127.550175"><ele>391.0</ele></trkpt>
      <trkpt lat="36.275550" lon="127.549632"><ele>364.7</ele></trkpt>
      <trkpt lat="36.275636" lon="127.549159"><ele>358.8</ele></trkpt>
      <trkpt lat="36.275772" lon="127.548880"><ele>351.2</ele></trkpt>
      <trkpt lat="36.275902" lon="127.548896"><ele>350.7</ele></trkpt>
      <trkpt lat="36.276066" lon="127.548839"><ele>346.1</ele></trkpt>
      <trkpt lat="36.276276" lon="127.548700"><ele>340.0</ele></trkpt>
      <trkpt lat="36.276695" lon="127.548322"><ele>330.7</ele></trkpt>
      <trkpt lat="36.276911" lon="127.547957"><ele>330.2</ele></trkpt>
      <trkpt lat="36.277394" lon="127.547624"><ele>327.5</ele></trkpt>
      <trkpt lat="36.277720" lon="127.547324"><ele>333.5</ele></trkpt>
      <trkpt lat="36.278142" lon="127.547209"><ele>342.4</ele></trkpt>
      <trkpt lat="36.278658" lon="127.546981"><ele>354.1</ele></trkpt>
      <trkpt lat="36.278898" lon="127.546965"><ele>358.4</ele></trkpt>
      <trkpt lat="36.279443" lon="127.546600"><ele>349.3</ele></trkpt>
      <trkpt lat="36.279686" lon="127.546342"><ele>344.9</ele></trkpt>
      <trkpt lat="36.279800" lon="127.546066"><ele>343.1</ele></trkpt>
      <trkpt lat="36.280293" lon="127.545567"><ele>340.7</ele></trkpt>
      <trkpt lat="36.280546" lon="127.544854"><ele>346.6</ele></trkpt>
      <trkpt lat="36.280702" lon="127.544706"><ele>342.5</ele></trkpt>
      <trkpt lat="36.280786" lon="127.544532"><ele>338.8</ele></trkpt>
      <trkpt lat="36.280814" lon="127.544323"><ele>336.0</ele></trkpt>
      <trkpt lat="36.281013" lon="127.543853"><ele>335.6</ele></trkpt>
      <trkpt lat="36.281193" lon="127.543911"><ele>337.2</ele></trkpt>
      <trkpt lat="36.281251" lon="127.544018"><ele>334.5</ele></trkpt>
      <trkpt lat="36.281815" lon="127.544313"><ele>312.6</ele></trkpt>
      <trkpt lat="36.282128" lon="127.544804"><ele>288.5</ele></trkpt>
      <trkpt lat="36.282305" lon="127.544950"><ele>278.7</ele></trkpt>
      <trkpt lat="36.282331" lon="127.545237"><ele>273.5</ele></trkpt>
      <trkpt lat="36.282821" lon="127.545264"><ele>254.0</ele></trkpt>
      <trkpt lat="36.282947" lon="127.545387"><ele>247.4</ele></trkpt>
      <trkpt lat="36.283082" lon="127.546046"><ele>229.1</ele></trkpt>
      <trkpt lat="36.283294" lon="127.546497"><ele>217.6</ele></trkpt>
      <trkpt lat="36.283445" lon="127.546653"><ele>213.6</ele></trkpt>
      <trkpt lat="36.283659" lon="127.547136"><ele>201.5</ele></trkpt>
      <trkpt lat="36.283716" lon="127.547761"><ele>188.1</ele></trkpt>
      <trkpt lat="36.283865" lon="127.547871"><ele>186.4</ele></trkpt>
      <trkpt lat="36.283932" lon="127.548032"><ele>182.9</ele></trkpt>
      <trkpt lat="36.283972" lon="127.548209"><ele>179.4</ele></trkpt>
      <trkpt lat="36.283952" lon="127.548625"><ele>172.2</ele></trkpt>
      <trkpt lat="36.284078" lon="127.549152"><ele>163.6</ele></trkpt>
      <trkpt lat="36.284373" lon="127.549601"><ele>161.7</ele></trkpt>
      <trkpt lat="36.284470" lon="127.549923"><ele>158.5</ele></trkpt>
      <trkpt lat="36.284567" lon="127.550067"><ele>157.7</ele></trkpt>
      <trkpt lat="36.285011" lon="127.550308"><ele>156.2</ele></trkpt>
      <trkpt lat="36.285035" lon="127.550645"><ele>147.2</ele></trkpt>
      <trkpt lat="36.285125" lon="127.550871"><ele>145.5</ele></trkpt>
      <trkpt lat="36.285868" lon="127.551234"><ele>145.6</ele></trkpt>
      <trkpt lat="36.285542" lon="127.551557"><ele>142.9</ele></trkpt>
      <trkpt lat="36.285420" lon="127.551851"><ele>141.7</ele></trkpt>
      <trkpt lat="36.285474" lon="127.552646"><ele>134.4</ele></trkpt>
      <trkpt lat="36.285605" lon="127.552996"><ele>132.9</ele></trkpt>
      <trkpt lat="36.285654" lon="127.553533"><ele>133.8</ele></trkpt>
      <trkpt lat="36.285590" lon="127.553967"><ele>131.6</ele></trkpt>
      <trkpt lat="36.285470" lon="127.554366"><ele>128.3</ele></trkpt>
      <trkpt lat="36.285485" lon="127.554969"><ele>125.6</ele></trkpt>
      <trkpt lat="36.285320" lon="127.555864"><ele>124.9</ele></trkpt>
      <trkpt lat="36.284917" lon="127.554911"><ele>128.2</ele></trkpt>
      <trkpt lat="36.284704" lon="127.554575"><ele>128.6</ele></trkpt>
      <trkpt lat="36.284216" lon="127.554606"><ele>129.5</ele></trkpt>
      <trkpt lat="36.284104" lon="127.554568"><ele>129.9</ele></trkpt>
      <trkpt lat="36.283762" lon="127.554054"><ele>133.3</ele></trkpt>
      <trkpt lat="36.282935" lon="127.553587"><ele>137.6</ele></trkpt>
      <trkpt lat="36.282824" lon="127.553744"><ele>138.0</ele></trkpt>
      <trkpt lat="36.282756" lon="127.554079"><ele>139.1</ele></trkpt>
      <trkpt lat="36.282702" lon="127.554147"><ele>139.5</ele></trkpt>
      <trkpt lat="36.282456" lon="127.554135"><ele>141.1</ele></trkpt>
      <trkpt lat="36.282359" lon="127.554224"><ele>142.6</ele></trkpt>
      <trkpt lat="36.282339" lon="127.554531"><ele>142.4</ele></trkpt>
      <trkpt lat="36.282118" lon="127.555015"><ele>139.3</ele></trkpt>
      <trkpt lat="36.282128" lon="127.555101"><ele>138.1</ele></trkpt>
      <trkpt lat="36.281514" lon="127.555580"><ele>136.0</ele></trkpt>
      <trkpt lat="36.281253" lon="127.555657"><ele>139.3</ele></trkpt>
      <trkpt lat="36.280885" lon="127.555893"><ele>141.6</ele></trkpt>
      <trkpt lat="36.280645" lon="127.555897"><ele>144.3</ele></trkpt>
      <trkpt lat="36.280399" lon="127.555976"><ele>147.2</ele></trkpt>
      <trkpt lat="36.279563" lon="127.556781"><ele>153.7</ele></trkpt>
      <trkpt lat="36.279383" lon="127.556770"><ele>154.6</ele></trkpt>
      <trkpt lat="36.279261" lon="127.556691"><ele>155.9</ele></trkpt>
      <trkpt lat="36.279138" lon="127.556709"><ele>157.3</ele></trkpt>
      <trkpt lat="36.279077" lon="127.556594"><ele>159.2</ele></trkpt>
      <trkpt lat="36.278691" lon="127.556542"><ele>166.6</ele></trkpt>
      <trkpt lat="36.278535" lon="127.556446"><ele>169.6</ele></trkpt>
    </trkseg>
  </trk>
</gpx>
