<?xml version="1.0" encoding="UTF-8"?>
<gpx version="1.1" creator="kr-100-mountains route-harvester"
     xmlns="http://www.topografix.com/GPX/1/1"
     xmlns:k100="https://github.com/jay-jang/kr-100-mountains/ns/1"
     xmlns:xsi="http://www.w3.org/2001/XMLSchema-instance"
     xsi:schemaLocation="http://www.topografix.com/GPX/1/1 http://www.topografix.com/GPX/1/1/gpx.xsd">
  <metadata>
    <name>주흘산 · 월복사-너덜지대-주흘산 주봉 (OSM 계산 경로)</name>
    <desc>실제 GPS 기록이 아닙니다. OpenStreetMap에 등록된 등산로 선형 위에서 계산한 경로이며, 현장 통제·훼손·출입 제한·계절 통제를 반영하지 않을 수 있습니다. 산행 전 공식 안내를 확인하세요.</desc>
    <time>2026-08-04T05:40:54.888Z</time>
    <link href="https://www.openstreetmap.org/copyright"><text>© OpenStreetMap contributors (ODbL 1.0)</text></link>
    <link href="https://registry.opendata.aws/terrain-tiles/"><text>Elevation: SRTM 1 arc-second (NASA/USGS) via AWS Terrain Tiles</text></link>
    <extensions>
      <k100:provenance>osm-routed</k100:provenance>
      <k100:not_a_recorded_track>true</k100:not_a_recorded_track>
      <k100:mountain_id>juheulsan</k100:mountain_id>
      <k100:mountain_name>주흘산</k100:mountain_name>
      <k100:route_id>juheulsan-ac857c9f</k100:route_id>
      <k100:route_index>4</k100:route_index>
      <k100:route_name>월복사-너덜지대-주흘산 주봉</k100:route_name>
      <k100:variant>0</k100:variant>
      <k100:source>OpenStreetMap via Overpass API</k100:source>
      <k100:license>ODbL-1.0</k100:license>
      <k100:attribution>© OpenStreetMap contributors</k100:attribution>
      <k100:elevation_source>SRTM 1 arc-second (NASA/USGS) — AWS Terrain Tiles 배포본. 지형 DEM 추정 고도이며 실측 아님</k100:elevation_source>
      <k100:algorithm>dijkstra-grid-v1</k100:algorithm>
      <k100:osm_snapshot>2026-08-04</k100:osm_snapshot>
      <k100:snap_trailhead_m>57</k100:snap_trailhead_m>
      <k100:snap_summit_m>184</k100:snap_summit_m>
      <k100:validation_score>64</k100:validation_score>
      <k100:validation_status>review</k100:validation_status>
    </extensions>
  </metadata>
  <trk>
    <name>주흘산 · 월복사-너덜지대-주흘산 주봉 (OSM 계산 경로)</name>
    <desc>실제 GPS 기록이 아닙니다. OpenStreetMap에 등록된 등산로 선형 위에서 계산한 경로이며, 현장 통제·훼손·출입 제한·계절 통제를 반영하지 않을 수 있습니다. 산행 전 공식 안내를 확인하세요.</desc>
    <trkseg>
      <trkpt lat="36.758184" lon="128.056598"><ele>679.4</ele></trkpt>
      <trkpt lat="36.757762" lon="128.056812"><ele>673.3</ele></trkpt>
      <trkpt lat="36.757496" lon="128.056866"><ele>669.3</ele></trkpt>
      <trkpt lat="36.756611" lon="128.057563"><ele>665.1</ele></trkpt>
      <trkpt lat="36.756430" lon="128.057939"><ele>658.5</ele></trkpt>
      <trkpt lat="36.756198" lon="128.058776"><ele>649.0</ele></trkpt>
      <trkpt lat="36.756129" lon="128.059237"><ele>647.9</ele></trkpt>
      <trkpt lat="36.755742" lon="128.059634"><ele>642.7</ele></trkpt>
      <trkpt lat="36.755287" lon="128.059945"><ele>635.9</ele></trkpt>
      <trkpt lat="36.754831" lon="128.060428"><ele>628.2</ele></trkpt>
      <trkpt lat="36.754642" lon="128.060739"><ele>627.8</ele></trkpt>
      <trkpt lat="36.754591" lon="128.060986"><ele>625.0</ele></trkpt>
      <trkpt lat="36.754548" lon="128.062027"><ele>604.9</ele></trkpt>
      <trkpt lat="36.754316" lon="128.062778"><ele>610.5</ele></trkpt>
      <trkpt lat="36.754041" lon="128.063357"><ele>609.9</ele></trkpt>
      <trkpt lat="36.754023" lon="128.063947"><ele>610.9</ele></trkpt>
      <trkpt lat="36.753903" lon="128.064408"><ele>612.8</ele></trkpt>
      <trkpt lat="36.753817" lon="128.064548"><ele>609.7</ele></trkpt>
      <trkpt lat="36.753886" lon="128.064709"><ele>610.1</ele></trkpt>
      <trkpt lat="36.753662" lon="128.065449"><ele>589.3</ele></trkpt>
      <trkpt lat="36.753490" lon="128.065814"><ele>582.0</ele></trkpt>
      <trkpt lat="36.753284" lon="128.066039"><ele>577.5</ele></trkpt>
      <trkpt lat="36.753146" lon="128.066275"><ele>574.9</ele></trkpt>
      <trkpt lat="36.753146" lon="128.066608"><ele>575.2</ele></trkpt>
      <trkpt lat="36.753361" lon="128.066715"><ele>574.1</ele></trkpt>
      <trkpt lat="36.753697" lon="128.066779"><ele>570.8</ele></trkpt>
      <trkpt lat="36.753817" lon="128.066672"><ele>569.7</ele></trkpt>
      <trkpt lat="36.754307" lon="128.066790"><ele>560.9</ele></trkpt>
      <trkpt lat="36.754599" lon="128.066651"><ele>556.2</ele></trkpt>
      <trkpt lat="36.754831" lon="128.066661"><ele>550.3</ele></trkpt>
      <trkpt lat="36.755115" lon="128.066908"><ele>541.7</ele></trkpt>
      <trkpt lat="36.755510" lon="128.066876"><ele>529.6</ele></trkpt>
      <trkpt lat="36.755717" lon="128.066994"><ele>520.1</ele></trkpt>
      <trkpt lat="36.756043" lon="128.066833"><ele>503.6</ele></trkpt>
      <trkpt lat="36.757032" lon="128.066919"><ele>454.4</ele></trkpt>
      <trkpt lat="36.757582" lon="128.067069"><ele>415.5</ele></trkpt>
      <trkpt lat="36.757642" lon="128.067477"><ele>409.0</ele></trkpt>
      <trkpt lat="36.757720" lon="128.067691"><ele>399.8</ele></trkpt>
      <trkpt lat="36.758601" lon="128.068072"><ele>344.0</ele></trkpt>
      <trkpt lat="36.758691" lon="128.068169"><ele>342.1</ele></trkpt>
      <trkpt lat="36.758854" lon="128.068936"><ele>326.0</ele></trkpt>
      <trkpt lat="36.758876" lon="128.069333"><ele>316.9</ele></trkpt>
      <trkpt lat="36.759030" lon="128.069547"><ele>314.3</ele></trkpt>
      <trkpt lat="36.759103" lon="128.069918"><ele>307.4</ele></trkpt>
      <trkpt lat="36.759327" lon="128.070556"><ele>295.6</ele></trkpt>
      <trkpt lat="36.759305" lon="128.070846"><ele>286.8</ele></trkpt>
      <trkpt lat="36.759353" lon="128.071221"><ele>281.2</ele></trkpt>
      <trkpt lat="36.759447" lon="128.071425"><ele>276.9</ele></trkpt>
      <trkpt lat="36.759825" lon="128.071854"><ele>270.6</ele></trkpt>
      <trkpt lat="36.759856" lon="128.072026"><ele>267.8</ele></trkpt>
      <trkpt lat="36.759770" lon="128.075480"><ele>231.5</ele></trkpt>
      <trkpt lat="36.759898" lon="128.076167"><ele>223.8</ele></trkpt>
      <trkpt lat="36.760135" lon="128.077010"><ele>225.6</ele></trkpt>
      <trkpt lat="36.760423" lon="128.076864"><ele>227.5</ele></trkpt>
      <trkpt lat="36.761201" lon="128.076690"><ele>227.1</ele></trkpt>
      <trkpt lat="36.761579" lon="128.076424"><ele>228.5</ele></trkpt>
      <trkpt lat="36.762126" lon="128.076169"><ele>230.5</ele></trkpt>
      <trkpt lat="36.762824" lon="128.075702"><ele>233.5</ele></trkpt>
      <trkpt lat="36.763136" lon="128.075563"><ele>231.8</ele></trkpt>
      <trkpt lat="36.763739" lon="128.075712"><ele>234.1</ele></trkpt>
      <trkpt lat="36.764265" lon="128.075985"><ele>241.4</ele></trkpt>
      <trkpt lat="36.764539" lon="128.076046"><ele>241.2</ele></trkpt>
      <trkpt lat="36.766154" lon="128.075671"><ele>236.2</ele></trkpt>
      <trkpt lat="36.766821" lon="128.075653"><ele>239.1</ele></trkpt>
      <trkpt lat="36.767729" lon="128.075494"><ele>249.3</ele></trkpt>
      <trkpt lat="36.768557" lon="128.075176"><ele>247.6</ele></trkpt>
      <trkpt lat="36.768701" lon="128.075481"><ele>251.8</ele></trkpt>
      <trkpt lat="36.768860" lon="128.075606"><ele>254.9</ele></trkpt>
      <trkpt lat="36.769285" lon="128.075577"><ele>257.4</ele></trkpt>
      <trkpt lat="36.769508" lon="128.076258"><ele>263.8</ele></trkpt>
      <trkpt lat="36.769758" lon="128.076853"><ele>270.5</ele></trkpt>
      <trkpt lat="36.769914" lon="128.077404"><ele>280.8</ele></trkpt>
      <trkpt lat="36.770184" lon="128.077909"><ele>283.3</ele></trkpt>
      <trkpt lat="36.770168" lon="128.078315"><ele>286.8</ele></trkpt>
      <trkpt lat="36.770425" lon="128.078683"><ele>294.9</ele></trkpt>
      <trkpt lat="36.770734" lon="128.079464"><ele>297.8</ele></trkpt>
      <trkpt lat="36.770838" lon="128.079922"><ele>305.1</ele></trkpt>
      <trkpt lat="36.771043" lon="128.080080"><ele>308.8</ele></trkpt>
      <trkpt lat="36.771153" lon="128.080233"><ele>311.7</ele></trkpt>
      <trkpt lat="36.771528" lon="128.080464"><ele>324.3</ele></trkpt>
      <trkpt lat="36.771768" lon="128.080536"><ele>330.2</ele></trkpt>
      <trkpt lat="36.771944" lon="128.080681"><ele>333.5</ele></trkpt>
      <trkpt lat="36.772410" lon="128.081188"><ele>344.3</ele></trkpt>
      <trkpt lat="36.772571" lon="128.081435"><ele>346.6</ele></trkpt>
      <trkpt lat="36.772821" lon="128.082025"><ele>365.6</ele></trkpt>
      <trkpt lat="36.772765" lon="128.082194"><ele>367.4</ele></trkpt>
      <trkpt lat="36.772838" lon="128.082383"><ele>375.6</ele></trkpt>
      <trkpt lat="36.772801" lon="128.082537"><ele>378.3</ele></trkpt>
      <trkpt lat="36.772864" lon="128.082572"><ele>379.6</ele></trkpt>
      <trkpt lat="36.772991" lon="128.082917"><ele>385.4</ele></trkpt>
      <trkpt lat="36.772765" lon="128.083109"><ele>403.4</ele></trkpt>
      <trkpt lat="36.771918" lon="128.082873"><ele>439.4</ele></trkpt>
      <trkpt lat="36.771798" lon="128.082980"><ele>451.7</ele></trkpt>
      <trkpt lat="36.771953" lon="128.083511"><ele>481.8</ele></trkpt>
      <trkpt lat="36.771682" lon="128.083688"><ele>503.9</ele></trkpt>
      <trkpt lat="36.771304" lon="128.084123"><ele>541.2</ele></trkpt>
    </trkseg>
  </trk>
</gpx>
