<?xml version="1.0" encoding="UTF-8"?>
<gpx version="1.1" creator="kr-100-mountains route-harvester"
     xmlns="http://www.topografix.com/GPX/1/1"
     xmlns:k100="https://github.com/jay-jang/kr-100-mountains/ns/1"
     xmlns:xsi="http://www.w3.org/2001/XMLSchema-instance"
     xsi:schemaLocation="http://www.topografix.com/GPX/1/1 http://www.topografix.com/GPX/1/1/gpx.xsd">
  <metadata>
    <name>삼악산 · 등선폭포 코스 (대안 1) (OSM 계산 경로)</name>
    <desc>실제 GPS 기록이 아닙니다. OpenStreetMap에 등록된 등산로 선형 위에서 계산한 경로이며, 현장 통제·훼손·출입 제한·계절 통제를 반영하지 않을 수 있습니다. 산행 전 공식 안내를 확인하세요.</desc>
    <time>2026-08-04T05:26:37.314Z</time>
    <link href="https://www.openstreetmap.org/copyright"><text>© OpenStreetMap contributors (ODbL 1.0)</text></link>
    <link href="https://registry.opendata.aws/terrain-tiles/"><text>Elevation: SRTM 1 arc-second (NASA/USGS) via AWS Terrain Tiles</text></link>
    <extensions>
      <k100:provenance>osm-routed</k100:provenance>
      <k100:not_a_recorded_track>true</k100:not_a_recorded_track>
      <k100:mountain_id>samaksan</k100:mountain_id>
      <k100:mountain_name>삼악산</k100:mountain_name>
      <k100:route_id>samaksan-500a1084</k100:route_id>
      <k100:route_index>1</k100:route_index>
      <k100:route_name>등선폭포 코스</k100:route_name>
      <k100:variant>1</k100:variant>
      <k100:source>OpenStreetMap via Overpass API</k100:source>
      <k100:license>ODbL-1.0</k100:license>
      <k100:attribution>© OpenStreetMap contributors</k100:attribution>
      <k100:elevation_source>SRTM 1 arc-second (NASA/USGS) — AWS Terrain Tiles 배포본. 지형 DEM 추정 고도이며 실측 아님</k100:elevation_source>
      <k100:algorithm>dijkstra-grid-v1</k100:algorithm>
      <k100:osm_snapshot>2026-08-04</k100:osm_snapshot>
      <k100:snap_trailhead_m>9</k100:snap_trailhead_m>
      <k100:snap_summit_m>45</k100:snap_summit_m>
      <k100:validation_score>93</k100:validation_score>
      <k100:validation_status>accepted</k100:validation_status>
    </extensions>
  </metadata>
  <trk>
    <name>삼악산 · 등선폭포 코스 (대안 1) (OSM 계산 경로)</name>
    <desc>실제 GPS 기록이 아닙니다. OpenStreetMap에 등록된 등산로 선형 위에서 계산한 경로이며, 현장 통제·훼손·출입 제한·계절 통제를 반영하지 않을 수 있습니다. 산행 전 공식 안내를 확인하세요.</desc>
    <trkseg>
      <trkpt lat="37.825906" lon="127.659529"><ele>107.5</ele></trkpt>
      <trkpt lat="37.825679" lon="127.659408"><ele>99.8</ele></trkpt>
      <trkpt lat="37.825194" lon="127.659399"><ele>86.6</ele></trkpt>
      <trkpt lat="37.824912" lon="127.659313"><ele>80.9</ele></trkpt>
      <trkpt lat="37.824898" lon="127.659243"><ele>80.1</ele></trkpt>
      <trkpt lat="37.824342" lon="127.659379"><ele>70.8</ele></trkpt>
      <trkpt lat="37.824483" lon="127.660893"><ele>63.2</ele></trkpt>
      <trkpt lat="37.824813" lon="127.662487"><ele>63.5</ele></trkpt>
      <trkpt lat="37.824886" lon="127.663359"><ele>61.2</ele></trkpt>
      <trkpt lat="37.825034" lon="127.664011"><ele>57.6</ele></trkpt>
      <trkpt lat="37.825097" lon="127.665036"><ele>64.5</ele></trkpt>
      <trkpt lat="37.825052" lon="127.665760"><ele>65.6</ele></trkpt>
      <trkpt lat="37.825219" lon="127.666609"><ele>64.5</ele></trkpt>
      <trkpt lat="37.825785" lon="127.668244"><ele>69.2</ele></trkpt>
      <trkpt lat="37.826215" lon="127.669178"><ele>71.1</ele></trkpt>
      <trkpt lat="37.826602" lon="127.669774"><ele>72.5</ele></trkpt>
      <trkpt lat="37.827040" lon="127.670635"><ele>70.5</ele></trkpt>
      <trkpt lat="37.827447" lon="127.671710"><ele>64.4</ele></trkpt>
      <trkpt lat="37.828581" lon="127.673018"><ele>65.5</ele></trkpt>
      <trkpt lat="37.830045" lon="127.673641"><ele>65.0</ele></trkpt>
      <trkpt lat="37.831773" lon="127.674010"><ele>81.1</ele></trkpt>
      <trkpt lat="37.831885" lon="127.674019"><ele>82.8</ele></trkpt>
      <trkpt lat="37.831897" lon="127.673940"><ele>87.8</ele></trkpt>
      <trkpt lat="37.832456" lon="127.673954"><ele>85.1</ele></trkpt>
      <trkpt lat="37.832094" lon="127.673779"><ele>95.4</ele></trkpt>
      <trkpt lat="37.832047" lon="127.673724"><ele>97.9</ele></trkpt>
      <trkpt lat="37.832035" lon="127.673533"><ele>105.7</ele></trkpt>
      <trkpt lat="37.832438" lon="127.673536"><ele>105.0</ele></trkpt>
      <trkpt lat="37.832501" lon="127.673468"><ele>107.1</ele></trkpt>
      <trkpt lat="37.832553" lon="127.673502"><ele>106.5</ele></trkpt>
      <trkpt lat="37.832896" lon="127.673272"><ele>121.3</ele></trkpt>
      <trkpt lat="37.833302" lon="127.672844"><ele>150.7</ele></trkpt>
      <trkpt lat="37.833332" lon="127.672601"><ele>161.6</ele></trkpt>
      <trkpt lat="37.833595" lon="127.672219"><ele>197.2</ele></trkpt>
      <trkpt lat="37.833809" lon="127.672057"><ele>205.8</ele></trkpt>
      <trkpt lat="37.833900" lon="127.671877"><ele>213.6</ele></trkpt>
      <trkpt lat="37.833891" lon="127.671768"><ele>218.0</ele></trkpt>
      <trkpt lat="37.833729" lon="127.671582"><ele>228.0</ele></trkpt>
      <trkpt lat="37.833573" lon="127.671484"><ele>232.4</ele></trkpt>
      <trkpt lat="37.833364" lon="127.671452"><ele>230.7</ele></trkpt>
      <trkpt lat="37.833275" lon="127.671333"><ele>232.5</ele></trkpt>
      <trkpt lat="37.833622" lon="127.670977"><ele>258.6</ele></trkpt>
      <trkpt lat="37.833469" lon="127.670662"><ele>273.4</ele></trkpt>
      <trkpt lat="37.833594" lon="127.670332"><ele>299.3</ele></trkpt>
      <trkpt lat="37.833615" lon="127.670073"><ele>312.1</ele></trkpt>
      <trkpt lat="37.833475" lon="127.669715"><ele>324.3</ele></trkpt>
      <trkpt lat="37.833425" lon="127.669426"><ele>330.9</ele></trkpt>
      <trkpt lat="37.833477" lon="127.669218"><ele>333.2</ele></trkpt>
      <trkpt lat="37.833597" lon="127.669140"><ele>339.6</ele></trkpt>
      <trkpt lat="37.833898" lon="127.669109"><ele>349.9</ele></trkpt>
      <trkpt lat="37.834056" lon="127.669013"><ele>358.9</ele></trkpt>
      <trkpt lat="37.834242" lon="127.669050"><ele>368.3</ele></trkpt>
      <trkpt lat="37.834609" lon="127.668855"><ele>390.6</ele></trkpt>
      <trkpt lat="37.834773" lon="127.668639"><ele>399.7</ele></trkpt>
      <trkpt lat="37.835114" lon="127.668533"><ele>412.1</ele></trkpt>
      <trkpt lat="37.835306" lon="127.668371"><ele>422.0</ele></trkpt>
      <trkpt lat="37.835289" lon="127.668253"><ele>426.7</ele></trkpt>
      <trkpt lat="37.835342" lon="127.668164"><ele>431.5</ele></trkpt>
      <trkpt lat="37.835846" lon="127.667757"><ele>437.9</ele></trkpt>
      <trkpt lat="37.836276" lon="127.667698"><ele>445.8</ele></trkpt>
      <trkpt lat="37.836340" lon="127.667629"><ele>448.2</ele></trkpt>
      <trkpt lat="37.836425" lon="127.667700"><ele>450.1</ele></trkpt>
      <trkpt lat="37.836412" lon="127.667592"><ele>450.9</ele></trkpt>
      <trkpt lat="37.836531" lon="127.667424"><ele>456.6</ele></trkpt>
      <trkpt lat="37.836968" lon="127.666995"><ele>478.0</ele></trkpt>
      <trkpt lat="37.836961" lon="127.666875"><ele>477.3</ele></trkpt>
      <trkpt lat="37.837108" lon="127.666738"><ele>483.4</ele></trkpt>
      <trkpt lat="37.837165" lon="127.666582"><ele>486.4</ele></trkpt>
      <trkpt lat="37.837331" lon="127.666474"><ele>491.8</ele></trkpt>
      <trkpt lat="37.837510" lon="127.665631"><ele>498.2</ele></trkpt>
      <trkpt lat="37.837686" lon="127.665322"><ele>498.7</ele></trkpt>
      <trkpt lat="37.837835" lon="127.665206"><ele>501.5</ele></trkpt>
      <trkpt lat="37.837928" lon="127.665014"><ele>504.0</ele></trkpt>
      <trkpt lat="37.838412" lon="127.664564"><ele>522.3</ele></trkpt>
      <trkpt lat="37.838545" lon="127.664491"><ele>531.3</ele></trkpt>
      <trkpt lat="37.838699" lon="127.664594"><ele>540.3</ele></trkpt>
      <trkpt lat="37.838938" lon="127.664555"><ele>551.6</ele></trkpt>
      <trkpt lat="37.839014" lon="127.664258"><ele>559.4</ele></trkpt>
      <trkpt lat="37.838996" lon="127.664048"><ele>561.8</ele></trkpt>
    </trkseg>
  </trk>
</gpx>
