<?xml version="1.0" encoding="UTF-8"?>
<gpx version="1.1" creator="kr-100-mountains route-harvester"
     xmlns="http://www.topografix.com/GPX/1/1"
     xmlns:k100="https://github.com/jay-jang/kr-100-mountains/ns/1"
     xmlns:xsi="http://www.w3.org/2001/XMLSchema-instance"
     xsi:schemaLocation="http://www.topografix.com/GPX/1/1 http://www.topografix.com/GPX/1/1/gpx.xsd">
  <metadata>
    <name>삼악산 · 상원사 코스 (대안 2) (OSM 계산 경로)</name>
    <desc>실제 GPS 기록이 아닙니다. OpenStreetMap에 등록된 등산로 선형 위에서 계산한 경로이며, 현장 통제·훼손·출입 제한·계절 통제를 반영하지 않을 수 있습니다. 산행 전 공식 안내를 확인하세요.</desc>
    <time>2026-08-04T05:26:37.323Z</time>
    <link href="https://www.openstreetmap.org/copyright"><text>© OpenStreetMap contributors (ODbL 1.0)</text></link>
    <link href="https://registry.opendata.aws/terrain-tiles/"><text>Elevation: SRTM 1 arc-second (NASA/USGS) via AWS Terrain Tiles</text></link>
    <extensions>
      <k100:provenance>osm-routed</k100:provenance>
      <k100:not_a_recorded_track>true</k100:not_a_recorded_track>
      <k100:mountain_id>samaksan</k100:mountain_id>
      <k100:mountain_name>삼악산</k100:mountain_name>
      <k100:route_id>samaksan-cb9cf724</k100:route_id>
      <k100:route_index>2</k100:route_index>
      <k100:route_name>상원사 코스</k100:route_name>
      <k100:variant>2</k100:variant>
      <k100:source>OpenStreetMap via Overpass API</k100:source>
      <k100:license>ODbL-1.0</k100:license>
      <k100:attribution>© OpenStreetMap contributors</k100:attribution>
      <k100:elevation_source>SRTM 1 arc-second (NASA/USGS) — AWS Terrain Tiles 배포본. 지형 DEM 추정 고도이며 실측 아님</k100:elevation_source>
      <k100:algorithm>dijkstra-grid-v1</k100:algorithm>
      <k100:osm_snapshot>2026-08-04</k100:osm_snapshot>
      <k100:snap_trailhead_m>15</k100:snap_trailhead_m>
      <k100:snap_summit_m>45</k100:snap_summit_m>
      <k100:validation_score>84</k100:validation_score>
      <k100:validation_status>accepted</k100:validation_status>
    </extensions>
  </metadata>
  <trk>
    <name>삼악산 · 상원사 코스 (대안 2) (OSM 계산 경로)</name>
    <desc>실제 GPS 기록이 아닙니다. OpenStreetMap에 등록된 등산로 선형 위에서 계산한 경로이며, 현장 통제·훼손·출입 제한·계절 통제를 반영하지 않을 수 있습니다. 산행 전 공식 안내를 확인하세요.</desc>
    <trkseg>
      <trkpt lat="37.844129" lon="127.674148"><ele>89.5</ele></trkpt>
      <trkpt lat="37.843766" lon="127.674338"><ele>93.3</ele></trkpt>
      <trkpt lat="37.843093" lon="127.674527"><ele>97.1</ele></trkpt>
      <trkpt lat="37.842458" lon="127.674562"><ele>100.4</ele></trkpt>
      <trkpt lat="37.841268" lon="127.674433"><ele>103.4</ele></trkpt>
      <trkpt lat="37.841320" lon="127.674103"><ele>107.5</ele></trkpt>
      <trkpt lat="37.841421" lon="127.673810"><ele>117.8</ele></trkpt>
      <trkpt lat="37.841425" lon="127.673659"><ele>125.1</ele></trkpt>
      <trkpt lat="37.841361" lon="127.673580"><ele>127.0</ele></trkpt>
      <trkpt lat="37.841357" lon="127.673460"><ele>129.2</ele></trkpt>
      <trkpt lat="37.841412" lon="127.673435"><ele>129.4</ele></trkpt>
      <trkpt lat="37.841376" lon="127.673325"><ele>131.2</ele></trkpt>
      <trkpt lat="37.841403" lon="127.673226"><ele>138.1</ele></trkpt>
      <trkpt lat="37.841867" lon="127.673657"><ele>139.5</ele></trkpt>
      <trkpt lat="37.841911" lon="127.673868"><ele>132.5</ele></trkpt>
      <trkpt lat="37.842003" lon="127.673860"><ele>133.2</ele></trkpt>
      <trkpt lat="37.842167" lon="127.673590"><ele>147.2</ele></trkpt>
      <trkpt lat="37.842455" lon="127.673505"><ele>148.6</ele></trkpt>
      <trkpt lat="37.842442" lon="127.673361"><ele>157.7</ele></trkpt>
      <trkpt lat="37.842382" lon="127.673354"><ele>158.6</ele></trkpt>
      <trkpt lat="37.842248" lon="127.673140"><ele>169.1</ele></trkpt>
      <trkpt lat="37.842190" lon="127.672839"><ele>178.6</ele></trkpt>
      <trkpt lat="37.842239" lon="127.672704"><ele>184.7</ele></trkpt>
      <trkpt lat="37.842405" lon="127.672711"><ele>189.8</ele></trkpt>
      <trkpt lat="37.842582" lon="127.672580"><ele>200.7</ele></trkpt>
      <trkpt lat="37.842691" lon="127.672657"><ele>200.0</ele></trkpt>
      <trkpt lat="37.842754" lon="127.672560"><ele>206.3</ele></trkpt>
      <trkpt lat="37.842835" lon="127.672567"><ele>205.8</ele></trkpt>
      <trkpt lat="37.842796" lon="127.672484"><ele>210.6</ele></trkpt>
      <trkpt lat="37.842810" lon="127.672265"><ele>222.9</ele></trkpt>
      <trkpt lat="37.842695" lon="127.671954"><ele>233.9</ele></trkpt>
      <trkpt lat="37.842692" lon="127.671874"><ele>236.4</ele></trkpt>
      <trkpt lat="37.842756" lon="127.671824"><ele>239.8</ele></trkpt>
      <trkpt lat="37.842737" lon="127.671635"><ele>244.8</ele></trkpt>
      <trkpt lat="37.842591" lon="127.671529"><ele>244.8</ele></trkpt>
      <trkpt lat="37.842646" lon="127.671485"><ele>247.2</ele></trkpt>
      <trkpt lat="37.842523" lon="127.671376"><ele>249.0</ele></trkpt>
      <trkpt lat="37.842471" lon="127.671149"><ele>259.4</ele></trkpt>
      <trkpt lat="37.842634" lon="127.670800"><ele>276.0</ele></trkpt>
      <trkpt lat="37.842646" lon="127.670525"><ele>285.5</ele></trkpt>
      <trkpt lat="37.842609" lon="127.670415"><ele>288.9</ele></trkpt>
      <trkpt lat="37.842650" lon="127.670283"><ele>295.6</ele></trkpt>
      <trkpt lat="37.842592" lon="127.670158"><ele>300.8</ele></trkpt>
      <trkpt lat="37.842686" lon="127.670030"><ele>307.4</ele></trkpt>
      <trkpt lat="37.842647" lon="127.669969"><ele>310.1</ele></trkpt>
      <trkpt lat="37.842673" lon="127.669795"><ele>316.5</ele></trkpt>
      <trkpt lat="37.842634" lon="127.669548"><ele>321.4</ele></trkpt>
      <trkpt lat="37.842530" lon="127.669433"><ele>327.3</ele></trkpt>
      <trkpt lat="37.842360" lon="127.669420"><ele>328.2</ele></trkpt>
      <trkpt lat="37.842237" lon="127.669306"><ele>332.1</ele></trkpt>
      <trkpt lat="37.842203" lon="127.669051"><ele>343.2</ele></trkpt>
      <trkpt lat="37.842238" lon="127.668923"><ele>350.3</ele></trkpt>
      <trkpt lat="37.842197" lon="127.668879"><ele>351.5</ele></trkpt>
      <trkpt lat="37.842284" lon="127.668642"><ele>362.0</ele></trkpt>
      <trkpt lat="37.842226" lon="127.668450"><ele>371.6</ele></trkpt>
      <trkpt lat="37.842273" lon="127.668414"><ele>372.2</ele></trkpt>
      <trkpt lat="37.842158" lon="127.667784"><ele>395.3</ele></trkpt>
      <trkpt lat="37.842198" lon="127.667655"><ele>395.9</ele></trkpt>
      <trkpt lat="37.841784" lon="127.667140"><ele>418.6</ele></trkpt>
      <trkpt lat="37.841767" lon="127.667013"><ele>422.9</ele></trkpt>
      <trkpt lat="37.841806" lon="127.666907"><ele>426.3</ele></trkpt>
      <trkpt lat="37.841752" lon="127.666602"><ele>442.9</ele></trkpt>
      <trkpt lat="37.841610" lon="127.666277"><ele>463.6</ele></trkpt>
      <trkpt lat="37.841413" lon="127.666125"><ele>472.8</ele></trkpt>
      <trkpt lat="37.841415" lon="127.665765"><ele>487.1</ele></trkpt>
      <trkpt lat="37.841337" lon="127.665116"><ele>513.1</ele></trkpt>
      <trkpt lat="37.841225" lon="127.664790"><ele>533.3</ele></trkpt>
      <trkpt lat="37.841113" lon="127.664111"><ele>564.0</ele></trkpt>
      <trkpt lat="37.840951" lon="127.663736"><ele>576.2</ele></trkpt>
      <trkpt lat="37.840699" lon="127.663608"><ele>592.7</ele></trkpt>
      <trkpt lat="37.840482" lon="127.663700"><ele>599.4</ele></trkpt>
      <trkpt lat="37.840347" lon="127.663629"><ele>604.2</ele></trkpt>
      <trkpt lat="37.840191" lon="127.663339"><ele>612.5</ele></trkpt>
      <trkpt lat="37.840113" lon="127.663318"><ele>612.8</ele></trkpt>
      <trkpt lat="37.840134" lon="127.663197"><ele>616.1</ele></trkpt>
      <trkpt lat="37.840057" lon="127.663007"><ele>620.0</ele></trkpt>
      <trkpt lat="37.839838" lon="127.662946"><ele>612.4</ele></trkpt>
      <trkpt lat="37.839786" lon="127.662969"><ele>609.5</ele></trkpt>
      <trkpt lat="37.839713" lon="127.663136"><ele>604.3</ele></trkpt>
      <trkpt lat="37.839551" lon="127.663152"><ele>594.8</ele></trkpt>
      <trkpt lat="37.839501" lon="127.663273"><ele>591.2</ele></trkpt>
      <trkpt lat="37.839265" lon="127.663478"><ele>577.5</ele></trkpt>
      <trkpt lat="37.839250" lon="127.663619"><ele>576.5</ele></trkpt>
      <trkpt lat="37.839122" lon="127.663777"><ele>570.2</ele></trkpt>
      <trkpt lat="37.839102" lon="127.663937"><ele>568.5</ele></trkpt>
      <trkpt lat="37.838996" lon="127.664048"><ele>561.8</ele></trkpt>
    </trkseg>
  </trk>
</gpx>
