<?xml version="1.0" encoding="UTF-8"?>
<gpx version="1.1" creator="kr-100-mountains route-harvester"
     xmlns="http://www.topografix.com/GPX/1/1"
     xmlns:k100="https://github.com/jay-jang/kr-100-mountains/ns/1"
     xmlns:xsi="http://www.w3.org/2001/XMLSchema-instance"
     xsi:schemaLocation="http://www.topografix.com/GPX/1/1 http://www.topografix.com/GPX/1/1/gpx.xsd">
  <metadata>
    <name>두륜산 · 오소재-오심재-노승봉-가련봉 (OSM 계산 경로)</name>
    <desc>실제 GPS 기록이 아닙니다. OpenStreetMap에 등록된 등산로 선형 위에서 계산한 경로이며, 현장 통제·훼손·출입 제한·계절 통제를 반영하지 않을 수 있습니다. 산행 전 공식 안내를 확인하세요.</desc>
    <time>2026-08-04T05:56:07.664Z</time>
    <link href="https://www.openstreetmap.org/copyright"><text>© OpenStreetMap contributors (ODbL 1.0)</text></link>
    <link href="https://registry.opendata.aws/terrain-tiles/"><text>Elevation: SRTM 1 arc-second (NASA/USGS) via AWS Terrain Tiles</text></link>
    <extensions>
      <k100:provenance>osm-routed</k100:provenance>
      <k100:not_a_recorded_track>true</k100:not_a_recorded_track>
      <k100:mountain_id>duryunsan</k100:mountain_id>
      <k100:mountain_name>두륜산</k100:mountain_name>
      <k100:route_id>duryunsan-927b2ab4</k100:route_id>
      <k100:route_index>3</k100:route_index>
      <k100:route_name>오소재-오심재-노승봉-가련봉</k100:route_name>
      <k100:variant>0</k100:variant>
      <k100:source>OpenStreetMap via Overpass API</k100:source>
      <k100:license>ODbL-1.0</k100:license>
      <k100:attribution>© OpenStreetMap contributors</k100:attribution>
      <k100:elevation_source>SRTM 1 arc-second (NASA/USGS) — AWS Terrain Tiles 배포본. 지형 DEM 추정 고도이며 실측 아님</k100:elevation_source>
      <k100:algorithm>dijkstra-grid-v1</k100:algorithm>
      <k100:osm_snapshot>2026-08-04</k100:osm_snapshot>
      <k100:snap_trailhead_m>257</k100:snap_trailhead_m>
      <k100:snap_summit_m>25</k100:snap_summit_m>
      <k100:validation_score>69</k100:validation_score>
      <k100:validation_status>review</k100:validation_status>
    </extensions>
  </metadata>
  <trk>
    <name>두륜산 · 오소재-오심재-노승봉-가련봉 (OSM 계산 경로)</name>
    <desc>실제 GPS 기록이 아닙니다. OpenStreetMap에 등록된 등산로 선형 위에서 계산한 경로이며, 현장 통제·훼손·출입 제한·계절 통제를 반영하지 않을 수 있습니다. 산행 전 공식 안내를 확인하세요.</desc>
    <trkseg>
      <trkpt lat="34.500635" lon="126.633272"><ele>77.5</ele></trkpt>
      <trkpt lat="34.500709" lon="126.632505"><ele>72.8</ele></trkpt>
      <trkpt lat="34.500840" lon="126.631722"><ele>76.2</ele></trkpt>
      <trkpt lat="34.501476" lon="126.629301"><ele>57.3</ele></trkpt>
      <trkpt lat="34.501594" lon="126.629018"><ele>54.8</ele></trkpt>
      <trkpt lat="34.502236" lon="126.628121"><ele>51.3</ele></trkpt>
      <trkpt lat="34.502320" lon="126.627767"><ele>50.3</ele></trkpt>
      <trkpt lat="34.503282" lon="126.626621"><ele>52.5</ele></trkpt>
      <trkpt lat="34.505003" lon="126.625593"><ele>52.3</ele></trkpt>
      <trkpt lat="34.504469" lon="126.624357"><ele>44.4</ele></trkpt>
      <trkpt lat="34.504191" lon="126.623872"><ele>48.1</ele></trkpt>
      <trkpt lat="34.504273" lon="126.623472"><ele>51.5</ele></trkpt>
      <trkpt lat="34.504509" lon="126.622888"><ele>49.7</ele></trkpt>
      <trkpt lat="34.504556" lon="126.622817"><ele>49.5</ele></trkpt>
      <trkpt lat="34.504684" lon="126.622870"><ele>48.9</ele></trkpt>
      <trkpt lat="34.504792" lon="126.622809"><ele>48.6</ele></trkpt>
      <trkpt lat="34.505423" lon="126.621726"><ele>42.9</ele></trkpt>
      <trkpt lat="34.504558" lon="126.621201"><ele>47.3</ele></trkpt>
      <trkpt lat="34.504551" lon="126.620976"><ele>47.3</ele></trkpt>
      <trkpt lat="34.504274" lon="126.620360"><ele>49.5</ele></trkpt>
      <trkpt lat="34.503766" lon="126.619592"><ele>49.6</ele></trkpt>
      <trkpt lat="34.503853" lon="126.619053"><ele>47.0</ele></trkpt>
      <trkpt lat="34.503458" lon="126.618595"><ele>49.8</ele></trkpt>
      <trkpt lat="34.503342" lon="126.618694"><ele>51.6</ele></trkpt>
      <trkpt lat="34.503151" lon="126.618669"><ele>52.4</ele></trkpt>
      <trkpt lat="34.503017" lon="126.618783"><ele>52.2</ele></trkpt>
      <trkpt lat="34.502937" lon="126.618672"><ele>52.4</ele></trkpt>
      <trkpt lat="34.502152" lon="126.618187"><ele>53.8</ele></trkpt>
      <trkpt lat="34.501962" lon="126.617723"><ele>54.8</ele></trkpt>
      <trkpt lat="34.501852" lon="126.617608"><ele>54.1</ele></trkpt>
      <trkpt lat="34.501670" lon="126.617568"><ele>53.3</ele></trkpt>
      <trkpt lat="34.501747" lon="126.617164"><ele>53.9</ele></trkpt>
      <trkpt lat="34.501823" lon="126.617037"><ele>54.1</ele></trkpt>
      <trkpt lat="34.502906" lon="126.615537"><ele>55.0</ele></trkpt>
      <trkpt lat="34.502874" lon="126.615331"><ele>55.5</ele></trkpt>
      <trkpt lat="34.498721" lon="126.616744"><ele>67.6</ele></trkpt>
      <trkpt lat="34.497524" lon="126.617014"><ele>66.2</ele></trkpt>
      <trkpt lat="34.497280" lon="126.617008"><ele>67.9</ele></trkpt>
      <trkpt lat="34.497173" lon="126.617370"><ele>65.1</ele></trkpt>
      <trkpt lat="34.497053" lon="126.617399"><ele>65.3</ele></trkpt>
      <trkpt lat="34.497058" lon="126.617318"><ele>65.9</ele></trkpt>
      <trkpt lat="34.496364" lon="126.617297"><ele>65.8</ele></trkpt>
      <trkpt lat="34.495352" lon="126.617504"><ele>67.3</ele></trkpt>
      <trkpt lat="34.495299" lon="126.617441"><ele>67.5</ele></trkpt>
      <trkpt lat="34.494946" lon="126.617425"><ele>69.9</ele></trkpt>
      <trkpt lat="34.494060" lon="126.617250"><ele>75.8</ele></trkpt>
      <trkpt lat="34.493610" lon="126.617070"><ele>79.7</ele></trkpt>
      <trkpt lat="34.493170" lon="126.616820"><ele>84.0</ele></trkpt>
      <trkpt lat="34.492040" lon="126.615930"><ele>87.2</ele></trkpt>
      <trkpt lat="34.490860" lon="126.615220"><ele>88.2</ele></trkpt>
      <trkpt lat="34.490560" lon="126.614880"><ele>84.6</ele></trkpt>
      <trkpt lat="34.490221" lon="126.614848"><ele>87.3</ele></trkpt>
      <trkpt lat="34.490063" lon="126.614954"><ele>89.1</ele></trkpt>
      <trkpt lat="34.489971" lon="126.615089"><ele>91.2</ele></trkpt>
      <trkpt lat="34.489722" lon="126.615108"><ele>93.0</ele></trkpt>
      <trkpt lat="34.489560" lon="126.615225"><ele>94.1</ele></trkpt>
      <trkpt lat="34.489372" lon="126.615065"><ele>93.9</ele></trkpt>
      <trkpt lat="34.488861" lon="126.614847"><ele>91.7</ele></trkpt>
      <trkpt lat="34.488700" lon="126.614870"><ele>92.6</ele></trkpt>
      <trkpt lat="34.488250" lon="126.615100"><ele>97.7</ele></trkpt>
      <trkpt lat="34.487580" lon="126.615100"><ele>102.9</ele></trkpt>
      <trkpt lat="34.487140" lon="126.614910"><ele>102.3</ele></trkpt>
      <trkpt lat="34.486490" lon="126.614380"><ele>99.5</ele></trkpt>
      <trkpt lat="34.486050" lon="126.614250"><ele>101.2</ele></trkpt>
      <trkpt lat="34.485570" lon="126.614270"><ele>100.7</ele></trkpt>
      <trkpt lat="34.485210" lon="126.614360"><ele>100.6</ele></trkpt>
      <trkpt lat="34.483459" lon="126.614552"><ele>102.5</ele></trkpt>
      <trkpt lat="34.482738" lon="126.614559"><ele>103.3</ele></trkpt>
      <trkpt lat="34.482484" lon="126.614654"><ele>107.4</ele></trkpt>
      <trkpt lat="34.482246" lon="126.614668"><ele>110.0</ele></trkpt>
      <trkpt lat="34.480402" lon="126.613992"><ele>113.1</ele></trkpt>
      <trkpt lat="34.479349" lon="126.613259"><ele>114.3</ele></trkpt>
      <trkpt lat="34.478738" lon="126.612677"><ele>119.0</ele></trkpt>
      <trkpt lat="34.478220" lon="126.612422"><ele>117.1</ele></trkpt>
      <trkpt lat="34.477983" lon="126.612358"><ele>123.9</ele></trkpt>
      <trkpt lat="34.477923" lon="126.612430"><ele>126.2</ele></trkpt>
      <trkpt lat="34.477725" lon="126.613030"><ele>125.2</ele></trkpt>
      <trkpt lat="34.477427" lon="126.613291"><ele>127.8</ele></trkpt>
      <trkpt lat="34.477292" lon="126.613475"><ele>129.4</ele></trkpt>
      <trkpt lat="34.477466" lon="126.613864"><ele>128.0</ele></trkpt>
      <trkpt lat="34.477570" lon="126.614304"><ele>135.4</ele></trkpt>
      <trkpt lat="34.477424" lon="126.614599"><ele>133.9</ele></trkpt>
      <trkpt lat="34.477287" lon="126.615235"><ele>132.0</ele></trkpt>
      <trkpt lat="34.476785" lon="126.615594"><ele>137.7</ele></trkpt>
      <trkpt lat="34.476584" lon="126.615602"><ele>139.3</ele></trkpt>
      <trkpt lat="34.476479" lon="126.615769"><ele>138.5</ele></trkpt>
      <trkpt lat="34.476311" lon="126.615830"><ele>139.1</ele></trkpt>
      <trkpt lat="34.476207" lon="126.616086"><ele>141.2</ele></trkpt>
      <trkpt lat="34.476090" lon="126.616213"><ele>142.6</ele></trkpt>
      <trkpt lat="34.475968" lon="126.616269"><ele>143.8</ele></trkpt>
      <trkpt lat="34.475595" lon="126.616617"><ele>147.0</ele></trkpt>
      <trkpt lat="34.475102" lon="126.616514"><ele>153.6</ele></trkpt>
      <trkpt lat="34.474637" lon="126.616513"><ele>160.8</ele></trkpt>
      <trkpt lat="34.474421" lon="126.616597"><ele>164.0</ele></trkpt>
      <trkpt lat="34.474097" lon="126.616915"><ele>166.7</ele></trkpt>
      <trkpt lat="34.473874" lon="126.617251"><ele>167.6</ele></trkpt>
      <trkpt lat="34.473766" lon="126.617624"><ele>174.6</ele></trkpt>
    </trkseg>
  </trk>
</gpx>
