<?xml version="1.0" encoding="UTF-8"?>
<gpx version="1.1" creator="kr-100-mountains route-harvester"
     xmlns="http://www.topografix.com/GPX/1/1"
     xmlns:k100="https://github.com/jay-jang/kr-100-mountains/ns/1"
     xmlns:xsi="http://www.w3.org/2001/XMLSchema-instance"
     xsi:schemaLocation="http://www.topografix.com/GPX/1/1 http://www.topografix.com/GPX/1/1/gpx.xsd">
  <metadata>
    <name>두륜산 · 케이블카-고계봉 전망 코스 (OSM 계산 경로)</name>
    <desc>실제 GPS 기록이 아닙니다. OpenStreetMap에 등록된 등산로 선형 위에서 계산한 경로이며, 현장 통제·훼손·출입 제한·계절 통제를 반영하지 않을 수 있습니다. 산행 전 공식 안내를 확인하세요.</desc>
    <time>2026-08-04T05:56:07.636Z</time>
    <link href="https://www.openstreetmap.org/copyright"><text>© OpenStreetMap contributors (ODbL 1.0)</text></link>
    <link href="https://registry.opendata.aws/terrain-tiles/"><text>Elevation: SRTM 1 arc-second (NASA/USGS) via AWS Terrain Tiles</text></link>
    <extensions>
      <k100:provenance>osm-routed</k100:provenance>
      <k100:not_a_recorded_track>true</k100:not_a_recorded_track>
      <k100:mountain_id>duryunsan</k100:mountain_id>
      <k100:mountain_name>두륜산</k100:mountain_name>
      <k100:route_id>duryunsan-06964c9b</k100:route_id>
      <k100:route_index>2</k100:route_index>
      <k100:route_name>케이블카-고계봉 전망 코스</k100:route_name>
      <k100:variant>0</k100:variant>
      <k100:source>OpenStreetMap via Overpass API</k100:source>
      <k100:license>ODbL-1.0</k100:license>
      <k100:attribution>© OpenStreetMap contributors</k100:attribution>
      <k100:elevation_source>SRTM 1 arc-second (NASA/USGS) — AWS Terrain Tiles 배포본. 지형 DEM 추정 고도이며 실측 아님</k100:elevation_source>
      <k100:algorithm>dijkstra-grid-v1</k100:algorithm>
      <k100:osm_snapshot>2026-08-04</k100:osm_snapshot>
      <k100:snap_trailhead_m>96</k100:snap_trailhead_m>
      <k100:snap_summit_m>25</k100:snap_summit_m>
      <k100:validation_score>75</k100:validation_score>
      <k100:validation_status>review</k100:validation_status>
    </extensions>
  </metadata>
  <trk>
    <name>두륜산 · 케이블카-고계봉 전망 코스 (OSM 계산 경로)</name>
    <desc>실제 GPS 기록이 아닙니다. OpenStreetMap에 등록된 등산로 선형 위에서 계산한 경로이며, 현장 통제·훼손·출입 제한·계절 통제를 반영하지 않을 수 있습니다. 산행 전 공식 안내를 확인하세요.</desc>
    <trkseg>
      <trkpt lat="34.496607" lon="126.625178"><ele>107.9</ele></trkpt>
      <trkpt lat="34.495763" lon="126.626600"><ele>125.9</ele></trkpt>
      <trkpt lat="34.495474" lon="126.627347"><ele>141.7</ele></trkpt>
      <trkpt lat="34.494669" lon="126.628174"><ele>159.9</ele></trkpt>
      <trkpt lat="34.494359" lon="126.628713"><ele>174.7</ele></trkpt>
      <trkpt lat="34.494032" lon="126.628858"><ele>182.1</ele></trkpt>
      <trkpt lat="34.493745" lon="126.628826"><ele>183.9</ele></trkpt>
      <trkpt lat="34.492975" lon="126.629673"><ele>215.1</ele></trkpt>
      <trkpt lat="34.492560" lon="126.629984"><ele>224.4</ele></trkpt>
      <trkpt lat="34.491684" lon="126.630296"><ele>242.1</ele></trkpt>
      <trkpt lat="34.491030" lon="126.630263"><ele>262.0</ele></trkpt>
      <trkpt lat="34.489916" lon="126.630542"><ele>298.4</ele></trkpt>
      <trkpt lat="34.487953" lon="126.631234"><ele>360.5</ele></trkpt>
      <trkpt lat="34.487108" lon="126.631395"><ele>406.5</ele></trkpt>
      <trkpt lat="34.485344" lon="126.630886"><ele>509.9</ele></trkpt>
      <trkpt lat="34.484729" lon="126.630971"><ele>553.0</ele></trkpt>
      <trkpt lat="34.484163" lon="126.631240"><ele>572.9</ele></trkpt>
      <trkpt lat="34.483722" lon="126.631889"><ele>581.1</ele></trkpt>
      <trkpt lat="34.483536" lon="126.631948"><ele>584.1</ele></trkpt>
      <trkpt lat="34.483312" lon="126.632172"><ele>582.0</ele></trkpt>
      <trkpt lat="34.483257" lon="126.632289"><ele>582.9</ele></trkpt>
      <trkpt lat="34.482368" lon="126.633353"><ele>614.5</ele></trkpt>
      <trkpt lat="34.482085" lon="126.633799"><ele>622.6</ele></trkpt>
      <trkpt lat="34.481859" lon="126.633740"><ele>623.2</ele></trkpt>
      <trkpt lat="34.481683" lon="126.633622"><ele>624.7</ele></trkpt>
      <trkpt lat="34.481426" lon="126.633852"><ele>617.6</ele></trkpt>
      <trkpt lat="34.481161" lon="126.633884"><ele>612.9</ele></trkpt>
      <trkpt lat="34.480847" lon="126.634195"><ele>583.3</ele></trkpt>
      <trkpt lat="34.480601" lon="126.634195"><ele>570.2</ele></trkpt>
      <trkpt lat="34.480387" lon="126.634314"><ele>558.2</ele></trkpt>
      <trkpt lat="34.479649" lon="126.634094"><ele>522.2</ele></trkpt>
      <trkpt lat="34.479268" lon="126.634303"><ele>495.4</ele></trkpt>
      <trkpt lat="34.479100" lon="126.634300"><ele>483.7</ele></trkpt>
      <trkpt lat="34.478496" lon="126.634579"><ele>462.7</ele></trkpt>
      <trkpt lat="34.478057" lon="126.634579"><ele>456.6</ele></trkpt>
      <trkpt lat="34.477905" lon="126.634778"><ele>451.5</ele></trkpt>
      <trkpt lat="34.477695" lon="126.634669"><ele>451.1</ele></trkpt>
      <trkpt lat="34.477602" lon="126.634389"><ele>454.2</ele></trkpt>
      <trkpt lat="34.477451" lon="126.634174"><ele>454.5</ele></trkpt>
      <trkpt lat="34.476318" lon="126.633194"><ele>460.7</ele></trkpt>
      <trkpt lat="34.476051" lon="126.632817"><ele>465.7</ele></trkpt>
      <trkpt lat="34.475725" lon="126.632475"><ele>470.7</ele></trkpt>
      <trkpt lat="34.475154" lon="126.632258"><ele>471.0</ele></trkpt>
      <trkpt lat="34.475001" lon="126.631787"><ele>460.6</ele></trkpt>
      <trkpt lat="34.474690" lon="126.631304"><ele>459.9</ele></trkpt>
      <trkpt lat="34.474410" lon="126.630740"><ele>445.8</ele></trkpt>
      <trkpt lat="34.474638" lon="126.630510"><ele>439.5</ele></trkpt>
      <trkpt lat="34.474804" lon="126.630226"><ele>426.5</ele></trkpt>
      <trkpt lat="34.474892" lon="126.629968"><ele>412.5</ele></trkpt>
      <trkpt lat="34.474999" lon="126.629872"><ele>406.1</ele></trkpt>
      <trkpt lat="34.475184" lon="126.629829"><ele>403.7</ele></trkpt>
      <trkpt lat="34.475496" lon="126.629923"><ele>404.1</ele></trkpt>
      <trkpt lat="34.475576" lon="126.629837"><ele>398.0</ele></trkpt>
      <trkpt lat="34.475505" lon="126.629620"><ele>389.4</ele></trkpt>
      <trkpt lat="34.475514" lon="126.629507"><ele>383.9</ele></trkpt>
      <trkpt lat="34.475399" lon="126.629231"><ele>375.5</ele></trkpt>
      <trkpt lat="34.475487" lon="126.628579"><ele>350.9</ele></trkpt>
      <trkpt lat="34.475580" lon="126.628445"><ele>346.3</ele></trkpt>
      <trkpt lat="34.475848" lon="126.627734"><ele>323.0</ele></trkpt>
      <trkpt lat="34.475983" lon="126.627557"><ele>314.9</ele></trkpt>
      <trkpt lat="34.476084" lon="126.627538"><ele>313.3</ele></trkpt>
      <trkpt lat="34.476193" lon="126.627358"><ele>305.4</ele></trkpt>
      <trkpt lat="34.476133" lon="126.627149"><ele>299.4</ele></trkpt>
      <trkpt lat="34.476162" lon="126.626685"><ele>288.4</ele></trkpt>
      <trkpt lat="34.476307" lon="126.626110"><ele>273.5</ele></trkpt>
      <trkpt lat="34.476378" lon="126.625985"><ele>269.5</ele></trkpt>
      <trkpt lat="34.476443" lon="126.625591"><ele>258.0</ele></trkpt>
      <trkpt lat="34.476433" lon="126.625458"><ele>254.5</ele></trkpt>
      <trkpt lat="34.476375" lon="126.625423"><ele>254.6</ele></trkpt>
      <trkpt lat="34.476319" lon="126.625267"><ele>251.5</ele></trkpt>
      <trkpt lat="34.476339" lon="126.625093"><ele>246.8</ele></trkpt>
      <trkpt lat="34.476258" lon="126.624947"><ele>244.4</ele></trkpt>
      <trkpt lat="34.476304" lon="126.624779"><ele>241.0</ele></trkpt>
      <trkpt lat="34.476259" lon="126.624556"><ele>236.1</ele></trkpt>
      <trkpt lat="34.476275" lon="126.624297"><ele>231.2</ele></trkpt>
      <trkpt lat="34.476372" lon="126.623802"><ele>226.6</ele></trkpt>
      <trkpt lat="34.476122" lon="126.622918"><ele>213.1</ele></trkpt>
      <trkpt lat="34.476139" lon="126.622652"><ele>208.8</ele></trkpt>
      <trkpt lat="34.475607" lon="126.622128"><ele>197.3</ele></trkpt>
      <trkpt lat="34.475483" lon="126.622093"><ele>198.5</ele></trkpt>
      <trkpt lat="34.475446" lon="126.621796"><ele>195.9</ele></trkpt>
      <trkpt lat="34.475264" lon="126.621273"><ele>191.1</ele></trkpt>
      <trkpt lat="34.475291" lon="126.621014"><ele>186.1</ele></trkpt>
      <trkpt lat="34.475217" lon="126.620772"><ele>184.4</ele></trkpt>
      <trkpt lat="34.475275" lon="126.619030"><ele>167.1</ele></trkpt>
      <trkpt lat="34.475335" lon="126.618749"><ele>166.5</ele></trkpt>
      <trkpt lat="34.475531" lon="126.618376"><ele>163.6</ele></trkpt>
      <trkpt lat="34.475507" lon="126.618108"><ele>163.4</ele></trkpt>
      <trkpt lat="34.475401" lon="126.617823"><ele>162.4</ele></trkpt>
      <trkpt lat="34.475507" lon="126.617255"><ele>155.8</ele></trkpt>
      <trkpt lat="34.475604" lon="126.616989"><ele>150.8</ele></trkpt>
      <trkpt lat="34.475595" lon="126.616617"><ele>147.0</ele></trkpt>
      <trkpt lat="34.475102" lon="126.616514"><ele>153.6</ele></trkpt>
      <trkpt lat="34.474637" lon="126.616513"><ele>160.8</ele></trkpt>
      <trkpt lat="34.474421" lon="126.616597"><ele>164.0</ele></trkpt>
      <trkpt lat="34.474097" lon="126.616915"><ele>166.7</ele></trkpt>
      <trkpt lat="34.473874" lon="126.617251"><ele>167.6</ele></trkpt>
      <trkpt lat="34.473766" lon="126.617624"><ele>174.6</ele></trkpt>
    </trkseg>
  </trk>
</gpx>
