<?xml version="1.0" encoding="UTF-8"?>
<gpx version="1.1" creator="kr-100-mountains route-harvester"
     xmlns="http://www.topografix.com/GPX/1/1"
     xmlns:k100="https://github.com/jay-jang/kr-100-mountains/ns/1"
     xmlns:xsi="http://www.w3.org/2001/XMLSchema-instance"
     xsi:schemaLocation="http://www.topografix.com/GPX/1/1 http://www.topografix.com/GPX/1/1/gpx.xsd">
  <metadata>
    <name>금정산 · 금정산성 종주(동문~북문~고당봉) (대안 1) (OSM 계산 경로)</name>
    <desc>실제 GPS 기록이 아닙니다. OpenStreetMap에 등록된 등산로 선형 위에서 계산한 경로이며, 현장 통제·훼손·출입 제한·계절 통제를 반영하지 않을 수 있습니다. 산행 전 공식 안내를 확인하세요.</desc>
    <time>2026-08-04T05:46:34.741Z</time>
    <link href="https://www.openstreetmap.org/copyright"><text>© OpenStreetMap contributors (ODbL 1.0)</text></link>
    <link href="https://registry.opendata.aws/terrain-tiles/"><text>Elevation: SRTM 1 arc-second (NASA/USGS) via AWS Terrain Tiles</text></link>
    <extensions>
      <k100:provenance>osm-routed</k100:provenance>
      <k100:not_a_recorded_track>true</k100:not_a_recorded_track>
      <k100:mountain_id>geumjeongsan</k100:mountain_id>
      <k100:mountain_name>금정산</k100:mountain_name>
      <k100:route_id>geumjeongsan-bb673fb1</k100:route_id>
      <k100:route_index>2</k100:route_index>
      <k100:route_name>금정산성 종주(동문~북문~고당봉)</k100:route_name>
      <k100:variant>1</k100:variant>
      <k100:source>OpenStreetMap via Overpass API</k100:source>
      <k100:license>ODbL-1.0</k100:license>
      <k100:attribution>© OpenStreetMap contributors</k100:attribution>
      <k100:elevation_source>SRTM 1 arc-second (NASA/USGS) — AWS Terrain Tiles 배포본. 지형 DEM 추정 고도이며 실측 아님</k100:elevation_source>
      <k100:algorithm>dijkstra-grid-v1</k100:algorithm>
      <k100:osm_snapshot>2026-08-04</k100:osm_snapshot>
      <k100:snap_trailhead_m>211</k100:snap_trailhead_m>
      <k100:snap_summit_m>12</k100:snap_summit_m>
      <k100:validation_score>87</k100:validation_score>
      <k100:validation_status>accepted</k100:validation_status>
    </extensions>
  </metadata>
  <trk>
    <name>금정산 · 금정산성 종주(동문~북문~고당봉) (대안 1) (OSM 계산 경로)</name>
    <desc>실제 GPS 기록이 아닙니다. OpenStreetMap에 등록된 등산로 선형 위에서 계산한 경로이며, 현장 통제·훼손·출입 제한·계절 통제를 반영하지 않을 수 있습니다. 산행 전 공식 안내를 확인하세요.</desc>
    <trkseg>
      <trkpt lat="35.251306" lon="129.059722"><ele>356.7</ele></trkpt>
      <trkpt lat="35.250989" lon="129.059303"><ele>346.3</ele></trkpt>
      <trkpt lat="35.250731" lon="129.058660"><ele>332.1</ele></trkpt>
      <trkpt lat="35.250428" lon="129.058504"><ele>328.8</ele></trkpt>
      <trkpt lat="35.250169" lon="129.058451"><ele>327.5</ele></trkpt>
      <trkpt lat="35.250030" lon="129.058265"><ele>326.3</ele></trkpt>
      <trkpt lat="35.250020" lon="129.058113"><ele>324.7</ele></trkpt>
      <trkpt lat="35.250856" lon="129.057443"><ele>325.1</ele></trkpt>
      <trkpt lat="35.250977" lon="129.057276"><ele>322.5</ele></trkpt>
      <trkpt lat="35.251246" lon="129.057220"><ele>322.5</ele></trkpt>
      <trkpt lat="35.251467" lon="129.057034"><ele>322.0</ele></trkpt>
      <trkpt lat="35.251130" lon="129.056106"><ele>312.2</ele></trkpt>
      <trkpt lat="35.250883" lon="129.055612"><ele>309.0</ele></trkpt>
      <trkpt lat="35.251247" lon="129.054242"><ele>299.4</ele></trkpt>
      <trkpt lat="35.251464" lon="129.054201"><ele>300.9</ele></trkpt>
      <trkpt lat="35.251757" lon="129.053993"><ele>304.0</ele></trkpt>
      <trkpt lat="35.251963" lon="129.054015"><ele>307.7</ele></trkpt>
      <trkpt lat="35.252090" lon="129.053945"><ele>309.2</ele></trkpt>
      <trkpt lat="35.252195" lon="129.053387"><ele>308.6</ele></trkpt>
      <trkpt lat="35.252436" lon="129.053033"><ele>312.1</ele></trkpt>
      <trkpt lat="35.252405" lon="129.052679"><ele>312.6</ele></trkpt>
      <trkpt lat="35.252532" lon="129.052625"><ele>315.1</ele></trkpt>
      <trkpt lat="35.252683" lon="129.052451"><ele>319.3</ele></trkpt>
      <trkpt lat="35.252712" lon="129.052330"><ele>320.7</ele></trkpt>
      <trkpt lat="35.252622" lon="129.051668"><ele>328.5</ele></trkpt>
      <trkpt lat="35.252699" lon="129.051448"><ele>329.6</ele></trkpt>
      <trkpt lat="35.252805" lon="129.051296"><ele>329.0</ele></trkpt>
      <trkpt lat="35.253474" lon="129.051108"><ele>331.9</ele></trkpt>
      <trkpt lat="35.253582" lon="129.050971"><ele>330.0</ele></trkpt>
      <trkpt lat="35.253806" lon="129.050323"><ele>332.3</ele></trkpt>
      <trkpt lat="35.254018" lon="129.050159"><ele>338.6</ele></trkpt>
      <trkpt lat="35.254592" lon="129.050103"><ele>354.5</ele></trkpt>
      <trkpt lat="35.255004" lon="129.049805"><ele>351.0</ele></trkpt>
      <trkpt lat="35.255752" lon="129.049731"><ele>356.6</ele></trkpt>
      <trkpt lat="35.256037" lon="129.049883"><ele>358.3</ele></trkpt>
      <trkpt lat="35.256890" lon="129.049763"><ele>356.1</ele></trkpt>
      <trkpt lat="35.257166" lon="129.049552"><ele>355.4</ele></trkpt>
      <trkpt lat="35.257374" lon="129.049590"><ele>359.3</ele></trkpt>
      <trkpt lat="35.257532" lon="129.049711"><ele>361.9</ele></trkpt>
      <trkpt lat="35.258341" lon="129.049671"><ele>370.0</ele></trkpt>
      <trkpt lat="35.258601" lon="129.049868"><ele>378.9</ele></trkpt>
      <trkpt lat="35.258733" lon="129.049922"><ele>380.4</ele></trkpt>
      <trkpt lat="35.258885" lon="129.049907"><ele>381.0</ele></trkpt>
      <trkpt lat="35.259584" lon="129.050202"><ele>387.4</ele></trkpt>
      <trkpt lat="35.259737" lon="129.050003"><ele>383.1</ele></trkpt>
      <trkpt lat="35.260033" lon="129.049987"><ele>383.6</ele></trkpt>
      <trkpt lat="35.260894" lon="129.049755"><ele>381.4</ele></trkpt>
      <trkpt lat="35.261218" lon="129.049659"><ele>382.8</ele></trkpt>
      <trkpt lat="35.261387" lon="129.049525"><ele>381.7</ele></trkpt>
      <trkpt lat="35.262543" lon="129.049809"><ele>392.7</ele></trkpt>
      <trkpt lat="35.263131" lon="129.049815"><ele>397.6</ele></trkpt>
      <trkpt lat="35.263884" lon="129.049694"><ele>403.9</ele></trkpt>
      <trkpt lat="35.264236" lon="129.049699"><ele>406.8</ele></trkpt>
      <trkpt lat="35.264409" lon="129.049573"><ele>405.9</ele></trkpt>
      <trkpt lat="35.264918" lon="129.049442"><ele>410.1</ele></trkpt>
      <trkpt lat="35.265112" lon="129.049297"><ele>412.1</ele></trkpt>
      <trkpt lat="35.265531" lon="129.049439"><ele>419.5</ele></trkpt>
      <trkpt lat="35.265899" lon="129.049385"><ele>426.0</ele></trkpt>
      <trkpt lat="35.266297" lon="129.049425"><ele>433.5</ele></trkpt>
      <trkpt lat="35.266772" lon="129.049667"><ele>441.7</ele></trkpt>
      <trkpt lat="35.267230" lon="129.049761"><ele>450.1</ele></trkpt>
      <trkpt lat="35.267911" lon="129.050056"><ele>460.7</ele></trkpt>
      <trkpt lat="35.268143" lon="129.050013"><ele>464.9</ele></trkpt>
      <trkpt lat="35.268564" lon="129.050131"><ele>473.6</ele></trkpt>
      <trkpt lat="35.269129" lon="129.050099"><ele>485.0</ele></trkpt>
      <trkpt lat="35.269453" lon="129.050142"><ele>489.1</ele></trkpt>
      <trkpt lat="35.269746" lon="129.049927"><ele>495.7</ele></trkpt>
      <trkpt lat="35.270132" lon="129.049820"><ele>504.5</ele></trkpt>
      <trkpt lat="35.270535" lon="129.049498"><ele>518.3</ele></trkpt>
      <trkpt lat="35.270859" lon="129.049337"><ele>529.0</ele></trkpt>
      <trkpt lat="35.271117" lon="129.049026"><ele>541.8</ele></trkpt>
      <trkpt lat="35.271196" lon="129.049036"><ele>545.2</ele></trkpt>
      <trkpt lat="35.271450" lon="129.049530"><ele>551.7</ele></trkpt>
      <trkpt lat="35.271914" lon="129.049873"><ele>563.8</ele></trkpt>
      <trkpt lat="35.272155" lon="129.050292"><ele>564.5</ele></trkpt>
      <trkpt lat="35.272330" lon="129.050404"><ele>568.2</ele></trkpt>
      <trkpt lat="35.272479" lon="129.050415"><ele>572.4</ele></trkpt>
      <trkpt lat="35.272961" lon="129.050002"><ele>592.9</ele></trkpt>
      <trkpt lat="35.273101" lon="129.050080"><ele>596.3</ele></trkpt>
      <trkpt lat="35.273320" lon="129.050107"><ele>604.3</ele></trkpt>
      <trkpt lat="35.273411" lon="129.050056"><ele>608.2</ele></trkpt>
      <trkpt lat="35.273474" lon="129.049958"><ele>611.8</ele></trkpt>
      <trkpt lat="35.273467" lon="129.049859"><ele>613.1</ele></trkpt>
      <trkpt lat="35.273738" lon="129.049543"><ele>623.8</ele></trkpt>
      <trkpt lat="35.273846" lon="129.049580"><ele>626.0</ele></trkpt>
      <trkpt lat="35.274020" lon="129.049995"><ele>630.2</ele></trkpt>
      <trkpt lat="35.275046" lon="129.049399"><ele>672.1</ele></trkpt>
      <trkpt lat="35.275199" lon="129.049211"><ele>678.6</ele></trkpt>
      <trkpt lat="35.275493" lon="129.049109"><ele>686.5</ele></trkpt>
      <trkpt lat="35.275865" lon="129.049098"><ele>692.9</ele></trkpt>
      <trkpt lat="35.276210" lon="129.048866"><ele>697.3</ele></trkpt>
      <trkpt lat="35.276740" lon="129.048980"><ele>706.5</ele></trkpt>
      <trkpt lat="35.276961" lon="129.049576"><ele>714.6</ele></trkpt>
      <trkpt lat="35.277450" lon="129.050045"><ele>721.6</ele></trkpt>
      <trkpt lat="35.278508" lon="129.050170"><ele>734.0</ele></trkpt>
      <trkpt lat="35.278803" lon="129.050158"><ele>742.2</ele></trkpt>
      <trkpt lat="35.278910" lon="129.050050"><ele>746.1</ele></trkpt>
      <trkpt lat="35.279338" lon="129.050147"><ele>757.6</ele></trkpt>
      <trkpt lat="35.279769" lon="129.050096"><ele>763.3</ele></trkpt>
      <trkpt lat="35.280358" lon="129.049766"><ele>738.6</ele></trkpt>
      <trkpt lat="35.280541" lon="129.049554"><ele>728.7</ele></trkpt>
      <trkpt lat="35.280680" lon="129.049739"><ele>726.5</ele></trkpt>
      <trkpt lat="35.280687" lon="129.049899"><ele>729.4</ele></trkpt>
      <trkpt lat="35.280905" lon="129.050201"><ele>725.8</ele></trkpt>
      <trkpt lat="35.281832" lon="129.050659"><ele>727.7</ele></trkpt>
      <trkpt lat="35.282246" lon="129.050499"><ele>729.0</ele></trkpt>
      <trkpt lat="35.283583" lon="129.050635"><ele>721.3</ele></trkpt>
      <trkpt lat="35.283731" lon="129.050559"><ele>723.0</ele></trkpt>
      <trkpt lat="35.283906" lon="129.050549"><ele>722.2</ele></trkpt>
      <trkpt lat="35.284124" lon="129.050652"><ele>720.7</ele></trkpt>
      <trkpt lat="35.284426" lon="129.050693"><ele>722.3</ele></trkpt>
      <trkpt lat="35.284502" lon="129.050271"><ele>719.3</ele></trkpt>
      <trkpt lat="35.284493" lon="129.050024"><ele>710.6</ele></trkpt>
      <trkpt lat="35.284449" lon="129.049542"><ele>694.6</ele></trkpt>
      <trkpt lat="35.284379" lon="129.049402"><ele>695.2</ele></trkpt>
      <trkpt lat="35.284554" lon="129.049166"><ele>682.2</ele></trkpt>
      <trkpt lat="35.284782" lon="129.049112"><ele>672.7</ele></trkpt>
      <trkpt lat="35.284773" lon="129.047782"><ele>616.5</ele></trkpt>
      <trkpt lat="35.284642" lon="129.046634"><ele>568.0</ele></trkpt>
      <trkpt lat="35.284379" lon="129.045840"><ele>547.6</ele></trkpt>
      <trkpt lat="35.284432" lon="129.045293"><ele>522.8</ele></trkpt>
      <trkpt lat="35.284178" lon="129.044467"><ele>490.1</ele></trkpt>
      <trkpt lat="35.284362" lon="129.043608"><ele>468.3</ele></trkpt>
      <trkpt lat="35.284248" lon="129.043544"><ele>465.7</ele></trkpt>
      <trkpt lat="35.283994" lon="129.043791"><ele>473.6</ele></trkpt>
      <trkpt lat="35.283726" lon="129.043929"><ele>481.2</ele></trkpt>
      <trkpt lat="35.283744" lon="129.044165"><ele>488.1</ele></trkpt>
      <trkpt lat="35.283673" lon="129.044605"><ele>507.4</ele></trkpt>
    </trkseg>
  </trk>
</gpx>
