<?xml version="1.0" encoding="UTF-8"?>
<gpx version="1.1" creator="kr-100-mountains route-harvester"
     xmlns="http://www.topografix.com/GPX/1/1"
     xmlns:k100="https://github.com/jay-jang/kr-100-mountains/ns/1"
     xmlns:xsi="http://www.w3.org/2001/XMLSchema-instance"
     xsi:schemaLocation="http://www.topografix.com/GPX/1/1 http://www.topografix.com/GPX/1/1/gpx.xsd">
  <metadata>
    <name>금정산 · 범어사-북문-고당봉 코스 (대안 1) (OSM 계산 경로)</name>
    <desc>실제 GPS 기록이 아닙니다. OpenStreetMap에 등록된 등산로 선형 위에서 계산한 경로이며, 현장 통제·훼손·출입 제한·계절 통제를 반영하지 않을 수 있습니다. 산행 전 공식 안내를 확인하세요.</desc>
    <time>2026-08-04T05:46:34.650Z</time>
    <link href="https://www.openstreetmap.org/copyright"><text>© OpenStreetMap contributors (ODbL 1.0)</text></link>
    <link href="https://registry.opendata.aws/terrain-tiles/"><text>Elevation: SRTM 1 arc-second (NASA/USGS) via AWS Terrain Tiles</text></link>
    <extensions>
      <k100:provenance>osm-routed</k100:provenance>
      <k100:not_a_recorded_track>true</k100:not_a_recorded_track>
      <k100:mountain_id>geumjeongsan</k100:mountain_id>
      <k100:mountain_name>금정산</k100:mountain_name>
      <k100:route_id>geumjeongsan-3db478fb</k100:route_id>
      <k100:route_index>1</k100:route_index>
      <k100:route_name>범어사-북문-고당봉 코스</k100:route_name>
      <k100:variant>1</k100:variant>
      <k100:source>OpenStreetMap via Overpass API</k100:source>
      <k100:license>ODbL-1.0</k100:license>
      <k100:attribution>© OpenStreetMap contributors</k100:attribution>
      <k100:elevation_source>SRTM 1 arc-second (NASA/USGS) — AWS Terrain Tiles 배포본. 지형 DEM 추정 고도이며 실측 아님</k100:elevation_source>
      <k100:algorithm>dijkstra-grid-v1</k100:algorithm>
      <k100:osm_snapshot>2026-08-04</k100:osm_snapshot>
      <k100:snap_trailhead_m>12</k100:snap_trailhead_m>
      <k100:snap_summit_m>12</k100:snap_summit_m>
      <k100:validation_score>84</k100:validation_score>
      <k100:validation_status>accepted</k100:validation_status>
    </extensions>
  </metadata>
  <trk>
    <name>금정산 · 범어사-북문-고당봉 코스 (대안 1) (OSM 계산 경로)</name>
    <desc>실제 GPS 기록이 아닙니다. OpenStreetMap에 등록된 등산로 선형 위에서 계산한 경로이며, 현장 통제·훼손·출입 제한·계절 통제를 반영하지 않을 수 있습니다. 산행 전 공식 안내를 확인하세요.</desc>
    <trkseg>
      <trkpt lat="35.284105" lon="129.068618"><ele>337.1</ele></trkpt>
      <trkpt lat="35.284352" lon="129.068774"><ele>334.3</ele></trkpt>
      <trkpt lat="35.284596" lon="129.068848"><ele>333.3</ele></trkpt>
      <trkpt lat="35.284839" lon="129.069087"><ele>330.9</ele></trkpt>
      <trkpt lat="35.284885" lon="129.069200"><ele>329.5</ele></trkpt>
      <trkpt lat="35.284857" lon="129.069549"><ele>324.8</ele></trkpt>
      <trkpt lat="35.285003" lon="129.069509"><ele>326.3</ele></trkpt>
      <trkpt lat="35.285441" lon="129.069152"><ele>332.8</ele></trkpt>
      <trkpt lat="35.285563" lon="129.069104"><ele>334.3</ele></trkpt>
      <trkpt lat="35.285778" lon="129.069190"><ele>337.0</ele></trkpt>
      <trkpt lat="35.285880" lon="129.069351"><ele>337.2</ele></trkpt>
      <trkpt lat="35.286019" lon="129.069457"><ele>338.8</ele></trkpt>
      <trkpt lat="35.286143" lon="129.069463"><ele>340.7</ele></trkpt>
      <trkpt lat="35.286279" lon="129.069370"><ele>342.4</ele></trkpt>
      <trkpt lat="35.286527" lon="129.069365"><ele>346.7</ele></trkpt>
      <trkpt lat="35.286783" lon="129.069573"><ele>354.7</ele></trkpt>
      <trkpt lat="35.286840" lon="129.069570"><ele>356.1</ele></trkpt>
      <trkpt lat="35.287219" lon="129.069252"><ele>360.1</ele></trkpt>
      <trkpt lat="35.287431" lon="129.069227"><ele>364.8</ele></trkpt>
      <trkpt lat="35.287640" lon="129.068818"><ele>364.4</ele></trkpt>
      <trkpt lat="35.287923" lon="129.068546"><ele>370.4</ele></trkpt>
      <trkpt lat="35.288247" lon="129.067938"><ele>374.0</ele></trkpt>
      <trkpt lat="35.288451" lon="129.067857"><ele>376.6</ele></trkpt>
      <trkpt lat="35.288931" lon="129.068029"><ele>388.2</ele></trkpt>
      <trkpt lat="35.289867" lon="129.068134"><ele>399.7</ele></trkpt>
      <trkpt lat="35.290654" lon="129.067999"><ele>406.3</ele></trkpt>
      <trkpt lat="35.290846" lon="129.068049"><ele>408.0</ele></trkpt>
      <trkpt lat="35.290948" lon="129.067831"><ele>410.0</ele></trkpt>
      <trkpt lat="35.290904" lon="129.067648"><ele>411.3</ele></trkpt>
      <trkpt lat="35.290950" lon="129.067193"><ele>414.2</ele></trkpt>
      <trkpt lat="35.290902" lon="129.066841"><ele>420.2</ele></trkpt>
      <trkpt lat="35.290631" lon="129.066191"><ele>428.5</ele></trkpt>
      <trkpt lat="35.290650" lon="129.065886"><ele>434.8</ele></trkpt>
      <trkpt lat="35.290584" lon="129.065694"><ele>437.9</ele></trkpt>
      <trkpt lat="35.290515" lon="129.065545"><ele>440.0</ele></trkpt>
      <trkpt lat="35.290439" lon="129.065547"><ele>437.8</ele></trkpt>
      <trkpt lat="35.290205" lon="129.065312"><ele>435.8</ele></trkpt>
      <trkpt lat="35.290097" lon="129.065098"><ele>438.2</ele></trkpt>
      <trkpt lat="35.290091" lon="129.064574"><ele>448.5</ele></trkpt>
      <trkpt lat="35.289782" lon="129.063649"><ele>463.8</ele></trkpt>
      <trkpt lat="35.289682" lon="129.062795"><ele>472.7</ele></trkpt>
      <trkpt lat="35.289497" lon="129.062570"><ele>471.5</ele></trkpt>
      <trkpt lat="35.289186" lon="129.062037"><ele>473.8</ele></trkpt>
      <trkpt lat="35.289052" lon="129.061125"><ele>492.5</ele></trkpt>
      <trkpt lat="35.288879" lon="129.060755"><ele>494.9</ele></trkpt>
      <trkpt lat="35.288865" lon="129.060578"><ele>497.2</ele></trkpt>
      <trkpt lat="35.288949" lon="129.060332"><ele>500.7</ele></trkpt>
      <trkpt lat="35.288909" lon="129.060206"><ele>501.1</ele></trkpt>
      <trkpt lat="35.288618" lon="129.059996"><ele>501.1</ele></trkpt>
      <trkpt lat="35.288594" lon="129.059875"><ele>504.3</ele></trkpt>
      <trkpt lat="35.288767" lon="129.059582"><ele>510.2</ele></trkpt>
      <trkpt lat="35.288745" lon="129.059240"><ele>516.6</ele></trkpt>
      <trkpt lat="35.288610" lon="129.058689"><ele>527.6</ele></trkpt>
      <trkpt lat="35.288407" lon="129.058490"><ele>532.8</ele></trkpt>
      <trkpt lat="35.288153" lon="129.058397"><ele>536.2</ele></trkpt>
      <trkpt lat="35.287787" lon="129.058392"><ele>536.9</ele></trkpt>
      <trkpt lat="35.287587" lon="129.058316"><ele>539.7</ele></trkpt>
      <trkpt lat="35.287381" lon="129.058020"><ele>547.7</ele></trkpt>
      <trkpt lat="35.286849" lon="129.057912"><ele>555.3</ele></trkpt>
      <trkpt lat="35.286754" lon="129.057745"><ele>559.6</ele></trkpt>
      <trkpt lat="35.286797" lon="129.057259"><ele>568.8</ele></trkpt>
      <trkpt lat="35.286859" lon="129.057097"><ele>572.2</ele></trkpt>
      <trkpt lat="35.286818" lon="129.056847"><ele>577.7</ele></trkpt>
      <trkpt lat="35.286719" lon="129.056630"><ele>582.2</ele></trkpt>
      <trkpt lat="35.286771" lon="129.056138"><ele>590.7</ele></trkpt>
      <trkpt lat="35.286510" lon="129.055932"><ele>599.4</ele></trkpt>
      <trkpt lat="35.286322" lon="129.055531"><ele>610.3</ele></trkpt>
      <trkpt lat="35.285947" lon="129.055484"><ele>616.0</ele></trkpt>
      <trkpt lat="35.285782" lon="129.055399"><ele>620.2</ele></trkpt>
      <trkpt lat="35.285660" lon="129.055044"><ele>628.5</ele></trkpt>
      <trkpt lat="35.285622" lon="129.054709"><ele>636.8</ele></trkpt>
      <trkpt lat="35.285562" lon="129.054648"><ele>638.3</ele></trkpt>
      <trkpt lat="35.285200" lon="129.054752"><ele>637.3</ele></trkpt>
      <trkpt lat="35.285304" lon="129.054452"><ele>644.5</ele></trkpt>
      <trkpt lat="35.285100" lon="129.054178"><ele>652.6</ele></trkpt>
      <trkpt lat="35.284931" lon="129.053739"><ele>664.6</ele></trkpt>
      <trkpt lat="35.284896" lon="129.053447"><ele>672.2</ele></trkpt>
      <trkpt lat="35.284765" lon="129.053336"><ele>675.8</ele></trkpt>
      <trkpt lat="35.284747" lon="129.053136"><ele>683.0</ele></trkpt>
      <trkpt lat="35.284966" lon="129.052761"><ele>691.5</ele></trkpt>
      <trkpt lat="35.284558" lon="129.051740"><ele>719.7</ele></trkpt>
      <trkpt lat="35.284553" lon="129.051491"><ele>721.1</ele></trkpt>
      <trkpt lat="35.284444" lon="129.051243"><ele>722.5</ele></trkpt>
      <trkpt lat="35.284426" lon="129.050693"><ele>722.3</ele></trkpt>
      <trkpt lat="35.284502" lon="129.050271"><ele>719.3</ele></trkpt>
      <trkpt lat="35.284449" lon="129.049542"><ele>694.6</ele></trkpt>
      <trkpt lat="35.284379" lon="129.049402"><ele>695.2</ele></trkpt>
      <trkpt lat="35.284554" lon="129.049166"><ele>682.2</ele></trkpt>
      <trkpt lat="35.284782" lon="129.049112"><ele>672.7</ele></trkpt>
      <trkpt lat="35.284773" lon="129.047782"><ele>616.5</ele></trkpt>
      <trkpt lat="35.284642" lon="129.046634"><ele>568.0</ele></trkpt>
      <trkpt lat="35.284379" lon="129.045840"><ele>547.6</ele></trkpt>
      <trkpt lat="35.284432" lon="129.045293"><ele>522.8</ele></trkpt>
      <trkpt lat="35.284178" lon="129.044467"><ele>490.1</ele></trkpt>
      <trkpt lat="35.284362" lon="129.043608"><ele>468.3</ele></trkpt>
      <trkpt lat="35.284248" lon="129.043544"><ele>465.7</ele></trkpt>
      <trkpt lat="35.283994" lon="129.043791"><ele>473.6</ele></trkpt>
      <trkpt lat="35.283726" lon="129.043929"><ele>481.2</ele></trkpt>
      <trkpt lat="35.283744" lon="129.044165"><ele>488.1</ele></trkpt>
      <trkpt lat="35.283673" lon="129.044605"><ele>507.4</ele></trkpt>
    </trkseg>
  </trk>
</gpx>
