<?xml version="1.0" encoding="UTF-8"?>
<gpx version="1.1" creator="kr-100-mountains route-harvester"
     xmlns="http://www.topografix.com/GPX/1/1"
     xmlns:k100="https://github.com/jay-jang/kr-100-mountains/ns/1"
     xmlns:xsi="http://www.w3.org/2001/XMLSchema-instance"
     xsi:schemaLocation="http://www.topografix.com/GPX/1/1 http://www.topografix.com/GPX/1/1/gpx.xsd">
  <metadata>
    <name>금정산 · 금정산성 종주(동문~북문~고당봉) (OSM 계산 경로)</name>
    <desc>실제 GPS 기록이 아닙니다. OpenStreetMap에 등록된 등산로 선형 위에서 계산한 경로이며, 현장 통제·훼손·출입 제한·계절 통제를 반영하지 않을 수 있습니다. 산행 전 공식 안내를 확인하세요.</desc>
    <time>2026-08-04T05:46:34.740Z</time>
    <link href="https://www.openstreetmap.org/copyright"><text>© OpenStreetMap contributors (ODbL 1.0)</text></link>
    <link href="https://registry.opendata.aws/terrain-tiles/"><text>Elevation: SRTM 1 arc-second (NASA/USGS) via AWS Terrain Tiles</text></link>
    <extensions>
      <k100:provenance>osm-routed</k100:provenance>
      <k100:not_a_recorded_track>true</k100:not_a_recorded_track>
      <k100:mountain_id>geumjeongsan</k100:mountain_id>
      <k100:mountain_name>금정산</k100:mountain_name>
      <k100:route_id>geumjeongsan-bb673fb1</k100:route_id>
      <k100:route_index>2</k100:route_index>
      <k100:route_name>금정산성 종주(동문~북문~고당봉)</k100:route_name>
      <k100:variant>0</k100:variant>
      <k100:source>OpenStreetMap via Overpass API</k100:source>
      <k100:license>ODbL-1.0</k100:license>
      <k100:attribution>© OpenStreetMap contributors</k100:attribution>
      <k100:elevation_source>SRTM 1 arc-second (NASA/USGS) — AWS Terrain Tiles 배포본. 지형 DEM 추정 고도이며 실측 아님</k100:elevation_source>
      <k100:algorithm>dijkstra-grid-v1</k100:algorithm>
      <k100:osm_snapshot>2026-08-04</k100:osm_snapshot>
      <k100:snap_trailhead_m>211</k100:snap_trailhead_m>
      <k100:snap_summit_m>12</k100:snap_summit_m>
      <k100:validation_score>87</k100:validation_score>
      <k100:validation_status>accepted</k100:validation_status>
    </extensions>
  </metadata>
  <trk>
    <name>금정산 · 금정산성 종주(동문~북문~고당봉) (OSM 계산 경로)</name>
    <desc>실제 GPS 기록이 아닙니다. OpenStreetMap에 등록된 등산로 선형 위에서 계산한 경로이며, 현장 통제·훼손·출입 제한·계절 통제를 반영하지 않을 수 있습니다. 산행 전 공식 안내를 확인하세요.</desc>
    <trkseg>
      <trkpt lat="35.251306" lon="129.059722"><ele>356.7</ele></trkpt>
      <trkpt lat="35.251778" lon="129.059517"><ele>358.5</ele></trkpt>
      <trkpt lat="35.251894" lon="129.059611"><ele>361.5</ele></trkpt>
      <trkpt lat="35.252007" lon="129.059798"><ele>366.8</ele></trkpt>
      <trkpt lat="35.252181" lon="129.059922"><ele>373.2</ele></trkpt>
      <trkpt lat="35.252292" lon="129.059903"><ele>374.5</ele></trkpt>
      <trkpt lat="35.252367" lon="129.060108"><ele>378.9</ele></trkpt>
      <trkpt lat="35.252375" lon="129.060320"><ele>381.6</ele></trkpt>
      <trkpt lat="35.252734" lon="129.060446"><ele>386.0</ele></trkpt>
      <trkpt lat="35.252939" lon="129.060628"><ele>393.2</ele></trkpt>
      <trkpt lat="35.253113" lon="129.060615"><ele>396.7</ele></trkpt>
      <trkpt lat="35.253295" lon="129.060516"><ele>398.0</ele></trkpt>
      <trkpt lat="35.253386" lon="129.060746"><ele>403.1</ele></trkpt>
      <trkpt lat="35.253678" lon="129.060931"><ele>410.9</ele></trkpt>
      <trkpt lat="35.253736" lon="129.061254"><ele>418.6</ele></trkpt>
      <trkpt lat="35.253673" lon="129.061655"><ele>426.4</ele></trkpt>
      <trkpt lat="35.253906" lon="129.062318"><ele>445.4</ele></trkpt>
      <trkpt lat="35.254147" lon="129.062632"><ele>453.9</ele></trkpt>
      <trkpt lat="35.254217" lon="129.062830"><ele>459.7</ele></trkpt>
      <trkpt lat="35.254331" lon="129.062970"><ele>464.1</ele></trkpt>
      <trkpt lat="35.254431" lon="129.063371"><ele>474.9</ele></trkpt>
      <trkpt lat="35.254465" lon="129.064082"><ele>488.5</ele></trkpt>
      <trkpt lat="35.254517" lon="129.064310"><ele>491.3</ele></trkpt>
      <trkpt lat="35.254658" lon="129.064594"><ele>494.3</ele></trkpt>
      <trkpt lat="35.254723" lon="129.065055"><ele>500.2</ele></trkpt>
      <trkpt lat="35.254867" lon="129.065246"><ele>505.2</ele></trkpt>
      <trkpt lat="35.255196" lon="129.065390"><ele>507.1</ele></trkpt>
      <trkpt lat="35.255338" lon="129.065544"><ele>508.6</ele></trkpt>
      <trkpt lat="35.255384" lon="129.065672"><ele>510.3</ele></trkpt>
      <trkpt lat="35.255402" lon="129.065992"><ele>514.0</ele></trkpt>
      <trkpt lat="35.255485" lon="129.066232"><ele>516.7</ele></trkpt>
      <trkpt lat="35.255435" lon="129.066295"><ele>517.7</ele></trkpt>
      <trkpt lat="35.255542" lon="129.066482"><ele>519.1</ele></trkpt>
      <trkpt lat="35.256630" lon="129.066203"><ele>539.8</ele></trkpt>
      <trkpt lat="35.257752" lon="129.066089"><ele>565.1</ele></trkpt>
      <trkpt lat="35.258126" lon="129.065865"><ele>567.5</ele></trkpt>
      <trkpt lat="35.258437" lon="129.065761"><ele>565.9</ele></trkpt>
      <trkpt lat="35.258471" lon="129.065703"><ele>564.3</ele></trkpt>
      <trkpt lat="35.258885" lon="129.065584"><ele>565.5</ele></trkpt>
      <trkpt lat="35.259078" lon="129.065236"><ele>558.5</ele></trkpt>
      <trkpt lat="35.259340" lon="129.065044"><ele>556.4</ele></trkpt>
      <trkpt lat="35.259665" lon="129.064930"><ele>557.3</ele></trkpt>
      <trkpt lat="35.259837" lon="129.064592"><ele>555.2</ele></trkpt>
      <trkpt lat="35.260049" lon="129.064379"><ele>555.8</ele></trkpt>
      <trkpt lat="35.260389" lon="129.063807"><ele>556.3</ele></trkpt>
      <trkpt lat="35.260622" lon="129.063554"><ele>558.8</ele></trkpt>
      <trkpt lat="35.260688" lon="129.063413"><ele>560.3</ele></trkpt>
      <trkpt lat="35.260865" lon="129.063267"><ele>564.4</ele></trkpt>
      <trkpt lat="35.260860" lon="129.063169"><ele>566.7</ele></trkpt>
      <trkpt lat="35.261047" lon="129.063084"><ele>571.1</ele></trkpt>
      <trkpt lat="35.261138" lon="129.062908"><ele>576.0</ele></trkpt>
      <trkpt lat="35.261310" lon="129.062746"><ele>581.6</ele></trkpt>
      <trkpt lat="35.261540" lon="129.062263"><ele>597.3</ele></trkpt>
      <trkpt lat="35.261762" lon="129.062097"><ele>600.8</ele></trkpt>
      <trkpt lat="35.262783" lon="129.061852"><ele>602.0</ele></trkpt>
      <trkpt lat="35.263072" lon="129.061864"><ele>604.3</ele></trkpt>
      <trkpt lat="35.263621" lon="129.062063"><ele>610.8</ele></trkpt>
      <trkpt lat="35.264492" lon="129.061880"><ele>610.6</ele></trkpt>
      <trkpt lat="35.264903" lon="129.061881"><ele>606.7</ele></trkpt>
      <trkpt lat="35.265333" lon="129.061963"><ele>602.1</ele></trkpt>
      <trkpt lat="35.265569" lon="129.061873"><ele>597.8</ele></trkpt>
      <trkpt lat="35.266251" lon="129.061889"><ele>596.2</ele></trkpt>
      <trkpt lat="35.266818" lon="129.061662"><ele>606.8</ele></trkpt>
      <trkpt lat="35.267259" lon="129.061674"><ele>617.3</ele></trkpt>
      <trkpt lat="35.267591" lon="129.061522"><ele>622.6</ele></trkpt>
      <trkpt lat="35.267898" lon="129.061164"><ele>632.8</ele></trkpt>
      <trkpt lat="35.268133" lon="129.061022"><ele>642.4</ele></trkpt>
      <trkpt lat="35.268390" lon="129.061010"><ele>648.9</ele></trkpt>
      <trkpt lat="35.268567" lon="129.060927"><ele>655.2</ele></trkpt>
      <trkpt lat="35.269024" lon="129.060967"><ele>662.3</ele></trkpt>
      <trkpt lat="35.269304" lon="129.060836"><ele>666.9</ele></trkpt>
      <trkpt lat="35.269471" lon="129.060679"><ele>667.7</ele></trkpt>
      <trkpt lat="35.269779" lon="129.060648"><ele>669.1</ele></trkpt>
      <trkpt lat="35.270279" lon="129.060374"><ele>665.7</ele></trkpt>
      <trkpt lat="35.270585" lon="129.060374"><ele>665.6</ele></trkpt>
      <trkpt lat="35.271371" lon="129.060560"><ele>660.9</ele></trkpt>
      <trkpt lat="35.271855" lon="129.060601"><ele>664.7</ele></trkpt>
      <trkpt lat="35.272203" lon="129.060464"><ele>657.5</ele></trkpt>
      <trkpt lat="35.272276" lon="129.060487"><ele>656.6</ele></trkpt>
      <trkpt lat="35.272364" lon="129.060418"><ele>654.0</ele></trkpt>
      <trkpt lat="35.272500" lon="129.060150"><ele>648.2</ele></trkpt>
      <trkpt lat="35.273187" lon="129.059812"><ele>639.0</ele></trkpt>
      <trkpt lat="35.273441" lon="129.059624"><ele>641.5</ele></trkpt>
      <trkpt lat="35.273628" lon="129.059315"><ele>644.0</ele></trkpt>
      <trkpt lat="35.273699" lon="129.059051"><ele>642.5</ele></trkpt>
      <trkpt lat="35.274284" lon="129.058772"><ele>635.3</ele></trkpt>
      <trkpt lat="35.274553" lon="129.058759"><ele>629.9</ele></trkpt>
      <trkpt lat="35.274641" lon="129.058701"><ele>627.0</ele></trkpt>
      <trkpt lat="35.274785" lon="129.058361"><ele>618.4</ele></trkpt>
      <trkpt lat="35.274935" lon="129.058196"><ele>610.5</ele></trkpt>
      <trkpt lat="35.275113" lon="129.057842"><ele>598.9</ele></trkpt>
      <trkpt lat="35.275332" lon="129.057640"><ele>593.2</ele></trkpt>
      <trkpt lat="35.275646" lon="129.056700"><ele>594.4</ele></trkpt>
      <trkpt lat="35.275648" lon="129.056547"><ele>595.2</ele></trkpt>
      <trkpt lat="35.275741" lon="129.056481"><ele>596.5</ele></trkpt>
      <trkpt lat="35.275741" lon="129.056379"><ele>597.0</ele></trkpt>
      <trkpt lat="35.275965" lon="129.055938"><ele>601.7</ele></trkpt>
      <trkpt lat="35.276928" lon="129.055266"><ele>625.9</ele></trkpt>
      <trkpt lat="35.277424" lon="129.054525"><ele>649.6</ele></trkpt>
      <trkpt lat="35.277417" lon="129.054325"><ele>655.8</ele></trkpt>
      <trkpt lat="35.277579" lon="129.054217"><ele>660.2</ele></trkpt>
      <trkpt lat="35.277687" lon="129.053943"><ele>668.0</ele></trkpt>
      <trkpt lat="35.277836" lon="129.053840"><ele>669.5</ele></trkpt>
      <trkpt lat="35.277817" lon="129.053656"><ele>673.9</ele></trkpt>
      <trkpt lat="35.278031" lon="129.053077"><ele>685.3</ele></trkpt>
      <trkpt lat="35.278374" lon="129.052846"><ele>694.2</ele></trkpt>
      <trkpt lat="35.278499" lon="129.052645"><ele>698.8</ele></trkpt>
      <trkpt lat="35.278695" lon="129.052536"><ele>703.3</ele></trkpt>
      <trkpt lat="35.278762" lon="129.052440"><ele>705.2</ele></trkpt>
      <trkpt lat="35.278812" lon="129.052095"><ele>708.8</ele></trkpt>
      <trkpt lat="35.278881" lon="129.052027"><ele>710.1</ele></trkpt>
      <trkpt lat="35.278855" lon="129.051933"><ele>711.0</ele></trkpt>
      <trkpt lat="35.279054" lon="129.051599"><ele>720.2</ele></trkpt>
      <trkpt lat="35.279210" lon="129.051505"><ele>725.9</ele></trkpt>
      <trkpt lat="35.279221" lon="129.051587"><ele>723.9</ele></trkpt>
      <trkpt lat="35.279317" lon="129.051697"><ele>723.6</ele></trkpt>
      <trkpt lat="35.279657" lon="129.051767"><ele>732.4</ele></trkpt>
      <trkpt lat="35.279758" lon="129.051838"><ele>734.0</ele></trkpt>
      <trkpt lat="35.279930" lon="129.052130"><ele>732.1</ele></trkpt>
      <trkpt lat="35.280226" lon="129.052287"><ele>737.9</ele></trkpt>
      <trkpt lat="35.280612" lon="129.052293"><ele>744.0</ele></trkpt>
      <trkpt lat="35.280901" lon="129.052436"><ele>740.7</ele></trkpt>
      <trkpt lat="35.280939" lon="129.052395"><ele>740.4</ele></trkpt>
      <trkpt lat="35.281253" lon="129.051343"><ele>734.4</ele></trkpt>
      <trkpt lat="35.281301" lon="129.050989"><ele>729.8</ele></trkpt>
      <trkpt lat="35.281495" lon="129.050672"><ele>726.9</ele></trkpt>
      <trkpt lat="35.281732" lon="129.050400"><ele>729.9</ele></trkpt>
      <trkpt lat="35.282076" lon="129.050110"><ele>734.9</ele></trkpt>
      <trkpt lat="35.282452" lon="129.049946"><ele>738.3</ele></trkpt>
      <trkpt lat="35.282547" lon="129.049854"><ele>737.1</ele></trkpt>
      <trkpt lat="35.282826" lon="129.049762"><ele>736.0</ele></trkpt>
      <trkpt lat="35.282809" lon="129.049628"><ele>732.1</ele></trkpt>
      <trkpt lat="35.282549" lon="129.049348"><ele>722.2</ele></trkpt>
      <trkpt lat="35.282593" lon="129.048941"><ele>709.6</ele></trkpt>
      <trkpt lat="35.282891" lon="129.048286"><ele>676.1</ele></trkpt>
      <trkpt lat="35.282742" lon="129.048179"><ele>672.6</ele></trkpt>
      <trkpt lat="35.282566" lon="129.047718"><ele>648.3</ele></trkpt>
      <trkpt lat="35.282680" lon="129.047610"><ele>638.7</ele></trkpt>
      <trkpt lat="35.282549" lon="129.047063"><ele>614.4</ele></trkpt>
      <trkpt lat="35.283092" lon="129.046849"><ele>607.4</ele></trkpt>
      <trkpt lat="35.283630" lon="129.046032"><ele>576.3</ele></trkpt>
      <trkpt lat="35.283560" lon="129.045431"><ele>551.7</ele></trkpt>
      <trkpt lat="35.283384" lon="129.045056"><ele>532.1</ele></trkpt>
      <trkpt lat="35.283673" lon="129.044605"><ele>507.4</ele></trkpt>
    </trkseg>
  </trk>
</gpx>
