<?xml version="1.0" encoding="UTF-8"?>
<gpx version="1.1" creator="kr-100-mountains route-harvester"
     xmlns="http://www.topografix.com/GPX/1/1"
     xmlns:k100="https://github.com/jay-jang/kr-100-mountains/ns/1"
     xmlns:xsi="http://www.w3.org/2001/XMLSchema-instance"
     xsi:schemaLocation="http://www.topografix.com/GPX/1/1 http://www.topografix.com/GPX/1/1/gpx.xsd">
  <metadata>
    <name>도락산 · 상선암-신선봉-도락산 왕복 (OSM 계산 경로)</name>
    <desc>실제 GPS 기록이 아닙니다. OpenStreetMap에 등록된 등산로 선형 위에서 계산한 경로이며, 현장 통제·훼손·출입 제한·계절 통제를 반영하지 않을 수 있습니다. 산행 전 공식 안내를 확인하세요.</desc>
    <time>2026-08-04T05:27:05.885Z</time>
    <link href="https://www.openstreetmap.org/copyright"><text>© OpenStreetMap contributors (ODbL 1.0)</text></link>
    <link href="https://registry.opendata.aws/terrain-tiles/"><text>Elevation: SRTM 1 arc-second (NASA/USGS) via AWS Terrain Tiles</text></link>
    <extensions>
      <k100:provenance>osm-routed</k100:provenance>
      <k100:not_a_recorded_track>true</k100:not_a_recorded_track>
      <k100:mountain_id>doraksan</k100:mountain_id>
      <k100:mountain_name>도락산</k100:mountain_name>
      <k100:route_id>doraksan-175256fa</k100:route_id>
      <k100:route_index>2</k100:route_index>
      <k100:route_name>상선암-신선봉-도락산 왕복</k100:route_name>
      <k100:variant>0</k100:variant>
      <k100:source>OpenStreetMap via Overpass API</k100:source>
      <k100:license>ODbL-1.0</k100:license>
      <k100:attribution>© OpenStreetMap contributors</k100:attribution>
      <k100:elevation_source>SRTM 1 arc-second (NASA/USGS) — AWS Terrain Tiles 배포본. 지형 DEM 추정 고도이며 실측 아님</k100:elevation_source>
      <k100:algorithm>dijkstra-grid-v1</k100:algorithm>
      <k100:osm_snapshot>2026-08-04</k100:osm_snapshot>
      <k100:snap_trailhead_m>327</k100:snap_trailhead_m>
      <k100:snap_summit_m>111</k100:snap_summit_m>
      <k100:validation_score>67</k100:validation_score>
      <k100:validation_status>review</k100:validation_status>
    </extensions>
  </metadata>
  <trk>
    <name>도락산 · 상선암-신선봉-도락산 왕복 (OSM 계산 경로)</name>
    <desc>실제 GPS 기록이 아닙니다. OpenStreetMap에 등록된 등산로 선형 위에서 계산한 경로이며, 현장 통제·훼손·출입 제한·계절 통제를 반영하지 않을 수 있습니다. 산행 전 공식 안내를 확인하세요.</desc>
    <trkseg>
      <trkpt lat="36.872553" lon="128.257813"><ele>657.5</ele></trkpt>
      <trkpt lat="36.872114" lon="128.257431"><ele>640.4</ele></trkpt>
      <trkpt lat="36.871737" lon="128.257010"><ele>632.7</ele></trkpt>
      <trkpt lat="36.871622" lon="128.256527"><ele>628.9</ele></trkpt>
      <trkpt lat="36.871463" lon="128.256234"><ele>613.7</ele></trkpt>
      <trkpt lat="36.870895" lon="128.255609"><ele>554.1</ele></trkpt>
      <trkpt lat="36.870650" lon="128.255178"><ele>531.5</ele></trkpt>
      <trkpt lat="36.870493" lon="128.254994"><ele>521.1</ele></trkpt>
      <trkpt lat="36.869997" lon="128.254530"><ele>488.4</ele></trkpt>
      <trkpt lat="36.869516" lon="128.254452"><ele>472.5</ele></trkpt>
      <trkpt lat="36.869322" lon="128.254367"><ele>466.8</ele></trkpt>
      <trkpt lat="36.869084" lon="128.254152"><ele>461.5</ele></trkpt>
      <trkpt lat="36.868903" lon="128.253827"><ele>452.0</ele></trkpt>
      <trkpt lat="36.868855" lon="128.253434"><ele>438.7</ele></trkpt>
      <trkpt lat="36.868753" lon="128.253235"><ele>434.0</ele></trkpt>
      <trkpt lat="36.868565" lon="128.252940"><ele>427.4</ele></trkpt>
      <trkpt lat="36.868200" lon="128.252747"><ele>415.8</ele></trkpt>
      <trkpt lat="36.868130" lon="128.252514"><ele>411.7</ele></trkpt>
      <trkpt lat="36.867903" lon="128.252301"><ele>406.7</ele></trkpt>
      <trkpt lat="36.867897" lon="128.252187"><ele>405.8</ele></trkpt>
      <trkpt lat="36.867718" lon="128.252145"><ele>402.6</ele></trkpt>
      <trkpt lat="36.867535" lon="128.251975"><ele>399.5</ele></trkpt>
      <trkpt lat="36.867313" lon="128.252207"><ele>400.3</ele></trkpt>
      <trkpt lat="36.867148" lon="128.254160"><ele>393.2</ele></trkpt>
      <trkpt lat="36.866663" lon="128.258135"><ele>392.2</ele></trkpt>
      <trkpt lat="36.866335" lon="128.259211"><ele>389.2</ele></trkpt>
      <trkpt lat="36.866135" lon="128.260039"><ele>384.0</ele></trkpt>
      <trkpt lat="36.866011" lon="128.260329"><ele>384.2</ele></trkpt>
      <trkpt lat="36.865183" lon="128.261564"><ele>382.3</ele></trkpt>
      <trkpt lat="36.865000" lon="128.262425"><ele>378.5</ele></trkpt>
      <trkpt lat="36.864380" lon="128.264288"><ele>368.7</ele></trkpt>
      <trkpt lat="36.864041" lon="128.265093"><ele>368.5</ele></trkpt>
      <trkpt lat="36.863403" lon="128.265976"><ele>363.4</ele></trkpt>
      <trkpt lat="36.862950" lon="128.267024"><ele>359.3</ele></trkpt>
      <trkpt lat="36.862677" lon="128.267442"><ele>359.4</ele></trkpt>
      <trkpt lat="36.862380" lon="128.267751"><ele>358.4</ele></trkpt>
      <trkpt lat="36.861435" lon="128.268215"><ele>357.1</ele></trkpt>
      <trkpt lat="36.861109" lon="128.268483"><ele>355.6</ele></trkpt>
      <trkpt lat="36.860813" lon="128.268821"><ele>351.9</ele></trkpt>
      <trkpt lat="36.859663" lon="128.272056"><ele>345.7</ele></trkpt>
      <trkpt lat="36.859070" lon="128.273939"><ele>340.7</ele></trkpt>
      <trkpt lat="36.858534" lon="128.274706"><ele>333.7</ele></trkpt>
      <trkpt lat="36.858302" lon="128.274893"><ele>331.2</ele></trkpt>
      <trkpt lat="36.857615" lon="128.275746"><ele>327.4</ele></trkpt>
      <trkpt lat="36.857279" lon="128.276812"><ele>325.8</ele></trkpt>
      <trkpt lat="36.856874" lon="128.278737"><ele>315.5</ele></trkpt>
      <trkpt lat="36.856843" lon="128.279104"><ele>315.7</ele></trkpt>
      <trkpt lat="36.856591" lon="128.279131"><ele>320.2</ele></trkpt>
      <trkpt lat="36.856156" lon="128.279988"><ele>320.3</ele></trkpt>
      <trkpt lat="36.855817" lon="128.280331"><ele>320.2</ele></trkpt>
      <trkpt lat="36.854920" lon="128.280991"><ele>320.4</ele></trkpt>
      <trkpt lat="36.854623" lon="128.281295"><ele>319.0</ele></trkpt>
      <trkpt lat="36.854422" lon="128.282390"><ele>315.9</ele></trkpt>
      <trkpt lat="36.854730" lon="128.283425"><ele>315.7</ele></trkpt>
      <trkpt lat="36.855145" lon="128.284113"><ele>321.7</ele></trkpt>
      <trkpt lat="36.855087" lon="128.284366"><ele>323.2</ele></trkpt>
      <trkpt lat="36.854740" lon="128.284948"><ele>324.9</ele></trkpt>
      <trkpt lat="36.854669" lon="128.285648"><ele>325.2</ele></trkpt>
    </trkseg>
  </trk>
</gpx>
