<?xml version="1.0" encoding="UTF-8"?>
<gpx version="1.1" creator="kr-100-mountains route-harvester"
     xmlns="http://www.topografix.com/GPX/1/1"
     xmlns:k100="https://github.com/jay-jang/kr-100-mountains/ns/1"
     xmlns:xsi="http://www.w3.org/2001/XMLSchema-instance"
     xsi:schemaLocation="http://www.topografix.com/GPX/1/1 http://www.topografix.com/GPX/1/1/gpx.xsd">
  <metadata>
    <name>도락산 · 상선암-채운봉-도락산-제봉 원점회귀 (OSM 계산 경로)</name>
    <desc>실제 GPS 기록이 아닙니다. OpenStreetMap에 등록된 등산로 선형 위에서 계산한 경로이며, 현장 통제·훼손·출입 제한·계절 통제를 반영하지 않을 수 있습니다. 산행 전 공식 안내를 확인하세요.</desc>
    <time>2026-08-04T05:27:05.862Z</time>
    <link href="https://www.openstreetmap.org/copyright"><text>© OpenStreetMap contributors (ODbL 1.0)</text></link>
    <link href="https://registry.opendata.aws/terrain-tiles/"><text>Elevation: SRTM 1 arc-second (NASA/USGS) via AWS Terrain Tiles</text></link>
    <extensions>
      <k100:provenance>osm-routed</k100:provenance>
      <k100:not_a_recorded_track>true</k100:not_a_recorded_track>
      <k100:mountain_id>doraksan</k100:mountain_id>
      <k100:mountain_name>도락산</k100:mountain_name>
      <k100:route_id>doraksan-1f195cbd</k100:route_id>
      <k100:route_index>1</k100:route_index>
      <k100:route_name>상선암-채운봉-도락산-제봉 원점회귀</k100:route_name>
      <k100:variant>0</k100:variant>
      <k100:source>OpenStreetMap via Overpass API</k100:source>
      <k100:license>ODbL-1.0</k100:license>
      <k100:attribution>© OpenStreetMap contributors</k100:attribution>
      <k100:elevation_source>SRTM 1 arc-second (NASA/USGS) — AWS Terrain Tiles 배포본. 지형 DEM 추정 고도이며 실측 아님</k100:elevation_source>
      <k100:algorithm>dijkstra-grid-v1</k100:algorithm>
      <k100:osm_snapshot>2026-08-04</k100:osm_snapshot>
      <k100:snap_trailhead_m>4</k100:snap_trailhead_m>
      <k100:snap_summit_m>111</k100:snap_summit_m>
      <k100:validation_score>82</k100:validation_score>
      <k100:validation_status>accepted</k100:validation_status>
    </extensions>
  </metadata>
  <trk>
    <name>도락산 · 상선암-채운봉-도락산-제봉 원점회귀 (OSM 계산 경로)</name>
    <desc>실제 GPS 기록이 아닙니다. OpenStreetMap에 등록된 등산로 선형 위에서 계산한 경로이며, 현장 통제·훼손·출입 제한·계절 통제를 반영하지 않을 수 있습니다. 산행 전 공식 안내를 확인하세요.</desc>
    <trkseg>
      <trkpt lat="36.871667" lon="128.295917"><ele>331.8</ele></trkpt>
      <trkpt lat="36.871227" lon="128.295816"><ele>340.4</ele></trkpt>
      <trkpt lat="36.870467" lon="128.296450"><ele>360.1</ele></trkpt>
      <trkpt lat="36.869950" lon="128.296383"><ele>371.8</ele></trkpt>
      <trkpt lat="36.869683" lon="128.296783"><ele>385.8</ele></trkpt>
      <trkpt lat="36.869310" lon="128.296983"><ele>406.4</ele></trkpt>
      <trkpt lat="36.868889" lon="128.297096"><ele>428.8</ele></trkpt>
      <trkpt lat="36.868750" lon="128.296983"><ele>431.0</ele></trkpt>
      <trkpt lat="36.868417" lon="128.297117"><ele>447.9</ele></trkpt>
      <trkpt lat="36.868233" lon="128.297383"><ele>468.4</ele></trkpt>
      <trkpt lat="36.868100" lon="128.297801"><ele>500.4</ele></trkpt>
      <trkpt lat="36.867957" lon="128.298036"><ele>508.4</ele></trkpt>
      <trkpt lat="36.867921" lon="128.298458"><ele>523.5</ele></trkpt>
      <trkpt lat="36.867933" lon="128.298667"><ele>532.6</ele></trkpt>
      <trkpt lat="36.867995" lon="128.298834"><ele>542.8</ele></trkpt>
      <trkpt lat="36.867967" lon="128.299217"><ele>557.0</ele></trkpt>
      <trkpt lat="36.868067" lon="128.299550"><ele>575.9</ele></trkpt>
      <trkpt lat="36.868155" lon="128.300369"><ele>609.0</ele></trkpt>
      <trkpt lat="36.868081" lon="128.300578"><ele>611.9</ele></trkpt>
      <trkpt lat="36.867950" lon="128.300767"><ele>618.0</ele></trkpt>
      <trkpt lat="36.867683" lon="128.300967"><ele>625.5</ele></trkpt>
      <trkpt lat="36.867567" lon="128.301217"><ele>627.1</ele></trkpt>
      <trkpt lat="36.867250" lon="128.301667"><ele>637.4</ele></trkpt>
      <trkpt lat="36.867183" lon="128.302083"><ele>649.8</ele></trkpt>
      <trkpt lat="36.866850" lon="128.302417"><ele>670.4</ele></trkpt>
      <trkpt lat="36.866867" lon="128.302583"><ele>677.8</ele></trkpt>
      <trkpt lat="36.866700" lon="128.303017"><ele>697.6</ele></trkpt>
      <trkpt lat="36.866767" lon="128.303483"><ele>701.2</ele></trkpt>
      <trkpt lat="36.866633" lon="128.303533"><ele>710.8</ele></trkpt>
      <trkpt lat="36.866217" lon="128.303967"><ele>735.4</ele></trkpt>
      <trkpt lat="36.865933" lon="128.304100"><ele>743.3</ele></trkpt>
      <trkpt lat="36.865817" lon="128.304633"><ele>765.2</ele></trkpt>
      <trkpt lat="36.865817" lon="128.305017"><ele>789.5</ele></trkpt>
      <trkpt lat="36.865650" lon="128.305217"><ele>796.9</ele></trkpt>
      <trkpt lat="36.865567" lon="128.305467"><ele>800.7</ele></trkpt>
      <trkpt lat="36.865617" lon="128.305933"><ele>803.7</ele></trkpt>
      <trkpt lat="36.865533" lon="128.306083"><ele>803.1</ele></trkpt>
      <trkpt lat="36.865233" lon="128.305967"><ele>792.9</ele></trkpt>
      <trkpt lat="36.864600" lon="128.306067"><ele>771.0</ele></trkpt>
      <trkpt lat="36.863950" lon="128.305917"><ele>762.5</ele></trkpt>
      <trkpt lat="36.863767" lon="128.305933"><ele>764.7</ele></trkpt>
      <trkpt lat="36.862867" lon="128.305617"><ele>782.1</ele></trkpt>
      <trkpt lat="36.862750" lon="128.305517"><ele>785.2</ele></trkpt>
      <trkpt lat="36.862417" lon="128.305383"><ele>795.3</ele></trkpt>
      <trkpt lat="36.861850" lon="128.305517"><ele>811.8</ele></trkpt>
      <trkpt lat="36.861700" lon="128.305483"><ele>816.5</ele></trkpt>
      <trkpt lat="36.861517" lon="128.305233"><ele>825.2</ele></trkpt>
      <trkpt lat="36.861383" lon="128.305217"><ele>830.2</ele></trkpt>
      <trkpt lat="36.861150" lon="128.305433"><ele>839.7</ele></trkpt>
      <trkpt lat="36.860983" lon="128.305467"><ele>840.8</ele></trkpt>
      <trkpt lat="36.860850" lon="128.305417"><ele>840.6</ele></trkpt>
      <trkpt lat="36.860667" lon="128.305517"><ele>842.9</ele></trkpt>
      <trkpt lat="36.860400" lon="128.305550"><ele>847.3</ele></trkpt>
      <trkpt lat="36.860100" lon="128.305517"><ele>853.1</ele></trkpt>
      <trkpt lat="36.859933" lon="128.305667"><ele>858.0</ele></trkpt>
      <trkpt lat="36.859633" lon="128.305700"><ele>860.4</ele></trkpt>
      <trkpt lat="36.859143" lon="128.306547"><ele>873.6</ele></trkpt>
      <trkpt lat="36.859017" lon="128.306850"><ele>876.3</ele></trkpt>
      <trkpt lat="36.858970" lon="128.307159"><ele>880.8</ele></trkpt>
      <trkpt lat="36.859083" lon="128.307367"><ele>885.5</ele></trkpt>
      <trkpt lat="36.859034" lon="128.307621"><ele>891.3</ele></trkpt>
      <trkpt lat="36.858920" lon="128.307741"><ele>894.7</ele></trkpt>
      <trkpt lat="36.858804" lon="128.308009"><ele>898.2</ele></trkpt>
      <trkpt lat="36.858691" lon="128.308108"><ele>898.8</ele></trkpt>
      <trkpt lat="36.858345" lon="128.308235"><ele>894.9</ele></trkpt>
      <trkpt lat="36.858120" lon="128.308446"><ele>895.0</ele></trkpt>
      <trkpt lat="36.857800" lon="128.308617"><ele>895.1</ele></trkpt>
      <trkpt lat="36.857617" lon="128.308967"><ele>896.2</ele></trkpt>
      <trkpt lat="36.857433" lon="128.308623"><ele>881.7</ele></trkpt>
      <trkpt lat="36.857141" lon="128.308403"><ele>851.1</ele></trkpt>
      <trkpt lat="36.856892" lon="128.308023"><ele>825.0</ele></trkpt>
      <trkpt lat="36.856617" lon="128.308044"><ele>815.9</ele></trkpt>
      <trkpt lat="36.856274" lon="128.307964"><ele>791.3</ele></trkpt>
      <trkpt lat="36.855871" lon="128.307733"><ele>764.0</ele></trkpt>
      <trkpt lat="36.855377" lon="128.307014"><ele>739.9</ele></trkpt>
      <trkpt lat="36.855325" lon="128.306859"><ele>734.6</ele></trkpt>
      <trkpt lat="36.854931" lon="128.306724"><ele>715.5</ele></trkpt>
      <trkpt lat="36.854643" lon="128.306408"><ele>699.5</ele></trkpt>
      <trkpt lat="36.854398" lon="128.306338"><ele>691.4</ele></trkpt>
      <trkpt lat="36.854334" lon="128.306134"><ele>679.7</ele></trkpt>
      <trkpt lat="36.854300" lon="128.305694"><ele>661.5</ele></trkpt>
      <trkpt lat="36.853802" lon="128.305399"><ele>637.2</ele></trkpt>
      <trkpt lat="36.853553" lon="128.305002"><ele>614.6</ele></trkpt>
      <trkpt lat="36.853583" lon="128.304670"><ele>607.7</ele></trkpt>
      <trkpt lat="36.853458" lon="128.304573"><ele>599.5</ele></trkpt>
      <trkpt lat="36.853484" lon="128.304429"><ele>596.9</ele></trkpt>
      <trkpt lat="36.853432" lon="128.304139"><ele>587.0</ele></trkpt>
      <trkpt lat="36.853153" lon="128.303876"><ele>566.4</ele></trkpt>
      <trkpt lat="36.852965" lon="128.303366"><ele>564.2</ele></trkpt>
      <trkpt lat="36.852656" lon="128.303205"><ele>555.3</ele></trkpt>
      <trkpt lat="36.851771" lon="128.303163"><ele>527.4</ele></trkpt>
      <trkpt lat="36.851467" lon="128.303007"><ele>518.6</ele></trkpt>
      <trkpt lat="36.850707" lon="128.302143"><ele>495.9</ele></trkpt>
      <trkpt lat="36.850479" lon="128.302009"><ele>487.0</ele></trkpt>
      <trkpt lat="36.850110" lon="128.301644"><ele>476.9</ele></trkpt>
      <trkpt lat="36.849958" lon="128.301341"><ele>470.6</ele></trkpt>
      <trkpt lat="36.850093" lon="128.300818"><ele>466.3</ele></trkpt>
      <trkpt lat="36.850016" lon="128.300518"><ele>462.9</ele></trkpt>
      <trkpt lat="36.850127" lon="128.299584"><ele>455.4</ele></trkpt>
      <trkpt lat="36.849964" lon="128.299402"><ele>452.0</ele></trkpt>
      <trkpt lat="36.850067" lon="128.298758"><ele>444.4</ele></trkpt>
      <trkpt lat="36.850256" lon="128.298383"><ele>441.3</ele></trkpt>
      <trkpt lat="36.850745" lon="128.298490"><ele>442.7</ele></trkpt>
      <trkpt lat="36.850874" lon="128.298157"><ele>436.7</ele></trkpt>
      <trkpt lat="36.850900" lon="128.297997"><ele>434.3</ele></trkpt>
      <trkpt lat="36.850737" lon="128.297599"><ele>428.5</ele></trkpt>
      <trkpt lat="36.850702" lon="128.297288"><ele>423.5</ele></trkpt>
      <trkpt lat="36.850771" lon="128.296940"><ele>418.0</ele></trkpt>
      <trkpt lat="36.850902" lon="128.296653"><ele>416.1</ele></trkpt>
      <trkpt lat="36.851370" lon="128.295971"><ele>415.3</ele></trkpt>
      <trkpt lat="36.851666" lon="128.295655"><ele>406.8</ele></trkpt>
      <trkpt lat="36.851606" lon="128.295561"><ele>405.8</ele></trkpt>
      <trkpt lat="36.851239" lon="128.295526"><ele>408.3</ele></trkpt>
      <trkpt lat="36.851226" lon="128.295422"><ele>407.8</ele></trkpt>
      <trkpt lat="36.851321" lon="128.295218"><ele>404.7</ele></trkpt>
      <trkpt lat="36.851578" lon="128.295100"><ele>399.8</ele></trkpt>
      <trkpt lat="36.852016" lon="128.294317"><ele>388.9</ele></trkpt>
      <trkpt lat="36.852113" lon="128.294011"><ele>390.0</ele></trkpt>
      <trkpt lat="36.852010" lon="128.293356"><ele>384.8</ele></trkpt>
      <trkpt lat="36.852162" lon="128.292772"><ele>382.7</ele></trkpt>
      <trkpt lat="36.852317" lon="128.292640"><ele>380.7</ele></trkpt>
      <trkpt lat="36.852548" lon="128.292654"><ele>382.0</ele></trkpt>
      <trkpt lat="36.852849" lon="128.292568"><ele>383.5</ele></trkpt>
      <trkpt lat="36.853364" lon="128.291409"><ele>360.9</ele></trkpt>
      <trkpt lat="36.853471" lon="128.290492"><ele>355.5</ele></trkpt>
      <trkpt lat="36.853785" lon="128.289160"><ele>348.5</ele></trkpt>
      <trkpt lat="36.853759" lon="128.288999"><ele>347.6</ele></trkpt>
      <trkpt lat="36.853413" lon="128.288426"><ele>346.4</ele></trkpt>
      <trkpt lat="36.853387" lon="128.288101"><ele>345.6</ele></trkpt>
      <trkpt lat="36.853459" lon="128.287786"><ele>342.5</ele></trkpt>
      <trkpt lat="36.853614" lon="128.287579"><ele>337.0</ele></trkpt>
      <trkpt lat="36.853629" lon="128.287339"><ele>337.3</ele></trkpt>
      <trkpt lat="36.853883" lon="128.287081"><ele>333.1</ele></trkpt>
      <trkpt lat="36.854154" lon="128.286329"><ele>330.3</ele></trkpt>
      <trkpt lat="36.854669" lon="128.285648"><ele>325.2</ele></trkpt>
    </trkseg>
  </trk>
</gpx>
