<?xml version="1.0" encoding="UTF-8"?>
<gpx version="1.1" creator="kr-100-mountains route-harvester"
     xmlns="http://www.topografix.com/GPX/1/1"
     xmlns:k100="https://github.com/jay-jang/kr-100-mountains/ns/1"
     xmlns:xsi="http://www.w3.org/2001/XMLSchema-instance"
     xsi:schemaLocation="http://www.topografix.com/GPX/1/1 http://www.topografix.com/GPX/1/1/gpx.xsd">
  <metadata>
    <name>민둥산 · 능전마을-정상 코스 (대안 1) (OSM 계산 경로)</name>
    <desc>실제 GPS 기록이 아닙니다. OpenStreetMap에 등록된 등산로 선형 위에서 계산한 경로이며, 현장 통제·훼손·출입 제한·계절 통제를 반영하지 않을 수 있습니다. 산행 전 공식 안내를 확인하세요.</desc>
    <time>2026-08-04T05:22:52.258Z</time>
    <link href="https://www.openstreetmap.org/copyright"><text>© OpenStreetMap contributors (ODbL 1.0)</text></link>
    <link href="https://registry.opendata.aws/terrain-tiles/"><text>Elevation: SRTM 1 arc-second (NASA/USGS) via AWS Terrain Tiles</text></link>
    <extensions>
      <k100:provenance>osm-routed</k100:provenance>
      <k100:not_a_recorded_track>true</k100:not_a_recorded_track>
      <k100:mountain_id>mindungsan</k100:mountain_id>
      <k100:mountain_name>민둥산</k100:mountain_name>
      <k100:route_id>mindungsan-214fdf1b</k100:route_id>
      <k100:route_index>2</k100:route_index>
      <k100:route_name>능전마을-정상 코스</k100:route_name>
      <k100:variant>1</k100:variant>
      <k100:source>OpenStreetMap via Overpass API</k100:source>
      <k100:license>ODbL-1.0</k100:license>
      <k100:attribution>© OpenStreetMap contributors</k100:attribution>
      <k100:elevation_source>SRTM 1 arc-second (NASA/USGS) — AWS Terrain Tiles 배포본. 지형 DEM 추정 고도이며 실측 아님</k100:elevation_source>
      <k100:algorithm>dijkstra-grid-v1</k100:algorithm>
      <k100:osm_snapshot>2026-08-04</k100:osm_snapshot>
      <k100:snap_trailhead_m>20</k100:snap_trailhead_m>
      <k100:snap_summit_m>63</k100:snap_summit_m>
      <k100:validation_score>100</k100:validation_score>
      <k100:validation_status>accepted</k100:validation_status>
    </extensions>
  </metadata>
  <trk>
    <name>민둥산 · 능전마을-정상 코스 (대안 1) (OSM 계산 경로)</name>
    <desc>실제 GPS 기록이 아닙니다. OpenStreetMap에 등록된 등산로 선형 위에서 계산한 경로이며, 현장 통제·훼손·출입 제한·계절 통제를 반영하지 않을 수 있습니다. 산행 전 공식 안내를 확인하세요.</desc>
    <trkseg>
      <trkpt lat="37.262123" lon="128.779745"><ele>804.7</ele></trkpt>
      <trkpt lat="37.262289" lon="128.779737"><ele>803.6</ele></trkpt>
      <trkpt lat="37.262714" lon="128.779842"><ele>807.1</ele></trkpt>
      <trkpt lat="37.262887" lon="128.779724"><ele>804.8</ele></trkpt>
      <trkpt lat="37.262940" lon="128.779571"><ele>803.3</ele></trkpt>
      <trkpt lat="37.262923" lon="128.778986"><ele>797.5</ele></trkpt>
      <trkpt lat="37.262975" lon="128.778493"><ele>790.6</ele></trkpt>
      <trkpt lat="37.263092" lon="128.778249"><ele>791.1</ele></trkpt>
      <trkpt lat="37.263333" lon="128.778159"><ele>797.1</ele></trkpt>
      <trkpt lat="37.263649" lon="128.778145"><ele>801.9</ele></trkpt>
      <trkpt lat="37.263704" lon="128.778226"><ele>802.9</ele></trkpt>
      <trkpt lat="37.263835" lon="128.778274"><ele>804.2</ele></trkpt>
      <trkpt lat="37.264038" lon="128.778233"><ele>805.3</ele></trkpt>
      <trkpt lat="37.264157" lon="128.778284"><ele>806.6</ele></trkpt>
      <trkpt lat="37.264596" lon="128.778129"><ele>810.0</ele></trkpt>
      <trkpt lat="37.264983" lon="128.778266"><ele>818.5</ele></trkpt>
      <trkpt lat="37.265485" lon="128.778620"><ele>822.9</ele></trkpt>
      <trkpt lat="37.265650" lon="128.778813"><ele>823.6</ele></trkpt>
      <trkpt lat="37.265946" lon="128.778922"><ele>821.3</ele></trkpt>
      <trkpt lat="37.266143" lon="128.778632"><ele>820.9</ele></trkpt>
      <trkpt lat="37.266185" lon="128.778396"><ele>825.5</ele></trkpt>
      <trkpt lat="37.266091" lon="128.778273"><ele>828.5</ele></trkpt>
      <trkpt lat="37.265758" lon="128.778031"><ele>832.2</ele></trkpt>
      <trkpt lat="37.265651" lon="128.777583"><ele>840.7</ele></trkpt>
      <trkpt lat="37.265314" lon="128.777221"><ele>843.0</ele></trkpt>
      <trkpt lat="37.264992" lon="128.777054"><ele>841.6</ele></trkpt>
      <trkpt lat="37.263893" lon="128.776127"><ele>847.7</ele></trkpt>
      <trkpt lat="37.263363" lon="128.775575"><ele>856.0</ele></trkpt>
      <trkpt lat="37.262388" lon="128.775093"><ele>853.4</ele></trkpt>
      <trkpt lat="37.262551" lon="128.774921"><ele>858.7</ele></trkpt>
      <trkpt lat="37.263037" lon="128.774708"><ele>872.5</ele></trkpt>
      <trkpt lat="37.263300" lon="128.774482"><ele>885.8</ele></trkpt>
      <trkpt lat="37.263423" lon="128.774445"><ele>890.6</ele></trkpt>
      <trkpt lat="37.263717" lon="128.774523"><ele>900.6</ele></trkpt>
      <trkpt lat="37.263847" lon="128.774682"><ele>904.6</ele></trkpt>
      <trkpt lat="37.264011" lon="128.774781"><ele>910.1</ele></trkpt>
      <trkpt lat="37.264477" lon="128.774885"><ele>926.7</ele></trkpt>
      <trkpt lat="37.264719" lon="128.774994"><ele>926.2</ele></trkpt>
      <trkpt lat="37.264849" lon="128.774853"><ele>937.0</ele></trkpt>
      <trkpt lat="37.264580" lon="128.774458"><ele>945.8</ele></trkpt>
      <trkpt lat="37.264533" lon="128.774303"><ele>948.6</ele></trkpt>
      <trkpt lat="37.264549" lon="128.774118"><ele>953.8</ele></trkpt>
      <trkpt lat="37.264643" lon="128.774035"><ele>960.2</ele></trkpt>
      <trkpt lat="37.264704" lon="128.774059"><ele>963.3</ele></trkpt>
      <trkpt lat="37.264809" lon="128.774001"><ele>970.5</ele></trkpt>
      <trkpt lat="37.264920" lon="128.773819"><ele>979.3</ele></trkpt>
      <trkpt lat="37.264965" lon="128.773851"><ele>981.5</ele></trkpt>
      <trkpt lat="37.265125" lon="128.773759"><ele>989.3</ele></trkpt>
      <trkpt lat="37.265279" lon="128.773647"><ele>997.4</ele></trkpt>
      <trkpt lat="37.265324" lon="128.773557"><ele>999.7</ele></trkpt>
      <trkpt lat="37.265376" lon="128.773646"><ele>1002.5</ele></trkpt>
      <trkpt lat="37.265589" lon="128.773688"><ele>1011.8</ele></trkpt>
      <trkpt lat="37.266103" lon="128.773687"><ele>1025.9</ele></trkpt>
      <trkpt lat="37.266341" lon="128.773587"><ele>1034.0</ele></trkpt>
      <trkpt lat="37.266431" lon="128.773686"><ele>1034.6</ele></trkpt>
      <trkpt lat="37.266740" lon="128.773761"><ele>1040.3</ele></trkpt>
      <trkpt lat="37.266892" lon="128.773703"><ele>1042.1</ele></trkpt>
      <trkpt lat="37.267454" lon="128.773806"><ele>1060.9</ele></trkpt>
      <trkpt lat="37.267862" lon="128.773957"><ele>1062.9</ele></trkpt>
      <trkpt lat="37.267974" lon="128.774077"><ele>1062.7</ele></trkpt>
      <trkpt lat="37.268622" lon="128.774400"><ele>1067.9</ele></trkpt>
      <trkpt lat="37.269399" lon="128.774657"><ele>1079.2</ele></trkpt>
      <trkpt lat="37.270113" lon="128.774686"><ele>1089.4</ele></trkpt>
      <trkpt lat="37.270338" lon="128.774779"><ele>1096.8</ele></trkpt>
      <trkpt lat="37.271123" lon="128.774779"><ele>1112.1</ele></trkpt>
      <trkpt lat="37.271944" lon="128.775183"><ele>1074.4</ele></trkpt>
      <trkpt lat="37.272216" lon="128.775172"><ele>1066.7</ele></trkpt>
      <trkpt lat="37.272401" lon="128.775056"><ele>1059.4</ele></trkpt>
      <trkpt lat="37.272474" lon="128.775065"><ele>1057.2</ele></trkpt>
      <trkpt lat="37.273317" lon="128.775609"><ele>1040.3</ele></trkpt>
    </trkseg>
  </trk>
</gpx>
