<?xml version="1.0" encoding="UTF-8"?>
<gpx version="1.1" creator="kr-100-mountains route-harvester"
     xmlns="http://www.topografix.com/GPX/1/1"
     xmlns:k100="https://github.com/jay-jang/kr-100-mountains/ns/1"
     xmlns:xsi="http://www.w3.org/2001/XMLSchema-instance"
     xsi:schemaLocation="http://www.topografix.com/GPX/1/1 http://www.topografix.com/GPX/1/1/gpx.xsd">
  <metadata>
    <name>민둥산 · 능전마을-정상 코스 (OSM 계산 경로)</name>
    <desc>실제 GPS 기록이 아닙니다. OpenStreetMap에 등록된 등산로 선형 위에서 계산한 경로이며, 현장 통제·훼손·출입 제한·계절 통제를 반영하지 않을 수 있습니다. 산행 전 공식 안내를 확인하세요.</desc>
    <time>2026-08-04T05:22:52.257Z</time>
    <link href="https://www.openstreetmap.org/copyright"><text>© OpenStreetMap contributors (ODbL 1.0)</text></link>
    <link href="https://registry.opendata.aws/terrain-tiles/"><text>Elevation: SRTM 1 arc-second (NASA/USGS) via AWS Terrain Tiles</text></link>
    <extensions>
      <k100:provenance>osm-routed</k100:provenance>
      <k100:not_a_recorded_track>true</k100:not_a_recorded_track>
      <k100:mountain_id>mindungsan</k100:mountain_id>
      <k100:mountain_name>민둥산</k100:mountain_name>
      <k100:route_id>mindungsan-214fdf1b</k100:route_id>
      <k100:route_index>2</k100:route_index>
      <k100:route_name>능전마을-정상 코스</k100:route_name>
      <k100:variant>0</k100:variant>
      <k100:source>OpenStreetMap via Overpass API</k100:source>
      <k100:license>ODbL-1.0</k100:license>
      <k100:attribution>© OpenStreetMap contributors</k100:attribution>
      <k100:elevation_source>SRTM 1 arc-second (NASA/USGS) — AWS Terrain Tiles 배포본. 지형 DEM 추정 고도이며 실측 아님</k100:elevation_source>
      <k100:algorithm>dijkstra-grid-v1</k100:algorithm>
      <k100:osm_snapshot>2026-08-04</k100:osm_snapshot>
      <k100:snap_trailhead_m>20</k100:snap_trailhead_m>
      <k100:snap_summit_m>63</k100:snap_summit_m>
      <k100:validation_score>93</k100:validation_score>
      <k100:validation_status>accepted</k100:validation_status>
    </extensions>
  </metadata>
  <trk>
    <name>민둥산 · 능전마을-정상 코스 (OSM 계산 경로)</name>
    <desc>실제 GPS 기록이 아닙니다. OpenStreetMap에 등록된 등산로 선형 위에서 계산한 경로이며, 현장 통제·훼손·출입 제한·계절 통제를 반영하지 않을 수 있습니다. 산행 전 공식 안내를 확인하세요.</desc>
    <trkseg>
      <trkpt lat="37.262123" lon="128.779745"><ele>804.7</ele></trkpt>
      <trkpt lat="37.262289" lon="128.779737"><ele>803.6</ele></trkpt>
      <trkpt lat="37.262714" lon="128.779842"><ele>807.1</ele></trkpt>
      <trkpt lat="37.262887" lon="128.779724"><ele>804.8</ele></trkpt>
      <trkpt lat="37.262940" lon="128.779571"><ele>803.3</ele></trkpt>
      <trkpt lat="37.262953" lon="128.778646"><ele>792.3</ele></trkpt>
      <trkpt lat="37.262975" lon="128.778493"><ele>790.6</ele></trkpt>
      <trkpt lat="37.263092" lon="128.778249"><ele>791.1</ele></trkpt>
      <trkpt lat="37.263503" lon="128.778140"><ele>799.8</ele></trkpt>
      <trkpt lat="37.263649" lon="128.778145"><ele>801.9</ele></trkpt>
      <trkpt lat="37.263704" lon="128.778226"><ele>802.9</ele></trkpt>
      <trkpt lat="37.263835" lon="128.778274"><ele>804.2</ele></trkpt>
      <trkpt lat="37.264038" lon="128.778233"><ele>805.3</ele></trkpt>
      <trkpt lat="37.264157" lon="128.778284"><ele>806.6</ele></trkpt>
      <trkpt lat="37.264596" lon="128.778129"><ele>810.0</ele></trkpt>
      <trkpt lat="37.264983" lon="128.778266"><ele>818.5</ele></trkpt>
      <trkpt lat="37.265485" lon="128.778620"><ele>822.9</ele></trkpt>
      <trkpt lat="37.265650" lon="128.778813"><ele>823.6</ele></trkpt>
      <trkpt lat="37.265969" lon="128.778905"><ele>821.1</ele></trkpt>
      <trkpt lat="37.266262" lon="128.779228"><ele>818.4</ele></trkpt>
      <trkpt lat="37.266614" lon="128.779485"><ele>812.7</ele></trkpt>
      <trkpt lat="37.266915" lon="128.779549"><ele>810.8</ele></trkpt>
      <trkpt lat="37.267139" lon="128.779810"><ele>808.7</ele></trkpt>
      <trkpt lat="37.267316" lon="128.779882"><ele>810.4</ele></trkpt>
      <trkpt lat="37.267568" lon="128.780134"><ele>812.8</ele></trkpt>
      <trkpt lat="37.267809" lon="128.780502"><ele>814.5</ele></trkpt>
      <trkpt lat="37.269472" lon="128.780231"><ele>839.8</ele></trkpt>
      <trkpt lat="37.269620" lon="128.780274"><ele>839.7</ele></trkpt>
      <trkpt lat="37.269803" lon="128.779977"><ele>845.1</ele></trkpt>
      <trkpt lat="37.270095" lon="128.779775"><ele>851.4</ele></trkpt>
      <trkpt lat="37.270066" lon="128.779594"><ele>858.9</ele></trkpt>
      <trkpt lat="37.270195" lon="128.779454"><ele>868.7</ele></trkpt>
      <trkpt lat="37.270973" lon="128.779078"><ele>901.3</ele></trkpt>
      <trkpt lat="37.271397" lon="128.779003"><ele>906.6</ele></trkpt>
      <trkpt lat="37.271249" lon="128.778829"><ele>912.7</ele></trkpt>
      <trkpt lat="37.271053" lon="128.778741"><ele>915.0</ele></trkpt>
      <trkpt lat="37.270331" lon="128.778129"><ele>922.3</ele></trkpt>
      <trkpt lat="37.270011" lon="128.777929"><ele>929.3</ele></trkpt>
      <trkpt lat="37.269887" lon="128.777774"><ele>937.5</ele></trkpt>
      <trkpt lat="37.271381" lon="128.777842"><ele>970.1</ele></trkpt>
      <trkpt lat="37.272186" lon="128.777933"><ele>985.4</ele></trkpt>
      <trkpt lat="37.272314" lon="128.777898"><ele>986.0</ele></trkpt>
      <trkpt lat="37.272903" lon="128.777370"><ele>990.0</ele></trkpt>
      <trkpt lat="37.273243" lon="128.776796"><ele>1011.5</ele></trkpt>
      <trkpt lat="37.273610" lon="128.776299"><ele>1034.0</ele></trkpt>
      <trkpt lat="37.273809" lon="128.776248"><ele>1036.9</ele></trkpt>
      <trkpt lat="37.273847" lon="128.776119"><ele>1037.4</ele></trkpt>
      <trkpt lat="37.273522" lon="128.775901"><ele>1036.6</ele></trkpt>
      <trkpt lat="37.273317" lon="128.775609"><ele>1040.3</ele></trkpt>
    </trkseg>
  </trk>
</gpx>
