<?xml version="1.0" encoding="UTF-8"?>
<gpx version="1.1" creator="kr-100-mountains route-harvester"
     xmlns="http://www.topografix.com/GPX/1/1"
     xmlns:k100="https://github.com/jay-jang/kr-100-mountains/ns/1"
     xmlns:xsi="http://www.w3.org/2001/XMLSchema-instance"
     xsi:schemaLocation="http://www.topografix.com/GPX/1/1 http://www.topografix.com/GPX/1/1/gpx.xsd">
  <metadata>
    <name>제암산 · 제암산-사자산 철쭉 능선코스 (대안 1) (OSM 계산 경로)</name>
    <desc>실제 GPS 기록이 아닙니다. OpenStreetMap에 등록된 등산로 선형 위에서 계산한 경로이며, 현장 통제·훼손·출입 제한·계절 통제를 반영하지 않을 수 있습니다. 산행 전 공식 안내를 확인하세요.</desc>
    <time>2026-08-04T05:55:57.030Z</time>
    <link href="https://www.openstreetmap.org/copyright"><text>© OpenStreetMap contributors (ODbL 1.0)</text></link>
    <link href="https://registry.opendata.aws/terrain-tiles/"><text>Elevation: SRTM 1 arc-second (NASA/USGS) via AWS Terrain Tiles</text></link>
    <extensions>
      <k100:provenance>osm-routed</k100:provenance>
      <k100:not_a_recorded_track>true</k100:not_a_recorded_track>
      <k100:mountain_id>jeamsan</k100:mountain_id>
      <k100:mountain_name>제암산</k100:mountain_name>
      <k100:route_id>jeamsan-83665645</k100:route_id>
      <k100:route_index>1</k100:route_index>
      <k100:route_name>제암산-사자산 철쭉 능선코스</k100:route_name>
      <k100:variant>1</k100:variant>
      <k100:source>OpenStreetMap via Overpass API</k100:source>
      <k100:license>ODbL-1.0</k100:license>
      <k100:attribution>© OpenStreetMap contributors</k100:attribution>
      <k100:elevation_source>SRTM 1 arc-second (NASA/USGS) — AWS Terrain Tiles 배포본. 지형 DEM 추정 고도이며 실측 아님</k100:elevation_source>
      <k100:algorithm>dijkstra-grid-v1</k100:algorithm>
      <k100:osm_snapshot>2026-08-04</k100:osm_snapshot>
      <k100:snap_trailhead_m>19</k100:snap_trailhead_m>
      <k100:snap_summit_m>197</k100:snap_summit_m>
      <k100:validation_score>73</k100:validation_score>
      <k100:validation_status>review</k100:validation_status>
    </extensions>
  </metadata>
  <trk>
    <name>제암산 · 제암산-사자산 철쭉 능선코스 (대안 1) (OSM 계산 경로)</name>
    <desc>실제 GPS 기록이 아닙니다. OpenStreetMap에 등록된 등산로 선형 위에서 계산한 경로이며, 현장 통제·훼손·출입 제한·계절 통제를 반영하지 않을 수 있습니다. 산행 전 공식 안내를 확인하세요.</desc>
    <trkseg>
      <trkpt lat="34.716593" lon="127.027336"><ele>188.5</ele></trkpt>
      <trkpt lat="34.720236" lon="127.028943"><ele>184.3</ele></trkpt>
      <trkpt lat="34.720612" lon="127.029023"><ele>183.0</ele></trkpt>
      <trkpt lat="34.721553" lon="127.028923"><ele>185.4</ele></trkpt>
      <trkpt lat="34.721565" lon="127.027640"><ele>182.7</ele></trkpt>
      <trkpt lat="34.721820" lon="127.026317"><ele>183.0</ele></trkpt>
      <trkpt lat="34.722137" lon="127.026108"><ele>183.7</ele></trkpt>
      <trkpt lat="34.724628" lon="127.023074"><ele>185.9</ele></trkpt>
      <trkpt lat="34.724653" lon="127.022962"><ele>185.7</ele></trkpt>
      <trkpt lat="34.724124" lon="127.022675"><ele>186.4</ele></trkpt>
      <trkpt lat="34.724169" lon="127.022433"><ele>187.0</ele></trkpt>
      <trkpt lat="34.724440" lon="127.022384"><ele>186.4</ele></trkpt>
      <trkpt lat="34.725073" lon="127.022415"><ele>186.3</ele></trkpt>
      <trkpt lat="34.726598" lon="127.022002"><ele>185.0</ele></trkpt>
      <trkpt lat="34.727008" lon="127.021793"><ele>186.3</ele></trkpt>
      <trkpt lat="34.727492" lon="127.021415"><ele>187.0</ele></trkpt>
      <trkpt lat="34.727707" lon="127.021317"><ele>187.0</ele></trkpt>
      <trkpt lat="34.727646" lon="127.020952"><ele>187.3</ele></trkpt>
      <trkpt lat="34.727657" lon="127.020765"><ele>187.8</ele></trkpt>
      <trkpt lat="34.727880" lon="127.020359"><ele>190.1</ele></trkpt>
      <trkpt lat="34.728074" lon="127.020225"><ele>191.2</ele></trkpt>
      <trkpt lat="34.728274" lon="127.019979"><ele>192.1</ele></trkpt>
      <trkpt lat="34.728296" lon="127.019799"><ele>193.3</ele></trkpt>
      <trkpt lat="34.728224" lon="127.019507"><ele>193.5</ele></trkpt>
      <trkpt lat="34.728312" lon="127.019174"><ele>194.8</ele></trkpt>
      <trkpt lat="34.728552" lon="127.018731"><ele>196.9</ele></trkpt>
      <trkpt lat="34.728915" lon="127.019512"><ele>198.0</ele></trkpt>
      <trkpt lat="34.729489" lon="127.020292"><ele>197.6</ele></trkpt>
      <trkpt lat="34.729830" lon="127.020593"><ele>194.5</ele></trkpt>
      <trkpt lat="34.730493" lon="127.020748"><ele>195.1</ele></trkpt>
      <trkpt lat="34.731509" lon="127.021245"><ele>191.0</ele></trkpt>
      <trkpt lat="34.733244" lon="127.021462"><ele>188.9</ele></trkpt>
      <trkpt lat="34.734220" lon="127.022000"><ele>185.9</ele></trkpt>
      <trkpt lat="34.734643" lon="127.022153"><ele>185.2</ele></trkpt>
      <trkpt lat="34.735290" lon="127.022483"><ele>182.2</ele></trkpt>
      <trkpt lat="34.735641" lon="127.022760"><ele>179.2</ele></trkpt>
      <trkpt lat="34.736347" lon="127.023092"><ele>181.6</ele></trkpt>
      <trkpt lat="34.736697" lon="127.023464"><ele>181.1</ele></trkpt>
      <trkpt lat="34.736953" lon="127.023580"><ele>181.1</ele></trkpt>
      <trkpt lat="34.736858" lon="127.023676"><ele>180.3</ele></trkpt>
      <trkpt lat="34.736367" lon="127.027605"><ele>177.0</ele></trkpt>
      <trkpt lat="34.736405" lon="127.027761"><ele>177.1</ele></trkpt>
      <trkpt lat="34.737510" lon="127.027329"><ele>176.0</ele></trkpt>
      <trkpt lat="34.738633" lon="127.026711"><ele>176.0</ele></trkpt>
      <trkpt lat="34.739064" lon="127.026609"><ele>175.6</ele></trkpt>
      <trkpt lat="34.739357" lon="127.026637"><ele>174.5</ele></trkpt>
      <trkpt lat="34.739953" lon="127.026871"><ele>174.5</ele></trkpt>
      <trkpt lat="34.741223" lon="127.027482"><ele>174.1</ele></trkpt>
      <trkpt lat="34.741540" lon="127.027568"><ele>173.9</ele></trkpt>
      <trkpt lat="34.741873" lon="127.027564"><ele>174.7</ele></trkpt>
      <trkpt lat="34.742484" lon="127.027347"><ele>176.4</ele></trkpt>
      <trkpt lat="34.743318" lon="127.026893"><ele>173.1</ele></trkpt>
      <trkpt lat="34.743573" lon="127.026815"><ele>172.5</ele></trkpt>
      <trkpt lat="34.745912" lon="127.026457"><ele>173.8</ele></trkpt>
      <trkpt lat="34.746232" lon="127.026276"><ele>174.2</ele></trkpt>
      <trkpt lat="34.746982" lon="127.026229"><ele>175.9</ele></trkpt>
      <trkpt lat="34.747096" lon="127.026197"><ele>175.3</ele></trkpt>
      <trkpt lat="34.747219" lon="127.026018"><ele>175.7</ele></trkpt>
      <trkpt lat="34.748211" lon="127.026193"><ele>182.5</ele></trkpt>
      <trkpt lat="34.748939" lon="127.026500"><ele>177.5</ele></trkpt>
      <trkpt lat="34.749254" lon="127.026335"><ele>178.7</ele></trkpt>
      <trkpt lat="34.749612" lon="127.026272"><ele>181.0</ele></trkpt>
      <trkpt lat="34.750519" lon="127.026306"><ele>183.0</ele></trkpt>
      <trkpt lat="34.751465" lon="127.026451"><ele>184.0</ele></trkpt>
      <trkpt lat="34.753346" lon="127.026294"><ele>177.8</ele></trkpt>
      <trkpt lat="34.755691" lon="127.026320"><ele>178.3</ele></trkpt>
      <trkpt lat="34.756052" lon="127.026178"><ele>177.5</ele></trkpt>
      <trkpt lat="34.756553" lon="127.025841"><ele>171.8</ele></trkpt>
      <trkpt lat="34.756867" lon="127.025591"><ele>173.0</ele></trkpt>
      <trkpt lat="34.757364" lon="127.024992"><ele>173.6</ele></trkpt>
      <trkpt lat="34.757550" lon="127.024852"><ele>176.3</ele></trkpt>
      <trkpt lat="34.759253" lon="127.024399"><ele>175.6</ele></trkpt>
      <trkpt lat="34.759811" lon="127.024065"><ele>176.6</ele></trkpt>
      <trkpt lat="34.759823" lon="127.024549"><ele>174.9</ele></trkpt>
      <trkpt lat="34.760222" lon="127.024354"><ele>174.9</ele></trkpt>
      <trkpt lat="34.760539" lon="127.024107"><ele>173.6</ele></trkpt>
      <trkpt lat="34.760760" lon="127.023667"><ele>172.9</ele></trkpt>
      <trkpt lat="34.760927" lon="127.022862"><ele>174.7</ele></trkpt>
      <trkpt lat="34.760971" lon="127.022047"><ele>173.6</ele></trkpt>
      <trkpt lat="34.761253" lon="127.021596"><ele>170.9</ele></trkpt>
      <trkpt lat="34.761879" lon="127.018657"><ele>167.8</ele></trkpt>
      <trkpt lat="34.762020" lon="127.015985"><ele>168.3</ele></trkpt>
      <trkpt lat="34.761941" lon="127.015534"><ele>167.0</ele></trkpt>
      <trkpt lat="34.762011" lon="127.015073"><ele>166.2</ele></trkpt>
      <trkpt lat="34.762135" lon="127.014794"><ele>166.0</ele></trkpt>
      <trkpt lat="34.762637" lon="127.012970"><ele>169.2</ele></trkpt>
      <trkpt lat="34.762840" lon="127.012573"><ele>169.2</ele></trkpt>
      <trkpt lat="34.763095" lon="127.008089"><ele>165.8</ele></trkpt>
      <trkpt lat="34.763166" lon="127.007871"><ele>164.5</ele></trkpt>
      <trkpt lat="34.761813" lon="127.005055"><ele>165.9</ele></trkpt>
      <trkpt lat="34.761037" lon="127.004159"><ele>164.2</ele></trkpt>
      <trkpt lat="34.758424" lon="127.002121"><ele>164.6</ele></trkpt>
      <trkpt lat="34.757455" lon="127.001048"><ele>161.2</ele></trkpt>
      <trkpt lat="34.756727" lon="127.001990"><ele>163.9</ele></trkpt>
      <trkpt lat="34.756606" lon="127.001805"><ele>163.9</ele></trkpt>
      <trkpt lat="34.756245" lon="127.001953"><ele>163.6</ele></trkpt>
      <trkpt lat="34.755593" lon="127.002355"><ele>167.9</ele></trkpt>
      <trkpt lat="34.754002" lon="127.000959"><ele>167.1</ele></trkpt>
      <trkpt lat="34.753994" lon="127.000329"><ele>167.3</ele></trkpt>
      <trkpt lat="34.754029" lon="127.000128"><ele>168.1</ele></trkpt>
      <trkpt lat="34.754209" lon="126.999739"><ele>171.3</ele></trkpt>
      <trkpt lat="34.753892" lon="126.999519"><ele>177.9</ele></trkpt>
      <trkpt lat="34.753637" lon="126.999223"><ele>183.3</ele></trkpt>
      <trkpt lat="34.753076" lon="126.998257"><ele>179.5</ele></trkpt>
      <trkpt lat="34.751928" lon="126.996608"><ele>168.0</ele></trkpt>
      <trkpt lat="34.752058" lon="126.995125"><ele>163.3</ele></trkpt>
      <trkpt lat="34.751943" lon="126.994797"><ele>162.0</ele></trkpt>
      <trkpt lat="34.748661" lon="126.992295"><ele>170.4</ele></trkpt>
      <trkpt lat="34.745060" lon="126.990736"><ele>176.5</ele></trkpt>
      <trkpt lat="34.744872" lon="126.990616"><ele>177.0</ele></trkpt>
      <trkpt lat="34.743360" lon="126.988608"><ele>180.9</ele></trkpt>
      <trkpt lat="34.742678" lon="126.989334"><ele>185.0</ele></trkpt>
      <trkpt lat="34.741400" lon="126.986649"><ele>209.4</ele></trkpt>
      <trkpt lat="34.741111" lon="126.986284"><ele>212.4</ele></trkpt>
      <trkpt lat="34.740577" lon="126.985863"><ele>217.7</ele></trkpt>
      <trkpt lat="34.739657" lon="126.985387"><ele>219.3</ele></trkpt>
      <trkpt lat="34.739491" lon="126.985596"><ele>217.8</ele></trkpt>
      <trkpt lat="34.739505" lon="126.985955"><ele>222.6</ele></trkpt>
      <trkpt lat="34.739268" lon="126.986196"><ele>227.9</ele></trkpt>
      <trkpt lat="34.739056" lon="126.986329"><ele>229.9</ele></trkpt>
      <trkpt lat="34.738936" lon="126.986534"><ele>232.5</ele></trkpt>
      <trkpt lat="34.738785" lon="126.986565"><ele>230.7</ele></trkpt>
      <trkpt lat="34.738637" lon="126.986498"><ele>227.3</ele></trkpt>
      <trkpt lat="34.738418" lon="126.986675"><ele>227.4</ele></trkpt>
      <trkpt lat="34.738224" lon="126.987205"><ele>238.2</ele></trkpt>
      <trkpt lat="34.738307" lon="126.987694"><ele>248.5</ele></trkpt>
      <trkpt lat="34.738270" lon="126.988479"><ele>252.6</ele></trkpt>
    </trkseg>
  </trk>
</gpx>
