<?xml version="1.0" encoding="UTF-8"?>
<gpx version="1.1" creator="kr-100-mountains route-harvester"
     xmlns="http://www.topografix.com/GPX/1/1"
     xmlns:k100="https://github.com/jay-jang/kr-100-mountains/ns/1"
     xmlns:xsi="http://www.w3.org/2001/XMLSchema-instance"
     xsi:schemaLocation="http://www.topografix.com/GPX/1/1 http://www.topografix.com/GPX/1/1/gpx.xsd">
  <metadata>
    <name>비슬산 · 유가사-천왕봉 코스 (대안 1) (OSM 계산 경로)</name>
    <desc>실제 GPS 기록이 아닙니다. OpenStreetMap에 등록된 등산로 선형 위에서 계산한 경로이며, 현장 통제·훼손·출입 제한·계절 통제를 반영하지 않을 수 있습니다. 산행 전 공식 안내를 확인하세요.</desc>
    <time>2026-08-04T05:41:01.275Z</time>
    <link href="https://www.openstreetmap.org/copyright"><text>© OpenStreetMap contributors (ODbL 1.0)</text></link>
    <link href="https://registry.opendata.aws/terrain-tiles/"><text>Elevation: SRTM 1 arc-second (NASA/USGS) via AWS Terrain Tiles</text></link>
    <extensions>
      <k100:provenance>osm-routed</k100:provenance>
      <k100:not_a_recorded_track>true</k100:not_a_recorded_track>
      <k100:mountain_id>biseulsan</k100:mountain_id>
      <k100:mountain_name>비슬산</k100:mountain_name>
      <k100:route_id>biseulsan-d5a25584</k100:route_id>
      <k100:route_index>1</k100:route_index>
      <k100:route_name>유가사-천왕봉 코스</k100:route_name>
      <k100:variant>1</k100:variant>
      <k100:source>OpenStreetMap via Overpass API</k100:source>
      <k100:license>ODbL-1.0</k100:license>
      <k100:attribution>© OpenStreetMap contributors</k100:attribution>
      <k100:elevation_source>SRTM 1 arc-second (NASA/USGS) — AWS Terrain Tiles 배포본. 지형 DEM 추정 고도이며 실측 아님</k100:elevation_source>
      <k100:algorithm>dijkstra-grid-v1</k100:algorithm>
      <k100:osm_snapshot>2026-08-04</k100:osm_snapshot>
      <k100:snap_trailhead_m>22</k100:snap_trailhead_m>
      <k100:snap_summit_m>32</k100:snap_summit_m>
      <k100:validation_score>100</k100:validation_score>
      <k100:validation_status>accepted</k100:validation_status>
    </extensions>
  </metadata>
  <trk>
    <name>비슬산 · 유가사-천왕봉 코스 (대안 1) (OSM 계산 경로)</name>
    <desc>실제 GPS 기록이 아닙니다. OpenStreetMap에 등록된 등산로 선형 위에서 계산한 경로이며, 현장 통제·훼손·출입 제한·계절 통제를 반영하지 않을 수 있습니다. 산행 전 공식 안내를 확인하세요.</desc>
    <trkseg>
      <trkpt lat="35.712956" lon="128.507780"><ele>426.0</ele></trkpt>
      <trkpt lat="35.713143" lon="128.507668"><ele>424.3</ele></trkpt>
      <trkpt lat="35.713324" lon="128.507439"><ele>423.6</ele></trkpt>
      <trkpt lat="35.713361" lon="128.507570"><ele>424.9</ele></trkpt>
      <trkpt lat="35.713212" lon="128.508521"><ele>443.7</ele></trkpt>
      <trkpt lat="35.713377" lon="128.508888"><ele>452.8</ele></trkpt>
      <trkpt lat="35.713680" lon="128.509157"><ele>458.7</ele></trkpt>
      <trkpt lat="35.713984" lon="128.509216"><ele>457.1</ele></trkpt>
      <trkpt lat="35.713627" lon="128.509813"><ele>484.6</ele></trkpt>
      <trkpt lat="35.713457" lon="128.510370"><ele>502.6</ele></trkpt>
      <trkpt lat="35.713249" lon="128.510632"><ele>512.0</ele></trkpt>
      <trkpt lat="35.713260" lon="128.510868"><ele>518.4</ele></trkpt>
      <trkpt lat="35.713180" lon="128.511465"><ele>539.8</ele></trkpt>
      <trkpt lat="35.712727" lon="128.512186"><ele>568.8</ele></trkpt>
      <trkpt lat="35.712600" lon="128.512239"><ele>571.1</ele></trkpt>
      <trkpt lat="35.712440" lon="128.512442"><ele>576.4</ele></trkpt>
      <trkpt lat="35.712541" lon="128.512927"><ele>584.0</ele></trkpt>
      <trkpt lat="35.712440" lon="128.513347"><ele>591.2</ele></trkpt>
      <trkpt lat="35.712440" lon="128.513596"><ele>595.7</ele></trkpt>
      <trkpt lat="35.712568" lon="128.513957"><ele>603.8</ele></trkpt>
      <trkpt lat="35.712552" lon="128.514206"><ele>612.6</ele></trkpt>
      <trkpt lat="35.712472" lon="128.514429"><ele>620.3</ele></trkpt>
      <trkpt lat="35.712536" lon="128.514534"><ele>624.2</ele></trkpt>
      <trkpt lat="35.712472" lon="128.514868"><ele>635.2</ele></trkpt>
      <trkpt lat="35.712616" lon="128.515163"><ele>646.6</ele></trkpt>
      <trkpt lat="35.712573" lon="128.515301"><ele>652.3</ele></trkpt>
      <trkpt lat="35.712616" lon="128.515491"><ele>658.7</ele></trkpt>
      <trkpt lat="35.712461" lon="128.515780"><ele>665.6</ele></trkpt>
      <trkpt lat="35.712648" lon="128.515818"><ele>670.6</ele></trkpt>
      <trkpt lat="35.712683" lon="128.515532"><ele>660.1</ele></trkpt>
      <trkpt lat="35.712657" lon="128.515081"><ele>643.2</ele></trkpt>
      <trkpt lat="35.712578" lon="128.514878"><ele>636.0</ele></trkpt>
      <trkpt lat="35.712648" lon="128.514448"><ele>621.1</ele></trkpt>
      <trkpt lat="35.712805" lon="128.514341"><ele>616.1</ele></trkpt>
      <trkpt lat="35.712997" lon="128.514037"><ele>604.3</ele></trkpt>
      <trkpt lat="35.713210" lon="128.514017"><ele>603.1</ele></trkpt>
      <trkpt lat="35.713724" lon="128.514334"><ele>604.6</ele></trkpt>
      <trkpt lat="35.713918" lon="128.514550"><ele>606.7</ele></trkpt>
      <trkpt lat="35.714009" lon="128.514589"><ele>605.7</ele></trkpt>
      <trkpt lat="35.714388" lon="128.514664"><ele>600.4</ele></trkpt>
      <trkpt lat="35.714475" lon="128.514644"><ele>598.4</ele></trkpt>
      <trkpt lat="35.714599" lon="128.514489"><ele>591.5</ele></trkpt>
      <trkpt lat="35.714750" lon="128.514483"><ele>591.9</ele></trkpt>
      <trkpt lat="35.714805" lon="128.514494"><ele>592.7</ele></trkpt>
      <trkpt lat="35.714828" lon="128.514665"><ele>600.0</ele></trkpt>
      <trkpt lat="35.714937" lon="128.514792"><ele>605.8</ele></trkpt>
      <trkpt lat="35.715333" lon="128.514860"><ele>615.4</ele></trkpt>
      <trkpt lat="35.715689" lon="128.514849"><ele>619.0</ele></trkpt>
      <trkpt lat="35.715726" lon="128.514913"><ele>621.5</ele></trkpt>
      <trkpt lat="35.715703" lon="128.514969"><ele>623.8</ele></trkpt>
      <trkpt lat="35.715554" lon="128.515076"><ele>627.7</ele></trkpt>
      <trkpt lat="35.715289" lon="128.515411"><ele>635.5</ele></trkpt>
      <trkpt lat="35.714850" lon="128.515602"><ele>638.1</ele></trkpt>
      <trkpt lat="35.714651" lon="128.515784"><ele>645.7</ele></trkpt>
      <trkpt lat="35.714747" lon="128.515856"><ele>650.0</ele></trkpt>
      <trkpt lat="35.715130" lon="128.515889"><ele>654.1</ele></trkpt>
      <trkpt lat="35.715478" lon="128.515853"><ele>653.4</ele></trkpt>
      <trkpt lat="35.715669" lon="128.515766"><ele>650.4</ele></trkpt>
      <trkpt lat="35.715822" lon="128.516217"><ele>670.7</ele></trkpt>
      <trkpt lat="35.715894" lon="128.516280"><ele>673.0</ele></trkpt>
      <trkpt lat="35.716175" lon="128.516423"><ele>678.5</ele></trkpt>
      <trkpt lat="35.716387" lon="128.516386"><ele>674.9</ele></trkpt>
      <trkpt lat="35.716588" lon="128.516547"><ele>680.5</ele></trkpt>
      <trkpt lat="35.716670" lon="128.516539"><ele>679.5</ele></trkpt>
      <trkpt lat="35.717009" lon="128.516269"><ele>679.2</ele></trkpt>
      <trkpt lat="35.717078" lon="128.516040"><ele>674.7</ele></trkpt>
      <trkpt lat="35.717059" lon="128.515908"><ele>670.1</ele></trkpt>
      <trkpt lat="35.717148" lon="128.515733"><ele>669.4</ele></trkpt>
      <trkpt lat="35.717425" lon="128.515540"><ele>680.4</ele></trkpt>
      <trkpt lat="35.717485" lon="128.515217"><ele>677.8</ele></trkpt>
      <trkpt lat="35.717616" lon="128.515163"><ele>682.4</ele></trkpt>
      <trkpt lat="35.717803" lon="128.514666"><ele>676.2</ele></trkpt>
      <trkpt lat="35.717949" lon="128.514687"><ele>683.2</ele></trkpt>
      <trkpt lat="35.718084" lon="128.514641"><ele>687.5</ele></trkpt>
      <trkpt lat="35.718351" lon="128.514800"><ele>706.2</ele></trkpt>
      <trkpt lat="35.718452" lon="128.514606"><ele>706.3</ele></trkpt>
      <trkpt lat="35.718630" lon="128.514740"><ele>720.6</ele></trkpt>
      <trkpt lat="35.718645" lon="128.514815"><ele>723.9</ele></trkpt>
      <trkpt lat="35.718691" lon="128.514765"><ele>724.4</ele></trkpt>
      <trkpt lat="35.719045" lon="128.515027"><ele>746.0</ele></trkpt>
      <trkpt lat="35.718839" lon="128.514576"><ele>727.3</ele></trkpt>
      <trkpt lat="35.718788" lon="128.514369"><ele>720.4</ele></trkpt>
      <trkpt lat="35.718818" lon="128.514198"><ele>718.9</ele></trkpt>
      <trkpt lat="35.718873" lon="128.514388"><ele>725.3</ele></trkpt>
      <trkpt lat="35.719002" lon="128.514479"><ele>732.9</ele></trkpt>
      <trkpt lat="35.719062" lon="128.514383"><ele>733.8</ele></trkpt>
      <trkpt lat="35.719114" lon="128.514424"><ele>737.1</ele></trkpt>
      <trkpt lat="35.719089" lon="128.514546"><ele>738.0</ele></trkpt>
      <trkpt lat="35.719269" lon="128.514700"><ele>746.1</ele></trkpt>
      <trkpt lat="35.719316" lon="128.514819"><ele>750.0</ele></trkpt>
      <trkpt lat="35.719279" lon="128.514885"><ele>750.6</ele></trkpt>
      <trkpt lat="35.719314" lon="128.515145"><ele>760.0</ele></trkpt>
      <trkpt lat="35.719450" lon="128.515268"><ele>770.7</ele></trkpt>
      <trkpt lat="35.719426" lon="128.515391"><ele>775.8</ele></trkpt>
      <trkpt lat="35.719495" lon="128.515543"><ele>786.2</ele></trkpt>
      <trkpt lat="35.719502" lon="128.515797"><ele>797.0</ele></trkpt>
      <trkpt lat="35.719597" lon="128.515886"><ele>805.2</ele></trkpt>
      <trkpt lat="35.719675" lon="128.516095"><ele>819.6</ele></trkpt>
      <trkpt lat="35.719838" lon="128.516188"><ele>824.9</ele></trkpt>
      <trkpt lat="35.719790" lon="128.516521"><ele>834.5</ele></trkpt>
      <trkpt lat="35.719809" lon="128.516688"><ele>838.6</ele></trkpt>
      <trkpt lat="35.719687" lon="128.517489"><ele>852.9</ele></trkpt>
      <trkpt lat="35.719582" lon="128.517622"><ele>850.1</ele></trkpt>
      <trkpt lat="35.719664" lon="128.517793"><ele>856.4</ele></trkpt>
      <trkpt lat="35.719595" lon="128.518464"><ele>869.0</ele></trkpt>
      <trkpt lat="35.719629" lon="128.518665"><ele>874.9</ele></trkpt>
      <trkpt lat="35.719465" lon="128.518868"><ele>884.6</ele></trkpt>
      <trkpt lat="35.719477" lon="128.519021"><ele>889.0</ele></trkpt>
      <trkpt lat="35.719208" lon="128.519494"><ele>903.9</ele></trkpt>
      <trkpt lat="35.719063" lon="128.520011"><ele>918.5</ele></trkpt>
      <trkpt lat="35.718955" lon="128.520149"><ele>920.9</ele></trkpt>
      <trkpt lat="35.718874" lon="128.520529"><ele>933.5</ele></trkpt>
      <trkpt lat="35.718903" lon="128.520859"><ele>950.5</ele></trkpt>
      <trkpt lat="35.718979" lon="128.521084"><ele>963.5</ele></trkpt>
      <trkpt lat="35.718929" lon="128.521253"><ele>973.1</ele></trkpt>
      <trkpt lat="35.719055" lon="128.521358"><ele>983.7</ele></trkpt>
      <trkpt lat="35.719076" lon="128.521446"><ele>990.1</ele></trkpt>
      <trkpt lat="35.719366" lon="128.521613"><ele>1001.7</ele></trkpt>
      <trkpt lat="35.719397" lon="128.521674"><ele>1004.7</ele></trkpt>
      <trkpt lat="35.719212" lon="128.522131"><ele>1019.3</ele></trkpt>
      <trkpt lat="35.719089" lon="128.522274"><ele>1022.6</ele></trkpt>
      <trkpt lat="35.719084" lon="128.522566"><ele>1033.4</ele></trkpt>
      <trkpt lat="35.719022" lon="128.522742"><ele>1038.2</ele></trkpt>
      <trkpt lat="35.718839" lon="128.522988"><ele>1040.8</ele></trkpt>
      <trkpt lat="35.718384" lon="128.523258"><ele>1042.2</ele></trkpt>
    </trkseg>
  </trk>
</gpx>
