<?xml version="1.0" encoding="UTF-8"?>
<gpx version="1.1" creator="kr-100-mountains route-harvester"
     xmlns="http://www.topografix.com/GPX/1/1"
     xmlns:k100="https://github.com/jay-jang/kr-100-mountains/ns/1"
     xmlns:xsi="http://www.w3.org/2001/XMLSchema-instance"
     xsi:schemaLocation="http://www.topografix.com/GPX/1/1 http://www.topografix.com/GPX/1/1/gpx.xsd">
  <metadata>
    <name>비슬산 · 대견사-천왕봉 능선 코스 (OSM 계산 경로)</name>
    <desc>실제 GPS 기록이 아닙니다. OpenStreetMap에 등록된 등산로 선형 위에서 계산한 경로이며, 현장 통제·훼손·출입 제한·계절 통제를 반영하지 않을 수 있습니다. 산행 전 공식 안내를 확인하세요.</desc>
    <time>2026-08-04T05:41:01.301Z</time>
    <link href="https://www.openstreetmap.org/copyright"><text>© OpenStreetMap contributors (ODbL 1.0)</text></link>
    <link href="https://registry.opendata.aws/terrain-tiles/"><text>Elevation: SRTM 1 arc-second (NASA/USGS) via AWS Terrain Tiles</text></link>
    <extensions>
      <k100:provenance>osm-routed</k100:provenance>
      <k100:not_a_recorded_track>true</k100:not_a_recorded_track>
      <k100:mountain_id>biseulsan</k100:mountain_id>
      <k100:mountain_name>비슬산</k100:mountain_name>
      <k100:route_id>biseulsan-996ead33</k100:route_id>
      <k100:route_index>2</k100:route_index>
      <k100:route_name>대견사-천왕봉 능선 코스</k100:route_name>
      <k100:variant>0</k100:variant>
      <k100:source>OpenStreetMap via Overpass API</k100:source>
      <k100:license>ODbL-1.0</k100:license>
      <k100:attribution>© OpenStreetMap contributors</k100:attribution>
      <k100:elevation_source>SRTM 1 arc-second (NASA/USGS) — AWS Terrain Tiles 배포본. 지형 DEM 추정 고도이며 실측 아님</k100:elevation_source>
      <k100:algorithm>dijkstra-grid-v1</k100:algorithm>
      <k100:osm_snapshot>2026-08-04</k100:osm_snapshot>
      <k100:snap_trailhead_m>115</k100:snap_trailhead_m>
      <k100:snap_summit_m>32</k100:snap_summit_m>
      <k100:validation_score>100</k100:validation_score>
      <k100:validation_status>accepted</k100:validation_status>
    </extensions>
  </metadata>
  <trk>
    <name>비슬산 · 대견사-천왕봉 능선 코스 (OSM 계산 경로)</name>
    <desc>실제 GPS 기록이 아닙니다. OpenStreetMap에 등록된 등산로 선형 위에서 계산한 경로이며, 현장 통제·훼손·출입 제한·계절 통제를 반영하지 않을 수 있습니다. 산행 전 공식 안내를 확인하세요.</desc>
    <trkseg>
      <trkpt lat="35.687671" lon="128.513968"><ele>568.8</ele></trkpt>
      <trkpt lat="35.687810" lon="128.513769"><ele>561.8</ele></trkpt>
      <trkpt lat="35.687971" lon="128.513265"><ele>563.5</ele></trkpt>
      <trkpt lat="35.688280" lon="128.513056"><ele>555.7</ele></trkpt>
      <trkpt lat="35.688346" lon="128.512863"><ele>554.6</ele></trkpt>
      <trkpt lat="35.688383" lon="128.512525"><ele>553.1</ele></trkpt>
      <trkpt lat="35.688536" lon="128.512364"><ele>547.1</ele></trkpt>
      <trkpt lat="35.688685" lon="128.512305"><ele>541.1</ele></trkpt>
      <trkpt lat="35.688690" lon="128.512632"><ele>533.6</ele></trkpt>
      <trkpt lat="35.688734" lon="128.512718"><ele>529.0</ele></trkpt>
      <trkpt lat="35.688795" lon="128.512683"><ele>525.1</ele></trkpt>
      <trkpt lat="35.689276" lon="128.512047"><ele>506.2</ele></trkpt>
      <trkpt lat="35.689644" lon="128.511350"><ele>497.2</ele></trkpt>
      <trkpt lat="35.690086" lon="128.510706"><ele>484.5</ele></trkpt>
      <trkpt lat="35.690283" lon="128.510256"><ele>480.3</ele></trkpt>
      <trkpt lat="35.690551" lon="128.509904"><ele>471.3</ele></trkpt>
      <trkpt lat="35.690629" lon="128.509601"><ele>470.2</ele></trkpt>
      <trkpt lat="35.690919" lon="128.508888"><ele>466.9</ele></trkpt>
      <trkpt lat="35.691224" lon="128.508400"><ele>463.8</ele></trkpt>
      <trkpt lat="35.691259" lon="128.507847"><ele>469.0</ele></trkpt>
      <trkpt lat="35.691339" lon="128.507634"><ele>470.7</ele></trkpt>
      <trkpt lat="35.691623" lon="128.507419"><ele>467.3</ele></trkpt>
      <trkpt lat="35.691712" lon="128.507061"><ele>467.9</ele></trkpt>
      <trkpt lat="35.691804" lon="128.506907"><ele>465.6</ele></trkpt>
      <trkpt lat="35.691706" lon="128.506845"><ele>466.8</ele></trkpt>
      <trkpt lat="35.691709" lon="128.506374"><ele>456.4</ele></trkpt>
      <trkpt lat="35.691966" lon="128.506206"><ele>451.5</ele></trkpt>
      <trkpt lat="35.692072" lon="128.506394"><ele>456.1</ele></trkpt>
      <trkpt lat="35.692433" lon="128.506441"><ele>455.2</ele></trkpt>
      <trkpt lat="35.692876" lon="128.506227"><ele>444.2</ele></trkpt>
      <trkpt lat="35.693158" lon="128.506499"><ele>443.7</ele></trkpt>
      <trkpt lat="35.693291" lon="128.506859"><ele>444.6</ele></trkpt>
      <trkpt lat="35.693235" lon="128.506912"><ele>445.1</ele></trkpt>
      <trkpt lat="35.692794" lon="128.506987"><ele>450.5</ele></trkpt>
      <trkpt lat="35.692386" lon="128.507217"><ele>452.1</ele></trkpt>
      <trkpt lat="35.692002" lon="128.507329"><ele>457.2</ele></trkpt>
      <trkpt lat="35.691871" lon="128.507452"><ele>458.6</ele></trkpt>
      <trkpt lat="35.691791" lon="128.507622"><ele>457.9</ele></trkpt>
      <trkpt lat="35.691657" lon="128.507676"><ele>462.1</ele></trkpt>
      <trkpt lat="35.691437" lon="128.507928"><ele>464.3</ele></trkpt>
      <trkpt lat="35.691319" lon="128.508266"><ele>463.2</ele></trkpt>
      <trkpt lat="35.691287" lon="128.508504"><ele>461.0</ele></trkpt>
      <trkpt lat="35.691165" lon="128.508848"><ele>459.2</ele></trkpt>
      <trkpt lat="35.691047" lon="128.509041"><ele>459.3</ele></trkpt>
      <trkpt lat="35.691012" lon="128.509298"><ele>456.9</ele></trkpt>
      <trkpt lat="35.690875" lon="128.509585"><ele>459.0</ele></trkpt>
      <trkpt lat="35.690873" lon="128.509674"><ele>458.6</ele></trkpt>
      <trkpt lat="35.691059" lon="128.509881"><ele>455.8</ele></trkpt>
      <trkpt lat="35.690889" lon="128.510108"><ele>458.4</ele></trkpt>
      <trkpt lat="35.690768" lon="128.510539"><ele>465.9</ele></trkpt>
      <trkpt lat="35.690339" lon="128.511583"><ele>482.6</ele></trkpt>
      <trkpt lat="35.690135" lon="128.511926"><ele>485.3</ele></trkpt>
      <trkpt lat="35.690043" lon="128.512257"><ele>490.1</ele></trkpt>
      <trkpt lat="35.689849" lon="128.512588"><ele>495.6</ele></trkpt>
      <trkpt lat="35.689708" lon="128.513173"><ele>509.4</ele></trkpt>
      <trkpt lat="35.689558" lon="128.513455"><ele>513.3</ele></trkpt>
      <trkpt lat="35.689561" lon="128.513616"><ele>513.9</ele></trkpt>
      <trkpt lat="35.689443" lon="128.513827"><ele>514.6</ele></trkpt>
      <trkpt lat="35.689406" lon="128.514303"><ele>524.2</ele></trkpt>
      <trkpt lat="35.689558" lon="128.514611"><ele>533.4</ele></trkpt>
      <trkpt lat="35.689492" lon="128.515115"><ele>539.5</ele></trkpt>
      <trkpt lat="35.689508" lon="128.515354"><ele>543.5</ele></trkpt>
      <trkpt lat="35.689641" lon="128.515728"><ele>549.9</ele></trkpt>
      <trkpt lat="35.689640" lon="128.515977"><ele>552.6</ele></trkpt>
      <trkpt lat="35.689785" lon="128.516748"><ele>563.4</ele></trkpt>
      <trkpt lat="35.689965" lon="128.517188"><ele>573.1</ele></trkpt>
      <trkpt lat="35.690176" lon="128.518177"><ele>585.6</ele></trkpt>
      <trkpt lat="35.690125" lon="128.518487"><ele>587.2</ele></trkpt>
      <trkpt lat="35.690154" lon="128.518739"><ele>589.3</ele></trkpt>
      <trkpt lat="35.690273" lon="128.518918"><ele>591.1</ele></trkpt>
      <trkpt lat="35.690456" lon="128.518982"><ele>596.5</ele></trkpt>
      <trkpt lat="35.690521" lon="128.519063"><ele>597.9</ele></trkpt>
      <trkpt lat="35.690550" lon="128.519328"><ele>598.5</ele></trkpt>
      <trkpt lat="35.690643" lon="128.519531"><ele>603.8</ele></trkpt>
      <trkpt lat="35.690678" lon="128.520063"><ele>612.5</ele></trkpt>
      <trkpt lat="35.690801" lon="128.520256"><ele>617.3</ele></trkpt>
      <trkpt lat="35.690844" lon="128.520532"><ele>622.0</ele></trkpt>
      <trkpt lat="35.690825" lon="128.520994"><ele>621.9</ele></trkpt>
      <trkpt lat="35.691175" lon="128.521374"><ele>633.2</ele></trkpt>
      <trkpt lat="35.691185" lon="128.521503"><ele>635.6</ele></trkpt>
      <trkpt lat="35.691002" lon="128.521895"><ele>639.5</ele></trkpt>
      <trkpt lat="35.690933" lon="128.522541"><ele>649.0</ele></trkpt>
      <trkpt lat="35.690975" lon="128.522823"><ele>655.3</ele></trkpt>
      <trkpt lat="35.691071" lon="128.522942"><ele>658.0</ele></trkpt>
      <trkpt lat="35.691075" lon="128.523305"><ele>664.1</ele></trkpt>
      <trkpt lat="35.691300" lon="128.524117"><ele>681.1</ele></trkpt>
      <trkpt lat="35.691275" lon="128.524216"><ele>681.9</ele></trkpt>
      <trkpt lat="35.691463" lon="128.524692"><ele>693.2</ele></trkpt>
      <trkpt lat="35.691414" lon="128.525442"><ele>705.1</ele></trkpt>
      <trkpt lat="35.691564" lon="128.525792"><ele>714.5</ele></trkpt>
      <trkpt lat="35.691743" lon="128.526032"><ele>722.4</ele></trkpt>
      <trkpt lat="35.691845" lon="128.526312"><ele>729.3</ele></trkpt>
      <trkpt lat="35.691882" lon="128.526527"><ele>733.7</ele></trkpt>
      <trkpt lat="35.691845" lon="128.526589"><ele>734.4</ele></trkpt>
      <trkpt lat="35.691891" lon="128.526738"><ele>738.6</ele></trkpt>
      <trkpt lat="35.692039" lon="128.526928"><ele>747.8</ele></trkpt>
      <trkpt lat="35.692325" lon="128.527093"><ele>761.4</ele></trkpt>
      <trkpt lat="35.692493" lon="128.527414"><ele>774.0</ele></trkpt>
      <trkpt lat="35.692464" lon="128.527507"><ele>775.5</ele></trkpt>
      <trkpt lat="35.692486" lon="128.527714"><ele>781.9</ele></trkpt>
      <trkpt lat="35.692745" lon="128.528117"><ele>800.8</ele></trkpt>
      <trkpt lat="35.692716" lon="128.528266"><ele>804.3</ele></trkpt>
      <trkpt lat="35.692642" lon="128.528291"><ele>802.9</ele></trkpt>
      <trkpt lat="35.692620" lon="128.528431"><ele>806.2</ele></trkpt>
      <trkpt lat="35.692751" lon="128.528840"><ele>822.2</ele></trkpt>
      <trkpt lat="35.692995" lon="128.528926"><ele>832.7</ele></trkpt>
      <trkpt lat="35.693316" lon="128.529307"><ele>853.2</ele></trkpt>
      <trkpt lat="35.693539" lon="128.529354"><ele>861.6</ele></trkpt>
      <trkpt lat="35.693667" lon="128.529574"><ele>871.4</ele></trkpt>
      <trkpt lat="35.693775" lon="128.529637"><ele>876.9</ele></trkpt>
      <trkpt lat="35.693939" lon="128.530076"><ele>889.6</ele></trkpt>
      <trkpt lat="35.694628" lon="128.530667"><ele>931.9</ele></trkpt>
      <trkpt lat="35.694725" lon="128.530846"><ele>941.4</ele></trkpt>
      <trkpt lat="35.694708" lon="128.530910"><ele>942.2</ele></trkpt>
      <trkpt lat="35.694765" lon="128.531034"><ele>946.6</ele></trkpt>
      <trkpt lat="35.694953" lon="128.531163"><ele>954.8</ele></trkpt>
      <trkpt lat="35.695118" lon="128.531400"><ele>965.1</ele></trkpt>
      <trkpt lat="35.695224" lon="128.531735"><ele>975.2</ele></trkpt>
      <trkpt lat="35.695462" lon="128.531863"><ele>983.6</ele></trkpt>
      <trkpt lat="35.695803" lon="128.531899"><ele>995.6</ele></trkpt>
      <trkpt lat="35.695847" lon="128.532010"><ele>997.8</ele></trkpt>
      <trkpt lat="35.695900" lon="128.531864"><ele>998.1</ele></trkpt>
      <trkpt lat="35.695885" lon="128.531753"><ele>996.9</ele></trkpt>
      <trkpt lat="35.695985" lon="128.531523"><ele>997.6</ele></trkpt>
      <trkpt lat="35.695982" lon="128.531104"><ele>994.7</ele></trkpt>
      <trkpt lat="35.696062" lon="128.531056"><ele>996.8</ele></trkpt>
      <trkpt lat="35.696128" lon="128.531130"><ele>999.4</ele></trkpt>
      <trkpt lat="35.696176" lon="128.531085"><ele>1000.1</ele></trkpt>
      <trkpt lat="35.696308" lon="128.531250"><ele>1003.0</ele></trkpt>
      <trkpt lat="35.696396" lon="128.531200"><ele>1004.7</ele></trkpt>
      <trkpt lat="35.696514" lon="128.530933"><ele>1004.0</ele></trkpt>
      <trkpt lat="35.696757" lon="128.531287"><ele>1002.8</ele></trkpt>
      <trkpt lat="35.697002" lon="128.531531"><ele>998.2</ele></trkpt>
      <trkpt lat="35.697176" lon="128.531848"><ele>992.7</ele></trkpt>
      <trkpt lat="35.697661" lon="128.532221"><ele>983.4</ele></trkpt>
      <trkpt lat="35.697974" lon="128.532220"><ele>978.8</ele></trkpt>
      <trkpt lat="35.698156" lon="128.532315"><ele>973.4</ele></trkpt>
      <trkpt lat="35.698603" lon="128.532282"><ele>968.2</ele></trkpt>
      <trkpt lat="35.699099" lon="128.532379"><ele>963.0</ele></trkpt>
      <trkpt lat="35.699456" lon="128.532223"><ele>959.9</ele></trkpt>
      <trkpt lat="35.700102" lon="128.532364"><ele>952.7</ele></trkpt>
      <trkpt lat="35.700275" lon="128.532298"><ele>949.8</ele></trkpt>
      <trkpt lat="35.700529" lon="128.532399"><ele>943.7</ele></trkpt>
      <trkpt lat="35.700822" lon="128.532397"><ele>942.5</ele></trkpt>
      <trkpt lat="35.701053" lon="128.532235"><ele>946.4</ele></trkpt>
      <trkpt lat="35.701189" lon="128.532250"><ele>947.7</ele></trkpt>
      <trkpt lat="35.701237" lon="128.532161"><ele>948.5</ele></trkpt>
      <trkpt lat="35.701321" lon="128.532126"><ele>949.4</ele></trkpt>
      <trkpt lat="35.701755" lon="128.532195"><ele>955.2</ele></trkpt>
      <trkpt lat="35.701909" lon="128.532416"><ele>955.3</ele></trkpt>
      <trkpt lat="35.702079" lon="128.532388"><ele>956.0</ele></trkpt>
      <trkpt lat="35.702235" lon="128.532453"><ele>956.7</ele></trkpt>
      <trkpt lat="35.702430" lon="128.532455"><ele>957.9</ele></trkpt>
      <trkpt lat="35.703568" lon="128.533050"><ele>965.9</ele></trkpt>
      <trkpt lat="35.704127" lon="128.533082"><ele>971.9</ele></trkpt>
      <trkpt lat="35.704746" lon="128.533023"><ele>958.6</ele></trkpt>
      <trkpt lat="35.705526" lon="128.532374"><ele>932.4</ele></trkpt>
      <trkpt lat="35.705942" lon="128.532127"><ele>918.0</ele></trkpt>
      <trkpt lat="35.706982" lon="128.531244"><ele>898.4</ele></trkpt>
      <trkpt lat="35.708118" lon="128.530764"><ele>889.3</ele></trkpt>
      <trkpt lat="35.708264" lon="128.530472"><ele>890.6</ele></trkpt>
      <trkpt lat="35.708391" lon="128.530389"><ele>893.5</ele></trkpt>
      <trkpt lat="35.708809" lon="128.530233"><ele>905.6</ele></trkpt>
      <trkpt lat="35.709136" lon="128.530031"><ele>917.5</ele></trkpt>
      <trkpt lat="35.709385" lon="128.530011"><ele>926.7</ele></trkpt>
      <trkpt lat="35.709605" lon="128.529825"><ele>928.8</ele></trkpt>
      <trkpt lat="35.709889" lon="128.529932"><ele>939.4</ele></trkpt>
      <trkpt lat="35.710302" lon="128.529738"><ele>945.9</ele></trkpt>
      <trkpt lat="35.710594" lon="128.529871"><ele>955.8</ele></trkpt>
      <trkpt lat="35.711041" lon="128.529544"><ele>962.7</ele></trkpt>
      <trkpt lat="35.711347" lon="128.529264"><ele>970.3</ele></trkpt>
      <trkpt lat="35.711508" lon="128.529041"><ele>972.3</ele></trkpt>
      <trkpt lat="35.711672" lon="128.528920"><ele>974.1</ele></trkpt>
      <trkpt lat="35.711927" lon="128.528847"><ele>975.8</ele></trkpt>
      <trkpt lat="35.712125" lon="128.528690"><ele>978.1</ele></trkpt>
      <trkpt lat="35.712428" lon="128.528318"><ele>988.6</ele></trkpt>
      <trkpt lat="35.712499" lon="128.528023"><ele>994.0</ele></trkpt>
      <trkpt lat="35.712694" lon="128.527967"><ele>999.6</ele></trkpt>
      <trkpt lat="35.712791" lon="128.527740"><ele>1004.8</ele></trkpt>
      <trkpt lat="35.713092" lon="128.527561"><ele>1016.8</ele></trkpt>
      <trkpt lat="35.713253" lon="128.527351"><ele>1024.0</ele></trkpt>
      <trkpt lat="35.713400" lon="128.527306"><ele>1027.3</ele></trkpt>
      <trkpt lat="35.713475" lon="128.527139"><ele>1030.0</ele></trkpt>
      <trkpt lat="35.713896" lon="128.526640"><ele>1039.4</ele></trkpt>
      <trkpt lat="35.714345" lon="128.525754"><ele>1048.0</ele></trkpt>
      <trkpt lat="35.714485" lon="128.525688"><ele>1049.0</ele></trkpt>
      <trkpt lat="35.714896" lon="128.525296"><ele>1059.4</ele></trkpt>
      <trkpt lat="35.714933" lon="128.525138"><ele>1063.2</ele></trkpt>
      <trkpt lat="35.715352" lon="128.524384"><ele>1073.6</ele></trkpt>
      <trkpt lat="35.715410" lon="128.524228"><ele>1074.3</ele></trkpt>
      <trkpt lat="35.715411" lon="128.524043"><ele>1073.5</ele></trkpt>
      <trkpt lat="35.715478" lon="128.523904"><ele>1073.7</ele></trkpt>
      <trkpt lat="35.715563" lon="128.523856"><ele>1074.4</ele></trkpt>
      <trkpt lat="35.715626" lon="128.523526"><ele>1066.6</ele></trkpt>
      <trkpt lat="35.715728" lon="128.523576"><ele>1068.9</ele></trkpt>
      <trkpt lat="35.716027" lon="128.523561"><ele>1065.5</ele></trkpt>
      <trkpt lat="35.716743" lon="128.523828"><ele>1051.2</ele></trkpt>
      <trkpt lat="35.717443" lon="128.523683"><ele>1037.0</ele></trkpt>
      <trkpt lat="35.718143" lon="128.523292"><ele>1039.7</ele></trkpt>
      <trkpt lat="35.718384" lon="128.523258"><ele>1042.2</ele></trkpt>
    </trkseg>
  </trk>
</gpx>
