<?xml version="1.0" encoding="UTF-8"?>
<gpx version="1.1" creator="kr-100-mountains route-harvester"
     xmlns="http://www.topografix.com/GPX/1/1"
     xmlns:k100="https://github.com/jay-jang/kr-100-mountains/ns/1"
     xmlns:xsi="http://www.w3.org/2001/XMLSchema-instance"
     xsi:schemaLocation="http://www.topografix.com/GPX/1/1 http://www.topografix.com/GPX/1/1/gpx.xsd">
  <metadata>
    <name>비슬산 · 대견사-천왕봉 능선 코스 (대안 2) (OSM 계산 경로)</name>
    <desc>실제 GPS 기록이 아닙니다. OpenStreetMap에 등록된 등산로 선형 위에서 계산한 경로이며, 현장 통제·훼손·출입 제한·계절 통제를 반영하지 않을 수 있습니다. 산행 전 공식 안내를 확인하세요.</desc>
    <time>2026-08-04T05:41:01.304Z</time>
    <link href="https://www.openstreetmap.org/copyright"><text>© OpenStreetMap contributors (ODbL 1.0)</text></link>
    <link href="https://registry.opendata.aws/terrain-tiles/"><text>Elevation: SRTM 1 arc-second (NASA/USGS) via AWS Terrain Tiles</text></link>
    <extensions>
      <k100:provenance>osm-routed</k100:provenance>
      <k100:not_a_recorded_track>true</k100:not_a_recorded_track>
      <k100:mountain_id>biseulsan</k100:mountain_id>
      <k100:mountain_name>비슬산</k100:mountain_name>
      <k100:route_id>biseulsan-996ead33</k100:route_id>
      <k100:route_index>2</k100:route_index>
      <k100:route_name>대견사-천왕봉 능선 코스</k100:route_name>
      <k100:variant>2</k100:variant>
      <k100:source>OpenStreetMap via Overpass API</k100:source>
      <k100:license>ODbL-1.0</k100:license>
      <k100:attribution>© OpenStreetMap contributors</k100:attribution>
      <k100:elevation_source>SRTM 1 arc-second (NASA/USGS) — AWS Terrain Tiles 배포본. 지형 DEM 추정 고도이며 실측 아님</k100:elevation_source>
      <k100:algorithm>dijkstra-grid-v1</k100:algorithm>
      <k100:osm_snapshot>2026-08-04</k100:osm_snapshot>
      <k100:snap_trailhead_m>115</k100:snap_trailhead_m>
      <k100:snap_summit_m>32</k100:snap_summit_m>
      <k100:validation_score>93</k100:validation_score>
      <k100:validation_status>accepted</k100:validation_status>
    </extensions>
  </metadata>
  <trk>
    <name>비슬산 · 대견사-천왕봉 능선 코스 (대안 2) (OSM 계산 경로)</name>
    <desc>실제 GPS 기록이 아닙니다. OpenStreetMap에 등록된 등산로 선형 위에서 계산한 경로이며, 현장 통제·훼손·출입 제한·계절 통제를 반영하지 않을 수 있습니다. 산행 전 공식 안내를 확인하세요.</desc>
    <trkseg>
      <trkpt lat="35.687671" lon="128.513968"><ele>568.8</ele></trkpt>
      <trkpt lat="35.687810" lon="128.513769"><ele>561.8</ele></trkpt>
      <trkpt lat="35.687971" lon="128.513265"><ele>563.5</ele></trkpt>
      <trkpt lat="35.688280" lon="128.513056"><ele>555.7</ele></trkpt>
      <trkpt lat="35.688346" lon="128.512863"><ele>554.6</ele></trkpt>
      <trkpt lat="35.688351" lon="128.512678"><ele>554.9</ele></trkpt>
      <trkpt lat="35.688128" lon="128.512631"><ele>563.0</ele></trkpt>
      <trkpt lat="35.687899" lon="128.512345"><ele>575.0</ele></trkpt>
      <trkpt lat="35.687832" lon="128.511830"><ele>583.9</ele></trkpt>
      <trkpt lat="35.687911" lon="128.511496"><ele>585.3</ele></trkpt>
      <trkpt lat="35.687845" lon="128.511173"><ele>593.8</ele></trkpt>
      <trkpt lat="35.687788" lon="128.511090"><ele>597.0</ele></trkpt>
      <trkpt lat="35.687794" lon="128.510712"><ele>599.9</ele></trkpt>
      <trkpt lat="35.686938" lon="128.511181"><ele>635.3</ele></trkpt>
      <trkpt lat="35.686159" lon="128.511952"><ele>665.0</ele></trkpt>
      <trkpt lat="35.685760" lon="128.512249"><ele>687.0</ele></trkpt>
      <trkpt lat="35.685592" lon="128.512462"><ele>701.7</ele></trkpt>
      <trkpt lat="35.685400" lon="128.512571"><ele>716.5</ele></trkpt>
      <trkpt lat="35.685252" lon="128.512510"><ele>725.7</ele></trkpt>
      <trkpt lat="35.685126" lon="128.512600"><ele>728.8</ele></trkpt>
      <trkpt lat="35.685024" lon="128.512545"><ele>732.0</ele></trkpt>
      <trkpt lat="35.684212" lon="128.512583"><ele>754.0</ele></trkpt>
      <trkpt lat="35.683783" lon="128.512953"><ele>764.4</ele></trkpt>
      <trkpt lat="35.683630" lon="128.513226"><ele>772.2</ele></trkpt>
      <trkpt lat="35.683240" lon="128.513475"><ele>789.9</ele></trkpt>
      <trkpt lat="35.682910" lon="128.513603"><ele>797.0</ele></trkpt>
      <trkpt lat="35.682531" lon="128.513542"><ele>798.8</ele></trkpt>
      <trkpt lat="35.681126" lon="128.514015"><ele>821.5</ele></trkpt>
      <trkpt lat="35.680736" lon="128.514525"><ele>840.4</ele></trkpt>
      <trkpt lat="35.680307" lon="128.514676"><ele>853.5</ele></trkpt>
      <trkpt lat="35.679711" lon="128.515229"><ele>877.6</ele></trkpt>
      <trkpt lat="35.679094" lon="128.515654"><ele>903.2</ele></trkpt>
      <trkpt lat="35.678868" lon="128.515933"><ele>918.2</ele></trkpt>
      <trkpt lat="35.678606" lon="128.516127"><ele>929.2</ele></trkpt>
      <trkpt lat="35.678350" lon="128.516485"><ele>939.7</ele></trkpt>
      <trkpt lat="35.677760" lon="128.517528"><ele>966.4</ele></trkpt>
      <trkpt lat="35.677942" lon="128.517552"><ele>961.8</ele></trkpt>
      <trkpt lat="35.678304" lon="128.517840"><ele>946.8</ele></trkpt>
      <trkpt lat="35.678836" lon="128.518119"><ele>931.7</ele></trkpt>
      <trkpt lat="35.679201" lon="128.518486"><ele>923.4</ele></trkpt>
      <trkpt lat="35.679512" lon="128.518933"><ele>915.3</ele></trkpt>
      <trkpt lat="35.679694" lon="128.519048"><ele>913.2</ele></trkpt>
      <trkpt lat="35.679763" lon="128.519248"><ele>912.1</ele></trkpt>
      <trkpt lat="35.679731" lon="128.520134"><ele>896.9</ele></trkpt>
      <trkpt lat="35.679790" lon="128.520468"><ele>892.4</ele></trkpt>
      <trkpt lat="35.680172" lon="128.520829"><ele>889.7</ele></trkpt>
      <trkpt lat="35.680394" lon="128.521142"><ele>894.2</ele></trkpt>
      <trkpt lat="35.680562" lon="128.521864"><ele>910.0</ele></trkpt>
      <trkpt lat="35.680655" lon="128.522091"><ele>910.4</ele></trkpt>
      <trkpt lat="35.681101" lon="128.522532"><ele>923.9</ele></trkpt>
      <trkpt lat="35.681584" lon="128.523123"><ele>926.7</ele></trkpt>
      <trkpt lat="35.681784" lon="128.524061"><ele>902.8</ele></trkpt>
      <trkpt lat="35.681964" lon="128.524631"><ele>892.3</ele></trkpt>
      <trkpt lat="35.682218" lon="128.525071"><ele>887.0</ele></trkpt>
      <trkpt lat="35.682204" lon="128.525201"><ele>885.0</ele></trkpt>
      <trkpt lat="35.682293" lon="128.525322"><ele>882.9</ele></trkpt>
      <trkpt lat="35.682381" lon="128.525709"><ele>878.6</ele></trkpt>
      <trkpt lat="35.682355" lon="128.526212"><ele>875.5</ele></trkpt>
      <trkpt lat="35.682411" lon="128.526440"><ele>875.6</ele></trkpt>
      <trkpt lat="35.682477" lon="128.526622"><ele>878.8</ele></trkpt>
      <trkpt lat="35.682581" lon="128.526710"><ele>881.2</ele></trkpt>
      <trkpt lat="35.682618" lon="128.526856"><ele>883.1</ele></trkpt>
      <trkpt lat="35.682923" lon="128.527070"><ele>889.2</ele></trkpt>
      <trkpt lat="35.683030" lon="128.527480"><ele>894.3</ele></trkpt>
      <trkpt lat="35.683022" lon="128.527670"><ele>893.8</ele></trkpt>
      <trkpt lat="35.683140" lon="128.527900"><ele>894.4</ele></trkpt>
      <trkpt lat="35.683252" lon="128.528463"><ele>901.0</ele></trkpt>
      <trkpt lat="35.683558" lon="128.528853"><ele>913.7</ele></trkpt>
      <trkpt lat="35.683438" lon="128.529557"><ele>922.8</ele></trkpt>
      <trkpt lat="35.683311" lon="128.529741"><ele>926.7</ele></trkpt>
      <trkpt lat="35.683356" lon="128.529925"><ele>930.3</ele></trkpt>
      <trkpt lat="35.683242" lon="128.530338"><ele>935.9</ele></trkpt>
      <trkpt lat="35.683259" lon="128.530539"><ele>940.3</ele></trkpt>
      <trkpt lat="35.683178" lon="128.530667"><ele>940.2</ele></trkpt>
      <trkpt lat="35.683248" lon="128.530745"><ele>942.0</ele></trkpt>
      <trkpt lat="35.683228" lon="128.530858"><ele>942.8</ele></trkpt>
      <trkpt lat="35.683368" lon="128.531096"><ele>948.5</ele></trkpt>
      <trkpt lat="35.683435" lon="128.531740"><ele>961.6</ele></trkpt>
      <trkpt lat="35.683608" lon="128.531775"><ele>961.6</ele></trkpt>
      <trkpt lat="35.683677" lon="128.531845"><ele>959.5</ele></trkpt>
      <trkpt lat="35.683782" lon="128.531837"><ele>956.7</ele></trkpt>
      <trkpt lat="35.684013" lon="128.531657"><ele>951.7</ele></trkpt>
      <trkpt lat="35.684391" lon="128.531775"><ele>937.2</ele></trkpt>
      <trkpt lat="35.684544" lon="128.531649"><ele>932.5</ele></trkpt>
      <trkpt lat="35.685289" lon="128.531386"><ele>923.0</ele></trkpt>
      <trkpt lat="35.685447" lon="128.531417"><ele>922.9</ele></trkpt>
      <trkpt lat="35.686198" lon="128.531369"><ele>931.2</ele></trkpt>
      <trkpt lat="35.686487" lon="128.531223"><ele>933.6</ele></trkpt>
      <trkpt lat="35.686817" lon="128.531289"><ele>939.0</ele></trkpt>
      <trkpt lat="35.687108" lon="128.531423"><ele>945.1</ele></trkpt>
      <trkpt lat="35.687609" lon="128.531314"><ele>951.3</ele></trkpt>
      <trkpt lat="35.688490" lon="128.531760"><ele>953.3</ele></trkpt>
      <trkpt lat="35.688819" lon="128.532030"><ele>948.2</ele></trkpt>
      <trkpt lat="35.688935" lon="128.532203"><ele>945.6</ele></trkpt>
      <trkpt lat="35.689159" lon="128.532379"><ele>942.4</ele></trkpt>
      <trkpt lat="35.689346" lon="128.532409"><ele>944.7</ele></trkpt>
      <trkpt lat="35.689386" lon="128.532498"><ele>945.9</ele></trkpt>
      <trkpt lat="35.689647" lon="128.532442"><ele>947.7</ele></trkpt>
      <trkpt lat="35.689764" lon="128.532498"><ele>948.7</ele></trkpt>
      <trkpt lat="35.690002" lon="128.532758"><ele>948.9</ele></trkpt>
      <trkpt lat="35.690231" lon="128.532788"><ele>948.9</ele></trkpt>
      <trkpt lat="35.690834" lon="128.533047"><ele>961.9</ele></trkpt>
      <trkpt lat="35.691002" lon="128.532971"><ele>966.4</ele></trkpt>
      <trkpt lat="35.691154" lon="128.532993"><ele>970.6</ele></trkpt>
      <trkpt lat="35.691581" lon="128.533392"><ele>980.8</ele></trkpt>
      <trkpt lat="35.691705" lon="128.533648"><ele>984.9</ele></trkpt>
      <trkpt lat="35.692051" lon="128.533712"><ele>988.6</ele></trkpt>
      <trkpt lat="35.692128" lon="128.533843"><ele>990.2</ele></trkpt>
      <trkpt lat="35.692370" lon="128.534008"><ele>991.1</ele></trkpt>
      <trkpt lat="35.692526" lon="128.533983"><ele>992.9</ele></trkpt>
      <trkpt lat="35.692684" lon="128.534050"><ele>995.6</ele></trkpt>
      <trkpt lat="35.693054" lon="128.534004"><ele>1002.7</ele></trkpt>
      <trkpt lat="35.693200" lon="128.534156"><ele>1010.7</ele></trkpt>
      <trkpt lat="35.693220" lon="128.534267"><ele>1012.3</ele></trkpt>
      <trkpt lat="35.693399" lon="128.534432"><ele>1020.6</ele></trkpt>
      <trkpt lat="35.693629" lon="128.534441"><ele>1027.1</ele></trkpt>
      <trkpt lat="35.693820" lon="128.534607"><ele>1029.5</ele></trkpt>
      <trkpt lat="35.693930" lon="128.534844"><ele>1030.9</ele></trkpt>
      <trkpt lat="35.693894" lon="128.534999"><ele>1029.1</ele></trkpt>
      <trkpt lat="35.693959" lon="128.535139"><ele>1032.4</ele></trkpt>
      <trkpt lat="35.694317" lon="128.534944"><ele>1035.7</ele></trkpt>
      <trkpt lat="35.694851" lon="128.534251"><ele>1026.2</ele></trkpt>
      <trkpt lat="35.695298" lon="128.533881"><ele>1012.9</ele></trkpt>
      <trkpt lat="35.695469" lon="128.533535"><ele>1006.5</ele></trkpt>
      <trkpt lat="35.695631" lon="128.532930"><ele>1002.8</ele></trkpt>
      <trkpt lat="35.695656" lon="128.532688"><ele>1002.4</ele></trkpt>
      <trkpt lat="35.695840" lon="128.532604"><ele>1000.2</ele></trkpt>
      <trkpt lat="35.695923" lon="128.532352"><ele>999.7</ele></trkpt>
      <trkpt lat="35.696101" lon="128.532056"><ele>1003.0</ele></trkpt>
      <trkpt lat="35.696349" lon="128.531913"><ele>1004.6</ele></trkpt>
      <trkpt lat="35.696454" lon="128.531440"><ele>1003.8</ele></trkpt>
      <trkpt lat="35.696396" lon="128.531200"><ele>1004.7</ele></trkpt>
      <trkpt lat="35.696495" lon="128.530912"><ele>1003.8</ele></trkpt>
      <trkpt lat="35.696463" lon="128.530701"><ele>1002.7</ele></trkpt>
      <trkpt lat="35.696501" lon="128.530479"><ele>1002.2</ele></trkpt>
      <trkpt lat="35.696616" lon="128.530145"><ele>1003.6</ele></trkpt>
      <trkpt lat="35.696742" lon="128.529953"><ele>1002.2</ele></trkpt>
      <trkpt lat="35.697168" lon="128.529986"><ele>993.1</ele></trkpt>
      <trkpt lat="35.697511" lon="128.529795"><ele>985.1</ele></trkpt>
      <trkpt lat="35.697627" lon="128.529669"><ele>983.1</ele></trkpt>
      <trkpt lat="35.697976" lon="128.529774"><ele>978.1</ele></trkpt>
      <trkpt lat="35.698051" lon="128.529994"><ele>976.1</ele></trkpt>
      <trkpt lat="35.698189" lon="128.530073"><ele>973.3</ele></trkpt>
      <trkpt lat="35.698257" lon="128.530016"><ele>972.3</ele></trkpt>
      <trkpt lat="35.698395" lon="128.530085"><ele>969.5</ele></trkpt>
      <trkpt lat="35.698562" lon="128.530033"><ele>967.5</ele></trkpt>
      <trkpt lat="35.698683" lon="128.530053"><ele>964.9</ele></trkpt>
      <trkpt lat="35.698898" lon="128.529885"><ele>959.8</ele></trkpt>
      <trkpt lat="35.699129" lon="128.529892"><ele>954.3</ele></trkpt>
      <trkpt lat="35.699248" lon="128.529994"><ele>951.6</ele></trkpt>
      <trkpt lat="35.699667" lon="128.529947"><ele>943.4</ele></trkpt>
      <trkpt lat="35.699744" lon="128.529879"><ele>941.7</ele></trkpt>
      <trkpt lat="35.699942" lon="128.529969"><ele>935.6</ele></trkpt>
      <trkpt lat="35.700215" lon="128.529889"><ele>928.5</ele></trkpt>
      <trkpt lat="35.700369" lon="128.529936"><ele>925.4</ele></trkpt>
      <trkpt lat="35.700534" lon="128.530178"><ele>923.1</ele></trkpt>
      <trkpt lat="35.700802" lon="128.530360"><ele>920.3</ele></trkpt>
      <trkpt lat="35.700860" lon="128.530696"><ele>924.4</ele></trkpt>
      <trkpt lat="35.701028" lon="128.531203"><ele>932.5</ele></trkpt>
      <trkpt lat="35.701043" lon="128.531382"><ele>936.4</ele></trkpt>
      <trkpt lat="35.700981" lon="128.531760"><ele>941.9</ele></trkpt>
      <trkpt lat="35.700816" lon="128.532043"><ele>943.7</ele></trkpt>
      <trkpt lat="35.700863" lon="128.532357"><ele>943.3</ele></trkpt>
      <trkpt lat="35.701053" lon="128.532235"><ele>946.4</ele></trkpt>
      <trkpt lat="35.701189" lon="128.532250"><ele>947.7</ele></trkpt>
      <trkpt lat="35.701237" lon="128.532161"><ele>948.5</ele></trkpt>
      <trkpt lat="35.701321" lon="128.532126"><ele>949.4</ele></trkpt>
      <trkpt lat="35.701755" lon="128.532195"><ele>955.2</ele></trkpt>
      <trkpt lat="35.701909" lon="128.532416"><ele>955.3</ele></trkpt>
      <trkpt lat="35.702079" lon="128.532388"><ele>956.0</ele></trkpt>
      <trkpt lat="35.702235" lon="128.532453"><ele>956.7</ele></trkpt>
      <trkpt lat="35.702430" lon="128.532455"><ele>957.9</ele></trkpt>
      <trkpt lat="35.703633" lon="128.533052"><ele>967.2</ele></trkpt>
      <trkpt lat="35.703871" lon="128.533402"><ele>978.9</ele></trkpt>
      <trkpt lat="35.704301" lon="128.533631"><ele>981.3</ele></trkpt>
      <trkpt lat="35.704601" lon="128.533171"><ele>966.6</ele></trkpt>
      <trkpt lat="35.704746" lon="128.533023"><ele>958.6</ele></trkpt>
      <trkpt lat="35.705526" lon="128.532374"><ele>932.4</ele></trkpt>
      <trkpt lat="35.705942" lon="128.532127"><ele>918.0</ele></trkpt>
      <trkpt lat="35.706814" lon="128.531373"><ele>901.7</ele></trkpt>
      <trkpt lat="35.706982" lon="128.531244"><ele>898.4</ele></trkpt>
      <trkpt lat="35.708118" lon="128.530764"><ele>889.3</ele></trkpt>
      <trkpt lat="35.708264" lon="128.530472"><ele>890.6</ele></trkpt>
      <trkpt lat="35.708580" lon="128.530342"><ele>898.0</ele></trkpt>
      <trkpt lat="35.708540" lon="128.530193"><ele>898.4</ele></trkpt>
      <trkpt lat="35.708298" lon="128.529780"><ele>881.6</ele></trkpt>
      <trkpt lat="35.708237" lon="128.529469"><ele>872.7</ele></trkpt>
      <trkpt lat="35.708067" lon="128.529230"><ele>861.6</ele></trkpt>
      <trkpt lat="35.708185" lon="128.528624"><ele>851.9</ele></trkpt>
      <trkpt lat="35.708129" lon="128.527867"><ele>832.5</ele></trkpt>
      <trkpt lat="35.708490" lon="128.525464"><ele>780.9</ele></trkpt>
      <trkpt lat="35.708773" lon="128.524541"><ele>766.9</ele></trkpt>
      <trkpt lat="35.708962" lon="128.524097"><ele>763.4</ele></trkpt>
      <trkpt lat="35.709231" lon="128.524403"><ele>773.7</ele></trkpt>
      <trkpt lat="35.709778" lon="128.524678"><ele>793.5</ele></trkpt>
      <trkpt lat="35.710006" lon="128.524893"><ele>807.9</ele></trkpt>
      <trkpt lat="35.710152" lon="128.524968"><ele>814.9</ele></trkpt>
      <trkpt lat="35.710269" lon="128.524962"><ele>819.0</ele></trkpt>
      <trkpt lat="35.710694" lon="128.525342"><ele>843.6</ele></trkpt>
      <trkpt lat="35.710909" lon="128.525464"><ele>855.9</ele></trkpt>
      <trkpt lat="35.711040" lon="128.525479"><ele>862.9</ele></trkpt>
      <trkpt lat="35.711106" lon="128.525581"><ele>867.6</ele></trkpt>
      <trkpt lat="35.711208" lon="128.525633"><ele>874.2</ele></trkpt>
      <trkpt lat="35.711241" lon="128.525765"><ele>879.0</ele></trkpt>
      <trkpt lat="35.711315" lon="128.525806"><ele>882.8</ele></trkpt>
      <trkpt lat="35.711312" lon="128.525917"><ele>886.0</ele></trkpt>
      <trkpt lat="35.711363" lon="128.526012"><ele>891.3</ele></trkpt>
      <trkpt lat="35.711535" lon="128.526058"><ele>902.3</ele></trkpt>
      <trkpt lat="35.711787" lon="128.525994"><ele>914.2</ele></trkpt>
      <trkpt lat="35.712067" lon="128.525779"><ele>927.0</ele></trkpt>
      <trkpt lat="35.712240" lon="128.525772"><ele>937.1</ele></trkpt>
      <trkpt lat="35.712427" lon="128.525633"><ele>950.0</ele></trkpt>
      <trkpt lat="35.712519" lon="128.525641"><ele>956.7</ele></trkpt>
      <trkpt lat="35.712564" lon="128.525587"><ele>959.6</ele></trkpt>
      <trkpt lat="35.712566" lon="128.525392"><ele>960.4</ele></trkpt>
      <trkpt lat="35.712921" lon="128.525084"><ele>981.6</ele></trkpt>
      <trkpt lat="35.712963" lon="128.524953"><ele>985.5</ele></trkpt>
      <trkpt lat="35.713071" lon="128.524844"><ele>993.0</ele></trkpt>
      <trkpt lat="35.713154" lon="128.524818"><ele>996.8</ele></trkpt>
      <trkpt lat="35.713188" lon="128.524767"><ele>999.3</ele></trkpt>
      <trkpt lat="35.713165" lon="128.524726"><ele>999.2</ele></trkpt>
      <trkpt lat="35.713243" lon="128.524682"><ele>1003.7</ele></trkpt>
      <trkpt lat="35.713429" lon="128.524410"><ele>1016.7</ele></trkpt>
      <trkpt lat="35.713124" lon="128.523793"><ele>1018.4</ele></trkpt>
      <trkpt lat="35.713241" lon="128.523750"><ele>1022.2</ele></trkpt>
      <trkpt lat="35.713425" lon="128.523837"><ele>1028.9</ele></trkpt>
      <trkpt lat="35.713888" lon="128.523840"><ele>1040.4</ele></trkpt>
      <trkpt lat="35.714499" lon="128.524152"><ele>1051.7</ele></trkpt>
      <trkpt lat="35.714757" lon="128.524182"><ele>1060.0</ele></trkpt>
      <trkpt lat="35.714839" lon="128.524137"><ele>1061.6</ele></trkpt>
      <trkpt lat="35.714915" lon="128.524198"><ele>1064.1</ele></trkpt>
      <trkpt lat="35.715032" lon="128.524135"><ele>1066.5</ele></trkpt>
      <trkpt lat="35.715125" lon="128.524160"><ele>1069.1</ele></trkpt>
      <trkpt lat="35.715226" lon="128.524056"><ele>1070.5</ele></trkpt>
      <trkpt lat="35.715610" lon="128.523451"><ele>1063.4</ele></trkpt>
      <trkpt lat="35.715626" lon="128.523526"><ele>1066.6</ele></trkpt>
      <trkpt lat="35.715728" lon="128.523576"><ele>1068.9</ele></trkpt>
      <trkpt lat="35.716027" lon="128.523561"><ele>1065.5</ele></trkpt>
      <trkpt lat="35.716743" lon="128.523828"><ele>1051.2</ele></trkpt>
      <trkpt lat="35.717443" lon="128.523683"><ele>1037.0</ele></trkpt>
      <trkpt lat="35.718143" lon="128.523292"><ele>1039.7</ele></trkpt>
      <trkpt lat="35.718384" lon="128.523258"><ele>1042.2</ele></trkpt>
    </trkseg>
  </trk>
</gpx>
