<?xml version="1.0" encoding="UTF-8"?>
<gpx version="1.1" creator="kr-100-mountains route-harvester"
     xmlns="http://www.topografix.com/GPX/1/1"
     xmlns:k100="https://github.com/jay-jang/kr-100-mountains/ns/1"
     xmlns:xsi="http://www.w3.org/2001/XMLSchema-instance"
     xsi:schemaLocation="http://www.topografix.com/GPX/1/1 http://www.topografix.com/GPX/1/1/gpx.xsd">
  <metadata>
    <name>화악산 · 관청리-중봉 코스 (대안 2) (OSM 계산 경로)</name>
    <desc>실제 GPS 기록이 아닙니다. OpenStreetMap에 등록된 등산로 선형 위에서 계산한 경로이며, 현장 통제·훼손·출입 제한·계절 통제를 반영하지 않을 수 있습니다. 산행 전 공식 안내를 확인하세요.</desc>
    <time>2026-08-04T05:13:28.085Z</time>
    <link href="https://www.openstreetmap.org/copyright"><text>© OpenStreetMap contributors (ODbL 1.0)</text></link>
    <link href="https://registry.opendata.aws/terrain-tiles/"><text>Elevation: SRTM 1 arc-second (NASA/USGS) via AWS Terrain Tiles</text></link>
    <extensions>
      <k100:provenance>osm-routed</k100:provenance>
      <k100:not_a_recorded_track>true</k100:not_a_recorded_track>
      <k100:mountain_id>hwaaksan-gapyeong</k100:mountain_id>
      <k100:mountain_name>화악산(가평)</k100:mountain_name>
      <k100:route_id>hwaaksan-gapyeong-466ae91b</k100:route_id>
      <k100:route_index>1</k100:route_index>
      <k100:route_name>관청리-중봉 코스</k100:route_name>
      <k100:variant>2</k100:variant>
      <k100:source>OpenStreetMap via Overpass API</k100:source>
      <k100:license>ODbL-1.0</k100:license>
      <k100:attribution>© OpenStreetMap contributors</k100:attribution>
      <k100:elevation_source>SRTM 1 arc-second (NASA/USGS) — AWS Terrain Tiles 배포본. 지형 DEM 추정 고도이며 실측 아님</k100:elevation_source>
      <k100:algorithm>dijkstra-grid-v1</k100:algorithm>
      <k100:osm_snapshot>2026-08-04</k100:osm_snapshot>
      <k100:snap_trailhead_m>32</k100:snap_trailhead_m>
      <k100:snap_summit_m>104</k100:snap_summit_m>
      <k100:validation_score>64</k100:validation_score>
      <k100:validation_status>review</k100:validation_status>
    </extensions>
  </metadata>
  <trk>
    <name>화악산 · 관청리-중봉 코스 (대안 2) (OSM 계산 경로)</name>
    <desc>실제 GPS 기록이 아닙니다. OpenStreetMap에 등록된 등산로 선형 위에서 계산한 경로이며, 현장 통제·훼손·출입 제한·계절 통제를 반영하지 않을 수 있습니다. 산행 전 공식 안내를 확인하세요.</desc>
    <trkseg>
      <trkpt lat="37.942073" lon="127.538356"><ele>229.6</ele></trkpt>
      <trkpt lat="37.943290" lon="127.538430"><ele>236.5</ele></trkpt>
      <trkpt lat="37.944010" lon="127.538350"><ele>238.8</ele></trkpt>
      <trkpt lat="37.944520" lon="127.538200"><ele>238.5</ele></trkpt>
      <trkpt lat="37.945170" lon="127.537800"><ele>242.2</ele></trkpt>
      <trkpt lat="37.947324" lon="127.535431"><ele>250.4</ele></trkpt>
      <trkpt lat="37.947681" lon="127.535292"><ele>248.7</ele></trkpt>
      <trkpt lat="37.949800" lon="127.534898"><ele>253.9</ele></trkpt>
      <trkpt lat="37.949791" lon="127.534785"><ele>251.9</ele></trkpt>
      <trkpt lat="37.950026" lon="127.534807"><ele>251.8</ele></trkpt>
      <trkpt lat="37.950221" lon="127.535463"><ele>260.1</ele></trkpt>
      <trkpt lat="37.950374" lon="127.536375"><ele>273.3</ele></trkpt>
      <trkpt lat="37.950412" lon="127.536469"><ele>275.3</ele></trkpt>
      <trkpt lat="37.950896" lon="127.536737"><ele>276.2</ele></trkpt>
      <trkpt lat="37.951055" lon="127.537236"><ele>283.4</ele></trkpt>
      <trkpt lat="37.951177" lon="127.537947"><ele>293.8</ele></trkpt>
      <trkpt lat="37.951400" lon="127.538642"><ele>303.6</ele></trkpt>
      <trkpt lat="37.951471" lon="127.538725"><ele>304.9</ele></trkpt>
      <trkpt lat="37.951681" lon="127.538816"><ele>305.0</ele></trkpt>
      <trkpt lat="37.951949" lon="127.539076"><ele>311.2</ele></trkpt>
      <trkpt lat="37.952025" lon="127.539272"><ele>316.4</ele></trkpt>
      <trkpt lat="37.952110" lon="127.539991"><ele>324.9</ele></trkpt>
      <trkpt lat="37.952231" lon="127.540315"><ele>330.9</ele></trkpt>
      <trkpt lat="37.952603" lon="127.540739"><ele>338.5</ele></trkpt>
      <trkpt lat="37.952772" lon="127.541013"><ele>344.5</ele></trkpt>
      <trkpt lat="37.952971" lon="127.541742"><ele>356.4</ele></trkpt>
      <trkpt lat="37.953563" lon="127.542134"><ele>371.3</ele></trkpt>
      <trkpt lat="37.953736" lon="127.542762"><ele>382.5</ele></trkpt>
      <trkpt lat="37.954050" lon="127.543223"><ele>391.0</ele></trkpt>
      <trkpt lat="37.954282" lon="127.543341"><ele>395.9</ele></trkpt>
      <trkpt lat="37.954375" lon="127.543271"><ele>398.8</ele></trkpt>
      <trkpt lat="37.954350" lon="127.542815"><ele>401.9</ele></trkpt>
      <trkpt lat="37.954570" lon="127.542638"><ele>412.7</ele></trkpt>
      <trkpt lat="37.954963" lon="127.542585"><ele>431.9</ele></trkpt>
      <trkpt lat="37.955767" lon="127.542724"><ele>461.9</ele></trkpt>
      <trkpt lat="37.956257" lon="127.542391"><ele>479.7</ele></trkpt>
      <trkpt lat="37.956659" lon="127.542424"><ele>487.5</ele></trkpt>
      <trkpt lat="37.956887" lon="127.542371"><ele>495.5</ele></trkpt>
      <trkpt lat="37.956998" lon="127.542442"><ele>497.6</ele></trkpt>
      <trkpt lat="37.957238" lon="127.542473"><ele>506.2</ele></trkpt>
      <trkpt lat="37.957201" lon="127.542354"><ele>508.8</ele></trkpt>
      <trkpt lat="37.957260" lon="127.542204"><ele>515.3</ele></trkpt>
      <trkpt lat="37.957400" lon="127.542198"><ele>519.0</ele></trkpt>
      <trkpt lat="37.957920" lon="127.541442"><ele>558.5</ele></trkpt>
      <trkpt lat="37.958127" lon="127.541243"><ele>571.0</ele></trkpt>
      <trkpt lat="37.958508" lon="127.541147"><ele>594.0</ele></trkpt>
      <trkpt lat="37.958816" lon="127.541141"><ele>608.3</ele></trkpt>
      <trkpt lat="37.959658" lon="127.540455"><ele>638.7</ele></trkpt>
      <trkpt lat="37.960090" lon="127.539972"><ele>668.8</ele></trkpt>
      <trkpt lat="37.960233" lon="127.539988"><ele>671.2</ele></trkpt>
      <trkpt lat="37.960762" lon="127.540369"><ele>671.9</ele></trkpt>
      <trkpt lat="37.961050" lon="127.540664"><ele>677.6</ele></trkpt>
      <trkpt lat="37.961697" lon="127.541034"><ele>676.3</ele></trkpt>
      <trkpt lat="37.962669" lon="127.542080"><ele>699.7</ele></trkpt>
      <trkpt lat="37.963071" lon="127.542316"><ele>725.6</ele></trkpt>
      <trkpt lat="37.963613" lon="127.542370"><ele>756.5</ele></trkpt>
      <trkpt lat="37.964141" lon="127.542499"><ele>777.2</ele></trkpt>
      <trkpt lat="37.964492" lon="127.542499"><ele>796.2</ele></trkpt>
      <trkpt lat="37.965034" lon="127.542745"><ele>830.5</ele></trkpt>
      <trkpt lat="37.965296" lon="127.542703"><ele>843.4</ele></trkpt>
      <trkpt lat="37.966548" lon="127.543738"><ele>922.9</ele></trkpt>
      <trkpt lat="37.967821" lon="127.544285"><ele>979.8</ele></trkpt>
      <trkpt lat="37.968100" lon="127.544140"><ele>982.8</ele></trkpt>
      <trkpt lat="37.968882" lon="127.544076"><ele>982.6</ele></trkpt>
      <trkpt lat="37.969728" lon="127.544387"><ele>985.2</ele></trkpt>
      <trkpt lat="37.970028" lon="127.544317"><ele>994.2</ele></trkpt>
      <trkpt lat="37.970502" lon="127.544392"><ele>1009.5</ele></trkpt>
      <trkpt lat="37.970866" lon="127.544320"><ele>1026.0</ele></trkpt>
      <trkpt lat="37.971276" lon="127.544339"><ele>1036.1</ele></trkpt>
      <trkpt lat="37.972093" lon="127.544666"><ele>1058.5</ele></trkpt>
      <trkpt lat="37.972553" lon="127.544585"><ele>1075.7</ele></trkpt>
      <trkpt lat="37.972984" lon="127.544671"><ele>1084.4</ele></trkpt>
      <trkpt lat="37.973289" lon="127.544532"><ele>1086.7</ele></trkpt>
      <trkpt lat="37.973475" lon="127.544575"><ele>1086.1</ele></trkpt>
      <trkpt lat="37.974185" lon="127.544543"><ele>1080.6</ele></trkpt>
      <trkpt lat="37.974929" lon="127.544918"><ele>1088.7</ele></trkpt>
      <trkpt lat="37.975225" lon="127.544843"><ele>1093.4</ele></trkpt>
      <trkpt lat="37.975484" lon="127.544870"><ele>1097.4</ele></trkpt>
      <trkpt lat="37.976249" lon="127.545326"><ele>1099.3</ele></trkpt>
      <trkpt lat="37.976761" lon="127.545792"><ele>1093.7</ele></trkpt>
      <trkpt lat="37.977044" lon="127.546366"><ele>1088.0</ele></trkpt>
      <trkpt lat="37.977966" lon="127.547112"><ele>1118.2</ele></trkpt>
      <trkpt lat="37.978105" lon="127.547332"><ele>1129.1</ele></trkpt>
      <trkpt lat="37.978137" lon="127.547493"><ele>1136.0</ele></trkpt>
      <trkpt lat="37.978270" lon="127.547751"><ele>1142.5</ele></trkpt>
      <trkpt lat="37.978510" lon="127.548038"><ele>1148.9</ele></trkpt>
      <trkpt lat="37.978960" lon="127.547638"><ele>1137.3</ele></trkpt>
      <trkpt lat="37.979479" lon="127.547305"><ele>1126.7</ele></trkpt>
      <trkpt lat="37.980055" lon="127.547069"><ele>1118.8</ele></trkpt>
      <trkpt lat="37.980452" lon="127.546753"><ele>1120.8</ele></trkpt>
      <trkpt lat="37.980791" lon="127.546661"><ele>1123.7</ele></trkpt>
      <trkpt lat="37.981440" lon="127.546766"><ele>1119.4</ele></trkpt>
      <trkpt lat="37.982233" lon="127.546071"><ele>1116.7</ele></trkpt>
      <trkpt lat="37.983179" lon="127.545986"><ele>1108.7</ele></trkpt>
      <trkpt lat="37.983435" lon="127.545862"><ele>1114.9</ele></trkpt>
      <trkpt lat="37.983710" lon="127.545822"><ele>1122.4</ele></trkpt>
      <trkpt lat="37.983972" lon="127.545961"><ele>1123.4</ele></trkpt>
      <trkpt lat="37.984420" lon="127.545951"><ele>1127.9</ele></trkpt>
      <trkpt lat="37.984879" lon="127.546114"><ele>1141.6</ele></trkpt>
      <trkpt lat="37.985331" lon="127.546002"><ele>1136.6</ele></trkpt>
      <trkpt lat="37.985788" lon="127.545594"><ele>1134.8</ele></trkpt>
      <trkpt lat="37.986841" lon="127.544505"><ele>1138.6</ele></trkpt>
      <trkpt lat="37.987729" lon="127.544280"><ele>1121.4</ele></trkpt>
      <trkpt lat="37.988575" lon="127.543518"><ele>1136.7</ele></trkpt>
      <trkpt lat="37.989931" lon="127.543266"><ele>1154.8</ele></trkpt>
      <trkpt lat="37.990545" lon="127.543486"><ele>1170.3</ele></trkpt>
      <trkpt lat="37.990887" lon="127.543491"><ele>1178.3</ele></trkpt>
      <trkpt lat="37.991216" lon="127.543421"><ele>1186.4</ele></trkpt>
      <trkpt lat="37.991758" lon="127.543502"><ele>1207.5</ele></trkpt>
      <trkpt lat="37.992307" lon="127.543217"><ele>1210.4</ele></trkpt>
      <trkpt lat="37.992654" lon="127.542799"><ele>1210.0</ele></trkpt>
      <trkpt lat="37.993267" lon="127.542547"><ele>1210.4</ele></trkpt>
      <trkpt lat="37.994127" lon="127.542416"><ele>1216.2</ele></trkpt>
      <trkpt lat="37.995328" lon="127.542670"><ele>1252.1</ele></trkpt>
      <trkpt lat="37.995829" lon="127.542606"><ele>1274.3</ele></trkpt>
      <trkpt lat="37.997101" lon="127.541828"><ele>1312.3</ele></trkpt>
      <trkpt lat="37.997532" lon="127.541699"><ele>1331.2</ele></trkpt>
      <trkpt lat="37.998137" lon="127.541233"><ele>1354.8</ele></trkpt>
      <trkpt lat="37.998301" lon="127.540881"><ele>1367.8</ele></trkpt>
      <trkpt lat="37.998350" lon="127.540492"><ele>1369.5</ele></trkpt>
      <trkpt lat="37.998765" lon="127.539609"><ele>1353.8</ele></trkpt>
      <trkpt lat="37.998967" lon="127.539303"><ele>1350.0</ele></trkpt>
      <trkpt lat="37.999244" lon="127.539074"><ele>1355.5</ele></trkpt>
      <trkpt lat="37.999428" lon="127.538847"><ele>1356.9</ele></trkpt>
      <trkpt lat="37.999585" lon="127.538489"><ele>1356.7</ele></trkpt>
      <trkpt lat="37.999632" lon="127.538192"><ele>1352.9</ele></trkpt>
      <trkpt lat="37.999832" lon="127.537590"><ele>1344.8</ele></trkpt>
      <trkpt lat="38.000027" lon="127.537265"><ele>1344.9</ele></trkpt>
      <trkpt lat="38.000065" lon="127.536673"><ele>1334.4</ele></trkpt>
      <trkpt lat="38.000138" lon="127.536300"><ele>1326.1</ele></trkpt>
      <trkpt lat="38.000401" lon="127.535694"><ele>1308.8</ele></trkpt>
      <trkpt lat="38.001262" lon="127.535464"><ele>1299.3</ele></trkpt>
      <trkpt lat="38.001556" lon="127.535548"><ele>1297.0</ele></trkpt>
      <trkpt lat="38.001648" lon="127.535514"><ele>1293.1</ele></trkpt>
      <trkpt lat="38.001650" lon="127.535343"><ele>1287.1</ele></trkpt>
      <trkpt lat="38.001483" lon="127.535035"><ele>1279.0</ele></trkpt>
      <trkpt lat="38.001219" lon="127.535006"><ele>1273.3</ele></trkpt>
      <trkpt lat="38.001077" lon="127.535122"><ele>1277.6</ele></trkpt>
      <trkpt lat="38.000948" lon="127.535147"><ele>1282.1</ele></trkpt>
      <trkpt lat="38.000898" lon="127.535072"><ele>1277.5</ele></trkpt>
      <trkpt lat="38.000971" lon="127.534948"><ele>1268.6</ele></trkpt>
      <trkpt lat="38.001613" lon="127.534395"><ele>1259.0</ele></trkpt>
      <trkpt lat="38.001622" lon="127.534294"><ele>1256.9</ele></trkpt>
      <trkpt lat="38.001548" lon="127.534148"><ele>1254.2</ele></trkpt>
      <trkpt lat="38.001417" lon="127.534151"><ele>1255.2</ele></trkpt>
      <trkpt lat="38.001179" lon="127.534338"><ele>1251.3</ele></trkpt>
      <trkpt lat="38.001007" lon="127.534310"><ele>1245.3</ele></trkpt>
      <trkpt lat="38.001037" lon="127.534180"><ele>1242.0</ele></trkpt>
      <trkpt lat="38.001704" lon="127.533202"><ele>1223.9</ele></trkpt>
      <trkpt lat="38.001936" lon="127.532425"><ele>1215.5</ele></trkpt>
      <trkpt lat="38.002137" lon="127.532105"><ele>1211.1</ele></trkpt>
      <trkpt lat="38.002383" lon="127.531826"><ele>1210.5</ele></trkpt>
      <trkpt lat="38.002478" lon="127.531586"><ele>1207.9</ele></trkpt>
      <trkpt lat="38.002430" lon="127.531386"><ele>1205.1</ele></trkpt>
      <trkpt lat="38.002294" lon="127.531355"><ele>1204.6</ele></trkpt>
      <trkpt lat="38.001646" lon="127.532035"><ele>1200.7</ele></trkpt>
      <trkpt lat="38.001519" lon="127.532118"><ele>1199.1</ele></trkpt>
      <trkpt lat="38.001433" lon="127.532084"><ele>1195.8</ele></trkpt>
      <trkpt lat="38.001433" lon="127.531986"><ele>1193.3</ele></trkpt>
      <trkpt lat="38.001733" lon="127.531524"><ele>1194.0</ele></trkpt>
      <trkpt lat="38.001855" lon="127.530989"><ele>1184.7</ele></trkpt>
      <trkpt lat="38.002005" lon="127.530645"><ele>1179.5</ele></trkpt>
      <trkpt lat="38.001977" lon="127.530468"><ele>1176.1</ele></trkpt>
      <trkpt lat="38.001818" lon="127.530523"><ele>1173.7</ele></trkpt>
      <trkpt lat="38.001619" lon="127.531184"><ele>1181.7</ele></trkpt>
      <trkpt lat="38.001519" lon="127.531354"><ele>1181.1</ele></trkpt>
      <trkpt lat="38.001379" lon="127.531417"><ele>1175.3</ele></trkpt>
      <trkpt lat="38.001321" lon="127.531357"><ele>1171.3</ele></trkpt>
      <trkpt lat="38.001326" lon="127.531247"><ele>1168.9</ele></trkpt>
      <trkpt lat="38.001460" lon="127.530907"><ele>1167.0</ele></trkpt>
      <trkpt lat="38.001678" lon="127.529725"><ele>1150.1</ele></trkpt>
      <trkpt lat="38.001673" lon="127.529589"><ele>1145.7</ele></trkpt>
      <trkpt lat="38.001569" lon="127.529454"><ele>1137.5</ele></trkpt>
      <trkpt lat="38.001342" lon="127.529856"><ele>1140.4</ele></trkpt>
      <trkpt lat="38.000977" lon="127.530080"><ele>1129.4</ele></trkpt>
      <trkpt lat="38.000864" lon="127.530423"><ele>1127.8</ele></trkpt>
      <trkpt lat="38.000785" lon="127.530482"><ele>1124.9</ele></trkpt>
      <trkpt lat="38.000725" lon="127.530463"><ele>1122.0</ele></trkpt>
      <trkpt lat="38.000665" lon="127.530284"><ele>1115.6</ele></trkpt>
      <trkpt lat="38.000743" lon="127.529753"><ele>1109.0</ele></trkpt>
      <trkpt lat="38.000936" lon="127.529243"><ele>1106.5</ele></trkpt>
      <trkpt lat="38.001054" lon="127.528738"><ele>1093.5</ele></trkpt>
      <trkpt lat="38.001087" lon="127.528315"><ele>1082.4</ele></trkpt>
      <trkpt lat="38.001022" lon="127.528047"><ele>1073.6</ele></trkpt>
      <trkpt lat="38.001077" lon="127.527788"><ele>1067.9</ele></trkpt>
      <trkpt lat="38.001278" lon="127.527476"><ele>1062.2</ele></trkpt>
      <trkpt lat="38.001511" lon="127.527743"><ele>1066.9</ele></trkpt>
      <trkpt lat="38.001619" lon="127.527746"><ele>1064.8</ele></trkpt>
      <trkpt lat="38.001647" lon="127.527667"><ele>1061.5</ele></trkpt>
      <trkpt lat="38.001385" lon="127.526929"><ele>1049.5</ele></trkpt>
      <trkpt lat="38.001294" lon="127.526425"><ele>1037.0</ele></trkpt>
      <trkpt lat="38.001398" lon="127.526373"><ele>1040.2</ele></trkpt>
      <trkpt lat="38.001556" lon="127.525959"><ele>1043.7</ele></trkpt>
      <trkpt lat="38.001574" lon="127.525354"><ele>1045.5</ele></trkpt>
      <trkpt lat="38.001511" lon="127.524952"><ele>1052.1</ele></trkpt>
      <trkpt lat="38.001614" lon="127.524780"><ele>1055.3</ele></trkpt>
      <trkpt lat="38.001650" lon="127.524555"><ele>1059.8</ele></trkpt>
      <trkpt lat="38.001451" lon="127.523841"><ele>1076.6</ele></trkpt>
      <trkpt lat="38.001388" lon="127.522956"><ele>1101.5</ele></trkpt>
      <trkpt lat="38.001328" lon="127.522661"><ele>1107.6</ele></trkpt>
      <trkpt lat="38.001367" lon="127.522492"><ele>1112.6</ele></trkpt>
      <trkpt lat="38.001337" lon="127.522138"><ele>1119.1</ele></trkpt>
      <trkpt lat="38.000983" lon="127.521379"><ele>1153.1</ele></trkpt>
      <trkpt lat="38.001005" lon="127.520953"><ele>1161.9</ele></trkpt>
      <trkpt lat="38.001117" lon="127.520663"><ele>1174.6</ele></trkpt>
      <trkpt lat="38.001121" lon="127.520065"><ele>1185.7</ele></trkpt>
      <trkpt lat="38.000976" lon="127.519491"><ele>1189.2</ele></trkpt>
      <trkpt lat="38.000916" lon="127.518901"><ele>1195.0</ele></trkpt>
      <trkpt lat="38.000830" lon="127.518632"><ele>1197.6</ele></trkpt>
      <trkpt lat="38.000690" lon="127.517812"><ele>1205.6</ele></trkpt>
      <trkpt lat="38.000692" lon="127.517415"><ele>1206.5</ele></trkpt>
      <trkpt lat="38.000639" lon="127.517093"><ele>1206.2</ele></trkpt>
      <trkpt lat="38.000527" lon="127.516755"><ele>1209.8</ele></trkpt>
      <trkpt lat="38.000648" lon="127.516127"><ele>1232.2</ele></trkpt>
      <trkpt lat="38.000674" lon="127.515172"><ele>1255.5</ele></trkpt>
      <trkpt lat="38.000542" lon="127.514518"><ele>1261.8</ele></trkpt>
      <trkpt lat="38.000534" lon="127.514078"><ele>1259.9</ele></trkpt>
      <trkpt lat="38.000451" lon="127.513894"><ele>1257.2</ele></trkpt>
      <trkpt lat="38.000441" lon="127.513745"><ele>1255.3</ele></trkpt>
      <trkpt lat="38.000538" lon="127.513413"><ele>1255.4</ele></trkpt>
      <trkpt lat="38.000265" lon="127.512580"><ele>1251.8</ele></trkpt>
      <trkpt lat="38.000270" lon="127.512370"><ele>1253.5</ele></trkpt>
      <trkpt lat="38.000453" lon="127.511905"><ele>1262.0</ele></trkpt>
      <trkpt lat="38.000462" lon="127.511589"><ele>1267.6</ele></trkpt>
      <trkpt lat="38.000542" lon="127.511412"><ele>1272.3</ele></trkpt>
      <trkpt lat="38.000477" lon="127.510666"><ele>1291.9</ele></trkpt>
      <trkpt lat="38.000585" lon="127.510417"><ele>1299.5</ele></trkpt>
      <trkpt lat="38.000709" lon="127.510288"><ele>1305.2</ele></trkpt>
      <trkpt lat="38.000946" lon="127.509416"><ele>1327.7</ele></trkpt>
      <trkpt lat="38.001276" lon="127.508909"><ele>1344.0</ele></trkpt>
      <trkpt lat="38.001056" lon="127.508542"><ele>1347.3</ele></trkpt>
      <trkpt lat="38.000811" lon="127.508317"><ele>1351.4</ele></trkpt>
      <trkpt lat="38.000699" lon="127.508097"><ele>1349.6</ele></trkpt>
      <trkpt lat="38.000227" lon="127.507769"><ele>1355.3</ele></trkpt>
      <trkpt lat="38.000062" lon="127.507501"><ele>1362.4</ele></trkpt>
      <trkpt lat="37.999849" lon="127.506927"><ele>1380.4</ele></trkpt>
      <trkpt lat="37.999600" lon="127.506528"><ele>1394.6</ele></trkpt>
      <trkpt lat="37.999561" lon="127.506208"><ele>1396.2</ele></trkpt>
      <trkpt lat="37.999219" lon="127.505769"><ele>1396.5</ele></trkpt>
      <trkpt lat="37.999058" lon="127.505476"><ele>1398.9</ele></trkpt>
      <trkpt lat="37.998832" lon="127.505284"><ele>1399.9</ele></trkpt>
      <trkpt lat="37.998197" lon="127.504443"><ele>1418.0</ele></trkpt>
      <trkpt lat="37.997862" lon="127.504309"><ele>1426.0</ele></trkpt>
      <trkpt lat="37.997749" lon="127.504127"><ele>1429.8</ele></trkpt>
      <trkpt lat="37.997482" lon="127.504261"><ele>1428.3</ele></trkpt>
      <trkpt lat="37.997253" lon="127.504191"><ele>1429.7</ele></trkpt>
      <trkpt lat="37.996968" lon="127.504237"><ele>1436.3</ele></trkpt>
      <trkpt lat="37.996763" lon="127.504320"><ele>1440.7</ele></trkpt>
      <trkpt lat="37.996494" lon="127.504551"><ele>1436.9</ele></trkpt>
      <trkpt lat="37.996408" lon="127.504572"><ele>1435.6</ele></trkpt>
      <trkpt lat="37.996237" lon="127.504545"><ele>1438.0</ele></trkpt>
      <trkpt lat="37.996063" lon="127.504425"><ele>1443.2</ele></trkpt>
      <trkpt lat="37.995723" lon="127.504371"><ele>1449.3</ele></trkpt>
      <trkpt lat="37.995562" lon="127.504465"><ele>1450.1</ele></trkpt>
      <trkpt lat="37.995258" lon="127.504894"><ele>1440.4</ele></trkpt>
      <trkpt lat="37.995123" lon="127.505007"><ele>1436.6</ele></trkpt>
      <trkpt lat="37.994964" lon="127.505050"><ele>1433.7</ele></trkpt>
      <trkpt lat="37.994721" lon="127.504612"><ele>1441.7</ele></trkpt>
      <trkpt lat="37.994582" lon="127.504159"><ele>1442.6</ele></trkpt>
      <trkpt lat="37.994324" lon="127.503896"><ele>1433.2</ele></trkpt>
    </trkseg>
  </trk>
</gpx>
