<?xml version="1.0" encoding="UTF-8"?>
<gpx version="1.1" creator="kr-100-mountains route-harvester"
     xmlns="http://www.topografix.com/GPX/1/1"
     xmlns:k100="https://github.com/jay-jang/kr-100-mountains/ns/1"
     xmlns:xsi="http://www.w3.org/2001/XMLSchema-instance"
     xsi:schemaLocation="http://www.topografix.com/GPX/1/1 http://www.topografix.com/GPX/1/1/gpx.xsd">
  <metadata>
    <name>화악산 · 관청리-중봉 코스 (대안 1) (OSM 계산 경로)</name>
    <desc>실제 GPS 기록이 아닙니다. OpenStreetMap에 등록된 등산로 선형 위에서 계산한 경로이며, 현장 통제·훼손·출입 제한·계절 통제를 반영하지 않을 수 있습니다. 산행 전 공식 안내를 확인하세요.</desc>
    <time>2026-08-04T05:13:27.965Z</time>
    <link href="https://www.openstreetmap.org/copyright"><text>© OpenStreetMap contributors (ODbL 1.0)</text></link>
    <link href="https://registry.opendata.aws/terrain-tiles/"><text>Elevation: SRTM 1 arc-second (NASA/USGS) via AWS Terrain Tiles</text></link>
    <extensions>
      <k100:provenance>osm-routed</k100:provenance>
      <k100:not_a_recorded_track>true</k100:not_a_recorded_track>
      <k100:mountain_id>hwaaksan-gapyeong</k100:mountain_id>
      <k100:mountain_name>화악산(가평)</k100:mountain_name>
      <k100:route_id>hwaaksan-gapyeong-466ae91b</k100:route_id>
      <k100:route_index>1</k100:route_index>
      <k100:route_name>관청리-중봉 코스</k100:route_name>
      <k100:variant>1</k100:variant>
      <k100:source>OpenStreetMap via Overpass API</k100:source>
      <k100:license>ODbL-1.0</k100:license>
      <k100:attribution>© OpenStreetMap contributors</k100:attribution>
      <k100:elevation_source>SRTM 1 arc-second (NASA/USGS) — AWS Terrain Tiles 배포본. 지형 DEM 추정 고도이며 실측 아님</k100:elevation_source>
      <k100:algorithm>dijkstra-grid-v1</k100:algorithm>
      <k100:osm_snapshot>2026-08-04</k100:osm_snapshot>
      <k100:snap_trailhead_m>32</k100:snap_trailhead_m>
      <k100:snap_summit_m>104</k100:snap_summit_m>
      <k100:validation_score>64</k100:validation_score>
      <k100:validation_status>review</k100:validation_status>
    </extensions>
  </metadata>
  <trk>
    <name>화악산 · 관청리-중봉 코스 (대안 1) (OSM 계산 경로)</name>
    <desc>실제 GPS 기록이 아닙니다. OpenStreetMap에 등록된 등산로 선형 위에서 계산한 경로이며, 현장 통제·훼손·출입 제한·계절 통제를 반영하지 않을 수 있습니다. 산행 전 공식 안내를 확인하세요.</desc>
    <trkseg>
      <trkpt lat="37.942073" lon="127.538356"><ele>229.6</ele></trkpt>
      <trkpt lat="37.941232" lon="127.538253"><ele>225.3</ele></trkpt>
      <trkpt lat="37.940720" lon="127.538280"><ele>228.5</ele></trkpt>
      <trkpt lat="37.939820" lon="127.538610"><ele>227.0</ele></trkpt>
      <trkpt lat="37.939200" lon="127.539030"><ele>223.5</ele></trkpt>
      <trkpt lat="37.937568" lon="127.540753"><ele>219.7</ele></trkpt>
      <trkpt lat="37.937386" lon="127.541000"><ele>221.7</ele></trkpt>
      <trkpt lat="37.936950" lon="127.542050"><ele>213.5</ele></trkpt>
      <trkpt lat="37.936785" lon="127.542727"><ele>215.6</ele></trkpt>
      <trkpt lat="37.936798" lon="127.543188"><ele>217.0</ele></trkpt>
      <trkpt lat="37.936733" lon="127.543355"><ele>216.4</ele></trkpt>
      <trkpt lat="37.935956" lon="127.543459"><ele>213.9</ele></trkpt>
      <trkpt lat="37.935516" lon="127.543438"><ele>211.8</ele></trkpt>
      <trkpt lat="37.935128" lon="127.543266"><ele>204.5</ele></trkpt>
      <trkpt lat="37.934851" lon="127.543021"><ele>201.4</ele></trkpt>
      <trkpt lat="37.934499" lon="127.542656"><ele>203.6</ele></trkpt>
      <trkpt lat="37.934011" lon="127.541862"><ele>201.9</ele></trkpt>
      <trkpt lat="37.933467" lon="127.541396"><ele>198.9</ele></trkpt>
      <trkpt lat="37.933439" lon="127.541059"><ele>204.4</ele></trkpt>
      <trkpt lat="37.933145" lon="127.540519"><ele>212.1</ele></trkpt>
      <trkpt lat="37.933110" lon="127.540284"><ele>217.1</ele></trkpt>
      <trkpt lat="37.933197" lon="127.538274"><ele>238.3</ele></trkpt>
      <trkpt lat="37.933699" lon="127.537224"><ele>248.5</ele></trkpt>
      <trkpt lat="37.933217" lon="127.536821"><ele>283.4</ele></trkpt>
      <trkpt lat="37.932384" lon="127.536409"><ele>327.5</ele></trkpt>
      <trkpt lat="37.931687" lon="127.536452"><ele>363.9</ele></trkpt>
      <trkpt lat="37.931057" lon="127.536383"><ele>394.0</ele></trkpt>
      <trkpt lat="37.930678" lon="127.535911"><ele>415.9</ele></trkpt>
      <trkpt lat="37.930292" lon="127.535834"><ele>423.8</ele></trkpt>
      <trkpt lat="37.929900" lon="127.536160"><ele>435.3</ele></trkpt>
      <trkpt lat="37.929480" lon="127.535928"><ele>445.0</ele></trkpt>
      <trkpt lat="37.928932" lon="127.535825"><ele>464.3</ele></trkpt>
      <trkpt lat="37.928315" lon="127.535302"><ele>502.0</ele></trkpt>
      <trkpt lat="37.928024" lon="127.534649"><ele>515.9</ele></trkpt>
      <trkpt lat="37.928078" lon="127.534272"><ele>514.6</ele></trkpt>
      <trkpt lat="37.928986" lon="127.533714"><ele>494.6</ele></trkpt>
      <trkpt lat="37.929839" lon="127.532684"><ele>494.1</ele></trkpt>
      <trkpt lat="37.929554" lon="127.532100"><ele>487.8</ele></trkpt>
      <trkpt lat="37.929033" lon="127.531345"><ele>469.4</ele></trkpt>
      <trkpt lat="37.928999" lon="127.530924"><ele>468.0</ele></trkpt>
      <trkpt lat="37.929581" lon="127.529791"><ele>487.1</ele></trkpt>
      <trkpt lat="37.929378" lon="127.529362"><ele>485.7</ele></trkpt>
      <trkpt lat="37.928891" lon="127.528761"><ele>494.7</ele></trkpt>
      <trkpt lat="37.928505" lon="127.527955"><ele>517.9</ele></trkpt>
      <trkpt lat="37.928532" lon="127.527328"><ele>526.9</ele></trkpt>
      <trkpt lat="37.928417" lon="127.526444"><ele>535.4</ele></trkpt>
      <trkpt lat="37.928661" lon="127.525843"><ele>538.8</ele></trkpt>
      <trkpt lat="37.929324" lon="127.525302"><ele>536.4</ele></trkpt>
      <trkpt lat="37.929406" lon="127.524813"><ele>540.5</ele></trkpt>
      <trkpt lat="37.929277" lon="127.524238"><ele>549.7</ele></trkpt>
      <trkpt lat="37.929277" lon="127.523740"><ele>554.8</ele></trkpt>
      <trkpt lat="37.929493" lon="127.523320"><ele>564.3</ele></trkpt>
      <trkpt lat="37.930028" lon="127.522504"><ele>590.5</ele></trkpt>
      <trkpt lat="37.930143" lon="127.521449"><ele>600.4</ele></trkpt>
      <trkpt lat="37.930157" lon="127.520204"><ele>606.5</ele></trkpt>
      <trkpt lat="37.930319" lon="127.519406"><ele>618.6</ele></trkpt>
      <trkpt lat="37.930069" lon="127.518573"><ele>633.2</ele></trkpt>
      <trkpt lat="37.929859" lon="127.516067"><ele>752.6</ele></trkpt>
      <trkpt lat="37.930189" lon="127.515660"><ele>759.1</ele></trkpt>
      <trkpt lat="37.931024" lon="127.515810"><ele>750.2</ele></trkpt>
      <trkpt lat="37.931741" lon="127.515594"><ele>753.0</ele></trkpt>
      <trkpt lat="37.932901" lon="127.515542"><ele>749.4</ele></trkpt>
      <trkpt lat="37.933318" lon="127.515702"><ele>745.5</ele></trkpt>
      <trkpt lat="37.933671" lon="127.515651"><ele>740.3</ele></trkpt>
      <trkpt lat="37.933881" lon="127.515702"><ele>731.8</ele></trkpt>
      <trkpt lat="37.934213" lon="127.515510"><ele>726.5</ele></trkpt>
      <trkpt lat="37.934923" lon="127.515298"><ele>712.0</ele></trkpt>
      <trkpt lat="37.935508" lon="127.514952"><ele>707.8</ele></trkpt>
      <trkpt lat="37.936097" lon="127.514490"><ele>694.3</ele></trkpt>
      <trkpt lat="37.936648" lon="127.514338"><ele>694.6</ele></trkpt>
      <trkpt lat="37.937536" lon="127.514287"><ele>716.5</ele></trkpt>
      <trkpt lat="37.937866" lon="127.514042"><ele>719.3</ele></trkpt>
      <trkpt lat="37.938474" lon="127.514132"><ele>722.5</ele></trkpt>
      <trkpt lat="37.938736" lon="127.513574"><ele>708.8</ele></trkpt>
      <trkpt lat="37.939400" lon="127.513204"><ele>700.6</ele></trkpt>
      <trkpt lat="37.939955" lon="127.512555"><ele>682.8</ele></trkpt>
      <trkpt lat="37.940422" lon="127.512317"><ele>674.8</ele></trkpt>
      <trkpt lat="37.940900" lon="127.511711"><ele>683.7</ele></trkpt>
      <trkpt lat="37.941234" lon="127.511381"><ele>684.9</ele></trkpt>
      <trkpt lat="37.941320" lon="127.510332"><ele>668.3</ele></trkpt>
      <trkpt lat="37.941407" lon="127.509928"><ele>674.6</ele></trkpt>
      <trkpt lat="37.941828" lon="127.509553"><ele>680.5</ele></trkpt>
      <trkpt lat="37.942117" lon="127.509184"><ele>683.0</ele></trkpt>
      <trkpt lat="37.942414" lon="127.509084"><ele>670.6</ele></trkpt>
      <trkpt lat="37.943638" lon="127.509004"><ele>638.5</ele></trkpt>
      <trkpt lat="37.944639" lon="127.508044"><ele>623.7</ele></trkpt>
      <trkpt lat="37.945665" lon="127.508024"><ele>645.5</ele></trkpt>
      <trkpt lat="37.946082" lon="127.507882"><ele>664.0</ele></trkpt>
      <trkpt lat="37.946917" lon="127.508024"><ele>685.5</ele></trkpt>
      <trkpt lat="37.947553" lon="127.507728"><ele>698.2</ele></trkpt>
      <trkpt lat="37.947939" lon="127.507656"><ele>719.9</ele></trkpt>
      <trkpt lat="37.948318" lon="127.507269"><ele>743.2</ele></trkpt>
      <trkpt lat="37.948625" lon="127.506813"><ele>750.5</ele></trkpt>
      <trkpt lat="37.949181" lon="127.506659"><ele>757.7</ele></trkpt>
      <trkpt lat="37.949561" lon="127.506716"><ele>773.0</ele></trkpt>
      <trkpt lat="37.949984" lon="127.506563"><ele>789.2</ele></trkpt>
      <trkpt lat="37.950200" lon="127.506595"><ele>794.0</ele></trkpt>
      <trkpt lat="37.950330" lon="127.506544"><ele>797.4</ele></trkpt>
      <trkpt lat="37.951173" lon="127.506681"><ele>827.0</ele></trkpt>
      <trkpt lat="37.951829" lon="127.506294"><ele>843.3</ele></trkpt>
      <trkpt lat="37.952173" lon="127.506291"><ele>850.3</ele></trkpt>
      <trkpt lat="37.952680" lon="127.506493"><ele>866.0</ele></trkpt>
      <trkpt lat="37.952937" lon="127.506541"><ele>874.6</ele></trkpt>
      <trkpt lat="37.953339" lon="127.506369"><ele>882.1</ele></trkpt>
      <trkpt lat="37.953582" lon="127.506356"><ele>885.7</ele></trkpt>
      <trkpt lat="37.954039" lon="127.506050"><ele>901.3</ele></trkpt>
      <trkpt lat="37.954498" lon="127.505878"><ele>916.6</ele></trkpt>
      <trkpt lat="37.954831" lon="127.505905"><ele>917.5</ele></trkpt>
      <trkpt lat="37.955457" lon="127.506125"><ele>927.6</ele></trkpt>
      <trkpt lat="37.955906" lon="127.506391"><ele>944.1</ele></trkpt>
      <trkpt lat="37.956558" lon="127.506423"><ele>967.1</ele></trkpt>
      <trkpt lat="37.956672" lon="127.506360"><ele>970.7</ele></trkpt>
      <trkpt lat="37.956858" lon="127.506072"><ele>969.0</ele></trkpt>
      <trkpt lat="37.957085" lon="127.505848"><ele>969.5</ele></trkpt>
      <trkpt lat="37.957436" lon="127.505195"><ele>979.2</ele></trkpt>
      <trkpt lat="37.957686" lon="127.505054"><ele>984.5</ele></trkpt>
      <trkpt lat="37.958047" lon="127.505039"><ele>986.9</ele></trkpt>
      <trkpt lat="37.958186" lon="127.504964"><ele>987.9</ele></trkpt>
      <trkpt lat="37.958621" lon="127.504984"><ele>986.7</ele></trkpt>
      <trkpt lat="37.959028" lon="127.504771"><ele>980.8</ele></trkpt>
      <trkpt lat="37.959404" lon="127.504674"><ele>985.7</ele></trkpt>
      <trkpt lat="37.960209" lon="127.504609"><ele>995.7</ele></trkpt>
      <trkpt lat="37.960704" lon="127.504329"><ele>1007.5</ele></trkpt>
      <trkpt lat="37.960961" lon="127.504073"><ele>1011.6</ele></trkpt>
      <trkpt lat="37.961095" lon="127.503734"><ele>1020.3</ele></trkpt>
      <trkpt lat="37.961308" lon="127.503507"><ele>1032.9</ele></trkpt>
      <trkpt lat="37.961791" lon="127.503117"><ele>1041.9</ele></trkpt>
      <trkpt lat="37.961947" lon="127.502881"><ele>1044.4</ele></trkpt>
      <trkpt lat="37.962176" lon="127.502758"><ele>1047.8</ele></trkpt>
      <trkpt lat="37.962523" lon="127.502663"><ele>1042.8</ele></trkpt>
      <trkpt lat="37.962644" lon="127.502466"><ele>1040.7</ele></trkpt>
      <trkpt lat="37.962802" lon="127.502410"><ele>1036.9</ele></trkpt>
      <trkpt lat="37.963289" lon="127.501769"><ele>1038.6</ele></trkpt>
      <trkpt lat="37.963662" lon="127.501474"><ele>1032.9</ele></trkpt>
      <trkpt lat="37.963862" lon="127.501429"><ele>1032.4</ele></trkpt>
      <trkpt lat="37.964424" lon="127.500972"><ele>1022.4</ele></trkpt>
      <trkpt lat="37.964868" lon="127.500727"><ele>1010.6</ele></trkpt>
      <trkpt lat="37.965258" lon="127.500699"><ele>1002.4</ele></trkpt>
      <trkpt lat="37.965418" lon="127.500635"><ele>997.4</ele></trkpt>
      <trkpt lat="37.965744" lon="127.500145"><ele>982.7</ele></trkpt>
      <trkpt lat="37.966310" lon="127.499705"><ele>974.0</ele></trkpt>
      <trkpt lat="37.966455" lon="127.499648"><ele>972.5</ele></trkpt>
      <trkpt lat="37.966764" lon="127.499271"><ele>964.2</ele></trkpt>
      <trkpt lat="37.966962" lon="127.499101"><ele>960.8</ele></trkpt>
      <trkpt lat="37.967222" lon="127.498993"><ele>954.4</ele></trkpt>
      <trkpt lat="37.967532" lon="127.498702"><ele>933.5</ele></trkpt>
      <trkpt lat="37.967821" lon="127.498777"><ele>936.4</ele></trkpt>
      <trkpt lat="37.968184" lon="127.499020"><ele>930.3</ele></trkpt>
      <trkpt lat="37.969550" lon="127.499508"><ele>953.9</ele></trkpt>
      <trkpt lat="37.970351" lon="127.499549"><ele>969.8</ele></trkpt>
      <trkpt lat="37.970580" lon="127.499418"><ele>974.4</ele></trkpt>
      <trkpt lat="37.971181" lon="127.499521"><ele>984.6</ele></trkpt>
      <trkpt lat="37.971540" lon="127.499522"><ele>996.3</ele></trkpt>
      <trkpt lat="37.971934" lon="127.499298"><ele>1014.4</ele></trkpt>
      <trkpt lat="37.972264" lon="127.499333"><ele>1019.1</ele></trkpt>
      <trkpt lat="37.972466" lon="127.499185"><ele>1027.7</ele></trkpt>
      <trkpt lat="37.972739" lon="127.499262"><ele>1032.3</ele></trkpt>
      <trkpt lat="37.972883" lon="127.499237"><ele>1032.9</ele></trkpt>
      <trkpt lat="37.973039" lon="127.499130"><ele>1033.9</ele></trkpt>
      <trkpt lat="37.973380" lon="127.499047"><ele>1034.9</ele></trkpt>
      <trkpt lat="37.973933" lon="127.498692"><ele>1031.5</ele></trkpt>
      <trkpt lat="37.974178" lon="127.498658"><ele>1037.1</ele></trkpt>
      <trkpt lat="37.974605" lon="127.498484"><ele>1049.0</ele></trkpt>
      <trkpt lat="37.974770" lon="127.498253"><ele>1055.0</ele></trkpt>
      <trkpt lat="37.975228" lon="127.497888"><ele>1068.2</ele></trkpt>
      <trkpt lat="37.975595" lon="127.497738"><ele>1083.5</ele></trkpt>
      <trkpt lat="37.976010" lon="127.497875"><ele>1098.9</ele></trkpt>
      <trkpt lat="37.976235" lon="127.497730"><ele>1109.2</ele></trkpt>
      <trkpt lat="37.976514" lon="127.497454"><ele>1122.1</ele></trkpt>
      <trkpt lat="37.976917" lon="127.497257"><ele>1129.7</ele></trkpt>
      <trkpt lat="37.977210" lon="127.497384"><ele>1123.8</ele></trkpt>
      <trkpt lat="37.977386" lon="127.497399"><ele>1119.8</ele></trkpt>
      <trkpt lat="37.977814" lon="127.497297"><ele>1121.8</ele></trkpt>
      <trkpt lat="37.978237" lon="127.497062"><ele>1118.9</ele></trkpt>
      <trkpt lat="37.978538" lon="127.496979"><ele>1119.7</ele></trkpt>
      <trkpt lat="37.979050" lon="127.496906"><ele>1120.8</ele></trkpt>
      <trkpt lat="37.979594" lon="127.496924"><ele>1123.6</ele></trkpt>
      <trkpt lat="37.979774" lon="127.496836"><ele>1128.8</ele></trkpt>
      <trkpt lat="37.980042" lon="127.496802"><ele>1137.4</ele></trkpt>
      <trkpt lat="37.980541" lon="127.496933"><ele>1155.6</ele></trkpt>
      <trkpt lat="37.981481" lon="127.496892"><ele>1174.9</ele></trkpt>
      <trkpt lat="37.982098" lon="127.496562"><ele>1188.9</ele></trkpt>
      <trkpt lat="37.982430" lon="127.496494"><ele>1196.7</ele></trkpt>
      <trkpt lat="37.982703" lon="127.496277"><ele>1211.1</ele></trkpt>
      <trkpt lat="37.983049" lon="127.496432"><ele>1219.9</ele></trkpt>
      <trkpt lat="37.983200" lon="127.496401"><ele>1229.0</ele></trkpt>
      <trkpt lat="37.983391" lon="127.496452"><ele>1238.7</ele></trkpt>
      <trkpt lat="37.983592" lon="127.496310"><ele>1251.6</ele></trkpt>
      <trkpt lat="37.983802" lon="127.496332"><ele>1258.3</ele></trkpt>
      <trkpt lat="37.984027" lon="127.496194"><ele>1270.4</ele></trkpt>
      <trkpt lat="37.984186" lon="127.496165"><ele>1279.3</ele></trkpt>
      <trkpt lat="37.984438" lon="127.496251"><ele>1291.2</ele></trkpt>
      <trkpt lat="37.985151" lon="127.496205"><ele>1312.9</ele></trkpt>
      <trkpt lat="37.985294" lon="127.496228"><ele>1319.0</ele></trkpt>
      <trkpt lat="37.985445" lon="127.496362"><ele>1325.5</ele></trkpt>
      <trkpt lat="37.985540" lon="127.496357"><ele>1329.2</ele></trkpt>
      <trkpt lat="37.986061" lon="127.496670"><ele>1351.2</ele></trkpt>
      <trkpt lat="37.986239" lon="127.496666"><ele>1357.7</ele></trkpt>
      <trkpt lat="37.986566" lon="127.496507"><ele>1365.4</ele></trkpt>
      <trkpt lat="37.987225" lon="127.496477"><ele>1389.8</ele></trkpt>
      <trkpt lat="37.987398" lon="127.496555"><ele>1396.5</ele></trkpt>
      <trkpt lat="37.987764" lon="127.496279"><ele>1414.9</ele></trkpt>
      <trkpt lat="37.987883" lon="127.496333"><ele>1418.5</ele></trkpt>
      <trkpt lat="37.988083" lon="127.496559"><ele>1421.9</ele></trkpt>
      <trkpt lat="37.988249" lon="127.496969"><ele>1421.4</ele></trkpt>
      <trkpt lat="37.988437" lon="127.497199"><ele>1424.4</ele></trkpt>
      <trkpt lat="37.988411" lon="127.497299"><ele>1424.3</ele></trkpt>
      <trkpt lat="37.988461" lon="127.497369"><ele>1425.3</ele></trkpt>
      <trkpt lat="37.988865" lon="127.497726"><ele>1428.6</ele></trkpt>
      <trkpt lat="37.989019" lon="127.497734"><ele>1427.1</ele></trkpt>
      <trkpt lat="37.989277" lon="127.498091"><ele>1431.3</ele></trkpt>
      <trkpt lat="37.989316" lon="127.498177"><ele>1433.1</ele></trkpt>
      <trkpt lat="37.989294" lon="127.498296"><ele>1434.6</ele></trkpt>
      <trkpt lat="37.989385" lon="127.498384"><ele>1437.1</ele></trkpt>
      <trkpt lat="37.989519" lon="127.498682"><ele>1435.7</ele></trkpt>
      <trkpt lat="37.989395" lon="127.498857"><ele>1430.1</ele></trkpt>
      <trkpt lat="37.989351" lon="127.499072"><ele>1420.3</ele></trkpt>
      <trkpt lat="37.989225" lon="127.499310"><ele>1405.0</ele></trkpt>
      <trkpt lat="37.989306" lon="127.499617"><ele>1390.9</ele></trkpt>
      <trkpt lat="37.989198" lon="127.499664"><ele>1385.6</ele></trkpt>
      <trkpt lat="37.989044" lon="127.499648"><ele>1382.5</ele></trkpt>
      <trkpt lat="37.989070" lon="127.499987"><ele>1368.2</ele></trkpt>
      <trkpt lat="37.989206" lon="127.500189"><ele>1365.6</ele></trkpt>
      <trkpt lat="37.989369" lon="127.500293"><ele>1365.5</ele></trkpt>
      <trkpt lat="37.989444" lon="127.500210"><ele>1369.2</ele></trkpt>
      <trkpt lat="37.989976" lon="127.500063"><ele>1380.3</ele></trkpt>
      <trkpt lat="37.990569" lon="127.500130"><ele>1384.0</ele></trkpt>
      <trkpt lat="37.990958" lon="127.500041"><ele>1391.9</ele></trkpt>
      <trkpt lat="37.991064" lon="127.500061"><ele>1394.2</ele></trkpt>
      <trkpt lat="37.991861" lon="127.500557"><ele>1406.9</ele></trkpt>
      <trkpt lat="37.991993" lon="127.500830"><ele>1407.0</ele></trkpt>
      <trkpt lat="37.992465" lon="127.501249"><ele>1415.5</ele></trkpt>
      <trkpt lat="37.992916" lon="127.501772"><ele>1414.1</ele></trkpt>
      <trkpt lat="37.993637" lon="127.502888"><ele>1422.5</ele></trkpt>
      <trkpt lat="37.993924" lon="127.503159"><ele>1429.9</ele></trkpt>
      <trkpt lat="37.994019" lon="127.503309"><ele>1432.0</ele></trkpt>
      <trkpt lat="37.994144" lon="127.503738"><ele>1425.4</ele></trkpt>
      <trkpt lat="37.994324" lon="127.503896"><ele>1433.2</ele></trkpt>
    </trkseg>
  </trk>
</gpx>
