<?xml version="1.0" encoding="UTF-8"?>
<gpx version="1.1" creator="kr-100-mountains route-harvester"
     xmlns="http://www.topografix.com/GPX/1/1"
     xmlns:k100="https://github.com/jay-jang/kr-100-mountains/ns/1"
     xmlns:xsi="http://www.w3.org/2001/XMLSchema-instance"
     xsi:schemaLocation="http://www.topografix.com/GPX/1/1 http://www.topografix.com/GPX/1/1/gpx.xsd">
  <metadata>
    <name>화악산 · 화악터널-중봉 코스 (OSM 계산 경로)</name>
    <desc>실제 GPS 기록이 아닙니다. OpenStreetMap에 등록된 등산로 선형 위에서 계산한 경로이며, 현장 통제·훼손·출입 제한·계절 통제를 반영하지 않을 수 있습니다. 산행 전 공식 안내를 확인하세요.</desc>
    <time>2026-08-04T05:13:28.102Z</time>
    <link href="https://www.openstreetmap.org/copyright"><text>© OpenStreetMap contributors (ODbL 1.0)</text></link>
    <link href="https://registry.opendata.aws/terrain-tiles/"><text>Elevation: SRTM 1 arc-second (NASA/USGS) via AWS Terrain Tiles</text></link>
    <extensions>
      <k100:provenance>osm-routed</k100:provenance>
      <k100:not_a_recorded_track>true</k100:not_a_recorded_track>
      <k100:mountain_id>hwaaksan-gapyeong</k100:mountain_id>
      <k100:mountain_name>화악산(가평)</k100:mountain_name>
      <k100:route_id>hwaaksan-gapyeong-59021d99</k100:route_id>
      <k100:route_index>2</k100:route_index>
      <k100:route_name>화악터널-중봉 코스</k100:route_name>
      <k100:variant>0</k100:variant>
      <k100:source>OpenStreetMap via Overpass API</k100:source>
      <k100:license>ODbL-1.0</k100:license>
      <k100:attribution>© OpenStreetMap contributors</k100:attribution>
      <k100:elevation_source>SRTM 1 arc-second (NASA/USGS) — AWS Terrain Tiles 배포본. 지형 DEM 추정 고도이며 실측 아님</k100:elevation_source>
      <k100:algorithm>dijkstra-grid-v1</k100:algorithm>
      <k100:osm_snapshot>2026-08-04</k100:osm_snapshot>
      <k100:snap_trailhead_m>380</k100:snap_trailhead_m>
      <k100:snap_summit_m>104</k100:snap_summit_m>
      <k100:validation_score>76</k100:validation_score>
      <k100:validation_status>accepted</k100:validation_status>
    </extensions>
  </metadata>
  <trk>
    <name>화악산 · 화악터널-중봉 코스 (OSM 계산 경로)</name>
    <desc>실제 GPS 기록이 아닙니다. OpenStreetMap에 등록된 등산로 선형 위에서 계산한 경로이며, 현장 통제·훼손·출입 제한·계절 통제를 반영하지 않을 수 있습니다. 산행 전 공식 안내를 확인하세요.</desc>
    <trkseg>
      <trkpt lat="37.997572" lon="127.526431"><ele>874.5</ele></trkpt>
      <trkpt lat="37.997612" lon="127.526249"><ele>875.9</ele></trkpt>
      <trkpt lat="37.997661" lon="127.526367"><ele>876.8</ele></trkpt>
      <trkpt lat="37.997814" lon="127.526385"><ele>881.7</ele></trkpt>
      <trkpt lat="37.998046" lon="127.526533"><ele>891.1</ele></trkpt>
      <trkpt lat="37.998181" lon="127.526475"><ele>895.1</ele></trkpt>
      <trkpt lat="37.998478" lon="127.526487"><ele>907.2</ele></trkpt>
      <trkpt lat="37.998613" lon="127.526401"><ele>914.2</ele></trkpt>
      <trkpt lat="37.998738" lon="127.526471"><ele>921.1</ele></trkpt>
      <trkpt lat="37.999085" lon="127.526385"><ele>936.1</ele></trkpt>
      <trkpt lat="37.998995" lon="127.526156"><ele>934.8</ele></trkpt>
      <trkpt lat="37.999073" lon="127.525789"><ele>943.9</ele></trkpt>
      <trkpt lat="37.999024" lon="127.525485"><ele>949.3</ele></trkpt>
      <trkpt lat="37.998825" lon="127.525324"><ele>948.7</ele></trkpt>
      <trkpt lat="37.998489" lon="127.525206"><ele>940.7</ele></trkpt>
      <trkpt lat="37.998697" lon="127.524623"><ele>964.8</ele></trkpt>
      <trkpt lat="37.998731" lon="127.524386"><ele>972.2</ele></trkpt>
      <trkpt lat="37.998885" lon="127.524159"><ele>983.0</ele></trkpt>
      <trkpt lat="37.998941" lon="127.524365"><ele>982.2</ele></trkpt>
      <trkpt lat="37.999071" lon="127.524538"><ele>984.6</ele></trkpt>
      <trkpt lat="37.999188" lon="127.524469"><ele>992.4</ele></trkpt>
      <trkpt lat="37.999267" lon="127.524231"><ele>1000.0</ele></trkpt>
      <trkpt lat="37.999437" lon="127.524141"><ele>1008.3</ele></trkpt>
      <trkpt lat="37.999586" lon="127.524142"><ele>1011.2</ele></trkpt>
      <trkpt lat="37.999775" lon="127.524271"><ele>1010.8</ele></trkpt>
      <trkpt lat="38.000312" lon="127.524427"><ele>1017.0</ele></trkpt>
      <trkpt lat="38.000416" lon="127.524559"><ele>1018.0</ele></trkpt>
      <trkpt lat="38.000584" lon="127.525162"><ele>1016.8</ele></trkpt>
      <trkpt lat="38.000700" lon="127.525247"><ele>1019.5</ele></trkpt>
      <trkpt lat="38.001059" lon="127.525345"><ele>1032.3</ele></trkpt>
      <trkpt lat="38.001145" lon="127.525445"><ele>1035.0</ele></trkpt>
      <trkpt lat="38.001294" lon="127.526425"><ele>1037.0</ele></trkpt>
      <trkpt lat="38.001398" lon="127.526373"><ele>1040.2</ele></trkpt>
      <trkpt lat="38.001556" lon="127.525959"><ele>1043.7</ele></trkpt>
      <trkpt lat="38.001574" lon="127.525354"><ele>1045.5</ele></trkpt>
      <trkpt lat="38.001511" lon="127.524952"><ele>1052.1</ele></trkpt>
      <trkpt lat="38.001614" lon="127.524780"><ele>1055.3</ele></trkpt>
      <trkpt lat="38.001650" lon="127.524555"><ele>1059.8</ele></trkpt>
      <trkpt lat="38.001451" lon="127.523841"><ele>1076.6</ele></trkpt>
      <trkpt lat="38.001388" lon="127.522956"><ele>1101.5</ele></trkpt>
      <trkpt lat="38.001328" lon="127.522661"><ele>1107.6</ele></trkpt>
      <trkpt lat="38.001367" lon="127.522492"><ele>1112.6</ele></trkpt>
      <trkpt lat="38.001337" lon="127.522138"><ele>1119.1</ele></trkpt>
      <trkpt lat="38.000983" lon="127.521379"><ele>1153.1</ele></trkpt>
      <trkpt lat="38.001005" lon="127.520953"><ele>1161.9</ele></trkpt>
      <trkpt lat="38.001117" lon="127.520663"><ele>1174.6</ele></trkpt>
      <trkpt lat="38.001121" lon="127.520065"><ele>1185.7</ele></trkpt>
      <trkpt lat="38.000976" lon="127.519491"><ele>1189.2</ele></trkpt>
      <trkpt lat="38.000916" lon="127.518901"><ele>1195.0</ele></trkpt>
      <trkpt lat="38.000830" lon="127.518632"><ele>1197.6</ele></trkpt>
      <trkpt lat="38.000690" lon="127.517812"><ele>1205.6</ele></trkpt>
      <trkpt lat="38.000692" lon="127.517415"><ele>1206.5</ele></trkpt>
      <trkpt lat="38.000639" lon="127.517093"><ele>1206.2</ele></trkpt>
      <trkpt lat="38.000527" lon="127.516755"><ele>1209.8</ele></trkpt>
      <trkpt lat="38.000648" lon="127.516127"><ele>1232.2</ele></trkpt>
      <trkpt lat="38.000674" lon="127.515172"><ele>1255.5</ele></trkpt>
      <trkpt lat="38.000542" lon="127.514518"><ele>1261.8</ele></trkpt>
      <trkpt lat="38.000534" lon="127.514078"><ele>1259.9</ele></trkpt>
      <trkpt lat="38.000451" lon="127.513894"><ele>1257.2</ele></trkpt>
      <trkpt lat="38.000441" lon="127.513745"><ele>1255.3</ele></trkpt>
      <trkpt lat="38.000538" lon="127.513413"><ele>1255.4</ele></trkpt>
      <trkpt lat="38.000265" lon="127.512580"><ele>1251.8</ele></trkpt>
      <trkpt lat="38.000270" lon="127.512370"><ele>1253.5</ele></trkpt>
      <trkpt lat="38.000453" lon="127.511905"><ele>1262.0</ele></trkpt>
      <trkpt lat="38.000462" lon="127.511589"><ele>1267.6</ele></trkpt>
      <trkpt lat="38.000542" lon="127.511412"><ele>1272.3</ele></trkpt>
      <trkpt lat="38.000477" lon="127.510666"><ele>1291.9</ele></trkpt>
      <trkpt lat="38.000585" lon="127.510417"><ele>1299.5</ele></trkpt>
      <trkpt lat="38.000709" lon="127.510288"><ele>1305.2</ele></trkpt>
      <trkpt lat="38.000946" lon="127.509416"><ele>1327.7</ele></trkpt>
      <trkpt lat="38.001276" lon="127.508909"><ele>1344.0</ele></trkpt>
      <trkpt lat="38.001056" lon="127.508542"><ele>1347.3</ele></trkpt>
      <trkpt lat="38.000811" lon="127.508317"><ele>1351.4</ele></trkpt>
      <trkpt lat="38.000699" lon="127.508097"><ele>1349.6</ele></trkpt>
      <trkpt lat="38.000227" lon="127.507769"><ele>1355.3</ele></trkpt>
      <trkpt lat="38.000062" lon="127.507501"><ele>1362.4</ele></trkpt>
      <trkpt lat="37.999849" lon="127.506927"><ele>1380.4</ele></trkpt>
      <trkpt lat="37.999600" lon="127.506528"><ele>1394.6</ele></trkpt>
      <trkpt lat="37.999561" lon="127.506208"><ele>1396.2</ele></trkpt>
      <trkpt lat="37.999219" lon="127.505769"><ele>1396.5</ele></trkpt>
      <trkpt lat="37.999058" lon="127.505476"><ele>1398.9</ele></trkpt>
      <trkpt lat="37.998832" lon="127.505284"><ele>1399.9</ele></trkpt>
      <trkpt lat="37.998197" lon="127.504443"><ele>1418.0</ele></trkpt>
      <trkpt lat="37.997862" lon="127.504309"><ele>1426.0</ele></trkpt>
      <trkpt lat="37.997749" lon="127.504127"><ele>1429.8</ele></trkpt>
      <trkpt lat="37.997482" lon="127.504261"><ele>1428.3</ele></trkpt>
      <trkpt lat="37.997253" lon="127.504191"><ele>1429.7</ele></trkpt>
      <trkpt lat="37.996968" lon="127.504237"><ele>1436.3</ele></trkpt>
      <trkpt lat="37.996763" lon="127.504320"><ele>1440.7</ele></trkpt>
      <trkpt lat="37.996494" lon="127.504551"><ele>1436.9</ele></trkpt>
      <trkpt lat="37.996408" lon="127.504572"><ele>1435.6</ele></trkpt>
      <trkpt lat="37.996237" lon="127.504545"><ele>1438.0</ele></trkpt>
      <trkpt lat="37.996063" lon="127.504425"><ele>1443.2</ele></trkpt>
      <trkpt lat="37.995723" lon="127.504371"><ele>1449.3</ele></trkpt>
      <trkpt lat="37.995562" lon="127.504465"><ele>1450.1</ele></trkpt>
      <trkpt lat="37.995258" lon="127.504894"><ele>1440.4</ele></trkpt>
      <trkpt lat="37.995123" lon="127.505007"><ele>1436.6</ele></trkpt>
      <trkpt lat="37.994964" lon="127.505050"><ele>1433.7</ele></trkpt>
      <trkpt lat="37.994721" lon="127.504612"><ele>1441.7</ele></trkpt>
      <trkpt lat="37.994582" lon="127.504159"><ele>1442.6</ele></trkpt>
      <trkpt lat="37.994324" lon="127.503896"><ele>1433.2</ele></trkpt>
    </trkseg>
  </trk>
</gpx>
