<?xml version="1.0" encoding="UTF-8"?>
<gpx version="1.1" creator="kr-100-mountains route-harvester"
     xmlns="http://www.topografix.com/GPX/1/1"
     xmlns:k100="https://github.com/jay-jang/kr-100-mountains/ns/1"
     xmlns:xsi="http://www.w3.org/2001/XMLSchema-instance"
     xsi:schemaLocation="http://www.topografix.com/GPX/1/1 http://www.topografix.com/GPX/1/1/gpx.xsd">
  <metadata>
    <name>화악산 · 관청리-중봉 코스 (OSM 계산 경로)</name>
    <desc>실제 GPS 기록이 아닙니다. OpenStreetMap에 등록된 등산로 선형 위에서 계산한 경로이며, 현장 통제·훼손·출입 제한·계절 통제를 반영하지 않을 수 있습니다. 산행 전 공식 안내를 확인하세요.</desc>
    <time>2026-08-04T05:13:27.961Z</time>
    <link href="https://www.openstreetmap.org/copyright"><text>© OpenStreetMap contributors (ODbL 1.0)</text></link>
    <link href="https://registry.opendata.aws/terrain-tiles/"><text>Elevation: SRTM 1 arc-second (NASA/USGS) via AWS Terrain Tiles</text></link>
    <extensions>
      <k100:provenance>osm-routed</k100:provenance>
      <k100:not_a_recorded_track>true</k100:not_a_recorded_track>
      <k100:mountain_id>hwaaksan-gapyeong</k100:mountain_id>
      <k100:mountain_name>화악산(가평)</k100:mountain_name>
      <k100:route_id>hwaaksan-gapyeong-466ae91b</k100:route_id>
      <k100:route_index>1</k100:route_index>
      <k100:route_name>관청리-중봉 코스</k100:route_name>
      <k100:variant>0</k100:variant>
      <k100:source>OpenStreetMap via Overpass API</k100:source>
      <k100:license>ODbL-1.0</k100:license>
      <k100:attribution>© OpenStreetMap contributors</k100:attribution>
      <k100:elevation_source>SRTM 1 arc-second (NASA/USGS) — AWS Terrain Tiles 배포본. 지형 DEM 추정 고도이며 실측 아님</k100:elevation_source>
      <k100:algorithm>dijkstra-grid-v1</k100:algorithm>
      <k100:osm_snapshot>2026-08-04</k100:osm_snapshot>
      <k100:snap_trailhead_m>32</k100:snap_trailhead_m>
      <k100:snap_summit_m>104</k100:snap_summit_m>
      <k100:validation_score>89</k100:validation_score>
      <k100:validation_status>accepted</k100:validation_status>
    </extensions>
  </metadata>
  <trk>
    <name>화악산 · 관청리-중봉 코스 (OSM 계산 경로)</name>
    <desc>실제 GPS 기록이 아닙니다. OpenStreetMap에 등록된 등산로 선형 위에서 계산한 경로이며, 현장 통제·훼손·출입 제한·계절 통제를 반영하지 않을 수 있습니다. 산행 전 공식 안내를 확인하세요.</desc>
    <trkseg>
      <trkpt lat="37.942073" lon="127.538356"><ele>229.6</ele></trkpt>
      <trkpt lat="37.943290" lon="127.538430"><ele>236.5</ele></trkpt>
      <trkpt lat="37.944010" lon="127.538350"><ele>238.8</ele></trkpt>
      <trkpt lat="37.944520" lon="127.538200"><ele>238.5</ele></trkpt>
      <trkpt lat="37.945170" lon="127.537800"><ele>242.2</ele></trkpt>
      <trkpt lat="37.947324" lon="127.535431"><ele>250.4</ele></trkpt>
      <trkpt lat="37.947681" lon="127.535292"><ele>248.7</ele></trkpt>
      <trkpt lat="37.949800" lon="127.534898"><ele>253.9</ele></trkpt>
      <trkpt lat="37.950234" lon="127.534722"><ele>252.5</ele></trkpt>
      <trkpt lat="37.950735" lon="127.534404"><ele>259.3</ele></trkpt>
      <trkpt lat="37.951384" lon="127.533843"><ele>254.3</ele></trkpt>
      <trkpt lat="37.952535" lon="127.532444"><ele>256.3</ele></trkpt>
      <trkpt lat="37.953118" lon="127.531374"><ele>262.7</ele></trkpt>
      <trkpt lat="37.953914" lon="127.530271"><ele>266.3</ele></trkpt>
      <trkpt lat="37.954140" lon="127.529570"><ele>270.9</ele></trkpt>
      <trkpt lat="37.954325" lon="127.529213"><ele>275.8</ele></trkpt>
      <trkpt lat="37.955336" lon="127.528539"><ele>273.3</ele></trkpt>
      <trkpt lat="37.955986" lon="127.528340"><ele>274.7</ele></trkpt>
      <trkpt lat="37.957810" lon="127.528214"><ele>290.6</ele></trkpt>
      <trkpt lat="37.959984" lon="127.527621"><ele>298.4</ele></trkpt>
      <trkpt lat="37.960754" lon="127.527476"><ele>299.3</ele></trkpt>
      <trkpt lat="37.961726" lon="127.527420"><ele>301.5</ele></trkpt>
      <trkpt lat="37.962525" lon="127.527438"><ele>311.6</ele></trkpt>
      <trkpt lat="37.962875" lon="127.527348"><ele>309.4</ele></trkpt>
      <trkpt lat="37.963339" lon="127.527014"><ele>308.6</ele></trkpt>
      <trkpt lat="37.963518" lon="127.526643"><ele>308.0</ele></trkpt>
      <trkpt lat="37.963524" lon="127.526379"><ele>307.7</ele></trkpt>
      <trkpt lat="37.963669" lon="127.525917"><ele>314.0</ele></trkpt>
      <trkpt lat="37.963632" lon="127.525815"><ele>316.4</ele></trkpt>
      <trkpt lat="37.963239" lon="127.525500"><ele>323.3</ele></trkpt>
      <trkpt lat="37.963134" lon="127.525311"><ele>327.5</ele></trkpt>
      <trkpt lat="37.963129" lon="127.523703"><ele>343.2</ele></trkpt>
      <trkpt lat="37.963318" lon="127.523539"><ele>348.5</ele></trkpt>
      <trkpt lat="37.963566" lon="127.523538"><ele>347.8</ele></trkpt>
      <trkpt lat="37.963952" lon="127.523640"><ele>347.3</ele></trkpt>
      <trkpt lat="37.964515" lon="127.523657"><ele>354.7</ele></trkpt>
      <trkpt lat="37.964741" lon="127.523815"><ele>360.0</ele></trkpt>
      <trkpt lat="37.964934" lon="127.523797"><ele>362.6</ele></trkpt>
      <trkpt lat="37.965145" lon="127.523534"><ele>361.3</ele></trkpt>
      <trkpt lat="37.965468" lon="127.522912"><ele>365.0</ele></trkpt>
      <trkpt lat="37.966037" lon="127.522508"><ele>375.9</ele></trkpt>
      <trkpt lat="37.966620" lon="127.522266"><ele>392.0</ele></trkpt>
      <trkpt lat="37.966978" lon="127.521468"><ele>394.6</ele></trkpt>
      <trkpt lat="37.967436" lon="127.521509"><ele>408.0</ele></trkpt>
      <trkpt lat="37.967766" lon="127.521089"><ele>415.2</ele></trkpt>
      <trkpt lat="37.967833" lon="127.521119"><ele>419.3</ele></trkpt>
      <trkpt lat="37.967988" lon="127.521534"><ele>434.4</ele></trkpt>
      <trkpt lat="37.968087" lon="127.521639"><ele>440.1</ele></trkpt>
      <trkpt lat="37.968163" lon="127.521497"><ele>442.8</ele></trkpt>
      <trkpt lat="37.968197" lon="127.520990"><ele>439.6</ele></trkpt>
      <trkpt lat="37.968366" lon="127.520789"><ele>445.5</ele></trkpt>
      <trkpt lat="37.968975" lon="127.519712"><ele>455.6</ele></trkpt>
      <trkpt lat="37.969259" lon="127.519479"><ele>457.3</ele></trkpt>
      <trkpt lat="37.969583" lon="127.518972"><ele>463.6</ele></trkpt>
      <trkpt lat="37.969657" lon="127.518684"><ele>461.2</ele></trkpt>
      <trkpt lat="37.969898" lon="127.518546"><ele>469.9</ele></trkpt>
      <trkpt lat="37.969926" lon="127.518127"><ele>463.2</ele></trkpt>
      <trkpt lat="37.970561" lon="127.517720"><ele>481.4</ele></trkpt>
      <trkpt lat="37.970420" lon="127.517289"><ele>468.4</ele></trkpt>
      <trkpt lat="37.970500" lon="127.517192"><ele>470.2</ele></trkpt>
      <trkpt lat="37.970811" lon="127.517029"><ele>476.5</ele></trkpt>
      <trkpt lat="37.970945" lon="127.516644"><ele>474.8</ele></trkpt>
      <trkpt lat="37.971071" lon="127.516430"><ele>479.6</ele></trkpt>
      <trkpt lat="37.971243" lon="127.516257"><ele>488.1</ele></trkpt>
      <trkpt lat="37.971573" lon="127.516276"><ele>499.2</ele></trkpt>
      <trkpt lat="37.971732" lon="127.516167"><ele>502.1</ele></trkpt>
      <trkpt lat="37.971837" lon="127.515706"><ele>509.9</ele></trkpt>
      <trkpt lat="37.971795" lon="127.515360"><ele>520.0</ele></trkpt>
      <trkpt lat="37.971847" lon="127.515076"><ele>526.8</ele></trkpt>
      <trkpt lat="37.971709" lon="127.514697"><ele>535.0</ele></trkpt>
      <trkpt lat="37.971840" lon="127.514130"><ele>560.4</ele></trkpt>
      <trkpt lat="37.971817" lon="127.513155"><ele>578.8</ele></trkpt>
      <trkpt lat="37.971992" lon="127.512915"><ele>590.0</ele></trkpt>
      <trkpt lat="37.971936" lon="127.512610"><ele>594.7</ele></trkpt>
      <trkpt lat="37.971770" lon="127.512195"><ele>595.5</ele></trkpt>
      <trkpt lat="37.971854" lon="127.512024"><ele>601.0</ele></trkpt>
      <trkpt lat="37.972062" lon="127.511975"><ele>607.8</ele></trkpt>
      <trkpt lat="37.972384" lon="127.511685"><ele>619.2</ele></trkpt>
      <trkpt lat="37.972625" lon="127.511679"><ele>623.6</ele></trkpt>
      <trkpt lat="37.972724" lon="127.511618"><ele>625.8</ele></trkpt>
      <trkpt lat="37.972872" lon="127.511211"><ele>631.8</ele></trkpt>
      <trkpt lat="37.972942" lon="127.511134"><ele>633.7</ele></trkpt>
      <trkpt lat="37.972944" lon="127.511012"><ele>635.2</ele></trkpt>
      <trkpt lat="37.972521" lon="127.510453"><ele>636.0</ele></trkpt>
      <trkpt lat="37.972360" lon="127.510044"><ele>629.1</ele></trkpt>
      <trkpt lat="37.972370" lon="127.509867"><ele>625.3</ele></trkpt>
      <trkpt lat="37.972795" lon="127.509447"><ele>629.6</ele></trkpt>
      <trkpt lat="37.972943" lon="127.509210"><ele>629.3</ele></trkpt>
      <trkpt lat="37.973026" lon="127.508902"><ele>625.4</ele></trkpt>
      <trkpt lat="37.973167" lon="127.508652"><ele>628.4</ele></trkpt>
      <trkpt lat="37.973551" lon="127.508342"><ele>637.5</ele></trkpt>
      <trkpt lat="37.974906" lon="127.507632"><ele>660.6</ele></trkpt>
      <trkpt lat="37.975194" lon="127.507599"><ele>663.2</ele></trkpt>
      <trkpt lat="37.975625" lon="127.507683"><ele>675.3</ele></trkpt>
      <trkpt lat="37.976046" lon="127.507894"><ele>690.7</ele></trkpt>
      <trkpt lat="37.976787" lon="127.507896"><ele>711.1</ele></trkpt>
      <trkpt lat="37.976908" lon="127.507635"><ele>708.5</ele></trkpt>
      <trkpt lat="37.976915" lon="127.507426"><ele>710.7</ele></trkpt>
      <trkpt lat="37.977255" lon="127.506643"><ele>757.2</ele></trkpt>
      <trkpt lat="37.977323" lon="127.506557"><ele>763.8</ele></trkpt>
      <trkpt lat="37.977585" lon="127.506434"><ele>777.8</ele></trkpt>
      <trkpt lat="37.977678" lon="127.506463"><ele>778.7</ele></trkpt>
      <trkpt lat="37.977758" lon="127.506380"><ele>785.9</ele></trkpt>
      <trkpt lat="37.978059" lon="127.505728"><ele>826.8</ele></trkpt>
      <trkpt lat="37.978177" lon="127.505135"><ele>854.5</ele></trkpt>
      <trkpt lat="37.978289" lon="127.504945"><ele>864.1</ele></trkpt>
      <trkpt lat="37.978372" lon="127.504680"><ele>875.1</ele></trkpt>
      <trkpt lat="37.978646" lon="127.504379"><ele>889.2</ele></trkpt>
      <trkpt lat="37.978845" lon="127.504301"><ele>896.2</ele></trkpt>
      <trkpt lat="37.979323" lon="127.503977"><ele>919.8</ele></trkpt>
      <trkpt lat="37.979851" lon="127.504009"><ele>944.7</ele></trkpt>
      <trkpt lat="37.979942" lon="127.503962"><ele>949.3</ele></trkpt>
      <trkpt lat="37.980026" lon="127.503843"><ele>956.2</ele></trkpt>
      <trkpt lat="37.980073" lon="127.503461"><ele>971.3</ele></trkpt>
      <trkpt lat="37.980305" lon="127.503136"><ele>986.3</ele></trkpt>
      <trkpt lat="37.980429" lon="127.503057"><ele>992.6</ele></trkpt>
      <trkpt lat="37.980503" lon="127.503341"><ele>992.8</ele></trkpt>
      <trkpt lat="37.981600" lon="127.502646"><ele>1044.6</ele></trkpt>
      <trkpt lat="37.981927" lon="127.502877"><ele>1051.4</ele></trkpt>
      <trkpt lat="37.981983" lon="127.503043"><ele>1046.9</ele></trkpt>
      <trkpt lat="37.982160" lon="127.503065"><ele>1052.3</ele></trkpt>
      <trkpt lat="37.982342" lon="127.503033"><ele>1060.2</ele></trkpt>
      <trkpt lat="37.982562" lon="127.502899"><ele>1074.7</ele></trkpt>
      <trkpt lat="37.982866" lon="127.502925"><ele>1080.0</ele></trkpt>
      <trkpt lat="37.983209" lon="127.502824"><ele>1088.4</ele></trkpt>
      <trkpt lat="37.983314" lon="127.502840"><ele>1088.7</ele></trkpt>
      <trkpt lat="37.983572" lon="127.502700"><ele>1101.0</ele></trkpt>
      <trkpt lat="37.983741" lon="127.502416"><ele>1117.1</ele></trkpt>
      <trkpt lat="37.983864" lon="127.502381"><ele>1118.1</ele></trkpt>
      <trkpt lat="37.983901" lon="127.502241"><ele>1125.0</ele></trkpt>
      <trkpt lat="37.983856" lon="127.502046"><ele>1137.3</ele></trkpt>
      <trkpt lat="37.983902" lon="127.501869"><ele>1149.0</ele></trkpt>
      <trkpt lat="37.984156" lon="127.501745"><ele>1158.6</ele></trkpt>
      <trkpt lat="37.984363" lon="127.501482"><ele>1172.4</ele></trkpt>
      <trkpt lat="37.984562" lon="127.501434"><ele>1173.0</ele></trkpt>
      <trkpt lat="37.984756" lon="127.501305"><ele>1177.6</ele></trkpt>
      <trkpt lat="37.985145" lon="127.501278"><ele>1183.2</ele></trkpt>
      <trkpt lat="37.985289" lon="127.501091"><ele>1194.0</ele></trkpt>
      <trkpt lat="37.985631" lon="127.500822"><ele>1212.0</ele></trkpt>
      <trkpt lat="37.985838" lon="127.500737"><ele>1221.9</ele></trkpt>
      <trkpt lat="37.986071" lon="127.500742"><ele>1223.9</ele></trkpt>
      <trkpt lat="37.986416" lon="127.501021"><ele>1217.6</ele></trkpt>
      <trkpt lat="37.986532" lon="127.501037"><ele>1220.0</ele></trkpt>
      <trkpt lat="37.987039" lon="127.500892"><ele>1252.5</ele></trkpt>
      <trkpt lat="37.987162" lon="127.500817"><ele>1266.0</ele></trkpt>
      <trkpt lat="37.987240" lon="127.500659"><ele>1275.5</ele></trkpt>
      <trkpt lat="37.987483" lon="127.500704"><ele>1284.6</ele></trkpt>
      <trkpt lat="37.987614" lon="127.500629"><ele>1293.9</ele></trkpt>
      <trkpt lat="37.987703" lon="127.500468"><ele>1304.3</ele></trkpt>
      <trkpt lat="37.987872" lon="127.500345"><ele>1317.8</ele></trkpt>
      <trkpt lat="37.988122" lon="127.500410"><ele>1328.9</ele></trkpt>
      <trkpt lat="37.988240" lon="127.500383"><ele>1332.7</ele></trkpt>
      <trkpt lat="37.988807" lon="127.499776"><ele>1369.8</ele></trkpt>
      <trkpt lat="37.988701" lon="127.499122"><ele>1389.8</ele></trkpt>
      <trkpt lat="37.988714" lon="127.498237"><ele>1419.6</ele></trkpt>
      <trkpt lat="37.988865" lon="127.497726"><ele>1428.6</ele></trkpt>
      <trkpt lat="37.989019" lon="127.497734"><ele>1427.1</ele></trkpt>
      <trkpt lat="37.989277" lon="127.498091"><ele>1431.3</ele></trkpt>
      <trkpt lat="37.989316" lon="127.498177"><ele>1433.1</ele></trkpt>
      <trkpt lat="37.989294" lon="127.498296"><ele>1434.6</ele></trkpt>
      <trkpt lat="37.989385" lon="127.498384"><ele>1437.1</ele></trkpt>
      <trkpt lat="37.989519" lon="127.498682"><ele>1435.7</ele></trkpt>
      <trkpt lat="37.989395" lon="127.498857"><ele>1430.1</ele></trkpt>
      <trkpt lat="37.989351" lon="127.499072"><ele>1420.3</ele></trkpt>
      <trkpt lat="37.989225" lon="127.499310"><ele>1405.0</ele></trkpt>
      <trkpt lat="37.989306" lon="127.499617"><ele>1390.9</ele></trkpt>
      <trkpt lat="37.989198" lon="127.499664"><ele>1385.6</ele></trkpt>
      <trkpt lat="37.989044" lon="127.499648"><ele>1382.5</ele></trkpt>
      <trkpt lat="37.989070" lon="127.499987"><ele>1368.2</ele></trkpt>
      <trkpt lat="37.989206" lon="127.500189"><ele>1365.6</ele></trkpt>
      <trkpt lat="37.989369" lon="127.500293"><ele>1365.5</ele></trkpt>
      <trkpt lat="37.989444" lon="127.500210"><ele>1369.2</ele></trkpt>
      <trkpt lat="37.989976" lon="127.500063"><ele>1380.3</ele></trkpt>
      <trkpt lat="37.990569" lon="127.500130"><ele>1384.0</ele></trkpt>
      <trkpt lat="37.990958" lon="127.500041"><ele>1391.9</ele></trkpt>
      <trkpt lat="37.991064" lon="127.500061"><ele>1394.2</ele></trkpt>
      <trkpt lat="37.991861" lon="127.500557"><ele>1406.9</ele></trkpt>
      <trkpt lat="37.991993" lon="127.500830"><ele>1407.0</ele></trkpt>
      <trkpt lat="37.992465" lon="127.501249"><ele>1415.5</ele></trkpt>
      <trkpt lat="37.992916" lon="127.501772"><ele>1414.1</ele></trkpt>
      <trkpt lat="37.993637" lon="127.502888"><ele>1422.5</ele></trkpt>
      <trkpt lat="37.993924" lon="127.503159"><ele>1429.9</ele></trkpt>
      <trkpt lat="37.994019" lon="127.503309"><ele>1432.0</ele></trkpt>
      <trkpt lat="37.994144" lon="127.503738"><ele>1425.4</ele></trkpt>
      <trkpt lat="37.994324" lon="127.503896"><ele>1433.2</ele></trkpt>
    </trkseg>
  </trk>
</gpx>
