<?xml version="1.0" encoding="UTF-8"?>
<gpx version="1.1" creator="kr-100-mountains route-harvester"
     xmlns="http://www.topografix.com/GPX/1/1"
     xmlns:k100="https://github.com/jay-jang/kr-100-mountains/ns/1"
     xmlns:xsi="http://www.w3.org/2001/XMLSchema-instance"
     xsi:schemaLocation="http://www.topografix.com/GPX/1/1 http://www.topografix.com/GPX/1/1/gpx.xsd">
  <metadata>
    <name>금수산 · 상학주차장-금수산 코스 (대안 2) (OSM 계산 경로)</name>
    <desc>실제 GPS 기록이 아닙니다. OpenStreetMap에 등록된 등산로 선형 위에서 계산한 경로이며, 현장 통제·훼손·출입 제한·계절 통제를 반영하지 않을 수 있습니다. 산행 전 공식 안내를 확인하세요.</desc>
    <time>2026-08-04T05:27:02.353Z</time>
    <link href="https://www.openstreetmap.org/copyright"><text>© OpenStreetMap contributors (ODbL 1.0)</text></link>
    <link href="https://registry.opendata.aws/terrain-tiles/"><text>Elevation: SRTM 1 arc-second (NASA/USGS) via AWS Terrain Tiles</text></link>
    <extensions>
      <k100:provenance>osm-routed</k100:provenance>
      <k100:not_a_recorded_track>true</k100:not_a_recorded_track>
      <k100:mountain_id>geumsusan</k100:mountain_id>
      <k100:mountain_name>금수산</k100:mountain_name>
      <k100:route_id>geumsusan-70ee2e3a</k100:route_id>
      <k100:route_index>2</k100:route_index>
      <k100:route_name>상학주차장-금수산 코스</k100:route_name>
      <k100:variant>2</k100:variant>
      <k100:source>OpenStreetMap via Overpass API</k100:source>
      <k100:license>ODbL-1.0</k100:license>
      <k100:attribution>© OpenStreetMap contributors</k100:attribution>
      <k100:elevation_source>SRTM 1 arc-second (NASA/USGS) — AWS Terrain Tiles 배포본. 지형 DEM 추정 고도이며 실측 아님</k100:elevation_source>
      <k100:algorithm>dijkstra-grid-v1</k100:algorithm>
      <k100:osm_snapshot>2026-08-04</k100:osm_snapshot>
      <k100:snap_trailhead_m>72</k100:snap_trailhead_m>
      <k100:snap_summit_m>79</k100:snap_summit_m>
      <k100:validation_score>93</k100:validation_score>
      <k100:validation_status>accepted</k100:validation_status>
    </extensions>
  </metadata>
  <trk>
    <name>금수산 · 상학주차장-금수산 코스 (대안 2) (OSM 계산 경로)</name>
    <desc>실제 GPS 기록이 아닙니다. OpenStreetMap에 등록된 등산로 선형 위에서 계산한 경로이며, 현장 통제·훼손·출입 제한·계절 통제를 반영하지 않을 수 있습니다. 산행 전 공식 안내를 확인하세요.</desc>
    <trkseg>
      <trkpt lat="36.975511" lon="128.274613"><ele>406.9</ele></trkpt>
      <trkpt lat="36.976174" lon="128.274638"><ele>411.7</ele></trkpt>
      <trkpt lat="36.977301" lon="128.273558"><ele>413.3</ele></trkpt>
      <trkpt lat="36.977351" lon="128.272752"><ele>417.0</ele></trkpt>
      <trkpt lat="36.977442" lon="128.272402"><ele>419.5</ele></trkpt>
      <trkpt lat="36.977691" lon="128.272046"><ele>423.7</ele></trkpt>
      <trkpt lat="36.977857" lon="128.271696"><ele>427.4</ele></trkpt>
      <trkpt lat="36.977988" lon="128.270953"><ele>438.8</ele></trkpt>
      <trkpt lat="36.978285" lon="128.270329"><ele>450.1</ele></trkpt>
      <trkpt lat="36.978801" lon="128.269698"><ele>460.2</ele></trkpt>
      <trkpt lat="36.978902" lon="128.269430"><ele>466.2</ele></trkpt>
      <trkpt lat="36.978771" lon="128.269178"><ele>470.1</ele></trkpt>
      <trkpt lat="36.978374" lon="128.269631"><ele>465.0</ele></trkpt>
      <trkpt lat="36.978118" lon="128.269690"><ele>463.7</ele></trkpt>
      <trkpt lat="36.978017" lon="128.269631"><ele>464.6</ele></trkpt>
      <trkpt lat="36.977911" lon="128.269325"><ele>469.8</ele></trkpt>
      <trkpt lat="36.978400" lon="128.269166"><ele>472.0</ele></trkpt>
      <trkpt lat="36.978423" lon="128.268665"><ele>481.2</ele></trkpt>
      <trkpt lat="36.978383" lon="128.268564"><ele>483.6</ele></trkpt>
      <trkpt lat="36.978017" lon="128.268705"><ele>482.5</ele></trkpt>
      <trkpt lat="36.977815" lon="128.268669"><ele>484.4</ele></trkpt>
      <trkpt lat="36.977737" lon="128.268550"><ele>488.1</ele></trkpt>
      <trkpt lat="36.977455" lon="128.267546"><ele>513.9</ele></trkpt>
      <trkpt lat="36.977585" lon="128.267425"><ele>514.5</ele></trkpt>
      <trkpt lat="36.977576" lon="128.267206"><ele>519.6</ele></trkpt>
      <trkpt lat="36.977634" lon="128.266921"><ele>526.6</ele></trkpt>
      <trkpt lat="36.977580" lon="128.266593"><ele>534.2</ele></trkpt>
      <trkpt lat="36.977440" lon="128.266217"><ele>543.1</ele></trkpt>
      <trkpt lat="36.977265" lon="128.265968"><ele>551.4</ele></trkpt>
      <trkpt lat="36.977062" lon="128.265434"><ele>565.5</ele></trkpt>
      <trkpt lat="36.977028" lon="128.265112"><ele>570.5</ele></trkpt>
      <trkpt lat="36.977168" lon="128.264870"><ele>574.8</ele></trkpt>
      <trkpt lat="36.977430" lon="128.264075"><ele>606.4</ele></trkpt>
      <trkpt lat="36.977367" lon="128.263741"><ele>621.0</ele></trkpt>
      <trkpt lat="36.977193" lon="128.263352"><ele>635.1</ele></trkpt>
      <trkpt lat="36.977139" lon="128.262915"><ele>652.5</ele></trkpt>
      <trkpt lat="36.977207" lon="128.262857"><ele>654.5</ele></trkpt>
      <trkpt lat="36.977095" lon="128.262636"><ele>662.3</ele></trkpt>
      <trkpt lat="36.977086" lon="128.262400"><ele>670.8</ele></trkpt>
      <trkpt lat="36.977125" lon="128.262230"><ele>677.4</ele></trkpt>
      <trkpt lat="36.977234" lon="128.262044"><ele>686.3</ele></trkpt>
      <trkpt lat="36.977433" lon="128.261855"><ele>693.2</ele></trkpt>
      <trkpt lat="36.977372" lon="128.261714"><ele>700.6</ele></trkpt>
      <trkpt lat="36.977479" lon="128.261507"><ele>709.8</ele></trkpt>
      <trkpt lat="36.977474" lon="128.261374"><ele>716.4</ele></trkpt>
      <trkpt lat="36.977580" lon="128.261131"><ele>727.8</ele></trkpt>
      <trkpt lat="36.977803" lon="128.260816"><ele>743.3</ele></trkpt>
      <trkpt lat="36.977740" lon="128.260403"><ele>764.9</ele></trkpt>
      <trkpt lat="36.978013" lon="128.259757"><ele>784.4</ele></trkpt>
      <trkpt lat="36.977734" lon="128.259690"><ele>781.5</ele></trkpt>
      <trkpt lat="36.977387" lon="128.259728"><ele>789.8</ele></trkpt>
      <trkpt lat="36.977326" lon="128.259693"><ele>792.3</ele></trkpt>
      <trkpt lat="36.977014" lon="128.259813"><ele>794.5</ele></trkpt>
      <trkpt lat="36.976763" lon="128.259637"><ele>797.0</ele></trkpt>
      <trkpt lat="36.976576" lon="128.259662"><ele>795.1</ele></trkpt>
      <trkpt lat="36.976321" lon="128.259925"><ele>793.7</ele></trkpt>
      <trkpt lat="36.976150" lon="128.259989"><ele>790.7</ele></trkpt>
      <trkpt lat="36.976087" lon="128.260078"><ele>789.2</ele></trkpt>
      <trkpt lat="36.975816" lon="128.260063"><ele>795.2</ele></trkpt>
      <trkpt lat="36.975763" lon="128.260137"><ele>797.4</ele></trkpt>
      <trkpt lat="36.975660" lon="128.260104"><ele>798.8</ele></trkpt>
      <trkpt lat="36.975528" lon="128.259933"><ele>795.1</ele></trkpt>
      <trkpt lat="36.975426" lon="128.259928"><ele>795.9</ele></trkpt>
      <trkpt lat="36.975320" lon="128.260012"><ele>799.9</ele></trkpt>
      <trkpt lat="36.974790" lon="128.259957"><ele>797.5</ele></trkpt>
      <trkpt lat="36.974596" lon="128.260003"><ele>797.6</ele></trkpt>
      <trkpt lat="36.974455" lon="128.259957"><ele>796.1</ele></trkpt>
      <trkpt lat="36.974375" lon="128.260064"><ele>799.5</ele></trkpt>
      <trkpt lat="36.974094" lon="128.260158"><ele>808.6</ele></trkpt>
      <trkpt lat="36.973333" lon="128.260012"><ele>816.4</ele></trkpt>
      <trkpt lat="36.972902" lon="128.259626"><ele>824.1</ele></trkpt>
      <trkpt lat="36.972800" lon="128.259102"><ele>825.5</ele></trkpt>
      <trkpt lat="36.972831" lon="128.257987"><ele>807.2</ele></trkpt>
      <trkpt lat="36.972950" lon="128.257684"><ele>800.9</ele></trkpt>
      <trkpt lat="36.973195" lon="128.257384"><ele>793.3</ele></trkpt>
      <trkpt lat="36.973156" lon="128.257136"><ele>789.3</ele></trkpt>
      <trkpt lat="36.973497" lon="128.256758"><ele>791.3</ele></trkpt>
      <trkpt lat="36.973526" lon="128.256597"><ele>791.8</ele></trkpt>
      <trkpt lat="36.973630" lon="128.256417"><ele>789.4</ele></trkpt>
      <trkpt lat="36.973535" lon="128.256068"><ele>774.0</ele></trkpt>
      <trkpt lat="36.973428" lon="128.256007"><ele>767.9</ele></trkpt>
      <trkpt lat="36.973355" lon="128.255996"><ele>765.5</ele></trkpt>
      <trkpt lat="36.973308" lon="128.256122"><ele>771.0</ele></trkpt>
      <trkpt lat="36.973182" lon="128.256248"><ele>769.0</ele></trkpt>
      <trkpt lat="36.973073" lon="128.256235"><ele>761.0</ele></trkpt>
      <trkpt lat="36.973015" lon="128.256135"><ele>753.3</ele></trkpt>
      <trkpt lat="36.973047" lon="128.255475"><ele>714.0</ele></trkpt>
      <trkpt lat="36.973218" lon="128.255092"><ele>691.3</ele></trkpt>
      <trkpt lat="36.972783" lon="128.254368"><ele>651.5</ele></trkpt>
      <trkpt lat="36.972753" lon="128.254212"><ele>647.2</ele></trkpt>
      <trkpt lat="36.972575" lon="128.253984"><ele>639.0</ele></trkpt>
      <trkpt lat="36.972603" lon="128.253660"><ele>632.7</ele></trkpt>
      <trkpt lat="36.972505" lon="128.253501"><ele>625.6</ele></trkpt>
      <trkpt lat="36.972509" lon="128.253212"><ele>616.7</ele></trkpt>
      <trkpt lat="36.972361" lon="128.252825"><ele>600.9</ele></trkpt>
      <trkpt lat="36.972352" lon="128.252718"><ele>599.0</ele></trkpt>
      <trkpt lat="36.972438" lon="128.252479"><ele>600.2</ele></trkpt>
      <trkpt lat="36.972374" lon="128.252141"><ele>594.5</ele></trkpt>
      <trkpt lat="36.972541" lon="128.251243"><ele>573.2</ele></trkpt>
      <trkpt lat="36.972582" lon="128.250406"><ele>557.2</ele></trkpt>
      <trkpt lat="36.972882" lon="128.250173"><ele>550.8</ele></trkpt>
      <trkpt lat="36.972897" lon="128.250074"><ele>548.8</ele></trkpt>
      <trkpt lat="36.972897" lon="128.249690"><ele>546.6</ele></trkpt>
      <trkpt lat="36.972839" lon="128.249524"><ele>546.3</ele></trkpt>
      <trkpt lat="36.972931" lon="128.248357"><ele>511.5</ele></trkpt>
      <trkpt lat="36.972880" lon="128.248250"><ele>506.3</ele></trkpt>
      <trkpt lat="36.972888" lon="128.248051"><ele>500.9</ele></trkpt>
      <trkpt lat="36.972777" lon="128.247815"><ele>495.5</ele></trkpt>
      <trkpt lat="36.972785" lon="128.247246"><ele>492.1</ele></trkpt>
      <trkpt lat="36.972693" lon="128.247040"><ele>487.5</ele></trkpt>
      <trkpt lat="36.972828" lon="128.246388"><ele>483.5</ele></trkpt>
      <trkpt lat="36.972833" lon="128.246208"><ele>480.7</ele></trkpt>
      <trkpt lat="36.972747" lon="128.245956"><ele>476.2</ele></trkpt>
      <trkpt lat="36.972828" lon="128.245570"><ele>468.6</ele></trkpt>
      <trkpt lat="36.972803" lon="128.245323"><ele>464.4</ele></trkpt>
      <trkpt lat="36.972743" lon="128.245184"><ele>460.6</ele></trkpt>
      <trkpt lat="36.972850" lon="128.244465"><ele>450.8</ele></trkpt>
      <trkpt lat="36.972704" lon="128.244363"><ele>442.2</ele></trkpt>
      <trkpt lat="36.972644" lon="128.244146"><ele>432.3</ele></trkpt>
      <trkpt lat="36.972584" lon="128.244124"><ele>428.6</ele></trkpt>
      <trkpt lat="36.972462" lon="128.244165"><ele>423.8</ele></trkpt>
      <trkpt lat="36.972374" lon="128.244307"><ele>418.5</ele></trkpt>
      <trkpt lat="36.972262" lon="128.244342"><ele>409.3</ele></trkpt>
      <trkpt lat="36.972164" lon="128.244256"><ele>398.0</ele></trkpt>
      <trkpt lat="36.972412" lon="128.243355"><ele>377.3</ele></trkpt>
      <trkpt lat="36.972421" lon="128.243212"><ele>373.4</ele></trkpt>
      <trkpt lat="36.972284" lon="128.242773"><ele>354.8</ele></trkpt>
      <trkpt lat="36.972306" lon="128.242515"><ele>345.9</ele></trkpt>
      <trkpt lat="36.972363" lon="128.242534"><ele>348.8</ele></trkpt>
      <trkpt lat="36.972395" lon="128.242432"><ele>346.7</ele></trkpt>
      <trkpt lat="36.972821" lon="128.242585"><ele>360.7</ele></trkpt>
      <trkpt lat="36.973064" lon="128.242882"><ele>354.5</ele></trkpt>
      <trkpt lat="36.973148" lon="128.243054"><ele>354.0</ele></trkpt>
      <trkpt lat="36.973292" lon="128.243160"><ele>353.8</ele></trkpt>
      <trkpt lat="36.973458" lon="128.243052"><ele>348.6</ele></trkpt>
      <trkpt lat="36.973590" lon="128.243172"><ele>350.2</ele></trkpt>
      <trkpt lat="36.974080" lon="128.243424"><ele>361.8</ele></trkpt>
      <trkpt lat="36.974277" lon="128.243813"><ele>363.3</ele></trkpt>
      <trkpt lat="36.974305" lon="128.243971"><ele>364.1</ele></trkpt>
      <trkpt lat="36.974568" lon="128.244234"><ele>368.9</ele></trkpt>
      <trkpt lat="36.974823" lon="128.244988"><ele>379.7</ele></trkpt>
      <trkpt lat="36.974866" lon="128.245326"><ele>379.0</ele></trkpt>
      <trkpt lat="36.975018" lon="128.245659"><ele>382.9</ele></trkpt>
      <trkpt lat="36.975252" lon="128.245881"><ele>393.3</ele></trkpt>
      <trkpt lat="36.975391" lon="128.245868"><ele>400.3</ele></trkpt>
      <trkpt lat="36.975676" lon="128.246211"><ele>407.9</ele></trkpt>
      <trkpt lat="36.975845" lon="128.246275"><ele>412.0</ele></trkpt>
      <trkpt lat="36.975968" lon="128.246466"><ele>412.4</ele></trkpt>
      <trkpt lat="36.976658" lon="128.246772"><ele>423.5</ele></trkpt>
      <trkpt lat="36.977080" lon="128.246675"><ele>434.4</ele></trkpt>
      <trkpt lat="36.977341" lon="128.246734"><ele>438.6</ele></trkpt>
      <trkpt lat="36.977500" lon="128.246648"><ele>440.5</ele></trkpt>
      <trkpt lat="36.977545" lon="128.246699"><ele>440.8</ele></trkpt>
      <trkpt lat="36.978035" lon="128.246820"><ele>451.4</ele></trkpt>
      <trkpt lat="36.978194" lon="128.246925"><ele>453.2</ele></trkpt>
      <trkpt lat="36.978487" lon="128.246989"><ele>459.6</ele></trkpt>
      <trkpt lat="36.978652" lon="128.247091"><ele>464.0</ele></trkpt>
      <trkpt lat="36.978785" lon="128.247279"><ele>470.2</ele></trkpt>
      <trkpt lat="36.979291" lon="128.247338"><ele>479.7</ele></trkpt>
      <trkpt lat="36.979548" lon="128.247560"><ele>486.6</ele></trkpt>
      <trkpt lat="36.979842" lon="128.247614"><ele>495.3</ele></trkpt>
      <trkpt lat="36.979972" lon="128.247786"><ele>499.6</ele></trkpt>
      <trkpt lat="36.980304" lon="128.247842"><ele>505.9</ele></trkpt>
      <trkpt lat="36.980482" lon="128.248116"><ele>510.5</ele></trkpt>
      <trkpt lat="36.980874" lon="128.248212"><ele>522.0</ele></trkpt>
      <trkpt lat="36.981029" lon="128.248357"><ele>524.6</ele></trkpt>
    </trkseg>
  </trk>
</gpx>
