<?xml version="1.0" encoding="UTF-8"?>
<gpx version="1.1" creator="kr-100-mountains route-harvester"
     xmlns="http://www.topografix.com/GPX/1/1"
     xmlns:k100="https://github.com/jay-jang/kr-100-mountains/ns/1"
     xmlns:xsi="http://www.w3.org/2001/XMLSchema-instance"
     xsi:schemaLocation="http://www.topografix.com/GPX/1/1 http://www.topografix.com/GPX/1/1/gpx.xsd">
  <metadata>
    <name>금수산 · 상학주차장-금수산 코스 (대안 1) (OSM 계산 경로)</name>
    <desc>실제 GPS 기록이 아닙니다. OpenStreetMap에 등록된 등산로 선형 위에서 계산한 경로이며, 현장 통제·훼손·출입 제한·계절 통제를 반영하지 않을 수 있습니다. 산행 전 공식 안내를 확인하세요.</desc>
    <time>2026-08-04T05:27:02.352Z</time>
    <link href="https://www.openstreetmap.org/copyright"><text>© OpenStreetMap contributors (ODbL 1.0)</text></link>
    <link href="https://registry.opendata.aws/terrain-tiles/"><text>Elevation: SRTM 1 arc-second (NASA/USGS) via AWS Terrain Tiles</text></link>
    <extensions>
      <k100:provenance>osm-routed</k100:provenance>
      <k100:not_a_recorded_track>true</k100:not_a_recorded_track>
      <k100:mountain_id>geumsusan</k100:mountain_id>
      <k100:mountain_name>금수산</k100:mountain_name>
      <k100:route_id>geumsusan-70ee2e3a</k100:route_id>
      <k100:route_index>2</k100:route_index>
      <k100:route_name>상학주차장-금수산 코스</k100:route_name>
      <k100:variant>1</k100:variant>
      <k100:source>OpenStreetMap via Overpass API</k100:source>
      <k100:license>ODbL-1.0</k100:license>
      <k100:attribution>© OpenStreetMap contributors</k100:attribution>
      <k100:elevation_source>SRTM 1 arc-second (NASA/USGS) — AWS Terrain Tiles 배포본. 지형 DEM 추정 고도이며 실측 아님</k100:elevation_source>
      <k100:algorithm>dijkstra-grid-v1</k100:algorithm>
      <k100:osm_snapshot>2026-08-04</k100:osm_snapshot>
      <k100:snap_trailhead_m>72</k100:snap_trailhead_m>
      <k100:snap_summit_m>79</k100:snap_summit_m>
      <k100:validation_score>75</k100:validation_score>
      <k100:validation_status>review</k100:validation_status>
    </extensions>
  </metadata>
  <trk>
    <name>금수산 · 상학주차장-금수산 코스 (대안 1) (OSM 계산 경로)</name>
    <desc>실제 GPS 기록이 아닙니다. OpenStreetMap에 등록된 등산로 선형 위에서 계산한 경로이며, 현장 통제·훼손·출입 제한·계절 통제를 반영하지 않을 수 있습니다. 산행 전 공식 안내를 확인하세요.</desc>
    <trkseg>
      <trkpt lat="36.975511" lon="128.274613"><ele>406.9</ele></trkpt>
      <trkpt lat="36.975265" lon="128.274608"><ele>401.2</ele></trkpt>
      <trkpt lat="36.975049" lon="128.274682"><ele>397.8</ele></trkpt>
      <trkpt lat="36.974952" lon="128.274910"><ele>394.7</ele></trkpt>
      <trkpt lat="36.974768" lon="128.275628"><ele>383.4</ele></trkpt>
      <trkpt lat="36.974433" lon="128.276308"><ele>369.4</ele></trkpt>
      <trkpt lat="36.974084" lon="128.277648"><ele>361.2</ele></trkpt>
      <trkpt lat="36.973549" lon="128.279322"><ele>348.9</ele></trkpt>
      <trkpt lat="36.973335" lon="128.279510"><ele>346.3</ele></trkpt>
      <trkpt lat="36.972553" lon="128.279828"><ele>334.7</ele></trkpt>
      <trkpt lat="36.972520" lon="128.278852"><ele>333.3</ele></trkpt>
      <trkpt lat="36.972469" lon="128.278541"><ele>331.2</ele></trkpt>
      <trkpt lat="36.972083" lon="128.277618"><ele>327.3</ele></trkpt>
      <trkpt lat="36.972151" lon="128.276642"><ele>338.8</ele></trkpt>
      <trkpt lat="36.972006" lon="128.276170"><ele>342.6</ele></trkpt>
      <trkpt lat="36.972091" lon="128.275333"><ele>351.5</ele></trkpt>
      <trkpt lat="36.971946" lon="128.274968"><ele>354.4</ele></trkpt>
      <trkpt lat="36.971826" lon="128.274485"><ele>361.8</ele></trkpt>
      <trkpt lat="36.971911" lon="128.273949"><ele>370.2</ele></trkpt>
      <trkpt lat="36.971886" lon="128.273466"><ele>376.4</ele></trkpt>
      <trkpt lat="36.972074" lon="128.272983"><ele>382.6</ele></trkpt>
      <trkpt lat="36.972297" lon="128.272811"><ele>385.5</ele></trkpt>
      <trkpt lat="36.972374" lon="128.272694"><ele>387.5</ele></trkpt>
      <trkpt lat="36.972400" lon="128.272522"><ele>390.6</ele></trkpt>
      <trkpt lat="36.972323" lon="128.272103"><ele>396.8</ele></trkpt>
      <trkpt lat="36.972297" lon="128.271267"><ele>409.6</ele></trkpt>
      <trkpt lat="36.972083" lon="128.271106"><ele>412.6</ele></trkpt>
      <trkpt lat="36.971929" lon="128.270644"><ele>423.0</ele></trkpt>
      <trkpt lat="36.971646" lon="128.270022"><ele>439.7</ele></trkpt>
      <trkpt lat="36.971506" lon="128.269417"><ele>451.3</ele></trkpt>
      <trkpt lat="36.971487" lon="128.269269"><ele>454.5</ele></trkpt>
      <trkpt lat="36.971762" lon="128.268665"><ele>459.0</ele></trkpt>
      <trkpt lat="36.971723" lon="128.268530"><ele>462.6</ele></trkpt>
      <trkpt lat="36.971457" lon="128.268443"><ele>471.5</ele></trkpt>
      <trkpt lat="36.971103" lon="128.268542"><ele>474.8</ele></trkpt>
      <trkpt lat="36.971044" lon="128.268382"><ele>478.6</ele></trkpt>
      <trkpt lat="36.970817" lon="128.268160"><ele>482.9</ele></trkpt>
      <trkpt lat="36.970605" lon="128.268139"><ele>485.9</ele></trkpt>
      <trkpt lat="36.970559" lon="128.268358"><ele>482.9</ele></trkpt>
      <trkpt lat="36.970386" lon="128.268391"><ele>488.5</ele></trkpt>
      <trkpt lat="36.970338" lon="128.268121"><ele>494.5</ele></trkpt>
      <trkpt lat="36.970412" lon="128.267788"><ele>501.4</ele></trkpt>
      <trkpt lat="36.970565" lon="128.267561"><ele>499.7</ele></trkpt>
      <trkpt lat="36.970920" lon="128.267324"><ele>496.1</ele></trkpt>
      <trkpt lat="36.971023" lon="128.267185"><ele>498.5</ele></trkpt>
      <trkpt lat="36.971071" lon="128.266997"><ele>504.5</ele></trkpt>
      <trkpt lat="36.971286" lon="128.266814"><ele>509.3</ele></trkpt>
      <trkpt lat="36.971380" lon="128.266546"><ele>519.2</ele></trkpt>
      <trkpt lat="36.971500" lon="128.266535"><ele>521.9</ele></trkpt>
      <trkpt lat="36.971663" lon="128.266782"><ele>513.8</ele></trkpt>
      <trkpt lat="36.971834" lon="128.267179"><ele>503.8</ele></trkpt>
      <trkpt lat="36.971929" lon="128.267275"><ele>503.4</ele></trkpt>
      <trkpt lat="36.972083" lon="128.267179"><ele>509.1</ele></trkpt>
      <trkpt lat="36.972383" lon="128.266857"><ele>523.4</ele></trkpt>
      <trkpt lat="36.972931" lon="128.267082"><ele>521.1</ele></trkpt>
      <trkpt lat="36.973377" lon="128.267018"><ele>525.0</ele></trkpt>
      <trkpt lat="36.973480" lon="128.266911"><ele>525.7</ele></trkpt>
      <trkpt lat="36.973557" lon="128.266642"><ele>530.7</ele></trkpt>
      <trkpt lat="36.973609" lon="128.265859"><ele>536.7</ele></trkpt>
      <trkpt lat="36.973566" lon="128.265419"><ele>553.3</ele></trkpt>
      <trkpt lat="36.973591" lon="128.265162"><ele>558.0</ele></trkpt>
      <trkpt lat="36.973771" lon="128.264937"><ele>559.1</ele></trkpt>
      <trkpt lat="36.974517" lon="128.264797"><ele>558.8</ele></trkpt>
      <trkpt lat="36.974757" lon="128.264443"><ele>572.2</ele></trkpt>
      <trkpt lat="36.974920" lon="128.264475"><ele>576.4</ele></trkpt>
      <trkpt lat="36.975349" lon="128.265130"><ele>567.9</ele></trkpt>
      <trkpt lat="36.975451" lon="128.265173"><ele>568.4</ele></trkpt>
      <trkpt lat="36.975803" lon="128.265012"><ele>580.2</ele></trkpt>
      <trkpt lat="36.976253" lon="128.264701"><ele>592.6</ele></trkpt>
      <trkpt lat="36.976561" lon="128.264405"><ele>599.4</ele></trkpt>
      <trkpt lat="36.976690" lon="128.264051"><ele>612.3</ele></trkpt>
      <trkpt lat="36.976870" lon="128.263944"><ele>614.6</ele></trkpt>
      <trkpt lat="36.977191" lon="128.263917"><ele>615.5</ele></trkpt>
      <trkpt lat="36.977381" lon="128.263962"><ele>612.6</ele></trkpt>
      <trkpt lat="36.977367" lon="128.263741"><ele>621.0</ele></trkpt>
      <trkpt lat="36.977193" lon="128.263352"><ele>635.1</ele></trkpt>
      <trkpt lat="36.977139" lon="128.262915"><ele>652.5</ele></trkpt>
      <trkpt lat="36.977207" lon="128.262857"><ele>654.5</ele></trkpt>
      <trkpt lat="36.977095" lon="128.262636"><ele>662.3</ele></trkpt>
      <trkpt lat="36.977086" lon="128.262400"><ele>670.8</ele></trkpt>
      <trkpt lat="36.977125" lon="128.262230"><ele>677.4</ele></trkpt>
      <trkpt lat="36.977234" lon="128.262044"><ele>686.3</ele></trkpt>
      <trkpt lat="36.977433" lon="128.261855"><ele>693.2</ele></trkpt>
      <trkpt lat="36.977372" lon="128.261714"><ele>700.6</ele></trkpt>
      <trkpt lat="36.977479" lon="128.261507"><ele>709.8</ele></trkpt>
      <trkpt lat="36.977474" lon="128.261374"><ele>716.4</ele></trkpt>
      <trkpt lat="36.977580" lon="128.261131"><ele>727.8</ele></trkpt>
      <trkpt lat="36.977803" lon="128.260816"><ele>743.3</ele></trkpt>
      <trkpt lat="36.977740" lon="128.260403"><ele>764.9</ele></trkpt>
      <trkpt lat="36.978013" lon="128.259757"><ele>784.4</ele></trkpt>
      <trkpt lat="36.978007" lon="128.259679"><ele>785.1</ele></trkpt>
      <trkpt lat="36.978600" lon="128.259471"><ele>806.2</ele></trkpt>
      <trkpt lat="36.978839" lon="128.259611"><ele>814.2</ele></trkpt>
      <trkpt lat="36.979155" lon="128.259353"><ele>821.2</ele></trkpt>
      <trkpt lat="36.979305" lon="128.259371"><ele>822.8</ele></trkpt>
      <trkpt lat="36.980229" lon="128.259180"><ele>819.5</ele></trkpt>
      <trkpt lat="36.980743" lon="128.258927"><ele>823.8</ele></trkpt>
      <trkpt lat="36.981067" lon="128.259080"><ele>828.9</ele></trkpt>
      <trkpt lat="36.981136" lon="128.259009"><ele>832.4</ele></trkpt>
      <trkpt lat="36.981060" lon="128.258907"><ele>833.1</ele></trkpt>
      <trkpt lat="36.981052" lon="128.258493"><ele>842.8</ele></trkpt>
      <trkpt lat="36.981144" lon="128.258391"><ele>849.3</ele></trkpt>
      <trkpt lat="36.981281" lon="128.258639"><ele>848.6</ele></trkpt>
      <trkpt lat="36.981853" lon="128.257478"><ele>885.5</ele></trkpt>
      <trkpt lat="36.981998" lon="128.257409"><ele>890.1</ele></trkpt>
      <trkpt lat="36.982070" lon="128.257039"><ele>888.3</ele></trkpt>
      <trkpt lat="36.981763" lon="128.256822"><ele>871.0</ele></trkpt>
      <trkpt lat="36.981284" lon="128.256071"><ele>828.8</ele></trkpt>
      <trkpt lat="36.980439" lon="128.255224"><ele>767.0</ele></trkpt>
      <trkpt lat="36.980062" lon="128.255106"><ele>746.1</ele></trkpt>
      <trkpt lat="36.979951" lon="128.254995"><ele>736.3</ele></trkpt>
      <trkpt lat="36.979289" lon="128.254609"><ele>709.3</ele></trkpt>
      <trkpt lat="36.979040" lon="128.254381"><ele>696.5</ele></trkpt>
      <trkpt lat="36.978947" lon="128.254377"><ele>691.9</ele></trkpt>
      <trkpt lat="36.978497" lon="128.254570"><ele>673.9</ele></trkpt>
      <trkpt lat="36.978402" lon="128.254778"><ele>667.3</ele></trkpt>
      <trkpt lat="36.978339" lon="128.254795"><ele>664.6</ele></trkpt>
      <trkpt lat="36.978087" lon="128.254585"><ele>654.3</ele></trkpt>
      <trkpt lat="36.977945" lon="128.254315"><ele>643.6</ele></trkpt>
      <trkpt lat="36.977761" lon="128.254510"><ele>631.6</ele></trkpt>
      <trkpt lat="36.977550" lon="128.254446"><ele>619.7</ele></trkpt>
      <trkpt lat="36.977439" lon="128.254173"><ele>607.5</ele></trkpt>
      <trkpt lat="36.977480" lon="128.253837"><ele>596.6</ele></trkpt>
      <trkpt lat="36.977455" lon="128.253595"><ele>588.1</ele></trkpt>
      <trkpt lat="36.977336" lon="128.253368"><ele>573.0</ele></trkpt>
      <trkpt lat="36.977288" lon="128.253048"><ele>557.6</ele></trkpt>
      <trkpt lat="36.977043" lon="128.252928"><ele>547.1</ele></trkpt>
      <trkpt lat="36.976953" lon="128.252817"><ele>542.1</ele></trkpt>
      <trkpt lat="36.976831" lon="128.252812"><ele>539.7</ele></trkpt>
      <trkpt lat="36.976751" lon="128.252671"><ele>535.0</ele></trkpt>
      <trkpt lat="36.976632" lon="128.252611"><ele>529.7</ele></trkpt>
      <trkpt lat="36.976329" lon="128.251791"><ele>514.0</ele></trkpt>
      <trkpt lat="36.976106" lon="128.251448"><ele>503.0</ele></trkpt>
      <trkpt lat="36.976029" lon="128.250992"><ele>493.8</ele></trkpt>
      <trkpt lat="36.975810" lon="128.250686"><ele>483.9</ele></trkpt>
      <trkpt lat="36.975759" lon="128.249667"><ele>461.9</ele></trkpt>
      <trkpt lat="36.975579" lon="128.249409"><ele>452.8</ele></trkpt>
      <trkpt lat="36.975292" lon="128.248492"><ele>437.6</ele></trkpt>
      <trkpt lat="36.975116" lon="128.248352"><ele>432.7</ele></trkpt>
      <trkpt lat="36.975095" lon="128.248186"><ele>429.0</ele></trkpt>
      <trkpt lat="36.974773" lon="128.247671"><ele>422.1</ele></trkpt>
      <trkpt lat="36.974684" lon="128.247351"><ele>416.6</ele></trkpt>
      <trkpt lat="36.974577" lon="128.247238"><ele>416.4</ele></trkpt>
      <trkpt lat="36.974527" lon="128.246813"><ele>409.8</ele></trkpt>
      <trkpt lat="36.974463" lon="128.246683"><ele>407.3</ele></trkpt>
      <trkpt lat="36.974403" lon="128.246066"><ele>393.1</ele></trkpt>
      <trkpt lat="36.974272" lon="128.245619"><ele>395.9</ele></trkpt>
      <trkpt lat="36.974227" lon="128.245329"><ele>396.0</ele></trkpt>
      <trkpt lat="36.974262" lon="128.245079"><ele>392.3</ele></trkpt>
      <trkpt lat="36.974159" lon="128.244537"><ele>376.9</ele></trkpt>
      <trkpt lat="36.973919" lon="128.243828"><ele>365.7</ele></trkpt>
      <trkpt lat="36.973590" lon="128.243172"><ele>350.2</ele></trkpt>
      <trkpt lat="36.974080" lon="128.243424"><ele>361.8</ele></trkpt>
      <trkpt lat="36.974277" lon="128.243813"><ele>363.3</ele></trkpt>
      <trkpt lat="36.974305" lon="128.243971"><ele>364.1</ele></trkpt>
      <trkpt lat="36.974530" lon="128.244157"><ele>367.5</ele></trkpt>
      <trkpt lat="36.974823" lon="128.244988"><ele>379.7</ele></trkpt>
      <trkpt lat="36.974866" lon="128.245326"><ele>379.0</ele></trkpt>
      <trkpt lat="36.975018" lon="128.245659"><ele>382.9</ele></trkpt>
      <trkpt lat="36.975252" lon="128.245881"><ele>393.3</ele></trkpt>
      <trkpt lat="36.975391" lon="128.245868"><ele>400.3</ele></trkpt>
      <trkpt lat="36.975676" lon="128.246211"><ele>407.9</ele></trkpt>
      <trkpt lat="36.975845" lon="128.246275"><ele>412.0</ele></trkpt>
      <trkpt lat="36.975968" lon="128.246466"><ele>412.4</ele></trkpt>
      <trkpt lat="36.976658" lon="128.246772"><ele>423.5</ele></trkpt>
      <trkpt lat="36.977080" lon="128.246675"><ele>434.4</ele></trkpt>
      <trkpt lat="36.977341" lon="128.246734"><ele>438.6</ele></trkpt>
      <trkpt lat="36.977500" lon="128.246648"><ele>440.5</ele></trkpt>
      <trkpt lat="36.977545" lon="128.246699"><ele>440.8</ele></trkpt>
      <trkpt lat="36.978035" lon="128.246820"><ele>451.4</ele></trkpt>
      <trkpt lat="36.978194" lon="128.246925"><ele>453.2</ele></trkpt>
      <trkpt lat="36.978487" lon="128.246989"><ele>459.6</ele></trkpt>
      <trkpt lat="36.978652" lon="128.247091"><ele>464.0</ele></trkpt>
      <trkpt lat="36.978785" lon="128.247279"><ele>470.2</ele></trkpt>
      <trkpt lat="36.979291" lon="128.247338"><ele>479.7</ele></trkpt>
      <trkpt lat="36.979548" lon="128.247560"><ele>486.6</ele></trkpt>
      <trkpt lat="36.979842" lon="128.247614"><ele>495.3</ele></trkpt>
      <trkpt lat="36.979972" lon="128.247786"><ele>499.6</ele></trkpt>
      <trkpt lat="36.980304" lon="128.247842"><ele>505.9</ele></trkpt>
      <trkpt lat="36.980482" lon="128.248116"><ele>510.5</ele></trkpt>
      <trkpt lat="36.980874" lon="128.248212"><ele>522.0</ele></trkpt>
      <trkpt lat="36.981029" lon="128.248357"><ele>524.6</ele></trkpt>
    </trkseg>
  </trk>
</gpx>
