<?xml version="1.0" encoding="UTF-8"?>
<gpx version="1.1" creator="kr-100-mountains route-harvester"
     xmlns="http://www.topografix.com/GPX/1/1"
     xmlns:k100="https://github.com/jay-jang/kr-100-mountains/ns/1"
     xmlns:xsi="http://www.w3.org/2001/XMLSchema-instance"
     xsi:schemaLocation="http://www.topografix.com/GPX/1/1 http://www.topografix.com/GPX/1/1/gpx.xsd">
  <metadata>
    <name>조계산 · 선암사-장군봉-송광사 종주 코스 (OSM 계산 경로)</name>
    <desc>실제 GPS 기록이 아닙니다. OpenStreetMap에 등록된 등산로 선형 위에서 계산한 경로이며, 현장 통제·훼손·출입 제한·계절 통제를 반영하지 않을 수 있습니다. 산행 전 공식 안내를 확인하세요.</desc>
    <time>2026-08-04T05:31:58.688Z</time>
    <link href="https://www.openstreetmap.org/copyright"><text>© OpenStreetMap contributors (ODbL 1.0)</text></link>
    <link href="https://registry.opendata.aws/terrain-tiles/"><text>Elevation: SRTM 1 arc-second (NASA/USGS) via AWS Terrain Tiles</text></link>
    <extensions>
      <k100:provenance>osm-routed</k100:provenance>
      <k100:not_a_recorded_track>true</k100:not_a_recorded_track>
      <k100:mountain_id>jogyesan</k100:mountain_id>
      <k100:mountain_name>조계산</k100:mountain_name>
      <k100:route_id>jogyesan-019b4800</k100:route_id>
      <k100:route_index>1</k100:route_index>
      <k100:route_name>선암사-장군봉-송광사 종주 코스</k100:route_name>
      <k100:variant>0</k100:variant>
      <k100:source>OpenStreetMap via Overpass API</k100:source>
      <k100:license>ODbL-1.0</k100:license>
      <k100:attribution>© OpenStreetMap contributors</k100:attribution>
      <k100:elevation_source>SRTM 1 arc-second (NASA/USGS) — AWS Terrain Tiles 배포본. 지형 DEM 추정 고도이며 실측 아님</k100:elevation_source>
      <k100:algorithm>dijkstra-grid-v1</k100:algorithm>
      <k100:osm_snapshot>2026-08-04</k100:osm_snapshot>
      <k100:snap_trailhead_m>6</k100:snap_trailhead_m>
      <k100:snap_summit_m>22</k100:snap_summit_m>
      <k100:validation_score>84</k100:validation_score>
      <k100:validation_status>accepted</k100:validation_status>
    </extensions>
  </metadata>
  <trk>
    <name>조계산 · 선암사-장군봉-송광사 종주 코스 (OSM 계산 경로)</name>
    <desc>실제 GPS 기록이 아닙니다. OpenStreetMap에 등록된 등산로 선형 위에서 계산한 경로이며, 현장 통제·훼손·출입 제한·계절 통제를 반영하지 않을 수 있습니다. 산행 전 공식 안내를 확인하세요.</desc>
    <trkseg>
      <trkpt lat="34.992061" lon="127.345046"><ele>155.0</ele></trkpt>
      <trkpt lat="34.992591" lon="127.344232"><ele>163.5</ele></trkpt>
      <trkpt lat="34.992485" lon="127.344126"><ele>161.7</ele></trkpt>
      <trkpt lat="34.992700" lon="127.343779"><ele>163.9</ele></trkpt>
      <trkpt lat="34.992896" lon="127.343068"><ele>166.9</ele></trkpt>
      <trkpt lat="34.992739" lon="127.341470"><ele>169.4</ele></trkpt>
      <trkpt lat="34.992868" lon="127.340909"><ele>174.0</ele></trkpt>
      <trkpt lat="34.992861" lon="127.340506"><ele>178.8</ele></trkpt>
      <trkpt lat="34.992767" lon="127.339619"><ele>179.2</ele></trkpt>
      <trkpt lat="34.992561" lon="127.339020"><ele>176.8</ele></trkpt>
      <trkpt lat="34.992556" lon="127.338368"><ele>182.1</ele></trkpt>
      <trkpt lat="34.992668" lon="127.338099"><ele>183.6</ele></trkpt>
      <trkpt lat="34.992872" lon="127.337793"><ele>183.2</ele></trkpt>
      <trkpt lat="34.993349" lon="127.337371"><ele>184.9</ele></trkpt>
      <trkpt lat="34.993721" lon="127.336730"><ele>190.9</ele></trkpt>
      <trkpt lat="34.994155" lon="127.336283"><ele>197.9</ele></trkpt>
      <trkpt lat="34.994296" lon="127.335936"><ele>200.3</ele></trkpt>
      <trkpt lat="34.994306" lon="127.335580"><ele>200.1</ele></trkpt>
      <trkpt lat="34.993906" lon="127.335001"><ele>199.2</ele></trkpt>
      <trkpt lat="34.993761" lon="127.334676"><ele>201.3</ele></trkpt>
      <trkpt lat="34.993648" lon="127.334279"><ele>202.8</ele></trkpt>
      <trkpt lat="34.993622" lon="127.333991"><ele>208.2</ele></trkpt>
      <trkpt lat="34.994021" lon="127.333450"><ele>217.5</ele></trkpt>
      <trkpt lat="34.994298" lon="127.333219"><ele>216.1</ele></trkpt>
      <trkpt lat="34.994445" lon="127.333031"><ele>215.0</ele></trkpt>
      <trkpt lat="34.994618" lon="127.332089"><ele>216.8</ele></trkpt>
      <trkpt lat="34.994691" lon="127.331977"><ele>218.4</ele></trkpt>
      <trkpt lat="34.994846" lon="127.331948"><ele>220.8</ele></trkpt>
      <trkpt lat="34.994870" lon="127.331521"><ele>226.3</ele></trkpt>
      <trkpt lat="34.994945" lon="127.331331"><ele>230.6</ele></trkpt>
      <trkpt lat="34.995055" lon="127.331095"><ele>234.8</ele></trkpt>
      <trkpt lat="34.995525" lon="127.330633"><ele>241.0</ele></trkpt>
      <trkpt lat="34.995619" lon="127.330585"><ele>241.6</ele></trkpt>
      <trkpt lat="34.995814" lon="127.330762"><ele>239.7</ele></trkpt>
      <trkpt lat="34.995944" lon="127.330797"><ele>239.7</ele></trkpt>
      <trkpt lat="34.996047" lon="127.330787"><ele>240.0</ele></trkpt>
      <trkpt lat="34.996285" lon="127.330642"><ele>241.1</ele></trkpt>
      <trkpt lat="34.996443" lon="127.330628"><ele>242.0</ele></trkpt>
      <trkpt lat="34.996524" lon="127.330685"><ele>242.1</ele></trkpt>
      <trkpt lat="34.996701" lon="127.330554"><ele>245.4</ele></trkpt>
      <trkpt lat="34.996783" lon="127.330667"><ele>244.6</ele></trkpt>
      <trkpt lat="34.996872" lon="127.330594"><ele>246.7</ele></trkpt>
      <trkpt lat="34.996946" lon="127.330599"><ele>247.4</ele></trkpt>
      <trkpt lat="34.997159" lon="127.330352"><ele>255.1</ele></trkpt>
      <trkpt lat="34.997445" lon="127.330196"><ele>260.6</ele></trkpt>
      <trkpt lat="34.997718" lon="127.330159"><ele>265.4</ele></trkpt>
      <trkpt lat="34.997918" lon="127.329880"><ele>274.5</ele></trkpt>
      <trkpt lat="34.998062" lon="127.330262"><ele>268.4</ele></trkpt>
      <trkpt lat="34.998175" lon="127.330424"><ele>267.4</ele></trkpt>
      <trkpt lat="34.998280" lon="127.329902"><ele>282.8</ele></trkpt>
      <trkpt lat="34.998631" lon="127.329553"><ele>303.2</ele></trkpt>
      <trkpt lat="34.999334" lon="127.328491"><ele>336.7</ele></trkpt>
      <trkpt lat="35.000103" lon="127.327697"><ele>359.5</ele></trkpt>
      <trkpt lat="35.000217" lon="127.327509"><ele>363.2</ele></trkpt>
      <trkpt lat="35.000323" lon="127.326994"><ele>383.6</ele></trkpt>
      <trkpt lat="35.000692" lon="127.326720"><ele>395.0</ele></trkpt>
      <trkpt lat="35.001329" lon="127.325170"><ele>453.6</ele></trkpt>
      <trkpt lat="35.001861" lon="127.324526"><ele>484.2</ele></trkpt>
      <trkpt lat="35.001914" lon="127.324373"><ele>495.0</ele></trkpt>
      <trkpt lat="35.001855" lon="127.324256"><ele>501.1</ele></trkpt>
      <trkpt lat="35.001949" lon="127.324044"><ele>517.1</ele></trkpt>
      <trkpt lat="35.001962" lon="127.323443"><ele>550.5</ele></trkpt>
      <trkpt lat="35.002169" lon="127.322128"><ele>612.2</ele></trkpt>
      <trkpt lat="35.002138" lon="127.321710"><ele>628.4</ele></trkpt>
      <trkpt lat="35.002199" lon="127.321217"><ele>641.3</ele></trkpt>
      <trkpt lat="35.002428" lon="127.320707"><ele>644.2</ele></trkpt>
      <trkpt lat="35.002652" lon="127.320331"><ele>647.0</ele></trkpt>
      <trkpt lat="35.002797" lon="127.319682"><ele>650.5</ele></trkpt>
      <trkpt lat="35.002744" lon="127.319516"><ele>650.0</ele></trkpt>
      <trkpt lat="35.002744" lon="127.319103"><ele>650.0</ele></trkpt>
      <trkpt lat="35.002480" lon="127.318180"><ele>672.0</ele></trkpt>
      <trkpt lat="35.002621" lon="127.317644"><ele>689.2</ele></trkpt>
      <trkpt lat="35.002256" lon="127.316877"><ele>723.4</ele></trkpt>
      <trkpt lat="35.002059" lon="127.316351"><ele>742.8</ele></trkpt>
      <trkpt lat="35.001958" lon="127.315396"><ele>794.6</ele></trkpt>
      <trkpt lat="35.001720" lon="127.314897"><ele>821.0</ele></trkpt>
      <trkpt lat="35.001700" lon="127.314583"><ele>832.1</ele></trkpt>
      <trkpt lat="35.001551" lon="127.314106"><ele>860.2</ele></trkpt>
      <trkpt lat="35.001311" lon="127.313638"><ele>871.3</ele></trkpt>
      <trkpt lat="35.001529" lon="127.313521"><ele>869.2</ele></trkpt>
      <trkpt lat="35.001595" lon="127.313385"><ele>866.9</ele></trkpt>
      <trkpt lat="35.002393" lon="127.313586"><ele>850.1</ele></trkpt>
    </trkseg>
  </trk>
</gpx>
