<?xml version="1.0" encoding="UTF-8"?>
<gpx version="1.1" creator="kr-100-mountains route-harvester"
     xmlns="http://www.topografix.com/GPX/1/1"
     xmlns:k100="https://github.com/jay-jang/kr-100-mountains/ns/1"
     xmlns:xsi="http://www.w3.org/2001/XMLSchema-instance"
     xsi:schemaLocation="http://www.topografix.com/GPX/1/1 http://www.topografix.com/GPX/1/1/gpx.xsd">
  <metadata>
    <name>조계산 · 선암사-장군봉-송광사 종주 코스 (대안 2) (OSM 계산 경로)</name>
    <desc>실제 GPS 기록이 아닙니다. OpenStreetMap에 등록된 등산로 선형 위에서 계산한 경로이며, 현장 통제·훼손·출입 제한·계절 통제를 반영하지 않을 수 있습니다. 산행 전 공식 안내를 확인하세요.</desc>
    <time>2026-08-04T05:31:58.690Z</time>
    <link href="https://www.openstreetmap.org/copyright"><text>© OpenStreetMap contributors (ODbL 1.0)</text></link>
    <link href="https://registry.opendata.aws/terrain-tiles/"><text>Elevation: SRTM 1 arc-second (NASA/USGS) via AWS Terrain Tiles</text></link>
    <extensions>
      <k100:provenance>osm-routed</k100:provenance>
      <k100:not_a_recorded_track>true</k100:not_a_recorded_track>
      <k100:mountain_id>jogyesan</k100:mountain_id>
      <k100:mountain_name>조계산</k100:mountain_name>
      <k100:route_id>jogyesan-019b4800</k100:route_id>
      <k100:route_index>1</k100:route_index>
      <k100:route_name>선암사-장군봉-송광사 종주 코스</k100:route_name>
      <k100:variant>2</k100:variant>
      <k100:source>OpenStreetMap via Overpass API</k100:source>
      <k100:license>ODbL-1.0</k100:license>
      <k100:attribution>© OpenStreetMap contributors</k100:attribution>
      <k100:elevation_source>SRTM 1 arc-second (NASA/USGS) — AWS Terrain Tiles 배포본. 지형 DEM 추정 고도이며 실측 아님</k100:elevation_source>
      <k100:algorithm>dijkstra-grid-v1</k100:algorithm>
      <k100:osm_snapshot>2026-08-04</k100:osm_snapshot>
      <k100:snap_trailhead_m>6</k100:snap_trailhead_m>
      <k100:snap_summit_m>22</k100:snap_summit_m>
      <k100:validation_score>93</k100:validation_score>
      <k100:validation_status>accepted</k100:validation_status>
    </extensions>
  </metadata>
  <trk>
    <name>조계산 · 선암사-장군봉-송광사 종주 코스 (대안 2) (OSM 계산 경로)</name>
    <desc>실제 GPS 기록이 아닙니다. OpenStreetMap에 등록된 등산로 선형 위에서 계산한 경로이며, 현장 통제·훼손·출입 제한·계절 통제를 반영하지 않을 수 있습니다. 산행 전 공식 안내를 확인하세요.</desc>
    <trkseg>
      <trkpt lat="34.992061" lon="127.345046"><ele>155.0</ele></trkpt>
      <trkpt lat="34.991931" lon="127.344936"><ele>153.9</ele></trkpt>
      <trkpt lat="34.992624" lon="127.343901"><ele>162.7</ele></trkpt>
      <trkpt lat="34.992517" lon="127.343789"><ele>160.0</ele></trkpt>
      <trkpt lat="34.992700" lon="127.343779"><ele>163.9</ele></trkpt>
      <trkpt lat="34.992896" lon="127.343068"><ele>166.9</ele></trkpt>
      <trkpt lat="34.992739" lon="127.341470"><ele>169.4</ele></trkpt>
      <trkpt lat="34.992868" lon="127.340909"><ele>174.0</ele></trkpt>
      <trkpt lat="34.992861" lon="127.340506"><ele>178.8</ele></trkpt>
      <trkpt lat="34.992767" lon="127.339619"><ele>179.2</ele></trkpt>
      <trkpt lat="34.992561" lon="127.339020"><ele>176.8</ele></trkpt>
      <trkpt lat="34.992556" lon="127.338368"><ele>182.1</ele></trkpt>
      <trkpt lat="34.992668" lon="127.338099"><ele>183.6</ele></trkpt>
      <trkpt lat="34.992872" lon="127.337793"><ele>183.2</ele></trkpt>
      <trkpt lat="34.993349" lon="127.337371"><ele>184.9</ele></trkpt>
      <trkpt lat="34.993721" lon="127.336730"><ele>190.9</ele></trkpt>
      <trkpt lat="34.994155" lon="127.336283"><ele>197.9</ele></trkpt>
      <trkpt lat="34.994245" lon="127.336097"><ele>199.4</ele></trkpt>
      <trkpt lat="34.994296" lon="127.335936"><ele>200.3</ele></trkpt>
      <trkpt lat="34.994306" lon="127.335580"><ele>200.1</ele></trkpt>
      <trkpt lat="34.993906" lon="127.335001"><ele>199.2</ele></trkpt>
      <trkpt lat="34.993761" lon="127.334676"><ele>201.3</ele></trkpt>
      <trkpt lat="34.993648" lon="127.334279"><ele>202.8</ele></trkpt>
      <trkpt lat="34.993622" lon="127.333991"><ele>208.2</ele></trkpt>
      <trkpt lat="34.994021" lon="127.333450"><ele>217.5</ele></trkpt>
      <trkpt lat="34.994429" lon="127.333163"><ele>215.8</ele></trkpt>
      <trkpt lat="34.994618" lon="127.332089"><ele>216.8</ele></trkpt>
      <trkpt lat="34.994691" lon="127.331977"><ele>218.4</ele></trkpt>
      <trkpt lat="34.994846" lon="127.331948"><ele>220.8</ele></trkpt>
      <trkpt lat="34.994870" lon="127.331521"><ele>226.3</ele></trkpt>
      <trkpt lat="34.994580" lon="127.331341"><ele>223.3</ele></trkpt>
      <trkpt lat="34.994471" lon="127.331158"><ele>221.6</ele></trkpt>
      <trkpt lat="34.994380" lon="127.330771"><ele>227.9</ele></trkpt>
      <trkpt lat="34.994123" lon="127.330217"><ele>226.9</ele></trkpt>
      <trkpt lat="34.994191" lon="127.329920"><ele>233.2</ele></trkpt>
      <trkpt lat="34.993863" lon="127.329188"><ele>239.3</ele></trkpt>
      <trkpt lat="34.993784" lon="127.328888"><ele>240.1</ele></trkpt>
      <trkpt lat="34.993753" lon="127.328021"><ele>253.7</ele></trkpt>
      <trkpt lat="34.993349" lon="127.327128"><ele>265.1</ele></trkpt>
      <trkpt lat="34.993327" lon="127.326527"><ele>273.0</ele></trkpt>
      <trkpt lat="34.993164" lon="127.325964"><ele>278.3</ele></trkpt>
      <trkpt lat="34.993162" lon="127.325344"><ele>292.4</ele></trkpt>
      <trkpt lat="34.993248" lon="127.324937"><ele>301.1</ele></trkpt>
      <trkpt lat="34.993283" lon="127.324440"><ele>310.0</ele></trkpt>
      <trkpt lat="34.993252" lon="127.324290"><ele>311.1</ele></trkpt>
      <trkpt lat="34.993099" lon="127.324003"><ele>312.7</ele></trkpt>
      <trkpt lat="34.993169" lon="127.321914"><ele>340.3</ele></trkpt>
      <trkpt lat="34.993228" lon="127.321536"><ele>344.6</ele></trkpt>
      <trkpt lat="34.993536" lon="127.320640"><ele>367.8</ele></trkpt>
      <trkpt lat="34.993573" lon="127.320020"><ele>374.6</ele></trkpt>
      <trkpt lat="34.993806" lon="127.319747"><ele>381.0</ele></trkpt>
      <trkpt lat="34.993914" lon="127.319468"><ele>386.9</ele></trkpt>
      <trkpt lat="34.994305" lon="127.317298"><ele>432.8</ele></trkpt>
      <trkpt lat="34.994397" lon="127.317118"><ele>436.1</ele></trkpt>
      <trkpt lat="34.994744" lon="127.316941"><ele>447.7</ele></trkpt>
      <trkpt lat="34.994905" lon="127.316743"><ele>456.6</ele></trkpt>
      <trkpt lat="34.995008" lon="127.316488"><ele>463.2</ele></trkpt>
      <trkpt lat="34.995036" lon="127.315954"><ele>469.9</ele></trkpt>
      <trkpt lat="34.995006" lon="127.315629"><ele>475.3</ele></trkpt>
      <trkpt lat="34.995078" lon="127.315318"><ele>484.8</ele></trkpt>
      <trkpt lat="34.995072" lon="127.315173"><ele>488.3</ele></trkpt>
      <trkpt lat="34.995001" lon="127.314940"><ele>493.5</ele></trkpt>
      <trkpt lat="34.994865" lon="127.314739"><ele>498.5</ele></trkpt>
      <trkpt lat="34.994867" lon="127.314409"><ele>508.4</ele></trkpt>
      <trkpt lat="34.995263" lon="127.313690"><ele>528.9</ele></trkpt>
      <trkpt lat="34.995272" lon="127.313462"><ele>536.8</ele></trkpt>
      <trkpt lat="34.995443" lon="127.313076"><ele>554.6</ele></trkpt>
      <trkpt lat="34.995632" lon="127.312808"><ele>565.9</ele></trkpt>
      <trkpt lat="34.995821" lon="127.312679"><ele>575.2</ele></trkpt>
      <trkpt lat="34.996113" lon="127.312601"><ele>586.9</ele></trkpt>
      <trkpt lat="34.996159" lon="127.312443"><ele>592.8</ele></trkpt>
      <trkpt lat="34.996159" lon="127.312336"><ele>595.5</ele></trkpt>
      <trkpt lat="34.995759" lon="127.311536"><ele>619.9</ele></trkpt>
      <trkpt lat="34.995551" lon="127.310899"><ele>640.7</ele></trkpt>
      <trkpt lat="34.995563" lon="127.310712"><ele>640.9</ele></trkpt>
      <trkpt lat="34.996148" lon="127.310698"><ele>661.5</ele></trkpt>
      <trkpt lat="34.996320" lon="127.310791"><ele>670.1</ele></trkpt>
      <trkpt lat="34.996441" lon="127.310746"><ele>674.2</ele></trkpt>
      <trkpt lat="34.996672" lon="127.310891"><ele>682.7</ele></trkpt>
      <trkpt lat="34.997574" lon="127.310826"><ele>704.7</ele></trkpt>
      <trkpt lat="34.997983" lon="127.310908"><ele>716.3</ele></trkpt>
      <trkpt lat="34.998035" lon="127.311017"><ele>720.2</ele></trkpt>
      <trkpt lat="34.998081" lon="127.310989"><ele>720.8</ele></trkpt>
      <trkpt lat="34.998099" lon="127.311044"><ele>722.8</ele></trkpt>
      <trkpt lat="34.998269" lon="127.311067"><ele>729.3</ele></trkpt>
      <trkpt lat="34.998333" lon="127.311172"><ele>735.0</ele></trkpt>
      <trkpt lat="34.998521" lon="127.311194"><ele>746.0</ele></trkpt>
      <trkpt lat="34.998942" lon="127.311375"><ele>765.6</ele></trkpt>
      <trkpt lat="34.998984" lon="127.311461"><ele>768.8</ele></trkpt>
      <trkpt lat="34.999043" lon="127.311476"><ele>769.8</ele></trkpt>
      <trkpt lat="34.999041" lon="127.311606"><ele>774.5</ele></trkpt>
      <trkpt lat="34.999083" lon="127.311585"><ele>774.3</ele></trkpt>
      <trkpt lat="34.999225" lon="127.311827"><ele>784.2</ele></trkpt>
      <trkpt lat="34.999290" lon="127.311956"><ele>789.3</ele></trkpt>
      <trkpt lat="34.999261" lon="127.312004"><ele>789.7</ele></trkpt>
      <trkpt lat="34.999562" lon="127.312042"><ele>799.0</ele></trkpt>
      <trkpt lat="34.999711" lon="127.312166"><ele>804.4</ele></trkpt>
      <trkpt lat="34.999813" lon="127.312341"><ele>808.6</ele></trkpt>
      <trkpt lat="35.000083" lon="127.312482"><ele>814.8</ele></trkpt>
      <trkpt lat="35.000211" lon="127.312679"><ele>822.9</ele></trkpt>
      <trkpt lat="35.000424" lon="127.312846"><ele>836.4</ele></trkpt>
      <trkpt lat="35.000522" lon="127.313022"><ele>846.9</ele></trkpt>
      <trkpt lat="35.000773" lon="127.313200"><ele>857.0</ele></trkpt>
      <trkpt lat="35.001101" lon="127.313345"><ele>866.0</ele></trkpt>
      <trkpt lat="35.001202" lon="127.313561"><ele>869.9</ele></trkpt>
      <trkpt lat="35.001311" lon="127.313638"><ele>871.3</ele></trkpt>
      <trkpt lat="35.001529" lon="127.313521"><ele>869.2</ele></trkpt>
      <trkpt lat="35.001595" lon="127.313385"><ele>866.9</ele></trkpt>
      <trkpt lat="35.002393" lon="127.313586"><ele>850.1</ele></trkpt>
    </trkseg>
  </trk>
</gpx>
