<?xml version="1.0" encoding="UTF-8"?>
<gpx version="1.1" creator="kr-100-mountains route-harvester"
     xmlns="http://www.topografix.com/GPX/1/1"
     xmlns:k100="https://github.com/jay-jang/kr-100-mountains/ns/1"
     xmlns:xsi="http://www.w3.org/2001/XMLSchema-instance"
     xsi:schemaLocation="http://www.topografix.com/GPX/1/1 http://www.topografix.com/GPX/1/1/gpx.xsd">
  <metadata>
    <name>조계산 · 선암사-장군봉-송광사 종주 코스 (대안 1) (OSM 계산 경로)</name>
    <desc>실제 GPS 기록이 아닙니다. OpenStreetMap에 등록된 등산로 선형 위에서 계산한 경로이며, 현장 통제·훼손·출입 제한·계절 통제를 반영하지 않을 수 있습니다. 산행 전 공식 안내를 확인하세요.</desc>
    <time>2026-08-04T05:31:58.689Z</time>
    <link href="https://www.openstreetmap.org/copyright"><text>© OpenStreetMap contributors (ODbL 1.0)</text></link>
    <link href="https://registry.opendata.aws/terrain-tiles/"><text>Elevation: SRTM 1 arc-second (NASA/USGS) via AWS Terrain Tiles</text></link>
    <extensions>
      <k100:provenance>osm-routed</k100:provenance>
      <k100:not_a_recorded_track>true</k100:not_a_recorded_track>
      <k100:mountain_id>jogyesan</k100:mountain_id>
      <k100:mountain_name>조계산</k100:mountain_name>
      <k100:route_id>jogyesan-019b4800</k100:route_id>
      <k100:route_index>1</k100:route_index>
      <k100:route_name>선암사-장군봉-송광사 종주 코스</k100:route_name>
      <k100:variant>1</k100:variant>
      <k100:source>OpenStreetMap via Overpass API</k100:source>
      <k100:license>ODbL-1.0</k100:license>
      <k100:attribution>© OpenStreetMap contributors</k100:attribution>
      <k100:elevation_source>SRTM 1 arc-second (NASA/USGS) — AWS Terrain Tiles 배포본. 지형 DEM 추정 고도이며 실측 아님</k100:elevation_source>
      <k100:algorithm>dijkstra-grid-v1</k100:algorithm>
      <k100:osm_snapshot>2026-08-04</k100:osm_snapshot>
      <k100:snap_trailhead_m>6</k100:snap_trailhead_m>
      <k100:snap_summit_m>22</k100:snap_summit_m>
      <k100:validation_score>93</k100:validation_score>
      <k100:validation_status>accepted</k100:validation_status>
    </extensions>
  </metadata>
  <trk>
    <name>조계산 · 선암사-장군봉-송광사 종주 코스 (대안 1) (OSM 계산 경로)</name>
    <desc>실제 GPS 기록이 아닙니다. OpenStreetMap에 등록된 등산로 선형 위에서 계산한 경로이며, 현장 통제·훼손·출입 제한·계절 통제를 반영하지 않을 수 있습니다. 산행 전 공식 안내를 확인하세요.</desc>
    <trkseg>
      <trkpt lat="34.992061" lon="127.345046"><ele>155.0</ele></trkpt>
      <trkpt lat="34.991931" lon="127.344936"><ele>153.9</ele></trkpt>
      <trkpt lat="34.992104" lon="127.344669"><ele>155.8</ele></trkpt>
      <trkpt lat="34.991815" lon="127.344374"><ele>156.6</ele></trkpt>
      <trkpt lat="34.991755" lon="127.344231"><ele>157.2</ele></trkpt>
      <trkpt lat="34.991852" lon="127.343231"><ele>163.8</ele></trkpt>
      <trkpt lat="34.992050" lon="127.342944"><ele>161.3</ele></trkpt>
      <trkpt lat="34.992057" lon="127.342860"><ele>160.6</ele></trkpt>
      <trkpt lat="34.991964" lon="127.342646"><ele>160.0</ele></trkpt>
      <trkpt lat="34.991952" lon="127.342342"><ele>161.1</ele></trkpt>
      <trkpt lat="34.992010" lon="127.342170"><ele>162.3</ele></trkpt>
      <trkpt lat="34.992277" lon="127.342033"><ele>163.3</ele></trkpt>
      <trkpt lat="34.992379" lon="127.341931"><ele>164.7</ele></trkpt>
      <trkpt lat="34.992499" lon="127.341651"><ele>167.1</ele></trkpt>
      <trkpt lat="34.992739" lon="127.341470"><ele>169.4</ele></trkpt>
      <trkpt lat="34.992868" lon="127.340909"><ele>174.0</ele></trkpt>
      <trkpt lat="34.992767" lon="127.339619"><ele>179.2</ele></trkpt>
      <trkpt lat="34.992561" lon="127.339020"><ele>176.8</ele></trkpt>
      <trkpt lat="34.992556" lon="127.338368"><ele>182.1</ele></trkpt>
      <trkpt lat="34.992668" lon="127.338099"><ele>183.6</ele></trkpt>
      <trkpt lat="34.992872" lon="127.337793"><ele>183.2</ele></trkpt>
      <trkpt lat="34.993349" lon="127.337371"><ele>184.9</ele></trkpt>
      <trkpt lat="34.993721" lon="127.336730"><ele>190.9</ele></trkpt>
      <trkpt lat="34.994155" lon="127.336283"><ele>197.9</ele></trkpt>
      <trkpt lat="34.994296" lon="127.335936"><ele>200.3</ele></trkpt>
      <trkpt lat="34.994306" lon="127.335580"><ele>200.1</ele></trkpt>
      <trkpt lat="34.993906" lon="127.335001"><ele>199.2</ele></trkpt>
      <trkpt lat="34.993761" lon="127.334676"><ele>201.3</ele></trkpt>
      <trkpt lat="34.993540" lon="127.333740"><ele>215.3</ele></trkpt>
      <trkpt lat="34.993561" lon="127.333623"><ele>217.8</ele></trkpt>
      <trkpt lat="34.993713" lon="127.333383"><ele>223.9</ele></trkpt>
      <trkpt lat="34.993841" lon="127.333305"><ele>221.5</ele></trkpt>
      <trkpt lat="34.993935" lon="127.333276"><ele>219.7</ele></trkpt>
      <trkpt lat="34.994021" lon="127.333450"><ele>217.5</ele></trkpt>
      <trkpt lat="34.994370" lon="127.333140"><ele>215.7</ele></trkpt>
      <trkpt lat="34.994445" lon="127.333031"><ele>215.0</ele></trkpt>
      <trkpt lat="34.994618" lon="127.332089"><ele>216.8</ele></trkpt>
      <trkpt lat="34.994691" lon="127.331977"><ele>218.4</ele></trkpt>
      <trkpt lat="34.994953" lon="127.331967"><ele>222.2</ele></trkpt>
      <trkpt lat="34.995034" lon="127.331908"><ele>224.0</ele></trkpt>
      <trkpt lat="34.995219" lon="127.331599"><ele>231.7</ele></trkpt>
      <trkpt lat="34.995660" lon="127.331390"><ele>236.6</ele></trkpt>
      <trkpt lat="34.995775" lon="127.331615"><ele>233.8</ele></trkpt>
      <trkpt lat="34.995942" lon="127.331656"><ele>233.1</ele></trkpt>
      <trkpt lat="34.996019" lon="127.331491"><ele>234.5</ele></trkpt>
      <trkpt lat="34.995678" lon="127.330937"><ele>238.1</ele></trkpt>
      <trkpt lat="34.995814" lon="127.330762"><ele>239.7</ele></trkpt>
      <trkpt lat="34.995619" lon="127.330585"><ele>241.6</ele></trkpt>
      <trkpt lat="34.995661" lon="127.330340"><ele>247.9</ele></trkpt>
      <trkpt lat="34.995638" lon="127.330275"><ele>249.8</ele></trkpt>
      <trkpt lat="34.995409" lon="127.330138"><ele>254.3</ele></trkpt>
      <trkpt lat="34.995399" lon="127.329056"><ele>276.1</ele></trkpt>
      <trkpt lat="34.995344" lon="127.328563"><ele>285.0</ele></trkpt>
      <trkpt lat="34.995389" lon="127.327603"><ele>293.8</ele></trkpt>
      <trkpt lat="34.995346" lon="127.327152"><ele>295.5</ele></trkpt>
      <trkpt lat="34.995274" lon="127.326898"><ele>299.7</ele></trkpt>
      <trkpt lat="34.995427" lon="127.326633"><ele>303.7</ele></trkpt>
      <trkpt lat="34.995882" lon="127.326638"><ele>304.6</ele></trkpt>
      <trkpt lat="34.996037" lon="127.326510"><ele>310.6</ele></trkpt>
      <trkpt lat="34.996074" lon="127.326254"><ele>316.8</ele></trkpt>
      <trkpt lat="34.995973" lon="127.326042"><ele>319.9</ele></trkpt>
      <trkpt lat="34.995946" lon="127.325837"><ele>324.8</ele></trkpt>
      <trkpt lat="34.996138" lon="127.325535"><ele>338.4</ele></trkpt>
      <trkpt lat="34.996114" lon="127.325358"><ele>341.3</ele></trkpt>
      <trkpt lat="34.996247" lon="127.324974"><ele>349.0</ele></trkpt>
      <trkpt lat="34.996439" lon="127.324722"><ele>358.6</ele></trkpt>
      <trkpt lat="34.996702" lon="127.324676"><ele>367.4</ele></trkpt>
      <trkpt lat="34.996897" lon="127.324493"><ele>374.8</ele></trkpt>
      <trkpt lat="34.996907" lon="127.324404"><ele>377.0</ele></trkpt>
      <trkpt lat="34.996705" lon="127.324222"><ele>375.2</ele></trkpt>
      <trkpt lat="34.996680" lon="127.324127"><ele>375.7</ele></trkpt>
      <trkpt lat="34.996912" lon="127.324070"><ele>384.2</ele></trkpt>
      <trkpt lat="34.996982" lon="127.323991"><ele>387.4</ele></trkpt>
      <trkpt lat="34.997092" lon="127.324005"><ele>390.0</ele></trkpt>
      <trkpt lat="34.997094" lon="127.323925"><ele>390.9</ele></trkpt>
      <trkpt lat="34.997191" lon="127.323879"><ele>393.3</ele></trkpt>
      <trkpt lat="34.997339" lon="127.323887"><ele>397.8</ele></trkpt>
      <trkpt lat="34.997503" lon="127.323727"><ele>404.3</ele></trkpt>
      <trkpt lat="34.997592" lon="127.323745"><ele>408.2</ele></trkpt>
      <trkpt lat="34.997624" lon="127.323806"><ele>409.3</ele></trkpt>
      <trkpt lat="34.997771" lon="127.323805"><ele>416.0</ele></trkpt>
      <trkpt lat="34.998435" lon="127.323428"><ele>441.3</ele></trkpt>
      <trkpt lat="34.998827" lon="127.323403"><ele>458.0</ele></trkpt>
      <trkpt lat="34.998930" lon="127.323443"><ele>461.4</ele></trkpt>
      <trkpt lat="34.999249" lon="127.323358"><ele>470.6</ele></trkpt>
      <trkpt lat="34.999583" lon="127.323088"><ele>482.9</ele></trkpt>
      <trkpt lat="34.999679" lon="127.323072"><ele>487.6</ele></trkpt>
      <trkpt lat="34.999704" lon="127.322676"><ele>497.6</ele></trkpt>
      <trkpt lat="34.999834" lon="127.322694"><ele>505.7</ele></trkpt>
      <trkpt lat="34.999874" lon="127.322815"><ele>506.8</ele></trkpt>
      <trkpt lat="35.000042" lon="127.322792"><ele>518.0</ele></trkpt>
      <trkpt lat="35.000170" lon="127.322672"><ele>521.9</ele></trkpt>
      <trkpt lat="35.000215" lon="127.322682"><ele>523.5</ele></trkpt>
      <trkpt lat="35.000272" lon="127.322572"><ele>523.9</ele></trkpt>
      <trkpt lat="35.000372" lon="127.322546"><ele>527.1</ele></trkpt>
      <trkpt lat="35.000661" lon="127.322234"><ele>538.9</ele></trkpt>
      <trkpt lat="35.000917" lon="127.322080"><ele>554.9</ele></trkpt>
      <trkpt lat="35.001150" lon="127.322104"><ele>568.4</ele></trkpt>
      <trkpt lat="35.001170" lon="127.321981"><ele>573.3</ele></trkpt>
      <trkpt lat="35.000993" lon="127.321821"><ele>564.5</ele></trkpt>
      <trkpt lat="35.000981" lon="127.321757"><ele>564.5</ele></trkpt>
      <trkpt lat="35.001126" lon="127.321577"><ele>575.6</ele></trkpt>
      <trkpt lat="35.001171" lon="127.321341"><ele>577.8</ele></trkpt>
      <trkpt lat="35.001260" lon="127.321324"><ele>583.7</ele></trkpt>
      <trkpt lat="35.001337" lon="127.320696"><ele>584.7</ele></trkpt>
      <trkpt lat="35.001398" lon="127.320634"><ele>587.4</ele></trkpt>
      <trkpt lat="35.001485" lon="127.320236"><ele>590.3</ele></trkpt>
      <trkpt lat="35.001557" lon="127.320164"><ele>595.2</ele></trkpt>
      <trkpt lat="35.001618" lon="127.319885"><ele>601.6</ele></trkpt>
      <trkpt lat="35.001581" lon="127.319242"><ele>612.3</ele></trkpt>
      <trkpt lat="35.001612" lon="127.318585"><ele>636.7</ele></trkpt>
      <trkpt lat="35.001524" lon="127.318452"><ele>643.7</ele></trkpt>
      <trkpt lat="35.001096" lon="127.318469"><ele>643.9</ele></trkpt>
      <trkpt lat="35.001061" lon="127.318429"><ele>646.2</ele></trkpt>
      <trkpt lat="35.001144" lon="127.318278"><ele>653.4</ele></trkpt>
      <trkpt lat="35.001063" lon="127.318285"><ele>653.6</ele></trkpt>
      <trkpt lat="35.000792" lon="127.318092"><ele>666.5</ele></trkpt>
      <trkpt lat="35.000542" lon="127.318074"><ele>669.5</ele></trkpt>
      <trkpt lat="35.000332" lon="127.317962"><ele>682.0</ele></trkpt>
      <trkpt lat="35.000375" lon="127.317872"><ele>685.3</ele></trkpt>
      <trkpt lat="35.000533" lon="127.317799"><ele>684.5</ele></trkpt>
      <trkpt lat="35.000516" lon="127.317537"><ele>697.0</ele></trkpt>
      <trkpt lat="35.000358" lon="127.317400"><ele>706.4</ele></trkpt>
      <trkpt lat="35.000278" lon="127.317392"><ele>708.1</ele></trkpt>
      <trkpt lat="35.000153" lon="127.317474"><ele>705.4</ele></trkpt>
      <trkpt lat="34.999959" lon="127.317429"><ele>707.0</ele></trkpt>
      <trkpt lat="34.999921" lon="127.317310"><ele>709.5</ele></trkpt>
      <trkpt lat="35.000000" lon="127.317137"><ele>719.6</ele></trkpt>
      <trkpt lat="34.999919" lon="127.316955"><ele>725.4</ele></trkpt>
      <trkpt lat="35.000094" lon="127.316812"><ele>734.3</ele></trkpt>
      <trkpt lat="35.000217" lon="127.316593"><ele>742.0</ele></trkpt>
      <trkpt lat="35.000184" lon="127.316520"><ele>743.2</ele></trkpt>
      <trkpt lat="35.000215" lon="127.316259"><ele>750.9</ele></trkpt>
      <trkpt lat="35.000378" lon="127.315913"><ele>763.4</ele></trkpt>
      <trkpt lat="35.000453" lon="127.315631"><ele>774.8</ele></trkpt>
      <trkpt lat="35.000451" lon="127.315209"><ele>802.1</ele></trkpt>
      <trkpt lat="35.000638" lon="127.315055"><ele>814.4</ele></trkpt>
      <trkpt lat="35.000590" lon="127.314912"><ele>818.9</ele></trkpt>
      <trkpt lat="35.000673" lon="127.314534"><ele>831.7</ele></trkpt>
      <trkpt lat="35.000757" lon="127.314471"><ele>836.0</ele></trkpt>
      <trkpt lat="35.000734" lon="127.314447"><ele>836.4</ele></trkpt>
      <trkpt lat="35.000857" lon="127.314296"><ele>845.5</ele></trkpt>
      <trkpt lat="35.000876" lon="127.314186"><ele>850.6</ele></trkpt>
      <trkpt lat="35.001047" lon="127.314059"><ele>860.7</ele></trkpt>
      <trkpt lat="35.001230" lon="127.313672"><ele>870.5</ele></trkpt>
      <trkpt lat="35.001529" lon="127.313521"><ele>869.2</ele></trkpt>
      <trkpt lat="35.001595" lon="127.313385"><ele>866.9</ele></trkpt>
      <trkpt lat="35.002393" lon="127.313586"><ele>850.1</ele></trkpt>
    </trkseg>
  </trk>
</gpx>
