<?xml version="1.0" encoding="UTF-8"?>
<gpx version="1.1" creator="kr-100-mountains route-harvester"
     xmlns="http://www.topografix.com/GPX/1/1"
     xmlns:k100="https://github.com/jay-jang/kr-100-mountains/ns/1"
     xmlns:xsi="http://www.w3.org/2001/XMLSchema-instance"
     xsi:schemaLocation="http://www.topografix.com/GPX/1/1 http://www.topografix.com/GPX/1/1/gpx.xsd">
  <metadata>
    <name>남산제일봉 · 청량사-남산제일봉 코스 (대안 1) (OSM 계산 경로)</name>
    <desc>실제 GPS 기록이 아닙니다. OpenStreetMap에 등록된 등산로 선형 위에서 계산한 경로이며, 현장 통제·훼손·출입 제한·계절 통제를 반영하지 않을 수 있습니다. 산행 전 공식 안내를 확인하세요.</desc>
    <time>2026-08-04T05:42:30.745Z</time>
    <link href="https://www.openstreetmap.org/copyright"><text>© OpenStreetMap contributors (ODbL 1.0)</text></link>
    <link href="https://registry.opendata.aws/terrain-tiles/"><text>Elevation: SRTM 1 arc-second (NASA/USGS) via AWS Terrain Tiles</text></link>
    <extensions>
      <k100:provenance>osm-routed</k100:provenance>
      <k100:not_a_recorded_track>true</k100:not_a_recorded_track>
      <k100:mountain_id>namsanjeilbong</k100:mountain_id>
      <k100:mountain_name>남산제일봉</k100:mountain_name>
      <k100:route_id>namsanjeilbong-cf79d7e0</k100:route_id>
      <k100:route_index>1</k100:route_index>
      <k100:route_name>청량사-남산제일봉 코스</k100:route_name>
      <k100:variant>1</k100:variant>
      <k100:source>OpenStreetMap via Overpass API</k100:source>
      <k100:license>ODbL-1.0</k100:license>
      <k100:attribution>© OpenStreetMap contributors</k100:attribution>
      <k100:elevation_source>SRTM 1 arc-second (NASA/USGS) — AWS Terrain Tiles 배포본. 지형 DEM 추정 고도이며 실측 아님</k100:elevation_source>
      <k100:algorithm>dijkstra-grid-v1</k100:algorithm>
      <k100:osm_snapshot>2026-08-04</k100:osm_snapshot>
      <k100:snap_trailhead_m>22</k100:snap_trailhead_m>
      <k100:snap_summit_m>5</k100:snap_summit_m>
      <k100:validation_score>75</k100:validation_score>
      <k100:validation_status>review</k100:validation_status>
    </extensions>
  </metadata>
  <trk>
    <name>남산제일봉 · 청량사-남산제일봉 코스 (대안 1) (OSM 계산 경로)</name>
    <desc>실제 GPS 기록이 아닙니다. OpenStreetMap에 등록된 등산로 선형 위에서 계산한 경로이며, 현장 통제·훼손·출입 제한·계절 통제를 반영하지 않을 수 있습니다. 산행 전 공식 안내를 확인하세요.</desc>
    <trkseg>
      <trkpt lat="35.795642" lon="128.082549"><ele>622.4</ele></trkpt>
      <trkpt lat="35.795430" lon="128.082841"><ele>622.0</ele></trkpt>
      <trkpt lat="35.795090" lon="128.083488"><ele>615.7</ele></trkpt>
      <trkpt lat="35.794907" lon="128.083756"><ele>615.1</ele></trkpt>
      <trkpt lat="35.794740" lon="128.083898"><ele>614.2</ele></trkpt>
      <trkpt lat="35.794687" lon="128.084363"><ele>598.8</ele></trkpt>
      <trkpt lat="35.794001" lon="128.085128"><ele>590.4</ele></trkpt>
      <trkpt lat="35.793818" lon="128.085418"><ele>590.8</ele></trkpt>
      <trkpt lat="35.793538" lon="128.086037"><ele>588.9</ele></trkpt>
      <trkpt lat="35.793480" lon="128.086317"><ele>582.0</ele></trkpt>
      <trkpt lat="35.793392" lon="128.086041"><ele>588.4</ele></trkpt>
      <trkpt lat="35.793293" lon="128.085926"><ele>590.3</ele></trkpt>
      <trkpt lat="35.792829" lon="128.086025"><ele>589.5</ele></trkpt>
      <trkpt lat="35.792178" lon="128.085938"><ele>589.7</ele></trkpt>
      <trkpt lat="35.791728" lon="128.086200"><ele>585.7</ele></trkpt>
      <trkpt lat="35.791386" lon="128.086744"><ele>584.5</ele></trkpt>
      <trkpt lat="35.791582" lon="128.086951"><ele>579.4</ele></trkpt>
      <trkpt lat="35.791476" lon="128.087781"><ele>570.4</ele></trkpt>
      <trkpt lat="35.791588" lon="128.088352"><ele>566.2</ele></trkpt>
      <trkpt lat="35.791782" lon="128.088794"><ele>560.8</ele></trkpt>
      <trkpt lat="35.792038" lon="128.088835"><ele>561.8</ele></trkpt>
      <trkpt lat="35.792038" lon="128.089163"><ele>560.7</ele></trkpt>
      <trkpt lat="35.791457" lon="128.089466"><ele>562.5</ele></trkpt>
      <trkpt lat="35.791193" lon="128.089775"><ele>564.2</ele></trkpt>
      <trkpt lat="35.790855" lon="128.090313"><ele>561.0</ele></trkpt>
      <trkpt lat="35.790798" lon="128.090706"><ele>558.4</ele></trkpt>
      <trkpt lat="35.790878" lon="128.091174"><ele>554.7</ele></trkpt>
      <trkpt lat="35.790883" lon="128.091584"><ele>550.6</ele></trkpt>
      <trkpt lat="35.790777" lon="128.092303"><ele>557.4</ele></trkpt>
      <trkpt lat="35.790932" lon="128.092681"><ele>550.8</ele></trkpt>
      <trkpt lat="35.791087" lon="128.092897"><ele>546.7</ele></trkpt>
      <trkpt lat="35.791222" lon="128.093531"><ele>555.6</ele></trkpt>
      <trkpt lat="35.791409" lon="128.093577"><ele>547.6</ele></trkpt>
      <trkpt lat="35.791612" lon="128.093856"><ele>537.3</ele></trkpt>
      <trkpt lat="35.791860" lon="128.093861"><ele>531.6</ele></trkpt>
      <trkpt lat="35.792018" lon="128.093785"><ele>532.7</ele></trkpt>
      <trkpt lat="35.792140" lon="128.093795"><ele>534.6</ele></trkpt>
      <trkpt lat="35.792157" lon="128.093859"><ele>533.7</ele></trkpt>
      <trkpt lat="35.792131" lon="128.094125"><ele>529.8</ele></trkpt>
      <trkpt lat="35.791826" lon="128.094757"><ele>528.3</ele></trkpt>
      <trkpt lat="35.791775" lon="128.095037"><ele>526.8</ele></trkpt>
      <trkpt lat="35.791783" lon="128.095785"><ele>526.1</ele></trkpt>
      <trkpt lat="35.791681" lon="128.096074"><ele>525.9</ele></trkpt>
      <trkpt lat="35.791658" lon="128.096400"><ele>526.6</ele></trkpt>
      <trkpt lat="35.791745" lon="128.096889"><ele>533.6</ele></trkpt>
      <trkpt lat="35.792166" lon="128.097368"><ele>520.3</ele></trkpt>
      <trkpt lat="35.791954" lon="128.097558"><ele>522.4</ele></trkpt>
      <trkpt lat="35.792103" lon="128.097843"><ele>517.0</ele></trkpt>
      <trkpt lat="35.792218" lon="128.098231"><ele>513.0</ele></trkpt>
      <trkpt lat="35.792238" lon="128.098669"><ele>514.0</ele></trkpt>
      <trkpt lat="35.792133" lon="128.098946"><ele>513.9</ele></trkpt>
      <trkpt lat="35.792123" lon="128.099266"><ele>511.6</ele></trkpt>
      <trkpt lat="35.792048" lon="128.099531"><ele>509.9</ele></trkpt>
      <trkpt lat="35.791768" lon="128.099722"><ele>509.0</ele></trkpt>
      <trkpt lat="35.791423" lon="128.099531"><ele>508.6</ele></trkpt>
      <trkpt lat="35.791063" lon="128.099482"><ele>505.7</ele></trkpt>
      <trkpt lat="35.790853" lon="128.099815"><ele>500.7</ele></trkpt>
      <trkpt lat="35.790629" lon="128.099753"><ele>503.3</ele></trkpt>
      <trkpt lat="35.790509" lon="128.099778"><ele>505.1</ele></trkpt>
      <trkpt lat="35.790334" lon="128.099913"><ele>503.5</ele></trkpt>
      <trkpt lat="35.790084" lon="128.099987"><ele>498.1</ele></trkpt>
      <trkpt lat="35.790034" lon="128.100080"><ele>495.8</ele></trkpt>
      <trkpt lat="35.789919" lon="128.100067"><ele>496.1</ele></trkpt>
      <trkpt lat="35.789959" lon="128.100326"><ele>491.3</ele></trkpt>
      <trkpt lat="35.789834" lon="128.100486"><ele>488.1</ele></trkpt>
      <trkpt lat="35.789514" lon="128.101127"><ele>481.6</ele></trkpt>
      <trkpt lat="35.789029" lon="128.101596"><ele>479.9</ele></trkpt>
      <trkpt lat="35.788839" lon="128.101281"><ele>483.8</ele></trkpt>
      <trkpt lat="35.788374" lon="128.101571"><ele>483.7</ele></trkpt>
      <trkpt lat="35.788124" lon="128.101793"><ele>483.7</ele></trkpt>
      <trkpt lat="35.787821" lon="128.101859"><ele>480.5</ele></trkpt>
      <trkpt lat="35.787789" lon="128.101737"><ele>486.6</ele></trkpt>
      <trkpt lat="35.787961" lon="128.101385"><ele>507.3</ele></trkpt>
      <trkpt lat="35.788152" lon="128.101310"><ele>504.1</ele></trkpt>
      <trkpt lat="35.788461" lon="128.101047"><ele>504.9</ele></trkpt>
      <trkpt lat="35.788524" lon="128.100929"><ele>506.3</ele></trkpt>
      <trkpt lat="35.788526" lon="128.100712"><ele>515.8</ele></trkpt>
      <trkpt lat="35.788635" lon="128.100709"><ele>509.5</ele></trkpt>
      <trkpt lat="35.788560" lon="128.100478"><ele>524.5</ele></trkpt>
      <trkpt lat="35.788593" lon="128.100389"><ele>526.7</ele></trkpt>
      <trkpt lat="35.788688" lon="128.100361"><ele>523.2</ele></trkpt>
      <trkpt lat="35.788652" lon="128.100109"><ele>537.1</ele></trkpt>
      <trkpt lat="35.788900" lon="128.100132"><ele>522.0</ele></trkpt>
      <trkpt lat="35.788938" lon="128.100081"><ele>523.2</ele></trkpt>
      <trkpt lat="35.788823" lon="128.099854"><ele>541.1</ele></trkpt>
      <trkpt lat="35.788640" lon="128.099728"><ele>558.3</ele></trkpt>
      <trkpt lat="35.788601" lon="128.099545"><ele>575.1</ele></trkpt>
      <trkpt lat="35.788437" lon="128.099576"><ele>580.0</ele></trkpt>
      <trkpt lat="35.788332" lon="128.099706"><ele>581.5</ele></trkpt>
      <trkpt lat="35.788469" lon="128.098969"><ele>611.6</ele></trkpt>
      <trkpt lat="35.788429" lon="128.098718"><ele>636.5</ele></trkpt>
      <trkpt lat="35.788516" lon="128.098366"><ele>651.5</ele></trkpt>
      <trkpt lat="35.788359" lon="128.097929"><ele>678.6</ele></trkpt>
      <trkpt lat="35.788406" lon="128.097921"><ele>676.2</ele></trkpt>
      <trkpt lat="35.788390" lon="128.097855"><ele>680.8</ele></trkpt>
      <trkpt lat="35.788227" lon="128.097561"><ele>708.5</ele></trkpt>
      <trkpt lat="35.788253" lon="128.097509"><ele>711.8</ele></trkpt>
      <trkpt lat="35.788168" lon="128.097168"><ele>726.6</ele></trkpt>
      <trkpt lat="35.788204" lon="128.097068"><ele>728.0</ele></trkpt>
      <trkpt lat="35.788076" lon="128.096962"><ele>737.4</ele></trkpt>
      <trkpt lat="35.788048" lon="128.096737"><ele>744.7</ele></trkpt>
      <trkpt lat="35.788000" lon="128.096723"><ele>747.6</ele></trkpt>
      <trkpt lat="35.787934" lon="128.096873"><ele>747.7</ele></trkpt>
      <trkpt lat="35.787824" lon="128.096870"><ele>754.0</ele></trkpt>
      <trkpt lat="35.787870" lon="128.096971"><ele>748.4</ele></trkpt>
      <trkpt lat="35.787634" lon="128.096900"><ele>763.3</ele></trkpt>
      <trkpt lat="35.787451" lon="128.096565"><ele>769.0</ele></trkpt>
      <trkpt lat="35.787345" lon="128.096551"><ele>772.0</ele></trkpt>
      <trkpt lat="35.787386" lon="128.096455"><ele>767.6</ele></trkpt>
      <trkpt lat="35.787193" lon="128.096504"><ele>775.5</ele></trkpt>
      <trkpt lat="35.787165" lon="128.096465"><ele>775.4</ele></trkpt>
      <trkpt lat="35.787097" lon="128.096566"><ele>778.5</ele></trkpt>
      <trkpt lat="35.786986" lon="128.096564"><ele>780.3</ele></trkpt>
      <trkpt lat="35.786938" lon="128.096331"><ele>778.0</ele></trkpt>
      <trkpt lat="35.786345" lon="128.095979"><ele>775.8</ele></trkpt>
      <trkpt lat="35.786241" lon="128.095961"><ele>775.9</ele></trkpt>
      <trkpt lat="35.786182" lon="128.095852"><ele>775.1</ele></trkpt>
      <trkpt lat="35.785946" lon="128.095813"><ele>781.1</ele></trkpt>
      <trkpt lat="35.785914" lon="128.095769"><ele>781.8</ele></trkpt>
      <trkpt lat="35.785888" lon="128.095815"><ele>783.1</ele></trkpt>
      <trkpt lat="35.785853" lon="128.095767"><ele>783.8</ele></trkpt>
      <trkpt lat="35.785655" lon="128.095815"><ele>792.7</ele></trkpt>
      <trkpt lat="35.785588" lon="128.095745"><ele>795.5</ele></trkpt>
      <trkpt lat="35.785393" lon="128.095745"><ele>798.1</ele></trkpt>
      <trkpt lat="35.785342" lon="128.095579"><ele>801.2</ele></trkpt>
      <trkpt lat="35.785289" lon="128.095567"><ele>802.5</ele></trkpt>
      <trkpt lat="35.785226" lon="128.095434"><ele>802.5</ele></trkpt>
      <trkpt lat="35.785237" lon="128.095364"><ele>802.0</ele></trkpt>
      <trkpt lat="35.785100" lon="128.095240"><ele>803.2</ele></trkpt>
      <trkpt lat="35.785085" lon="128.095166"><ele>804.1</ele></trkpt>
      <trkpt lat="35.784865" lon="128.095139"><ele>804.5</ele></trkpt>
      <trkpt lat="35.784797" lon="128.094771"><ele>817.8</ele></trkpt>
      <trkpt lat="35.784597" lon="128.094409"><ele>837.3</ele></trkpt>
      <trkpt lat="35.784638" lon="128.094373"><ele>837.3</ele></trkpt>
      <trkpt lat="35.784523" lon="128.094236"><ele>840.6</ele></trkpt>
      <trkpt lat="35.784369" lon="128.094148"><ele>843.3</ele></trkpt>
      <trkpt lat="35.784130" lon="128.094087"><ele>847.5</ele></trkpt>
      <trkpt lat="35.783969" lon="128.094103"><ele>850.2</ele></trkpt>
      <trkpt lat="35.783737" lon="128.094296"><ele>851.0</ele></trkpt>
      <trkpt lat="35.783645" lon="128.094240"><ele>852.7</ele></trkpt>
      <trkpt lat="35.783428" lon="128.094234"><ele>852.9</ele></trkpt>
      <trkpt lat="35.783437" lon="128.094169"><ele>854.0</ele></trkpt>
      <trkpt lat="35.783384" lon="128.094167"><ele>854.0</ele></trkpt>
      <trkpt lat="35.783282" lon="128.094038"><ele>853.9</ele></trkpt>
      <trkpt lat="35.783179" lon="128.094069"><ele>853.6</ele></trkpt>
      <trkpt lat="35.783171" lon="128.094010"><ele>853.7</ele></trkpt>
      <trkpt lat="35.783076" lon="128.093948"><ele>853.8</ele></trkpt>
      <trkpt lat="35.783040" lon="128.093991"><ele>853.8</ele></trkpt>
      <trkpt lat="35.782944" lon="128.093956"><ele>855.0</ele></trkpt>
      <trkpt lat="35.782792" lon="128.094006"><ele>856.4</ele></trkpt>
      <trkpt lat="35.782649" lon="128.093928"><ele>860.4</ele></trkpt>
      <trkpt lat="35.782638" lon="128.093867"><ele>861.1</ele></trkpt>
      <trkpt lat="35.782344" lon="128.093926"><ele>868.4</ele></trkpt>
      <trkpt lat="35.782028" lon="128.093800"><ele>876.7</ele></trkpt>
      <trkpt lat="35.781925" lon="128.093838"><ele>879.7</ele></trkpt>
      <trkpt lat="35.781866" lon="128.093807"><ele>882.3</ele></trkpt>
      <trkpt lat="35.781670" lon="128.094006"><ele>890.1</ele></trkpt>
      <trkpt lat="35.781421" lon="128.094015"><ele>902.5</ele></trkpt>
      <trkpt lat="35.781471" lon="128.094095"><ele>899.2</ele></trkpt>
      <trkpt lat="35.781428" lon="128.094122"><ele>901.2</ele></trkpt>
      <trkpt lat="35.781230" lon="128.094120"><ele>911.2</ele></trkpt>
      <trkpt lat="35.781202" lon="128.093988"><ele>910.9</ele></trkpt>
      <trkpt lat="35.781123" lon="128.093906"><ele>912.1</ele></trkpt>
      <trkpt lat="35.781111" lon="128.093715"><ele>912.0</ele></trkpt>
      <trkpt lat="35.781080" lon="128.093669"><ele>913.9</ele></trkpt>
      <trkpt lat="35.781019" lon="128.093682"><ele>917.5</ele></trkpt>
      <trkpt lat="35.781091" lon="128.093295"><ele>914.0</ele></trkpt>
      <trkpt lat="35.780948" lon="128.093091"><ele>917.4</ele></trkpt>
      <trkpt lat="35.780835" lon="128.093088"><ele>919.8</ele></trkpt>
      <trkpt lat="35.780767" lon="128.093208"><ele>924.0</ele></trkpt>
      <trkpt lat="35.780733" lon="128.093169"><ele>923.4</ele></trkpt>
      <trkpt lat="35.780705" lon="128.093506"><ele>931.2</ele></trkpt>
      <trkpt lat="35.780605" lon="128.093605"><ele>935.5</ele></trkpt>
      <trkpt lat="35.780559" lon="128.093842"><ele>939.3</ele></trkpt>
      <trkpt lat="35.780490" lon="128.093767"><ele>938.1</ele></trkpt>
      <trkpt lat="35.780198" lon="128.093850"><ele>935.5</ele></trkpt>
      <trkpt lat="35.780078" lon="128.093742"><ele>932.3</ele></trkpt>
      <trkpt lat="35.779731" lon="128.093625"><ele>928.9</ele></trkpt>
      <trkpt lat="35.779538" lon="128.093497"><ele>924.7</ele></trkpt>
      <trkpt lat="35.779379" lon="128.093218"><ele>920.0</ele></trkpt>
      <trkpt lat="35.779101" lon="128.092977"><ele>917.3</ele></trkpt>
      <trkpt lat="35.779029" lon="128.092815"><ele>916.4</ele></trkpt>
      <trkpt lat="35.778979" lon="128.092828"><ele>918.3</ele></trkpt>
      <trkpt lat="35.778894" lon="128.092695"><ele>921.5</ele></trkpt>
      <trkpt lat="35.778756" lon="128.092615"><ele>920.8</ele></trkpt>
      <trkpt lat="35.778572" lon="128.092234"><ele>916.7</ele></trkpt>
      <trkpt lat="35.778477" lon="128.092191"><ele>917.3</ele></trkpt>
      <trkpt lat="35.778464" lon="128.092075"><ele>915.0</ele></trkpt>
      <trkpt lat="35.778311" lon="128.091878"><ele>914.3</ele></trkpt>
      <trkpt lat="35.778014" lon="128.091829"><ele>920.4</ele></trkpt>
      <trkpt lat="35.777777" lon="128.092033"><ele>916.7</ele></trkpt>
      <trkpt lat="35.777660" lon="128.092211"><ele>911.2</ele></trkpt>
      <trkpt lat="35.777529" lon="128.092151"><ele>908.3</ele></trkpt>
      <trkpt lat="35.777110" lon="128.092478"><ele>896.3</ele></trkpt>
      <trkpt lat="35.776844" lon="128.092499"><ele>899.3</ele></trkpt>
      <trkpt lat="35.776629" lon="128.092723"><ele>905.9</ele></trkpt>
      <trkpt lat="35.776545" lon="128.092750"><ele>910.0</ele></trkpt>
      <trkpt lat="35.776525" lon="128.092857"><ele>909.7</ele></trkpt>
      <trkpt lat="35.776411" lon="128.092902"><ele>913.9</ele></trkpt>
      <trkpt lat="35.776017" lon="128.092813"><ele>926.0</ele></trkpt>
      <trkpt lat="35.775862" lon="128.092936"><ele>930.8</ele></trkpt>
      <trkpt lat="35.775746" lon="128.092918"><ele>932.9</ele></trkpt>
      <trkpt lat="35.775301" lon="128.093259"><ele>938.1</ele></trkpt>
      <trkpt lat="35.775022" lon="128.093568"><ele>947.0</ele></trkpt>
      <trkpt lat="35.774673" lon="128.093573"><ele>948.8</ele></trkpt>
      <trkpt lat="35.774447" lon="128.093682"><ele>948.3</ele></trkpt>
      <trkpt lat="35.774332" lon="128.093678"><ele>950.2</ele></trkpt>
      <trkpt lat="35.774077" lon="128.093907"><ele>959.5</ele></trkpt>
      <trkpt lat="35.773806" lon="128.094027"><ele>968.2</ele></trkpt>
      <trkpt lat="35.773756" lon="128.094178"><ele>972.3</ele></trkpt>
      <trkpt lat="35.773378" lon="128.094682"><ele>991.2</ele></trkpt>
      <trkpt lat="35.773180" lon="128.094655"><ele>999.5</ele></trkpt>
      <trkpt lat="35.772821" lon="128.094742"><ele>1016.9</ele></trkpt>
      <trkpt lat="35.772642" lon="128.094995"><ele>1027.4</ele></trkpt>
      <trkpt lat="35.772688" lon="128.095547"><ele>1023.3</ele></trkpt>
      <trkpt lat="35.772781" lon="128.095660"><ele>1019.1</ele></trkpt>
    </trkseg>
  </trk>
</gpx>
