<?xml version="1.0" encoding="UTF-8"?>
<gpx version="1.1" creator="kr-100-mountains route-harvester"
     xmlns="http://www.topografix.com/GPX/1/1"
     xmlns:k100="https://github.com/jay-jang/kr-100-mountains/ns/1"
     xmlns:xsi="http://www.w3.org/2001/XMLSchema-instance"
     xsi:schemaLocation="http://www.topografix.com/GPX/1/1 http://www.topografix.com/GPX/1/1/gpx.xsd">
  <metadata>
    <name>남산제일봉 · 치인리(해인사 관광단지)-남산제일봉 코스 (OSM 계산 경로)</name>
    <desc>실제 GPS 기록이 아닙니다. OpenStreetMap에 등록된 등산로 선형 위에서 계산한 경로이며, 현장 통제·훼손·출입 제한·계절 통제를 반영하지 않을 수 있습니다. 산행 전 공식 안내를 확인하세요.</desc>
    <time>2026-08-04T05:42:30.758Z</time>
    <link href="https://www.openstreetmap.org/copyright"><text>© OpenStreetMap contributors (ODbL 1.0)</text></link>
    <link href="https://registry.opendata.aws/terrain-tiles/"><text>Elevation: SRTM 1 arc-second (NASA/USGS) via AWS Terrain Tiles</text></link>
    <extensions>
      <k100:provenance>osm-routed</k100:provenance>
      <k100:not_a_recorded_track>true</k100:not_a_recorded_track>
      <k100:mountain_id>namsanjeilbong</k100:mountain_id>
      <k100:mountain_name>남산제일봉</k100:mountain_name>
      <k100:route_id>namsanjeilbong-0ea777e8</k100:route_id>
      <k100:route_index>2</k100:route_index>
      <k100:route_name>치인리(해인사 관광단지)-남산제일봉 코스</k100:route_name>
      <k100:variant>0</k100:variant>
      <k100:source>OpenStreetMap via Overpass API</k100:source>
      <k100:license>ODbL-1.0</k100:license>
      <k100:attribution>© OpenStreetMap contributors</k100:attribution>
      <k100:elevation_source>SRTM 1 arc-second (NASA/USGS) — AWS Terrain Tiles 배포본. 지형 DEM 추정 고도이며 실측 아님</k100:elevation_source>
      <k100:algorithm>dijkstra-grid-v1</k100:algorithm>
      <k100:osm_snapshot>2026-08-04</k100:osm_snapshot>
      <k100:snap_trailhead_m>7</k100:snap_trailhead_m>
      <k100:snap_summit_m>5</k100:snap_summit_m>
      <k100:validation_score>75</k100:validation_score>
      <k100:validation_status>review</k100:validation_status>
    </extensions>
  </metadata>
  <trk>
    <name>남산제일봉 · 치인리(해인사 관광단지)-남산제일봉 코스 (OSM 계산 경로)</name>
    <desc>실제 GPS 기록이 아닙니다. OpenStreetMap에 등록된 등산로 선형 위에서 계산한 경로이며, 현장 통제·훼손·출입 제한·계절 통제를 반영하지 않을 수 있습니다. 산행 전 공식 안내를 확인하세요.</desc>
    <trkseg>
      <trkpt lat="35.801160" lon="128.098295"><ele>644.3</ele></trkpt>
      <trkpt lat="35.800897" lon="128.097799"><ele>633.7</ele></trkpt>
      <trkpt lat="35.800841" lon="128.097526"><ele>630.4</ele></trkpt>
      <trkpt lat="35.800492" lon="128.097036"><ele>629.5</ele></trkpt>
      <trkpt lat="35.800363" lon="128.096928"><ele>629.0</ele></trkpt>
      <trkpt lat="35.799858" lon="128.096107"><ele>617.8</ele></trkpt>
      <trkpt lat="35.799708" lon="128.096192"><ele>614.9</ele></trkpt>
      <trkpt lat="35.799313" lon="128.096249"><ele>608.8</ele></trkpt>
      <trkpt lat="35.799089" lon="128.096377"><ele>608.3</ele></trkpt>
      <trkpt lat="35.798234" lon="128.096485"><ele>602.2</ele></trkpt>
      <trkpt lat="35.798157" lon="128.096464"><ele>602.0</ele></trkpt>
      <trkpt lat="35.797864" lon="128.096219"><ele>598.8</ele></trkpt>
      <trkpt lat="35.797806" lon="128.096106"><ele>597.3</ele></trkpt>
      <trkpt lat="35.797328" lon="128.095736"><ele>581.7</ele></trkpt>
      <trkpt lat="35.797034" lon="128.095591"><ele>577.7</ele></trkpt>
      <trkpt lat="35.796686" lon="128.095227"><ele>575.3</ele></trkpt>
      <trkpt lat="35.796428" lon="128.095076"><ele>571.6</ele></trkpt>
      <trkpt lat="35.796251" lon="128.094853"><ele>566.9</ele></trkpt>
      <trkpt lat="35.796056" lon="128.094698"><ele>563.6</ele></trkpt>
      <trkpt lat="35.795568" lon="128.094454"><ele>562.9</ele></trkpt>
      <trkpt lat="35.795305" lon="128.094239"><ele>562.3</ele></trkpt>
      <trkpt lat="35.795131" lon="128.094239"><ele>559.2</ele></trkpt>
      <trkpt lat="35.795023" lon="128.094323"><ele>557.6</ele></trkpt>
      <trkpt lat="35.794829" lon="128.094707"><ele>554.9</ele></trkpt>
      <trkpt lat="35.794641" lon="128.094901"><ele>550.7</ele></trkpt>
      <trkpt lat="35.794186" lon="128.094683"><ele>547.2</ele></trkpt>
      <trkpt lat="35.794029" lon="128.094905"><ele>546.0</ele></trkpt>
      <trkpt lat="35.793759" lon="128.095012"><ele>546.4</ele></trkpt>
      <trkpt lat="35.793546" lon="128.095023"><ele>546.9</ele></trkpt>
      <trkpt lat="35.792884" lon="128.094621"><ele>539.3</ele></trkpt>
      <trkpt lat="35.792458" lon="128.093998"><ele>536.7</ele></trkpt>
      <trkpt lat="35.792143" lon="128.093658"><ele>537.4</ele></trkpt>
      <trkpt lat="35.791860" lon="128.093861"><ele>531.6</ele></trkpt>
      <trkpt lat="35.791612" lon="128.093856"><ele>537.3</ele></trkpt>
      <trkpt lat="35.791409" lon="128.093577"><ele>547.6</ele></trkpt>
      <trkpt lat="35.791222" lon="128.093531"><ele>555.6</ele></trkpt>
      <trkpt lat="35.791087" lon="128.092897"><ele>546.7</ele></trkpt>
      <trkpt lat="35.790932" lon="128.092681"><ele>550.8</ele></trkpt>
      <trkpt lat="35.790777" lon="128.092303"><ele>557.4</ele></trkpt>
      <trkpt lat="35.790883" lon="128.091584"><ele>550.6</ele></trkpt>
      <trkpt lat="35.790878" lon="128.091174"><ele>554.7</ele></trkpt>
      <trkpt lat="35.790798" lon="128.090546"><ele>560.7</ele></trkpt>
      <trkpt lat="35.790855" lon="128.090313"><ele>561.0</ele></trkpt>
      <trkpt lat="35.791033" lon="128.090015"><ele>563.6</ele></trkpt>
      <trkpt lat="35.791457" lon="128.089466"><ele>562.5</ele></trkpt>
      <trkpt lat="35.792031" lon="128.089203"><ele>560.6</ele></trkpt>
      <trkpt lat="35.792038" lon="128.088835"><ele>561.8</ele></trkpt>
      <trkpt lat="35.791782" lon="128.088794"><ele>560.8</ele></trkpt>
      <trkpt lat="35.791732" lon="128.088673"><ele>562.7</ele></trkpt>
      <trkpt lat="35.791510" lon="128.088551"><ele>565.4</ele></trkpt>
      <trkpt lat="35.791207" lon="128.088069"><ele>569.8</ele></trkpt>
      <trkpt lat="35.790852" lon="128.087872"><ele>574.8</ele></trkpt>
      <trkpt lat="35.790770" lon="128.087714"><ele>575.3</ele></trkpt>
      <trkpt lat="35.790736" lon="128.087451"><ele>576.6</ele></trkpt>
      <trkpt lat="35.790175" lon="128.087105"><ele>585.5</ele></trkpt>
      <trkpt lat="35.789413" lon="128.086963"><ele>599.5</ele></trkpt>
      <trkpt lat="35.789250" lon="128.086599"><ele>602.0</ele></trkpt>
      <trkpt lat="35.788850" lon="128.086721"><ele>609.8</ele></trkpt>
      <trkpt lat="35.788344" lon="128.086647"><ele>613.8</ele></trkpt>
      <trkpt lat="35.787444" lon="128.086416"><ele>633.7</ele></trkpt>
      <trkpt lat="35.786869" lon="128.086373"><ele>635.9</ele></trkpt>
      <trkpt lat="35.786486" lon="128.086227"><ele>646.0</ele></trkpt>
      <trkpt lat="35.786178" lon="128.085923"><ele>651.3</ele></trkpt>
      <trkpt lat="35.785751" lon="128.085719"><ele>654.0</ele></trkpt>
      <trkpt lat="35.785513" lon="128.085673"><ele>655.4</ele></trkpt>
      <trkpt lat="35.785071" lon="128.085760"><ele>660.2</ele></trkpt>
      <trkpt lat="35.784826" lon="128.085871"><ele>664.5</ele></trkpt>
      <trkpt lat="35.784589" lon="128.086030"><ele>670.2</ele></trkpt>
      <trkpt lat="35.784356" lon="128.086381"><ele>681.1</ele></trkpt>
      <trkpt lat="35.784034" lon="128.086655"><ele>692.4</ele></trkpt>
      <trkpt lat="35.783718" lon="128.086757"><ele>700.5</ele></trkpt>
      <trkpt lat="35.783557" lon="128.086936"><ele>704.8</ele></trkpt>
      <trkpt lat="35.782647" lon="128.087110"><ele>719.3</ele></trkpt>
      <trkpt lat="35.782208" lon="128.087320"><ele>726.8</ele></trkpt>
      <trkpt lat="35.782069" lon="128.087320"><ele>730.9</ele></trkpt>
      <trkpt lat="35.781630" lon="128.087596"><ele>738.9</ele></trkpt>
      <trkpt lat="35.781369" lon="128.087575"><ele>745.5</ele></trkpt>
      <trkpt lat="35.780854" lon="128.087757"><ele>754.9</ele></trkpt>
      <trkpt lat="35.780459" lon="128.087709"><ele>761.4</ele></trkpt>
      <trkpt lat="35.780330" lon="128.087795"><ele>762.5</ele></trkpt>
      <trkpt lat="35.779969" lon="128.088256"><ele>772.6</ele></trkpt>
      <trkpt lat="35.779872" lon="128.088304"><ele>774.5</ele></trkpt>
      <trkpt lat="35.779736" lon="128.088320"><ele>776.7</ele></trkpt>
      <trkpt lat="35.779491" lon="128.088203"><ele>778.5</ele></trkpt>
      <trkpt lat="35.779240" lon="128.088273"><ele>783.2</ele></trkpt>
      <trkpt lat="35.778940" lon="128.088162"><ele>790.1</ele></trkpt>
      <trkpt lat="35.778453" lon="128.088420"><ele>805.5</ele></trkpt>
      <trkpt lat="35.778011" lon="128.088390"><ele>808.2</ele></trkpt>
      <trkpt lat="35.777748" lon="128.088583"><ele>813.8</ele></trkpt>
      <trkpt lat="35.776790" lon="128.088755"><ele>826.6</ele></trkpt>
      <trkpt lat="35.776535" lon="128.089173"><ele>837.6</ele></trkpt>
      <trkpt lat="35.776530" lon="128.089258"><ele>839.6</ele></trkpt>
      <trkpt lat="35.776293" lon="128.089538"><ele>844.7</ele></trkpt>
      <trkpt lat="35.776199" lon="128.089791"><ele>847.6</ele></trkpt>
      <trkpt lat="35.776245" lon="128.090273"><ele>852.9</ele></trkpt>
      <trkpt lat="35.776296" lon="128.090388"><ele>854.6</ele></trkpt>
      <trkpt lat="35.776477" lon="128.090665"><ele>860.8</ele></trkpt>
      <trkpt lat="35.776676" lon="128.090766"><ele>865.9</ele></trkpt>
      <trkpt lat="35.776790" lon="128.090965"><ele>870.0</ele></trkpt>
      <trkpt lat="35.776940" lon="128.091641"><ele>884.2</ele></trkpt>
      <trkpt lat="35.776994" lon="128.092472"><ele>896.4</ele></trkpt>
      <trkpt lat="35.776844" lon="128.092499"><ele>899.3</ele></trkpt>
      <trkpt lat="35.776629" lon="128.092723"><ele>905.9</ele></trkpt>
      <trkpt lat="35.776545" lon="128.092750"><ele>910.0</ele></trkpt>
      <trkpt lat="35.776525" lon="128.092857"><ele>909.7</ele></trkpt>
      <trkpt lat="35.776411" lon="128.092902"><ele>913.9</ele></trkpt>
      <trkpt lat="35.776017" lon="128.092813"><ele>926.0</ele></trkpt>
      <trkpt lat="35.775862" lon="128.092936"><ele>930.8</ele></trkpt>
      <trkpt lat="35.775676" lon="128.092951"><ele>934.6</ele></trkpt>
      <trkpt lat="35.775506" lon="128.093132"><ele>937.4</ele></trkpt>
      <trkpt lat="35.775301" lon="128.093259"><ele>938.1</ele></trkpt>
      <trkpt lat="35.775022" lon="128.093568"><ele>947.0</ele></trkpt>
      <trkpt lat="35.774673" lon="128.093573"><ele>948.8</ele></trkpt>
      <trkpt lat="35.774234" lon="128.093736"><ele>953.0</ele></trkpt>
      <trkpt lat="35.774077" lon="128.093907"><ele>959.5</ele></trkpt>
      <trkpt lat="35.773806" lon="128.094027"><ele>968.2</ele></trkpt>
      <trkpt lat="35.773756" lon="128.094178"><ele>972.3</ele></trkpt>
      <trkpt lat="35.773378" lon="128.094682"><ele>991.2</ele></trkpt>
      <trkpt lat="35.773180" lon="128.094655"><ele>999.5</ele></trkpt>
      <trkpt lat="35.772821" lon="128.094742"><ele>1016.9</ele></trkpt>
      <trkpt lat="35.772642" lon="128.094995"><ele>1027.4</ele></trkpt>
      <trkpt lat="35.772688" lon="128.095547"><ele>1023.3</ele></trkpt>
      <trkpt lat="35.772781" lon="128.095660"><ele>1019.1</ele></trkpt>
    </trkseg>
  </trk>
</gpx>
