<?xml version="1.0" encoding="UTF-8"?>
<gpx version="1.1" creator="kr-100-mountains route-harvester"
     xmlns="http://www.topografix.com/GPX/1/1"
     xmlns:k100="https://github.com/jay-jang/kr-100-mountains/ns/1"
     xmlns:xsi="http://www.w3.org/2001/XMLSchema-instance"
     xsi:schemaLocation="http://www.topografix.com/GPX/1/1 http://www.topografix.com/GPX/1/1/gpx.xsd">
  <metadata>
    <name>속리산 · 화북-문장대-천왕봉 종주 (대안 2) (OSM 계산 경로)</name>
    <desc>실제 GPS 기록이 아닙니다. OpenStreetMap에 등록된 등산로 선형 위에서 계산한 경로이며, 현장 통제·훼손·출입 제한·계절 통제를 반영하지 않을 수 있습니다. 산행 전 공식 안내를 확인하세요.</desc>
    <time>2026-08-04T05:42:16.901Z</time>
    <link href="https://www.openstreetmap.org/copyright"><text>© OpenStreetMap contributors (ODbL 1.0)</text></link>
    <link href="https://registry.opendata.aws/terrain-tiles/"><text>Elevation: SRTM 1 arc-second (NASA/USGS) via AWS Terrain Tiles</text></link>
    <extensions>
      <k100:provenance>osm-routed</k100:provenance>
      <k100:not_a_recorded_track>true</k100:not_a_recorded_track>
      <k100:mountain_id>sokrisan</k100:mountain_id>
      <k100:mountain_name>속리산</k100:mountain_name>
      <k100:route_id>sokrisan-53e4fa85</k100:route_id>
      <k100:route_index>2</k100:route_index>
      <k100:route_name>화북-문장대-천왕봉 종주</k100:route_name>
      <k100:variant>2</k100:variant>
      <k100:source>OpenStreetMap via Overpass API</k100:source>
      <k100:license>ODbL-1.0</k100:license>
      <k100:attribution>© OpenStreetMap contributors</k100:attribution>
      <k100:elevation_source>SRTM 1 arc-second (NASA/USGS) — AWS Terrain Tiles 배포본. 지형 DEM 추정 고도이며 실측 아님</k100:elevation_source>
      <k100:algorithm>dijkstra-grid-v1</k100:algorithm>
      <k100:osm_snapshot>2026-08-04</k100:osm_snapshot>
      <k100:snap_trailhead_m>127</k100:snap_trailhead_m>
      <k100:snap_summit_m>80</k100:snap_summit_m>
      <k100:validation_score>100</k100:validation_score>
      <k100:validation_status>accepted</k100:validation_status>
    </extensions>
  </metadata>
  <trk>
    <name>속리산 · 화북-문장대-천왕봉 종주 (대안 2) (OSM 계산 경로)</name>
    <desc>실제 GPS 기록이 아닙니다. OpenStreetMap에 등록된 등산로 선형 위에서 계산한 경로이며, 현장 통제·훼손·출입 제한·계절 통제를 반영하지 않을 수 있습니다. 산행 전 공식 안내를 확인하세요.</desc>
    <trkseg>
      <trkpt lat="36.551501" lon="127.893577"><ele>773.6</ele></trkpt>
      <trkpt lat="36.551738" lon="127.892928"><ele>786.4</ele></trkpt>
      <trkpt lat="36.552077" lon="127.892457"><ele>797.8</ele></trkpt>
      <trkpt lat="36.552233" lon="127.892021"><ele>800.7</ele></trkpt>
      <trkpt lat="36.552255" lon="127.891437"><ele>799.9</ele></trkpt>
      <trkpt lat="36.552328" lon="127.891024"><ele>797.2</ele></trkpt>
      <trkpt lat="36.552246" lon="127.890637"><ele>795.6</ele></trkpt>
      <trkpt lat="36.552294" lon="127.890471"><ele>798.2</ele></trkpt>
      <trkpt lat="36.552186" lon="127.890047"><ele>803.1</ele></trkpt>
      <trkpt lat="36.552350" lon="127.889827"><ele>812.0</ele></trkpt>
      <trkpt lat="36.552410" lon="127.889339"><ele>818.1</ele></trkpt>
      <trkpt lat="36.552660" lon="127.888813"><ele>826.5</ele></trkpt>
      <trkpt lat="36.553535" lon="127.888341"><ele>847.2</ele></trkpt>
      <trkpt lat="36.553612" lon="127.888164"><ele>854.9</ele></trkpt>
      <trkpt lat="36.554194" lon="127.887478"><ele>871.5</ele></trkpt>
      <trkpt lat="36.554229" lon="127.887140"><ele>868.7</ele></trkpt>
      <trkpt lat="36.554366" lon="127.886957"><ele>865.3</ele></trkpt>
      <trkpt lat="36.554224" lon="127.886743"><ele>859.6</ele></trkpt>
      <trkpt lat="36.554272" lon="127.886432"><ele>847.9</ele></trkpt>
      <trkpt lat="36.554147" lon="127.885670"><ele>823.6</ele></trkpt>
      <trkpt lat="36.554035" lon="127.885493"><ele>817.3</ele></trkpt>
      <trkpt lat="36.553910" lon="127.885107"><ele>806.4</ele></trkpt>
      <trkpt lat="36.553634" lon="127.884785"><ele>791.3</ele></trkpt>
      <trkpt lat="36.553607" lon="127.884624"><ele>786.6</ele></trkpt>
      <trkpt lat="36.553892" lon="127.884554"><ele>792.2</ele></trkpt>
      <trkpt lat="36.554022" lon="127.884388"><ele>787.4</ele></trkpt>
      <trkpt lat="36.554172" lon="127.884339"><ele>786.9</ele></trkpt>
      <trkpt lat="36.554233" lon="127.884098"><ele>780.4</ele></trkpt>
      <trkpt lat="36.554444" lon="127.883723"><ele>780.0</ele></trkpt>
      <trkpt lat="36.554474" lon="127.883133"><ele>784.6</ele></trkpt>
      <trkpt lat="36.554547" lon="127.882897"><ele>783.5</ele></trkpt>
      <trkpt lat="36.554491" lon="127.882741"><ele>782.0</ele></trkpt>
      <trkpt lat="36.554832" lon="127.881357"><ele>787.0</ele></trkpt>
      <trkpt lat="36.555082" lon="127.880998"><ele>799.7</ele></trkpt>
      <trkpt lat="36.555151" lon="127.880783"><ele>804.8</ele></trkpt>
      <trkpt lat="36.555801" lon="127.879919"><ele>823.8</ele></trkpt>
      <trkpt lat="36.555849" lon="127.879710"><ele>827.2</ele></trkpt>
      <trkpt lat="36.555905" lon="127.878696"><ele>852.8</ele></trkpt>
      <trkpt lat="36.556107" lon="127.878246"><ele>874.0</ele></trkpt>
      <trkpt lat="36.556383" lon="127.878047"><ele>887.3</ele></trkpt>
      <trkpt lat="36.556267" lon="127.877843"><ele>893.8</ele></trkpt>
      <trkpt lat="36.556663" lon="127.877039"><ele>933.6</ele></trkpt>
      <trkpt lat="36.556642" lon="127.876690"><ele>932.0</ele></trkpt>
      <trkpt lat="36.556211" lon="127.875622"><ele>929.4</ele></trkpt>
      <trkpt lat="36.555944" lon="127.875263"><ele>946.4</ele></trkpt>
      <trkpt lat="36.555875" lon="127.874962"><ele>959.5</ele></trkpt>
      <trkpt lat="36.555918" lon="127.874539"><ele>965.3</ele></trkpt>
      <trkpt lat="36.555801" lon="127.874356"><ele>970.9</ele></trkpt>
      <trkpt lat="36.555323" lon="127.874104"><ele>987.7</ele></trkpt>
      <trkpt lat="36.555237" lon="127.873792"><ele>994.8</ele></trkpt>
      <trkpt lat="36.555789" lon="127.873787"><ele>979.4</ele></trkpt>
      <trkpt lat="36.556200" lon="127.873514"><ele>970.8</ele></trkpt>
      <trkpt lat="36.556719" lon="127.873540"><ele>971.6</ele></trkpt>
      <trkpt lat="36.556909" lon="127.873431"><ele>971.9</ele></trkpt>
      <trkpt lat="36.557593" lon="127.872821"><ele>979.6</ele></trkpt>
      <trkpt lat="36.557793" lon="127.872546"><ele>984.5</ele></trkpt>
      <trkpt lat="36.557957" lon="127.872475"><ele>986.4</ele></trkpt>
      <trkpt lat="36.557981" lon="127.872361"><ele>983.5</ele></trkpt>
      <trkpt lat="36.558119" lon="127.872355"><ele>986.7</ele></trkpt>
      <trkpt lat="36.558382" lon="127.872060"><ele>985.2</ele></trkpt>
      <trkpt lat="36.558818" lon="127.871799"><ele>994.8</ele></trkpt>
      <trkpt lat="36.558964" lon="127.871492"><ele>993.7</ele></trkpt>
      <trkpt lat="36.559005" lon="127.871215"><ele>993.5</ele></trkpt>
      <trkpt lat="36.558954" lon="127.870984"><ele>994.8</ele></trkpt>
      <trkpt lat="36.559063" lon="127.870772"><ele>996.9</ele></trkpt>
      <trkpt lat="36.559250" lon="127.870656"><ele>997.4</ele></trkpt>
      <trkpt lat="36.559292" lon="127.870522"><ele>997.9</ele></trkpt>
      <trkpt lat="36.559481" lon="127.870284"><ele>1000.5</ele></trkpt>
      <trkpt lat="36.560073" lon="127.869920"><ele>996.8</ele></trkpt>
      <trkpt lat="36.560264" lon="127.869635"><ele>995.6</ele></trkpt>
      <trkpt lat="36.560274" lon="127.869534"><ele>994.2</ele></trkpt>
      <trkpt lat="36.560437" lon="127.869497"><ele>993.3</ele></trkpt>
      <trkpt lat="36.560651" lon="127.869215"><ele>985.5</ele></trkpt>
      <trkpt lat="36.561006" lon="127.869037"><ele>973.0</ele></trkpt>
      <trkpt lat="36.561239" lon="127.868809"><ele>963.6</ele></trkpt>
      <trkpt lat="36.561508" lon="127.868765"><ele>959.9</ele></trkpt>
      <trkpt lat="36.561822" lon="127.868598"><ele>959.2</ele></trkpt>
      <trkpt lat="36.562033" lon="127.868608"><ele>959.3</ele></trkpt>
      <trkpt lat="36.562608" lon="127.868441"><ele>953.8</ele></trkpt>
      <trkpt lat="36.562883" lon="127.868290"><ele>956.8</ele></trkpt>
      <trkpt lat="36.563040" lon="127.868093"><ele>962.1</ele></trkpt>
      <trkpt lat="36.563219" lon="127.868045"><ele>970.6</ele></trkpt>
      <trkpt lat="36.563363" lon="127.867854"><ele>976.7</ele></trkpt>
      <trkpt lat="36.563442" lon="127.867427"><ele>976.6</ele></trkpt>
      <trkpt lat="36.563679" lon="127.867337"><ele>987.0</ele></trkpt>
      <trkpt lat="36.563897" lon="127.866889"><ele>988.9</ele></trkpt>
      <trkpt lat="36.564303" lon="127.866478"><ele>995.5</ele></trkpt>
      <trkpt lat="36.564343" lon="127.866269"><ele>1000.1</ele></trkpt>
      <trkpt lat="36.565306" lon="127.865124"><ele>997.2</ele></trkpt>
      <trkpt lat="36.565339" lon="127.865029"><ele>995.7</ele></trkpt>
      <trkpt lat="36.565324" lon="127.864775"><ele>990.6</ele></trkpt>
      <trkpt lat="36.565393" lon="127.864570"><ele>990.0</ele></trkpt>
      <trkpt lat="36.565615" lon="127.864296"><ele>988.5</ele></trkpt>
      <trkpt lat="36.565866" lon="127.863704"><ele>973.0</ele></trkpt>
      <trkpt lat="36.565893" lon="127.863304"><ele>973.2</ele></trkpt>
      <trkpt lat="36.566054" lon="127.862986"><ele>976.3</ele></trkpt>
      <trkpt lat="36.566065" lon="127.862770"><ele>978.7</ele></trkpt>
      <trkpt lat="36.566239" lon="127.862728"><ele>981.7</ele></trkpt>
      <trkpt lat="36.566540" lon="127.862834"><ele>983.1</ele></trkpt>
      <trkpt lat="36.566898" lon="127.862383"><ele>996.4</ele></trkpt>
      <trkpt lat="36.567194" lon="127.862365"><ele>1002.4</ele></trkpt>
      <trkpt lat="36.567549" lon="127.862131"><ele>998.0</ele></trkpt>
      <trkpt lat="36.567727" lon="127.861833"><ele>982.1</ele></trkpt>
      <trkpt lat="36.567819" lon="127.861802"><ele>978.0</ele></trkpt>
      <trkpt lat="36.568266" lon="127.861328"><ele>953.5</ele></trkpt>
      <trkpt lat="36.568319" lon="127.861204"><ele>950.9</ele></trkpt>
      <trkpt lat="36.568287" lon="127.860993"><ele>946.7</ele></trkpt>
      <trkpt lat="36.568364" lon="127.860631"><ele>945.7</ele></trkpt>
      <trkpt lat="36.568477" lon="127.860415"><ele>947.1</ele></trkpt>
      <trkpt lat="36.568432" lon="127.860226"><ele>946.4</ele></trkpt>
      <trkpt lat="36.568451" lon="127.860103"><ele>945.9</ele></trkpt>
      <trkpt lat="36.568587" lon="127.860133"><ele>949.9</ele></trkpt>
      <trkpt lat="36.568709" lon="127.860093"><ele>950.9</ele></trkpt>
      <trkpt lat="36.568822" lon="127.859932"><ele>952.5</ele></trkpt>
      <trkpt lat="36.568994" lon="127.859867"><ele>955.2</ele></trkpt>
      <trkpt lat="36.569261" lon="127.859632"><ele>961.0</ele></trkpt>
      <trkpt lat="36.569192" lon="127.859503"><ele>959.7</ele></trkpt>
      <trkpt lat="36.569209" lon="127.859320"><ele>957.9</ele></trkpt>
      <trkpt lat="36.569313" lon="127.859181"><ele>958.9</ele></trkpt>
      <trkpt lat="36.569356" lon="127.858870"><ele>952.2</ele></trkpt>
      <trkpt lat="36.569313" lon="127.858730"><ele>947.1</ele></trkpt>
      <trkpt lat="36.569407" lon="127.858634"><ele>946.7</ele></trkpt>
      <trkpt lat="36.569201" lon="127.858151"><ele>931.4</ele></trkpt>
      <trkpt lat="36.569192" lon="127.857990"><ele>931.6</ele></trkpt>
      <trkpt lat="36.569140" lon="127.857893"><ele>930.5</ele></trkpt>
      <trkpt lat="36.569442" lon="127.857336"><ele>928.4</ele></trkpt>
      <trkpt lat="36.569657" lon="127.857142"><ele>920.9</ele></trkpt>
      <trkpt lat="36.569692" lon="127.856863"><ele>915.8</ele></trkpt>
      <trkpt lat="36.569640" lon="127.856477"><ele>905.9</ele></trkpt>
      <trkpt lat="36.569924" lon="127.855909"><ele>906.4</ele></trkpt>
      <trkpt lat="36.569718" lon="127.855619"><ele>902.8</ele></trkpt>
      <trkpt lat="36.569511" lon="127.855565"><ele>893.2</ele></trkpt>
      <trkpt lat="36.569209" lon="127.855233"><ele>873.9</ele></trkpt>
      <trkpt lat="36.569270" lon="127.855125"><ele>875.6</ele></trkpt>
      <trkpt lat="36.569433" lon="127.855072"><ele>882.1</ele></trkpt>
      <trkpt lat="36.569907" lon="127.854460"><ele>877.0</ele></trkpt>
      <trkpt lat="36.570657" lon="127.854342"><ele>887.3</ele></trkpt>
      <trkpt lat="36.570665" lon="127.853999"><ele>896.9</ele></trkpt>
      <trkpt lat="36.570752" lon="127.853709"><ele>911.2</ele></trkpt>
      <trkpt lat="36.571062" lon="127.853312"><ele>936.3</ele></trkpt>
      <trkpt lat="36.571363" lon="127.853377"><ele>936.1</ele></trkpt>
      <trkpt lat="36.571527" lon="127.853087"><ele>948.4</ele></trkpt>
      <trkpt lat="36.571872" lon="127.853044"><ele>938.9</ele></trkpt>
      <trkpt lat="36.571717" lon="127.852636"><ele>954.9</ele></trkpt>
      <trkpt lat="36.571786" lon="127.852250"><ele>939.9</ele></trkpt>
      <trkpt lat="36.571674" lon="127.850973"><ele>876.0</ele></trkpt>
      <trkpt lat="36.571450" lon="127.850920"><ele>869.3</ele></trkpt>
      <trkpt lat="36.571717" lon="127.850437"><ele>858.7</ele></trkpt>
      <trkpt lat="36.571648" lon="127.849922"><ele>845.6</ele></trkpt>
      <trkpt lat="36.571501" lon="127.849428"><ele>833.2</ele></trkpt>
      <trkpt lat="36.571605" lon="127.849192"><ele>829.5</ele></trkpt>
      <trkpt lat="36.571596" lon="127.848677"><ele>817.8</ele></trkpt>
      <trkpt lat="36.571320" lon="127.848141"><ele>809.9</ele></trkpt>
      <trkpt lat="36.570881" lon="127.847679"><ele>793.6</ele></trkpt>
      <trkpt lat="36.570872" lon="127.847261"><ele>783.0</ele></trkpt>
      <trkpt lat="36.570683" lon="127.847068"><ele>773.1</ele></trkpt>
      <trkpt lat="36.570648" lon="127.846864"><ele>768.8</ele></trkpt>
      <trkpt lat="36.570037" lon="127.845727"><ele>784.7</ele></trkpt>
      <trkpt lat="36.569537" lon="127.844450"><ele>812.8</ele></trkpt>
      <trkpt lat="36.569433" lon="127.844321"><ele>815.1</ele></trkpt>
      <trkpt lat="36.569537" lon="127.844203"><ele>816.8</ele></trkpt>
      <trkpt lat="36.569425" lon="127.843678"><ele>827.5</ele></trkpt>
      <trkpt lat="36.569597" lon="127.843345"><ele>831.6</ele></trkpt>
      <trkpt lat="36.569623" lon="127.842809"><ele>838.4</ele></trkpt>
      <trkpt lat="36.569347" lon="127.842090"><ele>812.2</ele></trkpt>
      <trkpt lat="36.569985" lon="127.841457"><ele>801.7</ele></trkpt>
      <trkpt lat="36.570304" lon="127.841414"><ele>812.7</ele></trkpt>
      <trkpt lat="36.570605" lon="127.841092"><ele>803.9</ele></trkpt>
      <trkpt lat="36.570631" lon="127.840523"><ele>783.2</ele></trkpt>
      <trkpt lat="36.570398" lon="127.839719"><ele>770.1</ele></trkpt>
      <trkpt lat="36.570476" lon="127.839139"><ele>760.4</ele></trkpt>
      <trkpt lat="36.570347" lon="127.838667"><ele>756.1</ele></trkpt>
      <trkpt lat="36.570622" lon="127.838152"><ele>771.9</ele></trkpt>
      <trkpt lat="36.570648" lon="127.837723"><ele>781.6</ele></trkpt>
      <trkpt lat="36.570717" lon="127.837487"><ele>785.8</ele></trkpt>
      <trkpt lat="36.570567" lon="127.837105"><ele>796.2</ele></trkpt>
      <trkpt lat="36.570545" lon="127.836275"><ele>798.2</ele></trkpt>
      <trkpt lat="36.570700" lon="127.835856"><ele>792.8</ele></trkpt>
      <trkpt lat="36.571407" lon="127.835674"><ele>789.8</ele></trkpt>
      <trkpt lat="36.571786" lon="127.835416"><ele>798.9</ele></trkpt>
      <trkpt lat="36.572242" lon="127.834944"><ele>809.5</ele></trkpt>
      <trkpt lat="36.572359" lon="127.834612"><ele>807.8</ele></trkpt>
      <trkpt lat="36.572798" lon="127.834035"><ele>812.0</ele></trkpt>
      <trkpt lat="36.573061" lon="127.833571"><ele>808.1</ele></trkpt>
      <trkpt lat="36.573078" lon="127.833161"><ele>801.8</ele></trkpt>
      <trkpt lat="36.573186" lon="127.832839"><ele>804.0</ele></trkpt>
      <trkpt lat="36.573190" lon="127.832375"><ele>808.9</ele></trkpt>
      <trkpt lat="36.573285" lon="127.832134"><ele>809.8</ele></trkpt>
      <trkpt lat="36.573500" lon="127.831855"><ele>802.4</ele></trkpt>
      <trkpt lat="36.573742" lon="127.831704"><ele>798.8</ele></trkpt>
      <trkpt lat="36.574093" lon="127.831181"><ele>787.2</ele></trkpt>
      <trkpt lat="36.574371" lon="127.830292"><ele>773.8</ele></trkpt>
      <trkpt lat="36.574365" lon="127.830129"><ele>770.4</ele></trkpt>
      <trkpt lat="36.574017" lon="127.829602"><ele>758.4</ele></trkpt>
      <trkpt lat="36.573965" lon="127.829225"><ele>753.4</ele></trkpt>
      <trkpt lat="36.573629" lon="127.829452"><ele>751.2</ele></trkpt>
      <trkpt lat="36.573384" lon="127.829538"><ele>748.3</ele></trkpt>
      <trkpt lat="36.573104" lon="127.829554"><ele>746.8</ele></trkpt>
      <trkpt lat="36.572389" lon="127.830412"><ele>731.5</ele></trkpt>
      <trkpt lat="36.571855" lon="127.830815"><ele>721.5</ele></trkpt>
      <trkpt lat="36.571609" lon="127.831373"><ele>717.7</ele></trkpt>
      <trkpt lat="36.571351" lon="127.831652"><ele>709.8</ele></trkpt>
      <trkpt lat="36.570683" lon="127.832166"><ele>688.8</ele></trkpt>
      <trkpt lat="36.570136" lon="127.832821"><ele>671.8</ele></trkpt>
      <trkpt lat="36.570037" lon="127.832816"><ele>669.2</ele></trkpt>
      <trkpt lat="36.569606" lon="127.833138"><ele>656.8</ele></trkpt>
      <trkpt lat="36.569076" lon="127.833180"><ele>643.8</ele></trkpt>
      <trkpt lat="36.569007" lon="127.833272"><ele>643.9</ele></trkpt>
      <trkpt lat="36.568766" lon="127.833331"><ele>638.9</ele></trkpt>
      <trkpt lat="36.568257" lon="127.833395"><ele>626.4</ele></trkpt>
      <trkpt lat="36.568046" lon="127.833341"><ele>619.8</ele></trkpt>
      <trkpt lat="36.567930" lon="127.833368"><ele>616.7</ele></trkpt>
      <trkpt lat="36.567762" lon="127.833293"><ele>610.3</ele></trkpt>
      <trkpt lat="36.567486" lon="127.833347"><ele>602.0</ele></trkpt>
      <trkpt lat="36.567115" lon="127.833325"><ele>594.8</ele></trkpt>
      <trkpt lat="36.566633" lon="127.833148"><ele>585.3</ele></trkpt>
      <trkpt lat="36.565784" lon="127.832601"><ele>560.8</ele></trkpt>
      <trkpt lat="36.565508" lon="127.832660"><ele>552.2</ele></trkpt>
      <trkpt lat="36.565271" lon="127.832633"><ele>546.2</ele></trkpt>
      <trkpt lat="36.564423" lon="127.832397"><ele>532.6</ele></trkpt>
      <trkpt lat="36.563746" lon="127.832075"><ele>517.4</ele></trkpt>
      <trkpt lat="36.563419" lon="127.831904"><ele>509.4</ele></trkpt>
      <trkpt lat="36.561829" lon="127.830734"><ele>488.2</ele></trkpt>
      <trkpt lat="36.561363" lon="127.830219"><ele>479.9</ele></trkpt>
      <trkpt lat="36.560997" lon="127.830133"><ele>471.1</ele></trkpt>
      <trkpt lat="36.560437" lon="127.829849"><ele>465.1</ele></trkpt>
      <trkpt lat="36.560105" lon="127.830032"><ele>459.4</ele></trkpt>
      <trkpt lat="36.559459" lon="127.829972"><ele>450.5</ele></trkpt>
      <trkpt lat="36.559222" lon="127.830080"><ele>449.9</ele></trkpt>
      <trkpt lat="36.558920" lon="127.830053"><ele>444.4</ele></trkpt>
      <trkpt lat="36.557886" lon="127.829683"><ele>435.7</ele></trkpt>
      <trkpt lat="36.557352" lon="127.829661"><ele>433.7</ele></trkpt>
      <trkpt lat="36.557016" lon="127.829409"><ele>426.3</ele></trkpt>
      <trkpt lat="36.556705" lon="127.829323"><ele>423.6</ele></trkpt>
      <trkpt lat="36.556331" lon="127.829313"><ele>418.5</ele></trkpt>
      <trkpt lat="36.555934" lon="127.829431"><ele>417.4</ele></trkpt>
      <trkpt lat="36.555577" lon="127.829425"><ele>414.8</ele></trkpt>
      <trkpt lat="36.555417" lon="127.829656"><ele>419.6</ele></trkpt>
      <trkpt lat="36.555368" lon="127.829926"><ele>425.0</ele></trkpt>
      <trkpt lat="36.555137" lon="127.829998"><ele>427.5</ele></trkpt>
      <trkpt lat="36.554972" lon="127.829787"><ele>423.3</ele></trkpt>
      <trkpt lat="36.554870" lon="127.829398"><ele>413.2</ele></trkpt>
      <trkpt lat="36.554710" lon="127.829275"><ele>409.0</ele></trkpt>
      <trkpt lat="36.553903" lon="127.829164"><ele>398.3</ele></trkpt>
      <trkpt lat="36.553104" lon="127.828790"><ele>385.4</ele></trkpt>
      <trkpt lat="36.552903" lon="127.828823"><ele>390.9</ele></trkpt>
      <trkpt lat="36.552768" lon="127.828771"><ele>394.3</ele></trkpt>
      <trkpt lat="36.552713" lon="127.828646"><ele>394.7</ele></trkpt>
      <trkpt lat="36.552721" lon="127.828001"><ele>383.3</ele></trkpt>
      <trkpt lat="36.552642" lon="127.827913"><ele>383.9</ele></trkpt>
      <trkpt lat="36.552190" lon="127.827744"><ele>383.0</ele></trkpt>
      <trkpt lat="36.551155" lon="127.827113"><ele>379.7</ele></trkpt>
      <trkpt lat="36.550924" lon="127.826853"><ele>380.1</ele></trkpt>
      <trkpt lat="36.550747" lon="127.826388"><ele>371.4</ele></trkpt>
      <trkpt lat="36.550629" lon="127.826315"><ele>370.1</ele></trkpt>
      <trkpt lat="36.550032" lon="127.826212"><ele>371.0</ele></trkpt>
      <trkpt lat="36.549645" lon="127.826086"><ele>368.5</ele></trkpt>
      <trkpt lat="36.549257" lon="127.825842"><ele>365.1</ele></trkpt>
      <trkpt lat="36.548839" lon="127.825708"><ele>363.8</ele></trkpt>
      <trkpt lat="36.548215" lon="127.825602"><ele>364.6</ele></trkpt>
      <trkpt lat="36.548049" lon="127.825507"><ele>364.9</ele></trkpt>
      <trkpt lat="36.547688" lon="127.825088"><ele>362.9</ele></trkpt>
      <trkpt lat="36.547402" lon="127.824588"><ele>362.0</ele></trkpt>
      <trkpt lat="36.547317" lon="127.824287"><ele>363.8</ele></trkpt>
      <trkpt lat="36.547272" lon="127.823874"><ele>365.0</ele></trkpt>
      <trkpt lat="36.547392" lon="127.823105"><ele>357.1</ele></trkpt>
      <trkpt lat="36.547394" lon="127.822540"><ele>358.6</ele></trkpt>
      <trkpt lat="36.547321" lon="127.822316"><ele>356.8</ele></trkpt>
      <trkpt lat="36.547128" lon="127.822015"><ele>355.7</ele></trkpt>
      <trkpt lat="36.546900" lon="127.821801"><ele>356.0</ele></trkpt>
      <trkpt lat="36.546551" lon="127.821642"><ele>356.1</ele></trkpt>
      <trkpt lat="36.545412" lon="127.821425"><ele>354.0</ele></trkpt>
      <trkpt lat="36.544377" lon="127.821120"><ele>351.5</ele></trkpt>
      <trkpt lat="36.544007" lon="127.821065"><ele>350.3</ele></trkpt>
      <trkpt lat="36.543116" lon="127.821100"><ele>350.2</ele></trkpt>
      <trkpt lat="36.542105" lon="127.821455"><ele>349.5</ele></trkpt>
    </trkseg>
  </trk>
</gpx>
