<?xml version="1.0" encoding="UTF-8"?>
<gpx version="1.1" creator="kr-100-mountains route-harvester"
     xmlns="http://www.topografix.com/GPX/1/1"
     xmlns:k100="https://github.com/jay-jang/kr-100-mountains/ns/1"
     xmlns:xsi="http://www.w3.org/2001/XMLSchema-instance"
     xsi:schemaLocation="http://www.topografix.com/GPX/1/1 http://www.topografix.com/GPX/1/1/gpx.xsd">
  <metadata>
    <name>속리산 · 화북-문장대-천왕봉 종주 (대안 1) (OSM 계산 경로)</name>
    <desc>실제 GPS 기록이 아닙니다. OpenStreetMap에 등록된 등산로 선형 위에서 계산한 경로이며, 현장 통제·훼손·출입 제한·계절 통제를 반영하지 않을 수 있습니다. 산행 전 공식 안내를 확인하세요.</desc>
    <time>2026-08-04T05:42:16.900Z</time>
    <link href="https://www.openstreetmap.org/copyright"><text>© OpenStreetMap contributors (ODbL 1.0)</text></link>
    <link href="https://registry.opendata.aws/terrain-tiles/"><text>Elevation: SRTM 1 arc-second (NASA/USGS) via AWS Terrain Tiles</text></link>
    <extensions>
      <k100:provenance>osm-routed</k100:provenance>
      <k100:not_a_recorded_track>true</k100:not_a_recorded_track>
      <k100:mountain_id>sokrisan</k100:mountain_id>
      <k100:mountain_name>속리산</k100:mountain_name>
      <k100:route_id>sokrisan-53e4fa85</k100:route_id>
      <k100:route_index>2</k100:route_index>
      <k100:route_name>화북-문장대-천왕봉 종주</k100:route_name>
      <k100:variant>1</k100:variant>
      <k100:source>OpenStreetMap via Overpass API</k100:source>
      <k100:license>ODbL-1.0</k100:license>
      <k100:attribution>© OpenStreetMap contributors</k100:attribution>
      <k100:elevation_source>SRTM 1 arc-second (NASA/USGS) — AWS Terrain Tiles 배포본. 지형 DEM 추정 고도이며 실측 아님</k100:elevation_source>
      <k100:algorithm>dijkstra-grid-v1</k100:algorithm>
      <k100:osm_snapshot>2026-08-04</k100:osm_snapshot>
      <k100:snap_trailhead_m>127</k100:snap_trailhead_m>
      <k100:snap_summit_m>80</k100:snap_summit_m>
      <k100:validation_score>93</k100:validation_score>
      <k100:validation_status>accepted</k100:validation_status>
    </extensions>
  </metadata>
  <trk>
    <name>속리산 · 화북-문장대-천왕봉 종주 (대안 1) (OSM 계산 경로)</name>
    <desc>실제 GPS 기록이 아닙니다. OpenStreetMap에 등록된 등산로 선형 위에서 계산한 경로이며, 현장 통제·훼손·출입 제한·계절 통제를 반영하지 않을 수 있습니다. 산행 전 공식 안내를 확인하세요.</desc>
    <trkseg>
      <trkpt lat="36.551501" lon="127.893577"><ele>773.6</ele></trkpt>
      <trkpt lat="36.551738" lon="127.892928"><ele>786.4</ele></trkpt>
      <trkpt lat="36.552077" lon="127.892457"><ele>797.8</ele></trkpt>
      <trkpt lat="36.552233" lon="127.892021"><ele>800.7</ele></trkpt>
      <trkpt lat="36.552255" lon="127.891437"><ele>799.9</ele></trkpt>
      <trkpt lat="36.552328" lon="127.891024"><ele>797.2</ele></trkpt>
      <trkpt lat="36.552246" lon="127.890637"><ele>795.6</ele></trkpt>
      <trkpt lat="36.552294" lon="127.890471"><ele>798.2</ele></trkpt>
      <trkpt lat="36.552186" lon="127.890047"><ele>803.1</ele></trkpt>
      <trkpt lat="36.552350" lon="127.889827"><ele>812.0</ele></trkpt>
      <trkpt lat="36.552410" lon="127.889339"><ele>818.1</ele></trkpt>
      <trkpt lat="36.552660" lon="127.888813"><ele>826.5</ele></trkpt>
      <trkpt lat="36.553535" lon="127.888341"><ele>847.2</ele></trkpt>
      <trkpt lat="36.553612" lon="127.888164"><ele>854.9</ele></trkpt>
      <trkpt lat="36.554194" lon="127.887478"><ele>871.5</ele></trkpt>
      <trkpt lat="36.554229" lon="127.887140"><ele>868.7</ele></trkpt>
      <trkpt lat="36.554366" lon="127.886957"><ele>865.3</ele></trkpt>
      <trkpt lat="36.554224" lon="127.886743"><ele>859.6</ele></trkpt>
      <trkpt lat="36.554272" lon="127.886432"><ele>847.9</ele></trkpt>
      <trkpt lat="36.554147" lon="127.885670"><ele>823.6</ele></trkpt>
      <trkpt lat="36.554035" lon="127.885493"><ele>817.3</ele></trkpt>
      <trkpt lat="36.553910" lon="127.885107"><ele>806.4</ele></trkpt>
      <trkpt lat="36.553634" lon="127.884785"><ele>791.3</ele></trkpt>
      <trkpt lat="36.553607" lon="127.884624"><ele>786.6</ele></trkpt>
      <trkpt lat="36.553892" lon="127.884554"><ele>792.2</ele></trkpt>
      <trkpt lat="36.554022" lon="127.884388"><ele>787.4</ele></trkpt>
      <trkpt lat="36.554172" lon="127.884339"><ele>786.9</ele></trkpt>
      <trkpt lat="36.554233" lon="127.884098"><ele>780.4</ele></trkpt>
      <trkpt lat="36.554444" lon="127.883723"><ele>780.0</ele></trkpt>
      <trkpt lat="36.554474" lon="127.883133"><ele>784.6</ele></trkpt>
      <trkpt lat="36.554547" lon="127.882897"><ele>783.5</ele></trkpt>
      <trkpt lat="36.554491" lon="127.882741"><ele>782.0</ele></trkpt>
      <trkpt lat="36.554832" lon="127.881357"><ele>787.0</ele></trkpt>
      <trkpt lat="36.555082" lon="127.880998"><ele>799.7</ele></trkpt>
      <trkpt lat="36.555151" lon="127.880783"><ele>804.8</ele></trkpt>
      <trkpt lat="36.555801" lon="127.879919"><ele>823.8</ele></trkpt>
      <trkpt lat="36.555849" lon="127.879710"><ele>827.2</ele></trkpt>
      <trkpt lat="36.555905" lon="127.878696"><ele>852.8</ele></trkpt>
      <trkpt lat="36.556107" lon="127.878246"><ele>874.0</ele></trkpt>
      <trkpt lat="36.556383" lon="127.878047"><ele>887.3</ele></trkpt>
      <trkpt lat="36.556267" lon="127.877843"><ele>893.8</ele></trkpt>
      <trkpt lat="36.556663" lon="127.877039"><ele>933.6</ele></trkpt>
      <trkpt lat="36.556642" lon="127.876690"><ele>932.0</ele></trkpt>
      <trkpt lat="36.556211" lon="127.875622"><ele>929.4</ele></trkpt>
      <trkpt lat="36.555944" lon="127.875263"><ele>946.4</ele></trkpt>
      <trkpt lat="36.555875" lon="127.874962"><ele>959.5</ele></trkpt>
      <trkpt lat="36.555918" lon="127.874539"><ele>965.3</ele></trkpt>
      <trkpt lat="36.555801" lon="127.874356"><ele>970.9</ele></trkpt>
      <trkpt lat="36.555323" lon="127.874104"><ele>987.7</ele></trkpt>
      <trkpt lat="36.555237" lon="127.873792"><ele>994.8</ele></trkpt>
      <trkpt lat="36.555033" lon="127.873692"><ele>995.5</ele></trkpt>
      <trkpt lat="36.554769" lon="127.873351"><ele>996.9</ele></trkpt>
      <trkpt lat="36.554627" lon="127.873272"><ele>997.2</ele></trkpt>
      <trkpt lat="36.553422" lon="127.873069"><ele>1002.4</ele></trkpt>
      <trkpt lat="36.553105" lon="127.872910"><ele>1005.4</ele></trkpt>
      <trkpt lat="36.552991" lon="127.872696"><ele>1003.8</ele></trkpt>
      <trkpt lat="36.552900" lon="127.872646"><ele>1003.0</ele></trkpt>
      <trkpt lat="36.552238" lon="127.872541"><ele>1004.6</ele></trkpt>
      <trkpt lat="36.551977" lon="127.872252"><ele>1008.9</ele></trkpt>
      <trkpt lat="36.551638" lon="127.872032"><ele>1012.4</ele></trkpt>
      <trkpt lat="36.551598" lon="127.871871"><ele>1009.4</ele></trkpt>
      <trkpt lat="36.551613" lon="127.871674"><ele>1006.7</ele></trkpt>
      <trkpt lat="36.551567" lon="127.871654"><ele>1005.4</ele></trkpt>
      <trkpt lat="36.551297" lon="127.871907"><ele>1001.6</ele></trkpt>
      <trkpt lat="36.551189" lon="127.872401"><ele>1000.1</ele></trkpt>
      <trkpt lat="36.551032" lon="127.872544"><ele>992.5</ele></trkpt>
      <trkpt lat="36.550557" lon="127.872307"><ele>972.6</ele></trkpt>
      <trkpt lat="36.550381" lon="127.871781"><ele>960.4</ele></trkpt>
      <trkpt lat="36.549938" lon="127.871607"><ele>946.4</ele></trkpt>
      <trkpt lat="36.549635" lon="127.871860"><ele>958.2</ele></trkpt>
      <trkpt lat="36.549513" lon="127.871905"><ele>960.1</ele></trkpt>
      <trkpt lat="36.549336" lon="127.871866"><ele>958.4</ele></trkpt>
      <trkpt lat="36.549098" lon="127.872020"><ele>966.5</ele></trkpt>
      <trkpt lat="36.548675" lon="127.871858"><ele>963.8</ele></trkpt>
      <trkpt lat="36.548355" lon="127.871878"><ele>968.4</ele></trkpt>
      <trkpt lat="36.548200" lon="127.871800"><ele>965.2</ele></trkpt>
      <trkpt lat="36.548004" lon="127.871816"><ele>963.1</ele></trkpt>
      <trkpt lat="36.547729" lon="127.871747"><ele>959.6</ele></trkpt>
      <trkpt lat="36.547124" lon="127.872073"><ele>957.0</ele></trkpt>
      <trkpt lat="36.546660" lon="127.871997"><ele>955.4</ele></trkpt>
      <trkpt lat="36.545884" lon="127.872199"><ele>973.3</ele></trkpt>
      <trkpt lat="36.545591" lon="127.872167"><ele>984.3</ele></trkpt>
      <trkpt lat="36.545376" lon="127.871831"><ele>993.6</ele></trkpt>
      <trkpt lat="36.545217" lon="127.871724"><ele>998.4</ele></trkpt>
      <trkpt lat="36.545090" lon="127.871533"><ele>1001.0</ele></trkpt>
      <trkpt lat="36.544687" lon="127.871296"><ele>1011.7</ele></trkpt>
      <trkpt lat="36.544503" lon="127.871248"><ele>1014.9</ele></trkpt>
      <trkpt lat="36.543887" lon="127.871262"><ele>1023.4</ele></trkpt>
      <trkpt lat="36.543457" lon="127.870863"><ele>1032.0</ele></trkpt>
      <trkpt lat="36.543275" lon="127.870859"><ele>1034.1</ele></trkpt>
      <trkpt lat="36.543215" lon="127.870808"><ele>1034.6</ele></trkpt>
      <trkpt lat="36.543136" lon="127.870851"><ele>1035.1</ele></trkpt>
      <trkpt lat="36.543051" lon="127.870778"><ele>1035.6</ele></trkpt>
      <trkpt lat="36.542890" lon="127.870534"><ele>1033.8</ele></trkpt>
      <trkpt lat="36.542758" lon="127.870450"><ele>1033.5</ele></trkpt>
      <trkpt lat="36.542558" lon="127.870083"><ele>1025.5</ele></trkpt>
      <trkpt lat="36.542518" lon="127.869903"><ele>1020.9</ele></trkpt>
      <trkpt lat="36.542299" lon="127.869552"><ele>1007.3</ele></trkpt>
      <trkpt lat="36.542362" lon="127.869291"><ele>1001.9</ele></trkpt>
      <trkpt lat="36.542237" lon="127.869131"><ele>996.1</ele></trkpt>
      <trkpt lat="36.542277" lon="127.868963"><ele>991.0</ele></trkpt>
      <trkpt lat="36.542218" lon="127.868869"><ele>988.3</ele></trkpt>
      <trkpt lat="36.542235" lon="127.868695"><ele>983.1</ele></trkpt>
      <trkpt lat="36.542157" lon="127.868582"><ele>978.5</ele></trkpt>
      <trkpt lat="36.542115" lon="127.868367"><ele>969.5</ele></trkpt>
      <trkpt lat="36.542146" lon="127.867918"><ele>956.0</ele></trkpt>
      <trkpt lat="36.542239" lon="127.867758"><ele>953.0</ele></trkpt>
      <trkpt lat="36.542045" lon="127.866727"><ele>925.7</ele></trkpt>
      <trkpt lat="36.542062" lon="127.866445"><ele>919.8</ele></trkpt>
      <trkpt lat="36.541756" lon="127.866067"><ele>908.7</ele></trkpt>
      <trkpt lat="36.541735" lon="127.865802"><ele>906.8</ele></trkpt>
      <trkpt lat="36.541565" lon="127.865689"><ele>902.4</ele></trkpt>
      <trkpt lat="36.541454" lon="127.865525"><ele>898.7</ele></trkpt>
      <trkpt lat="36.541405" lon="127.865034"><ele>898.7</ele></trkpt>
      <trkpt lat="36.540886" lon="127.864670"><ele>903.9</ele></trkpt>
      <trkpt lat="36.540495" lon="127.864240"><ele>896.3</ele></trkpt>
      <trkpt lat="36.540380" lon="127.864204"><ele>888.6</ele></trkpt>
      <trkpt lat="36.539977" lon="127.864282"><ele>871.6</ele></trkpt>
      <trkpt lat="36.539815" lon="127.864375"><ele>865.9</ele></trkpt>
      <trkpt lat="36.539543" lon="127.864243"><ele>856.5</ele></trkpt>
      <trkpt lat="36.539476" lon="127.864342"><ele>853.5</ele></trkpt>
      <trkpt lat="36.539363" lon="127.864343"><ele>848.3</ele></trkpt>
      <trkpt lat="36.539226" lon="127.864259"><ele>842.4</ele></trkpt>
      <trkpt lat="36.538612" lon="127.864281"><ele>816.4</ele></trkpt>
      <trkpt lat="36.538392" lon="127.864071"><ele>805.3</ele></trkpt>
      <trkpt lat="36.538125" lon="127.863959"><ele>794.8</ele></trkpt>
      <trkpt lat="36.538066" lon="127.863876"><ele>791.7</ele></trkpt>
      <trkpt lat="36.537926" lon="127.863807"><ele>787.0</ele></trkpt>
      <trkpt lat="36.537701" lon="127.863828"><ele>784.8</ele></trkpt>
      <trkpt lat="36.537571" lon="127.863760"><ele>784.2</ele></trkpt>
      <trkpt lat="36.537222" lon="127.863090"><ele>769.6</ele></trkpt>
      <trkpt lat="36.537296" lon="127.862948"><ele>764.2</ele></trkpt>
      <trkpt lat="36.537059" lon="127.862741"><ele>751.3</ele></trkpt>
      <trkpt lat="36.536949" lon="127.862569"><ele>741.8</ele></trkpt>
      <trkpt lat="36.536985" lon="127.862344"><ele>727.6</ele></trkpt>
      <trkpt lat="36.536860" lon="127.861993"><ele>701.0</ele></trkpt>
      <trkpt lat="36.536890" lon="127.861919"><ele>698.1</ele></trkpt>
      <trkpt lat="36.536826" lon="127.861684"><ele>686.6</ele></trkpt>
      <trkpt lat="36.536823" lon="127.861295"><ele>678.6</ele></trkpt>
      <trkpt lat="36.536869" lon="127.861131"><ele>675.4</ele></trkpt>
      <trkpt lat="36.536653" lon="127.860711"><ele>668.5</ele></trkpt>
      <trkpt lat="36.536639" lon="127.860336"><ele>665.1</ele></trkpt>
      <trkpt lat="36.536532" lon="127.859960"><ele>659.8</ele></trkpt>
      <trkpt lat="36.536454" lon="127.859869"><ele>658.9</ele></trkpt>
      <trkpt lat="36.536259" lon="127.859217"><ele>645.6</ele></trkpt>
      <trkpt lat="36.536087" lon="127.858925"><ele>641.2</ele></trkpt>
      <trkpt lat="36.536020" lon="127.858305"><ele>638.4</ele></trkpt>
      <trkpt lat="36.535829" lon="127.858168"><ele>637.2</ele></trkpt>
      <trkpt lat="36.535406" lon="127.858109"><ele>611.0</ele></trkpt>
      <trkpt lat="36.535233" lon="127.857854"><ele>597.1</ele></trkpt>
      <trkpt lat="36.535241" lon="127.857747"><ele>595.5</ele></trkpt>
      <trkpt lat="36.534986" lon="127.857329"><ele>574.2</ele></trkpt>
      <trkpt lat="36.534931" lon="127.857009"><ele>565.8</ele></trkpt>
      <trkpt lat="36.534712" lon="127.856420"><ele>563.3</ele></trkpt>
      <trkpt lat="36.534501" lon="127.856039"><ele>571.1</ele></trkpt>
      <trkpt lat="36.534383" lon="127.855673"><ele>586.7</ele></trkpt>
      <trkpt lat="36.534305" lon="127.855229"><ele>602.7</ele></trkpt>
      <trkpt lat="36.534310" lon="127.855011"><ele>601.6</ele></trkpt>
      <trkpt lat="36.534475" lon="127.854183"><ele>595.1</ele></trkpt>
      <trkpt lat="36.534578" lon="127.853861"><ele>598.3</ele></trkpt>
      <trkpt lat="36.534661" lon="127.853737"><ele>600.6</ele></trkpt>
      <trkpt lat="36.534551" lon="127.853018"><ele>611.7</ele></trkpt>
      <trkpt lat="36.534573" lon="127.852951"><ele>612.9</ele></trkpt>
      <trkpt lat="36.534228" lon="127.852353"><ele>620.5</ele></trkpt>
      <trkpt lat="36.534267" lon="127.852195"><ele>624.2</ele></trkpt>
      <trkpt lat="36.534330" lon="127.852127"><ele>626.2</ele></trkpt>
      <trkpt lat="36.534315" lon="127.851312"><ele>640.9</ele></trkpt>
      <trkpt lat="36.533795" lon="127.850703"><ele>648.2</ele></trkpt>
      <trkpt lat="36.533654" lon="127.850245"><ele>645.3</ele></trkpt>
      <trkpt lat="36.533608" lon="127.849650"><ele>649.2</ele></trkpt>
      <trkpt lat="36.533528" lon="127.849469"><ele>647.1</ele></trkpt>
      <trkpt lat="36.533375" lon="127.849368"><ele>646.5</ele></trkpt>
      <trkpt lat="36.532892" lon="127.848621"><ele>657.6</ele></trkpt>
      <trkpt lat="36.532755" lon="127.848488"><ele>657.3</ele></trkpt>
      <trkpt lat="36.532486" lon="127.848414"><ele>658.6</ele></trkpt>
      <trkpt lat="36.532125" lon="127.848420"><ele>665.0</ele></trkpt>
      <trkpt lat="36.532118" lon="127.848297"><ele>666.7</ele></trkpt>
      <trkpt lat="36.531968" lon="127.848260"><ele>669.3</ele></trkpt>
      <trkpt lat="36.532110" lon="127.846951"><ele>649.0</ele></trkpt>
      <trkpt lat="36.532058" lon="127.846742"><ele>648.3</ele></trkpt>
      <trkpt lat="36.532162" lon="127.846200"><ele>650.0</ele></trkpt>
      <trkpt lat="36.532127" lon="127.846001"><ele>652.2</ele></trkpt>
      <trkpt lat="36.531954" lon="127.845647"><ele>659.0</ele></trkpt>
      <trkpt lat="36.532127" lon="127.845068"><ele>663.2</ele></trkpt>
      <trkpt lat="36.532381" lon="127.844601"><ele>660.7</ele></trkpt>
      <trkpt lat="36.532623" lon="127.843872"><ele>646.7</ele></trkpt>
      <trkpt lat="36.532700" lon="127.843421"><ele>648.3</ele></trkpt>
      <trkpt lat="36.532653" lon="127.842563"><ele>654.2</ele></trkpt>
      <trkpt lat="36.532554" lon="127.842289"><ele>654.1</ele></trkpt>
      <trkpt lat="36.532536" lon="127.842096"><ele>653.1</ele></trkpt>
      <trkpt lat="36.532640" lon="127.841887"><ele>649.9</ele></trkpt>
      <trkpt lat="36.532985" lon="127.841560"><ele>636.3</ele></trkpt>
      <trkpt lat="36.533049" lon="127.841409"><ele>632.4</ele></trkpt>
      <trkpt lat="36.533093" lon="127.840766"><ele>612.4</ele></trkpt>
      <trkpt lat="36.533084" lon="127.840642"><ele>607.7</ele></trkpt>
      <trkpt lat="36.533019" lon="127.840535"><ele>603.4</ele></trkpt>
      <trkpt lat="36.532946" lon="127.839977"><ele>578.9</ele></trkpt>
      <trkpt lat="36.532907" lon="127.839280"><ele>578.1</ele></trkpt>
      <trkpt lat="36.532976" lon="127.839028"><ele>583.9</ele></trkpt>
      <trkpt lat="36.532946" lon="127.838464"><ele>590.2</ele></trkpt>
      <trkpt lat="36.533679" lon="127.837477"><ele>600.5</ele></trkpt>
      <trkpt lat="36.534036" lon="127.837150"><ele>615.1</ele></trkpt>
      <trkpt lat="36.534110" lon="127.837053"><ele>618.5</ele></trkpt>
      <trkpt lat="36.534131" lon="127.836914"><ele>622.1</ele></trkpt>
      <trkpt lat="36.533950" lon="127.836421"><ele>615.5</ele></trkpt>
      <trkpt lat="36.533842" lon="127.835117"><ele>615.7</ele></trkpt>
      <trkpt lat="36.533855" lon="127.834865"><ele>616.2</ele></trkpt>
      <trkpt lat="36.533782" lon="127.834554"><ele>610.4</ele></trkpt>
      <trkpt lat="36.533812" lon="127.833956"><ele>596.3</ele></trkpt>
      <trkpt lat="36.533892" lon="127.833800"><ele>592.0</ele></trkpt>
      <trkpt lat="36.533616" lon="127.833280"><ele>578.2</ele></trkpt>
      <trkpt lat="36.533558" lon="127.833089"><ele>574.2</ele></trkpt>
      <trkpt lat="36.533289" lon="127.832698"><ele>557.3</ele></trkpt>
      <trkpt lat="36.533282" lon="127.832604"><ele>554.4</ele></trkpt>
      <trkpt lat="36.533029" lon="127.832048"><ele>533.4</ele></trkpt>
      <trkpt lat="36.533027" lon="127.831905"><ele>529.1</ele></trkpt>
      <trkpt lat="36.533128" lon="127.831556"><ele>514.0</ele></trkpt>
      <trkpt lat="36.532964" lon="127.831418"><ele>508.4</ele></trkpt>
      <trkpt lat="36.532834" lon="127.831166"><ele>493.5</ele></trkpt>
      <trkpt lat="36.532801" lon="127.831004"><ele>486.9</ele></trkpt>
      <trkpt lat="36.532740" lon="127.830968"><ele>484.2</ele></trkpt>
      <trkpt lat="36.532623" lon="127.830702"><ele>469.6</ele></trkpt>
      <trkpt lat="36.532583" lon="127.830521"><ele>461.4</ele></trkpt>
      <trkpt lat="36.532529" lon="127.830482"><ele>459.2</ele></trkpt>
      <trkpt lat="36.532486" lon="127.830305"><ele>452.4</ele></trkpt>
      <trkpt lat="36.532534" lon="127.830085"><ele>447.5</ele></trkpt>
      <trkpt lat="36.532482" lon="127.829860"><ele>442.0</ele></trkpt>
      <trkpt lat="36.531795" lon="127.828603"><ele>426.4</ele></trkpt>
      <trkpt lat="36.531486" lon="127.828165"><ele>417.8</ele></trkpt>
      <trkpt lat="36.531349" lon="127.827638"><ele>405.0</ele></trkpt>
      <trkpt lat="36.531324" lon="127.827211"><ele>387.9</ele></trkpt>
      <trkpt lat="36.531417" lon="127.826618"><ele>363.8</ele></trkpt>
      <trkpt lat="36.531340" lon="127.826378"><ele>355.3</ele></trkpt>
      <trkpt lat="36.531453" lon="127.825987"><ele>351.5</ele></trkpt>
      <trkpt lat="36.531623" lon="127.825660"><ele>349.7</ele></trkpt>
      <trkpt lat="36.531546" lon="127.825486"><ele>348.9</ele></trkpt>
      <trkpt lat="36.531417" lon="127.824886"><ele>350.3</ele></trkpt>
      <trkpt lat="36.531365" lon="127.823668"><ele>346.9</ele></trkpt>
      <trkpt lat="36.531287" lon="127.823412"><ele>345.4</ele></trkpt>
      <trkpt lat="36.532684" lon="127.821723"><ele>339.7</ele></trkpt>
      <trkpt lat="36.533093" lon="127.821532"><ele>338.6</ele></trkpt>
      <trkpt lat="36.533235" lon="127.822120"><ele>338.2</ele></trkpt>
      <trkpt lat="36.533354" lon="127.822339"><ele>338.0</ele></trkpt>
      <trkpt lat="36.534221" lon="127.822626"><ele>339.9</ele></trkpt>
      <trkpt lat="36.534437" lon="127.822754"><ele>339.1</ele></trkpt>
      <trkpt lat="36.534372" lon="127.823035"><ele>340.4</ele></trkpt>
      <trkpt lat="36.534957" lon="127.823130"><ele>340.6</ele></trkpt>
      <trkpt lat="36.535727" lon="127.823057"><ele>342.9</ele></trkpt>
      <trkpt lat="36.536143" lon="127.822951"><ele>348.7</ele></trkpt>
      <trkpt lat="36.536937" lon="127.822315"><ele>343.7</ele></trkpt>
      <trkpt lat="36.537969" lon="127.821909"><ele>344.9</ele></trkpt>
      <trkpt lat="36.537901" lon="127.821669"><ele>344.0</ele></trkpt>
      <trkpt lat="36.538512" lon="127.821433"><ele>344.0</ele></trkpt>
      <trkpt lat="36.539130" lon="127.821499"><ele>343.4</ele></trkpt>
      <trkpt lat="36.539944" lon="127.821843"><ele>348.2</ele></trkpt>
      <trkpt lat="36.540094" lon="127.821856"><ele>349.3</ele></trkpt>
      <trkpt lat="36.541881" lon="127.821545"><ele>347.3</ele></trkpt>
      <trkpt lat="36.542105" lon="127.821455"><ele>349.5</ele></trkpt>
    </trkseg>
  </trk>
</gpx>
