<?xml version="1.0" encoding="UTF-8"?>
<gpx version="1.1" creator="kr-100-mountains route-harvester"
     xmlns="http://www.topografix.com/GPX/1/1"
     xmlns:k100="https://github.com/jay-jang/kr-100-mountains/ns/1"
     xmlns:xsi="http://www.w3.org/2001/XMLSchema-instance"
     xsi:schemaLocation="http://www.topografix.com/GPX/1/1 http://www.topografix.com/GPX/1/1/gpx.xsd">
  <metadata>
    <name>용화산 · 사여교-858봉 암릉-용화산 정상 (대안 1) (OSM 계산 경로)</name>
    <desc>실제 GPS 기록이 아닙니다. OpenStreetMap에 등록된 등산로 선형 위에서 계산한 경로이며, 현장 통제·훼손·출입 제한·계절 통제를 반영하지 않을 수 있습니다. 산행 전 공식 안내를 확인하세요.</desc>
    <time>2026-08-04T05:26:28.249Z</time>
    <link href="https://www.openstreetmap.org/copyright"><text>© OpenStreetMap contributors (ODbL 1.0)</text></link>
    <link href="https://registry.opendata.aws/terrain-tiles/"><text>Elevation: SRTM 1 arc-second (NASA/USGS) via AWS Terrain Tiles</text></link>
    <extensions>
      <k100:provenance>osm-routed</k100:provenance>
      <k100:not_a_recorded_track>true</k100:not_a_recorded_track>
      <k100:mountain_id>yonghwasan</k100:mountain_id>
      <k100:mountain_name>용화산</k100:mountain_name>
      <k100:route_id>yonghwasan-b4eb73f3</k100:route_id>
      <k100:route_index>4</k100:route_index>
      <k100:route_name>사여교-858봉 암릉-용화산 정상</k100:route_name>
      <k100:variant>1</k100:variant>
      <k100:source>OpenStreetMap via Overpass API</k100:source>
      <k100:license>ODbL-1.0</k100:license>
      <k100:attribution>© OpenStreetMap contributors</k100:attribution>
      <k100:elevation_source>SRTM 1 arc-second (NASA/USGS) — AWS Terrain Tiles 배포본. 지형 DEM 추정 고도이며 실측 아님</k100:elevation_source>
      <k100:algorithm>dijkstra-grid-v1</k100:algorithm>
      <k100:osm_snapshot>2026-08-04</k100:osm_snapshot>
      <k100:snap_trailhead_m>182</k100:snap_trailhead_m>
      <k100:snap_summit_m>21</k100:snap_summit_m>
      <k100:validation_score>94</k100:validation_score>
      <k100:validation_status>accepted</k100:validation_status>
    </extensions>
  </metadata>
  <trk>
    <name>용화산 · 사여교-858봉 암릉-용화산 정상 (대안 1) (OSM 계산 경로)</name>
    <desc>실제 GPS 기록이 아닙니다. OpenStreetMap에 등록된 등산로 선형 위에서 계산한 경로이며, 현장 통제·훼손·출입 제한·계절 통제를 반영하지 않을 수 있습니다. 산행 전 공식 안내를 확인하세요.</desc>
    <trkseg>
      <trkpt lat="37.998344" lon="127.762473"><ele>626.6</ele></trkpt>
      <trkpt lat="37.998902" lon="127.763077"><ele>647.8</ele></trkpt>
      <trkpt lat="37.998941" lon="127.763257"><ele>646.6</ele></trkpt>
      <trkpt lat="37.998944" lon="127.763800"><ele>635.2</ele></trkpt>
      <trkpt lat="37.999234" lon="127.764418"><ele>626.5</ele></trkpt>
      <trkpt lat="37.999405" lon="127.765205"><ele>630.3</ele></trkpt>
      <trkpt lat="37.999714" lon="127.765565"><ele>643.4</ele></trkpt>
      <trkpt lat="38.001182" lon="127.765760"><ele>640.4</ele></trkpt>
      <trkpt lat="38.002254" lon="127.766015"><ele>642.1</ele></trkpt>
      <trkpt lat="38.002499" lon="127.765980"><ele>642.6</ele></trkpt>
      <trkpt lat="38.002647" lon="127.766077"><ele>640.5</ele></trkpt>
      <trkpt lat="38.002846" lon="127.766120"><ele>636.4</ele></trkpt>
      <trkpt lat="38.003440" lon="127.766139"><ele>632.4</ele></trkpt>
      <trkpt lat="38.003800" lon="127.766046"><ele>636.7</ele></trkpt>
      <trkpt lat="38.004255" lon="127.766214"><ele>635.2</ele></trkpt>
      <trkpt lat="38.004504" lon="127.766537"><ele>636.1</ele></trkpt>
      <trkpt lat="38.004998" lon="127.766753"><ele>647.3</ele></trkpt>
      <trkpt lat="38.005074" lon="127.767166"><ele>649.1</ele></trkpt>
      <trkpt lat="38.005017" lon="127.767469"><ele>650.1</ele></trkpt>
      <trkpt lat="38.005103" lon="127.767649"><ele>650.8</ele></trkpt>
      <trkpt lat="38.005492" lon="127.767890"><ele>643.8</ele></trkpt>
      <trkpt lat="38.006350" lon="127.767981"><ele>609.6</ele></trkpt>
      <trkpt lat="38.006764" lon="127.768582"><ele>594.2</ele></trkpt>
      <trkpt lat="38.006963" lon="127.769057"><ele>577.0</ele></trkpt>
      <trkpt lat="38.007201" lon="127.769423"><ele>577.4</ele></trkpt>
      <trkpt lat="38.007613" lon="127.769754"><ele>585.2</ele></trkpt>
      <trkpt lat="38.008064" lon="127.769918"><ele>594.9</ele></trkpt>
      <trkpt lat="38.008136" lon="127.769899"><ele>594.1</ele></trkpt>
      <trkpt lat="38.008394" lon="127.770375"><ele>599.1</ele></trkpt>
      <trkpt lat="38.008675" lon="127.770485"><ele>605.0</ele></trkpt>
      <trkpt lat="38.008765" lon="127.770651"><ele>608.7</ele></trkpt>
      <trkpt lat="38.009140" lon="127.770893"><ele>620.4</ele></trkpt>
      <trkpt lat="38.009229" lon="127.770492"><ele>618.4</ele></trkpt>
      <trkpt lat="38.009224" lon="127.769548"><ele>593.3</ele></trkpt>
      <trkpt lat="38.008730" lon="127.768459"><ele>553.2</ele></trkpt>
      <trkpt lat="38.008493" lon="127.768089"><ele>543.5</ele></trkpt>
      <trkpt lat="38.008472" lon="127.767697"><ele>538.7</ele></trkpt>
      <trkpt lat="38.009144" lon="127.765638"><ele>486.6</ele></trkpt>
      <trkpt lat="38.009476" lon="127.765852"><ele>485.1</ele></trkpt>
      <trkpt lat="38.009575" lon="127.766037"><ele>491.9</ele></trkpt>
      <trkpt lat="38.009706" lon="127.766023"><ele>491.4</ele></trkpt>
      <trkpt lat="38.009778" lon="127.765680"><ele>485.7</ele></trkpt>
      <trkpt lat="38.009712" lon="127.765283"><ele>475.1</ele></trkpt>
      <trkpt lat="38.009803" lon="127.764993"><ele>472.7</ele></trkpt>
      <trkpt lat="38.010247" lon="127.764532"><ele>475.6</ele></trkpt>
      <trkpt lat="38.010334" lon="127.764143"><ele>467.6</ele></trkpt>
      <trkpt lat="38.010399" lon="127.764022"><ele>464.2</ele></trkpt>
      <trkpt lat="38.010670" lon="127.763762"><ele>455.4</ele></trkpt>
      <trkpt lat="38.010841" lon="127.763478"><ele>445.8</ele></trkpt>
      <trkpt lat="38.010862" lon="127.763218"><ele>441.0</ele></trkpt>
      <trkpt lat="38.010930" lon="127.763011"><ele>440.4</ele></trkpt>
      <trkpt lat="38.011464" lon="127.762325"><ele>435.1</ele></trkpt>
      <trkpt lat="38.011536" lon="127.762306"><ele>435.0</ele></trkpt>
      <trkpt lat="38.011701" lon="127.762550"><ele>445.1</ele></trkpt>
      <trkpt lat="38.011906" lon="127.762598"><ele>445.6</ele></trkpt>
      <trkpt lat="38.012024" lon="127.762555"><ele>444.9</ele></trkpt>
      <trkpt lat="38.012132" lon="127.762239"><ele>440.0</ele></trkpt>
      <trkpt lat="38.012200" lon="127.762180"><ele>440.2</ele></trkpt>
      <trkpt lat="38.012297" lon="127.762196"><ele>441.5</ele></trkpt>
      <trkpt lat="38.012272" lon="127.762349"><ele>443.4</ele></trkpt>
      <trkpt lat="38.012747" lon="127.762877"><ele>452.8</ele></trkpt>
      <trkpt lat="38.012859" lon="127.763242"><ele>457.7</ele></trkpt>
      <trkpt lat="38.012876" lon="127.763524"><ele>463.6</ele></trkpt>
      <trkpt lat="38.013043" lon="127.763569"><ele>459.6</ele></trkpt>
      <trkpt lat="38.013098" lon="127.763483"><ele>457.9</ele></trkpt>
      <trkpt lat="38.013075" lon="127.762874"><ele>452.7</ele></trkpt>
      <trkpt lat="38.013290" lon="127.762330"><ele>442.2</ele></trkpt>
      <trkpt lat="38.013330" lon="127.761917"><ele>434.6</ele></trkpt>
      <trkpt lat="38.013244" lon="127.761517"><ele>427.8</ele></trkpt>
      <trkpt lat="38.012944" lon="127.760898"><ele>415.5</ele></trkpt>
      <trkpt lat="38.012897" lon="127.760586"><ele>408.5</ele></trkpt>
      <trkpt lat="38.012775" lon="127.760436"><ele>403.4</ele></trkpt>
      <trkpt lat="38.012796" lon="127.760219"><ele>399.6</ele></trkpt>
      <trkpt lat="38.012724" lon="127.760117"><ele>398.5</ele></trkpt>
      <trkpt lat="38.013147" lon="127.759704"><ele>389.5</ele></trkpt>
      <trkpt lat="38.013548" lon="127.759487"><ele>385.7</ele></trkpt>
      <trkpt lat="38.013937" lon="127.757826"><ele>375.5</ele></trkpt>
      <trkpt lat="38.014161" lon="127.757918"><ele>376.5</ele></trkpt>
      <trkpt lat="38.014212" lon="127.758036"><ele>377.9</ele></trkpt>
      <trkpt lat="38.014203" lon="127.758561"><ele>381.4</ele></trkpt>
      <trkpt lat="38.014296" lon="127.759001"><ele>388.7</ele></trkpt>
      <trkpt lat="38.014567" lon="127.759495"><ele>401.3</ele></trkpt>
      <trkpt lat="38.014786" lon="127.759634"><ele>405.0</ele></trkpt>
      <trkpt lat="38.015116" lon="127.760128"><ele>411.7</ele></trkpt>
      <trkpt lat="38.015488" lon="127.760578"><ele>422.4</ele></trkpt>
      <trkpt lat="38.015775" lon="127.760675"><ele>432.3</ele></trkpt>
      <trkpt lat="38.016198" lon="127.760729"><ele>444.8</ele></trkpt>
      <trkpt lat="38.016595" lon="127.760997"><ele>459.9</ele></trkpt>
      <trkpt lat="38.016756" lon="127.761265"><ele>467.3</ele></trkpt>
      <trkpt lat="38.017060" lon="127.761308"><ele>476.7</ele></trkpt>
      <trkpt lat="38.017271" lon="127.761437"><ele>484.5</ele></trkpt>
      <trkpt lat="38.017601" lon="127.761823"><ele>499.3</ele></trkpt>
      <trkpt lat="38.017905" lon="127.762692"><ele>531.9</ele></trkpt>
      <trkpt lat="38.018218" lon="127.762928"><ele>546.4</ele></trkpt>
      <trkpt lat="38.018514" lon="127.762939"><ele>552.2</ele></trkpt>
      <trkpt lat="38.018877" lon="127.762713"><ele>552.2</ele></trkpt>
      <trkpt lat="38.019030" lon="127.762703"><ele>555.2</ele></trkpt>
      <trkpt lat="38.019579" lon="127.762928"><ele>558.4</ele></trkpt>
      <trkpt lat="38.019849" lon="127.762982"><ele>564.2</ele></trkpt>
      <trkpt lat="38.020094" lon="127.762885"><ele>570.1</ele></trkpt>
      <trkpt lat="38.020255" lon="127.762906"><ele>573.5</ele></trkpt>
      <trkpt lat="38.020661" lon="127.763636"><ele>580.3</ele></trkpt>
      <trkpt lat="38.020923" lon="127.763904"><ele>585.9</ele></trkpt>
      <trkpt lat="38.020982" lon="127.764334"><ele>587.6</ele></trkpt>
      <trkpt lat="38.021185" lon="127.764741"><ele>596.6</ele></trkpt>
      <trkpt lat="38.021498" lon="127.764945"><ele>605.8</ele></trkpt>
      <trkpt lat="38.021565" lon="127.765127"><ele>607.1</ele></trkpt>
      <trkpt lat="38.021464" lon="127.765642"><ele>608.1</ele></trkpt>
      <trkpt lat="38.021523" lon="127.765846"><ele>609.4</ele></trkpt>
      <trkpt lat="38.021760" lon="127.766093"><ele>613.5</ele></trkpt>
      <trkpt lat="38.021895" lon="127.766340"><ele>615.8</ele></trkpt>
      <trkpt lat="38.021844" lon="127.766930"><ele>612.2</ele></trkpt>
      <trkpt lat="38.022250" lon="127.767853"><ele>620.9</ele></trkpt>
      <trkpt lat="38.022284" lon="127.768271"><ele>625.8</ele></trkpt>
      <trkpt lat="38.022393" lon="127.768700"><ele>635.0</ele></trkpt>
    </trkseg>
  </trk>
</gpx>
