<?xml version="1.0" encoding="UTF-8"?>
<gpx version="1.1" creator="kr-100-mountains route-harvester"
     xmlns="http://www.topografix.com/GPX/1/1"
     xmlns:k100="https://github.com/jay-jang/kr-100-mountains/ns/1"
     xmlns:xsi="http://www.w3.org/2001/XMLSchema-instance"
     xsi:schemaLocation="http://www.topografix.com/GPX/1/1 http://www.topografix.com/GPX/1/1/gpx.xsd">
  <metadata>
    <name>용화산 · 사여교-858봉 암릉-용화산 정상 (대안 2) (OSM 계산 경로)</name>
    <desc>실제 GPS 기록이 아닙니다. OpenStreetMap에 등록된 등산로 선형 위에서 계산한 경로이며, 현장 통제·훼손·출입 제한·계절 통제를 반영하지 않을 수 있습니다. 산행 전 공식 안내를 확인하세요.</desc>
    <time>2026-08-04T05:26:28.250Z</time>
    <link href="https://www.openstreetmap.org/copyright"><text>© OpenStreetMap contributors (ODbL 1.0)</text></link>
    <link href="https://registry.opendata.aws/terrain-tiles/"><text>Elevation: SRTM 1 arc-second (NASA/USGS) via AWS Terrain Tiles</text></link>
    <extensions>
      <k100:provenance>osm-routed</k100:provenance>
      <k100:not_a_recorded_track>true</k100:not_a_recorded_track>
      <k100:mountain_id>yonghwasan</k100:mountain_id>
      <k100:mountain_name>용화산</k100:mountain_name>
      <k100:route_id>yonghwasan-b4eb73f3</k100:route_id>
      <k100:route_index>4</k100:route_index>
      <k100:route_name>사여교-858봉 암릉-용화산 정상</k100:route_name>
      <k100:variant>2</k100:variant>
      <k100:source>OpenStreetMap via Overpass API</k100:source>
      <k100:license>ODbL-1.0</k100:license>
      <k100:attribution>© OpenStreetMap contributors</k100:attribution>
      <k100:elevation_source>SRTM 1 arc-second (NASA/USGS) — AWS Terrain Tiles 배포본. 지형 DEM 추정 고도이며 실측 아님</k100:elevation_source>
      <k100:algorithm>dijkstra-grid-v1</k100:algorithm>
      <k100:osm_snapshot>2026-08-04</k100:osm_snapshot>
      <k100:snap_trailhead_m>182</k100:snap_trailhead_m>
      <k100:snap_summit_m>21</k100:snap_summit_m>
      <k100:validation_score>87</k100:validation_score>
      <k100:validation_status>accepted</k100:validation_status>
    </extensions>
  </metadata>
  <trk>
    <name>용화산 · 사여교-858봉 암릉-용화산 정상 (대안 2) (OSM 계산 경로)</name>
    <desc>실제 GPS 기록이 아닙니다. OpenStreetMap에 등록된 등산로 선형 위에서 계산한 경로이며, 현장 통제·훼손·출입 제한·계절 통제를 반영하지 않을 수 있습니다. 산행 전 공식 안내를 확인하세요.</desc>
    <trkseg>
      <trkpt lat="37.998344" lon="127.762473"><ele>626.6</ele></trkpt>
      <trkpt lat="37.998902" lon="127.763077"><ele>647.8</ele></trkpt>
      <trkpt lat="37.998941" lon="127.763257"><ele>646.6</ele></trkpt>
      <trkpt lat="37.998944" lon="127.763800"><ele>635.2</ele></trkpt>
      <trkpt lat="37.999234" lon="127.764418"><ele>626.5</ele></trkpt>
      <trkpt lat="37.999405" lon="127.765205"><ele>630.3</ele></trkpt>
      <trkpt lat="37.999714" lon="127.765565"><ele>643.4</ele></trkpt>
      <trkpt lat="38.001182" lon="127.765760"><ele>640.4</ele></trkpt>
      <trkpt lat="38.002254" lon="127.766015"><ele>642.1</ele></trkpt>
      <trkpt lat="38.002499" lon="127.765980"><ele>642.6</ele></trkpt>
      <trkpt lat="38.002647" lon="127.766077"><ele>640.5</ele></trkpt>
      <trkpt lat="38.002846" lon="127.766120"><ele>636.4</ele></trkpt>
      <trkpt lat="38.003440" lon="127.766139"><ele>632.4</ele></trkpt>
      <trkpt lat="38.003800" lon="127.766046"><ele>636.7</ele></trkpt>
      <trkpt lat="38.003931" lon="127.766092"><ele>638.3</ele></trkpt>
      <trkpt lat="38.004255" lon="127.766214"><ele>635.2</ele></trkpt>
      <trkpt lat="38.004504" lon="127.766537"><ele>636.1</ele></trkpt>
      <trkpt lat="38.004998" lon="127.766753"><ele>647.3</ele></trkpt>
      <trkpt lat="38.005074" lon="127.767166"><ele>649.1</ele></trkpt>
      <trkpt lat="38.005017" lon="127.767469"><ele>650.1</ele></trkpt>
      <trkpt lat="38.005103" lon="127.767649"><ele>650.8</ele></trkpt>
      <trkpt lat="38.005492" lon="127.767890"><ele>643.8</ele></trkpt>
      <trkpt lat="38.006350" lon="127.767981"><ele>609.6</ele></trkpt>
      <trkpt lat="38.006764" lon="127.768582"><ele>594.2</ele></trkpt>
      <trkpt lat="38.006963" lon="127.769057"><ele>577.0</ele></trkpt>
      <trkpt lat="38.007201" lon="127.769423"><ele>577.4</ele></trkpt>
      <trkpt lat="38.007613" lon="127.769754"><ele>585.2</ele></trkpt>
      <trkpt lat="38.008064" lon="127.769918"><ele>594.9</ele></trkpt>
      <trkpt lat="38.008136" lon="127.769899"><ele>594.1</ele></trkpt>
      <trkpt lat="38.008394" lon="127.770375"><ele>599.1</ele></trkpt>
      <trkpt lat="38.008675" lon="127.770485"><ele>605.0</ele></trkpt>
      <trkpt lat="38.008765" lon="127.770651"><ele>608.7</ele></trkpt>
      <trkpt lat="38.009182" lon="127.770924"><ele>621.1</ele></trkpt>
      <trkpt lat="38.009345" lon="127.771087"><ele>622.7</ele></trkpt>
      <trkpt lat="38.009482" lon="127.771495"><ele>632.8</ele></trkpt>
      <trkpt lat="38.009725" lon="127.771769"><ele>642.1</ele></trkpt>
      <trkpt lat="38.009920" lon="127.772176"><ele>652.5</ele></trkpt>
      <trkpt lat="38.009901" lon="127.772321"><ele>655.9</ele></trkpt>
      <trkpt lat="38.009972" lon="127.772621"><ele>668.1</ele></trkpt>
      <trkpt lat="38.009985" lon="127.772914"><ele>676.7</ele></trkpt>
      <trkpt lat="38.010112" lon="127.773273"><ele>679.2</ele></trkpt>
      <trkpt lat="38.010368" lon="127.773244"><ele>676.7</ele></trkpt>
      <trkpt lat="38.010807" lon="127.773440"><ele>680.1</ele></trkpt>
      <trkpt lat="38.010997" lon="127.773407"><ele>684.3</ele></trkpt>
      <trkpt lat="38.011283" lon="127.773544"><ele>685.5</ele></trkpt>
      <trkpt lat="38.011458" lon="127.773517"><ele>688.5</ele></trkpt>
      <trkpt lat="38.012177" lon="127.773161"><ele>716.6</ele></trkpt>
      <trkpt lat="38.012513" lon="127.773378"><ele>726.5</ele></trkpt>
      <trkpt lat="38.012842" lon="127.773426"><ele>741.8</ele></trkpt>
      <trkpt lat="38.012982" lon="127.773504"><ele>744.4</ele></trkpt>
      <trkpt lat="38.013082" lon="127.773461"><ele>748.0</ele></trkpt>
      <trkpt lat="38.013231" lon="127.772455"><ele>752.3</ele></trkpt>
      <trkpt lat="38.013227" lon="127.771876"><ele>744.5</ele></trkpt>
      <trkpt lat="38.012910" lon="127.770991"><ele>701.8</ele></trkpt>
      <trkpt lat="38.012868" lon="127.770540"><ele>688.7</ele></trkpt>
      <trkpt lat="38.012796" lon="127.770433"><ele>684.2</ele></trkpt>
      <trkpt lat="38.012741" lon="127.770138"><ele>670.0</ele></trkpt>
      <trkpt lat="38.013024" lon="127.769757"><ele>666.7</ele></trkpt>
      <trkpt lat="38.013151" lon="127.769408"><ele>657.6</ele></trkpt>
      <trkpt lat="38.013202" lon="127.768952"><ele>637.6</ele></trkpt>
      <trkpt lat="38.013366" lon="127.768663"><ele>632.7</ele></trkpt>
      <trkpt lat="38.013332" lon="127.768330"><ele>624.9</ele></trkpt>
      <trkpt lat="38.013472" lon="127.767815"><ele>612.2</ele></trkpt>
      <trkpt lat="38.013489" lon="127.767397"><ele>598.1</ele></trkpt>
      <trkpt lat="38.013341" lon="127.767166"><ele>589.6</ele></trkpt>
      <trkpt lat="38.013286" lon="127.766785"><ele>580.3</ele></trkpt>
      <trkpt lat="38.013341" lon="127.766415"><ele>572.7</ele></trkpt>
      <trkpt lat="38.013612" lon="127.765782"><ele>551.8</ele></trkpt>
      <trkpt lat="38.014106" lon="127.765186"><ele>519.2</ele></trkpt>
      <trkpt lat="38.014360" lon="127.764140"><ele>490.7</ele></trkpt>
      <trkpt lat="38.014376" lon="127.763829"><ele>478.1</ele></trkpt>
      <trkpt lat="38.014021" lon="127.762917"><ele>456.7</ele></trkpt>
      <trkpt lat="38.013819" lon="127.761802"><ele>436.4</ele></trkpt>
      <trkpt lat="38.013468" lon="127.760986"><ele>422.7</ele></trkpt>
      <trkpt lat="38.013375" lon="127.760503"><ele>412.2</ele></trkpt>
      <trkpt lat="38.013375" lon="127.760321"><ele>407.4</ele></trkpt>
      <trkpt lat="38.013485" lon="127.760198"><ele>401.9</ele></trkpt>
      <trkpt lat="38.013683" lon="127.760144"><ele>397.8</ele></trkpt>
      <trkpt lat="38.013874" lon="127.759962"><ele>392.3</ele></trkpt>
      <trkpt lat="38.013975" lon="127.760069"><ele>392.5</ele></trkpt>
      <trkpt lat="38.014322" lon="127.760080"><ele>391.6</ele></trkpt>
      <trkpt lat="38.014499" lon="127.760224"><ele>393.1</ele></trkpt>
      <trkpt lat="38.014672" lon="127.760536"><ele>397.7</ele></trkpt>
      <trkpt lat="38.014884" lon="127.761308"><ele>405.5</ele></trkpt>
      <trkpt lat="38.015361" lon="127.762000"><ele>420.7</ele></trkpt>
      <trkpt lat="38.015509" lon="127.762778"><ele>425.7</ele></trkpt>
      <trkpt lat="38.015475" lon="127.763159"><ele>430.5</ele></trkpt>
      <trkpt lat="38.015585" lon="127.764242"><ele>449.1</ele></trkpt>
      <trkpt lat="38.016570" lon="127.765111"><ele>456.9</ele></trkpt>
      <trkpt lat="38.016950" lon="127.765240"><ele>463.4</ele></trkpt>
      <trkpt lat="38.017204" lon="127.765632"><ele>474.8</ele></trkpt>
      <trkpt lat="38.017855" lon="127.765814"><ele>479.7</ele></trkpt>
      <trkpt lat="38.018070" lon="127.766061"><ele>482.2</ele></trkpt>
      <trkpt lat="38.018442" lon="127.766742"><ele>500.6</ele></trkpt>
      <trkpt lat="38.018666" lon="127.766957"><ele>504.1</ele></trkpt>
      <trkpt lat="38.019537" lon="127.767332"><ele>516.9</ele></trkpt>
      <trkpt lat="38.019816" lon="127.767638"><ele>524.0</ele></trkpt>
      <trkpt lat="38.020040" lon="127.768228"><ele>533.9</ele></trkpt>
      <trkpt lat="38.020302" lon="127.768647"><ele>542.9</ele></trkpt>
      <trkpt lat="38.020449" lon="127.769290"><ele>555.5</ele></trkpt>
      <trkpt lat="38.020441" lon="127.769880"><ele>565.8</ele></trkpt>
      <trkpt lat="38.020614" lon="127.770642"><ele>580.8</ele></trkpt>
      <trkpt lat="38.020551" lon="127.771838"><ele>608.3</ele></trkpt>
      <trkpt lat="38.020458" lon="127.772273"><ele>625.4</ele></trkpt>
      <trkpt lat="38.020538" lon="127.772348"><ele>624.7</ele></trkpt>
      <trkpt lat="38.020652" lon="127.772337"><ele>624.5</ele></trkpt>
      <trkpt lat="38.020821" lon="127.771844"><ele>609.0</ele></trkpt>
      <trkpt lat="38.020957" lon="127.771769"><ele>606.7</ele></trkpt>
      <trkpt lat="38.021121" lon="127.771769"><ele>607.7</ele></trkpt>
      <trkpt lat="38.021248" lon="127.771924"><ele>614.3</ele></trkpt>
      <trkpt lat="38.021544" lon="127.772509"><ele>646.3</ele></trkpt>
      <trkpt lat="38.021722" lon="127.772713"><ele>653.3</ele></trkpt>
      <trkpt lat="38.021895" lon="127.772761"><ele>654.6</ele></trkpt>
      <trkpt lat="38.022159" lon="127.772738"><ele>655.7</ele></trkpt>
      <trkpt lat="38.022344" lon="127.772630"><ele>656.8</ele></trkpt>
      <trkpt lat="38.022448" lon="127.772666"><ele>659.2</ele></trkpt>
      <trkpt lat="38.022347" lon="127.772491"><ele>655.0</ele></trkpt>
      <trkpt lat="38.022526" lon="127.772588"><ele>659.8</ele></trkpt>
      <trkpt lat="38.022903" lon="127.772280"><ele>663.3</ele></trkpt>
      <trkpt lat="38.023224" lon="127.772268"><ele>671.7</ele></trkpt>
      <trkpt lat="38.023414" lon="127.772174"><ele>677.8</ele></trkpt>
      <trkpt lat="38.023770" lon="127.771690"><ele>696.8</ele></trkpt>
      <trkpt lat="38.023585" lon="127.771565"><ele>693.8</ele></trkpt>
      <trkpt lat="38.023416" lon="127.771307"><ele>689.2</ele></trkpt>
      <trkpt lat="38.023289" lon="127.770642"><ele>676.3</ele></trkpt>
      <trkpt lat="38.023036" lon="127.770309"><ele>670.1</ele></trkpt>
      <trkpt lat="38.022782" lon="127.769204"><ele>645.6</ele></trkpt>
      <trkpt lat="38.022393" lon="127.768700"><ele>635.0</ele></trkpt>
    </trkseg>
  </trk>
</gpx>
