<?xml version="1.0" encoding="UTF-8"?>
<gpx version="1.1" creator="kr-100-mountains route-harvester"
     xmlns="http://www.topografix.com/GPX/1/1"
     xmlns:k100="https://github.com/jay-jang/kr-100-mountains/ns/1"
     xmlns:xsi="http://www.w3.org/2001/XMLSchema-instance"
     xsi:schemaLocation="http://www.topografix.com/GPX/1/1 http://www.topografix.com/GPX/1/1/gpx.xsd">
  <metadata>
    <name>태백산 · 화방재-사길령-유일사갈림길-장군봉-천제단 (OSM 계산 경로)</name>
    <desc>실제 GPS 기록이 아닙니다. OpenStreetMap에 등록된 등산로 선형 위에서 계산한 경로이며, 현장 통제·훼손·출입 제한·계절 통제를 반영하지 않을 수 있습니다. 산행 전 공식 안내를 확인하세요.</desc>
    <time>2026-08-04T05:19:54.738Z</time>
    <link href="https://www.openstreetmap.org/copyright"><text>© OpenStreetMap contributors (ODbL 1.0)</text></link>
    <link href="https://registry.opendata.aws/terrain-tiles/"><text>Elevation: SRTM 1 arc-second (NASA/USGS) via AWS Terrain Tiles</text></link>
    <extensions>
      <k100:provenance>osm-routed</k100:provenance>
      <k100:not_a_recorded_track>true</k100:not_a_recorded_track>
      <k100:mountain_id>taebaeksan</k100:mountain_id>
      <k100:mountain_name>태백산</k100:mountain_name>
      <k100:route_id>taebaeksan-1da82dd9</k100:route_id>
      <k100:route_index>4</k100:route_index>
      <k100:route_name>화방재-사길령-유일사갈림길-장군봉-천제단</k100:route_name>
      <k100:variant>0</k100:variant>
      <k100:source>OpenStreetMap via Overpass API</k100:source>
      <k100:license>ODbL-1.0</k100:license>
      <k100:attribution>© OpenStreetMap contributors</k100:attribution>
      <k100:elevation_source>SRTM 1 arc-second (NASA/USGS) — AWS Terrain Tiles 배포본. 지형 DEM 추정 고도이며 실측 아님</k100:elevation_source>
      <k100:algorithm>dijkstra-grid-v1</k100:algorithm>
      <k100:osm_snapshot>2026-08-04</k100:osm_snapshot>
      <k100:snap_trailhead_m>213</k100:snap_trailhead_m>
      <k100:snap_summit_m>141</k100:snap_summit_m>
      <k100:validation_score>83</k100:validation_score>
      <k100:validation_status>accepted</k100:validation_status>
    </extensions>
  </metadata>
  <trk>
    <name>태백산 · 화방재-사길령-유일사갈림길-장군봉-천제단 (OSM 계산 경로)</name>
    <desc>실제 GPS 기록이 아닙니다. OpenStreetMap에 등록된 등산로 선형 위에서 계산한 경로이며, 현장 통제·훼손·출입 제한·계절 통제를 반영하지 않을 수 있습니다. 산행 전 공식 안내를 확인하세요.</desc>
    <trkseg>
      <trkpt lat="37.129529" lon="128.904465"><ele>1162.9</ele></trkpt>
      <trkpt lat="37.129059" lon="128.904203"><ele>1142.6</ele></trkpt>
      <trkpt lat="37.128415" lon="128.904034"><ele>1120.1</ele></trkpt>
      <trkpt lat="37.128246" lon="128.903564"><ele>1104.9</ele></trkpt>
      <trkpt lat="37.127964" lon="128.903081"><ele>1078.0</ele></trkpt>
      <trkpt lat="37.127840" lon="128.902953"><ele>1070.2</ele></trkpt>
      <trkpt lat="37.126933" lon="128.902609"><ele>1035.8</ele></trkpt>
      <trkpt lat="37.126629" lon="128.902346"><ele>1027.3</ele></trkpt>
      <trkpt lat="37.126261" lon="128.901767"><ele>1000.6</ele></trkpt>
      <trkpt lat="37.125757" lon="128.901370"><ele>991.9</ele></trkpt>
      <trkpt lat="37.125560" lon="128.900989"><ele>993.0</ele></trkpt>
      <trkpt lat="37.125533" lon="128.900855"><ele>992.0</ele></trkpt>
      <trkpt lat="37.125329" lon="128.900638"><ele>987.4</ele></trkpt>
      <trkpt lat="37.125145" lon="128.900531"><ele>984.5</ele></trkpt>
      <trkpt lat="37.124820" lon="128.900174"><ele>979.7</ele></trkpt>
      <trkpt lat="37.124444" lon="128.899639"><ele>970.8</ele></trkpt>
      <trkpt lat="37.124199" lon="128.899521"><ele>963.8</ele></trkpt>
      <trkpt lat="37.124071" lon="128.899397"><ele>959.1</ele></trkpt>
      <trkpt lat="37.123900" lon="128.899428"><ele>956.0</ele></trkpt>
      <trkpt lat="37.123796" lon="128.899593"><ele>953.8</ele></trkpt>
      <trkpt lat="37.123593" lon="128.899483"><ele>947.5</ele></trkpt>
      <trkpt lat="37.123291" lon="128.899505"><ele>942.5</ele></trkpt>
      <trkpt lat="37.123148" lon="128.899320"><ele>941.7</ele></trkpt>
      <trkpt lat="37.123064" lon="128.899014"><ele>943.6</ele></trkpt>
      <trkpt lat="37.122741" lon="128.898702"><ele>955.8</ele></trkpt>
      <trkpt lat="37.122599" lon="128.898353"><ele>970.2</ele></trkpt>
      <trkpt lat="37.122423" lon="128.898066"><ele>978.3</ele></trkpt>
      <trkpt lat="37.122043" lon="128.897844"><ele>984.0</ele></trkpt>
      <trkpt lat="37.121855" lon="128.897618"><ele>989.0</ele></trkpt>
      <trkpt lat="37.121732" lon="128.897282"><ele>991.9</ele></trkpt>
      <trkpt lat="37.121682" lon="128.896827"><ele>988.0</ele></trkpt>
      <trkpt lat="37.121059" lon="128.896361"><ele>1001.7</ele></trkpt>
      <trkpt lat="37.120339" lon="128.896648"><ele>1005.6</ele></trkpt>
      <trkpt lat="37.120149" lon="128.896848"><ele>1004.7</ele></trkpt>
      <trkpt lat="37.119837" lon="128.896656"><ele>1004.4</ele></trkpt>
      <trkpt lat="37.119835" lon="128.896730"><ele>1002.9</ele></trkpt>
      <trkpt lat="37.119692" lon="128.896971"><ele>996.8</ele></trkpt>
      <trkpt lat="37.119686" lon="128.897160"><ele>993.8</ele></trkpt>
      <trkpt lat="37.119355" lon="128.897590"><ele>986.6</ele></trkpt>
      <trkpt lat="37.119314" lon="128.897749"><ele>984.0</ele></trkpt>
      <trkpt lat="37.119380" lon="128.898576"><ele>974.2</ele></trkpt>
      <trkpt lat="37.119289" lon="128.899059"><ele>972.0</ele></trkpt>
      <trkpt lat="37.118746" lon="128.898436"><ele>987.0</ele></trkpt>
      <trkpt lat="37.118387" lon="128.898103"><ele>995.3</ele></trkpt>
      <trkpt lat="37.118282" lon="128.897926"><ele>998.3</ele></trkpt>
      <trkpt lat="37.118237" lon="128.897739"><ele>1000.8</ele></trkpt>
      <trkpt lat="37.117908" lon="128.897320"><ele>1017.6</ele></trkpt>
      <trkpt lat="37.117690" lon="128.897121"><ele>1028.2</ele></trkpt>
      <trkpt lat="37.117531" lon="128.897046"><ele>1034.0</ele></trkpt>
      <trkpt lat="37.117392" lon="128.897092"><ele>1034.6</ele></trkpt>
      <trkpt lat="37.117027" lon="128.897524"><ele>1039.8</ele></trkpt>
      <trkpt lat="37.116851" lon="128.897508"><ele>1047.8</ele></trkpt>
      <trkpt lat="37.116344" lon="128.897046"><ele>1070.0</ele></trkpt>
      <trkpt lat="37.115919" lon="128.896880"><ele>1089.0</ele></trkpt>
      <trkpt lat="37.115741" lon="128.896757"><ele>1096.4</ele></trkpt>
      <trkpt lat="37.115534" lon="128.896894"><ele>1106.1</ele></trkpt>
      <trkpt lat="37.115286" lon="128.896864"><ele>1113.3</ele></trkpt>
      <trkpt lat="37.115080" lon="128.896904"><ele>1118.6</ele></trkpt>
      <trkpt lat="37.114909" lon="128.896982"><ele>1125.2</ele></trkpt>
      <trkpt lat="37.114689" lon="128.897258"><ele>1140.5</ele></trkpt>
      <trkpt lat="37.114422" lon="128.897803"><ele>1159.4</ele></trkpt>
      <trkpt lat="37.114195" lon="128.897875"><ele>1167.9</ele></trkpt>
      <trkpt lat="37.114109" lon="128.898023"><ele>1172.7</ele></trkpt>
      <trkpt lat="37.114118" lon="128.898401"><ele>1181.1</ele></trkpt>
      <trkpt lat="37.114034" lon="128.898597"><ele>1183.4</ele></trkpt>
      <trkpt lat="37.113943" lon="128.898650"><ele>1182.8</ele></trkpt>
      <trkpt lat="37.113895" lon="128.898752"><ele>1181.5</ele></trkpt>
      <trkpt lat="37.113608" lon="128.898924"><ele>1173.4</ele></trkpt>
      <trkpt lat="37.113387" lon="128.899224"><ele>1164.0</ele></trkpt>
      <trkpt lat="37.113322" lon="128.899742"><ele>1156.7</ele></trkpt>
      <trkpt lat="37.113155" lon="128.900107"><ele>1148.5</ele></trkpt>
      <trkpt lat="37.113250" lon="128.900482"><ele>1141.1</ele></trkpt>
      <trkpt lat="37.113268" lon="128.900779"><ele>1134.3</ele></trkpt>
      <trkpt lat="37.113100" lon="128.901826"><ele>1127.3</ele></trkpt>
      <trkpt lat="37.112509" lon="128.903629"><ele>1148.1</ele></trkpt>
      <trkpt lat="37.112362" lon="128.904280"><ele>1148.3</ele></trkpt>
      <trkpt lat="37.111975" lon="128.905141"><ele>1154.4</ele></trkpt>
      <trkpt lat="37.111644" lon="128.906207"><ele>1167.1</ele></trkpt>
      <trkpt lat="37.111422" lon="128.906611"><ele>1181.9</ele></trkpt>
      <trkpt lat="37.111238" lon="128.906761"><ele>1189.6</ele></trkpt>
      <trkpt lat="37.110760" lon="128.907016"><ele>1202.6</ele></trkpt>
      <trkpt lat="37.110620" lon="128.907149"><ele>1204.6</ele></trkpt>
      <trkpt lat="37.110393" lon="128.907543"><ele>1212.9</ele></trkpt>
      <trkpt lat="37.110099" lon="128.907789"><ele>1222.0</ele></trkpt>
      <trkpt lat="37.109961" lon="128.908046"><ele>1227.7</ele></trkpt>
      <trkpt lat="37.109786" lon="128.908183"><ele>1232.9</ele></trkpt>
      <trkpt lat="37.109746" lon="128.908302"><ele>1235.7</ele></trkpt>
      <trkpt lat="37.109116" lon="128.908796"><ele>1250.2</ele></trkpt>
      <trkpt lat="37.108940" lon="128.909127"><ele>1250.0</ele></trkpt>
      <trkpt lat="37.108868" lon="128.909529"><ele>1252.6</ele></trkpt>
      <trkpt lat="37.108742" lon="128.909787"><ele>1247.3</ele></trkpt>
      <trkpt lat="37.108813" lon="128.910688"><ele>1255.1</ele></trkpt>
      <trkpt lat="37.108715" lon="128.910811"><ele>1258.6</ele></trkpt>
      <trkpt lat="37.108687" lon="128.910935"><ele>1260.4</ele></trkpt>
      <trkpt lat="37.108501" lon="128.911190"><ele>1266.1</ele></trkpt>
      <trkpt lat="37.107881" lon="128.911705"><ele>1285.7</ele></trkpt>
      <trkpt lat="37.107748" lon="128.911997"><ele>1301.4</ele></trkpt>
      <trkpt lat="37.107538" lon="128.912169"><ele>1313.1</ele></trkpt>
      <trkpt lat="37.107162" lon="128.912670"><ele>1336.8</ele></trkpt>
      <trkpt lat="37.106997" lon="128.913059"><ele>1352.2</ele></trkpt>
      <trkpt lat="37.106843" lon="128.913095"><ele>1355.9</ele></trkpt>
      <trkpt lat="37.106667" lon="128.913326"><ele>1365.8</ele></trkpt>
      <trkpt lat="37.106607" lon="128.913541"><ele>1372.3</ele></trkpt>
      <trkpt lat="37.106507" lon="128.913640"><ele>1377.7</ele></trkpt>
      <trkpt lat="37.106392" lon="128.913880"><ele>1385.8</ele></trkpt>
      <trkpt lat="37.106211" lon="128.913881"><ele>1388.4</ele></trkpt>
      <trkpt lat="37.106074" lon="128.914222"><ele>1397.2</ele></trkpt>
      <trkpt lat="37.105719" lon="128.914252"><ele>1405.5</ele></trkpt>
      <trkpt lat="37.105497" lon="128.914545"><ele>1413.3</ele></trkpt>
      <trkpt lat="37.105355" lon="128.914686"><ele>1418.5</ele></trkpt>
      <trkpt lat="37.105233" lon="128.914702"><ele>1423.0</ele></trkpt>
      <trkpt lat="37.105122" lon="128.914875"><ele>1425.2</ele></trkpt>
      <trkpt lat="37.104390" lon="128.915243"><ele>1448.6</ele></trkpt>
      <trkpt lat="37.104300" lon="128.915263"><ele>1450.8</ele></trkpt>
      <trkpt lat="37.104105" lon="128.915172"><ele>1456.7</ele></trkpt>
      <trkpt lat="37.103547" lon="128.915332"><ele>1466.5</ele></trkpt>
      <trkpt lat="37.103442" lon="128.915421"><ele>1467.6</ele></trkpt>
      <trkpt lat="37.103215" lon="128.915391"><ele>1471.8</ele></trkpt>
      <trkpt lat="37.102660" lon="128.915457"><ele>1481.3</ele></trkpt>
      <trkpt lat="37.102459" lon="128.915416"><ele>1484.0</ele></trkpt>
      <trkpt lat="37.101923" lon="128.915664"><ele>1495.5</ele></trkpt>
      <trkpt lat="37.101754" lon="128.915646"><ele>1497.9</ele></trkpt>
      <trkpt lat="37.101416" lon="128.915827"><ele>1503.5</ele></trkpt>
      <trkpt lat="37.101093" lon="128.915886"><ele>1516.7</ele></trkpt>
      <trkpt lat="37.100973" lon="128.915963"><ele>1519.7</ele></trkpt>
      <trkpt lat="37.100754" lon="128.915973"><ele>1527.5</ele></trkpt>
      <trkpt lat="37.100464" lon="128.916173"><ele>1533.9</ele></trkpt>
      <trkpt lat="37.100184" lon="128.916240"><ele>1540.6</ele></trkpt>
      <trkpt lat="37.099831" lon="128.916184"><ele>1554.2</ele></trkpt>
      <trkpt lat="37.099617" lon="128.916244"><ele>1559.5</ele></trkpt>
      <trkpt lat="37.099499" lon="128.916353"><ele>1559.8</ele></trkpt>
      <trkpt lat="37.099420" lon="128.916213"><ele>1561.0</ele></trkpt>
      <trkpt lat="37.099302" lon="128.916146"><ele>1560.2</ele></trkpt>
      <trkpt lat="37.099228" lon="128.915997"><ele>1560.6</ele></trkpt>
      <trkpt lat="37.099141" lon="128.915941"><ele>1560.7</ele></trkpt>
      <trkpt lat="37.098795" lon="128.915947"><ele>1558.7</ele></trkpt>
      <trkpt lat="37.098554" lon="128.916120"><ele>1558.4</ele></trkpt>
      <trkpt lat="37.097914" lon="128.916340"><ele>1551.4</ele></trkpt>
      <trkpt lat="37.097728" lon="128.916281"><ele>1548.1</ele></trkpt>
      <trkpt lat="37.097140" lon="128.916307"><ele>1551.1</ele></trkpt>
      <trkpt lat="37.097031" lon="128.916396"><ele>1553.7</ele></trkpt>
      <trkpt lat="37.096829" lon="128.916421"><ele>1554.8</ele></trkpt>
      <trkpt lat="37.096652" lon="128.916646"><ele>1554.1</ele></trkpt>
      <trkpt lat="37.096427" lon="128.916677"><ele>1553.9</ele></trkpt>
    </trkseg>
  </trk>
</gpx>
