<?xml version="1.0" encoding="UTF-8"?>
<gpx version="1.1" creator="kr-100-mountains route-harvester"
     xmlns="http://www.topografix.com/GPX/1/1"
     xmlns:k100="https://github.com/jay-jang/kr-100-mountains/ns/1"
     xmlns:xsi="http://www.w3.org/2001/XMLSchema-instance"
     xsi:schemaLocation="http://www.topografix.com/GPX/1/1 http://www.topografix.com/GPX/1/1/gpx.xsd">
  <metadata>
    <name>태백산 · 당골-천제단 코스 (OSM 계산 경로)</name>
    <desc>실제 GPS 기록이 아닙니다. OpenStreetMap에 등록된 등산로 선형 위에서 계산한 경로이며, 현장 통제·훼손·출입 제한·계절 통제를 반영하지 않을 수 있습니다. 산행 전 공식 안내를 확인하세요.</desc>
    <time>2026-08-04T05:19:54.716Z</time>
    <link href="https://www.openstreetmap.org/copyright"><text>© OpenStreetMap contributors (ODbL 1.0)</text></link>
    <link href="https://registry.opendata.aws/terrain-tiles/"><text>Elevation: SRTM 1 arc-second (NASA/USGS) via AWS Terrain Tiles</text></link>
    <extensions>
      <k100:provenance>osm-routed</k100:provenance>
      <k100:not_a_recorded_track>true</k100:not_a_recorded_track>
      <k100:mountain_id>taebaeksan</k100:mountain_id>
      <k100:mountain_name>태백산</k100:mountain_name>
      <k100:route_id>taebaeksan-100845aa</k100:route_id>
      <k100:route_index>2</k100:route_index>
      <k100:route_name>당골-천제단 코스</k100:route_name>
      <k100:variant>0</k100:variant>
      <k100:source>OpenStreetMap via Overpass API</k100:source>
      <k100:license>ODbL-1.0</k100:license>
      <k100:attribution>© OpenStreetMap contributors</k100:attribution>
      <k100:elevation_source>SRTM 1 arc-second (NASA/USGS) — AWS Terrain Tiles 배포본. 지형 DEM 추정 고도이며 실측 아님</k100:elevation_source>
      <k100:algorithm>dijkstra-grid-v1</k100:algorithm>
      <k100:osm_snapshot>2026-08-04</k100:osm_snapshot>
      <k100:snap_trailhead_m>306</k100:snap_trailhead_m>
      <k100:snap_summit_m>141</k100:snap_summit_m>
      <k100:validation_score>83</k100:validation_score>
      <k100:validation_status>accepted</k100:validation_status>
    </extensions>
  </metadata>
  <trk>
    <name>태백산 · 당골-천제단 코스 (OSM 계산 경로)</name>
    <desc>실제 GPS 기록이 아닙니다. OpenStreetMap에 등록된 등산로 선형 위에서 계산한 경로이며, 현장 통제·훼손·출입 제한·계절 통제를 반영하지 않을 수 있습니다. 산행 전 공식 안내를 확인하세요.</desc>
    <trkseg>
      <trkpt lat="37.109922" lon="128.929684"><ele>1141.2</ele></trkpt>
      <trkpt lat="37.109476" lon="128.929311"><ele>1150.8</ele></trkpt>
      <trkpt lat="37.109264" lon="128.929855"><ele>1165.8</ele></trkpt>
      <trkpt lat="37.109214" lon="128.930097"><ele>1172.3</ele></trkpt>
      <trkpt lat="37.109065" lon="128.930213"><ele>1179.9</ele></trkpt>
      <trkpt lat="37.108706" lon="128.930295"><ele>1193.2</ele></trkpt>
      <trkpt lat="37.108398" lon="128.930292"><ele>1200.8</ele></trkpt>
      <trkpt lat="37.107693" lon="128.930236"><ele>1208.3</ele></trkpt>
      <trkpt lat="37.107429" lon="128.930128"><ele>1214.6</ele></trkpt>
      <trkpt lat="37.107118" lon="128.930147"><ele>1223.2</ele></trkpt>
      <trkpt lat="37.106791" lon="128.930055"><ele>1237.1</ele></trkpt>
      <trkpt lat="37.106512" lon="128.930194"><ele>1239.2</ele></trkpt>
      <trkpt lat="37.106302" lon="128.930034"><ele>1245.0</ele></trkpt>
      <trkpt lat="37.106303" lon="128.929881"><ele>1246.2</ele></trkpt>
      <trkpt lat="37.106257" lon="128.929802"><ele>1247.3</ele></trkpt>
      <trkpt lat="37.106058" lon="128.929689"><ele>1253.5</ele></trkpt>
      <trkpt lat="37.105965" lon="128.929541"><ele>1259.9</ele></trkpt>
      <trkpt lat="37.105860" lon="128.929636"><ele>1262.1</ele></trkpt>
      <trkpt lat="37.105699" lon="128.929674"><ele>1268.3</ele></trkpt>
      <trkpt lat="37.105165" lon="128.929277"><ele>1285.5</ele></trkpt>
      <trkpt lat="37.105052" lon="128.928938"><ele>1294.2</ele></trkpt>
      <trkpt lat="37.104865" lon="128.928621"><ele>1308.0</ele></trkpt>
      <trkpt lat="37.104535" lon="128.928442"><ele>1316.5</ele></trkpt>
      <trkpt lat="37.104283" lon="128.927794"><ele>1327.7</ele></trkpt>
      <trkpt lat="37.104262" lon="128.927449"><ele>1334.8</ele></trkpt>
      <trkpt lat="37.104076" lon="128.927293"><ele>1339.8</ele></trkpt>
      <trkpt lat="37.103933" lon="128.927065"><ele>1343.7</ele></trkpt>
      <trkpt lat="37.103522" lon="128.926633"><ele>1350.0</ele></trkpt>
      <trkpt lat="37.103180" lon="128.925549"><ele>1360.3</ele></trkpt>
      <trkpt lat="37.102454" lon="128.924339"><ele>1374.3</ele></trkpt>
      <trkpt lat="37.102147" lon="128.924263"><ele>1377.8</ele></trkpt>
      <trkpt lat="37.101993" lon="128.923950"><ele>1386.6</ele></trkpt>
      <trkpt lat="37.101856" lon="128.923848"><ele>1392.4</ele></trkpt>
      <trkpt lat="37.101209" lon="128.923668"><ele>1406.0</ele></trkpt>
      <trkpt lat="37.101128" lon="128.923449"><ele>1407.3</ele></trkpt>
      <trkpt lat="37.101144" lon="128.922300"><ele>1417.8</ele></trkpt>
      <trkpt lat="37.101049" lon="128.921852"><ele>1422.5</ele></trkpt>
      <trkpt lat="37.100830" lon="128.921296"><ele>1431.9</ele></trkpt>
      <trkpt lat="37.100546" lon="128.920783"><ele>1438.6</ele></trkpt>
      <trkpt lat="37.100425" lon="128.920661"><ele>1443.8</ele></trkpt>
      <trkpt lat="37.100118" lon="128.920631"><ele>1446.6</ele></trkpt>
      <trkpt lat="37.099890" lon="128.920548"><ele>1448.9</ele></trkpt>
      <trkpt lat="37.099269" lon="128.919961"><ele>1449.9</ele></trkpt>
      <trkpt lat="37.098815" lon="128.919383"><ele>1460.7</ele></trkpt>
      <trkpt lat="37.098164" lon="128.919165"><ele>1466.3</ele></trkpt>
      <trkpt lat="37.097929" lon="128.919228"><ele>1468.3</ele></trkpt>
      <trkpt lat="37.097789" lon="128.919204"><ele>1471.9</ele></trkpt>
      <trkpt lat="37.097029" lon="128.918938"><ele>1500.2</ele></trkpt>
      <trkpt lat="37.096954" lon="128.918721"><ele>1504.7</ele></trkpt>
      <trkpt lat="37.096704" lon="128.918485"><ele>1514.8</ele></trkpt>
      <trkpt lat="37.096707" lon="128.918299"><ele>1520.3</ele></trkpt>
      <trkpt lat="37.096600" lon="128.918148"><ele>1526.3</ele></trkpt>
      <trkpt lat="37.096638" lon="128.918063"><ele>1528.9</ele></trkpt>
      <trkpt lat="37.096650" lon="128.917695"><ele>1536.6</ele></trkpt>
      <trkpt lat="37.096555" lon="128.917576"><ele>1539.3</ele></trkpt>
      <trkpt lat="37.096498" lon="128.917360"><ele>1544.3</ele></trkpt>
      <trkpt lat="37.096283" lon="128.916953"><ele>1550.2</ele></trkpt>
      <trkpt lat="37.096262" lon="128.916775"><ele>1550.4</ele></trkpt>
      <trkpt lat="37.096427" lon="128.916677"><ele>1553.9</ele></trkpt>
    </trkseg>
  </trk>
</gpx>
