<?xml version="1.0" encoding="UTF-8"?>
<gpx version="1.1" creator="kr-100-mountains route-harvester"
     xmlns="http://www.topografix.com/GPX/1/1"
     xmlns:k100="https://github.com/jay-jang/kr-100-mountains/ns/1"
     xmlns:xsi="http://www.w3.org/2001/XMLSchema-instance"
     xsi:schemaLocation="http://www.topografix.com/GPX/1/1 http://www.topografix.com/GPX/1/1/gpx.xsd">
  <metadata>
    <name>태백산 · 화방재-사길령-유일사갈림길-장군봉-천제단 (대안 1) (OSM 계산 경로)</name>
    <desc>실제 GPS 기록이 아닙니다. OpenStreetMap에 등록된 등산로 선형 위에서 계산한 경로이며, 현장 통제·훼손·출입 제한·계절 통제를 반영하지 않을 수 있습니다. 산행 전 공식 안내를 확인하세요.</desc>
    <time>2026-08-04T05:19:54.739Z</time>
    <link href="https://www.openstreetmap.org/copyright"><text>© OpenStreetMap contributors (ODbL 1.0)</text></link>
    <link href="https://registry.opendata.aws/terrain-tiles/"><text>Elevation: SRTM 1 arc-second (NASA/USGS) via AWS Terrain Tiles</text></link>
    <extensions>
      <k100:provenance>osm-routed</k100:provenance>
      <k100:not_a_recorded_track>true</k100:not_a_recorded_track>
      <k100:mountain_id>taebaeksan</k100:mountain_id>
      <k100:mountain_name>태백산</k100:mountain_name>
      <k100:route_id>taebaeksan-1da82dd9</k100:route_id>
      <k100:route_index>4</k100:route_index>
      <k100:route_name>화방재-사길령-유일사갈림길-장군봉-천제단</k100:route_name>
      <k100:variant>1</k100:variant>
      <k100:source>OpenStreetMap via Overpass API</k100:source>
      <k100:license>ODbL-1.0</k100:license>
      <k100:attribution>© OpenStreetMap contributors</k100:attribution>
      <k100:elevation_source>SRTM 1 arc-second (NASA/USGS) — AWS Terrain Tiles 배포본. 지형 DEM 추정 고도이며 실측 아님</k100:elevation_source>
      <k100:algorithm>dijkstra-grid-v1</k100:algorithm>
      <k100:osm_snapshot>2026-08-04</k100:osm_snapshot>
      <k100:snap_trailhead_m>213</k100:snap_trailhead_m>
      <k100:snap_summit_m>141</k100:snap_summit_m>
      <k100:validation_score>83</k100:validation_score>
      <k100:validation_status>accepted</k100:validation_status>
    </extensions>
  </metadata>
  <trk>
    <name>태백산 · 화방재-사길령-유일사갈림길-장군봉-천제단 (대안 1) (OSM 계산 경로)</name>
    <desc>실제 GPS 기록이 아닙니다. OpenStreetMap에 등록된 등산로 선형 위에서 계산한 경로이며, 현장 통제·훼손·출입 제한·계절 통제를 반영하지 않을 수 있습니다. 산행 전 공식 안내를 확인하세요.</desc>
    <trkseg>
      <trkpt lat="37.129529" lon="128.904465"><ele>1162.9</ele></trkpt>
      <trkpt lat="37.129059" lon="128.904203"><ele>1142.6</ele></trkpt>
      <trkpt lat="37.128415" lon="128.904034"><ele>1120.1</ele></trkpt>
      <trkpt lat="37.128246" lon="128.903564"><ele>1104.9</ele></trkpt>
      <trkpt lat="37.127964" lon="128.903081"><ele>1078.0</ele></trkpt>
      <trkpt lat="37.127840" lon="128.902953"><ele>1070.2</ele></trkpt>
      <trkpt lat="37.126933" lon="128.902609"><ele>1035.8</ele></trkpt>
      <trkpt lat="37.126629" lon="128.902346"><ele>1027.3</ele></trkpt>
      <trkpt lat="37.126261" lon="128.901767"><ele>1000.6</ele></trkpt>
      <trkpt lat="37.125757" lon="128.901370"><ele>991.9</ele></trkpt>
      <trkpt lat="37.125560" lon="128.900989"><ele>993.0</ele></trkpt>
      <trkpt lat="37.125533" lon="128.900855"><ele>992.0</ele></trkpt>
      <trkpt lat="37.125329" lon="128.900638"><ele>987.4</ele></trkpt>
      <trkpt lat="37.125145" lon="128.900531"><ele>984.5</ele></trkpt>
      <trkpt lat="37.124820" lon="128.900174"><ele>979.7</ele></trkpt>
      <trkpt lat="37.124444" lon="128.899639"><ele>970.8</ele></trkpt>
      <trkpt lat="37.124199" lon="128.899521"><ele>963.8</ele></trkpt>
      <trkpt lat="37.124071" lon="128.899397"><ele>959.1</ele></trkpt>
      <trkpt lat="37.123900" lon="128.899428"><ele>956.0</ele></trkpt>
      <trkpt lat="37.123796" lon="128.899593"><ele>953.8</ele></trkpt>
      <trkpt lat="37.123593" lon="128.899483"><ele>947.5</ele></trkpt>
      <trkpt lat="37.123291" lon="128.899505"><ele>942.5</ele></trkpt>
      <trkpt lat="37.123148" lon="128.899320"><ele>941.7</ele></trkpt>
      <trkpt lat="37.123013" lon="128.899588"><ele>941.1</ele></trkpt>
      <trkpt lat="37.122731" lon="128.900455"><ele>934.8</ele></trkpt>
      <trkpt lat="37.122600" lon="128.900732"><ele>935.3</ele></trkpt>
      <trkpt lat="37.121820" lon="128.901461"><ele>928.1</ele></trkpt>
      <trkpt lat="37.120970" lon="128.902548"><ele>917.2</ele></trkpt>
      <trkpt lat="37.121063" lon="128.902662"><ele>915.2</ele></trkpt>
      <trkpt lat="37.121220" lon="128.903410"><ele>905.5</ele></trkpt>
      <trkpt lat="37.121515" lon="128.904010"><ele>898.5</ele></trkpt>
      <trkpt lat="37.121949" lon="128.905582"><ele>885.5</ele></trkpt>
      <trkpt lat="37.122165" lon="128.906032"><ele>878.1</ele></trkpt>
      <trkpt lat="37.122464" lon="128.906837"><ele>880.6</ele></trkpt>
      <trkpt lat="37.122477" lon="128.907003"><ele>881.0</ele></trkpt>
      <trkpt lat="37.122189" lon="128.907724"><ele>875.4</ele></trkpt>
      <trkpt lat="37.122017" lon="128.908786"><ele>870.8</ele></trkpt>
      <trkpt lat="37.121821" lon="128.908738"><ele>870.9</ele></trkpt>
      <trkpt lat="37.121265" lon="128.908342"><ele>879.9</ele></trkpt>
      <trkpt lat="37.120889" lon="128.907990"><ele>887.5</ele></trkpt>
      <trkpt lat="37.120599" lon="128.907904"><ele>892.8</ele></trkpt>
      <trkpt lat="37.119910" lon="128.908075"><ele>905.2</ele></trkpt>
      <trkpt lat="37.119568" lon="128.908237"><ele>912.5</ele></trkpt>
      <trkpt lat="37.119095" lon="128.908560"><ele>918.7</ele></trkpt>
      <trkpt lat="37.118178" lon="128.908835"><ele>941.6</ele></trkpt>
      <trkpt lat="37.117647" lon="128.909190"><ele>949.0</ele></trkpt>
      <trkpt lat="37.117149" lon="128.909126"><ele>960.2</ele></trkpt>
      <trkpt lat="37.116894" lon="128.908977"><ele>966.2</ele></trkpt>
      <trkpt lat="37.116072" lon="128.908790"><ele>987.5</ele></trkpt>
      <trkpt lat="37.115507" lon="128.909099"><ele>991.8</ele></trkpt>
      <trkpt lat="37.115076" lon="128.909059"><ele>1001.3</ele></trkpt>
      <trkpt lat="37.114868" lon="128.909347"><ele>1004.9</ele></trkpt>
      <trkpt lat="37.114712" lon="128.909768"><ele>1012.3</ele></trkpt>
      <trkpt lat="37.114555" lon="128.909939"><ele>1017.9</ele></trkpt>
      <trkpt lat="37.114135" lon="128.909924"><ele>1026.3</ele></trkpt>
      <trkpt lat="37.113315" lon="128.910202"><ele>1046.7</ele></trkpt>
      <trkpt lat="37.113123" lon="128.910122"><ele>1051.5</ele></trkpt>
      <trkpt lat="37.113013" lon="128.910149"><ele>1055.2</ele></trkpt>
      <trkpt lat="37.112910" lon="128.910204"><ele>1059.5</ele></trkpt>
      <trkpt lat="37.112809" lon="128.910345"><ele>1064.3</ele></trkpt>
      <trkpt lat="37.112714" lon="128.910599"><ele>1069.5</ele></trkpt>
      <trkpt lat="37.112572" lon="128.910588"><ele>1073.4</ele></trkpt>
      <trkpt lat="37.112218" lon="128.910863"><ele>1087.0</ele></trkpt>
      <trkpt lat="37.112059" lon="128.910792"><ele>1092.0</ele></trkpt>
      <trkpt lat="37.111621" lon="128.910870"><ele>1112.0</ele></trkpt>
      <trkpt lat="37.111345" lon="128.911025"><ele>1123.9</ele></trkpt>
      <trkpt lat="37.110945" lon="128.911376"><ele>1148.3</ele></trkpt>
      <trkpt lat="37.110440" lon="128.912155"><ele>1187.0</ele></trkpt>
      <trkpt lat="37.110009" lon="128.912418"><ele>1207.2</ele></trkpt>
      <trkpt lat="37.109927" lon="128.912415"><ele>1209.9</ele></trkpt>
      <trkpt lat="37.109797" lon="128.912188"><ele>1210.9</ele></trkpt>
      <trkpt lat="37.109352" lon="128.911766"><ele>1228.5</ele></trkpt>
      <trkpt lat="37.109279" lon="128.911628"><ele>1232.6</ele></trkpt>
      <trkpt lat="37.109244" lon="128.911056"><ele>1237.2</ele></trkpt>
      <trkpt lat="37.109125" lon="128.910513"><ele>1245.4</ele></trkpt>
      <trkpt lat="37.109046" lon="128.910508"><ele>1248.7</ele></trkpt>
      <trkpt lat="37.108902" lon="128.910858"><ele>1253.5</ele></trkpt>
      <trkpt lat="37.108813" lon="128.910688"><ele>1255.1</ele></trkpt>
      <trkpt lat="37.108501" lon="128.911190"><ele>1266.1</ele></trkpt>
      <trkpt lat="37.107881" lon="128.911705"><ele>1285.7</ele></trkpt>
      <trkpt lat="37.107748" lon="128.911997"><ele>1301.4</ele></trkpt>
      <trkpt lat="37.107538" lon="128.912169"><ele>1313.1</ele></trkpt>
      <trkpt lat="37.107162" lon="128.912670"><ele>1336.8</ele></trkpt>
      <trkpt lat="37.106997" lon="128.913059"><ele>1352.2</ele></trkpt>
      <trkpt lat="37.106843" lon="128.913095"><ele>1355.9</ele></trkpt>
      <trkpt lat="37.106667" lon="128.913326"><ele>1365.8</ele></trkpt>
      <trkpt lat="37.106607" lon="128.913541"><ele>1372.3</ele></trkpt>
      <trkpt lat="37.106507" lon="128.913640"><ele>1377.7</ele></trkpt>
      <trkpt lat="37.106392" lon="128.913880"><ele>1385.8</ele></trkpt>
      <trkpt lat="37.106211" lon="128.913881"><ele>1388.4</ele></trkpt>
      <trkpt lat="37.106074" lon="128.914222"><ele>1397.2</ele></trkpt>
      <trkpt lat="37.105682" lon="128.914279"><ele>1406.7</ele></trkpt>
      <trkpt lat="37.105355" lon="128.914686"><ele>1418.5</ele></trkpt>
      <trkpt lat="37.105233" lon="128.914702"><ele>1423.0</ele></trkpt>
      <trkpt lat="37.105122" lon="128.914875"><ele>1425.2</ele></trkpt>
      <trkpt lat="37.104922" lon="128.914989"><ele>1430.9</ele></trkpt>
      <trkpt lat="37.104907" lon="128.915181"><ele>1431.6</ele></trkpt>
      <trkpt lat="37.104767" lon="128.915046"><ele>1435.3</ele></trkpt>
      <trkpt lat="37.104390" lon="128.915243"><ele>1448.6</ele></trkpt>
      <trkpt lat="37.104300" lon="128.915263"><ele>1450.8</ele></trkpt>
      <trkpt lat="37.104105" lon="128.915172"><ele>1456.7</ele></trkpt>
      <trkpt lat="37.103987" lon="128.915192"><ele>1460.2</ele></trkpt>
      <trkpt lat="37.103547" lon="128.915332"><ele>1466.5</ele></trkpt>
      <trkpt lat="37.103442" lon="128.915421"><ele>1467.6</ele></trkpt>
      <trkpt lat="37.103215" lon="128.915391"><ele>1471.8</ele></trkpt>
      <trkpt lat="37.102660" lon="128.915457"><ele>1481.3</ele></trkpt>
      <trkpt lat="37.102459" lon="128.915416"><ele>1484.0</ele></trkpt>
      <trkpt lat="37.102300" lon="128.915481"><ele>1488.2</ele></trkpt>
      <trkpt lat="37.102245" lon="128.915544"><ele>1490.2</ele></trkpt>
      <trkpt lat="37.102268" lon="128.915672"><ele>1487.7</ele></trkpt>
      <trkpt lat="37.101857" lon="128.916372"><ele>1479.5</ele></trkpt>
      <trkpt lat="37.101352" lon="128.916633"><ele>1486.4</ele></trkpt>
      <trkpt lat="37.101035" lon="128.917164"><ele>1483.7</ele></trkpt>
      <trkpt lat="37.100830" lon="128.917397"><ele>1490.3</ele></trkpt>
      <trkpt lat="37.100765" lon="128.917842"><ele>1487.8</ele></trkpt>
      <trkpt lat="37.100790" lon="128.918319"><ele>1480.4</ele></trkpt>
      <trkpt lat="37.100739" lon="128.919214"><ele>1479.6</ele></trkpt>
      <trkpt lat="37.100707" lon="128.919283"><ele>1479.0</ele></trkpt>
      <trkpt lat="37.100514" lon="128.919390"><ele>1477.2</ele></trkpt>
      <trkpt lat="37.099822" lon="128.919504"><ele>1474.1</ele></trkpt>
      <trkpt lat="37.099733" lon="128.919454"><ele>1474.8</ele></trkpt>
      <trkpt lat="37.099621" lon="128.919482"><ele>1472.9</ele></trkpt>
      <trkpt lat="37.099391" lon="128.919366"><ele>1472.4</ele></trkpt>
      <trkpt lat="37.099210" lon="128.919390"><ele>1468.2</ele></trkpt>
      <trkpt lat="37.098921" lon="128.919202"><ele>1469.1</ele></trkpt>
      <trkpt lat="37.098262" lon="128.919055"><ele>1469.5</ele></trkpt>
      <trkpt lat="37.097929" lon="128.919228"><ele>1468.3</ele></trkpt>
      <trkpt lat="37.097029" lon="128.918938"><ele>1500.2</ele></trkpt>
      <trkpt lat="37.096954" lon="128.918721"><ele>1504.7</ele></trkpt>
      <trkpt lat="37.096704" lon="128.918485"><ele>1514.8</ele></trkpt>
      <trkpt lat="37.096707" lon="128.918299"><ele>1520.3</ele></trkpt>
      <trkpt lat="37.096600" lon="128.918148"><ele>1526.3</ele></trkpt>
      <trkpt lat="37.096638" lon="128.918063"><ele>1528.9</ele></trkpt>
      <trkpt lat="37.096650" lon="128.917695"><ele>1536.6</ele></trkpt>
      <trkpt lat="37.096555" lon="128.917576"><ele>1539.3</ele></trkpt>
      <trkpt lat="37.096498" lon="128.917360"><ele>1544.3</ele></trkpt>
      <trkpt lat="37.096283" lon="128.916953"><ele>1550.2</ele></trkpt>
      <trkpt lat="37.096262" lon="128.916775"><ele>1550.4</ele></trkpt>
      <trkpt lat="37.096427" lon="128.916677"><ele>1553.9</ele></trkpt>
    </trkseg>
  </trk>
</gpx>
