<?xml version="1.0" encoding="UTF-8"?>
<gpx version="1.1" creator="kr-100-mountains route-harvester"
     xmlns="http://www.topografix.com/GPX/1/1"
     xmlns:k100="https://github.com/jay-jang/kr-100-mountains/ns/1"
     xmlns:xsi="http://www.w3.org/2001/XMLSchema-instance"
     xsi:schemaLocation="http://www.topografix.com/GPX/1/1 http://www.topografix.com/GPX/1/1/gpx.xsd">
  <metadata>
    <name>모악산 · 중인리(구이)-정상 코스 (대안 1) (OSM 계산 경로)</name>
    <desc>실제 GPS 기록이 아닙니다. OpenStreetMap에 등록된 등산로 선형 위에서 계산한 경로이며, 현장 통제·훼손·출입 제한·계절 통제를 반영하지 않을 수 있습니다. 산행 전 공식 안내를 확인하세요.</desc>
    <time>2026-08-04T05:33:47.566Z</time>
    <link href="https://www.openstreetmap.org/copyright"><text>© OpenStreetMap contributors (ODbL 1.0)</text></link>
    <link href="https://registry.opendata.aws/terrain-tiles/"><text>Elevation: SRTM 1 arc-second (NASA/USGS) via AWS Terrain Tiles</text></link>
    <extensions>
      <k100:provenance>osm-routed</k100:provenance>
      <k100:not_a_recorded_track>true</k100:not_a_recorded_track>
      <k100:mountain_id>moaksan</k100:mountain_id>
      <k100:mountain_name>모악산</k100:mountain_name>
      <k100:route_id>moaksan-29ec4461</k100:route_id>
      <k100:route_index>2</k100:route_index>
      <k100:route_name>중인리(구이)-정상 코스</k100:route_name>
      <k100:variant>1</k100:variant>
      <k100:source>OpenStreetMap via Overpass API</k100:source>
      <k100:license>ODbL-1.0</k100:license>
      <k100:attribution>© OpenStreetMap contributors</k100:attribution>
      <k100:elevation_source>SRTM 1 arc-second (NASA/USGS) — AWS Terrain Tiles 배포본. 지형 DEM 추정 고도이며 실측 아님</k100:elevation_source>
      <k100:algorithm>dijkstra-grid-v1</k100:algorithm>
      <k100:osm_snapshot>2026-08-04</k100:osm_snapshot>
      <k100:snap_trailhead_m>144</k100:snap_trailhead_m>
      <k100:snap_summit_m>14</k100:snap_summit_m>
      <k100:validation_score>84</k100:validation_score>
      <k100:validation_status>accepted</k100:validation_status>
    </extensions>
  </metadata>
  <trk>
    <name>모악산 · 중인리(구이)-정상 코스 (대안 1) (OSM 계산 경로)</name>
    <desc>실제 GPS 기록이 아닙니다. OpenStreetMap에 등록된 등산로 선형 위에서 계산한 경로이며, 현장 통제·훼손·출입 제한·계절 통제를 반영하지 않을 수 있습니다. 산행 전 공식 안내를 확인하세요.</desc>
    <trkseg>
      <trkpt lat="35.767307" lon="127.088342"><ele>66.2</ele></trkpt>
      <trkpt lat="35.767508" lon="127.089022"><ele>73.3</ele></trkpt>
      <trkpt lat="35.767772" lon="127.088994"><ele>70.9</ele></trkpt>
      <trkpt lat="35.768002" lon="127.089150"><ele>71.3</ele></trkpt>
      <trkpt lat="35.768457" lon="127.089723"><ele>69.2</ele></trkpt>
      <trkpt lat="35.767956" lon="127.090369"><ele>74.9</ele></trkpt>
      <trkpt lat="35.768470" lon="127.091000"><ele>69.0</ele></trkpt>
      <trkpt lat="35.768501" lon="127.091290"><ele>68.0</ele></trkpt>
      <trkpt lat="35.768424" lon="127.091509"><ele>67.5</ele></trkpt>
      <trkpt lat="35.767230" lon="127.093265"><ele>57.0</ele></trkpt>
      <trkpt lat="35.766615" lon="127.094080"><ele>56.2</ele></trkpt>
      <trkpt lat="35.766459" lon="127.093857"><ele>56.8</ele></trkpt>
      <trkpt lat="35.766349" lon="127.093413"><ele>58.5</ele></trkpt>
      <trkpt lat="35.766246" lon="127.093237"><ele>59.2</ele></trkpt>
      <trkpt lat="35.766333" lon="127.092883"><ele>59.8</ele></trkpt>
      <trkpt lat="35.765979" lon="127.092508"><ele>59.0</ele></trkpt>
      <trkpt lat="35.765489" lon="127.092169"><ele>61.2</ele></trkpt>
      <trkpt lat="35.765518" lon="127.092045"><ele>61.1</ele></trkpt>
      <trkpt lat="35.765106" lon="127.091805"><ele>62.0</ele></trkpt>
      <trkpt lat="35.764807" lon="127.091834"><ele>62.7</ele></trkpt>
      <trkpt lat="35.764600" lon="127.092037"><ele>63.6</ele></trkpt>
      <trkpt lat="35.764172" lon="127.091489"><ele>65.0</ele></trkpt>
      <trkpt lat="35.763924" lon="127.091261"><ele>65.9</ele></trkpt>
      <trkpt lat="35.763831" lon="127.091070"><ele>66.3</ele></trkpt>
      <trkpt lat="35.763638" lon="127.090851"><ele>67.0</ele></trkpt>
      <trkpt lat="35.763425" lon="127.090750"><ele>68.0</ele></trkpt>
      <trkpt lat="35.763160" lon="127.090533"><ele>69.0</ele></trkpt>
      <trkpt lat="35.762454" lon="127.090327"><ele>69.9</ele></trkpt>
      <trkpt lat="35.761706" lon="127.089464"><ele>73.0</ele></trkpt>
      <trkpt lat="35.760772" lon="127.089122"><ele>77.3</ele></trkpt>
      <trkpt lat="35.760598" lon="127.088730"><ele>78.5</ele></trkpt>
      <trkpt lat="35.760336" lon="127.088420"><ele>81.6</ele></trkpt>
      <trkpt lat="35.759961" lon="127.088110"><ele>83.8</ele></trkpt>
      <trkpt lat="35.759691" lon="127.087804"><ele>85.9</ele></trkpt>
      <trkpt lat="35.759240" lon="127.087523"><ele>89.3</ele></trkpt>
      <trkpt lat="35.758792" lon="127.087022"><ele>97.2</ele></trkpt>
      <trkpt lat="35.758619" lon="127.086998"><ele>97.2</ele></trkpt>
      <trkpt lat="35.758507" lon="127.086908"><ele>98.0</ele></trkpt>
      <trkpt lat="35.758406" lon="127.086743"><ele>98.9</ele></trkpt>
      <trkpt lat="35.758005" lon="127.086744"><ele>100.3</ele></trkpt>
      <trkpt lat="35.757252" lon="127.086850"><ele>107.6</ele></trkpt>
      <trkpt lat="35.756220" lon="127.086684"><ele>115.3</ele></trkpt>
      <trkpt lat="35.756076" lon="127.086566"><ele>116.3</ele></trkpt>
      <trkpt lat="35.755792" lon="127.086473"><ele>118.0</ele></trkpt>
      <trkpt lat="35.755404" lon="127.086616"><ele>119.9</ele></trkpt>
      <trkpt lat="35.755224" lon="127.086514"><ele>120.6</ele></trkpt>
      <trkpt lat="35.755056" lon="127.086560"><ele>121.4</ele></trkpt>
      <trkpt lat="35.754738" lon="127.086403"><ele>124.8</ele></trkpt>
      <trkpt lat="35.754168" lon="127.086393"><ele>133.0</ele></trkpt>
      <trkpt lat="35.753963" lon="127.086473"><ele>136.8</ele></trkpt>
      <trkpt lat="35.753927" lon="127.086640"><ele>137.4</ele></trkpt>
      <trkpt lat="35.753993" lon="127.086861"><ele>137.4</ele></trkpt>
      <trkpt lat="35.754116" lon="127.087064"><ele>135.5</ele></trkpt>
      <trkpt lat="35.754121" lon="127.087162"><ele>135.8</ele></trkpt>
      <trkpt lat="35.753497" lon="127.087417"><ele>150.6</ele></trkpt>
      <trkpt lat="35.753228" lon="127.087391"><ele>155.8</ele></trkpt>
      <trkpt lat="35.753026" lon="127.087229"><ele>160.6</ele></trkpt>
      <trkpt lat="35.752665" lon="127.087138"><ele>169.3</ele></trkpt>
      <trkpt lat="35.752151" lon="127.087143"><ele>180.3</ele></trkpt>
      <trkpt lat="35.751868" lon="127.087213"><ele>184.6</ele></trkpt>
      <trkpt lat="35.751276" lon="127.087572"><ele>192.9</ele></trkpt>
      <trkpt lat="35.751041" lon="127.087632"><ele>197.7</ele></trkpt>
      <trkpt lat="35.750784" lon="127.087626"><ele>203.3</ele></trkpt>
      <trkpt lat="35.750284" lon="127.087524"><ele>214.3</ele></trkpt>
      <trkpt lat="35.749966" lon="127.087395"><ele>222.2</ele></trkpt>
      <trkpt lat="35.748812" lon="127.086757"><ele>236.2</ele></trkpt>
      <trkpt lat="35.748067" lon="127.086800"><ele>236.5</ele></trkpt>
      <trkpt lat="35.747501" lon="127.086736"><ele>252.7</ele></trkpt>
      <trkpt lat="35.747101" lon="127.086628"><ele>269.4</ele></trkpt>
      <trkpt lat="35.746653" lon="127.086344"><ele>284.9</ele></trkpt>
      <trkpt lat="35.745773" lon="127.086510"><ele>310.1</ele></trkpt>
      <trkpt lat="35.744915" lon="127.086446"><ele>335.3</ele></trkpt>
      <trkpt lat="35.744454" lon="127.086162"><ele>351.7</ele></trkpt>
      <trkpt lat="35.743975" lon="127.086070"><ele>357.2</ele></trkpt>
      <trkpt lat="35.743509" lon="127.086092"><ele>368.8</ele></trkpt>
      <trkpt lat="35.743222" lon="127.086011"><ele>374.0</ele></trkpt>
      <trkpt lat="35.742908" lon="127.085765"><ele>377.4</ele></trkpt>
      <trkpt lat="35.741924" lon="127.085277"><ele>367.9</ele></trkpt>
      <trkpt lat="35.741619" lon="127.085073"><ele>369.6</ele></trkpt>
      <trkpt lat="35.739318" lon="127.084080"><ele>437.9</ele></trkpt>
      <trkpt lat="35.738295" lon="127.083326"><ele>466.8</ele></trkpt>
      <trkpt lat="35.737481" lon="127.083206"><ele>492.5</ele></trkpt>
      <trkpt lat="35.737208" lon="127.083085"><ele>503.3</ele></trkpt>
      <trkpt lat="35.736958" lon="127.082881"><ele>511.2</ele></trkpt>
      <trkpt lat="35.736511" lon="127.082344"><ele>526.9</ele></trkpt>
      <trkpt lat="35.736085" lon="127.082069"><ele>542.7</ele></trkpt>
      <trkpt lat="35.735534" lon="127.082200"><ele>557.6</ele></trkpt>
      <trkpt lat="35.735271" lon="127.082060"><ele>574.2</ele></trkpt>
      <trkpt lat="35.735186" lon="127.082090"><ele>576.8</ele></trkpt>
      <trkpt lat="35.735077" lon="127.082267"><ele>577.1</ele></trkpt>
      <trkpt lat="35.734929" lon="127.082299"><ele>580.3</ele></trkpt>
      <trkpt lat="35.734195" lon="127.081669"><ele>630.6</ele></trkpt>
      <trkpt lat="35.734047" lon="127.081594"><ele>641.0</ele></trkpt>
      <trkpt lat="35.733694" lon="127.081537"><ele>663.1</ele></trkpt>
      <trkpt lat="35.733189" lon="127.081626"><ele>676.5</ele></trkpt>
      <trkpt lat="35.732975" lon="127.081152"><ele>685.7</ele></trkpt>
      <trkpt lat="35.732567" lon="127.081237"><ele>685.9</ele></trkpt>
      <trkpt lat="35.731928" lon="127.081580"><ele>690.9</ele></trkpt>
      <trkpt lat="35.731704" lon="127.081617"><ele>689.5</ele></trkpt>
      <trkpt lat="35.730880" lon="127.081548"><ele>700.6</ele></trkpt>
      <trkpt lat="35.730735" lon="127.081639"><ele>702.2</ele></trkpt>
      <trkpt lat="35.730485" lon="127.081439"><ele>709.2</ele></trkpt>
      <trkpt lat="35.730384" lon="127.081427"><ele>710.8</ele></trkpt>
      <trkpt lat="35.729763" lon="127.081820"><ele>707.7</ele></trkpt>
      <trkpt lat="35.729403" lon="127.082499"><ele>700.3</ele></trkpt>
      <trkpt lat="35.729246" lon="127.082643"><ele>699.4</ele></trkpt>
      <trkpt lat="35.729194" lon="127.083198"><ele>712.2</ele></trkpt>
      <trkpt lat="35.728827" lon="127.083472"><ele>720.4</ele></trkpt>
      <trkpt lat="35.728723" lon="127.083735"><ele>729.4</ele></trkpt>
      <trkpt lat="35.728777" lon="127.083983"><ele>742.6</ele></trkpt>
      <trkpt lat="35.728911" lon="127.084185"><ele>747.4</ele></trkpt>
      <trkpt lat="35.728887" lon="127.084255"><ele>749.7</ele></trkpt>
      <trkpt lat="35.728982" lon="127.084330"><ele>743.3</ele></trkpt>
      <trkpt lat="35.728968" lon="127.084397"><ele>744.9</ele></trkpt>
      <trkpt lat="35.728894" lon="127.084339"><ele>749.9</ele></trkpt>
      <trkpt lat="35.728771" lon="127.084466"><ele>757.0</ele></trkpt>
      <trkpt lat="35.728839" lon="127.084517"><ele>754.4</ele></trkpt>
      <trkpt lat="35.728717" lon="127.084664"><ele>764.3</ele></trkpt>
      <trkpt lat="35.728724" lon="127.084773"><ele>765.9</ele></trkpt>
      <trkpt lat="35.729075" lon="127.085397"><ele>746.5</ele></trkpt>
      <trkpt lat="35.729224" lon="127.085468"><ele>739.3</ele></trkpt>
      <trkpt lat="35.729278" lon="127.085428"><ele>737.9</ele></trkpt>
    </trkseg>
  </trk>
</gpx>
