<?xml version="1.0" encoding="UTF-8"?>
<gpx version="1.1" creator="kr-100-mountains route-harvester"
     xmlns="http://www.topografix.com/GPX/1/1"
     xmlns:k100="https://github.com/jay-jang/kr-100-mountains/ns/1"
     xmlns:xsi="http://www.w3.org/2001/XMLSchema-instance"
     xsi:schemaLocation="http://www.topografix.com/GPX/1/1 http://www.topografix.com/GPX/1/1/gpx.xsd">
  <metadata>
    <name>모악산 · 중인동-연분암-주능선-정상 (OSM 계산 경로)</name>
    <desc>실제 GPS 기록이 아닙니다. OpenStreetMap에 등록된 등산로 선형 위에서 계산한 경로이며, 현장 통제·훼손·출입 제한·계절 통제를 반영하지 않을 수 있습니다. 산행 전 공식 안내를 확인하세요.</desc>
    <time>2026-08-04T05:33:47.727Z</time>
    <link href="https://www.openstreetmap.org/copyright"><text>© OpenStreetMap contributors (ODbL 1.0)</text></link>
    <link href="https://registry.opendata.aws/terrain-tiles/"><text>Elevation: SRTM 1 arc-second (NASA/USGS) via AWS Terrain Tiles</text></link>
    <extensions>
      <k100:provenance>osm-routed</k100:provenance>
      <k100:not_a_recorded_track>true</k100:not_a_recorded_track>
      <k100:mountain_id>moaksan</k100:mountain_id>
      <k100:mountain_name>모악산</k100:mountain_name>
      <k100:route_id>moaksan-210c34f1</k100:route_id>
      <k100:route_index>5</k100:route_index>
      <k100:route_name>중인동-연분암-주능선-정상</k100:route_name>
      <k100:variant>0</k100:variant>
      <k100:source>OpenStreetMap via Overpass API</k100:source>
      <k100:license>ODbL-1.0</k100:license>
      <k100:attribution>© OpenStreetMap contributors</k100:attribution>
      <k100:elevation_source>SRTM 1 arc-second (NASA/USGS) — AWS Terrain Tiles 배포본. 지형 DEM 추정 고도이며 실측 아님</k100:elevation_source>
      <k100:algorithm>dijkstra-grid-v1</k100:algorithm>
      <k100:osm_snapshot>2026-08-04</k100:osm_snapshot>
      <k100:snap_trailhead_m>19</k100:snap_trailhead_m>
      <k100:snap_summit_m>14</k100:snap_summit_m>
      <k100:validation_score>93</k100:validation_score>
      <k100:validation_status>accepted</k100:validation_status>
    </extensions>
  </metadata>
  <trk>
    <name>모악산 · 중인동-연분암-주능선-정상 (OSM 계산 경로)</name>
    <desc>실제 GPS 기록이 아닙니다. OpenStreetMap에 등록된 등산로 선형 위에서 계산한 경로이며, 현장 통제·훼손·출입 제한·계절 통제를 반영하지 않을 수 있습니다. 산행 전 공식 안내를 확인하세요.</desc>
    <trkseg>
      <trkpt lat="35.757850" lon="127.086785"><ele>101.8</ele></trkpt>
      <trkpt lat="35.757252" lon="127.086850"><ele>107.6</ele></trkpt>
      <trkpt lat="35.756220" lon="127.086684"><ele>115.3</ele></trkpt>
      <trkpt lat="35.756076" lon="127.086566"><ele>116.3</ele></trkpt>
      <trkpt lat="35.755792" lon="127.086473"><ele>118.0</ele></trkpt>
      <trkpt lat="35.755404" lon="127.086616"><ele>119.9</ele></trkpt>
      <trkpt lat="35.755224" lon="127.086514"><ele>120.6</ele></trkpt>
      <trkpt lat="35.755056" lon="127.086560"><ele>121.4</ele></trkpt>
      <trkpt lat="35.754738" lon="127.086403"><ele>124.8</ele></trkpt>
      <trkpt lat="35.754085" lon="127.086409"><ele>134.5</ele></trkpt>
      <trkpt lat="35.753963" lon="127.086473"><ele>136.8</ele></trkpt>
      <trkpt lat="35.753927" lon="127.086640"><ele>137.4</ele></trkpt>
      <trkpt lat="35.753993" lon="127.086861"><ele>137.4</ele></trkpt>
      <trkpt lat="35.754116" lon="127.087064"><ele>135.5</ele></trkpt>
      <trkpt lat="35.754121" lon="127.087162"><ele>135.8</ele></trkpt>
      <trkpt lat="35.753497" lon="127.087417"><ele>150.6</ele></trkpt>
      <trkpt lat="35.753026" lon="127.087407"><ele>159.3</ele></trkpt>
      <trkpt lat="35.752684" lon="127.087525"><ele>166.2</ele></trkpt>
      <trkpt lat="35.752350" lon="127.087907"><ele>168.6</ele></trkpt>
      <trkpt lat="35.752030" lon="127.087935"><ele>176.6</ele></trkpt>
      <trkpt lat="35.751898" lon="127.087993"><ele>177.8</ele></trkpt>
      <trkpt lat="35.751579" lon="127.088304"><ele>174.6</ele></trkpt>
      <trkpt lat="35.751123" lon="127.088393"><ele>181.5</ele></trkpt>
      <trkpt lat="35.750857" lon="127.088579"><ele>185.9</ele></trkpt>
      <trkpt lat="35.750704" lon="127.088601"><ele>187.5</ele></trkpt>
      <trkpt lat="35.750385" lon="127.088549"><ele>189.5</ele></trkpt>
      <trkpt lat="35.750069" lon="127.088379"><ele>191.2</ele></trkpt>
      <trkpt lat="35.749780" lon="127.088334"><ele>191.8</ele></trkpt>
      <trkpt lat="35.749324" lon="127.088109"><ele>198.0</ele></trkpt>
      <trkpt lat="35.749067" lon="127.087856"><ele>205.2</ele></trkpt>
      <trkpt lat="35.748908" lon="127.087831"><ele>207.7</ele></trkpt>
      <trkpt lat="35.748519" lon="127.087616"><ele>213.9</ele></trkpt>
      <trkpt lat="35.748266" lon="127.087620"><ele>215.9</ele></trkpt>
      <trkpt lat="35.748113" lon="127.087476"><ele>217.1</ele></trkpt>
      <trkpt lat="35.747943" lon="127.087428"><ele>221.6</ele></trkpt>
      <trkpt lat="35.746938" lon="127.087535"><ele>240.5</ele></trkpt>
      <trkpt lat="35.746537" lon="127.087739"><ele>246.9</ele></trkpt>
      <trkpt lat="35.746454" lon="127.087846"><ele>247.3</ele></trkpt>
      <trkpt lat="35.745910" lon="127.088061"><ele>264.3</ele></trkpt>
      <trkpt lat="35.745597" lon="127.087975"><ele>274.8</ele></trkpt>
      <trkpt lat="35.744736" lon="127.088159"><ele>285.2</ele></trkpt>
      <trkpt lat="35.744736" lon="127.088272"><ele>282.3</ele></trkpt>
      <trkpt lat="35.744512" lon="127.088356"><ele>282.1</ele></trkpt>
      <trkpt lat="35.744447" lon="127.088318"><ele>283.4</ele></trkpt>
      <trkpt lat="35.744302" lon="127.088478"><ele>283.0</ele></trkpt>
      <trkpt lat="35.743989" lon="127.088430"><ele>290.3</ele></trkpt>
      <trkpt lat="35.743360" lon="127.088061"><ele>297.9</ele></trkpt>
      <trkpt lat="35.743255" lon="127.088094"><ele>301.2</ele></trkpt>
      <trkpt lat="35.742722" lon="127.087862"><ele>311.7</ele></trkpt>
      <trkpt lat="35.742376" lon="127.087548"><ele>319.9</ele></trkpt>
      <trkpt lat="35.741997" lon="127.087481"><ele>331.0</ele></trkpt>
      <trkpt lat="35.741832" lon="127.087537"><ele>337.3</ele></trkpt>
      <trkpt lat="35.741714" lon="127.087497"><ele>339.6</ele></trkpt>
      <trkpt lat="35.741368" lon="127.087545"><ele>351.3</ele></trkpt>
      <trkpt lat="35.740763" lon="127.087500"><ele>368.8</ele></trkpt>
      <trkpt lat="35.740543" lon="127.087556"><ele>374.4</ele></trkpt>
      <trkpt lat="35.740312" lon="127.087701"><ele>381.9</ele></trkpt>
      <trkpt lat="35.738979" lon="127.087837"><ele>418.7</ele></trkpt>
      <trkpt lat="35.738934" lon="127.087767"><ele>418.8</ele></trkpt>
      <trkpt lat="35.738610" lon="127.087649"><ele>432.0</ele></trkpt>
      <trkpt lat="35.738362" lon="127.087276"><ele>446.2</ele></trkpt>
      <trkpt lat="35.738170" lon="127.087113"><ele>457.1</ele></trkpt>
      <trkpt lat="35.738027" lon="127.087241"><ele>461.0</ele></trkpt>
      <trkpt lat="35.737996" lon="127.087375"><ele>460.2</ele></trkpt>
      <trkpt lat="35.737796" lon="127.087349"><ele>469.0</ele></trkpt>
      <trkpt lat="35.737683" lon="127.087209"><ele>476.6</ele></trkpt>
      <trkpt lat="35.737683" lon="127.087005"><ele>479.0</ele></trkpt>
      <trkpt lat="35.737477" lon="127.086909"><ele>487.5</ele></trkpt>
      <trkpt lat="35.737159" lon="127.087005"><ele>495.1</ele></trkpt>
      <trkpt lat="35.736815" lon="127.087027"><ele>503.8</ele></trkpt>
      <trkpt lat="35.736044" lon="127.087440"><ele>533.1</ele></trkpt>
      <trkpt lat="35.735766" lon="127.087504"><ele>545.5</ele></trkpt>
      <trkpt lat="35.735605" lon="127.087735"><ele>554.9</ele></trkpt>
      <trkpt lat="35.735343" lon="127.087724"><ele>561.1</ele></trkpt>
      <trkpt lat="35.734059" lon="127.087324"><ele>585.9</ele></trkpt>
      <trkpt lat="35.733731" lon="127.087191"><ele>597.7</ele></trkpt>
      <trkpt lat="35.733437" lon="127.086984"><ele>609.0</ele></trkpt>
      <trkpt lat="35.732862" lon="127.086778"><ele>626.2</ele></trkpt>
      <trkpt lat="35.732639" lon="127.086750"><ele>632.2</ele></trkpt>
      <trkpt lat="35.732210" lon="127.086823"><ele>647.1</ele></trkpt>
      <trkpt lat="35.732039" lon="127.086891"><ele>654.2</ele></trkpt>
      <trkpt lat="35.732029" lon="127.086969"><ele>654.1</ele></trkpt>
      <trkpt lat="35.731941" lon="127.086893"><ele>658.1</ele></trkpt>
      <trkpt lat="35.731521" lon="127.086740"><ele>665.7</ele></trkpt>
      <trkpt lat="35.731394" lon="127.086515"><ele>670.6</ele></trkpt>
      <trkpt lat="35.731298" lon="127.086487"><ele>672.5</ele></trkpt>
      <trkpt lat="35.731307" lon="127.086415"><ele>674.2</ele></trkpt>
      <trkpt lat="35.731265" lon="127.086435"><ele>674.4</ele></trkpt>
      <trkpt lat="35.731199" lon="127.086343"><ele>677.3</ele></trkpt>
      <trkpt lat="35.731121" lon="127.086388"><ele>678.8</ele></trkpt>
      <trkpt lat="35.730811" lon="127.086174"><ele>690.9</ele></trkpt>
      <trkpt lat="35.730319" lon="127.086102"><ele>698.7</ele></trkpt>
      <trkpt lat="35.730066" lon="127.085954"><ele>707.1</ele></trkpt>
      <trkpt lat="35.729772" lon="127.085914"><ele>714.7</ele></trkpt>
      <trkpt lat="35.729688" lon="127.085651"><ele>725.3</ele></trkpt>
      <trkpt lat="35.729428" lon="127.085690"><ele>729.1</ele></trkpt>
      <trkpt lat="35.729311" lon="127.085592"><ele>735.6</ele></trkpt>
      <trkpt lat="35.729278" lon="127.085428"><ele>737.9</ele></trkpt>
    </trkseg>
  </trk>
</gpx>
