<?xml version="1.0" encoding="UTF-8"?>
<gpx version="1.1" creator="kr-100-mountains route-harvester"
     xmlns="http://www.topografix.com/GPX/1/1"
     xmlns:k100="https://github.com/jay-jang/kr-100-mountains/ns/1"
     xmlns:xsi="http://www.w3.org/2001/XMLSchema-instance"
     xsi:schemaLocation="http://www.topografix.com/GPX/1/1 http://www.topografix.com/GPX/1/1/gpx.xsd">
  <metadata>
    <name>모악산 · 구이주차장-대원사-수왕사-정상 (대안 2) (OSM 계산 경로)</name>
    <desc>실제 GPS 기록이 아닙니다. OpenStreetMap에 등록된 등산로 선형 위에서 계산한 경로이며, 현장 통제·훼손·출입 제한·계절 통제를 반영하지 않을 수 있습니다. 산행 전 공식 안내를 확인하세요.</desc>
    <time>2026-08-04T05:33:47.684Z</time>
    <link href="https://www.openstreetmap.org/copyright"><text>© OpenStreetMap contributors (ODbL 1.0)</text></link>
    <link href="https://registry.opendata.aws/terrain-tiles/"><text>Elevation: SRTM 1 arc-second (NASA/USGS) via AWS Terrain Tiles</text></link>
    <extensions>
      <k100:provenance>osm-routed</k100:provenance>
      <k100:not_a_recorded_track>true</k100:not_a_recorded_track>
      <k100:mountain_id>moaksan</k100:mountain_id>
      <k100:mountain_name>모악산</k100:mountain_name>
      <k100:route_id>moaksan-67b58e0e</k100:route_id>
      <k100:route_index>4</k100:route_index>
      <k100:route_name>구이주차장-대원사-수왕사-정상</k100:route_name>
      <k100:variant>2</k100:variant>
      <k100:source>OpenStreetMap via Overpass API</k100:source>
      <k100:license>ODbL-1.0</k100:license>
      <k100:attribution>© OpenStreetMap contributors</k100:attribution>
      <k100:elevation_source>SRTM 1 arc-second (NASA/USGS) — AWS Terrain Tiles 배포본. 지형 DEM 추정 고도이며 실측 아님</k100:elevation_source>
      <k100:algorithm>dijkstra-grid-v1</k100:algorithm>
      <k100:osm_snapshot>2026-08-04</k100:osm_snapshot>
      <k100:snap_trailhead_m>16</k100:snap_trailhead_m>
      <k100:snap_summit_m>14</k100:snap_summit_m>
      <k100:validation_score>75</k100:validation_score>
      <k100:validation_status>review</k100:validation_status>
    </extensions>
  </metadata>
  <trk>
    <name>모악산 · 구이주차장-대원사-수왕사-정상 (대안 2) (OSM 계산 경로)</name>
    <desc>실제 GPS 기록이 아닙니다. OpenStreetMap에 등록된 등산로 선형 위에서 계산한 경로이며, 현장 통제·훼손·출입 제한·계절 통제를 반영하지 않을 수 있습니다. 산행 전 공식 안내를 확인하세요.</desc>
    <trkseg>
      <trkpt lat="35.760336" lon="127.088420"><ele>81.6</ele></trkpt>
      <trkpt lat="35.759961" lon="127.088110"><ele>83.8</ele></trkpt>
      <trkpt lat="35.759691" lon="127.087804"><ele>85.9</ele></trkpt>
      <trkpt lat="35.759240" lon="127.087523"><ele>89.3</ele></trkpt>
      <trkpt lat="35.758792" lon="127.087022"><ele>97.2</ele></trkpt>
      <trkpt lat="35.758899" lon="127.086892"><ele>98.7</ele></trkpt>
      <trkpt lat="35.759534" lon="127.086404"><ele>95.5</ele></trkpt>
      <trkpt lat="35.759606" lon="127.086187"><ele>96.9</ele></trkpt>
      <trkpt lat="35.759438" lon="127.085976"><ele>99.7</ele></trkpt>
      <trkpt lat="35.758567" lon="127.085571"><ele>111.1</ele></trkpt>
      <trkpt lat="35.758230" lon="127.085517"><ele>109.1</ele></trkpt>
      <trkpt lat="35.757527" lon="127.084839"><ele>109.6</ele></trkpt>
      <trkpt lat="35.757466" lon="127.084713"><ele>110.1</ele></trkpt>
      <trkpt lat="35.757454" lon="127.084539"><ele>112.0</ele></trkpt>
      <trkpt lat="35.757254" lon="127.084853"><ele>109.5</ele></trkpt>
      <trkpt lat="35.757222" lon="127.085183"><ele>108.3</ele></trkpt>
      <trkpt lat="35.757250" lon="127.085390"><ele>107.5</ele></trkpt>
      <trkpt lat="35.756664" lon="127.085171"><ele>113.8</ele></trkpt>
      <trkpt lat="35.756266" lon="127.084762"><ele>117.4</ele></trkpt>
      <trkpt lat="35.756135" lon="127.085016"><ele>116.9</ele></trkpt>
      <trkpt lat="35.755959" lon="127.084965"><ele>117.7</ele></trkpt>
      <trkpt lat="35.755226" lon="127.085099"><ele>123.4</ele></trkpt>
      <trkpt lat="35.754508" lon="127.084850"><ele>133.6</ele></trkpt>
      <trkpt lat="35.754066" lon="127.084582"><ele>140.6</ele></trkpt>
      <trkpt lat="35.753835" lon="127.084525"><ele>142.9</ele></trkpt>
      <trkpt lat="35.753443" lon="127.084179"><ele>149.1</ele></trkpt>
      <trkpt lat="35.753058" lon="127.083954"><ele>155.3</ele></trkpt>
      <trkpt lat="35.752561" lon="127.083455"><ele>159.6</ele></trkpt>
      <trkpt lat="35.751967" lon="127.082688"><ele>175.1</ele></trkpt>
      <trkpt lat="35.751423" lon="127.082173"><ele>186.3</ele></trkpt>
      <trkpt lat="35.751157" lon="127.081717"><ele>193.1</ele></trkpt>
      <trkpt lat="35.750975" lon="127.081575"><ele>196.1</ele></trkpt>
      <trkpt lat="35.750537" lon="127.081398"><ele>200.6</ele></trkpt>
      <trkpt lat="35.750106" lon="127.081081"><ele>210.4</ele></trkpt>
      <trkpt lat="35.750017" lon="127.080990"><ele>213.5</ele></trkpt>
      <trkpt lat="35.749847" lon="127.080652"><ele>217.9</ele></trkpt>
      <trkpt lat="35.749606" lon="127.080362"><ele>218.8</ele></trkpt>
      <trkpt lat="35.749560" lon="127.080395"><ele>219.3</ele></trkpt>
      <trkpt lat="35.749501" lon="127.080352"><ele>219.4</ele></trkpt>
      <trkpt lat="35.749473" lon="127.080489"><ele>220.9</ele></trkpt>
      <trkpt lat="35.749237" lon="127.080690"><ele>230.7</ele></trkpt>
      <trkpt lat="35.749337" lon="127.080872"><ele>233.5</ele></trkpt>
      <trkpt lat="35.749380" lon="127.081124"><ele>240.2</ele></trkpt>
      <trkpt lat="35.749363" lon="127.081269"><ele>243.2</ele></trkpt>
      <trkpt lat="35.749197" lon="127.081580"><ele>252.5</ele></trkpt>
      <trkpt lat="35.749115" lon="127.081934"><ele>258.8</ele></trkpt>
      <trkpt lat="35.748849" lon="127.081913"><ele>262.9</ele></trkpt>
      <trkpt lat="35.748588" lon="127.081736"><ele>266.3</ele></trkpt>
      <trkpt lat="35.748100" lon="127.081666"><ele>276.5</ele></trkpt>
      <trkpt lat="35.747952" lon="127.081521"><ele>280.3</ele></trkpt>
      <trkpt lat="35.747700" lon="127.081393"><ele>287.6</ele></trkpt>
      <trkpt lat="35.747404" lon="127.081462"><ele>291.0</ele></trkpt>
      <trkpt lat="35.747151" lon="127.081430"><ele>292.1</ele></trkpt>
      <trkpt lat="35.747042" lon="127.081478"><ele>292.6</ele></trkpt>
      <trkpt lat="35.746798" lon="127.081677"><ele>295.4</ele></trkpt>
      <trkpt lat="35.746742" lon="127.081833"><ele>293.5</ele></trkpt>
      <trkpt lat="35.746350" lon="127.081865"><ele>293.7</ele></trkpt>
      <trkpt lat="35.745971" lon="127.081747"><ele>297.0</ele></trkpt>
      <trkpt lat="35.745780" lon="127.081849"><ele>300.8</ele></trkpt>
      <trkpt lat="35.745514" lon="127.081833"><ele>306.6</ele></trkpt>
      <trkpt lat="35.745126" lon="127.081661"><ele>317.7</ele></trkpt>
      <trkpt lat="35.744974" lon="127.081650"><ele>320.4</ele></trkpt>
      <trkpt lat="35.744730" lon="127.081489"><ele>326.4</ele></trkpt>
      <trkpt lat="35.744330" lon="127.081425"><ele>340.2</ele></trkpt>
      <trkpt lat="35.743833" lon="127.081012"><ele>353.5</ele></trkpt>
      <trkpt lat="35.742910" lon="127.080851"><ele>387.6</ele></trkpt>
      <trkpt lat="35.742593" lon="127.080647"><ele>399.6</ele></trkpt>
      <trkpt lat="35.742192" lon="127.080604"><ele>417.0</ele></trkpt>
      <trkpt lat="35.741804" lon="127.080395"><ele>424.8</ele></trkpt>
      <trkpt lat="35.741539" lon="127.080330"><ele>432.3</ele></trkpt>
      <trkpt lat="35.741434" lon="127.080239"><ele>438.1</ele></trkpt>
      <trkpt lat="35.741317" lon="127.080234"><ele>444.2</ele></trkpt>
      <trkpt lat="35.741156" lon="127.080325"><ele>451.4</ele></trkpt>
      <trkpt lat="35.740934" lon="127.080266"><ele>463.8</ele></trkpt>
      <trkpt lat="35.740241" lon="127.079875"><ele>488.2</ele></trkpt>
      <trkpt lat="35.739723" lon="127.079773"><ele>499.2</ele></trkpt>
      <trkpt lat="35.739235" lon="127.079370"><ele>522.4</ele></trkpt>
      <trkpt lat="35.738922" lon="127.078903"><ele>547.5</ele></trkpt>
      <trkpt lat="35.738739" lon="127.078807"><ele>552.5</ele></trkpt>
      <trkpt lat="35.737934" lon="127.078689"><ele>585.5</ele></trkpt>
      <trkpt lat="35.737637" lon="127.078694"><ele>603.1</ele></trkpt>
      <trkpt lat="35.737463" lon="127.078625"><ele>614.8</ele></trkpt>
      <trkpt lat="35.737285" lon="127.078431"><ele>624.6</ele></trkpt>
      <trkpt lat="35.737206" lon="127.078281"><ele>630.3</ele></trkpt>
      <trkpt lat="35.737185" lon="127.078099"><ele>634.1</ele></trkpt>
      <trkpt lat="35.737118" lon="127.078029"><ele>635.0</ele></trkpt>
      <trkpt lat="35.736744" lon="127.078216"><ele>631.8</ele></trkpt>
      <trkpt lat="35.736465" lon="127.078498"><ele>629.0</ele></trkpt>
      <trkpt lat="35.735842" lon="127.078780"><ele>633.7</ele></trkpt>
      <trkpt lat="35.735653" lon="127.078950"><ele>636.3</ele></trkpt>
      <trkpt lat="35.735560" lon="127.079091"><ele>641.4</ele></trkpt>
      <trkpt lat="35.735325" lon="127.079731"><ele>645.7</ele></trkpt>
      <trkpt lat="35.735244" lon="127.079838"><ele>645.9</ele></trkpt>
      <trkpt lat="35.734850" lon="127.080041"><ele>649.7</ele></trkpt>
      <trkpt lat="35.734716" lon="127.080262"><ele>653.0</ele></trkpt>
      <trkpt lat="35.734211" lon="127.080601"><ele>665.6</ele></trkpt>
      <trkpt lat="35.733751" lon="127.081098"><ele>670.1</ele></trkpt>
      <trkpt lat="35.733489" lon="127.081145"><ele>680.5</ele></trkpt>
      <trkpt lat="35.733182" lon="127.081119"><ele>687.0</ele></trkpt>
      <trkpt lat="35.732567" lon="127.081237"><ele>685.9</ele></trkpt>
      <trkpt lat="35.731928" lon="127.081580"><ele>690.9</ele></trkpt>
      <trkpt lat="35.731704" lon="127.081617"><ele>689.5</ele></trkpt>
      <trkpt lat="35.730880" lon="127.081548"><ele>700.6</ele></trkpt>
      <trkpt lat="35.730735" lon="127.081639"><ele>702.2</ele></trkpt>
      <trkpt lat="35.730485" lon="127.081439"><ele>709.2</ele></trkpt>
      <trkpt lat="35.730384" lon="127.081427"><ele>710.8</ele></trkpt>
      <trkpt lat="35.729763" lon="127.081820"><ele>707.7</ele></trkpt>
      <trkpt lat="35.729403" lon="127.082499"><ele>700.3</ele></trkpt>
      <trkpt lat="35.729246" lon="127.082643"><ele>699.4</ele></trkpt>
      <trkpt lat="35.729194" lon="127.083198"><ele>712.2</ele></trkpt>
      <trkpt lat="35.728827" lon="127.083472"><ele>720.4</ele></trkpt>
      <trkpt lat="35.728723" lon="127.083735"><ele>729.4</ele></trkpt>
      <trkpt lat="35.728777" lon="127.083983"><ele>742.6</ele></trkpt>
      <trkpt lat="35.728911" lon="127.084185"><ele>747.4</ele></trkpt>
      <trkpt lat="35.728887" lon="127.084255"><ele>749.7</ele></trkpt>
      <trkpt lat="35.728982" lon="127.084330"><ele>743.3</ele></trkpt>
      <trkpt lat="35.728968" lon="127.084397"><ele>744.9</ele></trkpt>
      <trkpt lat="35.728894" lon="127.084339"><ele>749.9</ele></trkpt>
      <trkpt lat="35.728771" lon="127.084466"><ele>757.0</ele></trkpt>
      <trkpt lat="35.728839" lon="127.084517"><ele>754.4</ele></trkpt>
      <trkpt lat="35.728717" lon="127.084664"><ele>764.3</ele></trkpt>
      <trkpt lat="35.728724" lon="127.084773"><ele>765.9</ele></trkpt>
      <trkpt lat="35.729075" lon="127.085397"><ele>746.5</ele></trkpt>
      <trkpt lat="35.729224" lon="127.085468"><ele>739.3</ele></trkpt>
      <trkpt lat="35.729278" lon="127.085428"><ele>737.9</ele></trkpt>
    </trkseg>
  </trk>
</gpx>
