<?xml version="1.0" encoding="UTF-8"?>
<gpx version="1.1" creator="kr-100-mountains route-harvester"
     xmlns="http://www.topografix.com/GPX/1/1"
     xmlns:k100="https://github.com/jay-jang/kr-100-mountains/ns/1"
     xmlns:xsi="http://www.w3.org/2001/XMLSchema-instance"
     xsi:schemaLocation="http://www.topografix.com/GPX/1/1 http://www.topografix.com/GPX/1/1/gpx.xsd">
  <metadata>
    <name>모악산 · 상학능선 코스 (대안 2) (OSM 계산 경로)</name>
    <desc>실제 GPS 기록이 아닙니다. OpenStreetMap에 등록된 등산로 선형 위에서 계산한 경로이며, 현장 통제·훼손·출입 제한·계절 통제를 반영하지 않을 수 있습니다. 산행 전 공식 안내를 확인하세요.</desc>
    <time>2026-08-04T05:33:47.636Z</time>
    <link href="https://www.openstreetmap.org/copyright"><text>© OpenStreetMap contributors (ODbL 1.0)</text></link>
    <link href="https://registry.opendata.aws/terrain-tiles/"><text>Elevation: SRTM 1 arc-second (NASA/USGS) via AWS Terrain Tiles</text></link>
    <extensions>
      <k100:provenance>osm-routed</k100:provenance>
      <k100:not_a_recorded_track>true</k100:not_a_recorded_track>
      <k100:mountain_id>moaksan</k100:mountain_id>
      <k100:mountain_name>모악산</k100:mountain_name>
      <k100:route_id>moaksan-300107a2</k100:route_id>
      <k100:route_index>3</k100:route_index>
      <k100:route_name>상학능선 코스</k100:route_name>
      <k100:variant>2</k100:variant>
      <k100:source>OpenStreetMap via Overpass API</k100:source>
      <k100:license>ODbL-1.0</k100:license>
      <k100:attribution>© OpenStreetMap contributors</k100:attribution>
      <k100:elevation_source>SRTM 1 arc-second (NASA/USGS) — AWS Terrain Tiles 배포본. 지형 DEM 추정 고도이며 실측 아님</k100:elevation_source>
      <k100:algorithm>dijkstra-grid-v1</k100:algorithm>
      <k100:osm_snapshot>2026-08-04</k100:osm_snapshot>
      <k100:snap_trailhead_m>16</k100:snap_trailhead_m>
      <k100:snap_summit_m>14</k100:snap_summit_m>
      <k100:validation_score>100</k100:validation_score>
      <k100:validation_status>accepted</k100:validation_status>
    </extensions>
  </metadata>
  <trk>
    <name>모악산 · 상학능선 코스 (대안 2) (OSM 계산 경로)</name>
    <desc>실제 GPS 기록이 아닙니다. OpenStreetMap에 등록된 등산로 선형 위에서 계산한 경로이며, 현장 통제·훼손·출입 제한·계절 통제를 반영하지 않을 수 있습니다. 산행 전 공식 안내를 확인하세요.</desc>
    <trkseg>
      <trkpt lat="35.741145" lon="127.111898"><ele>196.9</ele></trkpt>
      <trkpt lat="35.740931" lon="127.111778"><ele>200.4</ele></trkpt>
      <trkpt lat="35.740783" lon="127.111579"><ele>206.6</ele></trkpt>
      <trkpt lat="35.740551" lon="127.111404"><ele>210.6</ele></trkpt>
      <trkpt lat="35.740048" lon="127.110748"><ele>226.8</ele></trkpt>
      <trkpt lat="35.739791" lon="127.110600"><ele>232.6</ele></trkpt>
      <trkpt lat="35.739702" lon="127.110492"><ele>234.4</ele></trkpt>
      <trkpt lat="35.739688" lon="127.110318"><ele>236.5</ele></trkpt>
      <trkpt lat="35.739865" lon="127.109847"><ele>236.4</ele></trkpt>
      <trkpt lat="35.739752" lon="127.109267"><ele>228.1</ele></trkpt>
      <trkpt lat="35.739728" lon="127.108728"><ele>233.0</ele></trkpt>
      <trkpt lat="35.739653" lon="127.108560"><ele>235.8</ele></trkpt>
      <trkpt lat="35.739629" lon="127.108154"><ele>235.5</ele></trkpt>
      <trkpt lat="35.739483" lon="127.107699"><ele>232.6</ele></trkpt>
      <trkpt lat="35.739325" lon="127.107371"><ele>230.6</ele></trkpt>
      <trkpt lat="35.739194" lon="127.106730"><ele>231.0</ele></trkpt>
      <trkpt lat="35.738593" lon="127.106304"><ele>219.9</ele></trkpt>
      <trkpt lat="35.737895" lon="127.106583"><ele>196.4</ele></trkpt>
      <trkpt lat="35.737447" lon="127.106679"><ele>184.0</ele></trkpt>
      <trkpt lat="35.736876" lon="127.106622"><ele>174.8</ele></trkpt>
      <trkpt lat="35.736596" lon="127.106515"><ele>169.8</ele></trkpt>
      <trkpt lat="35.736462" lon="127.106112"><ele>169.8</ele></trkpt>
      <trkpt lat="35.736478" lon="127.105927"><ele>172.5</ele></trkpt>
      <trkpt lat="35.736384" lon="127.105811"><ele>172.4</ele></trkpt>
      <trkpt lat="35.736195" lon="127.105779"><ele>174.5</ele></trkpt>
      <trkpt lat="35.736400" lon="127.105506"><ele>176.9</ele></trkpt>
      <trkpt lat="35.736331" lon="127.105480"><ele>177.9</ele></trkpt>
      <trkpt lat="35.736227" lon="127.105315"><ele>181.8</ele></trkpt>
      <trkpt lat="35.736077" lon="127.104489"><ele>200.6</ele></trkpt>
      <trkpt lat="35.736149" lon="127.104218"><ele>205.9</ele></trkpt>
      <trkpt lat="35.736155" lon="127.103979"><ele>211.1</ele></trkpt>
      <trkpt lat="35.736122" lon="127.103647"><ele>217.4</ele></trkpt>
      <trkpt lat="35.736161" lon="127.103493"><ele>220.5</ele></trkpt>
      <trkpt lat="35.736090" lon="127.103241"><ele>226.2</ele></trkpt>
      <trkpt lat="35.736124" lon="127.102740"><ele>236.7</ele></trkpt>
      <trkpt lat="35.736017" lon="127.102216"><ele>250.6</ele></trkpt>
      <trkpt lat="35.735818" lon="127.101962"><ele>259.1</ele></trkpt>
      <trkpt lat="35.735760" lon="127.101722"><ele>267.7</ele></trkpt>
      <trkpt lat="35.735802" lon="127.101584"><ele>271.9</ele></trkpt>
      <trkpt lat="35.736012" lon="127.101478"><ele>271.4</ele></trkpt>
      <trkpt lat="35.736029" lon="127.101358"><ele>274.0</ele></trkpt>
      <trkpt lat="35.735961" lon="127.101230"><ele>278.8</ele></trkpt>
      <trkpt lat="35.735702" lon="127.101053"><ele>291.1</ele></trkpt>
      <trkpt lat="35.735456" lon="127.100734"><ele>305.1</ele></trkpt>
      <trkpt lat="35.734863" lon="127.100234"><ele>332.3</ele></trkpt>
      <trkpt lat="35.734542" lon="127.100060"><ele>346.9</ele></trkpt>
      <trkpt lat="35.734421" lon="127.099922"><ele>354.4</ele></trkpt>
      <trkpt lat="35.734115" lon="127.099795"><ele>363.9</ele></trkpt>
      <trkpt lat="35.734072" lon="127.099754"><ele>364.3</ele></trkpt>
      <trkpt lat="35.734042" lon="127.099571"><ele>366.1</ele></trkpt>
      <trkpt lat="35.734264" lon="127.099051"><ele>368.7</ele></trkpt>
      <trkpt lat="35.734399" lon="127.098340"><ele>369.0</ele></trkpt>
      <trkpt lat="35.734453" lon="127.098203"><ele>370.1</ele></trkpt>
      <trkpt lat="35.734762" lon="127.097793"><ele>374.0</ele></trkpt>
      <trkpt lat="35.735063" lon="127.096940"><ele>397.1</ele></trkpt>
      <trkpt lat="35.735041" lon="127.096562"><ele>406.9</ele></trkpt>
      <trkpt lat="35.735013" lon="127.096610"><ele>404.8</ele></trkpt>
      <trkpt lat="35.734815" lon="127.096608"><ele>396.2</ele></trkpt>
      <trkpt lat="35.734553" lon="127.096830"><ele>379.4</ele></trkpt>
      <trkpt lat="35.734429" lon="127.096820"><ele>374.2</ele></trkpt>
      <trkpt lat="35.734299" lon="127.096726"><ele>370.3</ele></trkpt>
      <trkpt lat="35.734218" lon="127.096581"><ele>369.1</ele></trkpt>
      <trkpt lat="35.734209" lon="127.096446"><ele>370.3</ele></trkpt>
      <trkpt lat="35.733866" lon="127.096122"><ele>357.1</ele></trkpt>
      <trkpt lat="35.733654" lon="127.095964"><ele>351.1</ele></trkpt>
      <trkpt lat="35.733447" lon="127.095961"><ele>344.0</ele></trkpt>
      <trkpt lat="35.733069" lon="127.096272"><ele>331.9</ele></trkpt>
      <trkpt lat="35.732805" lon="127.096760"><ele>329.4</ele></trkpt>
      <trkpt lat="35.732668" lon="127.097173"><ele>321.2</ele></trkpt>
      <trkpt lat="35.732511" lon="127.097971"><ele>298.5</ele></trkpt>
      <trkpt lat="35.732409" lon="127.097961"><ele>295.5</ele></trkpt>
      <trkpt lat="35.732289" lon="127.097756"><ele>293.7</ele></trkpt>
      <trkpt lat="35.732145" lon="127.097723"><ele>289.7</ele></trkpt>
      <trkpt lat="35.732236" lon="127.097330"><ele>300.4</ele></trkpt>
      <trkpt lat="35.732211" lon="127.096715"><ele>312.6</ele></trkpt>
      <trkpt lat="35.732414" lon="127.096453"><ele>317.5</ele></trkpt>
      <trkpt lat="35.732346" lon="127.096170"><ele>317.5</ele></trkpt>
      <trkpt lat="35.732331" lon="127.095784"><ele>322.3</ele></trkpt>
      <trkpt lat="35.731835" lon="127.095496"><ele>332.3</ele></trkpt>
      <trkpt lat="35.731645" lon="127.095523"><ele>338.2</ele></trkpt>
      <trkpt lat="35.731571" lon="127.095631"><ele>338.8</ele></trkpt>
      <trkpt lat="35.731542" lon="127.095809"><ele>336.2</ele></trkpt>
      <trkpt lat="35.731429" lon="127.095910"><ele>335.6</ele></trkpt>
      <trkpt lat="35.731069" lon="127.095667"><ele>342.4</ele></trkpt>
      <trkpt lat="35.730978" lon="127.095519"><ele>347.1</ele></trkpt>
      <trkpt lat="35.730946" lon="127.095338"><ele>354.3</ele></trkpt>
      <trkpt lat="35.730999" lon="127.094912"><ele>368.5</ele></trkpt>
      <trkpt lat="35.730758" lon="127.094550"><ele>379.0</ele></trkpt>
      <trkpt lat="35.730553" lon="127.093564"><ele>421.3</ele></trkpt>
      <trkpt lat="35.730619" lon="127.093147"><ele>431.8</ele></trkpt>
      <trkpt lat="35.730466" lon="127.092724"><ele>444.1</ele></trkpt>
      <trkpt lat="35.730442" lon="127.092431"><ele>453.0</ele></trkpt>
      <trkpt lat="35.730357" lon="127.092244"><ele>459.1</ele></trkpt>
      <trkpt lat="35.730054" lon="127.091928"><ele>466.6</ele></trkpt>
      <trkpt lat="35.729957" lon="127.091743"><ele>469.9</ele></trkpt>
      <trkpt lat="35.729909" lon="127.090733"><ele>506.6</ele></trkpt>
      <trkpt lat="35.729634" lon="127.090155"><ele>531.0</ele></trkpt>
      <trkpt lat="35.729537" lon="127.090050"><ele>536.5</ele></trkpt>
      <trkpt lat="35.729277" lon="127.089973"><ele>542.6</ele></trkpt>
      <trkpt lat="35.729118" lon="127.089246"><ele>569.9</ele></trkpt>
      <trkpt lat="35.728984" lon="127.089012"><ele>584.6</ele></trkpt>
      <trkpt lat="35.728899" lon="127.088997"><ele>587.9</ele></trkpt>
      <trkpt lat="35.728929" lon="127.088865"><ele>593.6</ele></trkpt>
      <trkpt lat="35.728845" lon="127.088804"><ele>598.8</ele></trkpt>
      <trkpt lat="35.728522" lon="127.088653"><ele>616.4</ele></trkpt>
      <trkpt lat="35.728231" lon="127.088640"><ele>626.6</ele></trkpt>
      <trkpt lat="35.727976" lon="127.088645"><ele>629.0</ele></trkpt>
      <trkpt lat="35.727782" lon="127.088769"><ele>621.4</ele></trkpt>
      <trkpt lat="35.727728" lon="127.088828"><ele>617.7</ele></trkpt>
      <trkpt lat="35.727622" lon="127.089297"><ele>602.4</ele></trkpt>
      <trkpt lat="35.727552" lon="127.089426"><ele>597.1</ele></trkpt>
      <trkpt lat="35.727399" lon="127.090112"><ele>570.0</ele></trkpt>
      <trkpt lat="35.727253" lon="127.090431"><ele>554.1</ele></trkpt>
      <trkpt lat="35.727142" lon="127.090061"><ele>563.4</ele></trkpt>
      <trkpt lat="35.727102" lon="127.089603"><ele>576.7</ele></trkpt>
      <trkpt lat="35.726908" lon="127.089370"><ele>580.8</ele></trkpt>
      <trkpt lat="35.726688" lon="127.089370"><ele>581.5</ele></trkpt>
      <trkpt lat="35.726466" lon="127.089549"><ele>576.3</ele></trkpt>
      <trkpt lat="35.726238" lon="127.089444"><ele>585.7</ele></trkpt>
      <trkpt lat="35.726042" lon="127.089425"><ele>590.2</ele></trkpt>
      <trkpt lat="35.725624" lon="127.089503"><ele>591.7</ele></trkpt>
      <trkpt lat="35.725398" lon="127.089629"><ele>592.2</ele></trkpt>
      <trkpt lat="35.725189" lon="127.089640"><ele>597.4</ele></trkpt>
      <trkpt lat="35.724827" lon="127.089350"><ele>617.3</ele></trkpt>
      <trkpt lat="35.724612" lon="127.089071"><ele>632.2</ele></trkpt>
      <trkpt lat="35.725003" lon="127.088767"><ele>650.0</ele></trkpt>
      <trkpt lat="35.725182" lon="127.088462"><ele>666.7</ele></trkpt>
      <trkpt lat="35.725250" lon="127.088118"><ele>683.0</ele></trkpt>
      <trkpt lat="35.725459" lon="127.087998"><ele>693.0</ele></trkpt>
      <trkpt lat="35.725411" lon="127.087909"><ele>696.3</ele></trkpt>
      <trkpt lat="35.725478" lon="127.087595"><ele>710.5</ele></trkpt>
      <trkpt lat="35.725696" lon="127.087365"><ele>719.4</ele></trkpt>
      <trkpt lat="35.725683" lon="127.087279"><ele>722.8</ele></trkpt>
      <trkpt lat="35.725807" lon="127.087094"><ele>730.9</ele></trkpt>
      <trkpt lat="35.725870" lon="127.086771"><ele>746.1</ele></trkpt>
      <trkpt lat="35.725952" lon="127.086741"><ele>747.4</ele></trkpt>
      <trkpt lat="35.725965" lon="127.086643"><ele>750.9</ele></trkpt>
      <trkpt lat="35.726110" lon="127.086492"><ele>750.4</ele></trkpt>
      <trkpt lat="35.726234" lon="127.086467"><ele>748.3</ele></trkpt>
      <trkpt lat="35.726361" lon="127.086354"><ele>745.7</ele></trkpt>
      <trkpt lat="35.726864" lon="127.086204"><ele>746.8</ele></trkpt>
      <trkpt lat="35.727266" lon="127.085946"><ele>755.9</ele></trkpt>
      <trkpt lat="35.727299" lon="127.085879"><ele>758.3</ele></trkpt>
      <trkpt lat="35.727206" lon="127.085639"><ele>754.8</ele></trkpt>
      <trkpt lat="35.727286" lon="127.085469"><ele>752.1</ele></trkpt>
      <trkpt lat="35.727552" lon="127.085185"><ele>752.5</ele></trkpt>
      <trkpt lat="35.727804" lon="127.085020"><ele>758.2</ele></trkpt>
      <trkpt lat="35.727869" lon="127.084905"><ele>758.3</ele></trkpt>
      <trkpt lat="35.727970" lon="127.084872"><ele>763.0</ele></trkpt>
      <trkpt lat="35.728066" lon="127.084613"><ele>756.5</ele></trkpt>
      <trkpt lat="35.728131" lon="127.084560"><ele>756.4</ele></trkpt>
      <trkpt lat="35.728224" lon="127.084565"><ele>760.4</ele></trkpt>
      <trkpt lat="35.728258" lon="127.084618"><ele>764.0</ele></trkpt>
      <trkpt lat="35.728541" lon="127.084607"><ele>768.6</ele></trkpt>
      <trkpt lat="35.728717" lon="127.084664"><ele>764.3</ele></trkpt>
      <trkpt lat="35.728762" lon="127.084883"><ele>764.7</ele></trkpt>
      <trkpt lat="35.729075" lon="127.085397"><ele>746.5</ele></trkpt>
      <trkpt lat="35.729224" lon="127.085468"><ele>739.3</ele></trkpt>
      <trkpt lat="35.729278" lon="127.085428"><ele>737.9</ele></trkpt>
    </trkseg>
  </trk>
</gpx>
