<?xml version="1.0" encoding="UTF-8"?>
<gpx version="1.1" creator="kr-100-mountains route-harvester"
     xmlns="http://www.topografix.com/GPX/1/1"
     xmlns:k100="https://github.com/jay-jang/kr-100-mountains/ns/1"
     xmlns:xsi="http://www.w3.org/2001/XMLSchema-instance"
     xsi:schemaLocation="http://www.topografix.com/GPX/1/1 http://www.topografix.com/GPX/1/1/gpx.xsd">
  <metadata>
    <name>모악산 · 금산사-정상 코스 (대안 1) (OSM 계산 경로)</name>
    <desc>실제 GPS 기록이 아닙니다. OpenStreetMap에 등록된 등산로 선형 위에서 계산한 경로이며, 현장 통제·훼손·출입 제한·계절 통제를 반영하지 않을 수 있습니다. 산행 전 공식 안내를 확인하세요.</desc>
    <time>2026-08-04T05:33:47.434Z</time>
    <link href="https://www.openstreetmap.org/copyright"><text>© OpenStreetMap contributors (ODbL 1.0)</text></link>
    <link href="https://registry.opendata.aws/terrain-tiles/"><text>Elevation: SRTM 1 arc-second (NASA/USGS) via AWS Terrain Tiles</text></link>
    <extensions>
      <k100:provenance>osm-routed</k100:provenance>
      <k100:not_a_recorded_track>true</k100:not_a_recorded_track>
      <k100:mountain_id>moaksan</k100:mountain_id>
      <k100:mountain_name>모악산</k100:mountain_name>
      <k100:route_id>moaksan-a69d94e6</k100:route_id>
      <k100:route_index>1</k100:route_index>
      <k100:route_name>금산사-정상 코스</k100:route_name>
      <k100:variant>1</k100:variant>
      <k100:source>OpenStreetMap via Overpass API</k100:source>
      <k100:license>ODbL-1.0</k100:license>
      <k100:attribution>© OpenStreetMap contributors</k100:attribution>
      <k100:elevation_source>SRTM 1 arc-second (NASA/USGS) — AWS Terrain Tiles 배포본. 지형 DEM 추정 고도이며 실측 아님</k100:elevation_source>
      <k100:algorithm>dijkstra-grid-v1</k100:algorithm>
      <k100:osm_snapshot>2026-08-04</k100:osm_snapshot>
      <k100:snap_trailhead_m>36</k100:snap_trailhead_m>
      <k100:snap_summit_m>14</k100:snap_summit_m>
      <k100:validation_score>75</k100:validation_score>
      <k100:validation_status>review</k100:validation_status>
    </extensions>
  </metadata>
  <trk>
    <name>모악산 · 금산사-정상 코스 (대안 1) (OSM 계산 경로)</name>
    <desc>실제 GPS 기록이 아닙니다. OpenStreetMap에 등록된 등산로 선형 위에서 계산한 경로이며, 현장 통제·훼손·출입 제한·계절 통제를 반영하지 않을 수 있습니다. 산행 전 공식 안내를 확인하세요.</desc>
    <trkseg>
      <trkpt lat="35.736287" lon="127.045456"><ele>136.5</ele></trkpt>
      <trkpt lat="35.736089" lon="127.045210"><ele>136.6</ele></trkpt>
      <trkpt lat="35.735929" lon="127.045113"><ele>135.6</ele></trkpt>
      <trkpt lat="35.734514" lon="127.044407"><ele>130.5</ele></trkpt>
      <trkpt lat="35.733840" lon="127.044376"><ele>123.3</ele></trkpt>
      <trkpt lat="35.733548" lon="127.044303"><ele>123.1</ele></trkpt>
      <trkpt lat="35.732396" lon="127.043790"><ele>112.6</ele></trkpt>
      <trkpt lat="35.730981" lon="127.042986"><ele>106.8</ele></trkpt>
      <trkpt lat="35.729909" lon="127.042833"><ele>101.0</ele></trkpt>
      <trkpt lat="35.729509" lon="127.042693"><ele>101.5</ele></trkpt>
      <trkpt lat="35.729299" lon="127.042553"><ele>101.2</ele></trkpt>
      <trkpt lat="35.728056" lon="127.041315"><ele>96.5</ele></trkpt>
      <trkpt lat="35.726566" lon="127.040510"><ele>89.1</ele></trkpt>
      <trkpt lat="35.724798" lon="127.040076"><ele>85.7</ele></trkpt>
      <trkpt lat="35.724111" lon="127.039649"><ele>92.7</ele></trkpt>
      <trkpt lat="35.721826" lon="127.037526"><ele>84.9</ele></trkpt>
      <trkpt lat="35.721537" lon="127.037274"><ele>85.6</ele></trkpt>
      <trkpt lat="35.721275" lon="127.037133"><ele>85.8</ele></trkpt>
      <trkpt lat="35.721035" lon="127.037029"><ele>84.5</ele></trkpt>
      <trkpt lat="35.719481" lon="127.036688"><ele>79.3</ele></trkpt>
      <trkpt lat="35.719273" lon="127.036754"><ele>79.2</ele></trkpt>
      <trkpt lat="35.718520" lon="127.036713"><ele>80.1</ele></trkpt>
      <trkpt lat="35.718452" lon="127.036944"><ele>80.6</ele></trkpt>
      <trkpt lat="35.718225" lon="127.036987"><ele>81.0</ele></trkpt>
      <trkpt lat="35.718032" lon="127.037421"><ele>81.8</ele></trkpt>
      <trkpt lat="35.718237" lon="127.037812"><ele>83.0</ele></trkpt>
      <trkpt lat="35.718164" lon="127.038358"><ele>84.1</ele></trkpt>
      <trkpt lat="35.718359" lon="127.038395"><ele>84.2</ele></trkpt>
      <trkpt lat="35.718240" lon="127.039296"><ele>87.2</ele></trkpt>
      <trkpt lat="35.718277" lon="127.039573"><ele>87.2</ele></trkpt>
      <trkpt lat="35.718173" lon="127.040537"><ele>89.4</ele></trkpt>
      <trkpt lat="35.718502" lon="127.040590"><ele>91.2</ele></trkpt>
      <trkpt lat="35.718618" lon="127.040818"><ele>92.2</ele></trkpt>
      <trkpt lat="35.718304" lon="127.042351"><ele>97.9</ele></trkpt>
      <trkpt lat="35.718315" lon="127.042597"><ele>98.6</ele></trkpt>
      <trkpt lat="35.718711" lon="127.043702"><ele>101.6</ele></trkpt>
      <trkpt lat="35.718738" lon="127.043882"><ele>101.7</ele></trkpt>
      <trkpt lat="35.718581" lon="127.044359"><ele>98.2</ele></trkpt>
      <trkpt lat="35.718607" lon="127.044498"><ele>98.2</ele></trkpt>
      <trkpt lat="35.719105" lon="127.045513"><ele>102.4</ele></trkpt>
      <trkpt lat="35.719593" lon="127.046241"><ele>107.4</ele></trkpt>
      <trkpt lat="35.719652" lon="127.046462"><ele>107.5</ele></trkpt>
      <trkpt lat="35.719668" lon="127.046756"><ele>108.2</ele></trkpt>
      <trkpt lat="35.719596" lon="127.047242"><ele>110.8</ele></trkpt>
      <trkpt lat="35.719602" lon="127.047504"><ele>111.6</ele></trkpt>
      <trkpt lat="35.720603" lon="127.048555"><ele>119.7</ele></trkpt>
      <trkpt lat="35.720880" lon="127.049493"><ele>122.8</ele></trkpt>
      <trkpt lat="35.721075" lon="127.049646"><ele>121.1</ele></trkpt>
      <trkpt lat="35.721361" lon="127.050536"><ele>125.1</ele></trkpt>
      <trkpt lat="35.721560" lon="127.052916"><ele>139.1</ele></trkpt>
      <trkpt lat="35.721772" lon="127.052932"><ele>135.0</ele></trkpt>
      <trkpt lat="35.721870" lon="127.053684"><ele>139.2</ele></trkpt>
      <trkpt lat="35.722242" lon="127.054382"><ele>139.1</ele></trkpt>
      <trkpt lat="35.722396" lon="127.055379"><ele>147.9</ele></trkpt>
      <trkpt lat="35.722675" lon="127.056235"><ele>147.1</ele></trkpt>
      <trkpt lat="35.722794" lon="127.056381"><ele>149.0</ele></trkpt>
      <trkpt lat="35.723103" lon="127.056370"><ele>150.8</ele></trkpt>
      <trkpt lat="35.723314" lon="127.056461"><ele>151.8</ele></trkpt>
      <trkpt lat="35.723765" lon="127.056422"><ele>156.5</ele></trkpt>
      <trkpt lat="35.724013" lon="127.056944"><ele>161.8</ele></trkpt>
      <trkpt lat="35.724107" lon="127.057432"><ele>163.5</ele></trkpt>
      <trkpt lat="35.724283" lon="127.057834"><ele>167.6</ele></trkpt>
      <trkpt lat="35.724765" lon="127.059269"><ele>185.7</ele></trkpt>
      <trkpt lat="35.724839" lon="127.060171"><ele>198.9</ele></trkpt>
      <trkpt lat="35.724976" lon="127.061043"><ele>204.8</ele></trkpt>
      <trkpt lat="35.724983" lon="127.061563"><ele>208.5</ele></trkpt>
      <trkpt lat="35.724858" lon="127.061742"><ele>211.5</ele></trkpt>
      <trkpt lat="35.724792" lon="127.061947"><ele>213.7</ele></trkpt>
      <trkpt lat="35.724770" lon="127.062843"><ele>218.5</ele></trkpt>
      <trkpt lat="35.724619" lon="127.063408"><ele>226.0</ele></trkpt>
      <trkpt lat="35.724379" lon="127.065110"><ele>248.9</ele></trkpt>
      <trkpt lat="35.724492" lon="127.065297"><ele>251.5</ele></trkpt>
      <trkpt lat="35.724492" lon="127.065383"><ele>252.4</ele></trkpt>
      <trkpt lat="35.724404" lon="127.065884"><ele>256.7</ele></trkpt>
      <trkpt lat="35.724456" lon="127.066366"><ele>261.1</ele></trkpt>
      <trkpt lat="35.724326" lon="127.067019"><ele>266.5</ele></trkpt>
      <trkpt lat="35.724305" lon="127.067742"><ele>273.6</ele></trkpt>
      <trkpt lat="35.724003" lon="127.068754"><ele>289.4</ele></trkpt>
      <trkpt lat="35.723936" lon="127.069486"><ele>301.6</ele></trkpt>
      <trkpt lat="35.724008" lon="127.070173"><ele>310.3</ele></trkpt>
      <trkpt lat="35.723967" lon="127.071144"><ele>321.6</ele></trkpt>
      <trkpt lat="35.724087" lon="127.071658"><ele>328.5</ele></trkpt>
      <trkpt lat="35.723960" lon="127.072061"><ele>332.4</ele></trkpt>
      <trkpt lat="35.723704" lon="127.072595"><ele>340.7</ele></trkpt>
      <trkpt lat="35.723627" lon="127.072654"><ele>340.7</ele></trkpt>
      <trkpt lat="35.723140" lon="127.072753"><ele>347.6</ele></trkpt>
      <trkpt lat="35.722865" lon="127.072993"><ele>353.4</ele></trkpt>
      <trkpt lat="35.722816" lon="127.073234"><ele>356.0</ele></trkpt>
      <trkpt lat="35.722892" lon="127.073273"><ele>356.1</ele></trkpt>
      <trkpt lat="35.722965" lon="127.073229"><ele>355.0</ele></trkpt>
      <trkpt lat="35.722984" lon="127.073520"><ele>364.4</ele></trkpt>
      <trkpt lat="35.722920" lon="127.073667"><ele>370.2</ele></trkpt>
      <trkpt lat="35.722970" lon="127.073719"><ele>372.6</ele></trkpt>
      <trkpt lat="35.722794" lon="127.073670"><ele>370.0</ele></trkpt>
      <trkpt lat="35.722656" lon="127.073754"><ele>371.3</ele></trkpt>
      <trkpt lat="35.722604" lon="127.073925"><ele>374.7</ele></trkpt>
      <trkpt lat="35.722569" lon="127.074451"><ele>385.9</ele></trkpt>
      <trkpt lat="35.722595" lon="127.074939"><ele>393.7</ele></trkpt>
      <trkpt lat="35.722708" lon="127.075256"><ele>401.9</ele></trkpt>
      <trkpt lat="35.722913" lon="127.075540"><ele>410.8</ele></trkpt>
      <trkpt lat="35.723105" lon="127.075980"><ele>417.3</ele></trkpt>
      <trkpt lat="35.723018" lon="127.076237"><ele>418.6</ele></trkpt>
      <trkpt lat="35.722695" lon="127.076484"><ele>425.9</ele></trkpt>
      <trkpt lat="35.722582" lon="127.076495"><ele>428.8</ele></trkpt>
      <trkpt lat="35.722480" lon="127.076216"><ele>422.5</ele></trkpt>
      <trkpt lat="35.721988" lon="127.076602"><ele>466.7</ele></trkpt>
      <trkpt lat="35.721574" lon="127.076785"><ele>496.4</ele></trkpt>
      <trkpt lat="35.721474" lon="127.076795"><ele>501.9</ele></trkpt>
      <trkpt lat="35.721262" lon="127.076707"><ele>506.7</ele></trkpt>
      <trkpt lat="35.721014" lon="127.076476"><ele>503.5</ele></trkpt>
      <trkpt lat="35.721037" lon="127.076769"><ele>510.7</ele></trkpt>
      <trkpt lat="35.721271" lon="127.077296"><ele>517.4</ele></trkpt>
      <trkpt lat="35.721325" lon="127.077785"><ele>525.5</ele></trkpt>
      <trkpt lat="35.721481" lon="127.078155"><ele>534.6</ele></trkpt>
      <trkpt lat="35.721555" lon="127.078606"><ele>546.1</ele></trkpt>
      <trkpt lat="35.721751" lon="127.079266"><ele>559.2</ele></trkpt>
      <trkpt lat="35.721677" lon="127.080081"><ele>585.9</ele></trkpt>
      <trkpt lat="35.721562" lon="127.080188"><ele>588.5</ele></trkpt>
      <trkpt lat="35.721492" lon="127.080451"><ele>593.9</ele></trkpt>
      <trkpt lat="35.721410" lon="127.080585"><ele>596.1</ele></trkpt>
      <trkpt lat="35.721372" lon="127.080821"><ele>602.2</ele></trkpt>
      <trkpt lat="35.721475" lon="127.081052"><ele>609.2</ele></trkpt>
      <trkpt lat="35.721817" lon="127.081401"><ele>620.9</ele></trkpt>
      <trkpt lat="35.721965" lon="127.081449"><ele>623.4</ele></trkpt>
      <trkpt lat="35.722107" lon="127.081591"><ele>626.1</ele></trkpt>
      <trkpt lat="35.722383" lon="127.081998"><ele>629.1</ele></trkpt>
      <trkpt lat="35.722669" lon="127.082583"><ele>642.9</ele></trkpt>
      <trkpt lat="35.722695" lon="127.083162"><ele>649.6</ele></trkpt>
      <trkpt lat="35.722780" lon="127.083331"><ele>652.0</ele></trkpt>
      <trkpt lat="35.723334" lon="127.083858"><ele>678.7</ele></trkpt>
      <trkpt lat="35.723448" lon="127.084072"><ele>685.9</ele></trkpt>
      <trkpt lat="35.723601" lon="127.084126"><ele>692.2</ele></trkpt>
      <trkpt lat="35.723705" lon="127.084330"><ele>696.7</ele></trkpt>
      <trkpt lat="35.724323" lon="127.084689"><ele>711.8</ele></trkpt>
      <trkpt lat="35.724677" lon="127.085176"><ele>726.0</ele></trkpt>
      <trkpt lat="35.724801" lon="127.085598"><ele>736.0</ele></trkpt>
      <trkpt lat="35.724800" lon="127.085734"><ele>736.8</ele></trkpt>
      <trkpt lat="35.724925" lon="127.085793"><ele>742.1</ele></trkpt>
      <trkpt lat="35.725037" lon="127.085950"><ele>744.8</ele></trkpt>
      <trkpt lat="35.725385" lon="127.086047"><ele>745.8</ele></trkpt>
      <trkpt lat="35.725599" lon="127.086335"><ele>748.5</ele></trkpt>
      <trkpt lat="35.725941" lon="127.086467"><ele>750.3</ele></trkpt>
      <trkpt lat="35.726234" lon="127.086467"><ele>748.3</ele></trkpt>
      <trkpt lat="35.726526" lon="127.086276"><ele>744.7</ele></trkpt>
      <trkpt lat="35.726864" lon="127.086204"><ele>746.8</ele></trkpt>
      <trkpt lat="35.727190" lon="127.086007"><ele>753.5</ele></trkpt>
      <trkpt lat="35.727299" lon="127.085879"><ele>758.3</ele></trkpt>
      <trkpt lat="35.727338" lon="127.086043"><ele>752.6</ele></trkpt>
      <trkpt lat="35.727482" lon="127.086217"><ele>743.5</ele></trkpt>
      <trkpt lat="35.727638" lon="127.086174"><ele>742.7</ele></trkpt>
      <trkpt lat="35.728198" lon="127.086210"><ele>734.3</ele></trkpt>
      <trkpt lat="35.728143" lon="127.085990"><ele>748.1</ele></trkpt>
      <trkpt lat="35.729036" lon="127.085563"><ele>746.3</ele></trkpt>
      <trkpt lat="35.729075" lon="127.085397"><ele>746.5</ele></trkpt>
      <trkpt lat="35.729224" lon="127.085468"><ele>739.3</ele></trkpt>
      <trkpt lat="35.729278" lon="127.085428"><ele>737.9</ele></trkpt>
    </trkseg>
  </trk>
</gpx>
