<?xml version="1.0" encoding="UTF-8"?>
<gpx version="1.1" creator="kr-100-mountains route-harvester"
     xmlns="http://www.topografix.com/GPX/1/1"
     xmlns:k100="https://github.com/jay-jang/kr-100-mountains/ns/1"
     xmlns:xsi="http://www.w3.org/2001/XMLSchema-instance"
     xsi:schemaLocation="http://www.topografix.com/GPX/1/1 http://www.topografix.com/GPX/1/1/gpx.xsd">
  <metadata>
    <name>모악산 · 금산사-정상 코스 (OSM 계산 경로)</name>
    <desc>실제 GPS 기록이 아닙니다. OpenStreetMap에 등록된 등산로 선형 위에서 계산한 경로이며, 현장 통제·훼손·출입 제한·계절 통제를 반영하지 않을 수 있습니다. 산행 전 공식 안내를 확인하세요.</desc>
    <time>2026-08-04T05:33:47.433Z</time>
    <link href="https://www.openstreetmap.org/copyright"><text>© OpenStreetMap contributors (ODbL 1.0)</text></link>
    <link href="https://registry.opendata.aws/terrain-tiles/"><text>Elevation: SRTM 1 arc-second (NASA/USGS) via AWS Terrain Tiles</text></link>
    <extensions>
      <k100:provenance>osm-routed</k100:provenance>
      <k100:not_a_recorded_track>true</k100:not_a_recorded_track>
      <k100:mountain_id>moaksan</k100:mountain_id>
      <k100:mountain_name>모악산</k100:mountain_name>
      <k100:route_id>moaksan-a69d94e6</k100:route_id>
      <k100:route_index>1</k100:route_index>
      <k100:route_name>금산사-정상 코스</k100:route_name>
      <k100:variant>0</k100:variant>
      <k100:source>OpenStreetMap via Overpass API</k100:source>
      <k100:license>ODbL-1.0</k100:license>
      <k100:attribution>© OpenStreetMap contributors</k100:attribution>
      <k100:elevation_source>SRTM 1 arc-second (NASA/USGS) — AWS Terrain Tiles 배포본. 지형 DEM 추정 고도이며 실측 아님</k100:elevation_source>
      <k100:algorithm>dijkstra-grid-v1</k100:algorithm>
      <k100:osm_snapshot>2026-08-04</k100:osm_snapshot>
      <k100:snap_trailhead_m>36</k100:snap_trailhead_m>
      <k100:snap_summit_m>14</k100:snap_summit_m>
      <k100:validation_score>84</k100:validation_score>
      <k100:validation_status>accepted</k100:validation_status>
    </extensions>
  </metadata>
  <trk>
    <name>모악산 · 금산사-정상 코스 (OSM 계산 경로)</name>
    <desc>실제 GPS 기록이 아닙니다. OpenStreetMap에 등록된 등산로 선형 위에서 계산한 경로이며, 현장 통제·훼손·출입 제한·계절 통제를 반영하지 않을 수 있습니다. 산행 전 공식 안내를 확인하세요.</desc>
    <trkseg>
      <trkpt lat="35.736287" lon="127.045456"><ele>136.5</ele></trkpt>
      <trkpt lat="35.736654" lon="127.046081"><ele>142.8</ele></trkpt>
      <trkpt lat="35.736886" lon="127.046312"><ele>147.1</ele></trkpt>
      <trkpt lat="35.737622" lon="127.046856"><ele>155.4</ele></trkpt>
      <trkpt lat="35.737944" lon="127.046993"><ele>157.9</ele></trkpt>
      <trkpt lat="35.740081" lon="127.047545"><ele>147.8</ele></trkpt>
      <trkpt lat="35.740689" lon="127.047584"><ele>142.1</ele></trkpt>
      <trkpt lat="35.741484" lon="127.047401"><ele>143.7</ele></trkpt>
      <trkpt lat="35.742341" lon="127.047429"><ele>140.4</ele></trkpt>
      <trkpt lat="35.742859" lon="127.047529"><ele>141.1</ele></trkpt>
      <trkpt lat="35.743040" lon="127.047637"><ele>142.0</ele></trkpt>
      <trkpt lat="35.742936" lon="127.047856"><ele>143.0</ele></trkpt>
      <trkpt lat="35.742687" lon="127.048050"><ele>143.0</ele></trkpt>
      <trkpt lat="35.742620" lon="127.048318"><ele>143.5</ele></trkpt>
      <trkpt lat="35.742463" lon="127.048538"><ele>144.5</ele></trkpt>
      <trkpt lat="35.742370" lon="127.048615"><ele>145.9</ele></trkpt>
      <trkpt lat="35.742160" lon="127.048653"><ele>148.4</ele></trkpt>
      <trkpt lat="35.741649" lon="127.049587"><ele>151.0</ele></trkpt>
      <trkpt lat="35.741518" lon="127.049705"><ele>151.9</ele></trkpt>
      <trkpt lat="35.741459" lon="127.049825"><ele>153.1</ele></trkpt>
      <trkpt lat="35.741392" lon="127.050238"><ele>156.7</ele></trkpt>
      <trkpt lat="35.741183" lon="127.050624"><ele>161.8</ele></trkpt>
      <trkpt lat="35.741015" lon="127.050815"><ele>164.7</ele></trkpt>
      <trkpt lat="35.740552" lon="127.051054"><ele>167.4</ele></trkpt>
      <trkpt lat="35.740510" lon="127.051351"><ele>169.9</ele></trkpt>
      <trkpt lat="35.740309" lon="127.051770"><ele>173.6</ele></trkpt>
      <trkpt lat="35.740165" lon="127.051874"><ele>174.5</ele></trkpt>
      <trkpt lat="35.740173" lon="127.052196"><ele>177.2</ele></trkpt>
      <trkpt lat="35.740264" lon="127.052454"><ele>179.5</ele></trkpt>
      <trkpt lat="35.740247" lon="127.052711"><ele>183.0</ele></trkpt>
      <trkpt lat="35.740094" lon="127.052931"><ele>187.2</ele></trkpt>
      <trkpt lat="35.739685" lon="127.053242"><ele>191.4</ele></trkpt>
      <trkpt lat="35.739193" lon="127.053806"><ele>200.2</ele></trkpt>
      <trkpt lat="35.739141" lon="127.053977"><ele>201.1</ele></trkpt>
      <trkpt lat="35.739032" lon="127.054111"><ele>203.0</ele></trkpt>
      <trkpt lat="35.738962" lon="127.053875"><ele>201.6</ele></trkpt>
      <trkpt lat="35.738971" lon="127.053484"><ele>205.3</ele></trkpt>
      <trkpt lat="35.739025" lon="127.053186"><ele>204.3</ele></trkpt>
      <trkpt lat="35.738810" lon="127.052977"><ele>207.6</ele></trkpt>
      <trkpt lat="35.738039" lon="127.053355"><ele>222.3</ele></trkpt>
      <trkpt lat="35.737247" lon="127.053889"><ele>232.8</ele></trkpt>
      <trkpt lat="35.737029" lon="127.054267"><ele>239.4</ele></trkpt>
      <trkpt lat="35.736393" lon="127.054626"><ele>252.2</ele></trkpt>
      <trkpt lat="35.736056" lon="127.054900"><ele>261.8</ele></trkpt>
      <trkpt lat="35.735888" lon="127.055080"><ele>267.1</ele></trkpt>
      <trkpt lat="35.735819" lon="127.055318"><ele>269.9</ele></trkpt>
      <trkpt lat="35.735542" lon="127.055353"><ele>275.4</ele></trkpt>
      <trkpt lat="35.735237" lon="127.055597"><ele>286.5</ele></trkpt>
      <trkpt lat="35.734926" lon="127.055510"><ele>291.8</ele></trkpt>
      <trkpt lat="35.734837" lon="127.055373"><ele>292.8</ele></trkpt>
      <trkpt lat="35.734791" lon="127.055042"><ele>292.7</ele></trkpt>
      <trkpt lat="35.734320" lon="127.054723"><ele>301.7</ele></trkpt>
      <trkpt lat="35.734487" lon="127.054370"><ele>295.5</ele></trkpt>
      <trkpt lat="35.734421" lon="127.054262"><ele>296.3</ele></trkpt>
      <trkpt lat="35.733698" lon="127.054363"><ele>315.7</ele></trkpt>
      <trkpt lat="35.733480" lon="127.054283"><ele>321.0</ele></trkpt>
      <trkpt lat="35.733019" lon="127.054288"><ele>330.6</ele></trkpt>
      <trkpt lat="35.732721" lon="127.054782"><ele>340.1</ele></trkpt>
      <trkpt lat="35.732690" lon="127.054940"><ele>340.3</ele></trkpt>
      <trkpt lat="35.732835" lon="127.055397"><ele>340.1</ele></trkpt>
      <trkpt lat="35.732843" lon="127.055853"><ele>341.6</ele></trkpt>
      <trkpt lat="35.732928" lon="127.056212"><ele>345.1</ele></trkpt>
      <trkpt lat="35.732898" lon="127.056687"><ele>349.7</ele></trkpt>
      <trkpt lat="35.732989" lon="127.056808"><ele>350.5</ele></trkpt>
      <trkpt lat="35.733396" lon="127.057105"><ele>355.8</ele></trkpt>
      <trkpt lat="35.733525" lon="127.057382"><ele>360.4</ele></trkpt>
      <trkpt lat="35.734107" lon="127.057979"><ele>376.7</ele></trkpt>
      <trkpt lat="35.734230" lon="127.058369"><ele>382.8</ele></trkpt>
      <trkpt lat="35.734352" lon="127.058470"><ele>386.5</ele></trkpt>
      <trkpt lat="35.734400" lon="127.058634"><ele>390.3</ele></trkpt>
      <trkpt lat="35.734531" lon="127.058825"><ele>390.9</ele></trkpt>
      <trkpt lat="35.734759" lon="127.059069"><ele>395.1</ele></trkpt>
      <trkpt lat="35.734923" lon="127.059125"><ele>394.5</ele></trkpt>
      <trkpt lat="35.735184" lon="127.059466"><ele>394.4</ele></trkpt>
      <trkpt lat="35.735506" lon="127.060278"><ele>399.9</ele></trkpt>
      <trkpt lat="35.735963" lon="127.061040"><ele>403.9</ele></trkpt>
      <trkpt lat="35.736083" lon="127.061381"><ele>411.7</ele></trkpt>
      <trkpt lat="35.736116" lon="127.062008"><ele>423.0</ele></trkpt>
      <trkpt lat="35.736333" lon="127.062478"><ele>425.9</ele></trkpt>
      <trkpt lat="35.736489" lon="127.062635"><ele>434.5</ele></trkpt>
      <trkpt lat="35.736548" lon="127.062823"><ele>442.0</ele></trkpt>
      <trkpt lat="35.736732" lon="127.063057"><ele>451.7</ele></trkpt>
      <trkpt lat="35.736947" lon="127.063121"><ele>458.6</ele></trkpt>
      <trkpt lat="35.736965" lon="127.063237"><ele>461.7</ele></trkpt>
      <trkpt lat="35.737100" lon="127.063331"><ele>466.7</ele></trkpt>
      <trkpt lat="35.737370" lon="127.063854"><ele>475.6</ele></trkpt>
      <trkpt lat="35.737615" lon="127.064049"><ele>478.0</ele></trkpt>
      <trkpt lat="35.738029" lon="127.064232"><ele>482.6</ele></trkpt>
      <trkpt lat="35.738093" lon="127.064315"><ele>482.9</ele></trkpt>
      <trkpt lat="35.738454" lon="127.065444"><ele>488.8</ele></trkpt>
      <trkpt lat="35.738872" lon="127.066093"><ele>503.2</ele></trkpt>
      <trkpt lat="35.738950" lon="127.066388"><ele>508.2</ele></trkpt>
      <trkpt lat="35.739042" lon="127.067088"><ele>516.1</ele></trkpt>
      <trkpt lat="35.739033" lon="127.067815"><ele>539.5</ele></trkpt>
      <trkpt lat="35.738850" lon="127.068371"><ele>544.8</ele></trkpt>
      <trkpt lat="35.738850" lon="127.068481"><ele>542.6</ele></trkpt>
      <trkpt lat="35.738907" lon="127.068574"><ele>542.2</ele></trkpt>
      <trkpt lat="35.739397" lon="127.068754"><ele>549.4</ele></trkpt>
      <trkpt lat="35.739669" lon="127.069081"><ele>547.6</ele></trkpt>
      <trkpt lat="35.739719" lon="127.069272"><ele>549.3</ele></trkpt>
      <trkpt lat="35.739721" lon="127.069602"><ele>553.3</ele></trkpt>
      <trkpt lat="35.739817" lon="127.070031"><ele>565.1</ele></trkpt>
      <trkpt lat="35.739902" lon="127.070216"><ele>572.2</ele></trkpt>
      <trkpt lat="35.740477" lon="127.070814"><ele>601.6</ele></trkpt>
      <trkpt lat="35.740600" lon="127.071026"><ele>607.0</ele></trkpt>
      <trkpt lat="35.740602" lon="127.071130"><ele>607.6</ele></trkpt>
      <trkpt lat="35.739790" lon="127.071895"><ele>604.4</ele></trkpt>
      <trkpt lat="35.739747" lon="127.072055"><ele>605.2</ele></trkpt>
      <trkpt lat="35.739670" lon="127.072152"><ele>603.8</ele></trkpt>
      <trkpt lat="35.739659" lon="127.072578"><ele>605.5</ele></trkpt>
      <trkpt lat="35.739568" lon="127.072949"><ele>604.9</ele></trkpt>
      <trkpt lat="35.739655" lon="127.073344"><ele>610.7</ele></trkpt>
      <trkpt lat="35.739637" lon="127.073622"><ele>614.6</ele></trkpt>
      <trkpt lat="35.739390" lon="127.074091"><ele>616.4</ele></trkpt>
      <trkpt lat="35.738836" lon="127.074589"><ele>619.7</ele></trkpt>
      <trkpt lat="35.738768" lon="127.074895"><ele>618.2</ele></trkpt>
      <trkpt lat="35.738637" lon="127.075013"><ele>618.7</ele></trkpt>
      <trkpt lat="35.738276" lon="127.075565"><ele>614.2</ele></trkpt>
      <trkpt lat="35.738100" lon="127.075924"><ele>617.2</ele></trkpt>
      <trkpt lat="35.737758" lon="127.076369"><ele>620.1</ele></trkpt>
      <trkpt lat="35.737654" lon="127.076575"><ele>622.0</ele></trkpt>
      <trkpt lat="35.737588" lon="127.076852"><ele>626.9</ele></trkpt>
      <trkpt lat="35.737385" lon="127.077251"><ele>632.9</ele></trkpt>
      <trkpt lat="35.737118" lon="127.078029"><ele>635.0</ele></trkpt>
      <trkpt lat="35.736744" lon="127.078216"><ele>631.8</ele></trkpt>
      <trkpt lat="35.736465" lon="127.078498"><ele>629.0</ele></trkpt>
      <trkpt lat="35.735842" lon="127.078780"><ele>633.7</ele></trkpt>
      <trkpt lat="35.735653" lon="127.078950"><ele>636.3</ele></trkpt>
      <trkpt lat="35.735560" lon="127.079091"><ele>641.4</ele></trkpt>
      <trkpt lat="35.735325" lon="127.079731"><ele>645.7</ele></trkpt>
      <trkpt lat="35.735244" lon="127.079838"><ele>645.9</ele></trkpt>
      <trkpt lat="35.734850" lon="127.080041"><ele>649.7</ele></trkpt>
      <trkpt lat="35.734716" lon="127.080262"><ele>653.0</ele></trkpt>
      <trkpt lat="35.734211" lon="127.080601"><ele>665.6</ele></trkpt>
      <trkpt lat="35.733751" lon="127.081098"><ele>670.1</ele></trkpt>
      <trkpt lat="35.733489" lon="127.081145"><ele>680.5</ele></trkpt>
      <trkpt lat="35.733182" lon="127.081119"><ele>687.0</ele></trkpt>
      <trkpt lat="35.732567" lon="127.081237"><ele>685.9</ele></trkpt>
      <trkpt lat="35.731928" lon="127.081580"><ele>690.9</ele></trkpt>
      <trkpt lat="35.731704" lon="127.081617"><ele>689.5</ele></trkpt>
      <trkpt lat="35.730880" lon="127.081548"><ele>700.6</ele></trkpt>
      <trkpt lat="35.730735" lon="127.081639"><ele>702.2</ele></trkpt>
      <trkpt lat="35.730485" lon="127.081439"><ele>709.2</ele></trkpt>
      <trkpt lat="35.730384" lon="127.081427"><ele>710.8</ele></trkpt>
      <trkpt lat="35.729763" lon="127.081820"><ele>707.7</ele></trkpt>
      <trkpt lat="35.729403" lon="127.082499"><ele>700.3</ele></trkpt>
      <trkpt lat="35.729246" lon="127.082643"><ele>699.4</ele></trkpt>
      <trkpt lat="35.729194" lon="127.083198"><ele>712.2</ele></trkpt>
      <trkpt lat="35.728827" lon="127.083472"><ele>720.4</ele></trkpt>
      <trkpt lat="35.728723" lon="127.083735"><ele>729.4</ele></trkpt>
      <trkpt lat="35.728777" lon="127.083983"><ele>742.6</ele></trkpt>
      <trkpt lat="35.728911" lon="127.084185"><ele>747.4</ele></trkpt>
      <trkpt lat="35.728887" lon="127.084255"><ele>749.7</ele></trkpt>
      <trkpt lat="35.728982" lon="127.084330"><ele>743.3</ele></trkpt>
      <trkpt lat="35.728968" lon="127.084397"><ele>744.9</ele></trkpt>
      <trkpt lat="35.728894" lon="127.084339"><ele>749.9</ele></trkpt>
      <trkpt lat="35.728771" lon="127.084466"><ele>757.0</ele></trkpt>
      <trkpt lat="35.728839" lon="127.084517"><ele>754.4</ele></trkpt>
      <trkpt lat="35.728717" lon="127.084664"><ele>764.3</ele></trkpt>
      <trkpt lat="35.728724" lon="127.084773"><ele>765.9</ele></trkpt>
      <trkpt lat="35.729075" lon="127.085397"><ele>746.5</ele></trkpt>
      <trkpt lat="35.729224" lon="127.085468"><ele>739.3</ele></trkpt>
      <trkpt lat="35.729278" lon="127.085428"><ele>737.9</ele></trkpt>
    </trkseg>
  </trk>
</gpx>
