<?xml version="1.0" encoding="UTF-8"?>
<gpx version="1.1" creator="kr-100-mountains route-harvester"
     xmlns="http://www.topografix.com/GPX/1/1"
     xmlns:k100="https://github.com/jay-jang/kr-100-mountains/ns/1"
     xmlns:xsi="http://www.w3.org/2001/XMLSchema-instance"
     xsi:schemaLocation="http://www.topografix.com/GPX/1/1 http://www.topografix.com/GPX/1/1/gpx.xsd">
  <metadata>
    <name>모악산 · 상학능선 코스 (OSM 계산 경로)</name>
    <desc>실제 GPS 기록이 아닙니다. OpenStreetMap에 등록된 등산로 선형 위에서 계산한 경로이며, 현장 통제·훼손·출입 제한·계절 통제를 반영하지 않을 수 있습니다. 산행 전 공식 안내를 확인하세요.</desc>
    <time>2026-08-04T05:33:47.635Z</time>
    <link href="https://www.openstreetmap.org/copyright"><text>© OpenStreetMap contributors (ODbL 1.0)</text></link>
    <link href="https://registry.opendata.aws/terrain-tiles/"><text>Elevation: SRTM 1 arc-second (NASA/USGS) via AWS Terrain Tiles</text></link>
    <extensions>
      <k100:provenance>osm-routed</k100:provenance>
      <k100:not_a_recorded_track>true</k100:not_a_recorded_track>
      <k100:mountain_id>moaksan</k100:mountain_id>
      <k100:mountain_name>모악산</k100:mountain_name>
      <k100:route_id>moaksan-300107a2</k100:route_id>
      <k100:route_index>3</k100:route_index>
      <k100:route_name>상학능선 코스</k100:route_name>
      <k100:variant>0</k100:variant>
      <k100:source>OpenStreetMap via Overpass API</k100:source>
      <k100:license>ODbL-1.0</k100:license>
      <k100:attribution>© OpenStreetMap contributors</k100:attribution>
      <k100:elevation_source>SRTM 1 arc-second (NASA/USGS) — AWS Terrain Tiles 배포본. 지형 DEM 추정 고도이며 실측 아님</k100:elevation_source>
      <k100:algorithm>dijkstra-grid-v1</k100:algorithm>
      <k100:osm_snapshot>2026-08-04</k100:osm_snapshot>
      <k100:snap_trailhead_m>16</k100:snap_trailhead_m>
      <k100:snap_summit_m>14</k100:snap_summit_m>
      <k100:validation_score>93</k100:validation_score>
      <k100:validation_status>accepted</k100:validation_status>
    </extensions>
  </metadata>
  <trk>
    <name>모악산 · 상학능선 코스 (OSM 계산 경로)</name>
    <desc>실제 GPS 기록이 아닙니다. OpenStreetMap에 등록된 등산로 선형 위에서 계산한 경로이며, 현장 통제·훼손·출입 제한·계절 통제를 반영하지 않을 수 있습니다. 산행 전 공식 안내를 확인하세요.</desc>
    <trkseg>
      <trkpt lat="35.741145" lon="127.111898"><ele>196.9</ele></trkpt>
      <trkpt lat="35.740931" lon="127.111778"><ele>200.4</ele></trkpt>
      <trkpt lat="35.740783" lon="127.111579"><ele>206.6</ele></trkpt>
      <trkpt lat="35.740551" lon="127.111404"><ele>210.6</ele></trkpt>
      <trkpt lat="35.740048" lon="127.110748"><ele>226.8</ele></trkpt>
      <trkpt lat="35.739791" lon="127.110600"><ele>232.6</ele></trkpt>
      <trkpt lat="35.739702" lon="127.110492"><ele>234.4</ele></trkpt>
      <trkpt lat="35.739688" lon="127.110318"><ele>236.5</ele></trkpt>
      <trkpt lat="35.739865" lon="127.109847"><ele>236.4</ele></trkpt>
      <trkpt lat="35.739752" lon="127.109267"><ele>228.1</ele></trkpt>
      <trkpt lat="35.739728" lon="127.108728"><ele>233.0</ele></trkpt>
      <trkpt lat="35.739653" lon="127.108560"><ele>235.8</ele></trkpt>
      <trkpt lat="35.739629" lon="127.108154"><ele>235.5</ele></trkpt>
      <trkpt lat="35.739483" lon="127.107699"><ele>232.6</ele></trkpt>
      <trkpt lat="35.739325" lon="127.107371"><ele>230.6</ele></trkpt>
      <trkpt lat="35.739194" lon="127.106730"><ele>231.0</ele></trkpt>
      <trkpt lat="35.738593" lon="127.106304"><ele>219.9</ele></trkpt>
      <trkpt lat="35.738595" lon="127.105507"><ele>221.0</ele></trkpt>
      <trkpt lat="35.738674" lon="127.104990"><ele>231.9</ele></trkpt>
      <trkpt lat="35.738599" lon="127.104791"><ele>237.9</ele></trkpt>
      <trkpt lat="35.738287" lon="127.104505"><ele>245.2</ele></trkpt>
      <trkpt lat="35.738205" lon="127.104268"><ele>246.7</ele></trkpt>
      <trkpt lat="35.738193" lon="127.103858"><ele>250.6</ele></trkpt>
      <trkpt lat="35.738332" lon="127.103178"><ele>257.1</ele></trkpt>
      <trkpt lat="35.738467" lon="127.102978"><ele>258.4</ele></trkpt>
      <trkpt lat="35.738683" lon="127.102794"><ele>262.6</ele></trkpt>
      <trkpt lat="35.738824" lon="127.102395"><ele>274.3</ele></trkpt>
      <trkpt lat="35.739012" lon="127.102115"><ele>281.5</ele></trkpt>
      <trkpt lat="35.739047" lon="127.101885"><ele>284.1</ele></trkpt>
      <trkpt lat="35.738929" lon="127.101612"><ele>286.1</ele></trkpt>
      <trkpt lat="35.738880" lon="127.101068"><ele>291.7</ele></trkpt>
      <trkpt lat="35.738559" lon="127.100165"><ele>305.1</ele></trkpt>
      <trkpt lat="35.738421" lon="127.099430"><ele>326.0</ele></trkpt>
      <trkpt lat="35.738306" lon="127.099182"><ele>333.2</ele></trkpt>
      <trkpt lat="35.738014" lon="127.098805"><ele>348.8</ele></trkpt>
      <trkpt lat="35.738006" lon="127.098506"><ele>355.6</ele></trkpt>
      <trkpt lat="35.738143" lon="127.097753"><ele>371.8</ele></trkpt>
      <trkpt lat="35.737986" lon="127.097450"><ele>382.6</ele></trkpt>
      <trkpt lat="35.737993" lon="127.097301"><ele>387.5</ele></trkpt>
      <trkpt lat="35.737869" lon="127.096635"><ele>423.4</ele></trkpt>
      <trkpt lat="35.737703" lon="127.096224"><ele>446.1</ele></trkpt>
      <trkpt lat="35.737440" lon="127.095910"><ele>466.7</ele></trkpt>
      <trkpt lat="35.737366" lon="127.095407"><ele>481.4</ele></trkpt>
      <trkpt lat="35.737066" lon="127.095237"><ele>486.0</ele></trkpt>
      <trkpt lat="35.736762" lon="127.095219"><ele>484.2</ele></trkpt>
      <trkpt lat="35.736525" lon="127.095243"><ele>479.3</ele></trkpt>
      <trkpt lat="35.736273" lon="127.095449"><ele>466.9</ele></trkpt>
      <trkpt lat="35.736142" lon="127.095441"><ele>465.6</ele></trkpt>
      <trkpt lat="35.736258" lon="127.094926"><ele>486.4</ele></trkpt>
      <trkpt lat="35.736585" lon="127.094700"><ele>501.3</ele></trkpt>
      <trkpt lat="35.736637" lon="127.094609"><ele>504.2</ele></trkpt>
      <trkpt lat="35.736681" lon="127.094448"><ele>507.9</ele></trkpt>
      <trkpt lat="35.736626" lon="127.094086"><ele>511.0</ele></trkpt>
      <trkpt lat="35.736757" lon="127.093743"><ele>513.9</ele></trkpt>
      <trkpt lat="35.736850" lon="127.093300"><ele>520.6</ele></trkpt>
      <trkpt lat="35.736750" lon="127.092866"><ele>526.8</ele></trkpt>
      <trkpt lat="35.736615" lon="127.092710"><ele>528.0</ele></trkpt>
      <trkpt lat="35.736637" lon="127.092474"><ele>535.9</ele></trkpt>
      <trkpt lat="35.736576" lon="127.092313"><ele>535.3</ele></trkpt>
      <trkpt lat="35.736533" lon="127.091873"><ele>538.3</ele></trkpt>
      <trkpt lat="35.736461" lon="127.091600"><ele>537.2</ele></trkpt>
      <trkpt lat="35.736315" lon="127.091412"><ele>537.0</ele></trkpt>
      <trkpt lat="35.736108" lon="127.091287"><ele>539.2</ele></trkpt>
      <trkpt lat="35.735906" lon="127.091224"><ele>544.3</ele></trkpt>
      <trkpt lat="35.735653" lon="127.091042"><ele>552.1</ele></trkpt>
      <trkpt lat="35.735300" lon="127.090956"><ele>553.0</ele></trkpt>
      <trkpt lat="35.735274" lon="127.090859"><ele>555.3</ele></trkpt>
      <trkpt lat="35.735052" lon="127.090688"><ele>555.4</ele></trkpt>
      <trkpt lat="35.734843" lon="127.090398"><ele>559.2</ele></trkpt>
      <trkpt lat="35.734847" lon="127.089931"><ele>569.0</ele></trkpt>
      <trkpt lat="35.734590" lon="127.089642"><ele>577.6</ele></trkpt>
      <trkpt lat="35.734318" lon="127.089467"><ele>587.2</ele></trkpt>
      <trkpt lat="35.734164" lon="127.089025"><ele>597.5</ele></trkpt>
      <trkpt lat="35.733646" lon="127.088669"><ele>600.4</ele></trkpt>
      <trkpt lat="35.733202" lon="127.088445"><ele>600.5</ele></trkpt>
      <trkpt lat="35.732916" lon="127.087992"><ele>615.4</ele></trkpt>
      <trkpt lat="35.732707" lon="127.087878"><ele>620.9</ele></trkpt>
      <trkpt lat="35.732674" lon="127.087749"><ele>625.4</ele></trkpt>
      <trkpt lat="35.732541" lon="127.087533"><ele>633.7</ele></trkpt>
      <trkpt lat="35.732416" lon="127.087440"><ele>636.1</ele></trkpt>
      <trkpt lat="35.732376" lon="127.087317"><ele>638.6</ele></trkpt>
      <trkpt lat="35.732178" lon="127.087180"><ele>645.7</ele></trkpt>
      <trkpt lat="35.731941" lon="127.086893"><ele>658.1</ele></trkpt>
      <trkpt lat="35.731521" lon="127.086740"><ele>665.7</ele></trkpt>
      <trkpt lat="35.731394" lon="127.086515"><ele>670.6</ele></trkpt>
      <trkpt lat="35.731298" lon="127.086487"><ele>672.5</ele></trkpt>
      <trkpt lat="35.731307" lon="127.086415"><ele>674.2</ele></trkpt>
      <trkpt lat="35.731265" lon="127.086435"><ele>674.4</ele></trkpt>
      <trkpt lat="35.731199" lon="127.086343"><ele>677.3</ele></trkpt>
      <trkpt lat="35.731121" lon="127.086388"><ele>678.8</ele></trkpt>
      <trkpt lat="35.730811" lon="127.086174"><ele>690.9</ele></trkpt>
      <trkpt lat="35.730319" lon="127.086102"><ele>698.7</ele></trkpt>
      <trkpt lat="35.730066" lon="127.085954"><ele>707.1</ele></trkpt>
      <trkpt lat="35.729772" lon="127.085914"><ele>714.7</ele></trkpt>
      <trkpt lat="35.729688" lon="127.085651"><ele>725.3</ele></trkpt>
      <trkpt lat="35.729428" lon="127.085690"><ele>729.1</ele></trkpt>
      <trkpt lat="35.729311" lon="127.085592"><ele>735.6</ele></trkpt>
      <trkpt lat="35.729278" lon="127.085428"><ele>737.9</ele></trkpt>
    </trkseg>
  </trk>
</gpx>
