<?xml version="1.0" encoding="UTF-8"?>
<gpx version="1.1" creator="kr-100-mountains route-harvester"
     xmlns="http://www.topografix.com/GPX/1/1"
     xmlns:k100="https://github.com/jay-jang/kr-100-mountains/ns/1"
     xmlns:xsi="http://www.w3.org/2001/XMLSchema-instance"
     xsi:schemaLocation="http://www.topografix.com/GPX/1/1 http://www.topografix.com/GPX/1/1/gpx.xsd">
  <metadata>
    <name>계룡산 · 갑사-금잔디고개-연천봉 코스 (OSM 계산 경로)</name>
    <desc>실제 GPS 기록이 아닙니다. OpenStreetMap에 등록된 등산로 선형 위에서 계산한 경로이며, 현장 통제·훼손·출입 제한·계절 통제를 반영하지 않을 수 있습니다. 산행 전 공식 안내를 확인하세요.</desc>
    <time>2026-08-04T05:29:04.844Z</time>
    <link href="https://www.openstreetmap.org/copyright"><text>© OpenStreetMap contributors (ODbL 1.0)</text></link>
    <link href="https://registry.opendata.aws/terrain-tiles/"><text>Elevation: SRTM 1 arc-second (NASA/USGS) via AWS Terrain Tiles</text></link>
    <extensions>
      <k100:provenance>osm-routed</k100:provenance>
      <k100:not_a_recorded_track>true</k100:not_a_recorded_track>
      <k100:mountain_id>gyeryongsan</k100:mountain_id>
      <k100:mountain_name>계룡산</k100:mountain_name>
      <k100:route_id>gyeryongsan-fd27821a</k100:route_id>
      <k100:route_index>2</k100:route_index>
      <k100:route_name>갑사-금잔디고개-연천봉 코스</k100:route_name>
      <k100:variant>0</k100:variant>
      <k100:source>OpenStreetMap via Overpass API</k100:source>
      <k100:license>ODbL-1.0</k100:license>
      <k100:attribution>© OpenStreetMap contributors</k100:attribution>
      <k100:elevation_source>SRTM 1 arc-second (NASA/USGS) — AWS Terrain Tiles 배포본. 지형 DEM 추정 고도이며 실측 아님</k100:elevation_source>
      <k100:algorithm>dijkstra-grid-v1</k100:algorithm>
      <k100:osm_snapshot>2026-08-04</k100:osm_snapshot>
      <k100:snap_trailhead_m>218</k100:snap_trailhead_m>
      <k100:snap_summit_m>200</k100:snap_summit_m>
      <k100:validation_score>76</k100:validation_score>
      <k100:validation_status>accepted</k100:validation_status>
    </extensions>
  </metadata>
  <trk>
    <name>계룡산 · 갑사-금잔디고개-연천봉 코스 (OSM 계산 경로)</name>
    <desc>실제 GPS 기록이 아닙니다. OpenStreetMap에 등록된 등산로 선형 위에서 계산한 경로이며, 현장 통제·훼손·출입 제한·계절 통제를 반영하지 않을 수 있습니다. 산행 전 공식 안내를 확인하세요.</desc>
    <trkseg>
      <trkpt lat="36.364854" lon="127.185424"><ele>161.6</ele></trkpt>
      <trkpt lat="36.364739" lon="127.185767"><ele>167.6</ele></trkpt>
      <trkpt lat="36.364495" lon="127.186116"><ele>172.2</ele></trkpt>
      <trkpt lat="36.364416" lon="127.186502"><ele>177.0</ele></trkpt>
      <trkpt lat="36.364413" lon="127.186607"><ele>178.9</ele></trkpt>
      <trkpt lat="36.364663" lon="127.186651"><ele>178.3</ele></trkpt>
      <trkpt lat="36.364769" lon="127.187438"><ele>189.1</ele></trkpt>
      <trkpt lat="36.364849" lon="127.187437"><ele>189.1</ele></trkpt>
      <trkpt lat="36.364691" lon="127.187703"><ele>192.3</ele></trkpt>
      <trkpt lat="36.364429" lon="127.188011"><ele>198.5</ele></trkpt>
      <trkpt lat="36.364369" lon="127.188014"><ele>199.8</ele></trkpt>
      <trkpt lat="36.364048" lon="127.187764"><ele>199.9</ele></trkpt>
      <trkpt lat="36.363829" lon="127.187804"><ele>203.9</ele></trkpt>
      <trkpt lat="36.363685" lon="127.187994"><ele>209.2</ele></trkpt>
      <trkpt lat="36.363411" lon="127.188199"><ele>212.0</ele></trkpt>
      <trkpt lat="36.362992" lon="127.188401"><ele>214.0</ele></trkpt>
      <trkpt lat="36.362522" lon="127.189029"><ele>231.9</ele></trkpt>
      <trkpt lat="36.362272" lon="127.188984"><ele>234.8</ele></trkpt>
      <trkpt lat="36.361591" lon="127.189146"><ele>243.9</ele></trkpt>
      <trkpt lat="36.361330" lon="127.189287"><ele>246.7</ele></trkpt>
      <trkpt lat="36.361077" lon="127.189318"><ele>246.9</ele></trkpt>
      <trkpt lat="36.360789" lon="127.189509"><ele>251.5</ele></trkpt>
      <trkpt lat="36.360698" lon="127.189664"><ele>255.8</ele></trkpt>
      <trkpt lat="36.360636" lon="127.190024"><ele>263.1</ele></trkpt>
      <trkpt lat="36.360322" lon="127.191116"><ele>268.2</ele></trkpt>
      <trkpt lat="36.360231" lon="127.191251"><ele>269.9</ele></trkpt>
      <trkpt lat="36.360128" lon="127.191578"><ele>274.9</ele></trkpt>
      <trkpt lat="36.359920" lon="127.191807"><ele>278.4</ele></trkpt>
      <trkpt lat="36.359555" lon="127.192539"><ele>292.0</ele></trkpt>
      <trkpt lat="36.359411" lon="127.192580"><ele>293.3</ele></trkpt>
      <trkpt lat="36.359109" lon="127.192460"><ele>300.7</ele></trkpt>
      <trkpt lat="36.358588" lon="127.192397"><ele>320.6</ele></trkpt>
      <trkpt lat="36.358481" lon="127.192433"><ele>322.6</ele></trkpt>
      <trkpt lat="36.357954" lon="127.192272"><ele>336.0</ele></trkpt>
      <trkpt lat="36.357103" lon="127.192193"><ele>366.7</ele></trkpt>
      <trkpt lat="36.355632" lon="127.192922"><ele>408.3</ele></trkpt>
      <trkpt lat="36.355457" lon="127.192897"><ele>414.8</ele></trkpt>
      <trkpt lat="36.355201" lon="127.192964"><ele>425.1</ele></trkpt>
      <trkpt lat="36.354735" lon="127.192883"><ele>442.0</ele></trkpt>
      <trkpt lat="36.354531" lon="127.192995"><ele>449.4</ele></trkpt>
      <trkpt lat="36.354342" lon="127.193128"><ele>458.7</ele></trkpt>
      <trkpt lat="36.354280" lon="127.193265"><ele>464.7</ele></trkpt>
      <trkpt lat="36.354177" lon="127.193309"><ele>468.3</ele></trkpt>
      <trkpt lat="36.353928" lon="127.193642"><ele>492.3</ele></trkpt>
      <trkpt lat="36.353897" lon="127.193725"><ele>497.1</ele></trkpt>
      <trkpt lat="36.353987" lon="127.193854"><ele>498.3</ele></trkpt>
      <trkpt lat="36.353968" lon="127.193912"><ele>501.3</ele></trkpt>
      <trkpt lat="36.353787" lon="127.193947"><ele>509.6</ele></trkpt>
      <trkpt lat="36.353542" lon="127.193912"><ele>517.8</ele></trkpt>
      <trkpt lat="36.353402" lon="127.193828"><ele>520.5</ele></trkpt>
      <trkpt lat="36.353082" lon="127.193835"><ele>538.3</ele></trkpt>
      <trkpt lat="36.352749" lon="127.194040"><ele>563.3</ele></trkpt>
      <trkpt lat="36.352589" lon="127.194075"><ele>570.9</ele></trkpt>
      <trkpt lat="36.352361" lon="127.193982"><ele>578.0</ele></trkpt>
      <trkpt lat="36.352176" lon="127.194051"><ele>588.9</ele></trkpt>
      <trkpt lat="36.352075" lon="127.193976"><ele>593.0</ele></trkpt>
      <trkpt lat="36.352011" lon="127.193822"><ele>592.5</ele></trkpt>
      <trkpt lat="36.351800" lon="127.193981"><ele>610.2</ele></trkpt>
      <trkpt lat="36.351656" lon="127.193923"><ele>617.6</ele></trkpt>
      <trkpt lat="36.351591" lon="127.194003"><ele>624.1</ele></trkpt>
      <trkpt lat="36.351475" lon="127.193946"><ele>628.9</ele></trkpt>
      <trkpt lat="36.351374" lon="127.194014"><ele>638.6</ele></trkpt>
      <trkpt lat="36.351163" lon="127.194017"><ele>655.9</ele></trkpt>
      <trkpt lat="36.351017" lon="127.193795"><ele>660.4</ele></trkpt>
      <trkpt lat="36.350922" lon="127.193854"><ele>667.4</ele></trkpt>
      <trkpt lat="36.350781" lon="127.193805"><ele>673.7</ele></trkpt>
      <trkpt lat="36.350582" lon="127.193889"><ele>677.5</ele></trkpt>
      <trkpt lat="36.350479" lon="127.194231"><ele>681.5</ele></trkpt>
      <trkpt lat="36.350314" lon="127.194409"><ele>677.7</ele></trkpt>
      <trkpt lat="36.350183" lon="127.194849"><ele>681.7</ele></trkpt>
      <trkpt lat="36.350021" lon="127.195035"><ele>680.2</ele></trkpt>
      <trkpt lat="36.349996" lon="127.195339"><ele>683.1</ele></trkpt>
      <trkpt lat="36.349841" lon="127.195453"><ele>674.7</ele></trkpt>
      <trkpt lat="36.349817" lon="127.195705"><ele>673.4</ele></trkpt>
      <trkpt lat="36.349860" lon="127.195908"><ele>673.2</ele></trkpt>
      <trkpt lat="36.350123" lon="127.196303"><ele>678.8</ele></trkpt>
      <trkpt lat="36.350232" lon="127.196687"><ele>670.5</ele></trkpt>
      <trkpt lat="36.350307" lon="127.196806"><ele>669.5</ele></trkpt>
      <trkpt lat="36.350422" lon="127.196921"><ele>669.5</ele></trkpt>
      <trkpt lat="36.350552" lon="127.196950"><ele>672.7</ele></trkpt>
      <trkpt lat="36.350785" lon="127.197105"><ele>672.7</ele></trkpt>
      <trkpt lat="36.351043" lon="127.197419"><ele>674.9</ele></trkpt>
      <trkpt lat="36.351274" lon="127.197913"><ele>683.8</ele></trkpt>
      <trkpt lat="36.351549" lon="127.198207"><ele>698.0</ele></trkpt>
      <trkpt lat="36.351784" lon="127.198726"><ele>710.8</ele></trkpt>
      <trkpt lat="36.351796" lon="127.198918"><ele>713.6</ele></trkpt>
      <trkpt lat="36.351720" lon="127.199393"><ele>719.5</ele></trkpt>
      <trkpt lat="36.351611" lon="127.199817"><ele>725.8</ele></trkpt>
      <trkpt lat="36.351507" lon="127.200002"><ele>724.4</ele></trkpt>
      <trkpt lat="36.351392" lon="127.200365"><ele>729.3</ele></trkpt>
      <trkpt lat="36.351280" lon="127.200836"><ele>736.0</ele></trkpt>
      <trkpt lat="36.351147" lon="127.200850"><ele>733.5</ele></trkpt>
      <trkpt lat="36.350801" lon="127.201268"><ele>731.9</ele></trkpt>
      <trkpt lat="36.350670" lon="127.201504"><ele>733.4</ele></trkpt>
      <trkpt lat="36.350123" lon="127.201666"><ele>741.3</ele></trkpt>
      <trkpt lat="36.349689" lon="127.201963"><ele>750.5</ele></trkpt>
      <trkpt lat="36.349373" lon="127.201986"><ele>762.7</ele></trkpt>
      <trkpt lat="36.348962" lon="127.202139"><ele>768.1</ele></trkpt>
      <trkpt lat="36.348756" lon="127.202358"><ele>765.9</ele></trkpt>
      <trkpt lat="36.348644" lon="127.202672"><ele>763.9</ele></trkpt>
      <trkpt lat="36.348313" lon="127.202915"><ele>757.0</ele></trkpt>
      <trkpt lat="36.347618" lon="127.203168"><ele>757.8</ele></trkpt>
      <trkpt lat="36.347518" lon="127.203152"><ele>756.9</ele></trkpt>
      <trkpt lat="36.347361" lon="127.203248"><ele>758.4</ele></trkpt>
      <trkpt lat="36.347228" lon="127.203239"><ele>756.0</ele></trkpt>
      <trkpt lat="36.346860" lon="127.203356"><ele>759.9</ele></trkpt>
      <trkpt lat="36.346749" lon="127.203313"><ele>760.0</ele></trkpt>
      <trkpt lat="36.346714" lon="127.203403"><ele>764.9</ele></trkpt>
      <trkpt lat="36.346770" lon="127.203469"><ele>766.3</ele></trkpt>
      <trkpt lat="36.346782" lon="127.203596"><ele>771.2</ele></trkpt>
      <trkpt lat="36.346717" lon="127.203680"><ele>777.1</ele></trkpt>
      <trkpt lat="36.346770" lon="127.203749"><ele>775.6</ele></trkpt>
      <trkpt lat="36.346757" lon="127.203848"><ele>778.8</ele></trkpt>
      <trkpt lat="36.346548" lon="127.203795"><ele>791.4</ele></trkpt>
      <trkpt lat="36.346451" lon="127.203820"><ele>798.8</ele></trkpt>
      <trkpt lat="36.346204" lon="127.204076"><ele>800.3</ele></trkpt>
      <trkpt lat="36.346081" lon="127.204048"><ele>800.8</ele></trkpt>
      <trkpt lat="36.345985" lon="127.204170"><ele>798.9</ele></trkpt>
      <trkpt lat="36.345741" lon="127.204004"><ele>802.3</ele></trkpt>
      <trkpt lat="36.345525" lon="127.203944"><ele>803.6</ele></trkpt>
      <trkpt lat="36.345216" lon="127.203960"><ele>794.7</ele></trkpt>
      <trkpt lat="36.345211" lon="127.204070"><ele>795.5</ele></trkpt>
      <trkpt lat="36.345028" lon="127.204365"><ele>794.5</ele></trkpt>
      <trkpt lat="36.344475" lon="127.204685"><ele>786.1</ele></trkpt>
      <trkpt lat="36.344329" lon="127.204886"><ele>782.4</ele></trkpt>
      <trkpt lat="36.343744" lon="127.205303"><ele>783.7</ele></trkpt>
      <trkpt lat="36.343570" lon="127.205471"><ele>788.1</ele></trkpt>
      <trkpt lat="36.343169" lon="127.206029"><ele>795.9</ele></trkpt>
      <trkpt lat="36.342788" lon="127.206203"><ele>819.9</ele></trkpt>
      <trkpt lat="36.342793" lon="127.206670"><ele>811.8</ele></trkpt>
      <trkpt lat="36.342598" lon="127.207013"><ele>798.6</ele></trkpt>
      <trkpt lat="36.342547" lon="127.207223"><ele>785.0</ele></trkpt>
      <trkpt lat="36.342806" lon="127.208049"><ele>763.8</ele></trkpt>
      <trkpt lat="36.342840" lon="127.208301"><ele>756.0</ele></trkpt>
      <trkpt lat="36.342918" lon="127.208499"><ele>750.7</ele></trkpt>
      <trkpt lat="36.342918" lon="127.208655"><ele>747.9</ele></trkpt>
      <trkpt lat="36.342698" lon="127.209116"><ele>743.6</ele></trkpt>
      <trkpt lat="36.342300" lon="127.209739"><ele>740.6</ele></trkpt>
      <trkpt lat="36.342076" lon="127.210200"><ele>730.2</ele></trkpt>
      <trkpt lat="36.341929" lon="127.210661"><ele>722.9</ele></trkpt>
      <trkpt lat="36.341548" lon="127.210833"><ele>711.9</ele></trkpt>
    </trkseg>
  </trk>
</gpx>
