<?xml version="1.0" encoding="UTF-8"?>
<gpx version="1.1" creator="kr-100-mountains route-harvester"
     xmlns="http://www.topografix.com/GPX/1/1"
     xmlns:k100="https://github.com/jay-jang/kr-100-mountains/ns/1"
     xmlns:xsi="http://www.w3.org/2001/XMLSchema-instance"
     xsi:schemaLocation="http://www.topografix.com/GPX/1/1 http://www.topografix.com/GPX/1/1/gpx.xsd">
  <metadata>
    <name>황장산 · 안산리-황장산 원점회귀 (OSM 계산 경로)</name>
    <desc>실제 GPS 기록이 아닙니다. OpenStreetMap에 등록된 등산로 선형 위에서 계산한 경로이며, 현장 통제·훼손·출입 제한·계절 통제를 반영하지 않을 수 있습니다. 산행 전 공식 안내를 확인하세요.</desc>
    <time>2026-08-04T05:41:06.715Z</time>
    <link href="https://www.openstreetmap.org/copyright"><text>© OpenStreetMap contributors (ODbL 1.0)</text></link>
    <link href="https://registry.opendata.aws/terrain-tiles/"><text>Elevation: SRTM 1 arc-second (NASA/USGS) via AWS Terrain Tiles</text></link>
    <extensions>
      <k100:provenance>osm-routed</k100:provenance>
      <k100:not_a_recorded_track>true</k100:not_a_recorded_track>
      <k100:mountain_id>hwangjangsan</k100:mountain_id>
      <k100:mountain_name>황장산</k100:mountain_name>
      <k100:route_id>hwangjangsan-b36d1812</k100:route_id>
      <k100:route_index>1</k100:route_index>
      <k100:route_name>안산리-황장산 원점회귀</k100:route_name>
      <k100:variant>0</k100:variant>
      <k100:source>OpenStreetMap via Overpass API</k100:source>
      <k100:license>ODbL-1.0</k100:license>
      <k100:attribution>© OpenStreetMap contributors</k100:attribution>
      <k100:elevation_source>SRTM 1 arc-second (NASA/USGS) — AWS Terrain Tiles 배포본. 지형 DEM 추정 고도이며 실측 아님</k100:elevation_source>
      <k100:algorithm>dijkstra-grid-v1</k100:algorithm>
      <k100:osm_snapshot>2026-08-04</k100:osm_snapshot>
      <k100:snap_trailhead_m>567</k100:snap_trailhead_m>
      <k100:snap_summit_m>346</k100:snap_summit_m>
      <k100:validation_score>58</k100:validation_score>
      <k100:validation_status>review</k100:validation_status>
    </extensions>
  </metadata>
  <trk>
    <name>황장산 · 안산리-황장산 원점회귀 (OSM 계산 경로)</name>
    <desc>실제 GPS 기록이 아닙니다. OpenStreetMap에 등록된 등산로 선형 위에서 계산한 경로이며, 현장 통제·훼손·출입 제한·계절 통제를 반영하지 않을 수 있습니다. 산행 전 공식 안내를 확인하세요.</desc>
    <trkseg>
      <trkpt lat="36.779579" lon="128.226703"><ele>424.9</ele></trkpt>
      <trkpt lat="36.779697" lon="128.226389"><ele>430.8</ele></trkpt>
      <trkpt lat="36.779717" lon="128.226056"><ele>437.1</ele></trkpt>
      <trkpt lat="36.779806" lon="128.225798"><ele>443.5</ele></trkpt>
      <trkpt lat="36.780304" lon="128.225144"><ele>459.9</ele></trkpt>
      <trkpt lat="36.780551" lon="128.224516"><ele>465.6</ele></trkpt>
      <trkpt lat="36.780729" lon="128.224257"><ele>470.2</ele></trkpt>
      <trkpt lat="36.780813" lon="128.224036"><ele>470.6</ele></trkpt>
      <trkpt lat="36.780831" lon="128.223824"><ele>469.9</ele></trkpt>
      <trkpt lat="36.780745" lon="128.223283"><ele>470.5</ele></trkpt>
      <trkpt lat="36.780785" lon="128.223087"><ele>472.9</ele></trkpt>
      <trkpt lat="36.780987" lon="128.222695"><ele>481.6</ele></trkpt>
      <trkpt lat="36.781133" lon="128.221976"><ele>492.7</ele></trkpt>
      <trkpt lat="36.781163" lon="128.221596"><ele>492.0</ele></trkpt>
      <trkpt lat="36.781129" lon="128.221223"><ele>494.8</ele></trkpt>
      <trkpt lat="36.780942" lon="128.220769"><ele>497.5</ele></trkpt>
      <trkpt lat="36.780914" lon="128.219552"><ele>511.6</ele></trkpt>
      <trkpt lat="36.780744" lon="128.218523"><ele>525.0</ele></trkpt>
      <trkpt lat="36.780589" lon="128.218110"><ele>528.9</ele></trkpt>
      <trkpt lat="36.780658" lon="128.217477"><ele>536.2</ele></trkpt>
      <trkpt lat="36.780770" lon="128.217080"><ele>536.3</ele></trkpt>
      <trkpt lat="36.780997" lon="128.216833"><ele>544.1</ele></trkpt>
      <trkpt lat="36.781014" lon="128.216629"><ele>544.6</ele></trkpt>
      <trkpt lat="36.780954" lon="128.216329"><ele>549.2</ele></trkpt>
      <trkpt lat="36.781118" lon="128.215556"><ele>571.3</ele></trkpt>
      <trkpt lat="36.781096" lon="128.215181"><ele>570.3</ele></trkpt>
      <trkpt lat="36.781161" lon="128.214585"><ele>575.7</ele></trkpt>
      <trkpt lat="36.781268" lon="128.214505"><ele>579.5</ele></trkpt>
      <trkpt lat="36.781418" lon="128.214660"><ele>582.0</ele></trkpt>
      <trkpt lat="36.781500" lon="128.214596"><ele>586.6</ele></trkpt>
      <trkpt lat="36.781500" lon="128.213893"><ele>595.2</ele></trkpt>
      <trkpt lat="36.781560" lon="128.213400"><ele>599.2</ele></trkpt>
      <trkpt lat="36.781771" lon="128.213008"><ele>608.9</ele></trkpt>
      <trkpt lat="36.781952" lon="128.211259"><ele>633.1</ele></trkpt>
      <trkpt lat="36.781828" lon="128.210764"><ele>642.1</ele></trkpt>
      <trkpt lat="36.781708" lon="128.210598"><ele>649.0</ele></trkpt>
      <trkpt lat="36.781700" lon="128.210518"><ele>651.6</ele></trkpt>
      <trkpt lat="36.781808" lon="128.210289"><ele>656.6</ele></trkpt>
      <trkpt lat="36.781920" lon="128.210265"><ele>654.9</ele></trkpt>
      <trkpt lat="36.782231" lon="128.210516"><ele>652.0</ele></trkpt>
      <trkpt lat="36.782343" lon="128.210500"><ele>655.0</ele></trkpt>
      <trkpt lat="36.782006" lon="128.209869"><ele>664.9</ele></trkpt>
      <trkpt lat="36.782029" lon="128.209330"><ele>672.4</ele></trkpt>
      <trkpt lat="36.782129" lon="128.209381"><ele>673.0</ele></trkpt>
      <trkpt lat="36.782212" lon="128.209675"><ele>670.6</ele></trkpt>
      <trkpt lat="36.782309" lon="128.209713"><ele>673.9</ele></trkpt>
      <trkpt lat="36.782750" lon="128.209717"><ele>688.3</ele></trkpt>
      <trkpt lat="36.783188" lon="128.209881"><ele>698.1</ele></trkpt>
      <trkpt lat="36.783416" lon="128.209876"><ele>707.4</ele></trkpt>
      <trkpt lat="36.783824" lon="128.209765"><ele>724.2</ele></trkpt>
      <trkpt lat="36.784134" lon="128.209942"><ele>733.9</ele></trkpt>
      <trkpt lat="36.784733" lon="128.210759"><ele>759.4</ele></trkpt>
      <trkpt lat="36.785151" lon="128.211054"><ele>786.7</ele></trkpt>
      <trkpt lat="36.785221" lon="128.211323"><ele>799.0</ele></trkpt>
      <trkpt lat="36.785391" lon="128.211397"><ele>811.4</ele></trkpt>
      <trkpt lat="36.785868" lon="128.211751"><ele>847.8</ele></trkpt>
      <trkpt lat="36.785970" lon="128.211769"><ele>851.6</ele></trkpt>
      <trkpt lat="36.786086" lon="128.211935"><ele>861.7</ele></trkpt>
      <trkpt lat="36.786273" lon="128.212056"><ele>875.0</ele></trkpt>
      <trkpt lat="36.786358" lon="128.212282"><ele>886.5</ele></trkpt>
      <trkpt lat="36.786589" lon="128.212410"><ele>902.2</ele></trkpt>
      <trkpt lat="36.786608" lon="128.212585"><ele>904.6</ele></trkpt>
      <trkpt lat="36.786740" lon="128.212670"><ele>910.4</ele></trkpt>
      <trkpt lat="36.787067" lon="128.212707"><ele>921.6</ele></trkpt>
      <trkpt lat="36.787194" lon="128.212898"><ele>918.3</ele></trkpt>
      <trkpt lat="36.787356" lon="128.212992"><ele>916.4</ele></trkpt>
      <trkpt lat="36.787461" lon="128.213172"><ele>915.8</ele></trkpt>
      <trkpt lat="36.787614" lon="128.214017"><ele>899.4</ele></trkpt>
      <trkpt lat="36.787601" lon="128.214317"><ele>892.6</ele></trkpt>
      <trkpt lat="36.787676" lon="128.214757"><ele>885.3</ele></trkpt>
      <trkpt lat="36.787721" lon="128.215873"><ele>870.2</ele></trkpt>
      <trkpt lat="36.787850" lon="128.216232"><ele>873.4</ele></trkpt>
      <trkpt lat="36.787927" lon="128.217182"><ele>860.6</ele></trkpt>
      <trkpt lat="36.788052" lon="128.217648"><ele>847.1</ele></trkpt>
      <trkpt lat="36.788155" lon="128.218367"><ele>834.7</ele></trkpt>
      <trkpt lat="36.788314" lon="128.218748"><ele>837.0</ele></trkpt>
      <trkpt lat="36.788417" lon="128.219247"><ele>840.8</ele></trkpt>
      <trkpt lat="36.788396" lon="128.219580"><ele>844.3</ele></trkpt>
      <trkpt lat="36.788434" lon="128.219933"><ele>846.6</ele></trkpt>
      <trkpt lat="36.788550" lon="128.220443"><ele>843.8</ele></trkpt>
      <trkpt lat="36.788512" lon="128.220808"><ele>839.9</ele></trkpt>
      <trkpt lat="36.788787" lon="128.221774"><ele>832.1</ele></trkpt>
      <trkpt lat="36.788890" lon="128.222471"><ele>834.9</ele></trkpt>
      <trkpt lat="36.788980" lon="128.222728"><ele>827.0</ele></trkpt>
      <trkpt lat="36.789319" lon="128.223265"><ele>821.6</ele></trkpt>
      <trkpt lat="36.789525" lon="128.223415"><ele>826.5</ele></trkpt>
      <trkpt lat="36.789938" lon="128.223925"><ele>836.4</ele></trkpt>
      <trkpt lat="36.790204" lon="128.224391"><ele>834.1</ele></trkpt>
      <trkpt lat="36.790441" lon="128.224676"><ele>824.0</ele></trkpt>
      <trkpt lat="36.790509" lon="128.225185"><ele>813.4</ele></trkpt>
    </trkseg>
  </trk>
</gpx>
