<?xml version="1.0" encoding="UTF-8"?>
<gpx version="1.1" creator="kr-100-mountains route-harvester"
     xmlns="http://www.topografix.com/GPX/1/1"
     xmlns:k100="https://github.com/jay-jang/kr-100-mountains/ns/1"
     xmlns:xsi="http://www.w3.org/2001/XMLSchema-instance"
     xsi:schemaLocation="http://www.topografix.com/GPX/1/1 http://www.topografix.com/GPX/1/1/gpx.xsd">
  <metadata>
    <name>오봉산 · 청평사 코스 (대안 1) (OSM 계산 경로)</name>
    <desc>실제 GPS 기록이 아닙니다. OpenStreetMap에 등록된 등산로 선형 위에서 계산한 경로이며, 현장 통제·훼손·출입 제한·계절 통제를 반영하지 않을 수 있습니다. 산행 전 공식 안내를 확인하세요.</desc>
    <time>2026-08-04T05:26:33.230Z</time>
    <link href="https://www.openstreetmap.org/copyright"><text>© OpenStreetMap contributors (ODbL 1.0)</text></link>
    <link href="https://registry.opendata.aws/terrain-tiles/"><text>Elevation: SRTM 1 arc-second (NASA/USGS) via AWS Terrain Tiles</text></link>
    <extensions>
      <k100:provenance>osm-routed</k100:provenance>
      <k100:not_a_recorded_track>true</k100:not_a_recorded_track>
      <k100:mountain_id>obongsan</k100:mountain_id>
      <k100:mountain_name>오봉산</k100:mountain_name>
      <k100:route_id>obongsan-c5a4dc1b</k100:route_id>
      <k100:route_index>1</k100:route_index>
      <k100:route_name>청평사 코스</k100:route_name>
      <k100:variant>1</k100:variant>
      <k100:source>OpenStreetMap via Overpass API</k100:source>
      <k100:license>ODbL-1.0</k100:license>
      <k100:attribution>© OpenStreetMap contributors</k100:attribution>
      <k100:elevation_source>SRTM 1 arc-second (NASA/USGS) — AWS Terrain Tiles 배포본. 지형 DEM 추정 고도이며 실측 아님</k100:elevation_source>
      <k100:algorithm>dijkstra-grid-v1</k100:algorithm>
      <k100:osm_snapshot>2026-08-04</k100:osm_snapshot>
      <k100:snap_trailhead_m>43</k100:snap_trailhead_m>
      <k100:snap_summit_m>28</k100:snap_summit_m>
      <k100:validation_score>93</k100:validation_score>
      <k100:validation_status>accepted</k100:validation_status>
    </extensions>
  </metadata>
  <trk>
    <name>오봉산 · 청평사 코스 (대안 1) (OSM 계산 경로)</name>
    <desc>실제 GPS 기록이 아닙니다. OpenStreetMap에 등록된 등산로 선형 위에서 계산한 경로이며, 현장 통제·훼손·출입 제한·계절 통제를 반영하지 않을 수 있습니다. 산행 전 공식 안내를 확인하세요.</desc>
    <trkseg>
      <trkpt lat="37.976796" lon="127.817948"><ele>194.3</ele></trkpt>
      <trkpt lat="37.977156" lon="127.818135"><ele>197.8</ele></trkpt>
      <trkpt lat="37.978594" lon="127.818155"><ele>196.8</ele></trkpt>
      <trkpt lat="37.979490" lon="127.817984"><ele>198.3</ele></trkpt>
      <trkpt lat="37.979928" lon="127.817819"><ele>199.2</ele></trkpt>
      <trkpt lat="37.980119" lon="127.817554"><ele>202.4</ele></trkpt>
      <trkpt lat="37.979763" lon="127.817153"><ele>207.9</ele></trkpt>
      <trkpt lat="37.979300" lon="127.817176"><ele>205.5</ele></trkpt>
      <trkpt lat="37.978735" lon="127.816923"><ele>199.8</ele></trkpt>
      <trkpt lat="37.978676" lon="127.816821"><ele>198.8</ele></trkpt>
      <trkpt lat="37.978689" lon="127.816649"><ele>199.8</ele></trkpt>
      <trkpt lat="37.978806" lon="127.816421"><ele>203.7</ele></trkpt>
      <trkpt lat="37.978909" lon="127.816060"><ele>206.8</ele></trkpt>
      <trkpt lat="37.978939" lon="127.815817"><ele>207.7</ele></trkpt>
      <trkpt lat="37.978893" lon="127.815707"><ele>205.7</ele></trkpt>
      <trkpt lat="37.978491" lon="127.815291"><ele>210.6</ele></trkpt>
      <trkpt lat="37.979084" lon="127.814252"><ele>234.1</ele></trkpt>
      <trkpt lat="37.979788" lon="127.813506"><ele>226.7</ele></trkpt>
      <trkpt lat="37.979947" lon="127.813412"><ele>225.7</ele></trkpt>
      <trkpt lat="37.980137" lon="127.813375"><ele>225.7</ele></trkpt>
      <trkpt lat="37.980544" lon="127.813417"><ele>233.7</ele></trkpt>
      <trkpt lat="37.980691" lon="127.813110"><ele>237.6</ele></trkpt>
      <trkpt lat="37.980923" lon="127.812809"><ele>243.9</ele></trkpt>
      <trkpt lat="37.981104" lon="127.812777"><ele>242.1</ele></trkpt>
      <trkpt lat="37.981414" lon="127.812908"><ele>242.9</ele></trkpt>
      <trkpt lat="37.981563" lon="127.812888"><ele>247.8</ele></trkpt>
      <trkpt lat="37.982122" lon="127.811913"><ele>265.9</ele></trkpt>
      <trkpt lat="37.982406" lon="127.811571"><ele>275.8</ele></trkpt>
      <trkpt lat="37.982696" lon="127.811332"><ele>274.8</ele></trkpt>
      <trkpt lat="37.982759" lon="127.811137"><ele>274.6</ele></trkpt>
      <trkpt lat="37.982760" lon="127.810764"><ele>283.2</ele></trkpt>
      <trkpt lat="37.983103" lon="127.810136"><ele>284.9</ele></trkpt>
      <trkpt lat="37.983304" lon="127.810049"><ele>281.2</ele></trkpt>
      <trkpt lat="37.983619" lon="127.810062"><ele>280.8</ele></trkpt>
      <trkpt lat="37.984386" lon="127.809645"><ele>290.1</ele></trkpt>
      <trkpt lat="37.984564" lon="127.809636"><ele>293.2</ele></trkpt>
      <trkpt lat="37.985424" lon="127.809243"><ele>303.0</ele></trkpt>
      <trkpt lat="37.985569" lon="127.809232"><ele>301.8</ele></trkpt>
      <trkpt lat="37.985775" lon="127.808225"><ele>307.1</ele></trkpt>
      <trkpt lat="37.985959" lon="127.807668"><ele>314.1</ele></trkpt>
      <trkpt lat="37.986299" lon="127.807328"><ele>319.6</ele></trkpt>
      <trkpt lat="37.986916" lon="127.806857"><ele>326.8</ele></trkpt>
      <trkpt lat="37.987519" lon="127.806032"><ele>341.3</ele></trkpt>
      <trkpt lat="37.988061" lon="127.805572"><ele>349.0</ele></trkpt>
      <trkpt lat="37.988286" lon="127.805500"><ele>351.6</ele></trkpt>
      <trkpt lat="37.988320" lon="127.805437"><ele>352.7</ele></trkpt>
      <trkpt lat="37.988466" lon="127.805438"><ele>356.5</ele></trkpt>
      <trkpt lat="37.988568" lon="127.805255"><ele>359.5</ele></trkpt>
      <trkpt lat="37.988714" lon="127.805156"><ele>362.4</ele></trkpt>
      <trkpt lat="37.988699" lon="127.804887"><ele>364.4</ele></trkpt>
      <trkpt lat="37.988908" lon="127.804794"><ele>369.0</ele></trkpt>
      <trkpt lat="37.988951" lon="127.804606"><ele>374.4</ele></trkpt>
      <trkpt lat="37.989019" lon="127.804524"><ele>377.3</ele></trkpt>
      <trkpt lat="37.989435" lon="127.804326"><ele>383.3</ele></trkpt>
      <trkpt lat="37.989798" lon="127.804038"><ele>392.2</ele></trkpt>
      <trkpt lat="37.990058" lon="127.803988"><ele>397.5</ele></trkpt>
      <trkpt lat="37.990374" lon="127.803841"><ele>405.0</ele></trkpt>
      <trkpt lat="37.990432" lon="127.803201"><ele>421.6</ele></trkpt>
      <trkpt lat="37.990562" lon="127.803090"><ele>423.0</ele></trkpt>
      <trkpt lat="37.990639" lon="127.802907"><ele>430.0</ele></trkpt>
      <trkpt lat="37.991200" lon="127.802601"><ele>446.7</ele></trkpt>
      <trkpt lat="37.991341" lon="127.802202"><ele>459.9</ele></trkpt>
      <trkpt lat="37.991552" lon="127.802107"><ele>463.5</ele></trkpt>
      <trkpt lat="37.991885" lon="127.801817"><ele>470.4</ele></trkpt>
      <trkpt lat="37.992094" lon="127.801533"><ele>478.2</ele></trkpt>
      <trkpt lat="37.992180" lon="127.801274"><ele>487.2</ele></trkpt>
      <trkpt lat="37.992306" lon="127.801191"><ele>489.9</ele></trkpt>
      <trkpt lat="37.992598" lon="127.801134"><ele>491.9</ele></trkpt>
      <trkpt lat="37.992830" lon="127.800845"><ele>500.5</ele></trkpt>
      <trkpt lat="37.992904" lon="127.800422"><ele>508.3</ele></trkpt>
      <trkpt lat="37.993111" lon="127.800209"><ele>510.8</ele></trkpt>
      <trkpt lat="37.993590" lon="127.799426"><ele>546.5</ele></trkpt>
      <trkpt lat="37.993915" lon="127.798107"><ele>580.0</ele></trkpt>
      <trkpt lat="37.994055" lon="127.797862"><ele>585.1</ele></trkpt>
      <trkpt lat="37.994330" lon="127.797530"><ele>605.0</ele></trkpt>
      <trkpt lat="37.994382" lon="127.797049"><ele>631.1</ele></trkpt>
      <trkpt lat="37.994299" lon="127.796841"><ele>636.2</ele></trkpt>
      <trkpt lat="37.994366" lon="127.796562"><ele>651.9</ele></trkpt>
      <trkpt lat="37.994554" lon="127.796365"><ele>669.5</ele></trkpt>
      <trkpt lat="37.994996" lon="127.795668"><ele>701.5</ele></trkpt>
      <trkpt lat="37.995406" lon="127.796226"><ele>692.2</ele></trkpt>
      <trkpt lat="37.996097" lon="127.796474"><ele>680.3</ele></trkpt>
      <trkpt lat="37.996613" lon="127.796766"><ele>685.3</ele></trkpt>
      <trkpt lat="37.997036" lon="127.797142"><ele>689.9</ele></trkpt>
      <trkpt lat="37.997416" lon="127.798040"><ele>672.5</ele></trkpt>
      <trkpt lat="37.997417" lon="127.798474"><ele>667.3</ele></trkpt>
      <trkpt lat="37.997531" lon="127.798954"><ele>670.5</ele></trkpt>
      <trkpt lat="37.997686" lon="127.799250"><ele>674.1</ele></trkpt>
      <trkpt lat="37.997665" lon="127.799784"><ele>685.1</ele></trkpt>
      <trkpt lat="37.997983" lon="127.800506"><ele>705.1</ele></trkpt>
      <trkpt lat="37.998154" lon="127.800726"><ele>713.6</ele></trkpt>
      <trkpt lat="37.998272" lon="127.800772"><ele>716.0</ele></trkpt>
      <trkpt lat="37.998455" lon="127.801047"><ele>721.7</ele></trkpt>
      <trkpt lat="37.998620" lon="127.801757"><ele>740.0</ele></trkpt>
      <trkpt lat="37.998718" lon="127.801855"><ele>742.1</ele></trkpt>
      <trkpt lat="37.999275" lon="127.802084"><ele>736.2</ele></trkpt>
      <trkpt lat="38.000093" lon="127.802765"><ele>752.0</ele></trkpt>
      <trkpt lat="38.000285" lon="127.803038"><ele>755.4</ele></trkpt>
      <trkpt lat="38.000286" lon="127.803431"><ele>757.1</ele></trkpt>
      <trkpt lat="38.000387" lon="127.803581"><ele>753.5</ele></trkpt>
      <trkpt lat="38.000490" lon="127.803877"><ele>747.4</ele></trkpt>
      <trkpt lat="38.000558" lon="127.804394"><ele>738.1</ele></trkpt>
      <trkpt lat="38.000642" lon="127.804528"><ele>738.0</ele></trkpt>
      <trkpt lat="38.000718" lon="127.804929"><ele>741.1</ele></trkpt>
      <trkpt lat="38.000816" lon="127.805179"><ele>745.7</ele></trkpt>
      <trkpt lat="38.000797" lon="127.805357"><ele>748.0</ele></trkpt>
      <trkpt lat="38.000611" lon="127.805783"><ele>756.9</ele></trkpt>
      <trkpt lat="38.000546" lon="127.806108"><ele>765.5</ele></trkpt>
    </trkseg>
  </trk>
</gpx>
