<?xml version="1.0" encoding="UTF-8"?>
<gpx version="1.1" creator="kr-100-mountains route-harvester"
     xmlns="http://www.topografix.com/GPX/1/1"
     xmlns:k100="https://github.com/jay-jang/kr-100-mountains/ns/1"
     xmlns:xsi="http://www.w3.org/2001/XMLSchema-instance"
     xsi:schemaLocation="http://www.topografix.com/GPX/1/1 http://www.topografix.com/GPX/1/1/gpx.xsd">
  <metadata>
    <name>오봉산 · 배후령 최단코스 (OSM 계산 경로)</name>
    <desc>실제 GPS 기록이 아닙니다. OpenStreetMap에 등록된 등산로 선형 위에서 계산한 경로이며, 현장 통제·훼손·출입 제한·계절 통제를 반영하지 않을 수 있습니다. 산행 전 공식 안내를 확인하세요.</desc>
    <time>2026-08-04T05:26:33.233Z</time>
    <link href="https://www.openstreetmap.org/copyright"><text>© OpenStreetMap contributors (ODbL 1.0)</text></link>
    <link href="https://registry.opendata.aws/terrain-tiles/"><text>Elevation: SRTM 1 arc-second (NASA/USGS) via AWS Terrain Tiles</text></link>
    <extensions>
      <k100:provenance>osm-routed</k100:provenance>
      <k100:not_a_recorded_track>true</k100:not_a_recorded_track>
      <k100:mountain_id>obongsan</k100:mountain_id>
      <k100:mountain_name>오봉산</k100:mountain_name>
      <k100:route_id>obongsan-1e5ac496</k100:route_id>
      <k100:route_index>2</k100:route_index>
      <k100:route_name>배후령 최단코스</k100:route_name>
      <k100:variant>0</k100:variant>
      <k100:source>OpenStreetMap via Overpass API</k100:source>
      <k100:license>ODbL-1.0</k100:license>
      <k100:attribution>© OpenStreetMap contributors</k100:attribution>
      <k100:elevation_source>SRTM 1 arc-second (NASA/USGS) — AWS Terrain Tiles 배포본. 지형 DEM 추정 고도이며 실측 아님</k100:elevation_source>
      <k100:algorithm>dijkstra-grid-v1</k100:algorithm>
      <k100:osm_snapshot>2026-08-04</k100:osm_snapshot>
      <k100:snap_trailhead_m>4</k100:snap_trailhead_m>
      <k100:snap_summit_m>28</k100:snap_summit_m>
      <k100:validation_score>93</k100:validation_score>
      <k100:validation_status>accepted</k100:validation_status>
    </extensions>
  </metadata>
  <trk>
    <name>오봉산 · 배후령 최단코스 (OSM 계산 경로)</name>
    <desc>실제 GPS 기록이 아닙니다. OpenStreetMap에 등록된 등산로 선형 위에서 계산한 경로이며, 현장 통제·훼손·출입 제한·계절 통제를 반영하지 않을 수 있습니다. 산행 전 공식 안내를 확인하세요.</desc>
    <trkseg>
      <trkpt lat="37.994380" lon="127.790210"><ele>605.5</ele></trkpt>
      <trkpt lat="37.994231" lon="127.790311"><ele>605.0</ele></trkpt>
      <trkpt lat="37.994234" lon="127.790393"><ele>606.5</ele></trkpt>
      <trkpt lat="37.994255" lon="127.790473"><ele>607.9</ele></trkpt>
      <trkpt lat="37.994436" lon="127.790381"><ele>607.4</ele></trkpt>
      <trkpt lat="37.994485" lon="127.790488"><ele>608.3</ele></trkpt>
      <trkpt lat="37.994501" lon="127.790622"><ele>609.8</ele></trkpt>
      <trkpt lat="37.994400" lon="127.790852"><ele>614.7</ele></trkpt>
      <trkpt lat="37.994493" lon="127.790909"><ele>614.6</ele></trkpt>
      <trkpt lat="37.994444" lon="127.791029"><ele>617.5</ele></trkpt>
      <trkpt lat="37.994335" lon="127.791171"><ele>622.3</ele></trkpt>
      <trkpt lat="37.994197" lon="127.791238"><ele>625.8</ele></trkpt>
      <trkpt lat="37.994065" lon="127.791210"><ele>627.1</ele></trkpt>
      <trkpt lat="37.993947" lon="127.791492"><ele>642.0</ele></trkpt>
      <trkpt lat="37.993369" lon="127.792023"><ele>684.0</ele></trkpt>
      <trkpt lat="37.993120" lon="127.792527"><ele>703.6</ele></trkpt>
      <trkpt lat="37.993109" lon="127.793127"><ele>716.2</ele></trkpt>
      <trkpt lat="37.993210" lon="127.793297"><ele>715.5</ele></trkpt>
      <trkpt lat="37.993362" lon="127.793398"><ele>714.5</ele></trkpt>
      <trkpt lat="37.993397" lon="127.793541"><ele>716.1</ele></trkpt>
      <trkpt lat="37.993481" lon="127.793637"><ele>717.0</ele></trkpt>
      <trkpt lat="37.993751" lon="127.793701"><ele>718.0</ele></trkpt>
      <trkpt lat="37.993975" lon="127.793828"><ele>719.8</ele></trkpt>
      <trkpt lat="37.994038" lon="127.793922"><ele>720.4</ele></trkpt>
      <trkpt lat="37.994029" lon="127.794022"><ele>720.7</ele></trkpt>
      <trkpt lat="37.994311" lon="127.794522"><ele>713.5</ele></trkpt>
      <trkpt lat="37.994772" lon="127.794809"><ele>708.2</ele></trkpt>
      <trkpt lat="37.994901" lon="127.795194"><ele>703.8</ele></trkpt>
      <trkpt lat="37.994926" lon="127.795618"><ele>700.9</ele></trkpt>
      <trkpt lat="37.995065" lon="127.795716"><ele>701.2</ele></trkpt>
      <trkpt lat="37.995406" lon="127.796226"><ele>692.2</ele></trkpt>
      <trkpt lat="37.996097" lon="127.796474"><ele>680.3</ele></trkpt>
      <trkpt lat="37.996613" lon="127.796766"><ele>685.3</ele></trkpt>
      <trkpt lat="37.997036" lon="127.797142"><ele>689.9</ele></trkpt>
      <trkpt lat="37.997416" lon="127.798040"><ele>672.5</ele></trkpt>
      <trkpt lat="37.997417" lon="127.798474"><ele>667.3</ele></trkpt>
      <trkpt lat="37.997531" lon="127.798954"><ele>670.5</ele></trkpt>
      <trkpt lat="37.997686" lon="127.799250"><ele>674.1</ele></trkpt>
      <trkpt lat="37.997665" lon="127.799784"><ele>685.1</ele></trkpt>
      <trkpt lat="37.997983" lon="127.800506"><ele>705.1</ele></trkpt>
      <trkpt lat="37.998154" lon="127.800726"><ele>713.6</ele></trkpt>
      <trkpt lat="37.998272" lon="127.800772"><ele>716.0</ele></trkpt>
      <trkpt lat="37.998455" lon="127.801047"><ele>721.7</ele></trkpt>
      <trkpt lat="37.998620" lon="127.801757"><ele>740.0</ele></trkpt>
      <trkpt lat="37.998718" lon="127.801855"><ele>742.1</ele></trkpt>
      <trkpt lat="37.999275" lon="127.802084"><ele>736.2</ele></trkpt>
      <trkpt lat="38.000093" lon="127.802765"><ele>752.0</ele></trkpt>
      <trkpt lat="38.000285" lon="127.803038"><ele>755.4</ele></trkpt>
      <trkpt lat="38.000286" lon="127.803431"><ele>757.1</ele></trkpt>
      <trkpt lat="38.000387" lon="127.803581"><ele>753.5</ele></trkpt>
      <trkpt lat="38.000490" lon="127.803877"><ele>747.4</ele></trkpt>
      <trkpt lat="38.000558" lon="127.804394"><ele>738.1</ele></trkpt>
      <trkpt lat="38.000642" lon="127.804528"><ele>738.0</ele></trkpt>
      <trkpt lat="38.000718" lon="127.804929"><ele>741.1</ele></trkpt>
      <trkpt lat="38.000816" lon="127.805179"><ele>745.7</ele></trkpt>
      <trkpt lat="38.000797" lon="127.805357"><ele>748.0</ele></trkpt>
      <trkpt lat="38.000611" lon="127.805783"><ele>756.9</ele></trkpt>
      <trkpt lat="38.000546" lon="127.806108"><ele>765.5</ele></trkpt>
    </trkseg>
  </trk>
</gpx>
